{"type":"Feature","properties":{"GID_1":"KNA.1_1","GID_0":"KNA","country":"SaintKittsandNevis","province":"ChristChurchNicholaTown","VARNAME_1":"NA","NL_NAME_1":"NA","TYPE_1":"Parish","ENGTYPE_1":"Parish","CC_1":"NA","HASC_1":"KN.CC","ISO_1":"KN-01","name":"Christ_Church_Nichola_Town.province"},
"geometry":{"type": "MultiPolygon","coordinates": [[[[-62.7651,17.3907,0.0],[-62.7756,17.3826,107.2887],[-62.7772,17.3749,245.7919],[-62.7941,17.3549,647.1991],[-62.788,17.3481,583.4222],[-62.7863,17.3435,443.4756],[-62.7674,17.3364,800.1041],[-62.7597,17.3351,683.2722],[-62.7604,17.3509,329.8672],[-62.7531,17.3581,175.7104],[-62.7528,17.3632,116.3491],[-62.7429,17.3722,25.1211],[-62.741,17.3768,5.8962],[-62.7435,17.3762,17.1821],[-62.7463,17.3804,0.0],[-62.7496,17.3799,15.2024],[-62.7529,17.3815,19.94],[-62.7537,17.384,0.0],[-62.7565,17.3832,21.3391],[-62.7651,17.3907,0.0]]]]}}