{"type":"Feature","properties":{"ISO3166-1-Alpha-3":"KNA","country":"Saint Kitts and Nevis","fill":"#F0F","id":"5099","name":"Christ Church Nichola Town"},
"geometry":{"type": "Polygon","coordinates": [[[-62.73051,17.36461,24.5674],[-62.76942,17.387,40.204],[-62.77648,17.3745,219.4335],[-62.77518,17.36736,314.849],[-62.78751,17.34985,667.508],[-62.78037,17.34206,542.2757],[-62.77908,17.33557,561.8398],[-62.75442,17.33103,554.3778],[-62.74534,17.33103,351.5818],[-62.74599,17.34401,261.5161],[-62.74145,17.35439,157.2753],[-62.73756,17.36087,101.6564],[-62.73051,17.36461,24.5674]]]}}