{"type": "Feature","bbox": [-73.0728,18.2582,-72.8058,18.4682],"geometry": {"type": "MultiPolygon","coordinates": [[[[-72.8433,18.3447,1138.1025],[-72.8429,18.3485,1287.623],[-72.8253,18.353,1122.0023],[-72.8248,18.3552,1069.6721],[-72.8313,18.3647,1014.777],[-72.8245,18.3684,882.3372],[-72.8208,18.3691,823.8181],[-72.8165,18.364,833.6035],[-72.8158,18.3598,998.7716],[-72.8087,18.359,946.1594],[-72.8058,18.3642,807.5328],[-72.8081,18.3698,800.2626],[-72.8145,18.3697,709.6525],[-72.8215,18.3758,983.1484],[-72.8192,18.3772,873.2676],[-72.8195,18.3811,821.4665],[-72.8142,18.3891,749.2197],[-72.8163,18.3927,621.9741],[-72.8142,18.3975,587.5304],[-72.8158,18.4046,594.1064],[-72.814,18.4072,461.3022],[-72.815,18.4168,258.1216],[-72.8187,18.4226,144.0207],[-72.8255,18.4254,119.0428],[-72.8303,18.4364,111.8615],[-72.8335,18.4394,55.8433],[-72.8337,18.4432,20.7444],[-72.8492,18.4448,0.0],[-72.8565,18.4432,3.0296],[-72.8682,18.4343,0.0],[-72.8753,18.4255,0.0],[-72.8799,18.4247,1.5445],[-72.8901,18.4263,0.0],[-72.8921,18.4251,3.148],[-72.8979,18.4308,1.0461],[-72.8988,18.4374,0.1756],[-72.9024,18.4405,0.0],[-72.9006,18.4432,0.1163],[-72.8927,18.441,0.2551],[-72.89,18.4423,0.0],[-72.8938,18.4437,0.4176],[-72.894,18.4468,0.0],[-72.896,18.4482,10.7571],[-72.9112,18.4493,2.0918],[-72.9149,18.4529,0.0],[-72.9226,18.4543,8.0775],[-72.9301,18.4579,3.2145],[-72.9351,18.4568,36.0159],[-72.9424,18.4596,5.1498],[-72.9546,18.4613,6.7178],[-72.9624,18.4649,0.0],[-72.9718,18.4662,1.2036],[-72.9818,18.4654,13.0552],[-72.9868,18.4682,14.3994],[-72.9929,18.4676,0.0],[-72.9956,18.4649,8.5392],[-73.001,18.464,0.0],[-73.0049,18.4657,0.0],[-73.0193,18.466,0.0],[-73.0343,18.4626,1.1191],[-73.0404,18.4651,13.5225],[-73.0423,18.4647,12.7516],[-73.044,18.4613,6.8184],[-73.0507,18.461,2.0659],[-73.0534,18.4562,155.7181],[-73.0547,18.4523,162.3306],[-73.0539,18.4498,159.3935],[-73.0486,18.4454,213.4244],[-73.0445,18.4374,198.2168],[-73.0483,18.4353,126.5037],[-73.0519,18.4354,112.9635],[-73.054,18.4332,41.8132],[-73.0513,18.4307,71.6042],[-73.0499,18.4253,17.0],[-73.0555,18.4129,17.0],[-73.0589,18.4113,17.0],[-73.0605,18.4082,17.0],[-73.0635,18.3958,17.0],[-73.0728,18.3918,17.6897],[-73.0714,18.3855,89.9353],[-73.0501,18.3832,177.5117],[-73.0494,18.3848,112.0304],[-73.0312,18.389,107.589],[-73.0236,18.3874,164.358],[-73.019,18.383,159.1842],[-73.0256,18.3746,340.5582],[-73.0147,18.3668,485.1902],[-73.0109,18.3606,479.6272],[-73.0137,18.3524,587.3859],[-73.0187,18.351,491.9747],[-73.0201,18.3484,530.8142],[-73.0172,18.3416,479.6878],[-73.0131,18.3361,417.4939],[-73.0006,18.329,600.7977],[-72.9967,18.3239,578.9299],[-72.9937,18.3269,648.89],[-72.9868,18.3207,708.3911],[-72.9868,18.3107,593.2739],[-72.9845,18.3087,526.056],[-72.9841,18.3045,515.4967],[-72.9818,18.3009,433.0143],[-72.9774,18.2985,379.7563],[-72.9775,18.2924,372.8524],[-72.9751,18.2877,367.3805],[-72.9646,18.2773,338.543],[-72.9605,18.2769,340.6854],[-72.9582,18.2783,338.6384],[-72.9529,18.2934,489.4239],[-72.9428,18.2943,644.8127],[-72.9406,18.2904,735.4565],[-72.9348,18.2927,599.7599],[-72.9327,18.2876,478.9536],[-72.9295,18.2866,343.338],[-72.9231,18.2898,319.2341],[-72.9197,18.2885,361.7497],[-72.9135,18.2907,373.7872],[-72.8996,18.2915,644.8463],[-72.8897,18.295,736.0692],[-72.8903,18.2923,758.5782],[-72.8962,18.2877,740.2732],[-72.8949,18.2862,673.5753],[-72.8911,18.2824,446.3348],[-72.8831,18.2813,428.915],[-72.8838,18.2764,460.923],[-72.8755,18.2697,339.3664],[-72.8694,18.2671,472.9956],[-72.8666,18.2636,541.9391],[-72.8593,18.259,276.5054],[-72.8534,18.2582,248.9865],[-72.8505,18.2609,373.6235],[-72.8506,18.2633,383.8047],[-72.856,18.2735,484.707],[-72.8562,18.2811,549.2155],[-72.8414,18.283,529.636],[-72.8314,18.2822,461.8468],[-72.8275,18.2893,499.6213],[-72.8328,18.2946,595.9102],[-72.8335,18.2978,827.4596],[-72.8453,18.2999,918.4587],[-72.8418,18.3033,743.8801],[-72.8391,18.3089,676.9817],[-72.8365,18.3082,752.5354],[-72.8363,18.3113,772.3757],[-72.8291,18.3141,866.2209],[-72.8321,18.3189,905.3884],[-72.8468,18.3243,901.0034],[-72.8489,18.3271,874.2134],[-72.8494,18.3293,875.7753],[-72.8457,18.3311,1011.5255],[-72.847,18.3341,1069.8053],[-72.8429,18.3388,1222.6609],[-72.8433,18.3447,1138.1025]]]]}
,"properties": {"GID_3": "HTI.8.4.3_1","GID_0": "HTI","country": "Haiti","GID_1": "HTI.8_1","province": "Ouest","NL_NAME_1": "NA","GID_2": "HTI.8.4_1","county": "Léogâne","NL_NAME_2": "NA","city": "Petit-Goâve","VARNAME_3": "NA","NL_NAME_3": "NA","TYPE_3": "Commune","ENGTYPE_3": "Commune","CC_3": "NA","HASC_3": "NA","name": "Petit-Goâve.city","area_km2": 391.4334,"hist_schema_id": "Elevation0-9000","hist_area_km2": {"0": 6.9796,"25": 38.5031,"50": 18.2851,"75": 12.2906,"100": 11.4054,"125": 10.3392,"150": 9.3737,"175": 8.5088,"200": 7.5837,"225": 7.1613,"250": 8.1872,"275": 7.242,"300": 6.8197,"325": 6.3571,"350": 6.4985,"375": 6.519,"400": 7.8474,"425": 7.0426,"450": 7.1841,"475": 7.0433,"500": 7.5067,"525": 7.3859,"550": 8.0501,"575": 8.2916,"600": 8.4929,"625": 9.7811,"650": 10.5057,"675": 9.5999,"700": 9.9219,"725": 10.8675,"750": 10.646,"775": 10.9076,"800": 9.5996,"825": 9.1769,"850": 8.1102,"875": 7.2247,"900": 7.265,"925": 6.0776,"950": 6.3996,"975": 5.2726,"1000": 5.0512,"1025": 4.0451,"1050": 3.864,"1075": 2.2541,"1100": 1.3081,"1125": 1.1068,"1150": 0.5635,"1175": 0.5433,"1200": 0.1409,"1225": 0.1207,"1250": 0.1006,"1275": 0.0201,"1300": 0.0604}}}