{"type": "Feature","bbox": [-76.0623,20.4821,-75.827,20.7591],"geometry": {"type": "MultiPolygon","coordinates": [[[[-76.0623,20.673,128.4612],[-76.0611,20.6535,147.8054],[-76.0543,20.6356,165.6471],[-76.052,20.6048,111.751],[-76.0461,20.5901,104.246],[-76.0398,20.5902,107.4593],[-76.0291,20.5862,110.388],[-76.0024,20.565,137.3332],[-75.9943,20.5621,124.5521],[-75.9663,20.5592,89.126],[-75.9597,20.5549,84.7717],[-75.9584,20.5508,79.0807],[-75.9609,20.5333,86.2001],[-75.9595,20.526,87.0069],[-75.9545,20.5237,85.6138],[-75.9281,20.5222,76.4104],[-75.9218,20.5199,74.2864],[-75.9162,20.5156,79.5646],[-75.9142,20.5112,81.0799],[-75.9141,20.5032,95.8334],[-75.9175,20.4821,98.439],[-75.8638,20.5342,258.6316],[-75.8511,20.559,176.7955],[-75.8381,20.575,116.0505],[-75.8287,20.5929,201.6247],[-75.827,20.6248,73.88],[-75.829,20.6406,44.932],[-75.8412,20.661,17.8494],[-75.8615,20.6711,23.8196],[-75.879,20.6752,27.884],[-75.8862,20.6809,32.0763],[-75.9002,20.7069,28.8849],[-75.9134,20.7229,26.2286],[-75.9312,20.7591,30.3805],[-75.9558,20.7149,33.665],[-75.9683,20.6739,55.1483],[-75.9775,20.6594,69.077],[-75.9892,20.6565,63.9757],[-76.0138,20.6575,69.0185],[-76.0623,20.673,128.4612]]]]}
,"properties": {"GID_2": "CUB.7.6_1","GID_0": "CUB","country": "Cuba","GID_1": "CUB.7_1","province": "Holguín","NL_NAME_1": "NA","county": "Cueto","VARNAME_2": "NA","NL_NAME_2": "NA","TYPE_2": "Municipio","ENGTYPE_2": "Municipality","CC_2": "NA","HASC_2": "CU.HO.CU","name": "Cueto.county","area_km2": 359.7994,"hist_schema_id": "Elevation0-9000","hist_area_km2": {"0": 0.0794,"25": 67.2275,"50": 104.4548,"75": 90.9032,"100": 35.4495,"125": 24.1743,"150": 15.2222,"175": 16.9096,"200": 4.8825,"225": 0.3574,"250": 0.0794,"275": 0.0397,"300": 0.0199}}}