{"type":"Feature","properties":{"GID_3":"HTI.1.2.2_1","GID_0":"HTI","country":"Haiti","GID_1":"HTI.1_1","province":"Centre","NL_NAME_1":"NA","GID_2":"HTI.1.2_1","county":"Hinche","NL_NAME_2":"NA","city":"Hinche","VARNAME_3":"NA","NL_NAME_3":"NA","TYPE_3":"Commune","ENGTYPE_3":"Commune","CC_3":"NA","HASC_3":"NA","name":"Hinche.city"},
"geometry":{"type": "MultiPolygon","coordinates": [[[[-71.9188,19.0874,224.4948],[-71.919,19.0947,206.9505],[-71.9125,19.0988,234.1434],[-71.9045,19.0997,236.8067],[-71.8884,19.1062,300.2805],[-71.8826,19.1136,303.3445],[-71.8817,19.1204,294.0523],[-71.8739,19.1363,305.423],[-71.867,19.1402,323.8538],[-71.8546,19.1574,428.0053],[-71.855,19.1609,460.9437],[-71.8615,19.1693,534.2594],[-71.8604,19.1785,688.5123],[-71.8645,19.1822,696.2486],[-71.8656,19.1866,698.7161],[-71.8696,19.1874,718.4886],[-71.87,19.1889,714.8495],[-71.8749,19.1878,671.3973],[-71.8832,19.2001,761.6037],[-71.8865,19.2022,768.4324],[-71.8898,19.1998,696.6292],[-71.9001,19.1986,742.2743],[-71.9048,19.1933,702.7029],[-71.916,19.1886,614.3235],[-71.9182,19.1861,607.3314],[-71.9284,19.1854,596.4942],[-71.9384,19.1886,556.3331],[-71.9479,19.1981,576.4432],[-71.9507,19.1968,516.2421],[-71.9531,19.1978,540.7257],[-71.9569,19.2013,541.4415],[-71.9575,19.2065,546.2601],[-71.9602,19.2049,550.4055],[-71.9619,19.2056,568.8804],[-71.9728,19.2195,492.117],[-71.9715,19.2245,551.8203],[-71.9749,19.2239,437.7891],[-71.9763,19.2255,422.3076],[-71.9731,19.2466,398.1181],[-71.9794,19.2549,438.4185],[-71.989,19.2596,487.9916],[-71.9961,19.2672,483.5987],[-72.0027,19.27,475.8656],[-71.9998,19.274,483.6432],[-72.0065,19.2791,541.223],[-72.0097,19.286,626.0706],[-72.0157,19.2911,657.0092],[-72.0173,19.2934,659.0103],[-72.0172,19.2985,703.0116],[-72.0246,19.2984,607.347],[-72.0309,19.3073,431.4639],[-72.0339,19.3051,438.8523],[-72.0435,19.3041,410.5209],[-72.0483,19.3001,411.4941],[-72.0563,19.2976,381.4094],[-72.0634,19.2904,361.491],[-72.0699,19.2877,352.1866],[-72.0709,19.2852,357.7661],[-72.0806,19.2812,330.3818],[-72.0814,19.2775,315.7429],[-72.0853,19.2765,307.9588],[-72.0902,19.2698,293.5565],[-72.0939,19.2688,297.4085],[-72.0946,19.2666,281.526],[-72.1079,19.2664,341.5606],[-72.1131,19.2644,350.8877],[-72.1187,19.2652,349.1931],[-72.1246,19.2629,362.9298],[-72.135,19.2549,397.8594],[-72.1224,19.2475,360.1031],[-72.1199,19.2391,357.5098],[-72.1159,19.2351,352.2252],[-72.1088,19.2336,330.1498],[-72.1029,19.2255,306.929],[-72.0948,19.2257,302.1053],[-72.0913,19.2222,299.0041],[-72.0819,19.1992,290.7682],[-72.0857,19.1952,272.7352],[-72.0838,19.1894,274.5067],[-72.0859,19.1868,265.767],[-72.0858,19.1749,268.4391],[-72.0953,19.1606,277.4805],[-72.1063,19.1525,297.4372],[-72.1068,19.1445,283.4355],[-72.1134,19.1379,306.0608],[-72.1186,19.137,341.04],[-72.1222,19.1328,328.3875],[-72.1251,19.1251,359.1917],[-72.1252,19.1187,397.3975],[-72.1317,19.1115,450.696],[-72.1354,19.1036,614.7808],[-72.1389,19.1024,628.7805],[-72.1509,19.1102,564.5573],[-72.1597,19.1048,412.3148],[-72.1686,19.1031,550.4803],[-72.1758,19.088,754.1541],[-72.179,19.0855,749.1664],[-72.1852,19.0885,745.4905],[-72.1879,19.0868,803.5618],[-72.1905,19.072,1184.7537],[-72.1765,19.0584,1162.5598],[-72.1723,19.0517,1188.9602],[-72.1665,19.0472,1311.7324],[-72.1622,19.0396,1335.5967],[-72.1546,19.032,1322.3615],[-72.1415,19.0225,1172.0515],[-72.137,19.0159,1086.965],[-72.1315,19.0236,894.9055],[-72.1166,19.0297,651.7766],[-72.1131,19.0333,669.6176],[-72.1048,19.0327,820.3532],[-72.1004,19.0408,827.5737],[-72.095,19.0453,749.4583],[-72.089,19.0602,631.7708],[-72.0836,19.0613,608.3153],[-72.0813,19.0588,676.2432],[-72.0822,19.055,745.3527],[-72.081,19.053,752.1016],[-72.0792,19.0544,694.566],[-72.0772,19.0529,713.269],[-72.0674,19.0576,707.4092],[-72.0639,19.0546,749.4057],[-72.0588,19.0554,759.8522],[-72.0435,19.061,808.6239],[-72.0353,19.0601,830.679],[-72.0307,19.0546,757.1245],[-72.0252,19.054,796.5657],[-72.0149,19.0589,601.1774],[-72.0111,19.0652,398.1505],[-72.0075,19.0616,358.6426],[-71.9996,19.06,327.6314],[-71.9833,19.052,319.8485],[-71.963,19.0379,298.9132],[-71.9538,19.0342,313.6024],[-71.9388,19.0243,269.1811],[-71.9384,19.0214,264.467],[-71.9313,19.017,243.9941],[-71.918,19.0237,268.048],[-71.9109,19.0205,247.1152],[-71.9058,19.0251,262.5069],[-71.9043,19.0316,241.2699],[-71.8986,19.0361,210.4749],[-71.9011,19.0413,206.2909],[-71.9038,19.0421,202.0044],[-71.9056,19.0468,209.5934],[-71.8981,19.0498,223.0054],[-71.9007,19.0549,217.2555],[-71.9109,19.0551,232.7072],[-71.9047,19.0618,220.2437],[-71.9047,19.0642,223.3976],[-71.9083,19.0689,213.7403],[-71.9137,19.0701,224.8083],[-71.9129,19.0753,208.3031],[-71.9097,19.08,218.3297],[-71.9156,19.0835,210.9901],[-71.9151,19.0869,217.6488],[-71.9188,19.0874,224.4948]]]]}}