{"type":"Feature","properties":{"GID_1":"PRI.38_1","GID_0":"PRI","country":"PuertoRico","province":"Jayuya","VARNAME_1":"NA","NL_NAME_1":"NA","TYPE_1":"Municipio","ENGTYPE_1":"Municipality","CC_1":"NA","HASC_1":"PR.JY","ISO_1":"NA","name":"Jayuya.province"},
"geometry":{"type": "MultiPolygon","coordinates": [[[[-66.5668,18.2984,225.7531],[-66.5733,18.2946,405.8467],[-66.5783,18.2841,473.1717],[-66.5899,18.2831,390.4779],[-66.595,18.2849,384.772],[-66.5986,18.282,414.4448],[-66.5958,18.2763,440.9487],[-66.599,18.2668,500.9872],[-66.5999,18.252,667.7542],[-66.6174,18.2476,904.7362],[-66.6197,18.2495,908.748],[-66.6225,18.249,913.5408],[-66.6253,18.2471,916.8763],[-66.6265,18.2299,433.0286],[-66.6297,18.2208,462.0681],[-66.6338,18.2112,507.2355],[-66.6398,18.2069,575.907],[-66.6439,18.1945,600.6735],[-66.6419,18.1835,574.6411],[-66.6521,18.1825,915.4375],[-66.6506,18.1606,777.4235],[-66.6394,18.1521,766.1718],[-66.6316,18.1507,782.9192],[-66.6298,18.1578,780.6771],[-66.6159,18.1589,853.2216],[-66.6053,18.1666,995.6852],[-66.5961,18.1714,1165.1309],[-66.591,18.1719,1248.2573],[-66.5749,18.1682,1301.8562],[-66.5674,18.1597,1229.8748],[-66.5591,18.1535,1159.6237],[-66.5526,18.1521,1192.4457],[-66.547,18.1531,1169.0763],[-66.5384,18.1761,1200.533],[-66.5324,18.1771,1218.9292],[-66.531,18.1804,1215.1053],[-66.5366,18.188,945.3536],[-66.533,18.1971,1078.6644],[-66.5377,18.2128,1101.3022],[-66.5493,18.2208,1047.3147],[-66.5554,18.2375,775.0599],[-66.5647,18.2427,670.9316],[-66.5624,18.2537,576.9539],[-66.5559,18.2537,561.4231],[-66.5556,18.2694,442.6154],[-66.5584,18.2756,363.5765],[-66.5547,18.2814,349.0368],[-66.5608,18.2937,238.7128],[-66.5668,18.2984,225.7531]]]]}}