{"type":"Feature","properties":{"GID_2":"CUB.4.1_1","GID_0":"CUB","country":"Cuba","GID_1":"CUB.4_1","province":"CiudaddelaHabana","NL_NAME_1":"NA","county":"ArroyoNaranjo","VARNAME_2":"NA","NL_NAME_2":"NA","TYPE_2":"Municipio","ENGTYPE_2":"Municipality","CC_2":"NA","HASC_2":"CU.CH.AN","name":"Arroyo_Naranjo.county"},
"geometry":{"type": "MultiPolygon","coordinates": [[[[-82.2469,22.9488,167.8162],[-82.2431,22.9607,137.6689],[-82.2438,22.9673,123.2473],[-82.2629,22.9877,103.7407],[-82.2664,22.9944,103.3803],[-82.2654,23.0017,88.5437],[-82.2581,23.0122,82.6414],[-82.3018,23.0345,71.5407],[-82.3072,23.0394,74.9073],[-82.3505,23.0401,77.2898],[-82.3358,23.0008,75.778],[-82.3265,22.9859,93.2948],[-82.3123,22.9781,104.9749],[-82.2929,22.973,109.0649],[-82.2756,22.9613,181.7174],[-82.2469,22.9488,167.8162]]]]}}