{"type":"Feature","properties":{"GID_3":"HTI.1.2.4_1","GID_0":"HTI","country":"Haiti","GID_1":"HTI.1_1","province":"Centre","NL_NAME_1":"NA","GID_2":"HTI.1.2_1","county":"Hinche","NL_NAME_2":"NA","city":"Thomonde","VARNAME_3":"NA","NL_NAME_3":"NA","TYPE_3":"Commune","ENGTYPE_3":"Commune","CC_3":"NA","HASC_3":"NA","name":"Thomonde.city"},
"geometry":{"type": "MultiPolygon","coordinates": [[[[-71.8625,18.9787,201.266],[-71.863,18.9831,181.7254],[-71.8681,18.9818,175.7834],[-71.875,18.9845,184.8521],[-71.8744,18.9864,187.0459],[-71.869,18.9879,204.6965],[-71.8696,18.9909,221.886],[-71.8662,18.9945,204.33],[-71.871,18.9938,184.2727],[-71.8723,18.9955,198.4348],[-71.8689,18.9985,206.1934],[-71.868,19.0015,188.4996],[-71.8707,19.0025,195.656],[-71.8705,19.0053,201.7263],[-71.8663,19.0069,219.3777],[-71.8667,19.0131,192.0921],[-71.8575,19.0174,217.4517],[-71.8564,19.0218,192.952],[-71.8603,19.0261,217.7073],[-71.8648,19.024,210.7196],[-71.8649,19.0348,209.103],[-71.8709,19.0346,195.0443],[-71.8727,19.0281,234.6941],[-71.8764,19.0267,250.7601],[-71.8778,19.0353,196.9469],[-71.8827,19.0359,227.4186],[-71.8879,19.0327,213.2699],[-71.8894,19.0385,211.5323],[-71.8909,19.0394,198.6898],[-71.8931,19.0361,213.9928],[-71.8986,19.0361,210.4749],[-71.9043,19.0316,241.2699],[-71.9058,19.0251,262.5069],[-71.9109,19.0205,247.1152],[-71.918,19.0237,268.048],[-71.9313,19.017,243.9941],[-71.9384,19.0214,264.467],[-71.9388,19.0243,269.1811],[-71.9538,19.0342,313.6024],[-71.963,19.0379,298.9132],[-71.9833,19.052,319.8485],[-71.9996,19.06,327.6314],[-72.0075,19.0616,358.6426],[-72.0111,19.0652,398.1505],[-72.0149,19.0589,601.1774],[-72.0252,19.054,796.5657],[-72.0307,19.0546,757.1245],[-72.0353,19.0601,830.679],[-72.0435,19.061,808.6239],[-72.0588,19.0554,759.8522],[-72.0639,19.0546,749.4057],[-72.0674,19.0576,707.4092],[-72.0772,19.0529,713.269],[-72.0792,19.0544,694.566],[-72.081,19.053,752.1016],[-72.0822,19.055,745.3527],[-72.0813,19.0588,676.2432],[-72.0836,19.0613,608.3153],[-72.089,19.0602,631.7708],[-72.095,19.0453,749.4583],[-72.1004,19.0408,827.5737],[-72.1048,19.0327,820.3532],[-72.1131,19.0333,669.6176],[-72.1166,19.0297,651.7766],[-72.1231,19.0277,643.147],[-72.1177,19.0257,612.0277],[-72.1182,19.0149,583.735],[-72.1149,19.0158,642.4085],[-72.1127,19.0131,576.7225],[-72.109,19.012,553.5449],[-72.1097,19.0086,587.0536],[-72.1054,19.0091,586.8455],[-72.1049,19.008,558.1706],[-72.1065,19.0072,560.0414],[-72.1018,19.0018,599.1503],[-72.0977,18.9919,678.7491],[-72.098,18.9841,688.7493],[-72.0965,18.9807,670.7521],[-72.0925,18.977,703.9254],[-72.0802,18.973,685.4232],[-72.075,18.9605,608.9038],[-72.0694,18.9602,609.1542],[-72.0642,18.9568,596.9858],[-72.0637,18.9506,610.0936],[-72.0603,18.9436,629.1316],[-72.0519,18.9382,689.9936],[-72.048,18.933,642.9512],[-72.0435,18.9321,660.4771],[-72.0417,18.9373,633.7181],[-72.0316,18.9433,592.2382],[-72.0281,18.9436,642.863],[-72.0212,18.9407,612.4504],[-72.0157,18.9434,516.2839],[-72.0119,18.9431,487.4033],[-72.0082,18.9421,461.6666],[-72.004,18.9355,454.6938],[-71.9984,18.9364,417.9147],[-71.9991,18.9414,405.1221],[-72.007,18.9539,443.1307],[-72.0076,18.9584,430.3552],[-72.0046,18.963,403.0702],[-72.0008,18.9616,417.2705],[-71.9993,18.9629,409.8594],[-72.0005,18.9665,333.8253],[-71.9969,18.9686,333.8784],[-71.9747,18.9564,382.0537],[-71.9693,18.9569,395.3345],[-71.9687,18.9553,382.2089],[-71.9733,18.9521,311.2563],[-71.9744,18.9485,378.9966],[-71.9678,18.9448,331.1561],[-71.9562,18.9431,297.3555],[-71.9514,18.9407,284.4291],[-71.9394,18.9519,260.5242],[-71.9255,18.9495,195.53],[-71.9211,18.9463,215.0293],[-71.9176,18.9457,238.8201],[-71.9152,18.9487,203.2547],[-71.907,18.9527,241.7472],[-71.8934,18.9525,211.2718],[-71.8902,18.9537,188.2425],[-71.8833,18.9514,178.8932],[-71.8831,18.9426,172.8873],[-71.8797,18.9417,188.1651],[-71.8763,18.9455,175.0966],[-71.8785,18.9461,180.0129],[-71.879,18.9568,191.2406],[-71.8748,18.9582,198.9924],[-71.8746,18.9601,177.8601],[-71.8711,18.9612,223.863],[-71.8699,18.964,210.7482],[-71.8719,18.9752,191.1901],[-71.8625,18.9787,201.266]]]]}}