{"type": "Feature","bbox": [-64.4165,18.6882,-64.2704,18.7496],"geometry": {"type": "MultiPolygon","coordinates": [[[[-64.334,18.7496,0.8516],[-64.3401,18.7476,1.7753],[-64.3451,18.7412,1.8132],[-64.3518,18.7418,3.9074],[-64.3565,18.7443,0.7025],[-64.3696,18.7421,0.0],[-64.3796,18.7476,2.6535],[-64.3887,18.7488,0.0],[-64.3951,18.7446,3.4119],[-64.4021,18.7457,0.0],[-64.4062,18.7437,4.8542],[-64.4099,18.7463,0.8712],[-64.4126,18.746,0.0],[-64.416,18.7432,0.0],[-64.4165,18.7399,0.0],[-64.4093,18.736,3.3486],[-64.4062,18.7304,0.4489],[-64.4021,18.7285,3.6394],[-64.3993,18.7226,0.6793],[-64.3879,18.7268,0.0],[-64.3838,18.7254,0.0],[-64.3821,18.7224,0.0],[-64.3704,18.7251,0.422],[-64.3671,18.7224,2.8047],[-64.3599,18.7221,2.8305],[-64.349,18.7171,1.5428],[-64.3374,18.7179,1.55],[-64.3365,18.716,0.0],[-64.3349,18.7174,2.0207],[-64.3207,18.7162,1.0848],[-64.3187,18.714,0.4131],[-64.3135,18.7126,1.893],[-64.3126,18.7107,0.3162],[-64.311,18.7107,2.1186],[-64.3112,18.709,1.0897],[-64.3024,18.7068,0.668],[-64.2924,18.6996,0.0],[-64.2876,18.6985,0.3625],[-64.2857,18.6949,0.0],[-64.2774,18.6882,0.0],[-64.2715,18.6899,0.0],[-64.2704,18.6976,0.0],[-64.2718,18.7035,0.0],[-64.2785,18.7129,0.0],[-64.2838,18.7165,2.4936],[-64.2874,18.7229,3.2415],[-64.2957,18.731,2.4532],[-64.3012,18.7324,0.0],[-64.3063,18.739,0.0],[-64.3112,18.739,1.4327],[-64.3132,18.7435,0.0],[-64.3163,18.7432,3.855],[-64.334,18.7496,0.8516]]]]}
,"properties": {"GID_1": "VGB.1_1","GID_0": "VGB","country": "BritishVirginIslands","province": "Anegada","VARNAME_1": "NA","NL_NAME_1": "NA","TYPE_1": "District","ENGTYPE_1": "District","CC_1": "NA","HASC_1": "NA","ISO_1": "NA","name": "Anegada.province","area_km2": 40.30006,"hist_schema_id": "Elevation0-9000","hist_area_km2": {"0": 40.30006}}}