{"type": "Feature","bbox": [-70.5503,18.6319,-70.3394,18.7948],"geometry": {"type": "MultiPolygon","coordinates": [[[[-70.5503,18.7369,1163.6324],[-70.5401,18.734,1014.4185],[-70.5272,18.7276,915.1572],[-70.5136,18.7088,1023.8226],[-70.5105,18.7025,1085.647],[-70.5093,18.6917,1155.6536],[-70.5041,18.6836,1350.1526],[-70.5012,18.6807,1334.9392],[-70.4909,18.6816,1242.3635],[-70.4865,18.6753,1016.6837],[-70.476,18.6654,719.209],[-70.4636,18.6598,712.1089],[-70.4593,18.6528,613.3598],[-70.4503,18.653,833.3888],[-70.4425,18.6651,988.6028],[-70.4316,18.6694,906.935],[-70.4281,18.664,1071.264],[-70.4324,18.6571,1163.1769],[-70.4313,18.6536,1148.0581],[-70.4283,18.6524,1141.6934],[-70.4199,18.6548,1168.1865],[-70.4004,18.6542,1008.1248],[-70.3979,18.6522,1035.1489],[-70.3924,18.6414,984.5001],[-70.3907,18.6335,1045.0319],[-70.3866,18.6319,1054.8605],[-70.3662,18.6386,960.14],[-70.3672,18.653,907.4023],[-70.3608,18.6655,994.5267],[-70.3557,18.671,977.0714],[-70.3539,18.6798,878.4731],[-70.3551,18.6868,939.6665],[-70.3521,18.7015,988.8979],[-70.3447,18.7105,1003.9863],[-70.3394,18.723,1082.5784],[-70.346,18.7248,1014.6285],[-70.3598,18.7252,1113.6346],[-70.3671,18.7284,1198.524],[-70.3737,18.7367,929.8527],[-70.3872,18.7493,1249.1458],[-70.4022,18.7515,1098.672],[-70.4026,18.7595,1052.3076],[-70.4101,18.7597,1194.5823],[-70.4165,18.7643,1103.4939],[-70.4358,18.7595,788.8745],[-70.4465,18.7643,757.5581],[-70.4571,18.7597,972.3952],[-70.4653,18.7678,886.9076],[-70.4942,18.7685,1498.1992],[-70.4978,18.7712,1537.3615],[-70.5069,18.7899,1395.9285],[-70.5232,18.7912,1503.432],[-70.5374,18.7948,1748.6166],[-70.5359,18.7878,1618.2749],[-70.5286,18.7794,1439.7822],[-70.5276,18.7674,1166.4288],[-70.5227,18.7603,1123.6963],[-70.5221,18.7566,1178.3939],[-70.5238,18.7541,1240.5513],[-70.5461,18.7422,1270.3514],[-70.5503,18.7369,1163.6324]]]]}
,"properties": {"GID_2": "DOM.25.1_1","GID_0": "DOM","country": "DominicanRepublic","GID_1": "DOM.25_1","province": "SanJosédeOcoa","NL_NAME_1": "NA","county": "RanchoArriba","VARNAME_2": "NA","NL_NAME_2": "NA","TYPE_2": "Distritomunicipal","ENGTYPE_2": "Municipaldistrict","CC_2": "NA","HASC_2": "DO.JO.RA","name": "Rancho_Arriba.county","area_km2": 202.682,"hist_schema_id": "Elevation0-9000","hist_area_km2": {"625": 0.241,"650": 0.7834,"675": 12.0496,"700": 11.788,"725": 6.6269,"750": 5.8036,"775": 6.5265,"800": 7.611,"825": 9.459,"850": 11.548,"875": 13.436,"900": 12.9536,"925": 13.0336,"950": 11.0051,"975": 9.7397,"1000": 8.9562,"1025": 8.8158,"1050": 6.466,"1075": 6.3654,"1100": 5.4818,"1125": 4.518,"1150": 4.0763,"1175": 2.7711,"1200": 2.9918,"1225": 2.2087,"1250": 1.7067,"1275": 1.4858,"1300": 1.807,"1325": 1.1243,"1350": 1.4857,"1375": 1.2647,"1400": 1.0037,"1425": 0.9837,"1450": 0.7628,"1475": 0.7427,"1500": 1.2044,"1525": 1.084,"1550": 1.0639,"1575": 0.7026,"1600": 0.3212,"1625": 0.2409,"1650": 0.1004,"1675": 0.1004,"1700": 0.0602,"1725": 0.0401,"1750": 0.0201,"1800": 0.0201,"1825": 0.0201,"1850": 0.0201,"1875": 0.0201,"1900": 0.0201,"1925": 0.0201}}}