{"type": "Feature","bbox": [-76.8899,25.4832,-76.8068,25.531],"geometry": {"type": "MultiPolygon","coordinates": [[[[-76.8899,25.4846,0.0897],[-76.8887,25.4832,0.0],[-76.8874,25.4868,0.0],[-76.8887,25.4868,0.0],[-76.8899,25.4846,0.0897]]],
[[[-76.8757,25.5007,0.0],[-76.8818,25.5007,0.0],[-76.8851,25.4979,0.0],[-76.8876,25.4896,0.0],[-76.8807,25.4921,1.7356],[-76.8757,25.5007,0.0]]],
[[[-76.8068,25.5301,1.6249],[-76.8132,25.5249,1.7686],[-76.816,25.5251,0.2176],[-76.8299,25.5185,4.2324],[-76.8374,25.5179,0.4578],[-76.8479,25.5199,0.0],[-76.8551,25.5118,11.208],[-76.8732,25.5076,0.0],[-76.8782,25.504,0.3951],[-76.8746,25.5024,0.4996],[-76.8721,25.5068,0.0],[-76.8576,25.5063,0.0],[-76.844,25.5132,0.0],[-76.8465,25.5135,1.192],[-76.851,25.5118,3.1344],[-76.8471,25.5163,0.6933],[-76.8443,25.5171,4.7391],[-76.8346,25.5165,0.4133],[-76.8421,25.514,0.0],[-76.8415,25.5129,0.0],[-76.8349,25.5137,0.0],[-76.8329,25.5168,0.4842],[-76.831,25.5151,0.0],[-76.821,25.5171,5.7126],[-76.8132,25.5221,0.5825],[-76.8068,25.5301,1.6249]]],
[[[-76.8496,25.531,0.0],[-76.8521,25.5307,0.0],[-76.8512,25.528199999999998,0.0],[-76.8501,25.5287,0.0],[-76.8496,25.531,0.0]]]]}
,"properties": {"GID_1": "BHS.31_1","GID_0": "BHS","country": "Bahamas","state": "SpanishWells","VARNAME_1": "NA","NL_NAME_1": "NA","TYPE_1": "District","ENGTYPE_1": "District","CC_1": "NA","HASC_1": "BS.SW","ISO_1": "NA","name": "SpanishWells.state","area_km2": 3.654791,"hist_schema_id": "Elevation0-9000","hist_area_km2": {"0": 3.482572,"25": 0.172219}}}