{"type": "Feature","bbox": [-71.879,18.818,-71.6074,19.0202],"geometry": {"type": "MultiPolygon","coordinates": [[[[-71.7982,18.9964,217.172],[-71.7962,18.9996,204.0595],[-71.7991,19.0051,204.1495],[-71.801,19.0051,204.1623],[-71.8006,19.0034,212.6158],[-71.8021,19.0022,207.5432],[-71.8054,19.0015,198.8915],[-71.8046,18.9993,197.4815],[-71.8062,18.9983,207.0258],[-71.8144,18.996,202.0725],[-71.8192,18.9969,199.2217],[-71.8261,18.9935,220.7814],[-71.829,18.9955,198.937],[-71.8305,19.0041,205.6499],[-71.8345,19.0034,189.4854],[-71.835,19.0008,190.3582],[-71.839,18.9999,192.5749],[-71.841,18.9947,198.4731],[-71.8484,18.9967,211.314],[-71.8476,18.9908,186.0538],[-71.8523,18.9862,187.4012],[-71.8511,18.9815,214.0644],[-71.8563,18.9804,190.6715],[-71.8557,18.9784,183.7723],[-71.8584,18.9765,191.4097],[-71.8624,18.9788,183.2799],[-71.8719,18.9752,191.1901],[-71.8699,18.964,210.7482],[-71.8711,18.9612,223.863],[-71.8746,18.9601,177.8601],[-71.8748,18.9582,198.9924],[-71.879,18.9568,191.2406],[-71.8785,18.9461,180.0129],[-71.8763,18.9455,175.0966],[-71.8751,18.9489,194.3381],[-71.8728,18.948,178.176],[-71.8711,18.9527,212.9753],[-71.8644,18.95,200.9941],[-71.857,18.9508,207.5987],[-71.857,18.9566,210.9104],[-71.8586,18.9582,218.37],[-71.8578,18.962,190.6073],[-71.8558,18.9628,206.5956],[-71.857,18.9667,243.9974],[-71.855,18.9667,239.7693],[-71.8503,18.9613,194.9877],[-71.8508,18.9589,196.2047],[-71.8489,18.9606,199.4398],[-71.8499,18.9629,205.1599],[-71.8462,18.9621,204.4658],[-71.8444,18.964,229.5687],[-71.8456,18.9667,233.2547],[-71.8407,18.9662,205.9241],[-71.8395,18.9692,218.2953],[-71.8362,18.9701,202.6548],[-71.835,18.9734,247.8968],[-71.8323,18.9741,262.6247],[-71.8288,18.9668,213.9114],[-71.8229,18.9722,264.3806],[-71.8201,18.9714,252.2446],[-71.8182,18.9734,264.2252],[-71.8174,18.9722,264.2252],[-71.8221,18.9676,227.5765],[-71.8135,18.9668,251.9575],[-71.8099,18.9687,253.2153],[-71.808,18.9668,247.5327],[-71.808,18.9629,249.3868],[-71.804,18.9641,261.096],[-71.7985,18.9614,246.178],[-71.7993,18.9583,241.8412],[-71.7919,18.9602,254.7261],[-71.7919,18.9575,248.4989],[-71.7899,18.9567,236.2751],[-71.7864,18.9622,269.9765],[-71.7844,18.9602,271.9431],[-71.777,18.9583,262.6803],[-71.7785,18.9521,239.3019],[-71.7635,18.9109,367.6228],[-71.7561,18.9101,361.701],[-71.7392,18.897,374.3947],[-71.7345,18.895,377.3714],[-71.7313,18.8896,399.2825],[-71.7325,18.8822,406.9536],[-71.7219,18.8811,369.8377],[-71.7184,18.885,361.9448],[-71.7172,18.883,366.2326],[-71.7203,18.8791,375.1381],[-71.7211,18.8531,610.4576],[-71.7211,18.8457,699.5629],[-71.7155,18.8371,862.5917],[-71.7171,18.8189,730.3104],[-71.7037,18.8257,931.6312],[-71.7008,18.8245,804.535],[-71.6952,18.818,801.6371],[-71.6769,18.8181,726.3064],[-71.6743,18.8261,675.1128],[-71.6679,18.8309,518.028],[-71.6642,18.8393,472.5267],[-71.6488,18.8502,444.7191],[-71.6496,18.8571,422.0719],[-71.6572,18.8635,412.1972],[-71.6567,18.873,400.4047],[-71.6503,18.8738,420.8792],[-71.6357,18.868,440.9651],[-71.6297,18.8683,426.1757],[-71.6262,18.8709,426.5331],[-71.6371,18.8767,406.672],[-71.6393,18.8795,422.8329],[-71.6395,18.8833,447.4987],[-71.6342,18.8871,440.9631],[-71.6195,18.8919,378.1147],[-71.6154,18.9015,362.6031],[-71.6074,18.9111,371.4944],[-71.6075,18.9314,341.0186],[-71.6328,18.9362,342.1167],[-71.6385,18.9397,331.1774],[-71.6394,18.9458,336.4344],[-71.6343,18.9647,392.3472],[-71.6364,18.9689,412.1943],[-71.6496,18.9749,428.3032],[-71.6658,18.978,391.3719],[-71.6746,18.976,414.918],[-71.6823,18.9793,367.6141],[-71.684,18.9826,394.9132],[-71.6826,18.9854,411.2497],[-71.67,18.9908,438.8718],[-71.6696,19.0056,464.9416],[-71.6734,19.0088,454.0034],[-71.6791,19.0072,445.6779],[-71.6824,19.0079,459.6389],[-71.6963,19.0202,383.6432],[-71.701,19.0187,384.0999],[-71.704,19.0095,400.7869],[-71.7191,19.0032,398.494],[-71.7215,18.9932,363.49],[-71.7405,18.9922,347.338],[-71.7499,18.9785,299.3257],[-71.7617,18.9739,329.5408],[-71.7707,18.9759,338.5619],[-71.7869,18.9767,357.8775],[-71.7898,18.9856,328.0017],[-71.7982,18.9964,217.172]]]]}
,"properties": {"GID_2": "DOM.12.2_1","GID_0": "DOM","country": "DominicanRepublic","GID_1": "DOM.12_1","province": "LaEstrelleta","NL_NAME_1": "NA","county": "Comendador","VARNAME_2": "NA","NL_NAME_2": "NA","TYPE_2": "Municipio","ENGTYPE_2": "Municipality","CC_2": "NA","HASC_2": "DO.EP.CO","name": "Comendador.county","area_km2": 251.6792,"hist_schema_id": "Elevation0-9000","hist_area_km2": {"175": 0.7419,"200": 4.0901,"225": 7.1578,"250": 8.321,"275": 12.532,"300": 22.4191,"325": 32.7281,"350": 41.4137,"375": 40.994,"400": 28.4601,"425": 19.2557,"450": 10.4706,"475": 4.0521,"500": 1.6653,"525": 1.1237,"550": 1.2641,"575": 0.923,"600": 0.7826,"625": 0.9431,"650": 1.1237,"675": 1.2241,"700": 1.5451,"725": 1.3044,"750": 1.2843,"775": 0.9231,"800": 1.1037,"825": 0.9231,"850": 0.7425,"875": 0.7425,"900": 0.5418,"925": 0.4816,"950": 0.2007,"975": 0.1806,"1000": 0.0201}}}