{"type":"Feature","properties":{"ISO3166-1-Alpha-3":"DMA","country":"Dominica","fill":"#FF0","id":"1435","name":"Saint John"},
"geometry":{"type": "Polygon","coordinates": [[[-61.44921,15.63308,223.0142],[-61.46898,15.63386,0.0],[-61.48062,15.59101,0.0],[-61.48888,15.57925,0.0],[-61.48119,15.57856,0.0],[-61.46906,15.57429,0.0],[-61.46215,15.57298,0.0],[-61.46727,15.56297,0.0],[-61.484,15.55158,0.0],[-61.48888,15.54507,0.0],[-61.48892,15.53571,0.0],[-61.48485,15.53034,0.0],[-61.484,15.52958,0.0],[-61.48399,15.5296,0.0],[-61.48071,15.53339,0.0],[-61.4803,15.53373,0.0],[-61.47952,15.53417,0.0],[-61.4773,15.53365,0.0],[-61.47668,15.53365,0.0],[-61.47575,15.53381,24.0254],[-61.47492,15.5337,23.4288],[-61.4697,15.53239,81.9311],[-61.46927,15.53241,81.9311],[-61.465,15.53161,116.7355],[-61.46423,15.53156,116.7355],[-61.46358,15.53164,147.5925],[-61.46322,15.53179,147.5925],[-61.40772,15.50301,1010.8704],[-61.41015,15.52264,766.1237],[-61.41144,15.52758,616.9755],[-61.41798,15.5328,456.377],[-61.41886,15.53869,603.6194],[-61.41826,15.56765,301.0458],[-61.41922,15.57848,145.1312],[-61.41968,15.57866,145.1312],[-61.42043,15.57975,160.6196],[-61.42072,15.57993,162.0212],[-61.42105,15.58006,162.0212],[-61.42136,15.58013,162.0212],[-61.42172,15.58008,162.0212],[-61.42206,15.58003,162.0212],[-61.4225,15.57993,162.0212],[-61.42343,15.57998,152.4019],[-61.42397,15.58006,152.4019],[-61.42575,15.58081,180.9566],[-61.42614,15.58106,180.9566],[-61.42653,15.58145,180.9566],[-61.42699,15.58236,259.235],[-61.42725,15.58277,259.235],[-61.43087,15.58417,287.0746],[-61.43761,15.59068,469.7996],[-61.4403,15.59512,237.9559],[-61.44921,15.63308,223.0142]]]}}