{"type": "Feature","bbox": [-62.7604,17.3332,-62.7088,17.3774],"geometry": {"type": "MultiPolygon","coordinates": [[[[-62.7592,17.3352,683.2722],[-62.7544,17.3332,585.5204],[-62.746,17.3389,329.9387],[-62.7393,17.337,305.6556],[-62.7207,17.3358,248.3691],[-62.7088,17.3404,11.8081],[-62.7196,17.3507,1.4298],[-62.7215,17.3574,0.0],[-62.7235,17.3568,32.8664],[-62.7243,17.3601,4.0792],[-62.7257,17.3599,23.3291],[-62.7262,17.3626,4.0952],[-62.7324,17.3671,11.4278],[-62.7332,17.3701,1.7677],[-62.7393,17.3729,0.0],[-62.7399,17.3774,0.0],[-62.7433,17.3717,32.035],[-62.7521,17.3643,130.8641],[-62.7531,17.3581,175.7104],[-62.7604,17.3509,329.8672],[-62.7592,17.3352,683.2722]]]]}
,"properties": {"GID_1": "KNA.8_1","GID_0": "KNA","country": "SaintKittsandNevis","province": "SaintMaryCayon","VARNAME_1": "NA","NL_NAME_1": "NA","TYPE_1": "Parish","ENGTYPE_1": "Parish","CC_1": "NA","HASC_1": "KN.MC","ISO_1": "KN-08","name": "Saint_Mary_Cayon.province","area_km2": 14.28764,"hist_schema_id": "Elevation0-9000","hist_area_km2": {"0": 0.56664,"25": 0.62734,"50": 1.53797,"75": 1.47728,"100": 1.35587,"125": 1.11304,"150": 0.97139,"175": 0.91069,"200": 0.80951,"225": 0.70833,"250": 0.85,"275": 0.70834,"300": 0.48572,"325": 0.46548,"350": 0.22262,"375": 0.20238,"400": 0.18214,"425": 0.22262,"450": 0.16191,"475": 0.16191,"500": 0.18215,"525": 0.10119,"550": 0.12143,"575": 0.06072,"600": 0.08096}}}