{"type":"Feature","properties":{"GID_2":"CUB.5.12_1","GID_0":"CUB","country":"Cuba","GID_1":"CUB.5_1","province":"Granma","NL_NAME_1":"NA","county":"RíoCauto","VARNAME_2":"NA","NL_NAME_2":"NA","TYPE_2":"Municipio","ENGTYPE_2":"Municipality","CC_2":"NA","HASC_2":"CU.GR.RC","name":"Río_Cauto.county"},
"geometry":{"type": "MultiPolygon","coordinates": [[[[-77.0249,20.5451,2.0961],[-77.0274,20.5449,0.0],[-77.026,20.5418,0.0],[-77.0243,20.5424,0.0],[-77.0249,20.5451,2.0961]]],
[[[-77.0649,20.5576,0.0],[-77.0735,20.5546,2.2081],[-77.0732,20.549,0.7105],[-77.066,20.5476,1.6982],[-77.0624,20.5501,0.0],[-77.0624,20.5524,1.5214],[-77.0568,20.549,0.0],[-77.0571,20.5529,0.0],[-77.0638,20.5535,3.4392],[-77.0649,20.5576,0.0]]],
[[[-76.7678,20.5667,11.3954],[-76.7373,20.5775,14.5312],[-76.7458,20.590699999999998,21.2512],[-76.7498,20.6136,20.2949],[-76.7605,20.6328,21.0392],[-76.8085,20.6559,16.1303],[-76.8155,20.6621,14.9992],[-76.8176,20.675,16.4877],[-76.8111,20.6912,19.108],[-76.8094,20.7232,29.2567],[-76.8116,20.7333,32.3573],[-76.8193,20.7361,31.1852],[-76.8286,20.7369,28.0365],[-76.8478,20.7337,26.8317],[-76.8755,20.7325,25.2327],[-76.8982,20.7331,19.7841],[-76.9156,20.735,21.0318],[-76.9397,20.7418,27.4966],[-76.9524,20.7428,20.3586],[-76.9614,20.7412,22.3187],[-76.9756,20.7319,17.9194],[-76.9815,20.7304,17.438],[-77.0023,20.7334,18.1123],[-77.0079,20.7318,17.5045],[-77.0229,20.7166,10.1996],[-77.0322,20.7147,9.8195],[-77.0385,20.7155,10.2147],[-77.0441,20.7184,11.4849],[-77.052,20.7257,14.3416],[-77.0685,20.7473,18.1454],[-77.0754,20.7523,18.7873],[-77.082,20.7545,20.0381],[-77.1615,20.7527,16.9937],[-77.1742,20.7511,16.8538],[-77.1872,20.748,13.7981],[-77.1968,20.742,13.8646],[-77.2023,20.7331,12.2003],[-77.204,20.7233,11.2875],[-77.2038,20.6932,1.1121],[-77.2115,20.68,0.0],[-77.2176,20.6778,0.8426],[-77.2191,20.6723,4.3615],[-77.2332,20.6582,0.0],[-77.2386,20.6617,0.1612],[-77.2405,20.6665,2.8498],[-77.2388,20.6724,0.7366],[-77.2427,20.672,0.4866],[-77.2581,20.6649,0.0],[-77.2606,20.6614,0.1661],[-77.2596,20.6585,0.0],[-77.2538,20.6632,2.6848],[-77.2471,20.6629,0.0],[-77.2401,20.6651,1.8625],[-77.2435,20.6599,1.1667],[-77.2387,20.6521,1.0008],[-77.2315,20.6487,0.0],[-77.2268,20.6485,0.0],[-77.226,20.6499,2.2473],[-77.2226,20.6424,1.0799],[-77.2143,20.6357,1.3349],[-77.2118,20.6357,1.3573],[-77.2099,20.6396,1.743],[-77.2024,20.6374,2.7939],[-77.199,20.629,1.6449],[-77.2012,20.6232,0.814],[-77.2065,20.621,0.0],[-77.2063,20.6165,1.6864],[-77.2115,20.6115,0.902],[-77.2151,20.6038,0.8097],[-77.229,20.5962,2.406],[-77.2363,20.5968,2.9247],[-77.2415,20.5901,0.4987],[-77.2424,20.5807,0.3986],[-77.2454,20.5771,0.0],[-77.2418,20.5746,2.1972],[-77.2363,20.5793,1.4004],[-77.229,20.581,1.159],[-77.2246,20.5851,0.5836],[-77.2221,20.5843,0.573],[-77.2282,20.5765,1.0358],[-77.2343,20.5729,5.3658],[-77.2349,20.5701,1.4539],[-77.2329,20.5682,2.1122],[-77.2371,20.5674,2.0536],[-77.2415,20.5687,2.8203],[-77.244,20.5738,0.0],[-77.2457,20.5743,0.0],[-77.2482,20.569,0.153],[-77.2479,20.5599,0.0],[-77.2471,20.5551,0.0],[-77.2426,20.5501,0.0],[-77.2421,20.5471,1.0413],[-77.2449,20.5454,2.5861],[-77.249,20.5468,2.9361],[-77.2515,20.5451,0.0],[-77.219,20.5415,0.0],[-77.1963,20.5304,0.0],[-77.1851,20.5268,0.0],[-77.1732,20.528199999999998,0.0],[-77.1732,20.5301,0.0],[-77.1776,20.5324,0.0],[-77.1857,20.5299,1.1487],[-77.1929,20.5307,0.0],[-77.1963,20.5329,0.6997],[-77.1946,20.5338,0.0],[-77.1951,20.5354,0.0],[-77.199,20.5365,1.0509],[-77.1904,20.5535,0.0],[-77.1882,20.554,3.6128999999999998],[-77.1865,20.5532,0.8634],[-77.186,20.5485,0.0],[-77.1724,20.5399,2.3062],[-77.1735,20.5343,0.404],[-77.1637,20.5318,0.0],[-77.1596,20.529,0.4555],[-77.1365,20.5243,0.4643],[-77.1257,20.5193,0.2932],[-77.1157,20.511,0.0],[-77.1165,20.5146,0.0],[-77.1232,20.5201,0.7502],[-77.1237,20.5257,0.9373],[-77.1115,20.5318,0.0],[-77.1121,20.5374,0.6146],[-77.1101,20.5393,0.7939],[-77.1049,20.5396,0.2816],[-77.0979,20.5365,0.0],[-77.0971,20.5379,1.5186],[-77.1015,20.5451,0.381],[-77.1082,20.5501,1.6522],[-77.1124,20.5563,0.0],[-77.1363,20.5604,0.9569],[-77.1432,20.5635,1.8226],[-77.1474,20.5632,1.4192],[-77.1551,20.5571,1.3613],[-77.1549,20.5599,0.7494],[-77.1521,20.5626,1.7269],[-77.1446,20.5649,1.098],[-77.1351,20.5626,1.282],[-77.1193,20.5632,2.1082],[-77.1157,20.5613,0.0],[-77.1087,20.5607,1.3876],[-77.1104,20.5579,1.8528],[-77.1062,20.5549,0.0],[-77.0993,20.5579,1.0754],[-77.0976,20.5607,1.5798],[-77.0949,20.5599,0.0],[-77.0871,20.5626,1.548],[-77.0829,20.5604,0.0],[-77.0807,20.5615,0.5434],[-77.076,20.556,0.4839],[-77.0682,20.5574,2.1047],[-77.0635,20.5604,2.0148],[-77.0632,20.5551,0.0],[-77.0512,20.5535,0.0],[-77.0488,20.5601,0.0],[-77.0446,20.5621,0.6315],[-77.0457,20.564,2.6057],[-77.0446,20.5651,0.8836],[-77.0401,20.5643,0.6498],[-77.0376,20.5663,1.4789],[-77.0326,20.5646,4.0051],[-77.0324,20.5629,1.1905],[-77.0296,20.5637,0.9147],[-77.0282,20.5588,2.1989],[-77.0332,20.5576,1.195],[-77.0299,20.5537,2.7016],[-77.0299,20.5499,0.9977],[-77.026,20.5465,0.0],[-77.0215,20.5496,1.9179],[-77.0185,20.5496,1.644],[-77.0182,20.5468,0.0],[-77.0143,20.5418,2.2467],[-77.0146,20.5335,0.0],[-77.0174,20.5276,2.0552],[-77.0263,20.5226,1.0204],[-77.0296,20.5226,0.6614],[-77.031,20.524,1.9092],[-77.0304,20.5263,0.0],[-77.0321,20.5246,1.9092],[-77.0351,20.5246,0.0],[-77.0351,20.5224,1.0679],[-77.0374,20.524,0.0],[-77.0399,20.5229,3.0375],[-77.0446,20.5276,2.7202],[-77.0449,20.5307,0.0],[-77.0482,20.5318,3.8388],[-77.0507,20.5357,2.2473],[-77.0589,20.536,1.0925],[-77.0386,20.505,3.7891],[-77.0261,20.4939,1.1427],[-76.9893,20.4771,2.205],[-76.96,20.4746,5.1806],[-76.9227,20.465,11.6285],[-76.9131,20.4506,13.591],[-76.9007,20.4113,17.1762],[-76.8888,20.3938,19.0231],[-76.8704,20.3957,22.5419],[-76.8517,20.402,23.5924],[-76.793,20.4024,31.2289],[-76.7818,20.4063,33.6275],[-76.7663,20.4339,30.9636],[-76.7658,20.443,30.866],[-76.7921,20.4915,23.6271],[-76.805,20.5074,20.663],[-76.8235,20.5396,16.1303],[-76.8252,20.5502,12.0629],[-76.8215,20.556,13.4858],[-76.7991,20.5637,17.2991],[-76.7678,20.5667,11.3954]]]]}}