{"type": "Feature","id": "5092","bbox": [-62.34826,16.93197,-62.34292,16.9409],"geometry": {"type": "Polygon","coordinates": [[[-62.34559,16.93914,198.4772],[-62.34728,16.93738,30.0446],[-62.34826,16.93366,11.7608],[-62.34707,16.93197,0.0],[-62.34446,16.93253,0.0],[-62.34306,16.93506,4.5127],[-62.34292,16.93837,54.725],[-62.34306,16.9409,19.7236],[-62.34461,16.9404,198.4772],[-62.34559,16.93914,198.4772]]]}
,"properties": {"ISO3166-1-Alpha-3": "ATG","country": "Antigua and Barbuda","fill": "#F0F","name": "Redonda","area_km2": 0.4056533,"hist_schema_id": "Elevation0-9000","hist_area_km2": {"0": 0.0202831,"25": 0.1014141,"50": 0.0811305,"75": 0.0811305,"100": 0.0202824,"125": 0.0202827,"150": 0.0202826,"175": 0.0202825,"225": 0.0202824,"250": 0.0202823}}}