{"type": "Feature","bbox": [-62.349,16.9315,-62.341,16.9451],"geometry": {"type": "MultiPolygon","coordinates": [[[[-62.3451,16.9451,17.2316],[-62.3482,16.9446,8.1166],[-62.349,16.939,0.0],[-62.3482,16.9324,11.7608],[-62.3446,16.9315,0.0],[-62.3432,16.9326,0.0],[-62.3443,16.934,4.5127],[-62.3424,16.9337,0.0],[-62.3432,16.9371,54.725],[-62.341,16.9385,0.0],[-62.3421,16.9429,0.0],[-62.3451,16.9451,17.2316]]]]}
,"properties": {"GID_1": "ATG.2_1","GID_0": "ATG","country": "AntiguaandBarbuda","state": "Redonda","VARNAME_1": "NA","NL_NAME_1": "NA","TYPE_1": "Dependency","ENGTYPE_1": "Dependency","CC_1": "NA","HASC_1": "AG.RD","ISO_1": "AG-11","name": "Redonda.state","area_km2": 0.9532734,"hist_schema_id": "Elevation0-9000","hist_area_km2": {"0": 0.2028247,"25": 0.1825419,"50": 0.3042348,"75": 0.0811305,"100": 0.0405645,"125": 0.0202827,"150": 0.0202826,"175": 0.0405647,"225": 0.0202824,"250": 0.0405646}}}