{"type": "Feature","bbox": [-72.8246,18.8572,-72.2408,19.2613],"geometry": {"type": "MultiPolygon","coordinates": [[[[-72.2416,18.9156,66.1939],[-72.2408,18.9165,66.1939],[-72.2448,18.9198,69.3682],[-72.2599,18.9168,66.8732],[-72.2668,18.9215,63.971],[-72.2717,18.9142,64.2786],[-72.2797,18.9181,62.8412],[-72.284,18.9234,64.2417],[-72.2886,18.9199,64.1113],[-72.3095,18.9316,66.7891],[-72.3177,18.9397,57.1602],[-72.3202,18.9386,63.9202],[-72.3256,18.9423,58.8298],[-72.3396,18.9558,53.1084],[-72.341,18.9597,51.9332],[-72.3389,18.962,53.758],[-72.3383,18.97,49.7805],[-72.3429,18.973,50.9203],[-72.3412,18.9755,58.6363],[-72.3437,18.9761,51.4813],[-72.3459,18.9702,50.379],[-72.3494,18.9679,48.8019],[-72.3514,18.9691,47.5159],[-72.3514,18.9748,48.6787],[-72.3542,18.9756,48.8767],[-72.3559,18.9737,46.8754],[-72.3556,18.9712,46.25],[-72.357,18.9694,48.5554],[-72.3584,18.97,53.1103],[-72.3659,18.9779,47.153],[-72.3661,18.9846,44.6465],[-72.3576,18.9823,46.8764],[-72.3545,18.9844,46.5466],[-72.3543,18.9881,45.6521],[-72.3562,18.9901,45.5622],[-72.3612,18.9886,44.8998],[-72.3673,18.9912,43.3888],[-72.3728,18.9891,46.2588],[-72.3736,18.992,43.6529],[-72.3685,18.996,40.0],[-72.3685,19.0039,40.5587],[-72.3733,19.005,39.243],[-72.3768,19.0114,41.2841],[-72.3808,19.0121,39.125],[-72.3821,19.0148,39.6304],[-72.3861,19.0161,39.7511],[-72.3799,19.0232,38.8284],[-72.3797,19.0254,39.1971],[-72.3912,19.0338,37.7991],[-72.3972,19.0332,36.7995],[-72.401,19.0358,35.2455],[-72.4049,19.036,34.3287],[-72.4086,19.0404,33.3345],[-72.4135,19.0388,32.375],[-72.4144,19.0444,34.8647],[-72.4163,19.0458,39.5012],[-72.4191,19.0462,34.1008],[-72.4198,19.044,34.0404],[-72.4176,19.0366,32.0],[-72.4186,19.0349,33.9278],[-72.4217,19.0369,36.5787],[-72.4266,19.0459,33.8618],[-72.4309,19.044,32.2127],[-72.4349,19.045,31.0414],[-72.4364,19.048,30.9422],[-72.4351,19.0534,31.906],[-72.4403,19.0571,30.8004],[-72.4409,19.0627,36.7008],[-72.4484,19.0644,38.6708],[-72.4522,19.0703,36.1557],[-72.45,19.0767,29.6811],[-72.4507,19.0836,28.369],[-72.463,19.0831,26.6374],[-72.4652,19.0782,25.6818],[-72.4643,19.0759,31.8314],[-72.4684,19.0722,23.6249],[-72.473,19.0757,24.3351],[-72.4715,19.0795,22.978],[-72.4684,19.0811,26.8102],[-72.4702,19.0841,27.9428],[-72.474,19.0846,24.4273],[-72.4774,19.0829,21.8782],[-72.4782,19.0807,24.9617],[-72.4769,19.0782,24.3669],[-72.4793,19.077,27.4062],[-72.4802,19.0815,22.0721],[-72.4827,19.0833,24.5705],[-72.4808,19.0866,25.674],[-72.4814,19.0908,23.7661],[-72.4879,19.0915,24.4771],[-72.4891,19.0931,25.2372],[-72.4861,19.0971,24.8747],[-72.4834,19.097,23.7495],[-72.4795,19.0922,23.3731],[-72.4732,19.0934,22.3779],[-72.4745,19.0982,22.9371],[-72.479,19.0996,21.4205],[-72.4797,19.1013,20.5065],[-72.4751,19.108,21.4262],[-72.4764,19.1167,20.6429],[-72.4817,19.12,20.1559],[-72.4902,19.1187,23.4712],[-72.4914,19.1197,20.0742],[-72.492,19.1224,19.7219],[-72.488,19.1264,21.1108],[-72.4931,19.1249,20.9917],[-72.4945,19.12,19.8242],[-72.4989,19.1205,20.4747],[-72.5045,19.1249,19.1421],[-72.5043,19.1286,18.7286],[-72.5073,19.1316,18.9394],[-72.5064,19.1355,23.0893],[-72.5136,19.1329,17.4509],[-72.5155,19.1299,20.4087],[-72.5195,19.1307,17.1044],[-72.519,19.1362,17.5912],[-72.514,19.1386,18.1192],[-72.5188,19.1438,19.840699999999998],[-72.5161,19.1482,17.2903],[-72.5122,19.148,17.6521],[-72.513,19.1526,19.086],[-72.5149,19.1538,20.9987],[-72.5211,19.1544,18.1846],[-72.5248,19.1507,16.8286],[-72.5325,19.1481,16.511],[-72.5393,19.1406,15.7905],[-72.5526,19.1489,18.3463],[-72.5591,19.1443,19.4024],[-72.5632,19.146,16.5098],[-72.5656,19.1408,16.1153],[-72.5737,19.1392,17.4056],[-72.5794,19.1422,16.8803],[-72.5806,19.1448,16.289],[-72.5796,19.1496,15.7363],[-72.5825,19.1528,15.7225],[-72.588,19.1483,14.313],[-72.5959,19.1492,15.0575],[-72.5984,19.1516,16.9761],[-72.5989,19.1576,13.0758],[-72.602,19.1584,15.4341],[-72.6082,19.1562,13.4992],[-72.6046,19.1526,12.5821],[-72.6068,19.1492,13.8947],[-72.6167,19.1572,16.8601],[-72.621,19.1575,14.7333],[-72.6291,19.1658,13.6398],[-72.6261,19.17,14.9052],[-72.6225,19.1691,14.8243],[-72.6195,19.1649,15.2926],[-72.617,19.1655,14.3723],[-72.6195,19.1712,12.7088],[-72.6253,19.1714,16.728],[-72.6263,19.1753,13.1784],[-72.6245,19.1822,13.0647],[-72.6196,19.1805,13.9133],[-72.6151,19.183,13.1405],[-72.6147,19.1856,14.7622],[-72.617,19.1882,13.4771],[-72.6242,19.1886,13.4827],[-72.6233,19.1957,14.8921],[-72.6208,19.1962,12.3249],[-72.62,19.192,12.0617],[-72.6155,19.1924,10.5376],[-72.6113,19.1852,12.2428],[-72.6097,19.1849,12.1826],[-72.6078,19.1901,10.5079],[-72.6045,19.1915,11.6719],[-72.6074,19.199,10.5564],[-72.6006,19.2014,10.7023],[-72.6023,19.2036,10.9014],[-72.608,19.2036,10.7127],[-72.6106,19.2066,10.2655],[-72.6149,19.2057,11.7091],[-72.6144,19.2104,10.0933],[-72.6174,19.2131,9.4254],[-72.6155,19.2163,9.1991],[-72.6117,19.2144,9.3488],[-72.6103,19.2097,10.3311],[-72.6058,19.2087,10.6068],[-72.6033,19.2108,10.0691],[-72.6109,19.2163,9.0777],[-72.612,19.2196,9.6837],[-72.6166,19.2184,8.8349],[-72.6202,19.221,9.3178],[-72.6211,19.2128,8.8746],[-72.6237,19.2127,9.0339],[-72.6282,19.2156,8.042],[-72.6345,19.2122,9.2809],[-72.6353,19.2166,9.2232],[-72.6293,19.2224,7.9034],[-72.6354,19.2246,8.5855],[-72.6348,19.2305,9.1242],[-72.6386,19.2289,8.1976],[-72.6424,19.2203,8.5695],[-72.6436,19.2213,8.5304],[-72.6425,19.2251,7.5092],[-72.6468,19.2288,6.6093],[-72.6539,19.228,8.0395],[-72.6594,19.2208,5.4293],[-72.6602,19.2242,7.2343],[-72.6659,19.2214,8.4276],[-72.6714,19.2264,6.4315],[-72.6681,19.2394,5.5566],[-72.663,19.2405,6.6181],[-72.6684,19.2418,5.8603],[-72.6709,19.2467,6.6225],[-72.6839,19.2497,5.7534],[-72.6856,19.2525,4.5821],[-72.6841,19.2565,6.4763],[-72.6858,19.2577,5.6381],[-72.6892,19.2543,4.8329],[-72.6882,19.251,4.1203],[-72.6886,19.2489,4.3289],[-72.6913,19.2475,5.0998],[-72.6906,19.2432,4.8646],[-72.6965,19.2484,4.3874],[-72.6964,19.2517,4.0968],[-72.6932,19.2549,5.679],[-72.6976,19.258,5.0258],[-72.7038,19.255,3.5923],[-72.7044,19.2501,3.2852],[-72.7064,19.2487,3.7688],[-72.7101,19.2498,5.1864],[-72.7129,19.2482,5.8438],[-72.7123,19.2455,4.9448],[-72.7069,19.2441,3.8941],[-72.7068,19.2422,2.588],[-72.709,19.2415,3.8369],[-72.7129,19.2432,3.6521],[-72.7165,19.248,4.0716],[-72.7181,19.2446,4.6767],[-72.7206,19.2441,3.4786],[-72.7209,19.25,5.0022],[-72.7263,19.2477,3.7945],[-72.7301,19.2537,2.3623],[-72.7306,19.2589,2.1111],[-72.7327,19.2583,1.9137],[-72.7328,19.2552,2.071],[-72.7366,19.2539,2.9153],[-72.7399,19.2558,2.965],[-72.7399,19.2575,2.0064],[-72.7459,19.2566,3.3148],[-72.7463,19.2613,2.2853],[-72.7491,19.2576,1.7054],[-72.7479,19.2514,0.8306],[-72.7503,19.2537,1.9484],[-72.752,19.2525,1.8049],[-72.7525,19.2488,1.2787],[-72.7546,19.2556,1.6233],[-72.7597,19.2567,1.2287],[-72.7608,19.2555,0.6937],[-72.7562,19.2479,0.6454],[-72.761,19.2505,0.297],[-72.7707,19.2483,0.0],[-72.7754,19.2397,0.1747],[-72.7795,19.2376,0.1247],[-72.7845,19.2375,0.0],[-72.7862,19.2346,0.048],[-72.7849,19.2313,0.0],[-72.7762,19.2263,0.0],[-72.7735,19.2301,0.5971],[-72.7737,19.233,1.3862],[-72.7704,19.2399,0.0],[-72.7635,19.2415,0.5152],[-72.7596,19.2379,0.8774],[-72.7571,19.2379,1.2052],[-72.756,19.2351,0.0],[-72.7529,19.2337,0.8366],[-72.7532,19.2323,0.8366],[-72.7578,19.231,0.913],[-72.7674,19.2321,0.0],[-72.7704,19.2301,1.583],[-72.7746,19.2229,1.3567],[-72.7793,19.2207,0.8537],[-72.7799,19.2253,0.1975],[-72.783,19.2201,0.5451],[-72.7866,19.2191,0.0],[-72.7906,19.2196,2.8695],[-72.7954,19.2232,5.5356],[-72.7999,19.2215,0.0],[-72.7932,19.2149,3.6483],[-72.7938,19.211,0.0],[-72.7904,19.2096,0.0],[-72.7904,19.2065,0.0],[-72.7859,19.2063,0.0],[-72.7822,19.2023,0.6005],[-72.7825,19.2001,0.0],[-72.7774,19.1964,0.0],[-72.7764,19.1915,0.0],[-72.7718,19.1863,0.0],[-72.7621,19.1643,13.2502],[-72.7577,19.1618,0.0],[-72.7443,19.1482,4.3638],[-72.7318,19.1418,0.0],[-72.7221,19.1399,0.0],[-72.7044,19.1315,0.0],[-72.7001,19.1271,49.3121],[-72.6999,19.1193,3.0691],[-72.7038,19.1099,0.0],[-72.7029,19.1079,2.0038],[-72.7065,19.1015,2.9889],[-72.7128,19.096,0.8235],[-72.7207,19.0943,0.0],[-72.7296,19.0885,49.9434],[-72.7515,19.0893,0.0],[-72.7596,19.0932,1.1241],[-72.7718,19.0935,2.5814],[-72.8096,19.079,0.0],[-72.8215,19.0674,0.3088],[-72.8246,19.0587,0.0],[-72.8221,19.0507,19.8215],[-72.8221,19.0451,9.7967],[-72.8115,19.0307,3.9468],[-72.8032,19.0279,0.0],[-72.7988,19.0282,0.0],[-72.7921,19.0243,0.0],[-72.7796,19.0203,0.0],[-72.7757,19.0171,0.0],[-72.7629,19.0135,0.0],[-72.7593,19.0068,0.0],[-72.7465,18.9977,0.0],[-72.7426,18.9926,0.6963],[-72.7393,18.9918,0.0],[-72.7379,18.9835,0.0],[-72.736,18.9826,10.1798],[-72.7291,18.9718,0.0],[-72.7299,18.9646,1.5267],[-72.7274,18.9532,1.4518],[-72.7151,18.949,7.6064],[-72.71,18.9422,2.6625],[-72.7082,18.948,15.7021],[-72.7058,18.949,21.6793],[-72.7051,18.9522,30.9459],[-72.6998,18.956,50.0906],[-72.6993,18.9584,50.4989],[-72.6918,18.9626,77.1884],[-72.6886,18.967,93.9957],[-72.6845,18.9674,121.2109],[-72.6816,18.973,111.5431],[-72.6787,18.9739,153.8887],[-72.6768,18.9712,142.6822],[-72.6786,18.9685,192.1972],[-72.6706,18.9685,166.0016],[-72.6643,18.9721,186.6201],[-72.6611,18.9679,192.0171],[-72.6576,18.9673,205.3946],[-72.6538,18.9711,298.0212],[-72.65,18.9722,319.3486],[-72.6462,18.9728,227.5593],[-72.638,18.9708,236.785],[-72.6351,18.9733,268.0446],[-72.6354,18.9759,379.5902],[-72.6334,18.976,282.7138],[-72.6318,18.9729,308.0877],[-72.6282,18.9771,401.3297],[-72.6267,18.9723,344.6161],[-72.6233,18.9728,342.1749],[-72.6232,18.9707,368.2732],[-72.6202,18.9708,370.1681],[-72.6185,18.9727,411.1334],[-72.6188,18.9749,436.2625],[-72.6164,18.9763,364.0197],[-72.6081,18.9744,374.1206],[-72.6034,18.9752,382.5442],[-72.6009,18.9729,387.566],[-72.6016,18.972,425.0554],[-72.5981,18.9715,412.674],[-72.5947,18.9738,456.9768],[-72.591,18.9732,489.3346],[-72.586,18.9697,430.3193],[-72.5803,18.9685,454.995],[-72.5727,18.9692,483.8256],[-72.5661,18.9648,487.7162],[-72.5585,18.9649,515.6183],[-72.5546,18.9614,534.0598],[-72.5413,18.9616,565.5189],[-72.5365,18.9572,600.397],[-72.5308,18.9595,696.5717],[-72.5252,18.9577,744.9179],[-72.521,18.9584,770.0098],[-72.5182,18.9558,777.5675],[-72.5145,18.9553,701.3525],[-72.509,18.9595,794.5281],[-72.5038,18.9577,790.0059],[-72.4957,18.9588,1119.585],[-72.467,18.9257,1178.6306],[-72.4644,18.9251,1177.5597],[-72.4624,18.9276,1281.2445],[-72.4595,18.9272,1257.7874],[-72.4568,18.9208,1152.2047],[-72.4549,18.9197,1205.1427],[-72.443,18.9239,1216.448],[-72.4356,18.9234,1194.3202],[-72.4371,18.9202,1311.3826],[-72.4285,18.9172,1275.3833],[-72.4281,18.9147,1333.0597],[-72.4234,18.9116,1337.0308],[-72.4204,18.9126,1207.5756],[-72.4148,18.9035,1262.3931],[-72.406,18.9011,1327.8846],[-72.4039,18.9018,1277.9423],[-72.3968,18.8942,1370.2891],[-72.3922,18.8931,1216.259],[-72.3873,18.885,1334.661],[-72.3781,18.8764,1206.0597],[-72.3748,18.8751,1133.9709],[-72.3695,18.8683,1139.9292],[-72.3647,18.8658,1038.418],[-72.3598,18.8693,1105.5631],[-72.3523,18.8696,850.1206],[-72.3446,18.8661,735.8349],[-72.3415,18.8673,685.8732],[-72.3324,18.8631,649.452],[-72.325,18.8627,635.063],[-72.3154,18.858,602.174],[-72.3109,18.8591,623.9383],[-72.305,18.8636,774.7075],[-72.3009,18.8637,840.4309],[-72.2892,18.8637,876.9762],[-72.2788,18.86,963.3231],[-72.2646,18.8619,702.2553],[-72.2568,18.8572,633.0061],[-72.2533,18.858,663.7499],[-72.2468,18.8717,448.1373],[-72.2481,18.8807,307.7205],[-72.2436,18.8996,121.0932],[-72.2496,18.9089,78.4114],[-72.2416,18.9156,66.1939]]]]}
,"properties": {"GID_2": "HTI.3.5_1","GID_0": "HTI","country": "Haiti","GID_1": "HTI.3_1","province": "L'Artibonite","NL_NAME_1": "NA","county": "Saint-Marc","VARNAME_2": "NA","NL_NAME_2": "NA","TYPE_2": "Arrondissement","ENGTYPE_2": "District","CC_2": "NA","HASC_2": "HT.AR.SM","name": "Saint-Marc.county","area_km2": 1056.2149,"hist_schema_id": "Elevation0-9000","hist_area_km2": {"0": 125.4033,"25": 85.6435,"50": 63.784,"75": 52.1648,"100": 57.0405,"125": 53.1947,"150": 47.4228,"175": 41.9288,"200": 33.6502,"225": 30.805,"250": 29.3017,"275": 26.497,"300": 26.5176,"325": 26.237,"350": 25.7767,"375": 19.0833,"400": 14.7349,"425": 12.2096,"450": 11.6684,"475": 10.9664,"500": 10.5861,"525": 12.2097,"550": 11.7085,"575": 11.829,"600": 11.5886,"625": 11.4285,"650": 9.5239,"675": 8.3608,"700": 7.4184,"725": 7.1578,"750": 7.258,"775": 6.877,"800": 7.8193,"825": 6.9371,"850": 7.2777,"875": 7.0373,"900": 6.7361,"925": 7.1975,"950": 7.2778,"975": 7.0168,"1000": 7.2777,"1025": 7.1775,"1050": 8.1998,"1075": 8.7611,"1100": 8.4404,"1125": 8.4204,"1150": 8.0395,"1175": 7.8792,"1200": 7.1174,"1225": 5.9547,"1250": 3.3686,"1275": 3.1083,"1300": 2.0857,"1325": 1.3235,"1350": 0.7219,"1375": 0.6417,"1400": 0.3609,"1425": 0.0602}}}