{"type": "Feature","bbox": [-66.271,18.1731,-66.1688,18.2761],"geometry": {"type": "MultiPolygon","coordinates": [[[[-66.1906,18.2585,539.0855],[-66.1934,18.2676,514.489],[-66.2003,18.2714,451.7382],[-66.1999,18.2742,244.0591],[-66.2013,18.2761,186.4861],[-66.2179,18.2747,140.3051],[-66.2193,18.2742,153.5313],[-66.2285,18.2537,564.8912],[-66.2419,18.2546,626.3385],[-66.2447,18.2493,600.3937],[-66.2664,18.2455,640.531],[-66.2682,18.2412,591.3024],[-66.2655,18.2335,607.9263],[-66.271,18.2173,367.6935],[-66.2645,18.2054,677.1639],[-66.2635,18.1854,406.6147],[-66.2565,18.1825,363.3521],[-66.2538,18.1878,325.7645],[-66.2441,18.1935,253.2393],[-66.2408,18.1845,238.2184],[-66.2307,18.1845,481.9475],[-66.2279,18.1778,357.8889],[-66.2237,18.1755,533.3047],[-66.2117,18.1731,629.785],[-66.2131,18.186,475.3331],[-66.2067,18.197,328.9595],[-66.2002,18.197,412.2354],[-66.185,18.2013,580.1148],[-66.1845,18.207,557.9135],[-66.1785,18.2128,517.1005],[-66.1697,18.2176,580.8517],[-66.1688,18.2242,501.482],[-66.1762,18.2295,465.0384],[-66.1781,18.2352,401.4366],[-66.1781,18.2452,550.0321],[-66.1906,18.2585,539.0855]]]]}
,"properties": {"GID_1": "PRI.23_1","GID_0": "PRI","country": "PuertoRico","province": "Comerío","VARNAME_1": "NA","NL_NAME_1": "NA","TYPE_1": "Municipio","ENGTYPE_1": "Municipality","CC_1": "NA","HASC_1": "PR.CM","ISO_1": "NA","name": "Comerío.province","area_km2": 73.74776,"hist_schema_id": "Elevation0-9000","hist_area_km2": {"75": 0.0604,"100": 0.04027,"125": 0.1208,"150": 0.3624,"175": 1.06718,"200": 2.195,"225": 3.20206,"250": 3.82643,"275": 4.79302,"300": 4.24931,"325": 4.59175,"350": 5.01462,"375": 4.69248,"400": 4.53131,"425": 4.16887,"450": 4.55141,"475": 4.3299,"500": 4.209,"525": 4.16873,"550": 5.33651,"575": 4.36985,"600": 2.83942,"625": 0.74509,"650": 0.12085,"675": 0.16113}}}