{"type":"Feature","properties":{"GID_3":"HTI.2.2.3_1","GID_0":"HTI","country":"Haiti","GID_1":"HTI.2_1","province":"Grand'Anse","NL_NAME_1":"NA","GID_2":"HTI.2.2_1","county":"Corail","NL_NAME_2":"NA","city":"Pestel","VARNAME_3":"NA","NL_NAME_3":"NA","TYPE_3":"Commune","ENGTYPE_3":"Commune","CC_3":"NA","HASC_3":"NA","name":"Pestel.city"},
"geometry":{"type": "MultiPolygon","coordinates": [[[[-73.9396,18.3721,632.0335],[-73.9399,18.3701,564.224],[-73.9309,18.3654,608.03],[-73.9261,18.3664,501.7318],[-73.9229,18.364,490.0479],[-73.9188,18.3647,467.2976],[-73.9066,18.3621,394.8359],[-73.8956,18.363,358.0066],[-73.8929,18.3753,680.8807],[-73.8979,18.377,818.822],[-73.9062,18.3891,916.4146],[-73.9064,18.3959,820.2624],[-73.9057,18.3989,807.1788],[-73.9034,18.4005,787.7103],[-73.8786,18.4073,798.3356],[-73.8751,18.4055,886.1104],[-73.8684,18.4071,814.4863],[-73.8627,18.4062,896.1783],[-73.8457,18.4077,925.5178],[-73.8428,18.4067,1061.6755],[-73.8354,18.4102,1122.7659],[-73.8213,18.4128,1063.4935],[-73.7856,18.424,1103.3995],[-73.78,18.4239,1086.592],[-73.7789,18.4412,873.6298],[-73.7758,18.4421,842.4801],[-73.7748,18.4541,701.1531],[-73.7724,18.4568,665.6496],[-73.7663,18.4594,568.6419],[-73.7654,18.4654,403.8486],[-73.7425,18.4777,220.981],[-73.738,18.484,288.0427],[-73.7385,18.4862,342.8564],[-73.7423,18.4892,303.3923],[-73.7617,18.4941,354.0577],[-73.7673,18.4964,393.5909],[-73.7688,18.4989,413.9645],[-73.7653,18.506,370.8011],[-73.7576,18.5117,366.6922],[-73.7539,18.517,329.1968],[-73.7433,18.5231,315.3116],[-73.7374,18.536,139.8833],[-73.7315,18.5406,14.7566],[-73.7314,18.5428,2.0011],[-73.7355,18.5458,68.2513],[-73.7316,18.5496,10.6137],[-73.734,18.5502,22.6636],[-73.7391,18.5471,0.0],[-73.7421,18.5477,0.0],[-73.7535,18.544,18.8061],[-73.7596,18.5451,5.3517],[-73.7624,18.5401,62.6244],[-73.7646,18.5449,0.0],[-73.7718,18.5421,0.0],[-73.7729,18.5385,23.2071],[-73.7737,18.5404,4.3098],[-73.776,18.539,17.8349],[-73.7747,18.5421,0.0],[-73.776,18.5421,0.0],[-73.7781,18.5392,7.8936],[-73.7765,18.5376,15.75],[-73.7771,18.536,11.179],[-73.7787,18.5362,3.9714],[-73.7782,18.5385,0.0],[-73.7801,18.5401,8.0612],[-73.7815,18.5385,54.4752],[-73.7831,18.5399,7.5963],[-73.7882,18.539,0.0],[-73.7899,18.5368,20.0354],[-73.7901,18.5379,59.7918],[-73.7887,18.541,0.0],[-73.7924,18.5449,12.1555],[-73.7909,18.5457,1.2478],[-73.7957,18.5455,0.0],[-73.7935,18.5483,0.0],[-73.7971,18.5468,12.8916],[-73.7967,18.5494,0.0],[-73.8018,18.5522,0.0],[-73.8032,18.5503,32.2222],[-73.8029,18.5532,0.0],[-73.8051,18.5551,4.0085],[-73.8077,18.5552,33.6804],[-73.8101,18.5575,0.0],[-73.8112,18.5567,22.6668],[-73.812,18.5581,0.0],[-73.8143,18.5565,15.0867],[-73.8129,18.5594,0.0],[-73.8141,18.561,0.0],[-73.816,18.5601,14.6489],[-73.8152,18.559,14.6489],[-73.8165,18.5574,54.6622],[-73.8183,18.5607,0.0],[-73.8206,18.559,15.9855],[-73.822,18.5627,0.0],[-73.8251,18.5607,15.7282],[-73.8268,18.5629,0.0],[-73.8335,18.5657,10.2894],[-73.8332,18.5668,10.2894],[-73.8372,18.5669,23.5407],[-73.8388,18.5624,65.3444],[-73.8451,18.5587,94.063],[-73.851,18.5501,226.1189],[-73.8512,18.5419,309.6],[-73.8553,18.5344,298.0325],[-73.855,18.5266,306.8025],[-73.8569,18.5231,310.4811],[-73.8651,18.5159,263.3817],[-73.8697,18.5078,211.7101],[-73.8714,18.5039,161.3345],[-73.872,18.4928,250.6007],[-73.8833,18.4869,417.679],[-73.8869,18.4897,395.4097],[-73.8913,18.4905,349.5206],[-73.8963,18.4784,577.2207],[-73.9074,18.4763,675.6716],[-73.917,18.4675,621.747],[-73.9221,18.4665,562.8977],[-73.93,18.4557,755.9465],[-73.9307,18.4416,673.627],[-73.9351,18.4279,1072.1321],[-73.9327,18.4228,904.2495],[-73.9336,18.4196,1133.3186],[-73.9384,18.4162,1082.7705],[-73.9404,18.4049,1209.7693],[-73.9397,18.3987,1087.7993],[-73.938,18.3971,1087.7993],[-73.9293,18.3958,1101.5349],[-73.9273,18.3942,1034.4841],[-73.9273,18.3913,1008.9714],[-73.9321,18.3826,1050.2943],[-73.9392,18.3765,665.2301],[-73.9396,18.3721,632.0335]]]]}}