{"type":"Feature","properties":{"GID_2":"CUB.7.13_1","GID_0":"CUB","country":"Cuba","GID_1":"CUB.7_1","province":"Holguín","NL_NAME_1":"NA","county":"SaguadeTánamo","VARNAME_2":"NA","NL_NAME_2":"NA","TYPE_2":"Municipio","ENGTYPE_2":"Municipality","CC_2":"NA","HASC_2":"CU.HO.ST","name":"Saguade_Tánamo.county"},
"geometry":{"type": "MultiPolygon","coordinates": [[[[-75.2439,20.4408,336.1202],[-75.2419,20.4407,315.5948],[-75.2309,20.429,330.8178],[-75.2243,20.4264,466.6157],[-75.2162,20.4265,365.4081],[-75.2101,20.4316,348.7235],[-75.2074,20.4405,282.1467],[-75.2055,20.4599,193.3967],[-75.1973,20.4751,378.0078],[-75.1788,20.5021,97.0524],[-75.161,20.518,138.8574],[-75.1538,20.5186,107.7182],[-75.146,20.5158,203.6187],[-75.1316,20.5062,289.0195],[-75.1111,20.5085,237.6485],[-75.0898,20.5188,264.8021],[-75.082,20.5207,283.5306],[-75.0724,20.5208,315.5502],[-75.0581,20.5177,350.8945],[-75.0296,20.5071,368.014],[-75.0215,20.5025,247.4265],[-75.007,20.4891,473.2476],[-75.0038,20.4892,431.324],[-75.0008,20.4948,387.5239],[-74.9971,20.4969,376.1471],[-74.9915,20.4967,417.1289],[-74.9719,20.4754,557.2216],[-74.9475,20.463,620.2796],[-74.9438,20.463,632.871],[-74.9407,20.4663,630.5833],[-74.9413,20.4849,960.2184],[-74.9451,20.4907,663.0473],[-74.969,20.5061,262.8295],[-74.9756,20.5134,290.3137],[-74.9798,20.5219,191.3124],[-74.9802,20.5275,155.2461],[-74.979,20.5298,138.8685],[-74.9686,20.5294,458.8932],[-74.9789,20.5482,202.9395],[-75.0573,20.6201,49.556399999999996],[-75.1049,20.6188,15.4431],[-75.1412,20.6267,63.6104],[-75.2786,20.626,82.4426],[-75.3051,20.6186,44.6872],[-75.3465,20.6167,87.011],[-75.4139,20.5932,259.6906],[-75.4163,20.5896,281.0264],[-75.3832,20.5935,107.0644],[-75.3769,20.5933,118.9718],[-75.371,20.5901,87.9567],[-75.3672,20.5875,133.0956],[-75.3637,20.581,118.9823],[-75.3594,20.5605,233.16309999999999],[-75.3584,20.5407,157.979],[-75.359,20.5354,381.9925],[-75.3617,20.5306,202.2789],[-75.3675,20.5253,147.4689],[-75.3846,20.5212,255.4003],[-75.3911,20.5176,213.3464],[-75.4008,20.506,213.5876],[-75.4075,20.4921,170.0398],[-75.4067,20.4853,195.1258],[-75.3816,20.4859,229.7763],[-75.3756,20.4839,191.2461],[-75.367,20.4678,127.0327],[-75.3635,20.4649,151.1963],[-75.3539,20.4632,295.1879],[-75.3466,20.4589,260.162],[-75.3394,20.4387,357.2075],[-75.3207,20.4486,329.4393],[-75.3109,20.4617,255.4014],[-75.3026,20.4668,193.9968],[-75.2961,20.4668,134.3352],[-75.2889,20.4631,158.9339],[-75.2818,20.4479,264.1416],[-75.2726,20.437,167.6794],[-75.2667,20.4339,140.4524],[-75.2623,20.4342,96.766],[-75.2503,20.4414,202.7831],[-75.2439,20.4408,336.1202]]]]}}