{"type": "Feature","bbox": [-70.3521,18.8255,-70.2172,18.9475],"geometry": {"type": "MultiPolygon","coordinates": [[[[-70.3451,18.9034,545.7849],[-70.3403,18.8964,553.9417],[-70.3354,18.8941,578.1545],[-70.3212,18.9003,510.9661],[-70.3174,18.904,602.808],[-70.3099,18.9013,554.8008],[-70.3033,18.8948,210.3412],[-70.2913,18.8755,307.8406],[-70.2795,18.8638,267.7804],[-70.2804,18.8521,421.4321],[-70.2631,18.8449,302.9921],[-70.2581,18.8385,458.9008],[-70.2493,18.8335,568.4764],[-70.2442,18.8264,421.449],[-70.2393,18.8255,364.1355],[-70.2395,18.8348,438.4946],[-70.2381,18.8381,543.2244],[-70.2247,18.8455,439.4622],[-70.2243,18.8559,243.3422],[-70.2172,18.872,186.9778],[-70.22,18.8772,136.8145],[-70.2267,18.882,130.1258],[-70.2303,18.8932,124.4246],[-70.2485,18.9065,101.506],[-70.2511,18.9114,113.3013],[-70.2497,18.919,148.0597],[-70.2514,18.9229,117.5001],[-70.2533,18.9241,88.5934],[-70.2584,18.9234,89.7567],[-70.268,18.9273,90.3846],[-70.2852,18.9287,96.667],[-70.2896,18.9318,97.4884],[-70.2935,18.9417,114.0617],[-70.2975,18.9468,108.048],[-70.302,18.9475,103.7023],[-70.3065,18.9454,120.945],[-70.313,18.9465,181.1337],[-70.3191,18.936,126.0018],[-70.3212,18.9282,173.5293],[-70.3284,18.9232,261.485],[-70.3367,18.9218,298.7065],[-70.344,18.9175,215.8731],[-70.3516,18.916,334.6317],[-70.3521,18.9112,400.6661],[-70.3451,18.9034,545.7849]]]]}
,"properties": {"GID_2": "DOM.16.2_1","GID_0": "DOM","country": "DominicanRepublic","GID_1": "DOM.16_1","province": "MonseñorNouel","NL_NAME_1": "NA","county": "Maimón","VARNAME_2": "NA","NL_NAME_2": "NA","TYPE_2": "Municipio","ENGTYPE_2": "Municipality","CC_2": "NA","HASC_2": "DO.MN.MA","name": "Maimón.county","area_km2": 80.70183,"hist_schema_id": "Elevation0-9000","hist_area_km2": {"100": 11.51262,"125": 13.29872,"150": 8.00355,"175": 5.55669,"200": 4.21278,"225": 3.08934,"250": 2.5678,"275": 2.78853,"300": 2.68821,"325": 2.72825,"350": 2.52775,"375": 2.54778,"400": 2.92903,"425": 2.2068,"450": 2.20687,"475": 2.26704,"500": 1.46461,"525": 1.44448,"550": 1.74543,"575": 1.38431,"600": 0.963,"625": 0.92288,"650": 0.66213,"675": 0.36118,"700": 0.20066,"725": 0.20065,"750": 0.16052,"775": 0.0602}}}