{"type": "Feature","id": "5086","bbox": [-60.98158,13.71467,-60.91804,13.83923],"geometry": {"type": "Polygon","coordinates": [[[-60.91804,13.774,19.1491],[-60.92924,13.78877,27.37],[-60.94178,13.80256,155.9809],[-60.96183,13.82387,219.3185],[-60.97522,13.83923,295.2267],[-60.98158,13.83577,357.5715],[-60.98094,13.8308,386.0501],[-60.98038,13.82643,427.5795],[-60.97687,13.81342,279.4163],[-60.97019,13.79091,222.0904],[-60.96386,13.77579,126.2874],[-60.9628,13.7554,46.9292],[-60.96245,13.74168,48.2826],[-60.96709,13.73064,2.2177],[-60.95507,13.71467,2.9456],[-60.9501,13.71467,95.0435],[-60.94701,13.71629,90.2666],[-60.94079,13.72211,0.0],[-60.93175,13.76032,19.0117],[-60.92711,13.76992,27.9081],[-60.92284,13.77269,67.4018],[-60.91804,13.774,19.1491]]]}
,"properties": {"ISO3166-1-Alpha-3": "LCA","country": "Saint Lucia","fill": "#F00","name": "Vieux Fort","area_km2": 41.61721,"hist_schema_id": "Elevation0-9000","hist_area_km2": {"0": 9.1651,"25": 4.26302,"50": 3.08893,"75": 3.37712,"100": 2.96525,"125": 2.7799,"150": 2.53272,"175": 2.4503,"200": 2.49143,"225": 2.26492,"250": 2.22371,"275": 1.19418,"300": 0.88532,"325": 0.80296,"350": 0.43235,"375": 0.28823,"400": 0.28823,"425": 0.12353}}}