{"type":"Feature","properties":{"GID_2":"HTI.8.5_1","GID_0":"HTI","country":"Haiti","GID_1":"HTI.8_1","province":"Ouest","NL_NAME_1":"NA","county":"Port-au-Prince","VARNAME_2":"NA","NL_NAME_2":"NA","TYPE_2":"Arrondissement","ENGTYPE_2":"District","CC_2":"NA","HASC_2":"HT.OU.PP","name":"Port-au-Prince.county"},
"geometry":{"type": "MultiPolygon","coordinates": [[[[-72.3963,18.3861,980.2925],[-72.394,18.3917,945.6548],[-72.389,18.3915,1010.5517],[-72.3838,18.3877,1021.1022],[-72.3834,18.38,814.3248],[-72.3796,18.3791,933.7246],[-72.3707,18.3813,1105.3505],[-72.3671,18.378,1351.7725],[-72.3697,18.3663,1439.5607],[-72.3669,18.3571,1574.0917],[-72.3639,18.3551,1818.9677],[-72.3647,18.3529,1913.8832],[-72.363,18.3535,1899.0709],[-72.3525,18.3488,1805.7375],[-72.3395,18.348,1665.5133],[-72.3268,18.341,1646.0967],[-72.3147,18.3399,1751.1104],[-72.308,18.3401,1867.0588],[-72.3043,18.342,1853.3279],[-72.2911,18.3414,1882.4419],[-72.2869,18.3438,1959.1758],[-72.2806,18.3543,2140.6064],[-72.2761,18.3536,2123.1321],[-72.268,18.3569,2156.5312],[-72.2573,18.3582,2175.9202],[-72.2449,18.3537,2182.7891],[-72.2282,18.3519,2209.4917],[-72.2181,18.3484,2118.3806],[-72.2113,18.351,2011.8755],[-72.1994,18.3522,2046.9587],[-72.2015,18.3604,1409.2166],[-72.2045,18.365,1209.2993],[-72.2016,18.3786,878.8071],[-72.2045,18.3836,766.5869],[-72.2029,18.3902,700.6812],[-72.2073,18.4009,602.1218],[-72.2103,18.4044,521.7293],[-72.206,18.408,520.9982],[-72.2053,18.4113,606.0098],[-72.2017,18.4128,623.5733],[-72.1982,18.4186,627.6304],[-72.196,18.4184,515.9111],[-72.1949,18.4208,649.1754],[-72.1922,18.4195,550.3911],[-72.1822,18.4194,447.3837],[-72.1782,18.4176,444.0676],[-72.177,18.4211,462.7037],[-72.1724,18.424,435.3661],[-72.1727,18.4294,441.6948],[-72.1649,18.4297,427.2964],[-72.1667,18.4336,407.3013],[-72.1709,18.432,435.9906],[-72.1738,18.4351,399.2213],[-72.1786,18.43,399.4015],[-72.1795,18.4346,366.3231],[-72.1789,18.4365,372.6778],[-72.1737,18.4389,389.0767],[-72.1763,18.4428,378.8316],[-72.1754,18.4462,353.2731],[-72.172,18.4462,388.4833],[-72.1703,18.4481,381.2874],[-72.1612,18.4505,365.8191],[-72.1596,18.4522,378.2389],[-72.1589,18.4599,317.948],[-72.1607,18.4649,308.5334],[-72.1593,18.4687,290.6485],[-72.1642,18.4697,288.662],[-72.1682,18.4686,368.9878],[-72.1688,18.4709,306.9005],[-72.1661,18.4719,275.3092],[-72.166,18.4735,364.7493],[-72.1711,18.4745,278.7098],[-72.1687,18.4767,263.4382],[-72.1735,18.4822,289.4678],[-72.1746,18.4824,260.8508],[-72.1752,18.48,289.3225],[-72.1776,18.4803,302.2468],[-72.1756,18.4833,260.8508],[-72.178,18.4849,249.356],[-72.1796,18.4852,242.8692],[-72.1827,18.4798,253.6516],[-72.1851,18.4816,310.9762],[-72.1837,18.4833,247.0912],[-72.1876,18.4832,246.6672],[-72.1908,18.4925,383.5316],[-72.2074,18.5103,152.8221],[-72.2104,18.5216,128.5663],[-72.233,18.5551,81.5633],[-72.2364,18.5647,65.8684],[-72.2428,18.5733,57.2441],[-72.2434,18.5778,55.1062],[-72.2489,18.5814,54.6986],[-72.2486,18.5869,47.4616],[-72.2536,18.5873,44.7157],[-72.2564,18.5935,38.834],[-72.2658,18.5969,34.2064],[-72.2682,18.596,33.5235],[-72.2737,18.5998,30.4859],[-72.2783,18.5981,27.156],[-72.2816,18.5991,28.2733],[-72.2892,18.5976,26.1525],[-72.2889,18.6012,26.4355],[-72.295,18.6034,21.9233],[-72.2959,18.6073,18.776],[-72.3003,18.6095,16.9347],[-72.3012,18.6058,14.7962],[-72.303,18.6047,13.3697],[-72.3068,18.6067,12.5872],[-72.3129,18.6043,11.5319],[-72.3161,18.6065,12.0795],[-72.3141,18.6081,13.4468],[-72.3152,18.6101,9.7597],[-72.3207,18.61,9.9384],[-72.3248,18.6136,7.458],[-72.3274,18.6117,7.3081],[-72.3283,18.6134,6.3311],[-72.3264,18.6136,7.458],[-72.3267,18.6159,6.5709],[-72.3351,18.6175,5.4146],[-72.3358,18.621,4.9427],[-72.3481,18.6247,1.4315],[-72.3584,18.6307,0.0],[-72.3596,18.628,0.0],[-72.3511,18.6228,1.368],[-72.3522,18.6144,0.0],[-72.3496,18.614,0.5689],[-72.3452,18.6074,0.1417],[-72.3469,18.6013,0.4356],[-72.346,18.5977,0.0],[-72.3392,18.5937,0.0],[-72.3399,18.5843,0.2155],[-72.3428,18.5804,0.3675],[-72.3401,18.5786,1.0211],[-72.3393,18.575,0.1649],[-72.3434,18.5724,2.0951],[-72.344,18.5768,0.0],[-72.3476,18.5743,0.0],[-72.3476,18.571,1.5517],[-72.3507,18.5701,1.3044],[-72.3533,18.5667,0.6818],[-72.3529,18.564,0.0],[-72.3472,18.5633,1.6014],[-72.3525,18.5583,0.0],[-72.351,18.5557,2.0739],[-72.3549,18.5551,0.0],[-72.3484,18.5532,1.7339],[-72.3506,18.5493,2.1456],[-72.3499,18.5452,1.3769],[-72.3518,18.5422,0.0],[-72.3579,18.5401,0.277],[-72.3582,18.5376,1.6464],[-72.361,18.5351,1.6896],[-72.3639,18.5373,0.0],[-72.3644,18.5337,4.367],[-72.3671,18.5359,0.0],[-72.3757,18.5331,2.8355],[-72.3809,18.5348,1.7462],[-72.3823,18.5382,1.197],[-72.3857,18.5385,0.2511],[-72.389,18.5421,2.2887],[-72.3872,18.5433,1.7455],[-72.3878,18.5459,0.0],[-72.3904,18.543,1.6755],[-72.3949,18.5457,8.3025],[-72.3945,18.5488,0.0],[-72.3971,18.5482,3.1841],[-72.4013,18.5515,0.9816],[-72.4137,18.5537,4.4619],[-72.4172,18.5558,0.0],[-72.42,18.555,1.7109],[-72.4231,18.5496,2.2595],[-72.4313,18.5426,0.0],[-72.4334,18.5438,0.0],[-72.4457,18.5438,0.0],[-72.468,18.5483,0.4481],[-72.4724,18.5484,0.2357],[-72.4819,18.5451,5.7496],[-72.4831,18.5465,0.0],[-72.4882,18.5456,0.0],[-72.4958,18.5471,0.0],[-72.5005,18.5452,7.4354],[-72.5053,18.546,0.0],[-72.5065,18.5485,0.2313],[-72.5131,18.5491,0.0],[-72.5176,18.5455,1.5456],[-72.5196,18.5471,0.0],[-72.5254,18.5474,0.0],[-72.5399,18.5442,0.0],[-72.546,18.5499,0.4072],[-72.547,18.5454,3.6401],[-72.5614,18.5221,25.5122],[-72.5573,18.5169,38.7508],[-72.5577,18.5145,40.9053],[-72.5604,18.5157,31.8886],[-72.5648,18.5143,33.3675],[-72.5692,18.5092,45.1459],[-72.5693,18.4918,69.1852],[-72.5661,18.4895,73.5197],[-72.5558,18.4758,87.8216],[-72.5519,18.4728,93.1558],[-72.5456,18.4715,109.9276],[-72.5385,18.4746,117.9776],[-72.531,18.4716,132.8699],[-72.5261,18.4734,132.6517],[-72.5205,18.4716,170.4578],[-72.4944,18.4735,159.6158],[-72.4894,18.472,184.0859],[-72.469,18.4762,200.1327],[-72.4658,18.4642,677.3541],[-72.4556,18.4566,1093.0164],[-72.4555,18.4505,1213.0693],[-72.4588,18.4444,1130.9434],[-72.4522,18.4332,1068.6271],[-72.452,18.4312,1064.3385],[-72.4541,18.4287,1190.2463],[-72.4502,18.4211,1393.4668],[-72.4533,18.4162,1374.2587],[-72.4508,18.4127,1334.3311],[-72.4526,18.4102,1180.2874],[-72.4492,18.4061,1039.7258],[-72.451,18.4039,1011.1548],[-72.4498,18.4013,868.9005],[-72.4513,18.397,647.1258],[-72.4452,18.3965,806.0421],[-72.4425,18.399,926.1665],[-72.4235,18.401,1174.6516],[-72.4221,18.3975,1186.7761],[-72.4277,18.3949,1220.91],[-72.4363,18.3795,888.2103],[-72.435,18.3732,670.2064],[-72.4305,18.3763,705.8126],[-72.4271,18.3739,666.6077],[-72.4187,18.3752,580.7546],[-72.4098,18.3787,885.3673],[-72.4044,18.3839,807.1675],[-72.3963,18.3861,980.2925]]]]}}