{"type": "Feature","bbox": [-66.6114,18.157,-66.4541,18.3719],"geometry": {"type": "MultiPolygon","coordinates": [[[[-66.6068,18.3282,293.139],[-66.6114,18.3225,115.8203],[-66.585,18.3226,165.7853],[-66.5817,18.3141,217.4717],[-66.5729,18.3089,223.8953],[-66.5668,18.2984,225.7531],[-66.5608,18.2937,238.7128],[-66.5547,18.2814,349.0368],[-66.5584,18.2756,363.5765],[-66.5556,18.2694,442.6154],[-66.5559,18.2537,561.4231],[-66.5624,18.2537,576.9539],[-66.5647,18.2427,670.9316],[-66.5554,18.2375,775.0599],[-66.5493,18.2208,1047.3147],[-66.5377,18.2128,1101.3022],[-66.533,18.1971,1078.6644],[-66.5366,18.188,945.3536],[-66.531,18.1804,1215.1053],[-66.5329,18.1766,1200.984],[-66.5384,18.1761,1200.533],[-66.5429,18.1632,1102.8312],[-66.529,18.157,910.1956],[-66.5198,18.1638,839.4948],[-66.512,18.1667,722.6718],[-66.5107,18.1772,721.0181],[-66.5145,18.192,548.4328],[-66.5112,18.1982,576.8387],[-66.5122,18.211,444.8181],[-66.515,18.2163,436.8953],[-66.5179,18.2301,385.1916],[-66.5096,18.2297,339.733],[-66.5073,18.2349,344.7129],[-66.5124,18.2425,351.0555],[-66.5083,18.2487,303.7596],[-66.5009,18.2569,238.9828],[-66.4972,18.2521,236.7653],[-66.4829,18.2527,462.602],[-66.4694,18.2461,486.2335],[-66.4542,18.2509,195.7645],[-66.4556,18.2576,195.3598],[-66.4588,18.26,226.7375],[-66.4579,18.2609,240.4747],[-66.4612,18.2766,142.2299],[-66.4603,18.2785,166.6753],[-66.465,18.2833,114.7104],[-66.4613,18.2995,80.9784],[-66.4549,18.3,107.4671],[-66.4541,18.3281,248.8304],[-66.4546,18.3329,242.4078],[-66.4648,18.3524,158.3063],[-66.4631,18.3715,263.2535],[-66.4668,18.3719,251.6345],[-66.4774,18.3666,85.2201],[-66.4964,18.3661,224.0781],[-66.5116,18.3622,219.0859],[-66.5287,18.3502,259.1819],[-66.5338,18.3515,257.3741],[-66.5361,18.3482,268.9116],[-66.5518,18.3414,307.3855],[-66.5597,18.3409,306.4194],[-66.5731,18.3427,299.7295],[-66.5907,18.3379,319.1123],[-66.6004,18.3392,354.656],[-66.6068,18.3282,293.139]]]]}
,"properties": {"GID_1": "PRI.20_1","GID_0": "PRI","country": "PuertoRico","province": "Ciales","VARNAME_1": "NA","NL_NAME_1": "NA","TYPE_1": "Municipio","ENGTYPE_1": "Municipality","CC_1": "NA","HASC_1": "PR.CL","ISO_1": "-","name": "Ciales.province","area_km2": 173.6718,"hist_schema_id": "Elevation0-9000","hist_area_km2": {"25": 0.8251,"50": 2.3547,"75": 2.7572,"100": 2.8579,"125": 3.5423,"150": 4.4682,"175": 4.7704,"200": 5.5354,"225": 7.4472,"250": 9.0776,"275": 12.0164,"300": 17.7329,"325": 19.3435,"350": 16.4658,"375": 8.4346,"400": 3.5836,"425": 3.3422,"450": 2.9396,"475": 2.3759,"500": 2.6578,"525": 3.0807,"550": 2.9802,"575": 2.8996,"600": 2.9399,"625": 2.5775,"650": 2.7185,"675": 2.6783,"700": 2.5776,"725": 2.1146,"750": 1.45,"775": 1.4299,"800": 1.1278,"825": 1.3092,"850": 0.8258,"875": 0.9869,"900": 1.2085,"925": 0.8862,"950": 0.8057,"975": 0.9467,"1000": 0.7856,"1025": 0.9669,"1050": 0.8057,"1075": 0.6647,"1100": 0.8057,"1125": 0.705,"1150": 0.3827,"1175": 0.2417,"1200": 0.2014,"1225": 0.0403}}}