{"type": "Feature","bbox": [-66.0107,18.0112,-65.7943,18.1256],"geometry": {"type": "MultiPolygon","coordinates": [[[[-65.7963,18.0696,5.7781],[-65.809,18.0716,68.526],[-65.814,18.0816,76.9081],[-65.8219,18.0816,71.3036],[-65.838,18.0902,53.2154],[-65.8436,18.0979,125.5344],[-65.8482,18.0993,144.4311],[-65.8421,18.1103,175.2951],[-65.8454,18.115,213.2154],[-65.8509,18.1184,238.9024],[-65.8601,18.1155,257.6565],[-65.8634,18.1127,239.3725],[-65.8634,18.1089,246.0182],[-65.8652,18.1079,253.8967],[-65.8703,18.1084,239.3059],[-65.8712,18.1127,240.6938],[-65.8777,18.1179,265.0245],[-65.8948,18.1242,279.5832],[-65.9082,18.1256,305.3777],[-65.9262,18.1199,387.1513],[-65.9257,18.1118,349.7524],[-65.928,18.1037,311.7284],[-65.9308,18.097,287.4729],[-65.9364,18.0918,313.5096],[-65.9428,18.0894,346.937],[-65.9525,18.0927,320.3423],[-65.9622,18.0865,320.4817],[-65.9774,18.0951,338.2647],[-65.9848,18.0884,337.6364],[-65.9936,18.0899,359.1657],[-66.0051,18.076,562.9557],[-66.0102,18.0756,622.9202],[-66.0107,18.0679,589.7439],[-65.9987,18.0603,535.865],[-65.9885,18.0589,474.8035],[-65.9779,18.0612,370.9049],[-65.9724,18.0527,374.187],[-65.9645,18.0541,405.3777],[-65.9581,18.0522,305.1645],[-65.9521,18.0445,379.139],[-65.9341,18.0369,441.5269],[-65.9119,18.0331,357.3508],[-65.9073,18.0359,307.7871],[-65.8976,18.034,474.7631],[-65.8879,18.0302,348.029],[-65.881,18.0206,432.5383],[-65.8644,18.0258,445.1512],[-65.8575,18.0168,184.1841],[-65.8493,18.0112,0.0],[-65.8446,18.0157,7.3914],[-65.8379,18.0143,16.6499],[-65.834,18.0115,0.0],[-65.8343,18.016,0.0],[-65.8321,18.014,0.0],[-65.8324,18.0174,11.8746],[-65.8299,18.0199,0.0],[-65.8324,18.0238,7.7048],[-65.8318,18.0282,0.0],[-65.8285,18.031,0.0],[-65.8332,18.0385,5.6722],[-65.831,18.0501,0.8656],[-65.8329,18.0513,0.0],[-65.836,18.0496,3.9376],[-65.8365,18.0529,2.4081],[-65.8321,18.0554,1.2326],[-65.8271,18.0521,0.0],[-65.8276,18.0551,0.1802],[-65.8179,18.0629,3.235],[-65.816,18.0629,3.235],[-65.8096,18.0565,0.0],[-65.8021,18.0579,3.8249],[-65.801,18.061,13.3925],[-65.7993,18.061,0.0],[-65.7996,18.064,27.4644],[-65.7965,18.0643,0.0],[-65.7962,18.0682,0.0],[-65.7943,18.0685,0.0],[-65.7963,18.0696,5.7781]]]]}
,"properties": {"GID_1": "PRI.77_1","GID_0": "PRI","country": "PuertoRico","province": "Yabucoa","VARNAME_1": "NA","NL_NAME_1": "NA","TYPE_1": "Municipio","ENGTYPE_1": "Municipality","CC_1": "NA","HASC_1": "PR.YB","ISO_1": "-","name": "Yabucoa.province","area_km2": 145.1465,"hist_schema_id": "Elevation0-9000","hist_area_km2": {"0": 21.5079,"25": 29.3489,"50": 8.5668,"75": 4.9184,"100": 4.2128,"125": 3.5073,"150": 3.991,"175": 4.4948,"200": 5.2406,"225": 7.4775,"250": 10.319,"275": 8.8073,"300": 7.8001,"325": 8.163,"350": 6.0469,"375": 3.0438,"400": 2.1166,"425": 1.6127,"450": 1.4514,"475": 0.9273,"500": 0.5241,"525": 0.4435,"550": 0.262,"575": 0.2016,"600": 0.0605,"625": 0.0806,"650": 0.0202}}}