{"type":"Feature","properties":{"GID_1":"PRI.61_1","GID_0":"PRI","country":"PuertoRico","province":"RíoGrande","VARNAME_1":"NA","NL_NAME_1":"NA","TYPE_1":"Municipio","ENGTYPE_1":"Municipality","CC_1":"NA","HASC_1":"PR.RG","ISO_1":"NA","name":"Río_Grande.province"},
"geometry":{"type": "MultiPolygon","coordinates": [[[[-65.8363,18.2753,959.54],[-65.8317,18.2719,1005.7767],[-65.8243,18.2729,968.1851],[-65.8118,18.29,960.5355],[-65.8053,18.2881,813.3418],[-65.7947,18.2914,787.2021],[-65.7933,18.2966,817.5807],[-65.7887,18.2942,753.7052],[-65.785,18.2942,762.6205],[-65.7817,18.2885,769.3986],[-65.7743,18.2818,798.6901],[-65.7669,18.2799,882.2015],[-65.7623,18.2889,684.8336],[-65.759,18.2908,595.9655],[-65.7581,18.2975,399.2879],[-65.7627,18.3061,284.3809],[-65.758,18.3185,173.5292],[-65.752,18.3204,163.2714],[-65.7488,18.3256,114.9512],[-65.7515,18.328,113.7581],[-65.7557,18.3285,89.2871],[-65.7562,18.3337,101.2045],[-65.7538,18.3351,113.2843],[-65.7534,18.3413,67.0536],[-65.7649,18.3547,24.727],[-65.7682,18.3557,24.1541],[-65.7704,18.3662,13.2064],[-65.7497,18.3854,4.1728],[-65.7524,18.3885,6.5937],[-65.7596,18.3915,7.856],[-65.7621,18.3974,0.0],[-65.7679,18.3979,3.5713],[-65.7724,18.4015,0.0],[-65.7699,18.4093,0.674],[-65.7712,18.4135,3.1992],[-65.7746,18.414,0.0],[-65.7765,18.4115,4.3822],[-65.7871,18.4065,2.9004],[-65.7965,18.4054,5.185],[-65.7982,18.4085,2.0519],[-65.7893,18.4182,0.9657],[-65.7901,18.4218,1.2522],[-65.7949,18.4193,0.8759],[-65.8035,18.4096,2.1183],[-65.806,18.4104,5.8839],[-65.8071,18.409,5.8839],[-65.8112,18.409,2.4125],[-65.8176,18.4112,0.0],[-65.8221,18.4196,6.7517],[-65.8299,18.4226,2.9267],[-65.844,18.4059,2.7473],[-65.8528,18.4016,2.0653],[-65.8598,18.3816,9.5785],[-65.8653,18.3806,9.7996],[-65.8681,18.3764,18.1486],[-65.8741,18.373,20.7616],[-65.8737,18.3659,35.7329],[-65.8769,18.3616,49.3127],[-65.8733,18.3359,145.7727],[-65.8663,18.3316,129.9426],[-65.8626,18.3211,312.4074],[-65.8654,18.3173,445.8565],[-65.8696,18.3173,428.4948],[-65.8691,18.3106,499.2061],[-65.864,18.3096,509.0948],[-65.8627,18.303,359.5891],[-65.8682,18.2939,315.1051],[-65.8636,18.2939,347.1114],[-65.8544,18.2853,633.6125],[-65.8363,18.2753,959.54]]]]}}