{"type": "Feature","bbox": [-76.4604,20.4133,-76.0336,20.8045],"geometry": {"type": "MultiPolygon","coordinates": [[[[-76.3994,20.5862,46.3412],[-76.3656,20.5896,48.5899],[-76.3413,20.5863,50.2091],[-76.3375,20.5834,50.7422],[-76.3368,20.5787,51.0514],[-76.346,20.5648,51.1292],[-76.3459,20.5609,51.8561],[-76.3434,20.5575,51.1847],[-76.3377,20.5548,51.6808],[-76.305,20.5487,54.9053],[-76.2828,20.5381,55.1821],[-76.2288,20.5237,58.7389],[-76.2141,20.5177,60.4966],[-76.1936,20.5052,64.9028],[-76.1839,20.495,66.5052],[-76.1799,20.4812,66.915],[-76.1771,20.4568,66.489],[-76.1668,20.4148,88.3712],[-76.1547,20.4158,100.4661],[-76.1344,20.4281,100.7432],[-76.1282,20.429,98.8911],[-76.1207,20.4288,98.0713],[-76.1047,20.4193,106.2095],[-76.0919,20.4147,109.4396],[-76.0676,20.4133,108.1711],[-76.0633,20.4162,102.1561],[-76.0603,20.4254,92.9716],[-76.0598,20.4526,79.925],[-76.0624,20.4628,81.4631],[-76.0761,20.4836,80.8991],[-76.0793,20.5089,75.5],[-76.0866,20.5165,78.0235],[-76.0885,20.5224,79.6881],[-76.0739,20.5429,82.1548],[-76.0656,20.5459,86.6738],[-76.0369,20.5466,90.9637],[-76.0336,20.5502,93.9833],[-76.0337,20.5569,97.1798],[-76.0461,20.5765,98.5513],[-76.0481,20.5824,100.799],[-76.0481,20.5883,102.1047],[-76.0461,20.5901,104.246],[-76.052,20.6048,111.751],[-76.0543,20.6356,165.6471],[-76.0611,20.6535,147.8054],[-76.0623,20.673,128.4612],[-76.0993,20.6847,110.5326],[-76.1258,20.7225,117.7386],[-76.135,20.7289,124.273],[-76.1471,20.7289,111.6384],[-76.1611,20.7232,101.9577],[-76.2016,20.7138,80.2952],[-76.2115,20.7156,76.9478],[-76.2445,20.7307,72.8746],[-76.2536,20.7421,73.4745],[-76.2533,20.7725,113.9852],[-76.2683,20.784,125.3859],[-76.2784,20.8045,90.3344],[-76.2931,20.7902,92.3822],[-76.3014,20.7758,81.6956],[-76.3199,20.7562,74.4136],[-76.3283,20.7417,72.2273],[-76.3532,20.7169,61.0907],[-76.3616,20.7024,56.982],[-76.3801,20.6828,52.6825],[-76.3923,20.6639,49.2645],[-76.4053,20.6523,46.479],[-76.4209,20.644,43.8667],[-76.4399,20.6282,42.6048],[-76.4577,20.6174,42.1047],[-76.4604,20.6125,42.359],[-76.4316,20.5921,44.2228],[-76.4234,20.5883,45.1798],[-76.3994,20.5862,46.3412]]]]}
,"properties": {"GID_2": "CUB.7.14_1","GID_0": "CUB","country": "Cuba","GID_1": "CUB.7_1","province": "Holguín","NL_NAME_1": "NA","county": "UrbanoNoris","VARNAME_2": "NA","NL_NAME_2": "NA","TYPE_2": "Municipio","ENGTYPE_2": "Municipality","CC_2": "NA","HASC_2": "CU.HO.UN","name": "Urbano_Noris.county","area_km2": 897.0919,"hist_schema_id": "Elevation0-9000","hist_area_km2": {"50": 296.3535,"75": 384.1896,"100": 153.2945,"125": 35.3972,"150": 21.5674,"175": 6.0516,"200": 0.2381}}}