{"type": "Feature","bbox": [-72.703,18.3228,-72.4492,18.5651],"geometry": {"type": "MultiPolygon","coordinates": [[[[-72.589,18.3497,779.0037],[-72.587,18.352,821.6522],[-72.5799,18.3526,664.7606],[-72.5643,18.3469,320.8626],[-72.5636,18.3546,556.2894],[-72.5602,18.3546,674.4091],[-72.5559,18.3515,626.9849],[-72.5527,18.3518,588.2431],[-72.5536,18.354,646.254],[-72.55,18.3587,720.0313],[-72.5509,18.3651,579.0791],[-72.5346,18.3707,228.5667],[-72.5312,18.3824,550.2043],[-72.5223,18.3884,626.2538],[-72.52,18.3949,720.735],[-72.5073,18.3988,447.7383],[-72.5029,18.4056,634.5211],[-72.4984,18.4054,424.4632],[-72.4825,18.4,510.0325],[-72.4554,18.3973,716.2317],[-72.4513,18.397,647.1258],[-72.4498,18.4013,868.9005],[-72.451,18.4039,1011.1548],[-72.4492,18.4061,1039.7258],[-72.4526,18.4102,1180.2874],[-72.4508,18.4127,1334.3311],[-72.4533,18.4162,1374.2587],[-72.4502,18.4211,1393.4668],[-72.4541,18.4287,1190.2463],[-72.452,18.4312,1064.3385],[-72.4522,18.4332,1068.6271],[-72.4588,18.4444,1130.9434],[-72.4555,18.4505,1213.0693],[-72.4556,18.4566,1093.0164],[-72.4658,18.4642,677.3541],[-72.469,18.4762,200.1327],[-72.4894,18.472,184.0859],[-72.4944,18.4735,159.6158],[-72.5205,18.4716,170.4578],[-72.5261,18.4734,132.6517],[-72.531,18.4716,132.8699],[-72.5385,18.4746,117.9776],[-72.5456,18.4715,109.9276],[-72.5493,18.472,99.425],[-72.5558,18.4758,87.8216],[-72.5661,18.4895,73.5197],[-72.5693,18.4918,69.1852],[-72.5692,18.5092,45.1459],[-72.5648,18.5143,33.3675],[-72.5604,18.5157,31.8886],[-72.5577,18.5145,40.9053],[-72.5573,18.5169,38.7508],[-72.5614,18.5221,25.5122],[-72.547,18.5454,3.6401],[-72.546,18.5499,0.4072],[-72.5512,18.5515,1.1768],[-72.5534,18.5543,2.4993],[-72.5529,18.5607,0.0],[-72.5587,18.561,0.0],[-72.5659,18.5649,0.4391],[-72.5813,18.5651,0.2806],[-72.5989,18.5593,0.7582],[-72.6046,18.5599,1.0302],[-72.6113,18.5579,1.1726],[-72.6265,18.5512,0.5597],[-72.6487,18.5255,0.5286],[-72.6526,18.5243,0.0],[-72.6532,18.514,3.6511],[-72.6612,18.4962,0.0],[-72.669,18.4724,0.0],[-72.6779,18.454,1.5456],[-72.6885,18.446,0.8689],[-72.6921,18.4407,1.8858],[-72.6988,18.4374,1.9373],[-72.703,18.4385,1.0975],[-72.6991,18.429,101.9761],[-72.6924,18.4278,137.1701],[-72.6867,18.4213,278.2147],[-72.687,18.419,308.9418],[-72.6927,18.418,301.6374],[-72.6913,18.4118,271.4941],[-72.6992,18.4056,373.8545],[-72.6943,18.3994,398.5492],[-72.6971,18.3977,391.2386],[-72.6867,18.3889,385.5982],[-72.6792,18.3901,439.1433],[-72.6814,18.3806,300.5782],[-72.6771,18.381,330.0406],[-72.6726,18.3789,404.5028],[-72.6558,18.3846,675.4368],[-72.6633,18.3737,402.1512],[-72.6719,18.3714,297.3871],[-72.6738,18.3634,287.7097],[-72.6846,18.3582,499.3133],[-72.6777,18.3565,519.1483],[-72.6708,18.3512,562.677],[-72.6611,18.3503,481.4979],[-72.6529,18.3521,317.5306],[-72.6526,18.3364,258.777],[-72.6504,18.3353,266.374],[-72.6486,18.326,263.0198],[-72.6436,18.3279,356.5474],[-72.6419,18.3305,402.9261],[-72.6419,18.3455,477.9005],[-72.6223,18.3443,587.6639],[-72.6173,18.3387,628.3868],[-72.6115,18.3264,409.1129],[-72.6082,18.3228,468.2498],[-72.6014,18.3241,592.2047],[-72.5999,18.3334,664.2857],[-72.5962,18.3416,691.5601],[-72.589,18.3497,779.0037]]]]}
,"properties": {"GID_3": "HTI.8.4.2_1","GID_0": "HTI","country": "Haiti","GID_1": "HTI.8_1","province": "Ouest","NL_NAME_1": "NA","GID_2": "HTI.8.4_1","county": "Léogâne","NL_NAME_2": "NA","city": "Léogâne","VARNAME_3": "NA","NL_NAME_3": "NA","TYPE_3": "Commune","ENGTYPE_3": "Commune","CC_3": "NA","HASC_3": "NA","name": "Léogâne.city","area_km2": 383.7479,"hist_schema_id": "Elevation0-9000","hist_area_km2": {"0": 37.4944,"25": 52.6582,"50": 23.2056,"75": 9.7739,"100": 7.8438,"125": 5.8125,"150": 6.3959,"175": 7.6631,"200": 7.3213,"225": 7.744,"250": 8.8104,"275": 9.3941,"300": 10.4407,"325": 12.0506,"350": 11.3668,"375": 13.5398,"400": 14.2038,"425": 13.4593,"450": 13.0369,"475": 12.4334,"500": 11.0854,"525": 9.1137,"550": 8.2889,"575": 7.2225,"600": 5.8343,"625": 5.251,"650": 4.9491,"675": 4.6272,"700": 3.4805,"725": 3.6011,"750": 3.1183,"775": 3.0981,"800": 3.4403,"825": 2.5749,"850": 2.6957,"875": 2.0921,"900": 1.5287,"925": 1.3678,"950": 1.5086,"975": 1.1465,"1000": 1.1264,"1025": 1.4885,"1050": 1.046,"1075": 1.2672,"1100": 1.2471,"1125": 1.1063,"1150": 0.8448,"1175": 1.1666,"1200": 1.0258,"1225": 0.7644,"1250": 0.4828,"1275": 0.4224,"1300": 0.2816,"1325": 0.181,"1350": 0.1609,"1375": 0.1408,"1400": 0.1207,"1425": 0.1006,"1450": 0.0402,"1475": 0.0603}}}