{"type": "Feature","bbox": [-61.2427,10.0749,-60.9671,10.4564],"geometry": {"type": "MultiPolygon","coordinates": [[[[-61.2427,10.3058,52.5794],[-61.2425,10.2957,48.8774],[-61.2377,10.2854,51.4399],[-61.2351,10.2827,40.6917],[-61.2271,10.2816,44.4519],[-61.2255,10.28,43.1351],[-61.2298,10.2751,48.0669],[-61.2298,10.2709,46.5835],[-61.2266,10.2687,45.7752],[-61.2202,10.2676,44.1046],[-61.217,10.2719,46.5338],[-61.2121,10.274,41.7437],[-61.2094,10.2772,43.0401],[-61.2057,10.2777,52.8269],[-61.1913,10.2728,46.668],[-61.1892,10.2707,47.7507],[-61.1892,10.2679,46.0261],[-61.1822,10.2653,48.3208],[-61.1835,10.2399,50.4965],[-61.1756,10.2226,55.8868],[-61.181,10.2081,47.7683],[-61.1843,10.1925,57.4612],[-61.1768,10.0757,34.5287],[-61.1685,10.0749,0.0],[-61.1654,10.0765,17.3099],[-61.161,10.0749,0.0],[-61.1562,10.0782,23.6537],[-61.1518,10.0787,0.0],[-61.1479,10.0821,67.167],[-61.1254,10.0899,0.0],[-61.1196,10.0962,26.2903],[-61.1129,10.0976,40.4203],[-61.1113,10.0962,3.7838],[-61.1096,10.0988,38.7989],[-61.1071,10.0979,1.9379],[-61.0957,10.1074,57.2576],[-61.0901,10.1068,0.0],[-61.0879,10.1101,17.3783],[-61.076,10.1104,0.0],[-61.0624,10.1143,0.0],[-61.0551,10.1274,1.8479],[-61.0493,10.1343,4.063],[-61.0213,10.1532,0.0],[-61.0104,10.1546,7.8734],[-61.0024,10.1515,2.0788],[-61.0001,10.1476,5.5469],[-61.0001,10.1401,3.8105],[-61.0035,10.1365,0.0],[-60.9957,10.1377,9.4648],[-60.9904,10.1357,0.0],[-60.9904,10.1374,0.0],[-60.9874,10.1388,0.0],[-60.9879,10.1401,0.0],[-60.9907,10.1396,13.7473],[-60.994,10.1471,0.0],[-61.0032,10.201,12.7654],[-61.0037,10.221,4.0834],[-60.9993,10.2532,0.9339],[-60.9987,10.289,0.0],[-60.9954,10.3076,3.5806],[-60.9876,10.324,2.0786],[-60.9837,10.3296,0.0],[-60.9743,10.3263,0.0],[-60.9726,10.3263,0.0],[-60.9715,10.3285,0.0],[-60.9699,10.3279,0.0],[-60.9704,10.3324,25.1077],[-60.9671,10.341,0.0],[-60.974,10.3393,7.9045],[-60.9795,10.3404,3.5606],[-60.9826,10.336,0.0],[-60.9907,10.3371,0.0],[-61.0013,10.3499,2.2599],[-61.0107,10.3685,0.267],[-61.0176,10.3885,1.193],[-61.021,10.3924,0.0],[-61.0207,10.3965,0.0],[-61.0332,10.4396,0.0],[-61.0898,10.4394,2.1802],[-61.0968,10.4411,3.0682],[-61.1081,10.4352,17.3684],[-61.1156,10.4352,24.2563],[-61.1294,10.4488,34.6814],[-61.1267,10.4525,42.8685],[-61.1353,10.4563,84.1312],[-61.1438,10.4564,99.7787],[-61.1471,10.451,82.3863],[-61.1488,10.444,110.5207],[-61.152,10.4419,102.22],[-61.1578,10.4489,120.7849],[-61.1616,10.4489,134.7914],[-61.1809,10.4361,190.0687],[-61.1847,10.435,213.8679],[-61.1922,10.4404,197.8939],[-61.2008,10.4324,187.0658],[-61.2127,10.4147,135.8154],[-61.2192,10.4082,93.2214],[-61.2198,10.4023,69.8994],[-61.2241,10.3959,120.3032],[-61.2183,10.3926,67.3381],[-61.2076,10.3904,68.4365],[-61.2028,10.386,51.8969],[-61.2028,10.3818,51.0181],[-61.2061,10.3748,51.4595],[-61.2067,10.3613,44.0576],[-61.2127,10.3511,52.1993],[-61.2111,10.3484,36.6484],[-61.2118,10.3252,52.7849],[-61.2156,10.3177,54.0126],[-61.2284,10.3177,70.2928],[-61.2365,10.3065,65.0878],[-61.2427,10.3058,52.5794]]]]}
,"properties": {"GID_1": "TTO.5_1","GID_0": "TTO","country": "TrinidadandTobago","province": "Mayaro/RioClaro","VARNAME_1": "Mayaro|RioClaro","NL_NAME_1": "NA","TYPE_1": "Region","ENGTYPE_1": "Region","CC_1": "NA","HASC_1": "TT.MR","ISO_1": "NA","name": "Mayaro_Rio_Claro.province","area_km2": 790.1875,"hist_schema_id": "Elevation0-9000","hist_area_km2": {"0": 86.3896,"25": 254.4237,"50": 307.4232,"75": 95.0254,"100": 23.3902,"125": 10.286,"150": 5.6124,"175": 3.7974,"200": 2.4205,"225": 0.9392,"250": 0.3548,"275": 0.0835,"300": 0.0417}}}