{"type":"Feature","properties":{"ISO3166-1-Alpha-3":"TTO","country":"Trinidad and Tobago","fill":"#F0F","id":"55","name":"Rio Claro-Mayaro"},
"geometry":{"type": "Polygon","coordinates": [[[-61.03844,10.46365,1.2242],[-61.09531,10.46954,12.4114],[-61.19714,10.45636,119.4048],[-61.21052,10.43208,171.5533],[-61.21515,10.41223,108.6744],[-61.22114,10.35498,48.2995],[-61.22923,10.32769,59.7235],[-61.24357,10.30712,49.9847],[-61.23636,10.2847,43.6986],[-61.22993,10.28025,49.193],[-61.22623,10.27178,48.1383],[-61.21781,10.27002,46.3714],[-61.20848,10.25865,58.7968],[-61.19197,10.23013,50.0504],[-61.17766,10.07518,0.0],[-61.17764,10.07518,0.0],[-61.16735,10.07616,17.3099],[-61.12239,10.08682,0.0],[-61.09968,10.0952,0.0],[-61.08202,10.10688,0.0],[-61.06432,10.12181,41.9165],[-61.04157,10.13565,0.0],[-61.01749,10.14289,0.0],[-60.996,10.13825,9.4648],[-61.00333,10.18911,8.4636],[-61.0028,10.24754,4.0445],[-60.99022,10.29926,0.0],[-60.96129,10.33002,0.0],[-60.99844,10.35594,0.0],[-61.01635,10.38215,1.0354],[-61.02302,10.39484,9.944],[-61.02815,10.40851,9.9407],[-61.03844,10.46365,1.2242]]]}}