{"type":"Feature","properties":{"GID_3":"HTI.2.3.3_1","GID_0":"HTI","country":"Haiti","GID_1":"HTI.2_1","province":"Grand'Anse","NL_NAME_1":"NA","GID_2":"HTI.2.3_1","county":"Jérémie","NL_NAME_2":"NA","city":"Chambellan","VARNAME_3":"NA","NL_NAME_3":"NA","TYPE_3":"Commune","ENGTYPE_3":"Commune","CC_3":"NA","HASC_3":"NA","name":"Chambellan.city"},
"geometry":{"type": "MultiPolygon","coordinates": [[[[-74.313,18.4607,315.5928],[-74.3109,18.4615,309.636],[-74.3128,18.4675,535.8811],[-74.3114,18.4729,339.1818],[-74.3152,18.4787,203.3333],[-74.3115,18.4862,475.9453],[-74.3129,18.4924,671.1279],[-74.3072,18.5008,565.619],[-74.3039,18.5155,195.3556],[-74.2981,18.5247,153.7377],[-74.2973,18.5304,191.8515],[-74.2951,18.532,190.8634],[-74.2953,18.5387,115.3474],[-74.2997,18.54,105.9179],[-74.2998,18.5417,110.4602],[-74.2949,18.5446,94.4901],[-74.2912,18.5449,108.366],[-74.2869,18.5495,122.2874],[-74.2884,18.5664,165.6075],[-74.296,18.5784,355.7759],[-74.3137,18.5744,519.0346],[-74.3161,18.5663,545.6899],[-74.3211,18.5671,536.3947],[-74.3236,18.5631,377.7102],[-74.3268,18.5648,406.3562],[-74.3271,18.5679,419.1676],[-74.3317,18.5695,416.0678],[-74.3329,18.5619,431.1125],[-74.3351,18.5594,402.3737],[-74.3288,18.5486,133.8442],[-74.3361,18.5481,248.7717],[-74.3357,18.5469,229.8456],[-74.34,18.5444,299.1923],[-74.3383,18.5493,347.696],[-74.346,18.5454,390.4585],[-74.351,18.5448,418.8979],[-74.3522,18.5463,468.5351],[-74.3537,18.5436,424.4387],[-74.3644,18.5455,475.0775],[-74.368,18.5384,483.58],[-74.3719,18.5363,464.4043],[-74.3697,18.534,413.8712],[-74.3733,18.5294,382.8079],[-74.3705,18.5256,265.9587],[-74.3683,18.5252,218.8415],[-74.3688,18.5224,198.9498],[-74.3673,18.5214,187.047],[-74.3694,18.5159,298.5309],[-74.3748,18.5109,390.7431],[-74.3682,18.5057,214.5504],[-74.3735,18.5008,205.8373],[-74.3732,18.4963,218.6787],[-74.3689,18.4907,210.5759],[-74.3722,18.4887,206.2351],[-74.3702,18.4864,216.777],[-74.3638,18.4844,287.9164],[-74.3562,18.4782,340.9145],[-74.3593,18.4703,348.5181],[-74.3586,18.4634,440.1903],[-74.3511,18.4654,391.0186],[-74.3459,18.4633,370.1311],[-74.3427,18.4654,348.2338],[-74.3343,18.4593,146.4266],[-74.327,18.4625,132.7615],[-74.3241,18.4599,189.1626],[-74.313,18.4607,315.5928]]]]}}