{"type": "Feature","bbox": [-69.4743,18.883,-69.2923,19.0035],"geometry": {"type": "MultiPolygon","coordinates": [[[[-69.2923,18.9596,234.2092],[-69.2956,18.9678,220.2227],[-69.3014,18.9737,207.4953],[-69.3054,18.9748,187.2248],[-69.3126,18.9712,232.6495],[-69.3178,18.9773,184.9526],[-69.3291,18.9832,218.403],[-69.3323,18.9871,276.4767],[-69.3342,18.996,277.9152],[-69.3414,19.0003,238.5547],[-69.3492,19.0008,188.1632],[-69.3659,18.9956,43.6333],[-69.3796,18.9955,30.8466],[-69.3837,18.9965,31.2221],[-69.3884,19.0009,23.0985],[-69.3964,19.0035,28.4113],[-69.4032,18.9959,27.8731],[-69.4053,18.9882,31.8648],[-69.4121,18.9846,40.3726],[-69.4146,18.9766,38.179],[-69.4274,18.9717,43.8278],[-69.4411,18.9735,56.6443],[-69.4472,18.9718,83.1778],[-69.4487,18.9689,69.3824],[-69.4493,18.9602,168.9016],[-69.4523,18.9539,114.5419],[-69.4657,18.9372,282.2454],[-69.4743,18.9226,290.038],[-69.4694,18.9177,315.413],[-69.4562,18.9154,286.9843],[-69.4451,18.9072,288.1872],[-69.4419,18.9009,294.0435],[-69.4251,18.8865,315.3798],[-69.4161,18.8914,323.7726],[-69.4013,18.8886,319.1236],[-69.3846,18.8938,322.2718],[-69.3631,18.8945,274.4718],[-69.354,18.8905,280.2648],[-69.3464,18.8841,334.2931],[-69.3426,18.883,304.4879],[-69.3343,18.8858,313.184],[-69.3302,18.8899,327.0104],[-69.3236,18.8924,320.5459],[-69.3188,18.8994,364.6165],[-69.3191,18.9026,356.0769],[-69.3234,18.9092,329.8677],[-69.3212,18.9164,285.8939],[-69.3205,18.9385,158.5041],[-69.3171,18.9413,146.2496],[-69.301,18.9452,76.4872],[-69.2952,18.9523,226.3815],[-69.2923,18.9596,234.2092]]]]}
,"properties": {"GID_2": "DOM.9.1_1","GID_0": "DOM","country": "DominicanRepublic","GID_1": "DOM.9_1","province": "HatoMayor","NL_NAME_1": "NA","county": "ElValle","VARNAME_2": "NA","NL_NAME_2": "NA","TYPE_2": "Municipio","ENGTYPE_2": "Municipality","CC_2": "NA","HASC_2": "DO.HM.EV","name": "El_Valle.county","area_km2": 162.5788,"hist_schema_id": "Elevation0-9000","hist_area_km2": {"25": 10.9065,"50": 28.5326,"75": 24.4243,"100": 13.9575,"125": 8.9444,"150": 6.6382,"175": 5.5954,"200": 6.5179,"225": 7.3199,"250": 11.1307,"275": 12.9967,"300": 15.8659,"325": 8.8863,"350": 0.7623,"375": 0.1003}}}