{"type": "Feature","bbox": [-77.2982,20.7147,-76.8384,21.1803],"geometry": {"type": "MultiPolygon","coordinates": [[[[-77.2982,20.9961,60.3414],[-77.2279,20.9959,78.5135],[-77.1938,21.0101,87.6827],[-77.18,21.0121,114.1437],[-77.1563,21.0113,93.3587],[-77.1229,21.0035,87.1208],[-77.1187,21.0001,85.6105],[-77.1182,20.9953,83.6565],[-77.1328,20.9585,70.7536],[-77.1317,20.9347,64.9078],[-77.1206,20.9302,58.5528],[-77.0739,20.931,62.8042],[-77.0651,20.9266,71.3021],[-77.0551,20.8936,68.9029],[-77.0562,20.8745,68.7791],[-77.078,20.8449,49.7112],[-77.1226,20.8237,38.3185],[-77.1293,20.8175,34.9986],[-77.1322,20.8056,32.3204],[-77.1316,20.7536,19.0553],[-77.082,20.7545,20.0381],[-77.0754,20.7523,18.7873],[-77.0685,20.7473,18.1454],[-77.0479,20.7216,13.2866],[-77.0385,20.7155,10.2147],[-77.0322,20.7147,9.8195],[-77.0229,20.7166,10.1996],[-77.0079,20.7318,17.5045],[-77.0023,20.7334,18.1123],[-76.9815,20.7304,17.438],[-76.9756,20.7319,17.9194],[-76.9614,20.7412,22.3187],[-76.9524,20.7428,20.3586],[-76.9397,20.7418,27.4966],[-76.9156,20.735,21.0318],[-76.8982,20.7331,19.7841],[-76.8755,20.7325,25.2327],[-76.8478,20.7337,26.8317],[-76.8384,20.7356,26.205],[-76.8554,20.7761,38.8152],[-76.8818,20.8249,47.7665],[-76.9049,20.8505,59.9126],[-76.9407,20.9189,108.879],[-76.9371,20.9278,97.8175],[-76.9242,20.9382,81.8051],[-76.9066,20.9459,81.0895],[-76.8607,20.9591,116.7061],[-76.8709,20.9728,98.878],[-76.8749,20.9957,113.3015],[-76.8832,21.0121,94.6875],[-76.8931,21.0228,84.0812],[-76.9143,21.0363,79.9685],[-76.924,21.0539,69.7941],[-76.9286,21.0707,78.0264],[-76.9837,21.0704,80.3139],[-77.0224,21.1,70.677],[-77.0694,21.103,65.7512],[-77.0741,21.1111,58.8065],[-77.0739,21.1473,49.6444],[-77.0769,21.1565,49.8151],[-77.0906,21.1645,50.3356],[-77.11,21.1696,52.6677],[-77.1261,21.1803,51.8272],[-77.1255,21.1697,56.7137],[-77.1271,21.1517,59.9457],[-77.1339,21.1331,69.4827],[-77.1407,21.1256,74.6541],[-77.1527,21.1178,94.7949],[-77.1625,21.1077,91.0528],[-77.1694,21.092,99.6767],[-77.1777,21.0839,104.7967],[-77.1819,21.083,105.6323],[-77.2137,21.082,92.4081],[-77.2364,21.0776,79.0],[-77.2545,21.0659,75.3992],[-77.2643,21.0567,72.372],[-77.2753,21.043,65.2362],[-77.2931,21.0024,61.23],[-77.2982,20.9961,60.3414]]]]}
,"properties": {"GID_2": "CUB.10.5_1","GID_0": "CUB","country": "Cuba","GID_1": "CUB.10_1","province": "LasTunas","NL_NAME_1": "NA","county": "LasTunas","VARNAME_2": "VictoriadeLasTunas","NL_NAME_2": "NA","TYPE_2": "Municipio","ENGTYPE_2": "Municipality","CC_2": "NA","HASC_2": "CU.LT.LT","name": "Las_Tunas.county","area_km2": 1069.0356,"hist_schema_id": "Elevation0-9000","hist_area_km2": {"0": 2.0227,"25": 225.9135,"50": 190.2448,"75": 314.8032,"100": 324.791,"125": 10.647,"150": 0.6134}}}