{"type":"Feature","properties":{"GID_2":"DOM.21.8_1","GID_0":"DOM","country":"DominicanRepublic","GID_1":"DOM.21_1","province":"PuertoPlata","NL_NAME_1":"NA","county":"SanFelipedePuertoPlata","VARNAME_2":"NA","NL_NAME_2":"NA","TYPE_2":"Municipio","ENGTYPE_2":"Municipality","CC_2":"NA","HASC_2":"DO.PP.SF","name":"San_Felipede_Puerto_Plata.county"},
"geometry":{"type": "MultiPolygon","coordinates": [[[[-70.5101,19.5664,530.1026],[-70.5057,19.5668,477.8622],[-70.5048,19.5694,472.7626],[-70.5112,19.5807,441.8063],[-70.5153,19.5847,445.3469],[-70.5167,19.5943,283.1108],[-70.5321,19.6049,111.9959],[-70.5376,19.6165,139.231],[-70.5466,19.6163,145.9415],[-70.553,19.6235,112.0793],[-70.5693,19.6238,105.9244],[-70.5758,19.6269,123.1144],[-70.5829,19.6331,117.8442],[-70.5955,19.6381,148.3949],[-70.5955,19.6435,183.1557],[-70.5851,19.6538,327.6165],[-70.599,19.6675,272.5847],[-70.6017,19.6756,226.2098],[-70.5977,19.6843,95.9923],[-70.5981,19.687,94.8068],[-70.6041,19.6921,85.3388],[-70.6072,19.698,70.1614],[-70.6093,19.698,85.5822],[-70.6129,19.6944,96.6489],[-70.6158,19.6946,85.0153],[-70.6185,19.702,87.0331],[-70.631,19.7125,42.4014],[-70.6401,19.7148,84.2883],[-70.6431,19.7191,121.8781],[-70.6438,19.7285,125.2698],[-70.6402,19.739,19.5446],[-70.6339,19.7467,9.6901],[-70.6297,19.7491,5.923],[-70.6244,19.7596,11.39],[-70.623,19.7674,0.0],[-70.6254,19.7638,0.962],[-70.6315,19.7629,4.634],[-70.6382,19.7665,1.9451],[-70.6382,19.7715,0.0],[-70.6401,19.7735,2.5268],[-70.6507,19.7729,4.6431],[-70.6579,19.7796,4.3188],[-70.6601,19.7846,5.33],[-70.664,19.7865,4.0393],[-70.6674,19.7862,3.375],[-70.6701,19.7907,1.0458],[-70.6918,19.801,0.0],[-70.6924,19.804,0.0],[-70.6963,19.8049,2.2976],[-70.6963,19.8029,1.4211],[-70.6993,19.8018,0.0],[-70.6979,19.8004,1.8236],[-70.6988,19.799,1.8236],[-70.7004,19.7985,1.9612],[-70.6999,19.8015,0.0],[-70.7015,19.8021,0.0],[-70.7015,19.7987,2.3612],[-70.7026,19.7987,2.3612],[-70.7054,19.8007,1.4645],[-70.7063,19.8035,0.0],[-70.7026,19.8065,0.0],[-70.711,19.8149,0.0],[-70.7143,19.8146,3.5853],[-70.721,19.8174,1.972],[-70.7232,19.8188,0.0],[-70.7237,19.8218,3.3825],[-70.7257,19.8199,6.8109],[-70.7293,19.8207,0.0],[-70.7296,19.8263,0.0],[-70.7343,19.8268,2.8989],[-70.7349,19.8307,0.0],[-70.7376,19.8301,3.5446],[-70.7376,19.8329,0.0],[-70.7415,19.8329,3.4498],[-70.7435,19.8365,0.0],[-70.7462,19.8379,0.0],[-70.7496,19.8385,5.0405],[-70.7538,19.8365,17.3214],[-70.7574,19.8379,0.0394],[-70.7576,19.8363,7.144],[-70.7643,19.834,2.801],[-70.7718,19.8363,1.3115],[-70.7721,19.8338,8.0883],[-70.7763,19.8293,0.8378],[-70.7818,19.829,4.7835],[-70.7846,19.8332,3.3717],[-70.7787,19.8388,0.0],[-70.7782,19.8421,0.0],[-70.786,19.8499,13.3461],[-70.7876,19.8549,2.7387],[-70.7904,19.856,5.9153],[-70.7907,19.8587,2.0731],[-70.7929,19.8571,0.8933],[-70.7912,19.8561,5.9153],[-70.8007,19.8458,123.3633],[-70.8125,19.8395,74.5772],[-70.8185,19.8462,75.3185],[-70.831,19.8559,105.3399],[-70.835,19.8637,72.941],[-70.8428,19.8642,58.6921],[-70.8503,19.8602,34.25],[-70.8631,19.8434,147.8798],[-70.8731,19.8385,89.5396],[-70.8868,19.8285,153.0687],[-70.8876,19.8233,131.913],[-70.8862,19.819,122.1923],[-70.8725,19.8118,105.1669],[-70.8649,19.8111,166.9663],[-70.8579,19.8136,185.5502],[-70.8495,19.8083,133.0957],[-70.8349,19.8105,141.3547],[-70.8303,19.8075,274.0154],[-70.826,19.7938,91.4313],[-70.8279,19.7849,121.368],[-70.8256,19.7783,131.1898],[-70.8251,19.7674,151.7517],[-70.8225,19.7637,164.6807],[-70.8062,19.7599,156.0506],[-70.792,19.7654,297.8836],[-70.7776,19.7542,190.017],[-70.7669,19.7571,309.6739],[-70.7608,19.7567,346.471],[-70.758,19.7549,321.1854],[-70.754,19.7313,428.5491],[-70.7612,19.7248,409.9402],[-70.7681,19.7217,529.7358],[-70.7685,19.713,407.8423],[-70.7536,19.7059,628.4053],[-70.7513,19.7024,568.7493],[-70.75,19.6945,320.2094],[-70.744,19.6882,299.5314],[-70.7304,19.685,297.2294],[-70.7258,19.674,336.4493],[-70.7132,19.6611,560.0308],[-70.7117,19.6469,549.2616],[-70.7084,19.6406,530.0052],[-70.7033,19.6353,457.3265],[-70.6972,19.6404,483.5725],[-70.6916,19.6404,447.797],[-70.6813,19.631,473.7968],[-70.6738,19.6191,380.3291],[-70.665,19.6174,439.5561],[-70.6577,19.6129,533.5867],[-70.6478,19.612,663.1841],[-70.6353,19.6082,754.1478],[-70.6296,19.6008,658.371],[-70.6285,19.5878,431.7565],[-70.623,19.5782,437.812],[-70.6232,19.5696,483.1424],[-70.6284,19.5641,598.0908],[-70.6287,19.5596,653.066],[-70.6211,19.5532,550.6303],[-70.6194,19.5431,694.0929],[-70.6127,19.5366,716.7982],[-70.5904,19.5358,682.2281],[-70.5827,19.5334,663.1812],[-70.5716,19.5326,897.7814],[-70.5668,19.5254,705.8079],[-70.5477,19.5146,721.5049],[-70.5398,19.5074,700.7711],[-70.536,19.5077,748.2693],[-70.5342,19.5094,801.9055],[-70.5331,19.5172,915.6205],[-70.5286,19.5201,867.1363],[-70.5265,19.5288,787.2683],[-70.5301,19.5363,770.0527],[-70.5282,19.544,717.275],[-70.5309,19.5527,671.0333],[-70.5304,19.5606,633.3262],[-70.5275,19.5632,618.7723],[-70.5205,19.5645,600.4017],[-70.5158,19.5685,543.3369],[-70.5101,19.5664,530.1026]]]]}}