{"type": "Feature","bbox": [-81.4569,22.5877,-81.1829,22.795],"geometry": {"type": "MultiPolygon","coordinates": [[[[-81.1829,22.6441,22.9965],[-81.1945,22.6622,21.7023],[-81.1984,22.6851,22.6402],[-81.2066,22.6984,19.2339],[-81.2641,22.7125,15.5699],[-81.2736,22.7269,18.2258],[-81.2773,22.7499,21.9214],[-81.2868,22.7677,29.9079],[-81.2938,22.7736,35.777],[-81.3188,22.7845,64.7428],[-81.3724,22.7834,97.3159],[-81.4084,22.795,106.2217],[-81.4173,22.7737,69.9382],[-81.4562,22.7172,25.5013],[-81.4569,22.7038,23.4814],[-81.4478,22.6946,16.5475],[-81.3957,22.679,11.8188],[-81.3645,22.6759,9.1187],[-81.3297,22.6665,4.168],[-81.3261,22.6497,6.501],[-81.3346,22.6213,7.5758],[-81.3341,22.5878,7.8822],[-81.2617,22.5877,2.9399],[-81.2487,22.5896,5.3841],[-81.2371,22.5983,6.3324],[-81.2255,22.6169,9.8917],[-81.2115,22.6307,6.7461],[-81.1829,22.6441,22.9965]]]]}
,"properties": {"GID_2": "CUB.11.11_1","GID_0": "CUB","country": "Cuba","GID_1": "CUB.11_1","province": "Matanzas","NL_NAME_1": "NA","county": "PedroBetancourt","VARNAME_2": "NA","NL_NAME_2": "NA","TYPE_2": "Municipio","ENGTYPE_2": "Municipality","CC_2": "NA","HASC_2": "CU.MA.PB","name": "Pedro_Betancourt.county","area_km2": 342.1003,"hist_schema_id": "Elevation0-9000","hist_area_km2": {"0": 163.2832,"25": 128.025,"50": 31.9275,"75": 15.0528,"100": 3.8118}}}