{"type": "Feature","bbox": [-70.5042,19.5182,-70.365,19.6584],"geometry": {"type": "MultiPolygon","coordinates": [[[[-70.4009,19.6431,126.4927],[-70.4078,19.6526,40.0257],[-70.4107,19.6513,81.682],[-70.4142,19.6451,97.4132],[-70.4224,19.6454,105.7218],[-70.4271,19.6551,16.3645],[-70.431,19.6584,12.3194],[-70.4379,19.6539,65.9816],[-70.453,19.6534,58.4592],[-70.4566,19.6507,46.4096],[-70.4691,19.6488,58.0326],[-70.4738,19.65,60.1558],[-70.4804,19.6466,89.3787],[-70.4926,19.6511,118.4756],[-70.4977,19.6496,117.3281],[-70.4981,19.6238,226.2104],[-70.4955,19.6139,258.724],[-70.5032,19.608,248.8327],[-70.5042,19.6026,298.8287],[-70.4958,19.5915,350.522],[-70.4902,19.5807,390.257],[-70.4886,19.5722,415.0613],[-70.4835,19.56,470.8492],[-70.4926,19.5422,568.4608],[-70.4961,19.5409,604.0437],[-70.5028,19.5415,633.1385],[-70.4983,19.533,615.1488],[-70.501,19.5227,658.4072],[-70.5002,19.5193,683.233],[-70.4874,19.5182,623.8755],[-70.4811,19.5208,650.2637],[-70.4751,19.5271,531.9243],[-70.474,19.5371,491.5774],[-70.4711,19.5446,498.1501],[-70.4643,19.5513,333.759],[-70.4615,19.5507,344.4582],[-70.4556,19.5439,263.5172],[-70.4473,19.5432,411.414],[-70.4427,19.5444,396.5631],[-70.4406,19.5522,319.2881],[-70.433,19.5601,306.4879],[-70.4328,19.5868,108.7666],[-70.4353,19.5956,100.3695],[-70.4315,19.6023,125.7393],[-70.4234,19.6018,112.1996],[-70.4134,19.5923,150.2728],[-70.4088,19.5779,189.9596],[-70.4016,19.5719,214.3889],[-70.4044,19.5649,248.183],[-70.3886,19.5687,328.7778],[-70.3842,19.5681,347.1],[-70.38,19.5642,329.4205],[-70.377,19.5655,401.9044],[-70.375,19.575,210.3371],[-70.3662,19.5812,343.1342],[-70.365,19.5853,383.3113],[-70.3687,19.592,366.5296],[-70.3782,19.6011,225.1237],[-70.3855,19.6046,260.1375],[-70.3945,19.606,214.9672],[-70.4022,19.6106,211.2137],[-70.4031,19.6347,140.7902],[-70.4009,19.6431,126.4927]]]]}
,"properties": {"GID_2": "DOM.8.3_1","GID_0": "DOM","country": "DominicanRepublic","GID_1": "DOM.8_1","province": "Espaillat","NL_NAME_1": "NA","county": "JamaoalNorte","VARNAME_2": "NA","NL_NAME_2": "NA","TYPE_2": "Distritomunicipal","ENGTYPE_2": "Municipaldistrict","CC_2": "NA","HASC_2": "DO.ES.JN","name": "Jamaoal_Norte.county","area_km2": 115.30925,"hist_schema_id": "Elevation0-9000","hist_area_km2": {"0": 0.07987,"25": 1.01837,"50": 4.35324,"75": 7.00924,"100": 7.82835,"125": 8.20797,"150": 8.68763,"175": 8.80789,"200": 8.66843,"225": 8.32911,"250": 8.74878,"275": 8.30966,"300": 8.15009,"325": 6.71201,"350": 4.77439,"375": 2.51708,"400": 2.05769,"425": 1.61823,"450": 0.85911,"475": 0.83915,"500": 0.63937,"525": 0.63938,"550": 0.8392,"575": 1.33877,"600": 1.4387,"625": 1.31884,"650": 1.07908,"675": 0.37968,"700": 0.05995}}}