{"type":"Feature","properties":{"GID_2":"MTQ.3.4_1","GID_0":"MTQ","country":"Martinique","GID_1":"MTQ.3_1","province":"LeTrinité","NL_NAME_1":"NA","county":"LaTrinité","VARNAME_2":"NA","NL_NAME_2":"NA","TYPE_2":"Commune","ENGTYPE_2":"Commune","CC_2":"NA","HASC_2":"MQ.TR.TR","name":"La_Trinité.county"},
"geometry":{"type": "MultiPolygon","coordinates": [[[[-60.9757,14.6988,190.0435],[-60.9335,14.7103,6.7931],[-60.9326,14.7126,0.8287],[-60.9279,14.7151,0.0],[-60.929,14.7179,17.774],[-60.9276,14.7201,4.9827],[-60.9249,14.7196,0.0],[-60.9251,14.7221,0.0],[-60.9307,14.7221,0.0],[-60.9343,14.7157,0.0],[-60.9376,14.7171,0.2154],[-60.9388,14.7212,0.0],[-60.9432,14.7224,3.8412],[-60.9457,14.726,5.0034],[-60.9454,14.7299,2.5249],[-60.9429,14.7329,1.4139],[-60.9362,14.7318,0.0],[-60.9382,14.7354,1.7924],[-60.9424,14.7354,26.9717],[-60.9443,14.7382,19.9759],[-60.9426,14.7435,0.4295],[-60.9404,14.7424,0.0],[-60.9365,14.7501,0.5007],[-60.9335,14.749,0.0],[-60.9257,14.7499,0.0],[-60.9207,14.7465,0.0],[-60.9135,14.7446,2.0524],[-60.9099,14.7343,0.0],[-60.9046,14.7368,0.0],[-60.9018,14.7362,10.832],[-60.901,14.734,1.6488],[-60.8971,14.7349,6.6644],[-60.8963,14.7332,0.0],[-60.8949,14.7338,0.0],[-60.8954,14.7368,0.0],[-60.8924,14.7365,0.0],[-60.8918,14.7349,0.0],[-60.8899,14.7354,0.0],[-60.8915,14.7379,0.8104],[-60.8901,14.7393,7.161],[-60.891,14.7418,3.4247],[-60.8985,14.7432,40.6915],[-60.8979,14.7465,14.9731],[-60.8943,14.7457,0.0],[-60.8957,14.7482,0.0],[-60.8935,14.7493,19.0721],[-60.8907,14.7482,2.8709],[-60.8885,14.7518,0.0],[-60.8904,14.756,7.5738],[-60.8968,14.7585,10.1603],[-60.8968,14.7612,0.6261],[-60.8937,14.7618,0.0],[-60.8918,14.7662,9.9375],[-60.886,14.7657,7.3726],[-60.8835,14.7676,6.1548],[-60.8818,14.7649,0.6318],[-60.8826,14.7626,1.2479],[-60.879,14.7588,11.1703],[-60.8801,14.7554,0.0],[-60.8779,14.7537,0.0],[-60.8771,14.7588,24.9237],[-60.8726,14.7582,1.1053],[-60.8724,14.7599,17.1186],[-60.876,14.7654,27.9259],[-60.8726,14.7712,0.5697],[-60.876,14.7726,12.9696],[-60.8743,14.7765,2.6817],[-60.8785,14.7749,30.1457],[-60.879,14.7768,0.0],[-60.8812,14.776,11.1754],[-60.8829,14.7779,2.4781],[-60.8854,14.776,28.0513],[-60.8854,14.7799,0.0],[-60.8885,14.7799,30.6546],[-60.8926,14.7732,24.4402],[-60.8982,14.7696,11.8793],[-60.901,14.7696,8.3075],[-60.9021,14.7665,12.1072],[-60.9082,14.7662,13.3943],[-60.9085,14.769,0.0],[-60.9099,14.7693,0.0],[-60.9104,14.766,1.1959],[-60.9126,14.7668,0.0],[-60.914,14.7657,0.0],[-60.914,14.7646,0.0],[-60.9118,14.7649,3.1934],[-60.9126,14.7618,12.4331],[-60.9168,14.761,0.0],[-60.9204,14.7579,8.0041],[-60.9232,14.7587,2.1138],[-60.9246,14.7626,0.0],[-60.926,14.7629,5.1529],[-60.9268,14.7615,19.2959],[-60.9351,14.7612,0.0],[-60.9357,14.759,2.9969],[-60.9418,14.7565,11.2099],[-60.9449,14.7571,0.0],[-60.9451,14.7546,13.6584],[-60.9526,14.7482,0.0],[-60.9532,14.7396,31.1029],[-60.9565,14.736,3.1853],[-60.9624,14.7385,2.3308],[-60.9632,14.7457,9.6058],[-60.9615,14.7468,0.0],[-60.9651,14.7482,1.5882],[-60.9676,14.7524,0.0],[-60.9663,14.7568,3.4717],[-60.9676,14.7599,0.0],[-60.9738,14.7635,3.0077],[-61.0253,14.7341,234.2616],[-61.0018,14.7294,187.4867],[-60.9757,14.6988,190.0435]]]]}}