{"type": "Feature","id": "5138","bbox": [-64.81119,32.26528,-64.76082,32.29637],"geometry": {"type": "MultiPolygon","coordinates": [[[[-64.79995,32.28335,0.0],[-64.8077,32.28645,0.0],[-64.81119,32.28218,0.0],[-64.80266,32.28102,4.8769],[-64.79995,32.28335,0.0]]],
[[[-64.78328,32.26746,0.0],[-64.76391,32.28257,0.0],[-64.76082,32.28618,4.7857],[-64.76697,32.29637,38.746],[-64.77902,32.2911,0.0],[-64.78091,32.28754,2.944],[-64.79709,32.27909,12.8961],[-64.78831,32.26528,0.0],[-64.78328,32.26746,0.0]]]]}
,"properties": {"ISO3166-1-Alpha-3": "BMU","country": "Bermuda","fill": "#FF0","name": "Paget","area_km2": 5.915294,"hist_schema_id": "Elevation0-9000","hist_area_km2": {"0": 1.882105,"25": 3.54921,"50": 0.483979}}}