{"type":"Feature","properties":{"GID_2":"CUB.15.2_1","GID_0":"CUB","country":"Cuba","GID_1":"CUB.15_1","province":"SantiagodeCuba","NL_NAME_1":"NA","county":"Guamá","VARNAME_2":"Guama","NL_NAME_2":"NA","TYPE_2":"Municipio","ENGTYPE_2":"Municipality","CC_2":"NA","HASC_2":"CU.SC.GU","name":"Guamá.county"},
"geometry":{"type": "MultiPolygon","coordinates": [[[[-76.9895,19.886,5.0289],[-76.9851,19.8888,23.1842],[-76.9782,19.8879,0.6519],[-76.9749,19.8899,0.0],[-76.9671,19.8904,0.0],[-76.9635,19.8943,6.8947],[-76.9596,19.896,4.4801],[-76.9571,19.8951,0.0],[-76.954,19.8976,0.0],[-76.9463,19.8949,0.0],[-76.9321,19.9001,0.0],[-76.9215,19.9018,0.0],[-76.9124,19.9096,6.5189],[-76.9032,19.9112,0.0],[-76.9024,19.9132,0.0],[-76.8968,19.916,0.0],[-76.8935,19.9215,0.0],[-76.8885,19.9254,0.0],[-76.881,19.9274,0.8439],[-76.8701,19.9374,31.4612],[-76.8651,19.9393,7.0327],[-76.8585,19.9387,0.0],[-76.8526,19.9343,4.5708],[-76.8493,19.9338,3.0515],[-76.8457,19.9363,25.5359],[-76.8401,19.9363,9.9437],[-76.8207,19.9321,3.7208],[-76.8129,19.9349,1.2195],[-76.8057,19.9326,0.0],[-76.8021,19.9357,4.718],[-76.796,19.9351,8.2832],[-76.7921,19.9329,0.0],[-76.7862,19.9329,0.0],[-76.7829,19.9343,0.0],[-76.7804,19.9387,0.0],[-76.7707,19.9421,0.0],[-76.769,19.9449,0.0],[-76.7635,19.9479,5.0143],[-76.7532,19.944,0.0],[-76.7404,19.944,9.492],[-76.7351,19.9424,0.0],[-76.7268,19.9449,0.0],[-76.7101,19.9432,0.0],[-76.7063,19.9449,0.0],[-76.7015,19.9499,6.1197],[-76.6937,19.9487,0.0],[-76.6871,19.9543,21.2863],[-76.6776,19.9571,1.7674],[-76.6707,19.9621,24.6905],[-76.6574,19.9587,0.0],[-76.6499,19.9601,0.0],[-76.6462,19.9579,1.6534],[-76.6301,19.9557,29.2981],[-76.6207,19.9524,11.9111],[-76.6093,19.9512,0.0],[-76.5999,19.9524,11.4831],[-76.5871,19.9468,0.0],[-76.5757,19.9443,2.4134],[-76.5713,19.9449,0.0],[-76.5679,19.9487,0.0],[-76.5629,19.9512,3.3991],[-76.5371,19.9468,0.0],[-76.529,19.9496,3.5469],[-76.519,19.9482,0.0],[-76.5029,19.9524,3.4247],[-76.4915,19.9512,0.0],[-76.4829,19.9579,4.0718],[-76.4776,19.9565,0.0],[-76.4743,19.959,18.1756],[-76.4701,19.9604,0.0],[-76.4643,19.9599,0.0],[-76.4521,19.9654,0.0],[-76.4474,19.9638,14.9514],[-76.4454,19.9604,0.0],[-76.4318,19.961,0.0],[-76.421,19.9676,2.5888],[-76.4126,19.9701,0.0],[-76.4068,19.969,6.6419],[-76.4057,19.9643,0.0],[-76.4001,19.966,0.0],[-76.3993,19.9682,7.1305],[-76.4021,19.9693,1.6165],[-76.3985,19.9704,0.0],[-76.3907,19.9699,1.8345],[-76.3879,19.9671,16.4008],[-76.3857,19.9674,26.93],[-76.3846,19.9651,3.0218],[-76.3865,19.9651,3.0218],[-76.3863,19.9632,0.0],[-76.376,19.9649,0.0],[-76.3735,19.9671,13.7584],[-76.3712,19.9646,1.397],[-76.3624,19.966,1.2987],[-76.3626,19.9621,0.0],[-76.3585,19.9613,1.3208],[-76.3571,19.956,4.6075],[-76.3543,19.9554,0.0],[-76.3512,19.9579,0.0],[-76.3479,19.9582,0.0],[-76.3501,19.9615,8.2747],[-76.3449,19.966,11.1638],[-76.3379,19.9668,0.0],[-76.334,19.9701,0.6845],[-76.3274,19.971,1.1926],[-76.3224,19.9688,21.3435],[-76.3218,19.9668,0.0],[-76.3193,19.9668,0.0],[-76.3118,19.9699,0.0],[-76.3149,19.9737,22.2524],[-76.3112,19.976,1.4612],[-76.3101,19.9718,0.0],[-76.3021,19.9732,0.0],[-76.2993,19.9785,0.0],[-76.3043,19.9829,2.505],[-76.304,19.9849,1.4979],[-76.2996,19.9818,4.3849],[-76.2982,19.9788,0.0],[-76.2954,19.9807,0.0],[-76.2957,19.984,3.0775],[-76.2929,19.9821,7.0088],[-76.2929,19.9799,0.0],[-76.2862,19.9799,0.0],[-76.2782,19.9829,0.0],[-76.2751,19.9901,0.0],[-76.2654,19.9888,10.1424],[-76.2585,19.9907,0.0],[-76.2579,19.9926,1.2492],[-76.2363,19.9926,0.0],[-76.2343,19.9949,1.1979],[-76.2268,19.9943,0.0],[-76.2254,19.9954,0.0],[-76.2162,19.9893,0.0],[-76.2113,19.9896,0.0],[-76.2082,19.9921,3.7412],[-76.2015,19.9876,0.0],[-76.194,19.9893,2.2388],[-76.1832,19.9826,0.0],[-76.1771,19.9837,0.0],[-76.1746,19.9821,1.5486],[-76.1701,19.9824,0.3579],[-76.1676,19.984,3.5079],[-76.1624,19.9829,0.0],[-76.1493,19.9893,2.1578],[-76.1424,19.9888,2.8749],[-76.144,19.9851,0.0],[-76.1429,19.9821,0.6694],[-76.1399,19.9837,0.6223],[-76.1349,19.9837,0.0],[-76.1268,19.979,0.5008],[-76.1126,19.9749,2.1417],[-76.1107,19.9715,0.0],[-76.101,19.9704,0.0],[-76.0993,19.9662,0.0],[-76.0968,19.9662,0.0],[-76.0929,19.9696,0.0],[-76.091,19.9674,0.0],[-76.0874,19.9699,0.0],[-76.0837,19.9668,0.0],[-76.0731,19.9635,0.0],[-76.0757,20.0313,625.0909],[-76.1792,20.0303,416.4234],[-76.2038,20.0394,632.687],[-76.2218,20.0497,727.1453],[-76.2531,20.0616,591.0293],[-76.3165,20.0639,762.9954],[-76.3248,20.0711,692.6633],[-76.3375,20.0953,499.3186],[-76.3469,20.1018,940.5563],[-76.3719,20.1024,700.9147],[-76.3737,20.0927,727.2874],[-76.3788,20.0808,739.0736],[-76.3883,20.0707,862.9553],[-76.4118,20.0578,558.9061],[-76.4297,20.0528,409.6416],[-76.4434,20.0521,564.8395],[-76.4702,20.0571,1057.4181],[-76.4868,20.0651,941.1074],[-76.494,20.0674,948.4398],[-76.4983,20.0668,825.2814],[-76.5017,20.062,855.5023],[-76.5013,20.057,944.3859],[-76.4915,20.045,1445.5654],[-76.4902,20.0415,1458.0491],[-76.4916,20.0368,1325.6538],[-76.5003,20.0352,1094.2635],[-76.5174,20.0356,1036.5354],[-76.5592,20.0389,1049.9713],[-76.5666,20.0365,958.8278],[-76.5733,20.0302,959.4427],[-76.5784,20.0136,1659.3142],[-76.5817,20.0098,1530.8818],[-76.5892,20.0085,1321.7322],[-76.6073,20.0127,1533.9668],[-76.6159,20.0114,1465.0739],[-76.6289,20.0065,1113.7573],[-76.6398,20.0058,1136.9564],[-76.647,20.0084,1011.1333],[-76.6662,20.0229,1030.843],[-76.6743,20.0228,1203.8416],[-76.6951,20.0211,1317.179],[-76.7009,20.0184,1213.9561],[-76.7157,20.0006,1111.0094],[-76.7203,19.9994,1008.9146],[-76.7281,20.0005,1073.0583],[-76.7328,20.0059,673.1094],[-76.7425,20.03,892.5134],[-76.7478,20.0332,760.2653],[-76.7664,20.0332,728.148],[-76.7748,20.0308,826.3247],[-76.7803,20.0272,742.35],[-76.7983,19.9985,926.6448],[-76.8067,19.9954,1275.2853],[-76.8137,19.9886,1470.3264],[-76.8202,19.9849,1224.2041],[-76.8258,19.9861,1628.1831],[-76.8434,20.0017,1377.7173],[-76.8518,20.003,888.9659],[-76.8652,20.0023,949.5883],[-76.8764,19.9984,1053.9723],[-76.8834,19.9907,1049.5223],[-76.9011,19.9483,621.1383],[-76.9084,19.937,202.4439],[-76.917,19.9299,112.367],[-76.9471,19.9221,291.2639],[-76.9987,19.9218,425.6233],[-77.0067,19.9205,327.7755],[-77.0104,19.9178,316.1677],[-77.0113,19.9155,280.0106],[-77.01,19.9111,184.8817],[-76.9968,19.898,274.1442],[-76.9911,19.8907,95.4538],[-76.9921,19.8906,71.159],[-76.9895,19.886,5.0289]]]]}}