{"type":"Feature","properties":{"GID_2":"DOM.25.3_1","GID_0":"DOM","country":"DominicanRepublic","GID_1":"DOM.25_1","province":"SanJosédeOcoa","NL_NAME_1":"NA","county":"SanJosédeOcoa","VARNAME_2":"NA","NL_NAME_2":"NA","TYPE_2":"Municipio","ENGTYPE_2":"Municipality","CC_2":"NA","HASC_2":"DO.JO.SJ","name":"San_Joséde_Ocoa.county"},
"geometry":{"type": "MultiPolygon","coordinates": [[[[-70.4923,18.4579,488.28],[-70.4915,18.4535,388.1348],[-70.4876,18.4493,341.5268],[-70.4869,18.4424,298.4055],[-70.4893,18.4352,245.1831],[-70.4887,18.4271,232.925],[-70.4778,18.4192,209.1039],[-70.472,18.4187,207.7625],[-70.4676,18.427,271.5769],[-70.4605,18.4348,395.5267],[-70.4592,18.4455,629.4138],[-70.4569,18.4485,735.5912],[-70.4512,18.4508,654.7114],[-70.4472,18.4506,644.8211],[-70.4401,18.4544,723.0772],[-70.4301,18.4525,1140.5809],[-70.4226,18.4626,1409.3376],[-70.407,18.4634,1431.3113],[-70.382,18.4763,862.4869],[-70.3648,18.4802,918.7911],[-70.3621,18.4828,919.515],[-70.3605,18.4912,863.4838],[-70.3517,18.5024,606.316],[-70.3426,18.5062,519.2559],[-70.3422,18.5088,653.8521],[-70.3527,18.526,557.368],[-70.3594,18.5288,498.5082],[-70.3649,18.5336,437.9075],[-70.3661,18.5399,580.4431],[-70.373,18.5508,587.3174],[-70.3712,18.5548,545.4518],[-70.3648,18.5563,620.6999],[-70.3628,18.5582,690.3152],[-70.366,18.5669,702.6295],[-70.3589,18.5737,887.0002],[-70.3607,18.5867,797.6421],[-70.3577,18.5978,868.5832],[-70.3533,18.6042,892.0293],[-70.358,18.6084,683.9064],[-70.3559,18.6189,911.3599],[-70.3591,18.6249,903.1152],[-70.3638,18.6277,911.3978],[-70.3662,18.6386,960.14],[-70.3832,18.6323,994.5695],[-70.3892,18.6323,1014.9843],[-70.3946,18.6461,974.2838],[-70.4004,18.6542,1008.1248],[-70.4199,18.6548,1168.1865],[-70.4283,18.6524,1141.6934],[-70.4313,18.6536,1148.0581],[-70.4324,18.6571,1163.1769],[-70.4281,18.664,1071.264],[-70.4316,18.6694,906.935],[-70.4425,18.6651,988.6028],[-70.4503,18.653,833.3888],[-70.4586,18.6525,613.3598],[-70.4616,18.6549,617.51],[-70.464,18.6601,712.1089],[-70.4778,18.6668,695.0091],[-70.4909,18.6816,1242.3635],[-70.5012,18.6807,1334.9392],[-70.5055,18.6744,1206.0581],[-70.5122,18.6698,1273.4265],[-70.5155,18.6637,1302.5094],[-70.5157,18.645,1529.7437],[-70.5085,18.6365,1273.9907],[-70.5039,18.6269,1267.1516],[-70.5002,18.6247,1192.6606],[-70.4919,18.6234,1135.5916],[-70.4831,18.6157,954.5517],[-70.4817,18.6129,922.9231],[-70.4834,18.6066,821.0546],[-70.4826,18.6012,703.0393],[-70.4786,18.5975,807.4003],[-70.4723,18.5982,833.5494],[-70.4681,18.5958,805.0026],[-70.4656,18.5916,755.1048],[-70.4655,18.5847,736.2219],[-70.4724,18.5702,633.9762],[-70.479,18.5608,574.3894],[-70.4853,18.555,546.789],[-70.5021,18.5486,469.8208],[-70.5196,18.5483,615.5089],[-70.5233,18.55,644.7106],[-70.5305,18.5588,785.3242],[-70.5617,18.5753,1186.125],[-70.5622,18.5779,1003.3945],[-70.5578,18.5874,740.6787],[-70.5578,18.6005,1290.1583],[-70.566,18.6081,1341.4382],[-70.5762,18.6269,1885.22],[-70.5844,18.6305,1689.3984],[-70.5966,18.6276,1907.9763],[-70.6019,18.629,2249.0083],[-70.6014,18.6338,2019.7511],[-70.5938,18.64,1973.3423],[-70.5907,18.6551,1930.1096],[-70.5972,18.6675,1928.8864],[-70.6074,18.6737,1526.5613],[-70.6123,18.6811,1522.5901],[-70.619,18.6819,1490.2908],[-70.6263,18.6865,1381.6824],[-70.6326,18.6873,1414.0223],[-70.6465,18.6846,1630.0781],[-70.6621,18.6844,1356.9014],[-70.6736,18.6818,1598.3579],[-70.6715,18.6771,1706.6772],[-70.6573,18.6627,1712.2543],[-70.6529,18.6511,1746.4591],[-70.653,18.6222,1110.183],[-70.6611,18.611,965.6542],[-70.6646,18.5976,1000.8219],[-70.6634,18.5907,831.16],[-70.6561,18.5859,774.1392],[-70.65,18.5782,753.4338],[-70.6412,18.5765,741.8248],[-70.6273,18.5694,831.1953],[-70.6186,18.5556,731.6593],[-70.6192,18.5458,625.4178],[-70.6116,18.5419,805.8679],[-70.6026,18.5271,776.3956],[-70.5994,18.5268,796.5742],[-70.5833,18.5314,587.4698],[-70.577,18.521,521.4563],[-70.5586,18.52,469.798],[-70.5527,18.5166,409.8124],[-70.5503,18.5096,499.7088],[-70.5406,18.5108,591.1605],[-70.536,18.5041,515.777],[-70.5224,18.4929,367.5417],[-70.5037,18.4918,335.2177],[-70.4989,18.4898,531.3558],[-70.4964,18.4855,484.3997],[-70.5035,18.4774,586.0425],[-70.5041,18.4709,338.8656],[-70.5015,18.4671,299.3382],[-70.4933,18.4626,392.22],[-70.4923,18.4579,488.28]]]]}}