{"type":"Feature","properties":{"GID_3":"HTI.8.2.2_1","GID_0":"HTI","country":"Haiti","GID_1":"HTI.8_1","province":"Ouest","NL_NAME_1":"NA","GID_2":"HTI.8.2_1","county":"l'Arcahaie","NL_NAME_2":"NA","city":"Cabaret","VARNAME_3":"NA","NL_NAME_3":"NA","TYPE_3":"Commune","ENGTYPE_3":"Commune","CC_3":"NA","HASC_3":"NA","name":"Cabaret.city"},
"geometry":{"type": "MultiPolygon","coordinates": [[[[-72.3799,18.6971,0.0],[-72.3821,18.6968,0.8582],[-72.3812,18.6929,0.1662],[-72.376,18.694,0.0],[-72.3771,18.6968,0.0],[-72.3799,18.6971,0.0]]],
[[[-72.3517,18.7397,444.5763],[-72.3582,18.7472,309.266],[-72.3523,18.7525,408.5323],[-72.3519,18.7568,400.4719],[-72.3531,18.7608,344.8662],[-72.3574,18.7616,303.463],[-72.3575,18.7645,202.8164],[-72.3559,18.7674,220.3781],[-72.3524,18.7693,265.2259],[-72.3439,18.7707,489.3696],[-72.3357,18.7794,839.3795],[-72.3326,18.7806,785.1826],[-72.3362,18.7828,691.334],[-72.3263,18.7893,770.7137],[-72.33,18.792,775.345],[-72.3322,18.7962,707.2179],[-72.3275,18.7968,842.859],[-72.3194,18.8116,1132.9448],[-72.3232,18.8155,1053.8518],[-72.3243,18.8221,1001.5267],[-72.3336,18.8328,1103.3209],[-72.3357,18.8383,1057.2845],[-72.3556,18.8544,818.8971],[-72.3694,18.8561,908.6328],[-72.3783,18.8533,865.0121],[-72.3807,18.8508,910.4074],[-72.3757,18.8418,762.7155],[-72.3807,18.8411,888.045],[-72.385,18.8472,848.6922],[-72.3867,18.8458,766.1879],[-72.3867,18.8409,647.0223],[-72.3893,18.8392,695.0036],[-72.3987,18.8447,780.8946],[-72.4007,18.842,944.0059],[-72.4087,18.8431,949.729],[-72.4075,18.8397,860.9208],[-72.4111,18.8351,722.762],[-72.423,18.840699999999998,1159.995],[-72.421,18.8366,1000.1807],[-72.4225,18.8347,1045.9695],[-72.425299999999993,18.8352,1017.0927],[-72.435,18.8286,530.0219],[-72.4368,18.8245,462.6382],[-72.4413,18.8236,356.8922],[-72.4428,18.8205,340.6901],[-72.4567,18.8155,375.496],[-72.4623,18.8194,419.0894],[-72.4667,18.8188,325.2696],[-72.4665,18.8103,186.4265],[-72.4688,18.8074,163.9812],[-72.4699,18.7945,110.7398],[-72.4777,18.7849,57.8006],[-72.4891,18.7905,62.709],[-72.4962,18.7991,85.8583],[-72.4989,18.8075,99.8418],[-72.5065,18.8003,68.4415],[-72.5026,18.7795,26.004],[-72.496,18.7676,6.2712],[-72.4957,18.764,0.7693],[-72.4954,18.764,0.7693],[-72.4954,18.7649,0.7693],[-72.4951,18.7649,0.0],[-72.4951,18.7657,1.8962],[-72.4935,18.7674,4.0486],[-72.4887,18.7685,0.4263],[-72.4774,18.7601,0.0],[-72.4707,18.7599,0.3394],[-72.4647,18.7564,0.0],[-72.4613,18.7518,0.2453],[-72.459,18.7451,0.0],[-72.4576,18.7379,0.54],[-72.4596,18.7335,0.186],[-72.4521,18.7296,4.6061],[-72.4507,18.7196,0.2666],[-72.4274,18.7132,0.0],[-72.4157,18.7137,0.0],[-72.4005,18.7116,0.0],[-72.3945,18.7143,0.9876],[-72.3899,18.7124,10.338],[-72.3829,18.7049,0.0],[-72.3801,18.7043,1.3642],[-72.3788,18.7007,0.0],[-72.3632,18.6954,0.7808],[-72.3579,18.6921,2.3495],[-72.3582,18.6896,0.0],[-72.3547,18.6907,9.2593],[-72.3518,18.6871,0.0],[-72.3501,18.6882,0.7455],[-72.3417,18.6863,4.0356],[-72.3321,18.6824,2.666],[-72.3235,18.6888,77.5312],[-72.321,18.6925,95.3163],[-72.3167,18.693,109.5723],[-72.3119,18.7037,299.7309],[-72.3226,18.7036,181.491],[-72.3257,18.7073,189.0176],[-72.3322,18.7084,152.3402],[-72.3363,18.7109,136.2289],[-72.334,18.7148,186.4383],[-72.338,18.7224,198.5626],[-72.3353,18.7262,288.3969],[-72.3285,18.7299,341.4631],[-72.3285,18.7338,518.486],[-72.3318,18.7327,442.1079],[-72.3442,18.7361,422.0345],[-72.3495,18.7339,391.4292],[-72.352,18.7357,354.5986],[-72.3517,18.7397,444.5763]]]]}}