{"type": "Feature","bbox": [-71.7192,18.1944,-71.4528,18.4956],"geometry": {"type": "MultiPolygon","coordinates": [[[[-71.6412,18.4956,-37.0],[-71.6491,18.4763,-37.0],[-71.6599,18.459,-37.0],[-71.6662,18.438,-37.0],[-71.6661,18.4319,-20.8622],[-71.6606,18.4203,109.226],[-71.6611,18.4059,187.8685],[-71.6744,18.3918,55.2013],[-71.6768,18.3825,109.0165],[-71.6836,18.3773,166.1297],[-71.685,18.3666,574.5626],[-71.6927,18.3577,933.1194],[-71.6984,18.3467,798.8679],[-71.688,18.3427,874.0037],[-71.7192,18.2927,2183.1091],[-71.717,18.2932,2170.6021],[-71.6869,18.2809,2109.2578],[-71.6796,18.2741,2184.2686],[-71.6746,18.2644,2166.5774],[-71.6709,18.2606,2175.2454],[-71.6394,18.2439,2186.6582],[-71.6127,18.2254,2095.0625],[-71.5959,18.2248,1978.2629],[-71.5841,18.2272,1914.5098],[-71.564,18.2093,2035.9672],[-71.5563,18.2052,2004.8617],[-71.5506,18.2048,1914.4087],[-71.543,18.2073,1855.4868],[-71.5366,18.2072,1791.741],[-71.5234,18.2009,1781.4895],[-71.5148,18.1944,1788.0645],[-71.4956,18.2011,1841.8718],[-71.4815,18.1944,1840.5293],[-71.4813,18.2064,1723.5725],[-71.4708,18.2123,1452.001],[-71.4635,18.2232,1219.8914],[-71.4546,18.2277,1071.2747],[-71.4528,18.2316,1070.1124],[-71.466,18.2456,908.5204],[-71.4657,18.2527,804.8028],[-71.4685,18.2586,770.3724],[-71.4872,18.2737,746.7238],[-71.4992,18.2803,709.311],[-71.5044,18.2909,495.5279],[-71.5047,18.2958,652.4797],[-71.5224,18.3197,483.834],[-71.523,18.3275,360.2436],[-71.5185,18.3345,351.2234],[-71.5156,18.3433,294.5147],[-71.52,18.3487,276.4655],[-71.5235,18.3584,268.231],[-71.5209,18.3683,35.9624],[-71.521,18.3806,-6.8881],[-71.5292,18.3894,-19.2063],[-71.5268,18.3988,-27.249],[-71.5268,18.4556,-37.0],[-71.5455,18.4638,-37.0],[-71.6127,18.485,-37.0],[-71.6412,18.4956,-37.0]]]]}
,"properties": {"GID_2": "DOM.10.2_1","GID_0": "DOM","country": "DominicanRepublic","GID_1": "DOM.10_1","province": "Independencia","NL_NAME_1": "NA","county": "Duvergé","VARNAME_2": "NA","NL_NAME_2": "NA","TYPE_2": "Municipio","ENGTYPE_2": "Municipality","CC_2": "NA","HASC_2": "DO.IN.DU","name": "Duvergé.county","area_km2": 514.537,"hist_schema_id": "Elevation0-9000","hist_area_km2": {"-25": 115.2312,"0": 7.7054,"25": 4.084,"50": 2.6154,"75": 4.4061,"100": 3.4807,"125": 3.34,"150": 3.179,"175": 2.7364,"200": 3.3399,"225": 3.1992,"250": 3.2999,"275": 3.0184,"300": 2.9178,"325": 3.3203,"350": 3.5619,"375": 3.8637,"400": 10.6668,"425": 12.4779,"450": 12.4575,"475": 11.8736,"500": 12.5375,"525": 11.9944,"550": 9.9016,"575": 9.3585,"600": 8.0908,"625": 7.8901,"650": 7.6486,"675": 7.3869,"700": 6.884,"725": 6.5419,"750": 7.79,"775": 5.8576,"800": 4.8913,"825": 4.5491,"850": 4.3478,"875": 3.6836,"900": 2.5364,"925": 2.5365,"950": 2.4561,"975": 2.6574,"1000": 2.4762,"1025": 2.3957,"1050": 3.1003,"1075": 2.9394,"1100": 3.3622,"1125": 3.5636,"1150": 3.6844,"1175": 3.2213,"1200": 3.4428,"1225": 3.6442,"1250": 3.7047,"1275": 3.3222,"1300": 3.1812,"1325": 3.302,"1350": 3.4832,"1375": 4.2082,"1400": 5.1143,"1425": 4.2284,"1450": 3.9264,"1475": 3.2015,"1500": 3.3425,"1525": 3.6245,"1550": 3.8258,"1575": 3.7856,"1600": 2.9197,"1625": 2.96,"1650": 3.1413,"1675": 3.8662,"1700": 3.3023,"1725": 3.5842,"1750": 3.5843,"1775": 5.3971,"1800": 5.2964,"1825": 3.4435,"1850": 2.4365,"1875": 1.933,"1900": 2.4364,"1925": 2.9197,"1950": 3.6848,"1975": 4.2486,"2000": 2.7787,"2025": 3.6242,"2050": 3.3623,"2075": 3.745,"2100": 3.3021,"2125": 3.6847,"2150": 2.3759,"2175": 1.4094,"2200": 0.4832,"2225": 0.1208,"2250": 0.1007}}}