{"type":"Feature","properties":{"GID_2":"DOM.18.3_1","GID_0":"DOM","country":"DominicanRepublic","GID_1":"DOM.18_1","province":"MontePlata","NL_NAME_1":"NA","county":"MontePlata","VARNAME_2":"NA","NL_NAME_2":"NA","TYPE_2":"Municipio","ENGTYPE_2":"Municipality","CC_2":"NA","HASC_2":"DO.MP.MP","name":"Monte_Plata.county"},
"geometry":{"type": "MultiPolygon","coordinates": [[[[-69.7091,18.859,99.7364],[-69.7273,18.859,181.053],[-69.7469,18.8515,75.5144],[-69.7538,18.8541,72.2818],[-69.7549,18.8576,105.578],[-69.7524,18.8672,78.671],[-69.7576,18.8774,146.366],[-69.7587,18.8875,168.9459],[-69.7635,18.8925,200.9915],[-69.7646,18.9073,196.4651],[-69.7737,18.9182,257.2366],[-69.7862,18.9272,301.1696],[-69.7903,18.9245,363.7555],[-69.7911,18.9115,234.9039],[-69.7963,18.9013,312.8776],[-69.7937,18.8853,316.864],[-69.7993,18.8742,332.5392],[-69.8042,18.8713,330.7102],[-69.8137,18.8712,453.1337],[-69.8236,18.8764,466.1337],[-69.8278,18.8768,420.0],[-69.8321,18.8744,361.6888],[-69.8378,18.8671,294.3761],[-69.8469,18.8691,277.4821],[-69.8541,18.8726,316.0439],[-69.8604,18.8784,328.0063],[-69.862,18.8829,337.3579],[-69.861,18.8929,176.4945],[-69.8711,18.9,110.2718],[-69.8776,18.9075,122.2348],[-69.8821,18.9079,154.1112],[-69.8893,18.9041,97.463],[-69.8979,18.9165,188.8076],[-69.9031,18.9185,263.7644],[-69.9096,18.9153,253.0195],[-69.913,18.917,271.2137],[-69.9142,18.9203,291.5236],[-69.9105,18.9237,240.116],[-69.9107,18.9265,246.0131],[-69.9138,18.9318,136.3188],[-69.9232,18.9386,88.7612],[-69.9269,18.9468,79.5427],[-69.9325,18.9371,68.0027],[-69.934,18.9297,112.6282],[-69.9405,18.9242,71.9486],[-69.9503,18.9119,76.0686],[-69.9518,18.9005,93.6666],[-69.9558,18.8957,98.6426],[-69.9604,18.8924,104.0606],[-69.9711,18.8915,99.7605],[-69.9819,18.8867,147.5578],[-69.9915,18.8865,162.4533],[-69.9876,18.8805,135.3036],[-69.9844,18.8713,112.9867],[-69.9826,18.8546,65.6391],[-69.9747,18.8514,65.7112],[-69.9634,18.8421,81.677],[-69.9573,18.8427,100.0834],[-69.9541,18.8411,114.6142],[-69.9515,18.8373,84.8473],[-69.9503,18.8239,55.4795],[-69.9402,18.8199,80.5363],[-69.9437,18.8105,58.5074],[-69.943,18.8029,49.1244],[-69.9533,18.8007,40.4607],[-69.9544,18.7957,33.9661],[-69.9516,18.7932,37.9209],[-69.9449,18.7952,38.6924],[-69.9428,18.7942,42.146],[-69.9418,18.7838,34.0107],[-69.9373,18.781,41.1641],[-69.9366,18.7784,37.7021],[-69.9379,18.7765,33.2297],[-69.9447,18.7747,34.1885],[-69.945,18.7668,30.5642],[-69.9401,18.7633,29.9764],[-69.9359,18.7548,30.1456],[-69.9313,18.7525,45.962],[-69.9194,18.7413,72.1773],[-69.9135,18.7331,61.844],[-69.914,18.7297,35.2815],[-69.9208,18.7216,28.9437],[-69.9164,18.7134,23.3973],[-69.9207,18.7093,24.5915],[-69.9191,18.7041,27.0545],[-69.9114,18.6958,22.6544],[-69.9059,18.6942,22.2359],[-69.8979,18.6973,18.9566],[-69.8892,18.7044,20.3667],[-69.8827,18.7075,21.2722],[-69.8709,18.7055,15.7579],[-69.8635,18.7077,17.8571],[-69.8599,18.7069,14.1198],[-69.8579,18.7034,14.5362],[-69.8538,18.7009,13.4017],[-69.8524,18.6896,16.8712],[-69.8483,18.6871,11.2587],[-69.8457,18.6787,14.2829],[-69.8363,18.6686,12.7944],[-69.8312,18.6564,13.9629],[-69.8281,18.6555,10.6176],[-69.819,18.6596,12.5025],[-69.8149,18.6583,15.0553],[-69.8146,18.6326,13.5199],[-69.8132,18.6278,13.8934],[-69.8067,18.6243,9.6416],[-69.7962,18.6258,8.7285],[-69.7916,18.6231,5.0879],[-69.7902,18.6126,10.8063],[-69.7848,18.6056,12.1615],[-69.7849,18.5978,7.1897],[-69.7869,18.5919,6.5121],[-69.7838,18.583,7.3676],[-69.779,18.5779,12.963],[-69.7674,18.5846,11.1951],[-69.7613,18.5965,8.4373],[-69.7477,18.5967,16.9979],[-69.7436,18.6066,7.4591],[-69.7388,18.6264,13.2224],[-69.7231,18.641,16.5104],[-69.7159,18.6435,12.2526],[-69.7163,18.6546,13.3626],[-69.7148,18.6625,25.8467],[-69.7243,18.6713,26.9389],[-69.7264,18.6792,33.6335],[-69.7338,18.6883,23.4555],[-69.7369,18.6975,31.1386],[-69.7373,18.7155,34.2197],[-69.7403,18.7283,35.8494],[-69.7276,18.7633,66.1966],[-69.7171,18.7863,72.1013],[-69.7157,18.7942,74.2388],[-69.7089,18.8023,86.2139],[-69.7108,18.8084,125.3185],[-69.7187,18.8202,128.925],[-69.7223,18.8312,114.7931],[-69.721,18.8348,85.265],[-69.7146,18.8416,87.3047],[-69.7124,18.8483,82.4958],[-69.7059,18.8532,106.1478],[-69.7091,18.859,99.7364]]]]}}