{"type": "Feature","id": "1437","bbox": [-61.37318,15.23588,-61.35566,15.26035],"geometry": {"type": "Polygon","coordinates": [[[-61.35661,15.2538,411.5979],[-61.37315,15.26033,59.9232],[-61.37318,15.26035,59.9232],[-61.37279,15.23721,0.0],[-61.37297,15.23588,0.0],[-61.37294,15.23589,0.0],[-61.37284,15.23592,0.0],[-61.35566,15.2438,490.7033],[-61.35661,15.2538,411.5979]]]}
,"properties": {"ISO3166-1-Alpha-3": "DMA","country": "Dominica","fill": "#FF0","name": "Saint Luke","area_km2": 3.49794,"hist_schema_id": "Elevation0-9000","hist_area_km2": {"0": 0.143197,"25": 0.040913,"50": 0.102281,"75": 0.204562,"100": 0.102277,"125": 0.102279,"150": 0.163646,"175": 0.143189,"200": 0.368199,"225": 0.143192,"250": 0.225011,"275": 0.306834,"300": 0.409112,"325": 0.204555,"350": 0.102278,"375": 0.20456,"400": 0.102279,"425": 0.122736,"450": 0.122735,"475": 0.081824,"500": 0.061368,"525": 0.020456,"550": 0.020456}}}