{"type": "Feature","bbox": [-61.3779,15.2335,-61.3453,15.2705],"geometry": {"type": "MultiPolygon","coordinates": [[[[-61.3751,15.2705,86.7055],[-61.3779,15.2585,0.0],[-61.3729,15.2451,33.4511],[-61.3735,15.241,0.0],[-61.3701,15.2368,0.0],[-61.3645,15.2335,0.0],[-61.3643,15.2405,221.817],[-61.3514,15.2484,741.9615],[-61.3453,15.2499,911.9073],[-61.3463,15.2599,518.6835],[-61.3634,15.2676,378.3065],[-61.3751,15.2705,86.7055]]]]}
,"properties": {"GID_1": "DMA.6_1","GID_0": "DMA","country": "Dominica","province": "SaintLuke","VARNAME_1": "NA","NL_NAME_1": "NA","TYPE_1": "Parish","ENGTYPE_1": "Parish","CC_1": "NA","HASC_1": "DM.LU","ISO_1": "DM-07","name": "Saint_Luke.province","area_km2": 8.141166,"hist_schema_id": "Elevation0-9000","hist_area_km2": {"0": 0.245469,"25": 0.204551,"50": 0.225009,"75": 0.38866,"100": 0.265914,"125": 0.306827,"150": 0.368193,"175": 0.265918,"200": 0.552291,"225": 0.327283,"250": 0.368192,"275": 0.511379,"300": 0.572748,"325": 0.306826,"350": 0.306823,"375": 0.409105,"400": 0.368187,"425": 0.327281,"450": 0.265916,"475": 0.184097,"500": 0.286371,"525": 0.184096,"550": 0.225007,"575": 0.122733,"600": 0.143185,"625": 0.081819,"650": 0.040911,"675": 0.040911,"700": 0.020455,"725": 0.040911,"750": 0.020455,"775": 0.020456,"800": 0.040911,"825": 0.020456,"850": 0.020456,"900": 0.040911,"925": 0.020456}}}