{"type": "Feature","id": "1364","bbox": [-78.65616,20.51801,-76.94481,22.4372],"geometry": {"type": "MultiPolygon","coordinates": [[[[-78.38419,20.56216,0.0],[-78.39342,20.56997,0.0],[-78.40819,20.58877,0.0],[-78.41893,20.59911,0.0],[-78.4335,20.60952,0.0],[-78.44921,20.61294,0.0],[-78.46345,20.60244,0.5619],[-78.42785,20.58564,1.0561],[-78.40978,20.57364,0.392],[-78.3966,20.54645,0.0],[-78.38386,20.54059,0.6667],[-78.36897,20.53653,0.7649],[-78.35729,20.53042,0.0],[-78.33898,20.51801,0.0],[-78.32836,20.52131,0.0],[-78.32608,20.5351,0.0],[-78.33312,20.55463,0.0],[-78.34358,20.56733,0.0],[-78.3553,20.57343,0.0],[-78.36449,20.57022,0.3301],[-78.36726,20.55463,0.0],[-78.38419,20.56216,0.0]]],
[[[-78.57848,20.65766,0.0],[-78.5817,20.66161,0.063],[-78.58129,20.659,0.0],[-78.58072,20.65738,0.0],[-78.57995,20.654,0.1518],[-78.60407,20.65835,0.0],[-78.60904,20.66071,0.0],[-78.61339,20.65795,0.0],[-78.61172,20.65363,0.4535],[-78.60631,20.65021,0.4557],[-78.60098,20.64525,0.3893],[-78.59398,20.64289,0.5927],[-78.58568,20.64362,0.0],[-78.57828,20.64842,0.0],[-78.57848,20.65766,0.0]]],
[[[-78.63117,20.65314,0.4133],[-78.62975,20.65884,0.0],[-78.64363,20.66328,0.0],[-78.65152,20.66494,0.0],[-78.65469,20.6638,0.0],[-78.65616,20.65851,0.1179],[-78.64647,20.65229,0.0],[-78.63117,20.65314,0.4133]]],
[[[-78.47842,20.72919,0.0],[-78.47859,20.73017,0.0],[-78.48396,20.73216,0.5394],[-78.49836,20.72016,0.0],[-78.53319,20.7128,0.0],[-78.5454,20.70425,0.5066],[-78.52782,20.69929,0.0],[-78.51183,20.69115,0.0],[-78.49576,20.70124,0.0],[-78.44913,20.71162,0.0],[-78.43615,20.72598,0.0],[-78.4558,20.73176,0.0],[-78.46589,20.73119,0.0],[-78.47647,20.72598,0.0],[-78.47842,20.72919,0.0]]],
[[[-78.06505,22.08698,0.0],[-78.07982,22.08218,0.0],[-78.08182,22.08279,0.0],[-78.08182,22.08279,0.0],[-78.0835,22.07392,0.0],[-78.075,22.06889,3.3282],[-78.07283,22.06517,4.4992],[-78.07086,22.05989,4.2302],[-78.07066,22.05411,1.7279],[-78.07159,22.04832,3.4708],[-78.07525,22.0377,6.158],[-78.0789,22.03305,8.886],[-78.08456,22.02935,9.7096],[-78.09797,22.02486,5.6928],[-78.10962,22.01876,9.7861],[-78.12742,22.00465,12.3181],[-78.15158,21.98106,16.9244],[-78.16269,21.9737,16.8382],[-78.1713,21.96951,14.2775],[-78.18359,21.96716,13.1258],[-78.19915,21.96682,18.7734],[-78.2154,21.96197,19.369],[-78.22137,21.96101,18.7304],[-78.22817,21.96078,20.5733],[-78.23512,21.95763,20.2848],[-78.24036,21.95468,22.0234],[-78.25191,21.92561,21.0659],[-78.24584,21.90812,25.0528],[-78.24217,21.90463,25.4058],[-78.19318,21.86624,29.5547],[-78.17615,21.84978,37.8027],[-78.15608,21.81813,34.1526],[-78.16858,21.80963,47.1717],[-78.18297,21.80255,60.1512],[-78.18607,21.79978,62.2461],[-78.18763,21.79699,62.1446],[-78.18775,21.79299,63.1774],[-78.18357,21.77257,64.7664],[-78.18321,21.76921,65.449],[-78.18887,21.76722,68.3089],[-78.22778,21.76234,86.969],[-78.24155,21.76286,74.7444],[-78.25191,21.76738,65.8057],[-78.26716,21.78699,59.637],[-78.27049,21.79237,56.9419],[-78.27659,21.79815,56.0499],[-78.27953,21.80327,56.108],[-78.28095,21.80807,53.2129],[-78.28103,21.81412,50.7312],[-78.28201,21.81743,45.96],[-78.28364,21.8196,47.9419],[-78.28643,21.82061,46.5101],[-78.29075,21.82092,47.0064],[-78.29907,21.81805,55.0673],[-78.3094,21.81218,59.867],[-78.32444,21.79841,53.0592],[-78.33051,21.79019,58.6839],[-78.33377,21.78461,56.868],[-78.33051,21.76598,61.1078],[-78.32532,21.74994,70.0925],[-78.32441,21.74387,71.8943],[-78.32408,21.73596,72.1197],[-78.32485,21.72979,68.9947],[-78.32656,21.72612,71.2206],[-78.32899,21.72459,73.957],[-78.33431,21.72402,78.3841],[-78.33764,21.72211,79.5859],[-78.34392,21.71265,77.1638],[-78.3488,21.70723,69.2563],[-78.36084,21.69036,55.8668],[-78.35937,21.6832,53.0795],[-78.35617,21.67847,53.2014],[-78.35162,21.67576,52.8623],[-78.34971,21.67366,55.8842],[-78.35242,21.67118,56.9871],[-78.35971,21.66994,54.7187],[-78.37844,21.66927,51.7555],[-78.39188,21.67165,50.6936],[-78.41516,21.67307,40.7796],[-78.42061,21.67408,39.9333],[-78.4295,21.66987,43.0287],[-78.43939,21.64527,38.8702],[-78.45084,21.61586,26.0824],[-78.45389,21.6116,25.0642],[-78.45937,21.60586,24.2777],[-78.46345,21.60589,24.1426],[-78.46598,21.60705,24.0637],[-78.46802,21.60953,23.626],[-78.46986,21.61217,25.9864],[-78.47497,21.61806,26.1733],[-78.47717,21.61971,27.8227],[-78.4797,21.62028,29.9523],[-78.49683,21.6154,19.9098],[-78.51952,21.60558,17.8885],[-78.53076,21.59925,17.7793],[-78.54246,21.58928,14.9039],[-78.54579,21.58522,10.4539],[-78.55274,21.57956,8.97],[-78.60489,21.54892,7.2903],[-78.6415,21.53393,1.9403],[-78.64163,21.53388,1.9403],[-78.62816,21.52106,1.0432],[-78.60782,21.49372,0.0],[-78.59244,21.46182,1.0033],[-78.58633,21.42821,0.0],[-78.5821,21.41389,0.0],[-78.5633,21.38345,0.0],[-78.55899,21.36652,0.0],[-78.55687,21.34748,0.5036],[-78.54747,21.31509,0.0],[-78.5454,21.29759,0.0],[-78.53799,21.29035,0.0],[-78.50552,21.28022,0.0],[-78.4982,21.26996,1.1551],[-78.50211,21.25556,0.5],[-78.51146,21.24885,0.7097],[-78.52257,21.25031,0.1575],[-78.53173,21.2604,0.0],[-78.5382,21.23163,0.0],[-78.52758,21.20327,0.0],[-78.51228,21.17512,0.0],[-78.50438,21.14712,0.0],[-78.50088,21.0821,0.0],[-78.49474,21.04792,0.0],[-78.4879,21.03856,0.0],[-78.47899,21.03758,0.3576],[-78.44225,21.01114,1.9664],[-78.42992,20.9997,0.0],[-78.41503,20.97309,0.0],[-78.40392,20.95795,0.0],[-78.39147,20.95124,0.0],[-78.35635,20.95303,3.7704],[-78.34268,20.94941,5.3259],[-78.27204,20.90111,0.0],[-78.2648,20.88666,0.0],[-78.26207,20.87816,0.0],[-78.25573,20.86864,0.0],[-78.24372,20.85505,1.0679],[-78.24185,20.84789,0.6413],[-78.24128,20.83853,0.0],[-78.23766,20.8334,2.6922],[-78.22692,20.83893,0.7717],[-78.21105,20.8395,2.0972],[-78.19079,20.82762,1.1423],[-78.17235,20.81175,0.0],[-78.16177,20.80044,0.9887],[-78.14411,20.76826,0.7642],[-78.13207,20.75739,1.9297],[-78.11026,20.75324,1.7388],[-78.09838,20.74811,2.5653],[-78.06554,20.71166,0.0],[-78.0594,20.72598,2.0788],[-78.05191,20.72598,1.231],[-78.04113,20.70449,1.0746],[-78.00707,20.69619,0.0],[-77.94205,20.69798,0.3789],[-77.92687,20.7049,1.7805],[-77.91417,20.71638,0.1383],[-77.89924,20.72728,1.2174],[-77.87751,20.73216,5.5816],[-77.84081,20.72826,5.8621],[-77.83113,20.72556,7.2946],[-77.83111,20.72569,7.2946],[-77.81773,20.80731,21.1935],[-77.76579,20.87619,64.6714],[-77.74217,20.87467,65.9058],[-77.68117,20.88573,74.78],[-77.66603,20.89152,46.283],[-77.6581,20.89686,48.4323],[-77.65869,20.90265,50.5718],[-77.65854,20.90968,53.6562],[-77.65753,20.91748,56.9126],[-77.65332,20.93366,72.8796],[-77.65264,20.93939,62.8286],[-77.65352,20.94575,65.3458],[-77.65515,20.95218,64.5547],[-77.65513,20.96014,71.094],[-77.64743,20.96515,73.0034],[-77.64081,20.96624,72.9457],[-77.63528,20.96402,68.3957],[-77.62978,20.95699,100.1122],[-77.62588,20.95079,85.4669],[-77.62081,20.94443,87.5498],[-77.61701,20.94133,118.8372],[-77.61151,20.94048,84.2405],[-77.60014,20.93978,68.337],[-77.59497,20.93864,51.378],[-77.58735,20.93779,50.7568],[-77.58423,20.94027,51.3079],[-77.58226,20.94335,53.007],[-77.58231,20.95598,69.5491],[-77.57699,20.96944,58.2251],[-77.56691,20.97469,50.8333],[-77.54666,20.98027,91.7195],[-77.53219,20.98229,89.2088],[-77.5294,20.99691,64.0234],[-77.52679,21.00014,64.2011],[-77.52418,21.00022,69.2407],[-77.51136,20.99936,78.6429],[-77.49793,21.00068,74.0316],[-77.47974,21.00409,74.483],[-77.47317,21.012,77.8269],[-77.46999,21.01895,87.2266],[-77.46894,21.02585,85.8245],[-77.46483,21.03458,93.0158],[-77.46475,21.03595,89.9161],[-77.46707,21.04352,91.9204],[-77.46777,21.04786,94.6737],[-77.4679,21.05368,96.7486],[-77.46596,21.05696,93.2123],[-77.4624,21.05939,92.4287],[-77.44793,21.06608,93.415],[-77.44106,21.07391,93.7913],[-77.43767,21.0761,88.5927],[-77.43612,21.07626,88.5927],[-77.43563,21.07417,87.364],[-77.43449,21.07169,86.369],[-77.43286,21.0691,85.0461],[-77.42863,21.06381,84.2415],[-77.4256,21.06065,78.0],[-77.41692,21.04817,79.7718],[-77.41491,21.04357,85.074],[-77.41405,21.03897,83.6265],[-77.41452,21.03303,78.5623],[-77.41369,21.0305,77.9061],[-77.41142,21.02846,78.9941],[-77.39393,21.02422,75.3188],[-77.37724,21.02303,89.8592],[-77.36879,21.02159,84.2107],[-77.3639,21.02011,91.544],[-77.36184,21.01748,89.3],[-77.36153,21.0152,89.2054],[-77.36233,21.01252,86.7918],[-77.36897,21.00309,82.7183],[-77.36966,21.00024,78.8081],[-77.36979,20.99712,78.8411],[-77.36664,20.99045,74.618],[-77.35659,20.98066,66.5039],[-77.34631,21.00151,70.0685],[-77.33969,21.00657,69.5141],[-77.33365,21.00949,72.9325],[-77.329,21.00849,74.008],[-77.32429,21.00526,73.6315],[-77.31427,20.99619,60.438],[-77.3083,20.9934,59.927],[-77.30008,20.99115,53.9221],[-77.29184,20.99502,61.6827],[-77.263,21.0599,78.6028],[-77.24895,21.07835,79.0],[-77.23709,21.08365,84.0559],[-77.22774,21.08918,88.7881],[-77.22272,21.09122,87.1966],[-77.19347,21.09711,93.307],[-77.18699,21.09905,98.8166],[-77.17407,21.10954,92.5615],[-77.16756,21.11683,87.8156],[-77.13113,21.17351,54.7099],[-77.13552,21.23808,37.0591],[-77.1348,21.24493,30.7758],[-77.12971,21.25669,31.5443],[-77.07325,21.30552,17.0212],[-77.07167,21.30916,15.357],[-77.07369,21.31265,16.1702],[-77.0795,21.3141,16.0651],[-77.11779,21.31389,17.7265],[-77.12229,21.31684,19.4834],[-77.12715,21.3227,17.168],[-77.13159,21.33911,10.8459],[-77.13074,21.34849,13.2115],[-77.12467,21.36146,16.2233],[-77.11635,21.37069,11.8331],[-77.10048,21.41647,2.5386],[-77.08069,21.41433,1.881],[-77.05746,21.40903,2.7825],[-77.03956,21.4098,0.0],[-77.01243,21.41616,0.0],[-76.99974,21.42164,1.5304],[-76.97127,21.44246,0.0],[-76.95537,21.44843,0.0],[-76.94721,21.4558,1.1358],[-76.94481,21.45775,0.0],[-76.94481,21.45775,0.0],[-76.94677,21.45905,0.0],[-76.96264,21.47264,2.9784],[-77.06994,21.59577,0.9972],[-77.08829,21.60619,0.0],[-77.10725,21.60297,0.0],[-77.11547,21.59321,3.1392],[-77.14074,21.54841,0.0],[-77.15307,21.49527,0.0],[-77.16185,21.48013,0.0],[-77.17129,21.47895,0.0],[-77.18078,21.47382,0.0],[-77.18171,21.47264,0.0],[-77.20661,21.46088,0.0],[-77.21646,21.4584,0.6179],[-77.20849,21.47606,0.0],[-77.22435,21.47777,0.0],[-77.24673,21.47431,0.0],[-77.25805,21.47639,0.0],[-77.26252,21.4831,0.0],[-77.27123,21.50047,0.0],[-77.27758,21.51846,0.0],[-77.27477,21.52668,2.3352],[-77.25723,21.53425,0.0],[-77.24999,21.55085,16.8161],[-77.25512,21.56745,0.0],[-77.27477,21.5751,0.0],[-77.30281,21.57294,0.0],[-77.31273,21.5751,0.0],[-77.32201,21.58027,0.0],[-77.3297,21.5871,0.0],[-77.338,21.59296,0.0],[-77.3496,21.59553,0.0],[-77.36095,21.60078,0.0],[-77.36425,21.61176,0.0],[-77.35619,21.62165,0.0],[-77.33316,21.62344,0.0],[-77.32445,21.62035,0.0815],[-77.31359,21.61115,0.0],[-77.30468,21.60737,0.0],[-77.29882,21.60399,0.5091],[-77.29377,21.60248,0.2415],[-77.29162,21.60611,2.3166],[-77.29003,21.60712,2.076],[-77.28673,21.61058,3.1817],[-77.28425,21.61424,3.3615],[-77.28478,21.61603,3.2467],[-77.26602,21.61424,4.4493],[-77.24975,21.60977,-0.1619],[-77.18541,21.58185,1.8689],[-77.18049,21.57803,0.0438],[-77.1632,21.56,0.6355],[-77.15441,21.55459,0.5032],[-77.14782,21.57197,3.7689],[-77.12377,21.59618,4.3676],[-77.12027,21.61603,0.0],[-77.12621,21.62474,0.0],[-77.1363,21.63349,0.0],[-77.14171,21.64558,0.0],[-77.13394,21.66446,0.0],[-77.15184,21.66006,0.0],[-77.16674,21.66014,0.0],[-77.18065,21.66425,0.0],[-77.19542,21.67129,0.0],[-77.2543,21.71284,0.0],[-77.26773,21.71752,0.0],[-77.30158,21.74335,0.0],[-77.31579,21.7569,0.0],[-77.33007,21.76634,0.0],[-77.38097,21.78115,0.0],[-77.40136,21.79047,0.0],[-77.50756,21.86245,2.9087],[-77.5111,21.86774,4.2963],[-77.51749,21.89301,0.0],[-77.52123,21.90119,0.0],[-77.55602,21.92853,0.0],[-77.57164,21.93081,0.0],[-77.58991,21.91926,0.0],[-77.60582,21.90127,1.2937],[-77.61433,21.88418,0.314],[-77.60049,21.89045,1.4698],[-77.59366,21.88874,1.4276],[-77.58308,21.87328,0.4125],[-77.54548,21.84317,1.0048],[-77.51854,21.81184,1.0353],[-77.50438,21.80353,0.0],[-77.49083,21.81525,0.0],[-77.47655,21.80097,-0.4596],[-77.45914,21.80927,0.5261],[-77.4488,21.80191,0.1185],[-77.44371,21.78823,0.0],[-77.44237,21.77774,0.2771],[-77.4383,21.77485,4.3317],[-77.41857,21.76728,3.0862],[-77.41169,21.76341,0.1377],[-77.40709,21.75658,1.5075],[-77.40148,21.73334,-0.1474],[-77.38915,21.70384,4.373],[-77.37841,21.6905,1.4516],[-77.35241,21.67951,0.1009],[-77.34288,21.66755,2.4055],[-77.3369,21.65559,2.0433],[-77.33654,21.65013,0.0],[-77.33943,21.64802,0.0],[-77.34215,21.6433,0.0],[-77.34716,21.63862,0.0],[-77.35676,21.63654,0.0],[-77.36335,21.63825,0.4366],[-77.3872,21.65013,0.0],[-77.41747,21.65371,0.0],[-77.43029,21.65762,0.0],[-77.43562,21.66787,0.0],[-77.43908,21.68382,0.1336],[-77.45372,21.71503,0.0],[-77.45604,21.73334,0.0],[-77.45254,21.75068,0.0],[-77.44628,21.75023,0.7728],[-77.43635,21.74461,4.5622],[-77.42199,21.74641,0.0],[-77.44225,21.76659,0.0],[-77.45564,21.77684,0.0],[-77.46972,21.78115,0.0],[-77.46752,21.77774,0.0065],[-77.46496,21.77058,0.0],[-77.46288,21.76683,0.5093],[-77.47423,21.76504,0.0],[-77.48339,21.76618,0.0434],[-77.48925,21.77123,0.0],[-77.49083,21.78115,0.0],[-77.51659,21.7746,0.0],[-77.5244,21.76765,0.0],[-77.52497,21.75381,0.0],[-77.56965,21.78059,0.0],[-77.58642,21.78791,0.0],[-77.60387,21.78974,0.0],[-77.66466,21.78115,0.0],[-77.67321,21.78474,0.0],[-77.68126,21.79169,0.0],[-77.68977,21.79588,0.0],[-77.70446,21.78925,0.0],[-77.71007,21.79019,0.0],[-77.73839,21.79865,0.0],[-77.75158,21.80463,1.3637],[-77.76089,21.8133,1.1123],[-77.76456,21.82551,1.1619],[-77.76602,21.83735,3.1643],[-77.77038,21.85456,5.3219],[-77.77794,21.87002,0.0],[-77.78873,21.8767,0.0],[-77.8133,21.87645,0.0],[-77.82201,21.88028,0.0],[-77.83349,21.89033,0.8865],[-77.84215,21.89997,7.7578],[-77.84854,21.91059,0.0],[-77.85253,21.92402,0.0],[-77.85391,21.94184,0.6657],[-77.84699,21.95038,2.4652],[-77.81501,21.95576,0.0],[-77.80614,21.96613,0.1196],[-77.82226,21.96646,0.0],[-77.84911,21.97053,0.0],[-77.8601,21.96613,0.0],[-77.86559,21.95624,0.0],[-77.87035,21.88154,0.0],[-77.87605,21.87153,0.0],[-77.88805,21.86986,0.0],[-77.89501,21.87694,0.0],[-77.91198,21.90599,0.0],[-77.91539,21.91425,0.0],[-77.96133,21.95824,0.0],[-77.97338,21.96613,0.2237],[-77.98522,21.97004,0.0],[-77.99323,21.97968,0.0],[-78.01122,22.00926,0.0],[-78.01781,22.02753,0.0],[-78.02326,22.03433,0.0],[-78.04231,22.05117,2.0915],[-78.05557,22.07746,0.0],[-78.06505,22.08698,0.0]]],
[[[-77.88805,22.076,0.0],[-77.90364,22.08324,0.0],[-77.91625,22.09382,0.0],[-77.93017,22.10212,0.0],[-77.94945,22.10261,0.0],[-77.94205,22.09585,0.0],[-77.94713,22.07282,0.0],[-77.93448,22.05614,0.0],[-77.91723,22.04316,0.9766],[-77.90856,22.03124,-0.0242],[-77.90184,22.0152,0.0],[-77.88659,22.00922,0.0687],[-77.87023,22.01325,0.0598],[-77.8601,22.02753,1.1812],[-77.85391,22.02753,0.0],[-77.84708,22.00703,0.0],[-77.84166,22.01537,0.0],[-77.84008,22.02399,0.0],[-77.84203,22.03262,0.0224],[-77.84708,22.04121,0.0217],[-77.82795,22.03612,0.1763],[-77.81713,22.03132,0.348],[-77.81237,22.02412,0.0],[-77.8153,22.01362,0.0],[-77.82116,22.00243,0.0],[-77.8251,21.99185,0.2045],[-77.82258,21.98314,0.0],[-77.80866,21.97358,2.3554],[-77.78726,21.96406,1.7666],[-77.76578,21.95978,0.5197],[-77.75154,21.96613,4.0324],[-77.73913,21.95722,0.0],[-77.73298,21.94819,0.3072],[-77.72818,21.93879,0.3912],[-77.71589,21.92304,0.2473],[-77.71264,21.91694,0.0],[-77.70889,21.91218,0.5821],[-77.70311,21.91083,0.208],[-77.69542,21.91519,0.0],[-77.69616,21.92227,0.8752],[-77.70043,21.92886,3.7056],[-77.70311,21.93195,2.1238],[-77.69506,21.94807,1.6172],[-77.68432,21.95116,1.1154],[-77.67789,21.94302,0.3337],[-77.68261,21.92512,0.7744],[-77.66153,21.94013,3.2435],[-77.64965,21.94448,0.7569],[-77.63419,21.94501,0.0],[-77.64558,21.96149,0.0],[-77.64867,21.97114,0.3749],[-77.62706,22.01618,2.9402],[-77.62438,22.02973,0.0],[-77.62658,22.04206,0.0],[-77.63419,22.05427,0.0],[-77.65172,22.07026,0.0],[-77.66145,22.06932,0.0],[-77.66967,22.06086,1.4071],[-77.68261,22.05427,0.0],[-77.6942,22.05801,0.2588],[-77.72631,22.07762,0.0],[-77.73721,22.08218,0.1461],[-77.7447,22.08002,0.0],[-77.7591,22.07062,0.0],[-77.76769,22.06851,0.7284],[-77.77196,22.07136,0.3158],[-77.78124,22.08478,0.2527],[-77.78502,22.08902,0.2636],[-77.79638,22.09504,0.1309],[-77.8085,22.09955,0.0],[-77.8225,22.10053,0.0],[-77.83967,22.09585,0.0],[-77.85082,22.08869,1.3963],[-77.86042,22.08096,0.0],[-77.87169,22.07563,0.0],[-77.88805,22.076,0.0]]],
[[[-77.75772,22.17837,0.8208],[-77.77204,22.19611,0.0],[-77.79015,22.21149,0.0],[-77.80573,22.22822,0.0],[-77.81843,22.27114,0.0],[-77.83422,22.29588,0.0],[-77.85611,22.31245,0.0],[-77.88069,22.30874,0.0],[-77.86848,22.30174,0.5652],[-77.8507,22.2888,0.0],[-77.83959,22.27375,2.0553],[-77.84708,22.26032,0.0],[-77.80712,22.20258,0.0],[-77.78173,22.1778,0.0],[-77.75772,22.17837,0.8208]]],
[[[-77.98742,22.23672,0.0],[-77.9934,22.25312,0.0],[-77.98648,22.26557,0.0586],[-77.97566,22.27562,0.0634],[-77.96996,22.28482,0.0],[-77.97492,22.2989,0.274],[-77.98717,22.30781,0.0],[-78.00267,22.31269,0.0],[-78.01781,22.31489,0.0],[-78.00683,22.29767,0.2979],[-78.00333,22.28636,0.1405],[-78.00475,22.25007,0.0],[-78.00792,22.23383,0.0198],[-78.01647,22.21743,0.0],[-78.02945,22.20454,0.0],[-78.04573,22.19888,0.0],[-78.03604,22.18342,0.1668],[-78.00414,22.16226,0.0813],[-77.9973,22.14737,0.059],[-77.9901,22.14183,0.0],[-77.95495,22.12226,0.0],[-77.94205,22.11689,0.2172],[-77.95075,22.14216,0.0],[-77.93395,22.15021,0.2439],[-77.91283,22.14322,0.0],[-77.90856,22.12311,0.0959],[-77.90075,22.11449,0.0],[-77.8981,22.1103,0.3409],[-77.89489,22.10261,0.0357],[-77.89049,22.10464,0.4052],[-77.87898,22.10757,3.6938],[-77.87442,22.10952,3.9268],[-77.86343,22.09919,3.7504],[-77.8485,22.11603,0.3372],[-77.826,22.1579,0.0],[-77.83642,22.16421,0.0],[-77.857,22.1682,0.1029],[-77.86758,22.17154,0.0],[-77.87491,22.1767,0.0],[-77.88219,22.18329,0.0],[-77.89078,22.18915,0.0],[-77.90233,22.19204,0.2357],[-77.88866,22.19843,0.4388],[-77.87047,22.20222,5.3036],[-77.85961,22.20962,0.0],[-77.86758,22.22675,0.0],[-77.87507,22.21629,0.0],[-77.88488,22.21479,0.0],[-77.89485,22.22085,-0.0469],[-77.90233,22.23298,0.0],[-77.90807,22.22895,0.0],[-77.9132,22.22431,0.0205],[-77.91763,22.21882,0.0],[-77.92162,22.21247,0.0],[-77.90856,22.20502,0.0],[-77.92341,22.20637,0.0],[-77.93057,22.21385,0.0],[-77.93513,22.22403,0.0],[-77.94205,22.23298,0.0],[-77.95397,22.23652,0.0],[-77.97863,22.23322,0.0],[-77.98742,22.23672,0.0]]],
[[[-78.19762,22.4372,0.0],[-78.21158,22.43659,0.8508],[-78.24372,22.42475,0.0],[-78.27904,22.42544,0.0],[-78.29874,22.4204,0.3683],[-78.31261,22.40428,0.0],[-78.30655,22.40302,0.0815],[-78.30175,22.40323,0.0],[-78.29723,22.40204,0.0],[-78.29214,22.39688,0.0728],[-78.26976,22.41014,0.0],[-78.24633,22.40062,1.8138],[-78.23046,22.38076,1.2655],[-78.2307,22.36335,0.0],[-78.23961,22.36693,0.0],[-78.24421,22.35912,0.0],[-78.24372,22.34663,0.0],[-78.23746,22.336,0.0],[-78.22814,22.33344,3.5104],[-78.22155,22.33991,2.6653],[-78.21768,22.35029,0.0],[-78.21642,22.35961,1.1662],[-78.20519,22.36799,0.6007],[-78.18489,22.35822,1.0618],[-78.17536,22.34162,0.0],[-78.19652,22.32917,0.0],[-78.17154,22.31074,0.354],[-78.14631,22.30585,1.1456],[-78.12214,22.30585,0.5128],[-78.10033,22.30191,0.0384],[-78.05158,22.2722,0.4344],[-78.02766,22.26602,0.1074],[-78.01098,22.2814,0.0],[-78.02335,22.28303,0.0],[-78.03722,22.28803,0.0],[-78.04573,22.28823,0.0],[-78.06705,22.31045,0.0],[-78.07164,22.32087,0.4437],[-78.07555,22.35407,0.2327],[-78.08202,22.3697,1.7722],[-78.09073,22.38447,3.0569],[-78.10033,22.39688,1.2185],[-78.11905,22.41376,0.0],[-78.1442,22.42894,0.0],[-78.16975,22.43504,0.0],[-78.18969,22.42475,1.4454],[-78.19762,22.4372,0.0]]]]}
,"properties": {"ISO3166-1-Alpha-3": "CUB","country": "Cuba","fill": "#F0F","name": "Camagüey","area_km2": 15584.78,"hist_schema_id": "Elevation0-9000","hist_area_km2": {"0": 4250.04,"25": 3080.48,"50": 2533.04,"75": 2631.48,"100": 2094.32,"125": 746.25,"150": 123.29,"175": 68.59,"200": 29.22,"225": 14.19,"250": 9.0,"275": 3.66,"300": 1.15}}}