{"type": "Feature","bbox": [-67.1596,18.1044,-67.0775,18.16],"geometry": {"type": "MultiPolygon","coordinates": [[[[-67.1004,18.1062,21.7707],[-67.087,18.1044,25.5862],[-67.081,18.1069,27.0156],[-67.0788,18.1107,28.3717],[-67.0775,18.116,34.5698],[-67.0933,18.1277,29.9009],[-67.0939,18.1425,95.7547],[-67.0856,18.145,56.216],[-67.0843,18.1484,52.118899999999996],[-67.0978,18.1587,120.5714],[-67.1015,18.1577,134.2625],[-67.1089,18.16,140.4978],[-67.1149,18.1594,176.8114],[-67.1209,18.156,114.3516],[-67.1237,18.1579,99.4254],[-67.1292,18.1583,80.4692],[-67.137,18.152,33.8549],[-67.143,18.1558,16.9172],[-67.1578,18.1561,5.168],[-67.1596,18.153199999999998,5.6123],[-67.1545,18.1499,8.9055],[-67.1517,18.1433,15.433],[-67.1433,18.14,9.2313],[-67.1348,18.1234,10.8116],[-67.1334,18.1215,10.5503],[-67.1283,18.1202,13.826],[-67.1264,18.1154,13.2962],[-67.1004,18.1062,21.7707]]]]}
,"properties": {"GID_1": "PRI.35_1","GID_0": "PRI","country": "PuertoRico","province": "Hormigueros","VARNAME_1": "NA","NL_NAME_1": "NA","TYPE_1": "Municipio","ENGTYPE_1": "Municipality","CC_1": "NA","HASC_1": "PR.HO","ISO_1": "-","name": "Hormigueros.province","area_km2": 30.18328,"hist_schema_id": "Elevation0-9000","hist_area_km2": {"0": 4.7753,"25": 14.36707,"50": 4.33186,"75": 2.23638,"100": 2.41767,"125": 1.43044,"150": 0.58426,"175": 0.04029}}}