{"type": "Feature","id": "1376","bbox": [-78.37466,18.05057,-77.88591,18.3386],"geometry": {"type": "Polygon","coordinates": [[[-77.92141,18.29612,202.1233],[-78.00523,18.30085,329.3805],[-78.02714,18.30465,292.1498],[-78.08218,18.33503,127.3719],[-78.09091,18.33738,86.7387],[-78.10019,18.3386,99.2217],[-78.22434,18.33805,146.2347],[-78.23003,18.33661,204.612],[-78.26754,18.29449,84.4451],[-78.27248,18.29077,83.6251],[-78.27762,18.28979,148.6957],[-78.28302,18.28984,152.4629],[-78.337,18.29728,4.0979],[-78.34604,18.29795,0.0],[-78.34604,18.29795,0.0],[-78.34732,18.29222,0.0],[-78.35432,18.28384,0.0],[-78.36913,18.27387,0.0],[-78.37466,18.26557,0.0],[-78.37027,18.24811,0.0],[-78.35774,18.23273,0.0],[-78.34073,18.22187,0.0],[-78.32315,18.21772,0.0],[-78.3059,18.21564,0.0],[-78.27514,18.20624,0.0],[-78.26114,18.20409,0.0],[-78.25866,18.20262,0.0],[-78.23404,18.19318,0.0],[-78.22728,18.19184,0.0],[-78.21959,18.19587,0.0],[-78.21019,18.20409,0.3024],[-78.19376,18.20392,0.0],[-78.14879,18.19668,0.0],[-78.07518,18.19843,0.0],[-78.05028,18.18513,0.0],[-78.03148,18.14887,0.604],[-78.02538,18.12519,0.0],[-78.02058,18.1131,0.0],[-78.01439,18.10786,0.0],[-78.00642,18.10586,0.0],[-77.99645,18.10102,0.0],[-77.98786,18.09536,0.0],[-77.97997,18.08446,0.0],[-77.96462,18.05057,0.0],[-77.96462,18.05058,0.0],[-77.95764,18.0635,0.0],[-77.93795,18.1176,167.9966],[-77.93568,18.13243,552.9062],[-77.93661,18.13481,554.4498],[-77.938,18.14008,509.1311],[-77.93823,18.14287,450.3036],[-77.9379,18.14587,483.1653],[-77.93622,18.15207,436.0241],[-77.92986,18.16476,381.9299],[-77.91888,18.18145,394.8528],[-77.91441,18.18571,497.908],[-77.911,18.1884,531.5079],[-77.89589,18.19556,556.0547],[-77.88638,18.22199,298.7209],[-77.88591,18.2315,213.3401],[-77.89392,18.25566,253.0541],[-77.89687,18.26064,220.4604],[-77.89837,18.26255,230.5587],[-77.90017,18.26442,239.3561],[-77.90224,18.26589,252.5142],[-77.90472,18.2671,236.7387],[-77.91046,18.27369,191.4817],[-77.92141,18.29612,202.1233]]]}
,"properties": {"ISO3166-1-Alpha-3": "JAM","country": "Jamaica","fill": "#00F","name": "Westmoreland","area_km2": 744.6848,"hist_schema_id": "Elevation0-9000","hist_area_km2": {"0": 207.7686,"25": 116.2506,"50": 59.6566,"75": 33.7853,"100": 25.5908,"125": 20.9812,"150": 14.2375,"175": 14.1974,"200": 13.1099,"225": 11.6399,"250": 8.6388,"275": 7.3497,"300": 10.3497,"325": 15.4044,"350": 18.4263,"375": 24.5699,"400": 29.0798,"425": 22.1123,"450": 16.1912,"475": 13.3113,"500": 10.271,"525": 10.6743,"550": 10.3321,"575": 7.895,"600": 6.2637,"625": 5.398,"650": 3.1221,"675": 2.6589,"700": 2.4574,"725": 1.5308,"750": 1.2086,"775": 0.1813,"800": 0.0403}}}