{"type":"Feature","properties":{"GID_1":"JAM.14_1","GID_0":"JAM","country":"Jamaica","province":"Westmoreland","VARNAME_1":"NA","NL_NAME_1":"NA","TYPE_1":"Parish","ENGTYPE_1":"Parish","CC_1":"NA","HASC_1":"JM.WE","ISO_1":"JM-10","name":"Westmoreland.province"},
"geometry":{"type": "MultiPolygon","coordinates": [[[[-78.3379,18.3178,0.0],[-78.3393,18.296,4.4688],[-78.344,18.2843,0.0],[-78.3487,18.2796,1.6529],[-78.3613,18.2793,0.0],[-78.3657,18.274,6.3707],[-78.369,18.2726,0.0],[-78.369,18.2685,0.0],[-78.3674,18.2665,0.0],[-78.3688,18.2643,0.0],[-78.3665,18.2615,0.0],[-78.3665,18.2571,0.0],[-78.3615,18.2524,8.7895],[-78.3618,18.2476,1.5851],[-78.3576,18.2438,14.0401],[-78.3571,18.2412,0.9304],[-78.3238,18.2279,0.0],[-78.2968,18.2196,0.0],[-78.2901,18.2196,0.0],[-78.289,18.2213,0.3081],[-78.2796,18.2226,3.545],[-78.2707,18.2188,3.8168],[-78.2618,18.2196,0.0],[-78.2596,18.2096,0.0],[-78.2571,18.2076,0.0],[-78.2562,18.2046,0.0],[-78.2524,18.2018,0.0],[-78.2462,18.2007,1.4942],[-78.2432,18.1957,0.5038],[-78.239,18.1946,0.0],[-78.2312,18.1949,0.0],[-78.204,18.2085,0.0],[-78.1874,18.2126,2.6534],[-78.1774,18.2118,0.0],[-78.1704,18.2154,0.0],[-78.1618,18.2165,0.0],[-78.1576,18.2146,0.7342],[-78.1557,18.2093,1.566],[-78.1399,18.2107,1.615],[-78.1346,18.2068,0.0],[-78.1243,18.2104,0.0],[-78.1179,18.2096,0.0],[-78.1174,18.2115,0.5275],[-78.1065,18.2143,3.475],[-78.0976,18.2135,0.0],[-78.0874,18.2051,0.0],[-78.086,18.2057,0.0],[-78.0863,18.2124,4.6819],[-78.0843,18.2132,0.3391],[-78.0704,18.2118,0.0],[-78.061,18.2087,0.0],[-78.0501,18.2032,24.2285],[-78.0415,18.1951,3.4608],[-78.0382,18.1907,28.7468],[-78.0371,18.1815,0.0],[-78.0287,18.169,0.6252],[-78.0271,18.1601,0.0],[-78.0287,18.1574,0.0],[-78.0312,18.1565,1.1039],[-78.0329,18.1515,0.0],[-78.0285,18.1474,10.5088],[-78.0249,18.141,0.0],[-78.026,18.1338,0.0],[-78.0246,18.1313,0.0],[-78.0268,18.1296,0.0],[-78.0265,18.1276,1.0507],[-78.0193,18.1226,0.6903],[-78.0163,18.1226,0.7833],[-78.016,18.121,2.2632],[-78.0074,18.1193,3.7992],[-78.0029,18.1168,1.1566],[-78.0018,18.1138,3.884],[-78.0046,18.1126,0.9223],[-78.004,18.1107,0.4377],[-77.9976,18.1132,3.6336],[-77.9907,18.1071,2.0618],[-77.9829,18.1087,0.0],[-77.9768,18.0996,12.2843],[-77.9749,18.0937,0.0],[-77.9726,18.0935,11.2121],[-77.9724,18.0912,2.8636],[-77.9638,18.0849,0.6924],[-77.9651,18.0785,1.7878],[-77.9668,18.0776,1.7878],[-77.9635,18.0729,0.0],[-77.9563,18.069,7.165],[-77.9515,18.0632,2.9637],[-77.9524,18.059,9.7309],[-77.9197,18.136,531.6843],[-77.9392,18.1542,369.7256],[-77.9284,18.1748,432.6251],[-77.8866,18.2135,287.8879],[-77.8904,18.224,252.4031],[-77.89,18.2285,237.2004],[-77.8807,18.2324,213.9877],[-77.8765,18.2325,206.0617],[-77.8732,18.2378,213.9441],[-77.876,18.2423,203.3631],[-77.8753,18.2462,205.1056],[-77.8791,18.2533,195.321],[-77.8783,18.2604,212.9345],[-77.881,18.2686,197.8553],[-77.8877,18.2732,194.0642],[-77.8879,18.2802,189.8681],[-77.8926,18.2808,168.8427],[-77.8959,18.2839,157.5049],[-77.8992,18.283,189.4566],[-77.9052,18.287,165.3022],[-77.9055,18.2884,161.0941],[-77.9,18.2923,164.9886],[-77.9004,18.2942,165.9071],[-77.9018,18.2959,155.2712],[-77.9079,18.2928,153.6187],[-77.9074,18.2956,145.423],[-77.9108,18.297,158.965],[-77.9113,18.3059,173.5102],[-77.9099,18.3099,152.1715],[-78.0137,18.3189,277.5765],[-78.0817,18.3568,124.1068],[-78.2118,18.357,55.3647],[-78.2593,18.309,116.4712],[-78.3379,18.3178,0.0]]]]}}