{"type":"Feature","properties":{"GID_3":"HTI.9.2.3_1","GID_0":"HTI","country":"Haiti","GID_1":"HTI.9_1","province":"Sud-Est","NL_NAME_1":"NA","GID_2":"HTI.9.2_1","county":"Belle-Anse","NL_NAME_2":"NA","city":"GrandGosier","VARNAME_3":"NA","NL_NAME_3":"NA","TYPE_3":"Commune","ENGTYPE_3":"Commune","CC_3":"NA","HASC_3":"NA","name":"Grand_Gosier.city"},
"geometry":{"type": "MultiPolygon","coordinates": [[[[-71.9336,18.3069,1660.449],[-71.9167,18.2952,1268.8492],[-71.9315,18.2731,600.6373],[-71.9276,18.2645,667.9185],[-71.9341,18.2551,455.5167],[-71.9309,18.241,425.1598],[-71.939,18.2345,403.3828],[-71.939,18.232,351.6007],[-71.9332,18.2321,367.4044],[-71.9368,18.2266,401.2579],[-71.9398,18.2249,357.6768],[-71.9367,18.2226,394.3791],[-71.9385,18.2171,444.7888],[-71.941,18.2138,397.2004],[-71.9455,18.2127,363.5201],[-71.9477,18.2082,290.6729],[-71.947,18.204,270.8398],[-71.9574,18.1951,0.0],[-71.9406,18.193,31.6279],[-71.9327,18.1897,0.0],[-71.9271,18.1894,7.5486],[-71.9193,18.1843,3.8102],[-71.9157,18.1963,132.4631],[-71.919,18.2061,320.4502],[-71.9138,18.2123,445.752],[-71.9044,18.2194,479.9939],[-71.894,18.2321,506.2216],[-71.8913,18.2282,582.193],[-71.8865,18.2286,565.9351],[-71.8802,18.2249,563.9073],[-71.8701,18.2268,691.7632],[-71.8728,18.2355,777.2298],[-71.8877,18.2371,638.9225],[-71.8744,18.2503,727.6342],[-71.869,18.2529,802.9072],[-71.8634,18.2595,855.5446],[-71.8571,18.2627,1000.4303],[-71.8535,18.2685,1003.264],[-71.8532,18.2741,938.7341],[-71.8538,18.2757,935.3325],[-71.8554,18.2749,887.1064],[-71.8607,18.2774,798.864],[-71.8701,18.2732,722.7382],[-71.8679,18.282,795.6717],[-71.8702,18.2855,855.8857],[-71.8646,18.2935,993.9423],[-71.867,18.3055,1232.532],[-71.8634,18.3114,1233.3777],[-71.8639,18.315,1296.0118],[-71.862,18.3191,1424.6589],[-71.8716,18.3241,1610.6099],[-71.8836,18.3216,1675.7949],[-71.8938,18.3172,1686.0388],[-71.904,18.3179,1676.7477],[-71.9269,18.3114,1615.0164],[-71.9336,18.3069,1660.449]]]]}}