{"type":"Feature","properties":{"GID_3":"HTI.7.3.2_1","GID_0":"HTI","country":"Haiti","GID_1":"HTI.7_1","province":"Nord","NL_NAME_1":"NA","GID_2":"HTI.7.3_1","county":"l'Acul-du-Nord","NL_NAME_2":"NA","city":"Milot","VARNAME_3":"NA","NL_NAME_3":"NA","TYPE_3":"Commune","ENGTYPE_3":"Commune","CC_3":"NA","HASC_3":"NA","name":"Milot.city"},
"geometry":{"type": "MultiPolygon","coordinates": [[[[-72.2081,19.5947,575.865],[-72.2044,19.5961,563.1168],[-72.207,19.6038,227.9539],[-72.1993,19.6069,164.881],[-72.1985,19.6098,129.8086],[-72.2003,19.6126,92.5183],[-72.189,19.621,57.6856],[-72.1888,19.6226,51.7831],[-72.1978,19.6238,56.2411],[-72.1951,19.6465,36.726],[-72.1887,19.6476,31.4325],[-72.1871,19.6544,26.7841],[-72.1874,19.6566,26.4478],[-72.1928,19.6577,27.1355],[-72.1932,19.6633,21.4525],[-72.1874,19.6771,16.8635],[-72.1885,19.6815,15.258],[-72.1866,19.686,13.949],[-72.1861,19.699,9.6123],[-72.1986,19.7034,7.538],[-72.1989,19.7099,6.4562],[-72.2072,19.7167,3.7077],[-72.2235,19.723,3.8372],[-72.2338,19.7183,3.0868],[-72.2369,19.7089,3.9846],[-72.2409,19.7043,4.1337],[-72.2426,19.6969,6.8873],[-72.2404,19.6909,7.2163],[-72.2327,19.6849,7.3631],[-72.2319,19.6798,6.2142],[-72.2334,19.6687,8.6021],[-72.2401,19.6615,14.9079],[-72.24,19.6591,14.3628],[-72.2436,19.6543,16.8955],[-72.2427,19.6515,18.9095],[-72.2454,19.6507,18.5377],[-72.2449,19.6424,25.3868],[-72.2498,19.6393,29.289],[-72.2503,19.6326,34.7378],[-72.2456,19.6215,68.5919],[-72.2475,19.6202,73.3576],[-72.2462,19.6146,129.4714],[-72.2372,19.607,433.7541],[-72.2331,19.607,486.4385],[-72.2342,19.6061,471.3255],[-72.2309,19.6025,654.0671],[-72.236,19.5838,631.6357],[-72.2406,19.5805,597.2838],[-72.2412,19.5761,711.0545],[-72.2473,19.572,653.0632],[-72.244,19.5704,762.7098],[-72.2413,19.5731,745.6624],[-72.2343,19.5749,572.5616],[-72.2081,19.5947,575.865]]]]}}