{"type":"Feature","properties":{"GID_1":"PRI.25_1","GID_0":"PRI","country":"PuertoRico","province":"Culebra","VARNAME_1":"NA","NL_NAME_1":"NA","TYPE_1":"Municipio","ENGTYPE_1":"Municipality","CC_1":"NA","HASC_1":"PR.CU","ISO_1":"-","name":"Culebra.province"},
"geometry":{"type": "MultiPolygon","coordinates": [[[[-65.3293,18.3157,3.1016],[-65.331,18.316,0.0],[-65.3326,18.3118,10.7332],[-65.3365,18.3107,0.0],[-65.3368,18.3093,4.2831],[-65.3407,18.3096,0.0],[-65.3371,18.3063,0.0],[-65.3388,18.301,0.0],[-65.3337,18.3018,16.6349],[-65.3318,18.3001,3.5249],[-65.3315,18.2957,15.4184],[-65.3279,18.2943,0.0],[-65.3274,18.2968,6.2139],[-65.3296,18.299,1.407],[-65.3276,18.3013,0.0],[-65.3271,18.3076,6.7996],[-65.3299,18.311,0.0],[-65.3293,18.3157,3.1016]]],
[[[-65.3379,18.3501,5.9769],[-65.3393,18.351,0.0],[-65.341,18.3479,3.508],[-65.3435,18.3499,0.0],[-65.3468,18.3487,0.0],[-65.3401,18.3443,17.5239],[-65.3393,18.3404,0.0],[-65.3362,18.3385,36.587],[-65.3315,18.3299,9.4595],[-65.3299,18.3249,6.2984],[-65.3318,18.321,0.0],[-65.3274,18.3235,0.0],[-65.3232,18.321,10.606],[-65.3229,18.3176,0.0],[-65.3213,18.3196,2.0503],[-65.3187,18.319,3.447],[-65.3168,18.3093,1.6335],[-65.3143,18.3087,0.0],[-65.3085,18.3013,0.0],[-65.3032,18.3018,1.1408],[-65.3029,18.2985,0.0],[-65.301,18.2979,2.6063],[-65.3015,18.294,0.0],[-65.2968,18.2929,19.8207],[-65.2932,18.286,3.5705],[-65.2899,18.2826,8.7576],[-65.2871,18.2821,21.3047],[-65.2876,18.2771,0.0],[-65.2851,18.2765,0.0],[-65.2851,18.2785,10.0932],[-65.2826,18.2793,0.0],[-65.2854,18.2832,6.7473],[-65.2815,18.2835,0.0],[-65.2835,18.2876,10.3034],[-65.281,18.2871,5.3496],[-65.2804,18.2893,0.0],[-65.2832,18.2932,1.3925],[-65.2887,18.2913,9.9162],[-65.2871,18.2929,4.1711],[-65.2874,18.2957,12.7837],[-65.286,18.296,2.8421],[-65.2862,18.2988,0.0],[-65.2957,18.3029,0.0],[-65.2982,18.3024,0.0],[-65.3012,18.3063,0.0],[-65.3015,18.3099,3.54],[-65.2915,18.3074,3.8213],[-65.2926,18.3101,9.3157],[-65.2913,18.3113,9.9495],[-65.2876,18.3063,0.0],[-65.2851,18.3071,17.1184],[-65.284,18.3057,0.5183],[-65.2796,18.3057,0.2566],[-65.279,18.3046,0.0],[-65.2818,18.3029,1.5168],[-65.2796,18.3026,1.6774],[-65.2799,18.3001,0.0],[-65.2771,18.2996,0.0],[-65.2776,18.2974,-0.0508],[-65.276,18.2951,0.0],[-65.2657,18.2968,0.0],[-65.264,18.2957,8.1198],[-65.264,18.2899,7.7451],[-65.2629,18.2893,7.7451],[-65.2604,18.2899,8.9698],[-65.2585,18.2932,15.3352],[-65.2546,18.2926,0.0],[-65.2546,18.2943,0.0],[-65.2576,18.2965,20.2002],[-65.2549,18.301,0.0],[-65.2576,18.3026,4.4543],[-65.2582,18.3087,0.0],[-65.2562,18.3063,0.0],[-65.2513,18.306,5.121],[-65.2471,18.3029,0.0],[-65.2443,18.3035,0.0],[-65.2454,18.3118,0.0],[-65.2496,18.3146,14.7669],[-65.2513,18.3188,0.0],[-65.254,18.319,0.0],[-65.2726,18.3312,0.0],[-65.2787,18.3326,0.0],[-65.2818,18.3296,8.6972],[-65.2851,18.3299,8.8017],[-65.2904,18.3335,0.0],[-65.2887,18.3376,0.0],[-65.2904,18.3379,0.0],[-65.2951,18.3312,9.0479],[-65.2996,18.3307,3.5343],[-65.3046,18.3321,0.0],[-65.3107,18.3382,0.0],[-65.3129,18.3346,0.0],[-65.3132,18.3299,16.327],[-65.3185,18.3282,9.6062],[-65.3251,18.3371,0.0],[-65.3318,18.339,0.0],[-65.3379,18.3501,5.9769]]],
[[[-65.3793,18.3257,0.0],[-65.381,18.3265,0.0],[-65.3788,18.3226,1.3924],[-65.3743,18.3215,0.0],[-65.3751,18.326,0.0],[-65.3793,18.3257,0.0]]],
[[[-65.3913,18.3351,2.9076],[-65.3932,18.3365,0.0],[-65.3921,18.3307,0.0],[-65.3899,18.3332,0.0],[-65.3913,18.3351,2.9076]]],
[[[-65.2487,18.2979,0.4193],[-65.2513,18.2985,0.0899],[-65.2518,18.2974,0.0899],[-65.2487,18.2962,0.0],[-65.2487,18.2979,0.4193]]],
[[[-65.2251,18.3232,4.4133],[-65.229,18.3235,1.4185],[-65.2262,18.3199,2.324],[-65.2282,18.3179,1.9393],[-65.231,18.3207,0.0],[-65.234,18.3213,0.4717],[-65.2379,18.321,0.6561],[-65.2385,18.319,4.1032],[-65.2315,18.3154,0.0],[-65.2299,18.3107,0.0],[-65.2221,18.3099,0.0],[-65.2207,18.3121,0.0],[-65.2237,18.3121,9.3389],[-65.2229,18.3143,0.0],[-65.2249,18.314,0.0],[-65.2254,18.3174,2.7125],[-65.2224,18.3179,0.0],[-65.2215,18.3215,23.9144],[-65.2251,18.3232,4.4133]]],
[[[-65.2551,18.3421,0.0],[-65.2654,18.3421,0.0],[-65.2668,18.3404,0.0],[-65.2579,18.3329,0.0],[-65.2457,18.334,0.0],[-65.2449,18.3379,0.3851],[-65.2474,18.3362,0.0],[-65.2515,18.3407,0.0],[-65.2551,18.3421,0.0]]],
[[[-65.2321,18.3399,1.326],[-65.2335,18.3401,1.326],[-65.2335,18.3385,0.0],[-65.2315,18.3365,0.0],[-65.2288,18.3368,0.0],[-65.2293,18.3382,0.0],[-65.2321,18.3399,1.326]]]]}}