{"type": "Feature","bbox": [-61.7518,16.0105,-61.6806,16.0895],"geometry": {"type": "MultiPolygon","coordinates": [[[[-61.7465,16.0105,2.237],[-61.7301,16.0115,78.6203],[-61.7161,16.0226,267.1981],[-61.7098,16.0426,475.2281],[-61.6855,16.0683,797.7911],[-61.6834,16.0822,1031.2937],[-61.6806,16.0845,1146.241],[-61.6841,16.0895,1314.8245],[-61.6951,16.0766,1117.6638],[-61.709,16.0734,901.463],[-61.7212,16.0665,547.4424],[-61.7306,16.0561,374.5671],[-61.7383,16.0406,181.2599],[-61.7518,16.0344,11.647],[-61.7487,16.0287,0.0],[-61.7465,16.0105,2.237]]]]}
,"properties": {"GID_2": "GLP.1.2_1","GID_0": "GLP","country": "Guadeloupe","GID_1": "GLP.1_1","province": "Basse-Terre","NL_NAME_1": "NA","county": "Baillif","VARNAME_2": "NA","NL_NAME_2": "NA","TYPE_2": "Communesimple","ENGTYPE_2": "Commune","CC_2": "36","HASC_2": "NA","name": "Baillif.county","area_km2": 24.53296,"hist_schema_id": "Elevation0-9000","hist_area_km2": {"0": 0.61137,"25": 0.59099,"50": 0.97817,"75": 0.77438,"100": 0.65211,"125": 0.83551,"150": 0.75399,"175": 0.75398,"200": 0.7336,"225": 0.67247,"250": 0.71322,"275": 0.77434,"300": 0.83546,"325": 0.77433,"350": 0.83545,"375": 0.91695,"400": 0.67242,"425": 0.73354,"450": 0.85579,"475": 0.61128,"500": 0.52976,"525": 0.67239,"550": 0.48901,"575": 0.42788,"600": 0.38713,"625": 0.52974,"650": 0.46862,"675": 0.50936,"700": 0.30562,"725": 0.26487,"750": 0.30561,"775": 0.28524,"800": 0.18337,"825": 0.26486,"850": 0.28524,"875": 0.34636,"900": 0.28523,"925": 0.42784,"950": 0.52971,"975": 0.36672,"1000": 0.40746,"1025": 0.28523,"1050": 0.20373,"1075": 0.20373,"1100": 0.18336,"1125": 0.18336,"1150": 0.02037,"1175": 0.04074,"1200": 0.04074,"1225": 0.02037}}}