{"type": "Feature","id": "99?","bbox": [-63.42882,18.26149,-63.16832,18.60126],"geometry": {"type": "MultiPolygon","coordinates": [[[[-63.16832,18.26188,0.0],[-63.16909,18.26535,0.0],[-63.17121,18.26554,0.0],[-63.17236,18.26458,2.7283],[-63.17429,18.26458,0.5657],[-63.1741,18.26207,0.0],[-63.1714,18.26149,3.6018],[-63.16832,18.26188,0.0]]],
[[[-63.17949,18.26651,1.5103],[-63.1845,18.26805,2.5821],[-63.18643,18.26843,7.6686],[-63.19009,18.2692,0.0],[-63.19221,18.26882,0.0],[-63.18971,18.26747,2.9339],[-63.18701,18.26535,0.0],[-63.18354,18.26516,0.0],[-63.17949,18.26651,1.5103]]],
[[[-63.23603,18.28299,3.7912],[-63.24561,18.28321,0.0],[-63.25357,18.28685,0.0],[-63.26263,18.28203,0.0],[-63.26147,18.27625,1.1833],[-63.25203,18.27297,0.3142],[-63.23603,18.28299,3.7912]]],
[[[-63.42357,18.60004,0.0],[-63.42882,18.60126,0.0],[-63.42797,18.59284,0.0],[-63.42357,18.60004,0.0]]]]}
,"properties": {"ISO3166-1-Alpha-3": "AIA","country": "Anguilla","name": null,"area_km2": 3.039413,"hist_schema_id": "Elevation0-9000","hist_area_km2": {"0": 2.334782,"25": 0.704631}}}