{"type": "Feature","bbox": [-71.9194,18.1277,-71.7803,18.2866],"geometry": {"type": "MultiPolygon","coordinates": [[[[-71.8256,18.2125,774.8794],[-71.8276,18.2151,788.4573],[-71.8267,18.2199,816.2545],[-71.8236,18.221,819.2563],[-71.8209,18.2187,800.3823],[-71.8149,18.2185,810.3298],[-71.8185,18.2248,735.4135],[-71.8129,18.2278,728.0195],[-71.8103,18.227,711.6703],[-71.8058,18.2299,830.5276],[-71.8025,18.2345,931.5927],[-71.8026,18.2384,1000.9005],[-71.8001,18.2429,1118.7963],[-71.7955,18.246,1173.4897],[-71.7915,18.2516,1230.7422],[-71.7803,18.2829,1687.6083],[-71.7858,18.2836,1647.2087],[-71.7887,18.2866,1644.245],[-71.8062,18.2864,1247.2976],[-71.8102,18.2836,1224.6296],[-71.8151,18.2828,1178.7793],[-71.8199,18.2789,1150.6804],[-71.8284,18.2787,1152.5513],[-71.838,18.2827,1053.0345],[-71.8461,18.2755,953.2008],[-71.8538,18.2757,935.3325],[-71.8535,18.2685,1003.264],[-71.855,18.2649,1011.1833],[-71.8634,18.2595,855.5446],[-71.869,18.2529,802.9072],[-71.8744,18.2503,727.6342],[-71.8877,18.2371,638.9225],[-71.8728,18.2355,777.2298],[-71.8701,18.2268,691.7632],[-71.8802,18.2249,563.9073],[-71.8865,18.2286,565.9351],[-71.8913,18.2282,582.193],[-71.894,18.2321,506.2216],[-71.9044,18.2194,479.9939],[-71.9138,18.2123,445.752],[-71.919,18.2061,320.4502],[-71.9157,18.1963,132.4631],[-71.9194,18.1844,3.8102],[-71.9124,18.1761,17.3998],[-71.9117,18.1702,2.2497],[-71.9021,18.1682,30.0461],[-71.8979,18.1654,2.6193],[-71.8932,18.1576,2.789],[-71.8843,18.156,3.0796],[-71.881,18.1496,0.0],[-71.8704,18.1465,0.0],[-71.8674,18.1418,0.0],[-71.8614,18.1385,3.6341],[-71.8607,18.1346,0.0],[-71.8544,18.1277,11.3284],[-71.8544,18.1334,45.1082],[-71.8457,18.1437,137.1912],[-71.845,18.1505,289.7848],[-71.8425,18.1536,312.7488],[-71.8433,18.1663,408.8914],[-71.8414,18.1763,545.3439],[-71.8277,18.1797,460.2289],[-71.8247,18.1895,551.154],[-71.8201,18.1937,652.9024],[-71.8186,18.1974,666.8425],[-71.8256,18.2125,774.8794]]]]}
,"properties": {"GID_3": "HTI.9.2.4_1","GID_0": "HTI","country": "Haiti","GID_1": "HTI.9_1","province": "Sud-Est","NL_NAME_1": "NA","GID_2": "HTI.9.2_1","county": "Belle-Anse","NL_NAME_2": "NA","city": "Thiotte","VARNAME_3": "NA","NL_NAME_3": "NA","TYPE_3": "Commune","ENGTYPE_3": "Commune","CC_3": "NA","HASC_3": "NA","name": "Thiotte.city","area_km2": 122.40936,"hist_schema_id": "Elevation0-9000","hist_area_km2": {"0": 1.00733,"25": 1.57142,"50": 1.85344,"75": 1.793,"100": 2.19589,"125": 1.61163,"150": 1.49079,"175": 1.75264,"200": 1.41018,"225": 1.75263,"250": 1.91377,"275": 1.79286,"300": 2.31657,"325": 2.39712,"350": 2.27622,"375": 2.37694,"400": 2.01432,"425": 1.73231,"450": 1.69197,"475": 2.37678,"500": 2.55804,"525": 3.3637,"550": 4.08872,"575": 4.77339,"600": 4.85398,"625": 3.78647,"650": 2.5377,"675": 2.19526,"700": 1.99382,"725": 2.75906,"750": 3.20202,"775": 3.94715,"800": 4.4102,"825": 3.08107,"850": 1.81232,"875": 1.83245,"900": 1.59078,"925": 1.65118,"950": 0.88599,"975": 1.1276,"1000": 1.38936,"1025": 1.44975,"1050": 1.79205,"1075": 1.38931,"1100": 1.12755,"1125": 1.87254,"1150": 1.65103,"1175": 1.57048,"1200": 1.61074,"1225": 1.34899,"1250": 1.4295,"1275": 1.51003,"1300": 1.04696,"1325": 1.26843,"1350": 0.76507,"1375": 1.0872,"1400": 0.68453,"1425": 1.4093,"1450": 1.73142,"1475": 0.48318,"1500": 0.36238,"1525": 0.40265,"1550": 0.28185,"1575": 0.28185,"1600": 0.34225,"1625": 0.22145,"1650": 0.10066,"1675": 0.02013}}}