{"type":"Feature","properties":{"ISO3166-1-Alpha-3":"BRB","country":"Barbados","fill":"#00F","id":"1998","name":"Saint Philip"},
"geometry":{"type": "Polygon","coordinates": [[[-59.42691,13.16039,23.004],[-59.43863,13.17487,0.0],[-59.4571,13.18317,0.0],[-59.46768,13.18654,0.0],[-59.46768,13.18653,0.0],[-59.46921,13.18416,0.0],[-59.48016,13.17113,187.8782],[-59.48145,13.16989,187.1096],[-59.4882,13.16576,193.9751],[-59.49536,13.16297,174.4227],[-59.50871,13.14576,151.3538],[-59.51311,13.12943,82.0103],[-59.50375,13.12659,65.408],[-59.50228,13.12514,60.5692],[-59.50057,13.12246,55.3446],[-59.49895,13.11155,31.9142],[-59.49866,13.11078,31.9142],[-59.4928,13.10096,35.8736],[-59.49153,13.09817,47.4681],[-59.49156,13.09775,47.4681],[-59.4906,13.09703,56.8389],[-59.48892,13.09651,53.9727],[-59.48321,13.09434,60.7295],[-59.48065,13.0931,63.044],[-59.47578,13.0865,57.3858],[-59.45572,13.10004,34.0335],[-59.43004,13.12592,3.025],[-59.42691,13.16039,23.004]]]}}