{"type": "Feature","bbox": [-61.229,14.6305,-61.082,14.8632],"geometry": {"type": "MultiPolygon","coordinates": [[[[-61.1142,14.6884,792.7171],[-61.1188,14.6918,741.5285],[-61.1102,14.7046,1024.5385],[-61.0973,14.7049,544.1361],[-61.0873,14.7081,468.7357],[-61.0864,14.7211,652.6214],[-61.082,14.7272,719.2523],[-61.0877,14.74,417.3846],[-61.0827,14.7456,334.8362],[-61.0877,14.7536,450.4785],[-61.0846,14.7634,578.6429],[-61.087,14.7731,685.4501],[-61.0911,14.7767,522.1039],[-61.1053,14.783,481.134],[-61.1095,14.8093,238.6398],[-61.1469,14.7996,678.1294],[-61.1493,14.8005,724.0634],[-61.1527,14.8089,755.6166],[-61.1605,14.8197,973.1614],[-61.1663,14.8187,1248.6877],[-61.1842,14.8204,791.056],[-61.1866,14.8224,579.978],[-61.1905,14.8318,699.0202],[-61.1993,14.8632,71.75],[-61.2068,14.8618,0.0],[-61.2124,14.8529,112.0804],[-61.2143,14.8524,34.845],[-61.2137,14.849,119.2187],[-61.2185,14.8471,0.0],[-61.2187,14.8426,58.9826],[-61.2232,14.8385,0.0],[-61.224,14.8335,5.7628],[-61.2262,14.8321,0.0],[-61.229,14.8221,45.538],[-61.2287,14.8118,38.1104],[-61.2262,14.8076,19.2907],[-61.2274,14.8032,0.0],[-61.2218,14.7976,23.7662],[-61.2207,14.7924,16.2536],[-61.2146,14.7818,0.8614],[-61.2051,14.7799,0.0],[-61.1982,14.7668,1.8969],[-61.1946,14.7638,5.398],[-61.1921,14.7638,28.4289],[-61.1851,14.7571,15.7217],[-61.1768,14.746,16.4225],[-61.1765,14.7354,85.5414],[-61.1796,14.7321,0.0],[-61.1824,14.7179,4.1866],[-61.1857,14.7101,0.6399],[-61.1801,14.6968,0.0],[-61.1801,14.6926,0.0],[-61.1782,14.6918,0.0],[-61.1674,14.6743,25.3528],[-61.1629,14.6707,30.577],[-61.161,14.664,2.0568],[-61.1585,14.6629,40.1544],[-61.1576,14.6562,0.0],[-61.154,14.656,12.04],[-61.1526,14.6543,52.5796],[-61.1526,14.6487,0.0],[-61.1401,14.6429,2.5407],[-61.1393,14.6371,0.0],[-61.1357,14.6324,0.0],[-61.1299,14.6335,21.5052],[-61.1299,14.6318,0.0],[-61.1249,14.6305,46.8313],[-61.1199,14.6453,203.7744],[-61.1116,14.6602,392.0587],[-61.1095,14.6833,584.4327],[-61.1142,14.6884,792.7171]]]]}
,"properties": {"GID_1": "MTQ.4_1","GID_0": "MTQ","country": "Martinique","province": "Saint-Pierre","VARNAME_1": "NA","NL_NAME_1": "NA","TYPE_1": "Arrondissement","ENGTYPE_1": "Arrondissement","CC_1": "NA","HASC_1": "MQ.SP","ISO_1": "NA","name": "Saint-Pierre.province","area_km2": 190.376,"hist_schema_id": "Elevation0-9000","hist_area_km2": {"0": 2.9734,"25": 5.1058,"50": 6.1719,"75": 6.8075,"100": 6.8689,"125": 6.6026,"150": 6.7255,"175": 6.5616,"200": 6.5408,"225": 6.2332,"250": 6.2331,"275": 6.7046,"300": 6.3357,"325": 7.8938,"350": 11.2151,"375": 10.1491,"400": 8.8777,"425": 8.3243,"450": 8.6728,"475": 7.2581,"500": 6.5405,"525": 6.3766,"550": 5.2694,"575": 4.7159,"600": 4.2033,"625": 3.0961,"650": 2.5218,"675": 1.9889,"700": 1.9683,"725": 1.3532,"750": 1.1276,"775": 0.8611,"800": 0.5945,"825": 0.697,"850": 0.6356,"875": 0.5536,"900": 0.4305,"925": 0.4716,"950": 0.4101,"975": 0.4921,"1000": 0.4306,"1025": 0.5946,"1050": 0.328,"1075": 0.41,"1100": 0.205,"1125": 0.328,"1150": 0.328,"1175": 0.1025,"1200": 0.3075,"1225": 0.1845,"1250": 0.246,"1275": 0.123,"1300": 0.082,"1325": 0.0615,"1350": 0.041,"1375": 0.041}}}