{"type": "Feature","bbox": [-72.4281,18.8572,-72.2408,18.9846],"geometry": {"type": "MultiPolygon","coordinates": [[[[-72.2429,18.9175,65.6906],[-72.246,18.9199,69.3682],[-72.2599,18.9168,66.8732],[-72.2668,18.9215,63.971],[-72.2717,18.9142,64.2786],[-72.2797,18.9181,62.8412],[-72.284,18.9234,64.2417],[-72.2886,18.9199,64.1113],[-72.3095,18.9316,66.7891],[-72.3177,18.9397,57.1602],[-72.3202,18.9386,63.9202],[-72.3256,18.9423,58.8298],[-72.3396,18.9558,53.1084],[-72.341,18.9597,51.9332],[-72.3389,18.962,53.758],[-72.3383,18.97,49.7805],[-72.3429,18.973,50.9203],[-72.3412,18.9755,58.6363],[-72.3437,18.9761,51.4813],[-72.3459,18.9702,50.379],[-72.3494,18.9679,48.8019],[-72.3514,18.9691,47.5159],[-72.3514,18.9748,48.6787],[-72.3542,18.9756,48.8767],[-72.357,18.9694,48.5554],[-72.3659,18.9779,47.153],[-72.3661,18.9846,44.6465],[-72.3753,18.9805,100.4009],[-72.3802,18.9681,103.0634],[-72.3892,18.9593,163.2681],[-72.3952,18.9459,255.1043],[-72.4157,18.9376,493.9955],[-72.4174,18.9349,558.6874],[-72.4163,18.9288,683.506],[-72.4175,18.9235,859.5079],[-72.4206,18.9194,1022.0656],[-72.4281,18.9147,1333.0597],[-72.4234,18.9116,1337.0308],[-72.4204,18.9126,1207.5756],[-72.4148,18.9035,1262.3931],[-72.406,18.9011,1327.8846],[-72.4039,18.9018,1277.9423],[-72.3968,18.8942,1370.2891],[-72.3922,18.8931,1216.259],[-72.3873,18.885,1334.661],[-72.3815,18.8792,1211.3037],[-72.3748,18.8751,1133.9709],[-72.3695,18.8683,1139.9292],[-72.3647,18.8658,1038.418],[-72.3562,18.8701,900.8309],[-72.3446,18.8661,735.8349],[-72.3415,18.8673,685.8732],[-72.3379,18.8664,704.9667],[-72.3324,18.8631,649.452],[-72.325,18.8627,635.063],[-72.3154,18.858,602.174],[-72.3109,18.8591,623.9383],[-72.305,18.8636,774.7075],[-72.2892,18.8637,876.9762],[-72.2788,18.86,963.3231],[-72.2646,18.8619,702.2553],[-72.2568,18.8572,633.0061],[-72.2512,18.8602,592.0953],[-72.2468,18.8717,448.1373],[-72.2481,18.8807,307.7205],[-72.2436,18.8996,121.0932],[-72.2449,18.903,91.8863],[-72.2498,18.9076,67.8734],[-72.2408,18.9165,66.1939],[-72.2429,18.9175,65.6906]]]]}
,"properties": {"GID_3": "HTI.3.5.1_1","GID_0": "HTI","country": "Haiti","GID_1": "HTI.3_1","province": "L'Artibonite","NL_NAME_1": "NA","GID_2": "HTI.3.5_1","county": "Saint-Marc","NL_NAME_2": "NA","city": "LaChapelle","VARNAME_3": "NA","NL_NAME_3": "NA","TYPE_3": "Commune","ENGTYPE_3": "Commune","CC_3": "NA","HASC_3": "NA","name": "La_Chapelle.city","area_km2": 146.7041,"hist_schema_id": "Elevation0-9000","hist_area_km2": {"50": 3.4087,"75": 8.2828,"100": 14.0992,"125": 14.28,"150": 12.8162,"175": 9.7276,"200": 5.957,"225": 4.814,"250": 4.1722,"275": 3.8312,"300": 3.9918,"325": 3.5505,"350": 3.7913,"375": 3.2898,"400": 3.1694,"425": 2.8886,"450": 2.7281,"475": 2.0861,"500": 2.4272,"525": 2.5876,"550": 2.2667,"575": 2.2667,"600": 2.3269,"625": 2.5478,"650": 2.287,"675": 1.7052,"700": 1.3842,"725": 1.2638,"750": 1.5848,"775": 1.2639,"800": 1.2638,"825": 1.0833,"850": 0.7422,"875": 1.0431,"900": 0.682,"925": 0.8826,"950": 1.0431,"975": 0.6219,"1000": 0.8224,"1025": 0.8826,"1050": 0.9027,"1075": 0.8024,"1100": 0.9228,"1125": 0.682,"1150": 0.7623,"1175": 0.662,"1200": 0.5617,"1225": 0.4814,"1250": 0.3811,"1275": 0.2407,"1300": 0.2608,"1325": 0.1805}}}