{"type":"Feature","properties":{"GID_1":"PRI.16_1","GID_0":"PRI","country":"PuertoRico","province":"Carolina","VARNAME_1":"NA","NL_NAME_1":"NA","TYPE_1":"Municipio","ENGTYPE_1":"Municipality","CC_1":"NA","HASC_1":"PR.CN","ISO_1":"-","name":"Carolina.province"},
"geometry":{"type": "MultiPolygon","coordinates": [[[[-65.9191,18.401,14.6121],[-65.9199,18.4112,2.0045],[-65.9371,18.4303,6.6986],[-65.95,18.435,14.73],[-65.9663,18.4322,4.7761],[-65.9714,18.4403,2.0541],[-65.9843,18.4427,0.0],[-65.9857,18.4446,0.0],[-65.9848,18.4498,0.6189],[-65.9929,18.4579,0.0],[-65.9968,18.4499,3.6921],[-66.0013,18.4476,0.0],[-66.0015,18.4454,3.5217],[-66.0051,18.4443,4.1363],[-66.0121,18.444,1.5008],[-66.0168,18.4468,1.3517],[-66.0199,18.4443,0.0],[-66.0246,18.444,0.0],[-66.0324,18.4465,2.8074],[-66.0365,18.4504,3.7981],[-66.0432,18.4441,5.071],[-66.0325,18.4365,0.5],[-66.0288,18.4265,0.5],[-66.0205,18.4203,0.5],[-66.001,18.4093,5.6416],[-65.9931,18.4074,8.1671],[-65.9913,18.3984,16.2317],[-66.0024,18.395,22.256],[-66.0029,18.3855,60.5103],[-65.9996,18.3803,65.7295],[-65.9917,18.3769,27.0528],[-65.9894,18.366,47.0491],[-65.9755,18.3526,116.6783],[-65.9672,18.3302,219.9805],[-65.9617,18.3231,237.5713],[-65.9566,18.3183,269.9457],[-65.9404,18.3111,169.6089],[-65.939,18.3087,216.4562],[-65.9422,18.2935,239.6264],[-65.9395,18.2878,268.3803],[-65.933,18.2801,337.3438],[-65.9164,18.2687,260.7357],[-65.9164,18.2706,261.9684],[-65.9085,18.2711,218.6059],[-65.9076,18.2739,208.9482],[-65.9099,18.2854,149.7379],[-65.9159,18.293,132.3611],[-65.9126,18.2954,128.5678],[-65.9085,18.2954,132.3933],[-65.9062,18.2978,142.9808],[-65.9108,18.3068,110.9019],[-65.9048,18.3097,102.2579],[-65.902,18.3163,96.8431],[-65.9034,18.3206,101.8789],[-65.9089,18.3235,87.6808],[-65.9094,18.3278,71.8536],[-65.9061,18.3326,85.664],[-65.908,18.3435,55.0018],[-65.9158,18.3426,42.9515],[-65.9195,18.3445,40.9388],[-65.9158,18.3535,33.9385],[-65.9186,18.3616,18.6105],[-65.9191,18.3731,20.364],[-65.913,18.3793,5.5001],[-65.9149,18.3826,3.2836],[-65.9218,18.3869,3.827],[-65.9288,18.3869,9.114],[-65.9311,18.3936,8.4217],[-65.9297,18.396,12.6746],[-65.9191,18.401,14.6121]]]]}}