{"type": "Feature","bbox": [-72.0228,19.2593,-71.7653,19.4177],"geometry": {"type": "MultiPolygon","coordinates": [[[[-71.766,19.2747,595.6084],[-71.7653,19.2758,589.4139],[-71.7676,19.2774,596.2646],[-71.7732,19.2783,628.4241],[-71.7825,19.2843,681.5245],[-71.7811,19.288,752.7395],[-71.7829,19.2875,743.8001],[-71.7865,19.2901,730.3893],[-71.7896,19.2986,735.2592],[-71.7952,19.3035,756.4844],[-71.7968,19.3094,791.2096],[-71.8022,19.3115,847.743],[-71.8055,19.3092,944.2502],[-71.8081,19.3122,904.4877],[-71.8068,19.3165,794.9747],[-71.814,19.3274,766.3858],[-71.8221,19.3322,937.2679],[-71.8281,19.3392,927.5101],[-71.8356,19.3436,929.3748],[-71.8319,19.3461,902.1078],[-71.8375,19.3566,970.7686],[-71.8486,19.358,859.5507],[-71.8492,19.3615,767.6959],[-71.8545,19.3641,735.1023],[-71.8572,19.369,694.6076],[-71.8579,19.3769,757.6511],[-71.8609,19.3787,848.061],[-71.8627,19.384,843.8683],[-71.8649,19.3853,822.0088],[-71.8747,19.3852,958.4973],[-71.8743,19.3866,869.025],[-71.8696,19.3881,800.7822],[-71.8743,19.3944,843.0616],[-71.884,19.392,899.4735],[-71.8855,19.3894,871.9611],[-71.8889,19.3881,773.0363],[-71.8962,19.3886,698.0686],[-71.9031,19.3799,646.3066],[-71.9133,19.3743,623.2451],[-71.9166,19.367,620.0039],[-71.9215,19.3642,622.6025],[-71.9202,19.3601,602.7313],[-71.923,19.3565,572.2476],[-71.9244,19.3661,641.9965],[-71.9286,19.374,673.6333],[-71.9286,19.388,660.0588],[-71.9314,19.3884,652.9829],[-71.9346,19.3925,678.1246],[-71.9465,19.3877,613.2147],[-71.9514,19.3876,653.7401],[-71.9558,19.3899,682.2211],[-71.9617,19.4001,858.592],[-71.968,19.4044,1011.8148],[-71.9714,19.4046,931.3004],[-71.9748,19.4086,782.9207],[-71.9834,19.4086,617.7733],[-71.986,19.4044,646.1367],[-71.9881,19.4041,582.6363],[-71.9921,19.4097,544.0759],[-71.9952,19.4115,579.0756],[-71.9988,19.4109,634.6059],[-72.0042,19.4161,711.2278],[-72.0089,19.4177,610.9274],[-72.0124,19.4169,529.2656],[-72.0158,19.4136,468.2557],[-72.0197,19.4147,417.2452],[-72.0228,19.4117,407.8441],[-72.0115,19.4009,435.3678],[-72.0076,19.3996,456.9421],[-71.9947,19.3802,521.1804],[-71.995,19.3782,526.0518],[-71.9889,19.3685,490.8516],[-71.9901,19.3661,482.5443],[-71.9857,19.3659,490.9715],[-71.9859,19.3611,630.2173],[-71.9796,19.354,772.7279],[-71.9745,19.3507,623.6329],[-71.9702,19.3432,501.2464],[-71.9717,19.3387,490.9459],[-71.9785,19.3404,471.5751],[-71.9775,19.3351,456.3143],[-71.982,19.3348,454.7882],[-71.9822,19.3332,457.8858],[-71.9602,19.3127,551.2947],[-71.9418,19.3081,806.946],[-71.914,19.3055,722.9209],[-71.9139,19.3007,615.5914],[-71.9069,19.294,612.5784],[-71.9095,19.2908,575.7132],[-71.9092,19.2886,518.0138],[-71.9072,19.2885,515.5082],[-71.9028,19.2842,657.2479],[-71.9007,19.2754,837.0989],[-71.893,19.2747,935.8046],[-71.8876,19.2767,940.9161],[-71.8794,19.2746,963.3491],[-71.8725,19.2758,965.2281],[-71.8656,19.2798,969.5914],[-71.8539,19.2698,957.3691],[-71.8463,19.2664,702.4207],[-71.8284,19.2641,584.6179],[-71.8092,19.2647,807.5363],[-71.7986,19.2605,731.3513],[-71.7843,19.2618,766.2311],[-71.7747,19.2593,804.1079],[-71.7735,19.2611,808.3886],[-71.7761,19.2671,806.4848],[-71.7722,19.2674,752.8939],[-71.7698,19.2723,639.2096],[-71.766,19.2747,595.6084]]]]}
,"properties": {"GID_3": "HTI.5.4.2_1","GID_0": "HTI","country": "Haiti","GID_1": "HTI.5_1","province": "Nord-Est","NL_NAME_1": "NA","GID_2": "HTI.5.4_1","county": "Vallières","NL_NAME_2": "NA","city": "MombinCrochu","VARNAME_3": "NA","NL_NAME_3": "NA","TYPE_3": "Commune","ENGTYPE_3": "Commune","CC_3": "NA","HASC_3": "NA","name": "Mombin_Crochu.city","area_km2": 201.1276,"hist_schema_id": "Elevation0-9000","hist_area_km2": {"350": 0.06,"375": 0.14,"400": 0.06,"425": 0.3,"450": 0.6,"475": 1.4801,"500": 2.5603,"525": 5.5609,"550": 8.2416,"575": 9.4422,"600": 11.0828,"625": 11.7635,"650": 14.6446,"675": 15.9859,"700": 15.8463,"725": 16.3268,"750": 14.5063,"775": 12.105,"800": 12.1648,"825": 10.3238,"850": 8.7829,"875": 7.1025,"900": 5.9619,"925": 4.8416,"950": 3.3011,"975": 2.2807,"1000": 1.6206,"1025": 1.3603,"1050": 0.8603,"1075": 0.7003,"1100": 0.4802,"1125": 0.3802,"1150": 0.2201,"1175": 0.04}}}