{"type":"Feature","properties":{"ISO3166-1-Alpha-3":"JAM","country":"Jamaica","fill":"#000","id":"1381","name":"Saint Mary"},
"geometry":{"type": "Polygon","coordinates": [[[-76.70145,18.26678,3.379],[-76.71288,18.26919,0.0],[-76.76464,18.27302,2.3367],[-76.78283,18.27782,0.0],[-76.79239,18.28339,6.2166],[-76.79833,18.29206,41.5505],[-76.80762,18.31831,21.871],[-76.81275,18.32801,100.0634],[-76.84421,18.34545,29.7109],[-76.87978,18.36677,2.9795],[-76.89095,18.37644,0.0],[-76.89092,18.38995,0.0],[-76.88783,18.40055,0.8002],[-76.89492,18.40925,12.0762],[-76.90712,18.41121,13.6386],[-76.92034,18.4122,13.5225],[-76.93662,18.4103,71.3371],[-76.94815,18.40449,21.0543],[-77.00731,18.40209,109.8236],[-77.01915,18.40412,37.5733],[-77.04003,18.41348,75.8469],[-77.05199,18.41633,28.2337],[-77.07034,18.41336,8.2225],[-77.07035,18.41336,8.2225],[-77.06953,18.40885,32.5605],[-77.0609,18.37226,221.4946],[-77.06028,18.36707,318.5115],[-77.05831,18.35989,354.6885],[-77.05625,18.35635,310.5401],[-77.051,18.35154,351.6458],[-77.04829,18.3479,351.9674],[-77.04645,18.34415,275.9004],[-77.0486,18.32172,387.4455],[-77.04824,18.3187,314.1511],[-77.04614,18.31501,295.1568],[-77.03374,18.301,338.6564],[-77.0295,18.29465,386.7208],[-77.02643,18.28545,407.123],[-77.02503,18.27695,521.1463],[-77.02343,18.27147,530.4205],[-77.02222,18.26883,572.5449],[-77.01558,18.26033,561.1192],[-76.99641,18.24196,528.9521],[-76.98106,18.24638,499.8303],[-76.97819,18.24692,468.6605],[-76.97509,18.24708,438.0043],[-76.95592,18.24509,526.1394],[-76.95264,18.24281,493.8554],[-76.94964,18.2392,425.785],[-76.94362,18.22548,399.0375],[-76.94023,18.22108,456.9807],[-76.93233,18.21558,371.0234],[-76.92806,18.21116,272.7867],[-76.92421,18.20339,286.9111],[-76.9221,18.1953,423.8756],[-76.92085,18.1868,289.0025],[-76.91868,18.18253,379.558],[-76.90701,18.16724,553.2879],[-76.89641,18.15739,338.1835],[-76.87282,18.1483,299.6405],[-76.85926,18.15362,412.7035],[-76.85698,18.15538,380.3874],[-76.85455,18.15804,357.4978],[-76.85352,18.16065,346.5656],[-76.85218,18.16303,331.0371],[-76.8483,18.16468,344.8758],[-76.8422,18.16569,373.5452],[-76.82944,18.16576,196.8735],[-76.8237,18.16693,176.8053],[-76.80699,18.1638,522.3834],[-76.75143,18.13861,985.7903],[-76.70443,18.26354,2.4233],[-76.70146,18.26677,3.379],[-76.70145,18.26678,3.379]]]}}