{"type": "Feature","bbox": [-77.0752,18.1331,-76.6998,18.4243],"geometry": {"type": "MultiPolygon","coordinates": [[[[-76.6998,18.2668,1.3879],[-76.709,18.2721,0.0],[-76.7185,18.2638,0.0],[-76.7237,18.264,0.0],[-76.7318,18.2707,0.0],[-76.7374,18.2701,1.9698],[-76.7499,18.2799,0.8931],[-76.7574,18.2749,2.6591],[-76.7635,18.2757,0.0],[-76.7651,18.2735,2.3367],[-76.7729,18.2724,0.0],[-76.7757,18.2704,2.4061],[-76.7807,18.2718,1.8695],[-76.7904,18.2821,3.3195],[-76.7932,18.2876,0.0],[-76.7935,18.2976,0.0],[-76.796,18.3001,0.0],[-76.796,18.3024,0.0],[-76.7999,18.3046,0.0],[-76.7993,18.3062,0.0],[-76.8029,18.3107,0.0],[-76.8107,18.314,10.4683],[-76.8046,18.3185,0.0],[-76.8021,18.3232,0.0],[-76.8076,18.326,1.9286],[-76.8054,18.329,0.0],[-76.8079,18.3307,2.3782],[-76.8082,18.3332,0.0],[-76.8149,18.3324,10.3162],[-76.8251,18.3362,29.2528],[-76.8337,18.3426,0.0],[-76.8363,18.3424,0.0],[-76.8388,18.349,0.0],[-76.841,18.3487,22.9939],[-76.8418,18.3463,10.9919],[-76.844,18.3471,0.0],[-76.8438,18.3499,11.1371],[-76.8496,18.3546,13.5117],[-76.854,18.3554,19.6631],[-76.8585,18.3604,16.8697],[-76.8607,18.3601,10.8855],[-76.8601,18.3626,0.0],[-76.8629,18.3632,9.4318],[-76.8649,18.366,0.0],[-76.8696,18.3657,2.407],[-76.871,18.369,0.0],[-76.8749,18.371,0.0],[-76.8746,18.374,0.0],[-76.8785,18.3721,0.0],[-76.8779,18.3693,10.5552],[-76.8829,18.3685,3.2688],[-76.8924,18.3743,0.0],[-76.8926,18.3765,0.0],[-76.8893,18.3801,1.0108],[-76.8935,18.3804,2.5978],[-76.8921,18.3829,0.0],[-76.8951,18.3857,18.8553],[-76.8946,18.3912,0.0],[-76.8865,18.3985,0.0],[-76.8871,18.4057,1.3394],[-76.8899,18.4099,0.0],[-76.8965,18.4132,0.5914],[-76.9051,18.414,0.0],[-76.9082,18.4126,1.9812],[-76.9146,18.4151,1.9404],[-76.9271,18.416,0.0],[-76.9393,18.4149,0.0],[-76.9418,18.4124,4.0574],[-76.9482,18.4104,2.7772],[-76.9496,18.4085,0.0],[-76.9474,18.4085,0.0],[-76.9471,18.4071,0.0],[-76.9493,18.4071,0.0],[-76.951,18.4035,2.9113],[-76.9574,18.4018,23.8196],[-76.9638,18.4071,0.0],[-76.9793,18.4057,1.2143],[-77.006,18.4137,19.2954],[-77.0093,18.4132,4.4045],[-77.0101,18.4099,13.7806],[-77.0135,18.4099,10.9775],[-77.0196,18.4149,23.1464],[-77.021,18.419,0.0],[-77.0276,18.4199,5.6566],[-77.0301,18.4188,0.0],[-77.0349,18.421,4.4854],[-77.0382,18.4204,19.5336],[-77.0457,18.4243,0.0],[-77.0499,18.4218,16.5101],[-77.054,18.4224,0.0],[-77.0557,18.4188,0.0],[-77.0663,18.4193,0.0],[-77.0693,18.4174,6.4465],[-77.0713,18.419,0.0],[-77.0724,18.4174,0.0],[-77.0713,18.416,2.1715],[-77.0752,18.4149,3.5153],[-77.072,18.4089,19.8416],[-77.0696,18.4083,39.3465],[-77.068,18.4112,22.1657],[-77.0664,18.4107,24.0442],[-77.0596,18.4039,79.2647],[-77.0557,18.3968,138.1829],[-77.050299999999993,18.377,164.3672],[-77.0521,18.362,294.9036],[-77.0447,18.3489,321.5183],[-77.0464,18.3419,305.0915],[-77.0446,18.3323,319.8492],[-77.0453,18.3309,364.9441],[-77.0477,18.3309,323.3742],[-77.0479,18.3274,380.2986],[-77.0441,18.3202,363.0331],[-77.0363,18.3144,286.6156],[-77.035,18.3009,371.2242],[-77.0282,18.2971,399.6653],[-77.0254,18.2891,397.4859],[-77.0073,18.2579,446.0688],[-76.9985,18.2479,576.816],[-76.984,18.253,568.2909],[-76.9743,18.2534,566.9096],[-76.9639,18.2595,544.9028],[-76.9612,18.259,545.5197],[-76.957,18.2541,486.244],[-76.9478,18.253,455.8252],[-76.9424,18.2349,390.1404],[-76.9451,18.2306,391.9792],[-76.9451,18.2267,379.7578],[-76.93,18.2253,326.7035],[-76.9237,18.2205,266.4425],[-76.9177,18.2111,258.1372],[-76.9222,18.2038,275.6255],[-76.9215,18.1947,500.4062],[-76.9131,18.1819,521.2695],[-76.8996,18.1716,393.8549],[-76.8936,18.1561,323.4555],[-76.8914,18.156,338.0882],[-76.8798,18.1626,360.7432],[-76.8771,18.1608,392.1901],[-76.8735,18.1543,373.2866],[-76.8696,18.1563,529.0666],[-76.8595,18.1539,455.3038],[-76.8494,18.1591,301.7628],[-76.8489,18.1677,330.1615],[-76.8525,18.1683,309.7589],[-76.8514,18.1739,269.4927],[-76.85,18.1743,269.4927],[-76.8314,18.1618,217.6602],[-76.8248,18.1604,267.6384],[-76.821,18.1666,235.2168],[-76.8225,18.1745,133.0421],[-76.8145,18.1739,379.2546],[-76.8014,18.1679,629.093],[-76.7952,18.1597,723.0543],[-76.7879,18.1543,704.6215],[-76.7728,18.1469,747.2062],[-76.7609,18.1473,1163.8976],[-76.7531,18.1331,1069.1725],[-76.6998,18.2668,1.3879]]]]}
,"properties": {"GID_1": "JAM.11_1","GID_0": "JAM","country": "Jamaica","province": "SaintMary","VARNAME_1": "NA","NL_NAME_1": "NA","TYPE_1": "Parish","ENGTYPE_1": "Parish","CC_1": "NA","HASC_1": "JM.SM","ISO_1": "JM-05","name": "Saint_Mary.province","area_km2": 629.6401,"hist_schema_id": "Elevation0-9000","hist_area_km2": {"0": 26.8326,"25": 32.9486,"50": 33.0296,"75": 37.8201,"100": 38.7475,"125": 39.6553,"150": 43.0375,"175": 44.227,"200": 39.9602,"225": 35.875,"250": 30.2589,"275": 28.0453,"300": 28.0855,"325": 25.6698,"350": 21.0187,"375": 17.2345,"400": 16.4901,"425": 16.2687,"450": 13.9131,"475": 10.1687,"500": 8.498,"525": 8.5785,"550": 5.7593,"575": 2.8198,"600": 1.6114,"625": 1.6719,"650": 1.5712,"675": 2.0144,"700": 1.7324,"725": 1.672,"750": 1.6317,"775": 1.2893,"800": 1.1886,"825": 1.0677,"850": 0.9871,"875": 0.8864,"900": 0.7454,"925": 0.8663,"950": 0.8058,"975": 0.5238,"1000": 0.7051,"1025": 0.4231,"1050": 0.685,"1075": 0.5037,"1100": 0.4835,"1125": 0.3626,"1150": 0.4231,"1175": 0.1813,"1200": 0.141,"1225": 0.3022,"1250": 0.1612,"1275": 0.0403,"1300": 0.0201}}}