{"type":"Feature","properties":{"GID_3":"HTI.7.6.1_1","GID_0":"HTI","country":"Haiti","GID_1":"HTI.7_1","province":"Nord","NL_NAME_1":"NA","GID_2":"HTI.7.6_1","county":"Plaisance","NL_NAME_2":"NA","city":"Pilate","VARNAME_3":"NA","NL_NAME_3":"NA","TYPE_3":"Commune","ENGTYPE_3":"Commune","CC_3":"NA","HASC_3":"NA","name":"Pilate.city"},
"geometry":{"type": "MultiPolygon","coordinates": [[[[-72.548,19.6059,919.61],[-72.546,19.6035,943.4525],[-72.5362,19.6104,768.3589],[-72.5313,19.6166,722.7305],[-72.5217,19.6211,396.7201],[-72.5249,19.6392,291.1702],[-72.5155,19.653,447.8938],[-72.5173,19.6568,436.3016],[-72.5141,19.6626,476.904],[-72.5121,19.663,480.2219],[-72.508,19.6606,616.7753],[-72.4992,19.661,705.0485],[-72.493,19.656,663.7355],[-72.4882,19.6563,713.8488],[-72.4823,19.6616,701.2906],[-72.4714,19.6631,799.6511],[-72.4759,19.6709,551.9973],[-72.474,19.6753,559.77],[-72.4815,19.6952,599.8421],[-72.4858,19.7004,491.1569],[-72.4892,19.6961,572.7249],[-72.492,19.6966,602.0345],[-72.5003,19.7036,461.5538],[-72.5078,19.7025,864.4091],[-72.5103,19.7143,788.1041],[-72.5068,19.7179,744.5441],[-72.5097,19.7247,683.6631],[-72.5152,19.7313,817.4193],[-72.5159,19.7427,1005.0441],[-72.5183,19.7385,969.4254],[-72.5289,19.7387,762.6517],[-72.5319,19.7373,707.15],[-72.5333,19.7331,741.8894],[-72.5432,19.7343,764.7141],[-72.5494,19.7329,944.1852],[-72.5555,19.7368,879.4462],[-72.5588,19.7346,775.5774],[-72.5655,19.739,699.521],[-72.5717,19.7393,717.4965],[-72.5739,19.7428,675.5326],[-72.5715,19.7467,629.4049],[-72.5786,19.7541,604.5922],[-72.5745,19.7658,153.2392],[-72.5756,19.7664,163.7828],[-72.5813,19.7672,230.6419],[-72.5833,19.7638,310.4656],[-72.5883,19.7639,350.11],[-72.597,19.7587,540.4787],[-72.6188,19.7645,1008.954],[-72.6243,19.7635,892.1583],[-72.631,19.7659,870.7177],[-72.6314,19.7712,725.4038],[-72.6396,19.7722,923.6541],[-72.6412,19.7678,1019.0398],[-72.6471,19.7643,803.7467],[-72.6482,19.7615,826.4982],[-72.6466,19.7452,1013.6395],[-72.6379,19.7444,914.255],[-72.6311,19.7416,647.7581],[-72.6288,19.7423,766.7925],[-72.6246,19.7481,758.0281],[-72.6257,19.7523,899.7123],[-72.6234,19.7569,876.6058],[-72.6143,19.7567,1061.6018],[-72.6088,19.7516,991.707],[-72.5981,19.7241,979.1169],[-72.5977,19.7143,876.9529],[-72.5992,19.7144,810.996],[-72.6102,19.7004,645.9075],[-72.6117,19.7013,665.1011],[-72.6158,19.6975,643.6617],[-72.6149,19.6943,577.5561],[-72.6095,19.6914,648.933],[-72.5985,19.6816,517.066],[-72.5895,19.6797,457.6347],[-72.5831,19.6747,253.1515],[-72.5771,19.6751,262.5065],[-72.5738,19.6733,283.1454],[-72.5761,19.6572,657.5388],[-72.5718,19.6523,666.8375],[-72.5691,19.6338,823.2014],[-72.5651,19.6264,887.3674],[-72.548,19.6059,919.61]]]]}}