{"type":"Feature","properties":{"GID_2":"DOM.30.5_1","GID_0":"DOM","country":"DominicanRepublic","GID_1":"DOM.30_1","province":"Santiago","NL_NAME_1":"NA","county":"SanJosédeLasMatas","VARNAME_2":"NA","NL_NAME_2":"NA","TYPE_2":"Municipio","ENGTYPE_2":"Municipality","CC_2":"NA","HASC_2":"DO.ST.SJ","name":"San_Joséde_Las_Matas.county"},
"geometry":{"type": "MultiPolygon","coordinates": [[[[-70.9131,19.0863,1712.9231],[-70.9003,19.1022,1703.6666],[-70.8909,19.1081,1567.8842],[-70.8832,19.1105,1644.4977],[-70.8704,19.1232,1262.906],[-70.87,19.1411,1117.4565],[-70.8786,19.1603,1052.7053],[-70.8774,19.1633,1180.5986],[-70.8702,19.1691,935.7637],[-70.8695,19.1806,993.1924],[-70.8662,19.1949,943.9695],[-70.8569,19.2044,797.3015],[-70.8414,19.2024,904.2462],[-70.8393,19.2087,911.4762],[-70.8343,19.2127,755.3304],[-70.8345,19.2318,781.5764],[-70.8426,19.2422,524.7687],[-70.8517,19.2683,680.9253],[-70.8505,19.2813,662.1613],[-70.8569,19.2888,437.0008],[-70.8576,19.2941,486.8566],[-70.854,19.301,595.2258],[-70.8469,19.3074,543.214],[-70.8488,19.3186,424.1946],[-70.8407,19.3346,508.5056],[-70.8395,19.3471,440.294],[-70.8296,19.3516,476.6461],[-70.8279,19.3544,442.1263],[-70.8296,19.3592,430.197],[-70.8397,19.3609,420.9486],[-70.8427,19.3655,476.0801],[-70.8429,19.3701,402.0921],[-70.8391,19.3736,418.1057],[-70.8231,19.3746,379.3705],[-70.8137,19.3845,339.0716],[-70.8062,19.3895,434.7527],[-70.8026,19.3944,413.0575],[-70.7984,19.3961,450.5251],[-70.7959,19.3998,348.8637],[-70.7958,19.4065,278.9907],[-70.8022,19.4166,317.058],[-70.813,19.4234,399.5148],[-70.8235,19.4261,464.0797],[-70.8319,19.4406,301.8936],[-70.8427,19.4422,429.5641],[-70.8499,19.4467,467.2256],[-70.8606,19.4479,417.601],[-70.8762,19.4573,280.8163],[-70.8755,19.4455,428.2474],[-70.8768,19.4411,494.3031],[-70.8795,19.4401,493.9162],[-70.8878,19.4441,479.3655],[-70.8916,19.4443,464.5766],[-70.8947,19.4401,427.1447],[-70.9006,19.4373,453.3286],[-70.903,19.432,423.0175],[-70.9052,19.4307,404.8951],[-70.9148,19.4315,334.2516],[-70.9275,19.4417,373.9182],[-70.9384,19.4472,389.416],[-70.9461,19.4478,309.7975],[-70.953,19.4463,232.7335],[-70.9638,19.448,136.9191],[-70.9676,19.4467,157.6642],[-70.9751,19.4328,183.5031],[-70.9833,19.4259,202.8303],[-70.9856,19.4267,213.2365],[-70.9879,19.4307,216.9571],[-70.9891,19.4387,246.9834],[-70.9916,19.4436,290.7303],[-70.9978,19.4476,415.9686],[-71.0105,19.4478,146.8087],[-71.014,19.4432,183.7661],[-71.0295,19.4375,210.9873],[-71.0373,19.4411,253.7194],[-71.0507,19.4531,393.489],[-71.0645,19.457,346.3972],[-71.0752,19.4534,171.9974],[-71.0799,19.4471,158.159],[-71.0853,19.4455,187.4362],[-71.0866,19.4433,152.7749],[-71.0858,19.4408,137.2647],[-71.0811,19.4386,208.579],[-71.0756,19.4287,213.9284],[-71.0761,19.4255,157.1842],[-71.0801,19.4206,171.0072],[-71.0797,19.4183,170.73],[-71.0645,19.4172,258.0554],[-71.0631,19.4152,290.1297],[-71.0644,19.4121,258.3536],[-71.0759,19.4067,280.9776],[-71.0918,19.406,289.4638],[-71.1051,19.4,265.7607],[-71.109,19.3963,364.6351],[-71.1083,19.3897,384.9959],[-71.1112,19.3845,430.1322],[-71.116,19.3823,298.4787],[-71.1252,19.3834,274.5],[-71.1341,19.3766,367.8112],[-71.1417,19.3751,379.1721],[-71.1417,19.369,399.9287],[-71.1451,19.3646,505.1116],[-71.1552,19.3627,401.2493],[-71.1614,19.3651,314.4338],[-71.1639,19.3689,312.8313],[-71.1645,19.3783,373.7024],[-71.1693,19.3811,380.4585],[-71.1785,19.3739,491.7966],[-71.1871,19.3753,400.0254],[-71.1941,19.3723,463.3743],[-71.1981,19.368,514.0978],[-71.2069,19.3631,568.4296],[-71.2098,19.3545,502.5124],[-71.2163,19.3527,557.8903],[-71.2136,19.3324,671.5669],[-71.2164,19.3309,677.8633],[-71.2248,19.3309,474.7328],[-71.2276,19.3332,419.2578],[-71.2311,19.3332,510.9482],[-71.2362,19.323,693.1941],[-71.2411,19.3174,558.8005],[-71.2379,19.3091,581.9784],[-71.2308,19.2999,699.2964],[-71.2352,19.2872,707.0385],[-71.2355,19.2777,822.2902],[-71.235,19.2727,832.0636],[-71.23,19.2606,896.5201],[-71.2337,19.2554,862.8728],[-71.2453,19.2567,987.2967],[-71.2468,19.2522,914.2907],[-71.235,19.2365,891.5399],[-71.2276,19.2341,1114.282],[-71.2255,19.2265,1064.3462],[-71.2182,19.2207,1245.132],[-71.2176,19.2132,1262.5295],[-71.2198,19.2058,1226.7358],[-71.213,19.1993,1539.8523],[-71.2093,19.1925,1618.8857],[-71.2068,19.1718,1867.7139],[-71.1955,19.1727,2012.1982],[-71.1864,19.1685,2019.9688],[-71.1801,19.1625,2077.7922],[-71.1776,19.1574,2214.4915],[-71.1788,19.1504,2432.1479],[-71.1777,19.1477,2447.2917],[-71.1475,19.1327,2462.8257],[-71.1395,19.1197,2402.8638],[-71.1238,19.1112,2347.5027],[-71.1195,19.0925,2255.3972],[-71.1217,19.0767,2612.9526],[-71.1131,19.0651,2391.1865],[-71.0904,19.0523,2350.8835],[-71.0817,19.056,2312.0266],[-71.0597,19.0498,2541.2546],[-71.0405,19.0347,2262.2683],[-71.0394,19.0302,2423.3013],[-71.0417,19.0233,2530.6235],[-71.0383,19.0198,2402.7043],[-71.0222,19.0173,2371.687],[-71.0145,19.0218,2413.3218],[-70.9962,19.0251,3030.1194],[-70.9926,19.024,2880.5547],[-70.9913,19.018,2860.407],[-70.9892,19.017,2680.7183],[-70.9849,19.0198,2764.3745],[-70.9765,19.03,2363.699],[-70.9505,19.04,2834.8569],[-70.9448,19.0537,2185.4739],[-70.9468,19.062,2140.3677],[-70.9426,19.0698,1890.4941],[-70.9439,19.0823,1891.6342],[-70.9373,19.0914,1923.7395],[-70.9243,19.0919,1904.7749],[-70.9131,19.0863,1712.9231]]]]}}