{"type":"Feature","properties":{"GID_2":"MTQ.1.2_1","GID_0":"MTQ","country":"Martinique","GID_1":"MTQ.1_1","province":"Fort-de-France","NL_NAME_1":"NA","county":"LeLamentin","VARNAME_2":"NA","NL_NAME_2":"NA","TYPE_2":"Commune","ENGTYPE_2":"Commune","CC_2":"NA","HASC_2":"MQ.FF.LA","name":"Le_Lamentin.county"},
"geometry":{"type": "MultiPolygon","coordinates": [[[[-61.0361,14.6051,0.0],[-61.0293,14.6065,0.0],[-61.0251,14.6121,7.6768],[-61.0226,14.6118,2.2326],[-61.0221,14.6026,0.0],[-61.0204,14.6015,0.0544],[-61.0246,14.6007,0.0],[-61.0251,14.599,-0.0922],[-61.0185,14.5988,1.1592],[-61.0174,14.5954,1.0819],[-61.0199,14.5921,2.1696],[-61.024,14.5921,0.0],[-61.024,14.5835,0.0],[-61.0157,14.5821,1.3754],[-61.014,14.5787,0.0],[-61.0171,14.579,0.0],[-61.0174,14.5771,0.0],[-61.0151,14.5751,0.0],[-61.0104,14.5782,2.4508],[-61.0099,14.5763,0.2545],[-61.0143,14.5713,0.0],[-61.014,14.5685,0.0],[-61.0107,14.5665,3.0774],[-61.011,14.5604,0.0],[-61.009,14.5599,0.0],[-61.0065,14.5618,0.0],[-61.0018,14.5596,2.2136],[-60.9717,14.6013,15.6688],[-60.9488,14.6097,196.0425],[-60.9534,14.6208,230.8886],[-60.949,14.6315,248.3477],[-60.9518,14.6448,150.9549],[-60.9817,14.6915,217.4509],[-60.9965,14.6755,56.2501],[-60.9955,14.6656,43.2473],[-60.9968,14.6613,51.7577],[-61.0375,14.6446,136.0767],[-61.0361,14.6051,0.0]]]]}}