{"type":"Feature","properties":{"GID_2":"DOM.14.3_1","GID_0":"DOM","country":"DominicanRepublic","GID_1":"DOM.14_1","province":"LaVega","NL_NAME_1":"NA","county":"Jarabacoa","VARNAME_2":"NA","NL_NAME_2":"NA","TYPE_2":"Municipio","ENGTYPE_2":"Municipality","CC_2":"NA","HASC_2":"DO.VE.JB","name":"Jarabacoa.county"},
"geometry":{"type": "MultiPolygon","coordinates": [[[[-70.8625,18.9955,1833.5398],[-70.8566,19.0041,1711.1732],[-70.8428,19.0094,1795.2083],[-70.815,19.0096,1805.6667],[-70.8077,19.0058,1606.4255],[-70.7912,18.9831,1715.9095],[-70.7712,18.9786,1728.1635],[-70.7632,18.9811,1763.4736],[-70.7488,18.9815,1698.8763],[-70.7433,18.9843,1666.1058],[-70.7418,18.9907,1608.0603],[-70.7437,19.0015,1544.9489],[-70.7417,19.0059,1578.8979],[-70.7396,19.0067,1564.5062],[-70.7314,19.0016,1615.4615],[-70.7285,18.993,1673.4641],[-70.7185,18.9916,1660.679],[-70.7076,18.9868,1613.4194],[-70.6999,18.9865,1685.718],[-70.6961,18.9882,1610.684],[-70.6883,18.9973,1446.3612],[-70.6815,19.0002,1443.5245],[-70.6709,19.0011,1457.2396],[-70.657,19.0086,1343.431],[-70.633,19.0086,1210.6746],[-70.6245,19.0064,1259.3286],[-70.6136,19.0107,1179.6116],[-70.6103,19.0068,1163.8127],[-70.6074,19.0059,1150.9668],[-70.5977,19.011,1067.1589],[-70.5794,19.0114,1015.6665],[-70.5762,19.0143,1078.1591],[-70.578,19.021,1072.892],[-70.5758,19.0245,1144.7448],[-70.5679,19.0233,1076.7869],[-70.561,19.03,1086.5524],[-70.5501,19.0343,1144.4209],[-70.5454,19.0385,1174.3373],[-70.5359,19.0416,1166.8147],[-70.5279,19.0419,1266.1807],[-70.525,19.0447,1288.9138],[-70.5236,19.0599,1289.9783],[-70.5384,19.0777,1138.7142],[-70.5381,19.0842,1226.8019],[-70.5395,19.087,1226.6794],[-70.543,19.0895,1014.2418],[-70.5542,19.0914,961.0464],[-70.5571,19.0993,860.9653],[-70.5562,19.1052,921.078],[-70.5659,19.1279,542.7872],[-70.5573,19.1402,418.7797],[-70.566,19.1705,291.05],[-70.5592,19.1826,303.3927],[-70.5586,19.1975,319.6992],[-70.5631,19.2014,193.5704],[-70.5684,19.2097,171.8007],[-70.5792,19.2186,218.5162],[-70.5915,19.2099,393.936],[-70.5966,19.2001,514.9905],[-70.6076,19.1929,539.2416],[-70.6198,19.1943,499.086],[-70.627,19.1908,555.8414],[-70.6352,19.1836,586.1612],[-70.6447,19.1858,593.8831],[-70.6647,19.1866,500.0657],[-70.675,19.1769,493.5894],[-70.6825,19.1737,634.1008],[-70.6905,19.1807,491.1428],[-70.6932,19.1908,653.4683],[-70.6985,19.1942,677.1987],[-70.7045,19.2022,701.2478],[-70.7092,19.2033,668.9111],[-70.7137,19.1999,634.1788],[-70.7151,19.1968,632.0944],[-70.7146,19.1937,648.7194],[-70.7107,19.1905,651.3983],[-70.7098,19.1876,675.8422],[-70.7148,19.1775,715.1631],[-70.7161,19.1624,751.6594],[-70.7305,19.1581,708.469],[-70.7452,19.1482,732.2455],[-70.7554,19.147,778.1611],[-70.7591,19.1406,772.4293],[-70.7666,19.1379,829.7213],[-70.7749,19.1314,884.6647],[-70.7858,19.1309,985.5087],[-70.7947,19.1333,1002.1354],[-70.8012,19.1306,1115.183],[-70.8085,19.1185,1386.4973],[-70.8303,19.1037,1392.3083],[-70.8408,19.0928,1630.6226],[-70.8481,19.0939,1670.136],[-70.8594,19.0919,1611.7479],[-70.8696,19.0941,1705.6852],[-70.8722,19.0916,1673.002],[-70.8737,19.0844,1664.8236],[-70.879,19.0833,1630.3801],[-70.9131,19.0863,1712.9231],[-70.9257,19.0922,1962.9509],[-70.9373,19.0914,1923.7395],[-70.9439,19.0823,1891.6342],[-70.9426,19.0698,1890.4941],[-70.9468,19.062,2140.3677],[-70.9448,19.0537,2185.4739],[-70.9505,19.04,2834.8569],[-70.9444,19.034,2514.2288],[-70.9348,19.0322,2672.4221],[-70.9207,19.0225,2189.9172],[-70.9111,19.0208,1986.3542],[-70.8921,19.0087,2094.4624],[-70.8796,18.9965,2102.4409],[-70.8793,18.9934,2067.1116],[-70.882,18.9886,2092.3899],[-70.8747,18.988,1902.3835],[-70.8695,18.9926,1799.8051],[-70.8625,18.9955,1833.5398]]]]}}