{"type":"Feature","properties":{"ISO3166-1-Alpha-3":"HTI","country":"Haiti","fill":"#FF0","id":"1360","name":"Nippes"},
"geometry":{"type": "Polygon","coordinates": [[[-73.05594,18.45844,74.7965],[-73.08117,18.45417,0.0],[-73.09801,18.45527,0.0],[-73.11315,18.46076,0.0],[-73.1317,18.47101,0.3258],[-73.16698,18.48355,14.8649],[-73.20613,18.4868,0.0],[-73.28624,18.48404,0.0],[-73.30846,18.48835,1.0084],[-73.3483,18.50764,0.0],[-73.36852,18.51195,9.2975],[-73.52668,18.5235,0.0],[-73.56965,18.51838,0.0],[-73.60473,18.49828,131.5974],[-73.62043,18.50576,0.0],[-73.65221,18.50137,0.0],[-73.66983,18.50886,0.0],[-73.67422,18.51667,8.766],[-73.67382,18.52432,92.5295],[-73.67492,18.53018,229.8294],[-73.6914,18.534,149.0244],[-73.708,18.54243,0.0],[-73.71459,18.5467,0.0],[-73.69278,18.55402,15.7437],[-73.67345,18.5561,0.0],[-73.6542,18.55362,0.0],[-73.63264,18.5467,0.0],[-73.63264,18.55292,0.0],[-73.60611,18.54902,0.0],[-73.58585,18.562,18.9265],[-73.58642,18.57917,47.1996],[-73.62206,18.58763,0.0],[-73.63508,18.58592,0.0],[-73.68041,18.57343,4.6818],[-73.6883,18.57315,8.4863],[-73.69652,18.5738,7.2114],[-73.70446,18.57347,16.4266],[-73.71117,18.57026,4.9436],[-73.72387,18.55532,0.0],[-73.72509,18.55292,0.0],[-73.72924,18.55093,4.2733],[-73.73935,18.54381,61.5595],[-73.7394,18.54373,109.8004],[-73.74772,18.52729,212.3365],[-73.76505,18.50848,366.8712],[-73.76017,18.49453,364.5999],[-73.74371,18.48719,276.9763],[-73.76601,18.46332,450.2971],[-73.78404,18.42472,1098.0822],[-73.75159,18.42043,937.7487],[-73.71844,18.42187,541.6987],[-73.69836,18.41226,525.2638],[-73.68144,18.40699,521.0831],[-73.65875,18.42508,732.4225],[-73.62666,18.42931,358.3162],[-73.5994,18.42704,342.2688],[-73.58189,18.41278,500.0606],[-73.56744,18.39583,536.8572],[-73.54512,18.38508,514.1094],[-73.55408,18.36782,498.8552],[-73.56406,18.34627,547.4626],[-73.51336,18.33402,1246.6858],[-73.44962,18.34374,863.3918],[-73.41807,18.34663,734.8262],[-73.3865,18.3456,449.8138],[-73.35061,18.35449,375.6362],[-73.31934,18.36663,227.6352],[-73.26728,18.35976,261.5069],[-73.21434,18.36074,286.0843],[-73.18811,18.35774,266.0575],[-73.16284,18.355,390.2052],[-73.14008,18.36152,295.199],[-73.11587,18.35511,210.811],[-73.07794,18.32576,258.7024],[-73.046,18.29749,175.58],[-73.03794,18.25403,171.6496],[-73.01246,18.2209,88.2251],[-73.01443,18.24287,217.3264],[-73.0145,18.26483,317.032],[-73.00169,18.2931,492.114],[-72.99774,18.32276,518.0399],[-73.01339,18.34152,488.011],[-73.02076,18.3658,499.7563],[-73.03804,18.38239,270.0406],[-73.06303,18.38337,120.521],[-73.06528,18.41025,17.0],[-73.04975,18.43521,124.643],[-73.05024,18.4473,247.7419],[-73.05594,18.45844,74.7965]]]}}