{"type":"Feature","properties":{"GID_1":"HTI.4_1","GID_0":"HTI","country":"Haiti","province":"Nippes","VARNAME_1":"Miragoâne","NL_NAME_1":"NA","TYPE_1":"Département","ENGTYPE_1":"Department","CC_1":"NA","HASC_1":"HT.NI","ISO_1":"HT-NI","name":"Nippes.province"},
"geometry":{"type": "MultiPolygon","coordinates": [[[[-73.0201,18.3484,530.8142],[-73.0187,18.351,491.9747],[-73.0137,18.3524,587.3859],[-73.0109,18.3606,479.6272],[-73.0147,18.3668,485.1902],[-73.0256,18.3746,340.5582],[-73.019,18.383,159.1842],[-73.0236,18.3874,164.358],[-73.0312,18.389,107.589],[-73.0494,18.3848,112.0304],[-73.0501,18.3832,177.5117],[-73.0537,18.3845,89.736],[-73.0653,18.384,59.6662],[-73.0714,18.3855,89.9353],[-73.0729,18.3906,17.6897],[-73.0716,18.393,20.5304],[-73.0635,18.3958,17.0],[-73.0605,18.4082,17.0],[-73.0589,18.4113,17.0],[-73.0555,18.4129,17.0],[-73.0499,18.4253,17.0],[-73.0513,18.4307,71.6042],[-73.054,18.4332,41.8132],[-73.0519,18.4354,112.9635],[-73.0483,18.4353,126.5037],[-73.0445,18.4374,198.2168],[-73.0486,18.4454,213.4244],[-73.0523,18.4479,233.023],[-73.0547,18.4523,162.3306],[-73.0501,18.4613,2.0659],[-73.0566,18.4611,0.0],[-73.0632,18.4571,0.0],[-73.0698,18.458,0.0],[-73.0724,18.4551,0.0],[-73.0706,18.4535,0.0],[-73.0746,18.4468,20.2741],[-73.0848,18.4494,0.0],[-73.0873,18.4468,12.5863],[-73.0902,18.4469,0.0],[-73.0921,18.4437,9.0599],[-73.0983,18.4458,0.0],[-73.0985,18.4447,6.5853],[-73.1039,18.4477,0.0],[-73.1051,18.4465,15.9139],[-73.1071,18.4489,3.6411],[-73.1051,18.449,0.0],[-73.1051,18.4513,0.0],[-73.1037,18.4516,0.0],[-73.1068,18.4542,6.444],[-73.1061,18.4563,0.0],[-73.1083,18.4571,0.0],[-73.1115,18.4546,0.0],[-73.114,18.4556,0.0],[-73.1135,18.4568,0.0],[-73.1099,18.4562,0.083],[-73.1096,18.4604,0.1103],[-73.1118,18.4607,0.0],[-73.1115,18.4585,0.4653],[-73.1132,18.4588,0.0],[-73.1153,18.4563,0.588],[-73.1162,18.4579,0.1945],[-73.1139,18.462,0.0],[-73.117,18.4613,0.077],[-73.1167,18.4633,0.0],[-73.1182,18.4607,0.077],[-73.1194,18.4623,0.0],[-73.1229,18.4611,0.1192],[-73.1226,18.463,0.0],[-73.124,18.4629,0.2607],[-73.1203,18.4652,0.0],[-73.1201,18.4679,0.0],[-73.1211,18.4673,0.0],[-73.1219,18.47,0.0],[-73.1251,18.4665,0.3744],[-73.1252,18.4748,0.1472],[-73.1558,18.482,3.3025],[-73.1607,18.486,0.0],[-73.1879,18.4899,3.7534],[-73.1963,18.489,0.0],[-73.2021,18.4874,0.0],[-73.2046,18.4846,7.1009],[-73.2127,18.4808,0.0],[-73.2232,18.4801,2.7877],[-73.2299,18.4776,1.6487],[-73.2351,18.4785,3.4965],[-73.2393,18.4763,1.3967],[-73.256,18.4807,0.0],[-73.2637,18.4813,2.6123],[-73.2665,18.4835,0.521],[-73.2844,18.4826,1.5846],[-73.2865,18.4843,0.0],[-73.2965,18.4846,0.9177],[-73.3064,18.4899,0.3888],[-73.3101,18.4943,0.0],[-73.3324,18.5037,5.4517],[-73.346,18.5057,0.0],[-73.3471,18.5035,5.4737],[-73.3496,18.5074,0.0],[-73.3579,18.5101,8.4635],[-73.3926,18.5143,5.4876],[-73.4065,18.5204,15.5899],[-73.4199,18.5199,9.5362],[-73.4568,18.5287,15.0026],[-73.4694,18.5235,6.094],[-73.4935,18.5276,0.0],[-73.5057,18.5272,0.338],[-73.5121,18.5286,0.0],[-73.5139,18.5265,1.0555],[-73.5205,18.5291,0.0],[-73.5268,18.5263,0.5843],[-73.5299,18.5279,0.0],[-73.5315,18.5276,0.0],[-73.5312,18.5237,0.2905],[-73.5329,18.5229,0.1981],[-73.5396,18.524,0.0],[-73.5418,18.5226,0.0],[-73.5382,18.5221,0.1747],[-73.5379,18.5202,0.6996],[-73.5432,18.5222,0.0],[-73.5482,18.5204,0.3326],[-73.5499,18.5176,0.335],[-73.5537,18.5174,0.0],[-73.5551,18.5138,0.0],[-73.559,18.5124,0.1054],[-73.5599,18.5101,7.6013],[-73.5629,18.5118,0.0896],[-73.5635,18.5143,0.1],[-73.5621,18.5157,0.0],[-73.5646,18.5151,0.1],[-73.564,18.5101,0.0],[-73.5696,18.5082,0.0],[-73.5701,18.5063,1.7273],[-73.5749,18.5071,0.0],[-73.5757,18.5057,0.144],[-73.574,18.5124,0.0],[-73.5757,18.5126,0.0],[-73.5765,18.5074,0.0],[-73.5768,18.511,0.0],[-73.5801,18.5096,0.0],[-73.5785,18.5049,13.1562],[-73.5801,18.5046,10.9309],[-73.581,18.5071,0.0],[-73.5843,18.504,0.201],[-73.5865,18.5042,0.0],[-73.5876,18.5018,44.8755],[-73.5926,18.504,0.0],[-73.5946,18.5021,0.0],[-73.5976,18.5035,0.0],[-73.5986,18.5021,1.2077],[-73.5968,18.5054,0.9341],[-73.5979,18.5057,0.0],[-73.5999,18.5035,1.2077],[-73.6068,18.5015,9.8806],[-73.6079,18.5035,4.1015],[-73.611,18.501,7.0377],[-73.6114,18.5031,0.0],[-73.6142,18.501,37.9856],[-73.619,18.5026,0.0],[-73.6218,18.5007,6.6051],[-73.6231,18.504,0.0],[-73.6249,18.5032,20.6663],[-73.6273,18.5046,0.0],[-73.6268,18.5021,14.5557],[-73.629,18.5026,0.0],[-73.6296,18.5046,3.7343],[-73.6338,18.504,1.0039],[-73.6363,18.5063,0.7562],[-73.6387,18.504,0.7688],[-73.6473,18.5023,2.434],[-73.6471,18.501,57.0966],[-73.6588,18.4993,9.3926],[-73.6632,18.5001,1.1294],[-73.6646,18.5029,0.4188],[-73.6636,18.506,0.0],[-73.6724,18.5085,8.7894],[-73.6724,18.5115,15.8323],[-73.6706,18.5133,12.8219],[-73.672,18.5168,0.0],[-73.6699,18.5174,0.0],[-73.6674,18.5243,3.4122],[-73.6643,18.5244,1.9243],[-73.6651,18.5287,0.0],[-73.6596,18.5335,0.0],[-73.6596,18.5351,0.0],[-73.6626,18.536,8.1578],[-73.6629,18.541,0.0],[-73.6707,18.5426,0.0],[-73.6746,18.5404,53.2608],[-73.6782,18.5457,0.0],[-73.6799,18.5457,0.0],[-73.6821,18.5438,6.8442],[-73.6826,18.5379,49.4419],[-73.6846,18.5376,5.9258],[-73.6843,18.5449,0.0],[-73.6899,18.5449,5.022],[-73.6899,18.5429,2.9976],[-73.6932,18.5399,51.7181],[-73.6943,18.5457,0.0],[-73.6976,18.5451,0.0],[-73.6996,18.5418,22.7253],[-73.7018,18.5435,1.1],[-73.7038,18.5421,0.0],[-73.7107,18.5432,1.437],[-73.7146,18.5418,32.6204],[-73.7158,18.5439,0.0],[-73.7176,18.5435,7.6064],[-73.721,18.5461,0.7125],[-73.721,18.5434,18.3668],[-73.7234,18.5424,5.1974],[-73.7249,18.5435,5.0959],[-73.7243,18.5459,8.8155],[-73.7171,18.551,11.1432],[-73.7165,18.5474,3.821],[-73.7104,18.5439,1.4093],[-73.7079,18.547,0.0],[-73.6999,18.5496,0.0],[-73.6988,18.5529,0.0],[-73.6965,18.5501,0.0],[-73.6923,18.5512,0.0],[-73.6924,18.5535,0.0],[-73.6879,18.5518,0.0],[-73.6859,18.554,7.6261],[-73.6832,18.5532,0.0],[-73.6804,18.5573,2.0895],[-73.6801,18.561,0.0],[-73.687,18.5618,4.7879],[-73.6907,18.564,0.0752],[-73.6882,18.5654,0.0],[-73.681,18.5635,0.0],[-73.6743,18.564,0.8337],[-73.6662,18.5571,0.1297],[-73.6621,18.5593,0.2234],[-73.6624,18.5576,0.0],[-73.6665,18.5546,0.0],[-73.6657,18.5529,6.0585],[-73.6615,18.5542,7.5927],[-73.6443,18.5543,0.438],[-73.6432,18.5563,0.0],[-73.6446,18.5579,0.1431],[-73.6318,18.5591,1.7582],[-73.6188,18.556,2.2166],[-73.617,18.5539,0.0],[-73.6124,18.5551,1.0937],[-73.6071,18.5524,0.5845],[-73.5985,18.5534,0.617],[-73.5915,18.5521,1.0062],[-73.5776,18.5604,0.0],[-73.5698,18.5729,13.3208],[-73.5635,18.5796,3.1177],[-73.5641,18.5841,0.0],[-73.5674,18.5871,0.0],[-73.5777,18.5892,0.0],[-73.6293,18.5832,3.6926],[-73.6562,18.5723,0.0],[-73.6696,18.5735,1.4782],[-73.6871,18.5782,1.229],[-73.7001,18.5776,0.3349],[-73.7112,18.5751,0.7799],[-73.716,18.5716,2.1207],[-73.7185,18.5715,1.1713],[-73.7201,18.5696,0.0],[-73.7201,18.5654,0.3057],[-73.727,18.5665,0.4914],[-73.7262,18.5643,0.2287],[-73.7288,18.5649,0.1443],[-73.7282,18.5626,0.1265],[-73.731,18.5633,0.1421],[-73.7315,18.5596,0.2154],[-73.7343,18.5574,0.0844],[-73.7207,18.5574,0.0],[-73.7207,18.5535,2.8359],[-73.7271,18.551,0.4383],[-73.731,18.5515,4.0085],[-73.733,18.5472,56.2388],[-73.7355,18.5458,68.2513],[-73.7314,18.5428,2.0011],[-73.7315,18.5406,14.7566],[-73.7374,18.536,139.8833],[-73.7433,18.5231,315.3116],[-73.7539,18.517,329.1968],[-73.7576,18.5117,366.6922],[-73.7653,18.506,370.8011],[-73.7688,18.4989,413.9645],[-73.7673,18.4964,393.5909],[-73.7617,18.4941,354.0577],[-73.7423,18.4892,303.3923],[-73.7385,18.4862,342.8564],[-73.739,18.4814,236.2983],[-73.7462,18.4752,238.5621],[-73.7654,18.4654,403.8486],[-73.7663,18.4594,568.6419],[-73.7724,18.4568,665.6496],[-73.7748,18.4541,701.1531],[-73.7758,18.4421,842.4801],[-73.7789,18.4412,873.6298],[-73.78,18.4239,1086.592],[-73.7738,18.4183,1165.7173],[-73.771,18.4176,1145.0215],[-73.7591,18.4234,913.87],[-73.7435,18.4205,884.8099],[-73.7378,18.4159,715.5153],[-73.7214,18.4146,792.5858],[-73.7069,18.421,459.3206],[-73.7023,18.42,552.2526],[-73.6978,18.4141,504.2778],[-73.6819,18.4,547.9243],[-73.6767,18.3979,548.1161],[-73.6715,18.4028,604.3901],[-73.672,18.4306,628.625],[-73.6699,18.4301,552.9741],[-73.6681,18.4332,510.2808],[-73.6534,18.4257,679.3358],[-73.6479,18.4297,586.3645],[-73.6435,18.4301,415.843],[-73.6389,18.4249,372.4841],[-73.6315,18.4219,418.3113],[-73.6261,18.4256,359.2691],[-73.6096,18.427,422.9119],[-73.6016,18.4203,379.6355],[-73.5915,18.4188,545.7237],[-73.5852,18.4208,414.7292],[-73.578,18.4204,328.489],[-73.5794,18.4165,344.7047],[-73.5789,18.4071,504.8514],[-73.5739,18.4011,528.2023],[-73.5622,18.4013,555.8101],[-73.5594,18.3993,594.3403],[-73.5589,18.3911,517.9965],[-73.5526,18.3904,503.591],[-73.5486,18.3874,488.9577],[-73.5463,18.3892,477.8279],[-73.5438,18.3862,448.7751],[-73.5386,18.3845,475.8293],[-73.5418,18.3736,506.0827],[-73.543,18.3757,565.4875],[-73.5462,18.3753,563.7446],[-73.5549,18.3699,454.0576],[-73.5572,18.3583,636.0804],[-73.5563,18.3497,830.6975],[-73.5643,18.3465,547.4626],[-73.5643,18.3444,634.0874],[-73.5615,18.3472,545.4474],[-73.5546,18.336,877.4631],[-73.5045,18.3364,1250.2327],[-73.4932,18.338,1204.6482],[-73.4894,18.3406,1216.5042],[-73.4821,18.3422,1150.9215],[-73.4718,18.3406,1203.6052],[-73.4704,18.3375,1064.5156],[-73.4588,18.3378,1092.8838],[-73.4292,18.3444,827.447],[-73.4184,18.3414,943.9186],[-73.4122,18.3419,748.8861],[-73.4045,18.3475,711.8253],[-73.4011,18.3459,719.6646],[-73.3858,18.347,319.3301],[-73.363,18.3452,278.5847],[-73.3552,18.3424,187.1971],[-73.3484,18.3485,231.5857],[-73.3364,18.3693,199.3897],[-73.3352,18.368,206.2768],[-73.333,18.3699,201.5916],[-73.3318,18.3687,213.0472],[-73.3306,18.3707,223.3086],[-73.3275,18.3671,202.9458],[-73.3248,18.3677,203.9637],[-73.3222,18.3638,217.1615],[-73.3187,18.3626,221.2621],[-73.3063,18.3652,235.4154],[-73.3051,18.3667,224.2775],[-73.3014,18.3665,223.5834],[-73.2994,18.3685,223.0061],[-73.2963,18.3654,243.9251],[-73.294,18.3657,225.3727],[-73.2951,18.3677,224.7619],[-73.2868,18.3676,243.6718],[-73.277,18.3611,245.0302],[-73.27,18.3587,285.9725],[-73.2668,18.3598,251.3938],[-73.2627,18.3538,271.7729],[-73.2592,18.3527,268.8469],[-73.2472,18.3541,307.3022],[-73.2281,18.3522,283.363],[-73.2176,18.3624,299.556],[-73.2046,18.3621,287.4732],[-73.1951,18.364,285.5289],[-73.1868,18.3628,281.3759],[-73.1794,18.3565,258.1538],[-73.1732,18.356,256.4524],[-73.1645,18.3505,265.5932],[-73.1566,18.3501,237.7265],[-73.1416,18.3646,227.9495],[-73.1338,18.3637,227.7663],[-73.1252,18.3588,216.22],[-73.122,18.3619,215.1594],[-73.1204,18.3613,213.4507],[-73.1186,18.3629,212.9279],[-73.1146,18.3604,211.0607],[-73.1104,18.3618,212.9284],[-73.1082,18.3583,209.5728],[-73.1004,18.353,208.808],[-73.0968,18.3449,244.2536],[-73.0867,18.3388,207.0157],[-73.0858,18.3363,209.1453],[-73.0805,18.3346,210.4417],[-73.08,18.3293,208.2317],[-73.0723,18.3272,205.1532],[-73.0734,18.3298,214.7188],[-73.0707,18.3309,207.364],[-73.0696,18.3271,229.4361],[-73.072,18.3227,210.332],[-73.0683,18.3228,202.7465],[-73.067,18.3155,203.6518],[-73.0644,18.3145,197.7666],[-73.0593,18.3029,190.8634],[-73.0571,18.3032,184.1069],[-73.0559,18.3005,177.9584],[-73.0523,18.3028,209.3423],[-73.0499,18.2996,187.0055],[-73.0469,18.3024,203.2101],[-73.0461,18.3006,171.3999],[-73.0422,18.3002,234.9064],[-73.0468,18.2967,242.4678],[-73.0438,18.2943,204.7],[-73.0523,18.2869,146.5392],[-73.05,18.2849,153.0694],[-73.0484,18.28,145.549],[-73.0423,18.2771,154.0476],[-73.0408,18.2716,132.9842],[-73.043,18.2706,129.1872],[-73.038,18.2701,140.4928],[-73.0398,18.2661,126.2414],[-73.0386,18.2626,123.9064],[-73.0416,18.2596,125.4111],[-73.0359,18.2593,122.8988],[-73.0378,18.2564,128.2964],[-73.033,18.2546,117.3688],[-73.033,18.2511,118.8019],[-73.0299,18.251,123.3699],[-73.0288,18.2474,111.5706],[-73.0313,18.2426,104.4601],[-73.0307,18.2405,106.625],[-73.0167,18.2365,96.3582],[-73.0206,18.2327,137.7831],[-73.0182,18.2303,89.8878],[-73.0228,18.2251,136.2871],[-73.0201,18.2244,116.0776],[-73.0142,18.2275,73.5332],[-73.0141,18.2255,67.8653],[-73.0167,18.2241,69.9756],[-73.0158,18.2214,92.4816],[-73.0112,18.2226,61.186],[-73.0131,18.2267,76.6246],[-73.01,18.231,126.3567],[-73.0088,18.2405,290.2419],[-73.0108,18.2426,334.4954],[-73.012,18.2477,449.3692],[-73.009,18.2523,469.0417],[-73.0134,18.2555,370.0698],[-73.0156,18.261,249.4283],[-73.0131,18.2667,330.4156],[-73.0129,18.2792,436.8794],[-73.0101,18.2879,409.3107],[-72.998,18.2986,550.6681],[-72.9949,18.3058,560.4194],[-72.9953,18.3196,540.8185],[-73.0006,18.329,600.7977],[-73.0131,18.3361,417.4939],[-73.0201,18.3484,530.8142]]],
[[[-73.0982,18.4504,0.0],[-73.0999,18.4524,0.0],[-73.1001,18.4504,0.0],[-73.0965,18.4488,0.0],[-73.0982,18.4504,0.0]]],
[[[-73.5579,18.5157,0.0],[-73.5607,18.5165,0.0672],[-73.5618,18.5151,0.0],[-73.5574,18.5146,0.1378],[-73.5579,18.5157,0.0]]],
[[[-73.5454,18.5313,0.0985],[-73.5515,18.5321,0.0],[-73.5524,18.5301,0.142],[-73.549,18.5276,0.0],[-73.541,18.5271,0.2215],[-73.5396,18.5251,0.0],[-73.5357,18.5257,0.128],[-73.5382,18.5274,0.0],[-73.539,18.5304,0.244],[-73.5454,18.5313,0.0985]]],
[[[-73.5726,18.5104,0.0],[-73.5735,18.5121,0.0],[-73.5729,18.5088,0.0],[-73.5707,18.509,0.0545],[-73.5707,18.5104,0.0545],[-73.5726,18.5104,0.0]]],
[[[-73.6487,18.5237,5.6361],[-73.6501,18.5246,0.0],[-73.6501,18.5218,28.361],[-73.654,18.5226,4.2763],[-73.6557,18.5215,37.9265],[-73.6574,18.5232,3.2205],[-73.6588,18.5201,25.9648],[-73.6632,18.5204,14.1649],[-73.6651,18.5185,0.8185],[-73.6649,18.5171,0.8185],[-73.6637,18.5179,21.2865],[-73.6643,18.5138,0.0],[-73.6557,18.5154,0.0],[-73.6551,18.5176,15.616],[-73.6546,18.5163,0.0],[-73.6515,18.5163,0.9571],[-73.6499,18.5213,28.361],[-73.6476,18.5213,0.0],[-73.6487,18.5237,5.6361]]],
[[[-73.6593,18.541,6.3455],[-73.6615,18.5415,3.6667],[-73.6599,18.5382,1.1811],[-73.6588,18.5385,1.1811],[-73.6593,18.541,6.3455]]],
[[[-73.6771,18.5574,9.598],[-73.679,18.5579,2.0895],[-73.6793,18.5529,1.9289],[-73.6768,18.5563,29.7567],[-73.6771,18.5574,9.598]]]]}}