{"type": "Feature","bbox": [-73.6724,18.3783,-73.4288,18.5321],"geometry": {"type": "MultiPolygon","coordinates": [[[[-73.511,18.3829,321.209],[-73.5014,18.3841,326.2002],[-73.4994,18.3821,295.822],[-73.4906,18.3814,279.0648],[-73.4887,18.3783,248.7446],[-73.4843,18.3801,257.4754],[-73.4784,18.3876,226.1479],[-73.4723,18.3891,232.5638],[-73.4697,18.3867,200.5257],[-73.4693,18.3837,205.4792],[-73.4639,18.3814,178.2128],[-73.4631,18.3794,176.3388],[-73.4594,18.3807,169.797],[-73.4566,18.3844,167.5637],[-73.4522,18.3857,154.9186],[-73.4508,18.3914,146.4539],[-73.4461,18.3932,140.1109],[-73.4443,18.3969,164.7292],[-73.4445,18.4016,259.0471],[-73.4488,18.4083,201.3896],[-73.4491,18.4147,211.5607],[-73.4472,18.4161,226.6332],[-73.4455,18.4316,293.8476],[-73.4424,18.4325,264.5576],[-73.4421,18.4346,269.4446],[-73.4448,18.4364,286.8161],[-73.4454,18.4403,383.2502],[-73.4507,18.4462,497.3434],[-73.4318,18.4508,480.9227],[-73.4288,18.4544,414.7777],[-73.4349,18.4675,137.1498],[-73.4331,18.4724,118.3843],[-73.4339,18.4797,90.617],[-73.4466,18.4908,65.5815],[-73.4497,18.4968,52.7184],[-73.4482,18.5031,42.155],[-73.4431,18.5105,28.4232],[-73.4464,18.5219,17.0377],[-73.4434,18.5252,5.0232],[-73.4582,18.5287,15.0026],[-73.4718,18.5235,2.9626],[-73.4935,18.5276,0.0],[-73.5057,18.5272,0.338],[-73.5121,18.5286,0.0],[-73.5139,18.5265,1.0555],[-73.5205,18.5291,0.0],[-73.5257,18.5263,0.4389],[-73.5315,18.5276,0.0],[-73.5312,18.5237,0.2905],[-73.5329,18.5229,0.1981],[-73.5396,18.524,0.0],[-73.5418,18.5226,0.0],[-73.5382,18.5221,0.1747],[-73.5382,18.5201,0.6996],[-73.5427,18.5222,0.0],[-73.546,18.5215,0.0847],[-73.5499,18.5191,0.074],[-73.5499,18.5176,0.335],[-73.5537,18.5174,0.0],[-73.5551,18.5138,0.0],[-73.559,18.5124,0.1054],[-73.5599,18.5101,7.6013],[-73.5629,18.5118,0.0896],[-73.5635,18.5143,0.1],[-73.5621,18.5157,0.0],[-73.5635,18.5157,0.0],[-73.5651,18.5138,0.1],[-73.564,18.5101,0.0],[-73.5696,18.5082,0.0],[-73.57,18.5052,20.7087],[-73.5748,18.5014,6.283],[-73.5798,18.4888,123.1931],[-73.5903,18.4838,59.4843],[-73.5947,18.4787,124.7168],[-73.5954,18.4728,225.7654],[-73.5936,18.4693,369.6606],[-73.5874,18.4658,487.5876],[-73.5867,18.4586,740.1603],[-73.6,18.4544,643.2774],[-73.6189,18.454,557.5069],[-73.6312,18.4477,545.8184],[-73.6418,18.4388,700.1835],[-73.645,18.4413,720.9514],[-73.6491,18.4488,538.6765],[-73.6544,18.4508,550.6254],[-73.666,18.462,93.6234],[-73.6691,18.4626,25.148],[-73.6724,18.4606,24.687],[-73.6656,18.4491,398.7964],[-73.6681,18.4332,510.2808],[-73.6595,18.4283,737.7881],[-73.6534,18.4257,679.3358],[-73.6479,18.4297,586.3645],[-73.6435,18.4301,415.843],[-73.6389,18.4249,372.4841],[-73.6315,18.4219,418.3113],[-73.6261,18.4256,359.2691],[-73.6096,18.427,422.9119],[-73.6016,18.4203,379.6355],[-73.5915,18.4188,545.7237],[-73.5852,18.4208,414.7292],[-73.578,18.4204,328.489],[-73.5794,18.4165,344.7047],[-73.5785,18.4064,481.7178],[-73.5739,18.4011,528.2023],[-73.5622,18.4013,555.8101],[-73.5594,18.3993,594.3403],[-73.5589,18.3911,517.9965],[-73.5526,18.3904,503.591],[-73.5486,18.3874,488.9577],[-73.5463,18.3892,477.8279],[-73.5438,18.3862,448.7751],[-73.5386,18.3845,475.8293],[-73.5357,18.3871,435.9954],[-73.5252,18.3857,397.2762],[-73.5181,18.3878,375.5646],[-73.511,18.3829,321.209]]],
[[[-73.5587,18.516,0.0],[-73.5607,18.5165,0.0672],[-73.5618,18.5151,0.0],[-73.5574,18.5146,0.1378],[-73.5587,18.516,0.0]]],
[[[-73.5471,18.5315,0.1847],[-73.5515,18.5321,0.0],[-73.5524,18.5301,0.142],[-73.549,18.5276,0.0],[-73.541,18.5271,0.2215],[-73.5396,18.5251,0.0],[-73.5357,18.5257,0.128],[-73.5382,18.5274,0.0],[-73.539,18.5304,0.244],[-73.5471,18.5315,0.1847]]]]}
,"properties": {"GID_3": "HTI.4.1.4_1","GID_0": "HTI","country": "Haiti","GID_1": "HTI.4_1","province": "Nippes","NL_NAME_1": "NA","GID_2": "HTI.4.1_1","county": "l'Anse-à-Veau","NL_NAME_2": "NA","city": "PetitTroudeNippes","VARNAME_3": "NA","NL_NAME_3": "NA","TYPE_3": "Commune","ENGTYPE_3": "Commune","CC_3": "NA","HASC_3": "NA","name": "Petit_Troude_Nippes.city","area_km2": 248.6038,"hist_schema_id": "Elevation0-9000","hist_area_km2": {"0": 18.5162,"25": 13.7925,"50": 4.9666,"75": 4.8661,"100": 5.2482,"125": 4.6852,"150": 7.4009,"175": 9.1112,"200": 9.2118,"225": 11.5654,"250": 12.9735,"275": 16.5738,"300": 13.0943,"325": 14.8845,"350": 16.574,"375": 12.9534,"400": 10.3988,"425": 8.2667,"450": 6.5772,"475": 5.7726,"500": 5.4709,"525": 5.3099,"550": 4.5456,"575": 3.6807,"600": 3.942,"625": 3.1375,"650": 3.0772,"675": 3.4794,"700": 2.333,"725": 1.971,"750": 1.7699,"775": 1.0458,"800": 0.8045,"825": 0.3419,"850": 0.181,"875": 0.0804}}}