{"type": "Feature","bbox": [-69.217,18.394,-69.0661,18.6362],"geometry": {"type": "MultiPolygon","coordinates": [[[[-69.1843,18.6362,61.3305],[-69.1879,18.6349,57.5449],[-69.1899,18.6324,52.2516],[-69.1938,18.6093,69.7867],[-69.2017,18.6033,56.1966],[-69.2054,18.5787,42.1507],[-69.2107,18.5699,48.5661],[-69.2096,18.562,50.3339],[-69.217,18.5433,53.728],[-69.2077,18.5455,48.7065],[-69.2052,18.5439,41.9626],[-69.2052,18.5113,57.6526],[-69.2038,18.5068,58.6417],[-69.1989,18.5042,59.9807],[-69.1864,18.5014,62.0428],[-69.1789,18.5034,53.533],[-69.1677,18.5033,7.4905],[-69.1659,18.5012,15.5828],[-69.1663,18.4933,63.0569],[-69.1679,18.4899,64.9253],[-69.1787,18.4858,66.5293],[-69.1875,18.4781,6.6309],[-69.2012,18.4589,0.0],[-69.2031,18.4504,0.0],[-69.1974,18.4471,2.5619],[-69.1971,18.4387,0.0],[-69.1951,18.4385,0.6598],[-69.1932,18.434,4.1381],[-69.1943,18.4315,3.8119],[-69.1982,18.4307,1.4789],[-69.1837,18.4201,0.0],[-69.1776,18.4176,0.7508],[-69.1729,18.4182,1.5023],[-69.1732,18.4151,0.0],[-69.166,18.4126,0.7777],[-69.1368,18.4049,0.0],[-69.119,18.4046,0.0],[-69.1079,18.399,1.6543],[-69.0913,18.394,3.1551],[-69.0802,18.4043,9.4843],[-69.083,18.4162,9.6653],[-69.0774,18.4247,29.867],[-69.0847,18.4342,34.0098],[-69.0816,18.4415,43.5165],[-69.084,18.4457,51.4944],[-69.0884,18.448,57.5534],[-69.0909,18.4562,65.8797],[-69.1088,18.4676,46.8949],[-69.1108,18.4734,66.3227],[-69.1153,18.4764,58.3099],[-69.1159,18.4803,36.9092],[-69.1118,18.4887,37.9726],[-69.1047,18.4959,64.5056],[-69.1002,18.5063,64.4489],[-69.0872,18.5179,81.5169],[-69.0827,18.5281,54.9351],[-69.0779,18.5339,76.3834],[-69.0802,18.5397,67.7081],[-69.0779,18.5495,74.9613],[-69.0801,18.5569,63.9601],[-69.0788,18.565,68.4767],[-69.08,18.5719,62.9885],[-69.0775,18.5755,70.3688],[-69.0671,18.581,76.1356],[-69.0661,18.5918,78.413],[-69.0689,18.5933,76.5258],[-69.1062,18.5934,71.9748],[-69.1154,18.5961,72.4408],[-69.1297,18.5963,49.438],[-69.1417,18.5931,52.534],[-69.1468,18.5885,44.9553],[-69.1497,18.5882,28.8962],[-69.1516,18.5911,18.552],[-69.1494,18.5981,42.7514],[-69.1539,18.6063,23.0621],[-69.1559,18.6141,10.055],[-69.1741,18.6237,39.2278],[-69.1819,18.6312,55.0356],[-69.1843,18.6362,61.3305]]]]}
,"properties": {"GID_2": "DOM.27.5_1","GID_0": "DOM","country": "DominicanRepublic","GID_1": "DOM.27_1","province": "SanPedrodeMacorís","NL_NAME_1": "NA","county": "RamónSantana","VARNAME_2": "NA","NL_NAME_2": "NA","TYPE_2": "Municipio","ENGTYPE_2": "Municipality","CC_2": "NA","HASC_2": "DO.PM.RS","name": "Ramón_Santana.county","area_km2": 256.6825,"hist_schema_id": "Elevation0-9000","hist_area_km2": {"0": 33.8306,"25": 52.558,"50": 85.0948,"75": 85.1991}}}