{"type": "Feature","bbox": [-80.7586,22.7041,-80.1188,23.1546],"geometry": {"type": "MultiPolygon","coordinates": [[[[-80.7445,22.8223,43.5305],[-80.7311,22.8187,39.8852],[-80.7018,22.8147,39.791],[-80.6923,22.8093,41.2986],[-80.6771,22.7945,44.6446],[-80.6724,22.7913,45.829],[-80.6658,22.7899,49.7397],[-80.6581,22.7936,47.78],[-80.6497,22.8105,50.9953],[-80.6384,22.821,51.8807],[-80.6286,22.8268,59.3365],[-80.6162,22.8275,68.1622],[-80.6077,22.8227,73.998],[-80.6032,22.8165,71.3248],[-80.5954,22.7978,82.6945],[-80.59,22.7778,90.3582],[-80.5895,22.756,85.7846],[-80.5879,22.7504,84.3295],[-80.585,22.7461,84.4728],[-80.5796,22.742,84.8491],[-80.5598,22.7326,84.0355],[-80.5575,22.7246,81.1095],[-80.5591,22.7213,82.6162],[-80.5168,22.7434,90.8753],[-80.475,22.7446,95.3676],[-80.4624,22.7385,95.6509],[-80.4486,22.7129,79.7872],[-80.4403,22.7057,72.5491],[-80.3934,22.7041,62.7503],[-80.3825,22.7293,61.3803],[-80.3794,22.7504,68.3864],[-80.3697,22.7783,67.9607],[-80.344,22.8273,78.8063],[-80.3044,22.8825,11.1164],[-80.2887,22.9112,4.2153],[-80.2946,22.9132,1.1253],[-80.2968,22.9174,0.0],[-80.2993,22.9168,0.924],[-80.3104,22.9215,1.1512],[-80.3249,22.9346,1.6501],[-80.3337,22.9357,0.5032],[-80.3424,22.944,1.8266],[-80.3435,22.949,2.0875],[-80.3418,22.951,1.4178],[-80.3437,22.9513,1.8709],[-80.3443,22.9557,0.9479],[-80.341,22.9599,2.6666],[-80.3385,22.9582,0.2722],[-80.3349,22.9593,0.0964],[-80.3346,22.961,0.1755],[-80.3299,22.9601,0.2005],[-80.3288,22.9646,0.7333],[-80.3262,22.964,0.7781],[-80.3215,22.9665,0.7144],[-80.2926,22.9643,0.2291],[-80.2651,22.9649,0.7963],[-80.2607,22.9593,1.4114],[-80.2574,22.9574,0.139],[-80.2535,22.9574,0.4431],[-80.254,22.9546,0.0],[-80.2515,22.9526,0.0],[-80.2554,22.9496,0.0],[-80.2524,22.9404,0.785],[-80.2568,22.9376,0.0996],[-80.2582,22.9346,1.3654],[-80.2499,22.934,1.5992],[-80.2513,22.9357,1.8058],[-80.2501,22.9371,3.2716],[-80.2468,22.9374,0.4894],[-80.2474,22.9357,0.0],[-80.2457,22.9354,0.0],[-80.2454,22.9421,1.0135],[-80.2424,22.9465,0.0],[-80.2451,22.9532,0.0],[-80.2424,22.9601,0.0],[-80.241,22.9604,0.0],[-80.2412,22.959,0.0],[-80.2387,22.9574,0.0],[-80.239,22.9554,0.0],[-80.2337,22.9557,0.1757],[-80.2307,22.9538,0.2577],[-80.2301,22.9507,0.1915],[-80.2268,22.9526,0.0],[-80.2226,22.9488,0.1065],[-80.2138,22.9549,0.0],[-80.2193,22.9579,0.511],[-80.2237,22.9626,0.0],[-80.2246,22.9671,0.7152],[-80.2221,22.9793,0.2898],[-80.2171,22.9849,0.0],[-80.2118,22.9843,0.0],[-80.2096,22.9935,0.2558],[-80.2057,22.9932,0.0],[-80.204,22.9888,0.0],[-80.1974,22.986,0.5653],[-80.1921,22.9849,0.5956],[-80.1929,22.9871,0.6121],[-80.191,22.9874,0.0596],[-80.1882,22.9807,0.0],[-80.1868,22.9818,0.0],[-80.1885,22.9882,0.0],[-80.1871,22.9904,0.0],[-80.1979,22.9888,0.0],[-80.1996,22.9988,0.5069],[-80.1982,23.0018,0.0],[-80.1999,23.0021,0.2441],[-80.1996,23.004,0.0],[-80.2012,23.0024,0.2441],[-80.2038,23.0029,0.199],[-80.2007,22.9985,0.0],[-80.2065,22.9976,0.0],[-80.2082,22.9949,1.1914],[-80.2135,22.9957,0.227],[-80.2146,22.9979,0.5713],[-80.2115,22.9993,0.0],[-80.2112,23.0012,0.1232],[-80.2138,23.0024,0.5242],[-80.2101,23.0035,0.6842],[-80.2101,23.0082,0.4637],[-80.2132,23.0154,0.1581],[-80.2146,23.0146,0.8935],[-80.2151,23.0165,0.0],[-80.2174,23.0149,2.0443],[-80.219,23.0157,0.0],[-80.2204,23.0143,0.0],[-80.2174,23.0118,1.2145],[-80.2182,23.0074,0.313],[-80.2207,23.0088,0.1892],[-80.2224,23.006,0.7133],[-80.2262,23.0063,0.5034],[-80.2257,23.0049,0.0],[-80.2235,23.0051,0.5296],[-80.2246,23.0012,0.0],[-80.2199,23.0001,1.0261],[-80.2187,22.9982,0.0],[-80.2187,22.9963,0.3451],[-80.221,22.9946,0.0],[-80.2187,22.9912,0.8351],[-80.2237,22.9924,0.4261],[-80.224,22.989,0.5145],[-80.2215,22.989,0.0],[-80.2213,22.9865,0.0],[-80.2282,22.9768,0.353],[-80.2343,22.9715,0.3124],[-80.2399,22.9701,0.2167],[-80.239,22.9677,0.0],[-80.2412,22.9701,0.2149],[-80.2424,22.969,0.2149],[-80.2435,22.9721,0.0],[-80.2457,22.9682,0.0],[-80.2476,22.9688,0.0],[-80.2487,22.9713,0.0],[-80.2457,22.9732,1.2898],[-80.251,22.9757,0.8916],[-80.2515,22.9813,0.0],[-80.2549,22.9829,0.3815],[-80.2576,22.9813,0.4072],[-80.2576,22.9879,0.4391],[-80.2543,22.9888,2.0628],[-80.251,22.9865,0.0],[-80.2479,22.9888,0.4471],[-80.2479,22.986,0.0],[-80.2504,22.9851,0.0],[-80.2504,22.9832,0.0],[-80.2471,22.986,0.0],[-80.246,22.9915,0.3105],[-80.2438,22.9935,0.0],[-80.2265,22.9888,0.0],[-80.2371,22.996,0.1862],[-80.2368,23.0043,0.2808],[-80.2387,23.0076,0.0884],[-80.2401,23.0076,0.0884],[-80.2396,23.0012,0.0],[-80.2415,23.0007,0.8014],[-80.2421,23.0046,0.0],[-80.2393,23.0107,0.2194],[-80.2376,23.0079,0.0],[-80.2393,23.0118,0.2194],[-80.2382,23.0163,0.0],[-80.241,23.0165,0.0],[-80.2399,23.0146,0.0],[-80.2415,23.0135,0.1081],[-80.2407,23.0154,0.2231],[-80.2443,23.0179,0.0],[-80.2432,23.0199,0.0],[-80.2418,23.0179,0.0],[-80.2426,23.024,0.0],[-80.2438,23.0246,0.0],[-80.2443,23.0229,0.0],[-80.2454,23.0254,0.5574],[-80.244,23.0285,0.0],[-80.2476,23.031,0.0],[-80.2482,23.029,0.24],[-80.2515,23.0299,0.0847],[-80.2526,23.0287,0.2116],[-80.2526,23.026,0.6707],[-80.2482,23.024,0.0829],[-80.2462,23.0265,0.0],[-80.2476,23.0232,0.0],[-80.2449,23.0215,0.0],[-80.2485,23.0187,0.2331],[-80.2465,23.0176,0.328],[-80.2476,23.0137,1.2749],[-80.2513,23.0151,0.2921],[-80.2526,23.0124,0.5768],[-80.254,23.0129,0.0],[-80.2582,23.0101,0.4032],[-80.2582,23.0129,0.0],[-80.2604,23.0146,0.0895],[-80.2593,23.0179,0.0926],[-80.2543,23.0176,0.6969],[-80.2526,23.0151,0.2921],[-80.2499,23.0171,0.0],[-80.2543,23.0195,0.0],[-80.2582,23.0196,0.0],[-80.2596,23.0215,0.0916],[-80.2618,23.0193,0.0],[-80.2615,23.0093,0.3416],[-80.2654,23.0104,0.0],[-80.2646,23.0068,0.4268],[-80.266,23.0054,0.7599],[-80.269,23.0071,0.0],[-80.2699,23.0049,0.9446],[-80.2751,23.0054,0.5386],[-80.2743,23.0085,0.0519],[-80.2774,23.0099,0.0],[-80.2787,23.0093,0.0],[-80.2774,23.0071,0.2262],[-80.2818,23.0068,0.1838],[-80.2826,23.0085,0.2907],[-80.286,23.0088,0.0],[-80.2826,23.0043,0.1572],[-80.2878,23.0001,0.1055],[-80.2846,22.9999,0.64],[-80.2846,22.9979,1.5439],[-80.2871,22.9965,2.3478],[-80.289,22.9982,0.0],[-80.2893,22.9943,0.2626],[-80.2921,22.9918,0.6296],[-80.2949,22.9921,0.0],[-80.2954,22.9935,0.0],[-80.2899,22.9999,0.0],[-80.2946,23.0026,0.3882],[-80.2941,22.9999,0.0],[-80.2918,22.9982,0.0],[-80.2965,22.9971,0.0],[-80.2976,22.9879,0.7983],[-80.2993,22.9851,0.935],[-80.3024,22.9846,0.0],[-80.3032,22.9782,1.1313],[-80.3068,22.9796,0.6894],[-80.304,22.9818,0.6126],[-80.306,22.9835,0.4385],[-80.3037,22.9857,0.0],[-80.3046,22.9871,0.0],[-80.3126,22.9849,1.2241],[-80.3174,22.9854,0.958],[-80.3187,22.9874,0.0],[-80.3221,22.9876,0.2821],[-80.3223,22.9908,0.0],[-80.3268,22.9926,0.0],[-80.3329,22.9926,0.3738],[-80.3321,22.9851,0.501],[-80.3346,22.984,0.2356],[-80.3354,22.981,0.2685],[-80.3385,22.9807,0.0],[-80.3399,22.9779,1.1508],[-80.3446,22.9796,0.445],[-80.3499,22.976,1.3281],[-80.3376,22.9707,0.5973],[-80.3432,22.9674,1.0535],[-80.344,22.9632,0.6646],[-80.346,22.9626,1.4278],[-80.3474,22.9651,0.815],[-80.3585,22.9651,1.3857],[-80.3579,22.9693,0.0],[-80.3607,22.9674,1.6309],[-80.3599,22.9707,3.1484],[-80.3535,22.9737,0.8055],[-80.3515,22.9768,1.3281],[-80.3526,22.9804,0.8643],[-80.3576,22.9818,0.0],[-80.3587,22.9846,0.558],[-80.3651,22.9846,0.9935],[-80.3646,22.9782,0.8326],[-80.366,22.9765,1.8506],[-80.3701,22.9771,0.0],[-80.3704,22.9757,0.0],[-80.3693,22.971,1.6265],[-80.3654,22.9676,2.9921],[-80.3654,22.9651,2.4168],[-80.3582,22.961,0.0],[-80.3604,22.9576,0.3006],[-80.3657,22.9585,1.6057],[-80.3674,22.9557,0.0],[-80.3665,22.9518,0.0],[-80.3632,22.9499,2.0926],[-80.3629,22.9471,1.3705],[-80.3604,22.9468,0.0],[-80.3599,22.9438,1.7099],[-80.3618,22.9418,0.3522],[-80.3654,22.9421,0.0],[-80.3668,22.9382,0.6344],[-80.3721,22.9363,1.1711],[-80.384,22.936,0.7305],[-80.3893,22.9385,1.7784],[-80.3979,22.9376,0.7516],[-80.4132,22.9421,0.0],[-80.4168,22.9449,0.138],[-80.4268,22.9474,0.5348],[-80.4362,22.9518,1.1594],[-80.4413,22.9524,0.0],[-80.4479,22.9571,0.0],[-80.4538,22.9579,1.0604],[-80.4574,22.961,1.5938],[-80.4624,22.9732,0.0],[-80.466,22.9765,0.6487],[-80.471,22.9768,0.0],[-80.481,22.9826,0.0],[-80.4846,22.9868,0.3388],[-80.4929,22.9871,0.0],[-80.4987,22.9835,2.6683],[-80.5074,22.9835,1.0338],[-80.5151,22.9871,0.0],[-80.5215,22.9851,2.1858],[-80.5324,22.9865,2.0284],[-80.5382,22.9924,0.6318],[-80.5454,23.0079,1.1708],[-80.5521,23.0171,1.6666],[-80.5518,23.021,0.7692],[-80.5557,23.0257,1.3677],[-80.5568,23.0332,0.3894],[-80.5704,23.0401,0.6354],[-80.5771,23.0385,2.257],[-80.5832,23.041,0.7747],[-80.584,23.0435,0.0],[-80.5868,23.0432,3.7118],[-80.5899,23.0482,3.0147],[-80.5876,23.0537,2.7311],[-80.5924,23.0551,2.0833],[-80.5935,23.0603,0.0],[-80.6245,23.0545,6.5415],[-80.6309,23.0523,10.0518],[-80.6389,23.0457,10.9515],[-80.641,23.0421,7.5731],[-80.6431,23.0238,11.8755],[-80.637,22.9959,19.827],[-80.6374,22.985,26.7847],[-80.641,22.9637,35.1941],[-80.6474,22.9574,33.3018],[-80.6616,22.9513,35.262],[-80.678,22.9499,55.4843],[-80.7252,22.9586,24.1591],[-80.7308,22.9576,19.2885],[-80.7357,22.9543,22.591],[-80.7386,22.9475,23.4174],[-80.7385,22.9389,32.5059],[-80.726,22.9087,36.5802],[-80.721,22.8914,46.8373],[-80.7233,22.8828,40.9861],[-80.7344,22.8747,37.8413],[-80.756,22.8667,32.123],[-80.7581,22.8634,30.2557],[-80.7586,22.8563,31.221],[-80.7545,22.8405,34.3464],[-80.7445,22.8223,43.5305]]],
[[[-80.4315,22.9765,0.8354],[-80.4335,22.9788,0.0],[-80.4354,22.9721,1.3443],[-80.4274,22.974,0.0],[-80.4315,22.9765,0.8354]]],
[[[-80.4104,22.9804,0.2847],[-80.4115,22.9818,0.0],[-80.4126,22.9782,0.0],[-80.4099,22.9782,0.0],[-80.4104,22.9804,0.2847]]],
[[[-80.4143,23.0196,1.2704],[-80.4165,23.0207,0.0],[-80.4199,23.0151,0.318],[-80.4251,23.0151,1.4737],[-80.4232,23.0082,0.0],[-80.4182,23.0093,0.6745],[-80.4118,23.0165,3.7946],[-80.4101,23.016,1.2213],[-80.4096,23.0182,1.3267],[-80.4143,23.0196,1.2704]]],
[[[-80.3804,22.9776,0.0],[-80.381,22.9799,0.6608],[-80.3838,22.9804,0.6344],[-80.3885,22.9737,0.0],[-80.3829,22.9732,1.0545],[-80.3804,22.9776,0.0]]],
[[[-80.3299,22.9974,0.0],[-80.3324,22.9985,2.2214],[-80.334,22.9965,0.0],[-80.3318,22.9949,0.791],[-80.3299,22.9974,0.0]]],
[[[-80.3346,22.9999,0.9856],[-80.3393,23.0004,1.7786],[-80.3421,22.9968,0.0],[-80.3351,22.9985,0.2406],[-80.3346,22.9999,0.9856]]],
[[[-80.356,23.001,0.9059],[-80.3579,23.0029,0.0],[-80.3637,23.0004,1.452],[-80.3635,22.9971,0.967],[-80.3599,22.9946,0.0],[-80.3596,22.9971,0.9339],[-80.3546,22.9982,0.5921],[-80.356,23.001,0.9059]]],
[[[-80.3699,23.0063,0.0],[-80.3679,23.0065,0.0],[-80.3674,23.0079,0.1876],[-80.369,23.0079,0.9924],[-80.3699,23.0063,0.0]]],
[[[-80.3693,23.0088,0.0],[-80.374,23.0096,0.0887],[-80.374,23.0079,0.7717],[-80.3707,23.0074,1.16],[-80.3693,23.0088,0.0]]],
[[[-80.3807,23.0143,0.3325],[-80.3879,23.0146,0.174],[-80.3893,23.011,0.4206],[-80.3854,23.0099,0.0],[-80.384,23.0121,2.6405],[-80.3846,23.0101,0.0],[-80.3829,23.0099,0.0],[-80.3796,23.0113,0.3077],[-80.3763,23.0079,0.0],[-80.376,23.0113,0.7955],[-80.3782,23.0113,2.0203],[-80.3807,23.0143,0.3325]]],
[[[-80.3435,23.0176,0.0],[-80.3443,23.0193,0.0],[-80.3463,23.0187,0.7327],[-80.344,23.014,0.0],[-80.3443,23.0104,0.0],[-80.3329,23.0129,0.0],[-80.3399,23.0146,0.4393],[-80.3435,23.0176,0.0]]],
[[[-80.3229,23.0224,0.5803],[-80.3207,23.0229,0.0],[-80.3213,23.0249,0.2633],[-80.3232,23.0249,0.0],[-80.3246,23.0218,0.0],[-80.3229,23.0224,0.5803]]],
[[[-80.3415,23.0238,0.3764],[-80.3407,23.0263,0.5213],[-80.3437,23.0263,0.0],[-80.3432,23.0238,0.3764],[-80.3415,23.0238,0.3764]]],
[[[-80.3174,23.0382,0.5672],[-80.3176,23.0421,0.0],[-80.3265,23.0407,0.0],[-80.3262,23.0399,0.0],[-80.3235,23.039,0.0],[-80.3204,23.0393,2.872],[-80.3199,23.0357,0.7128],[-80.3174,23.0382,0.5672]]],
[[[-80.3385,23.0446,0.5943],[-80.3404,23.0457,0.0],[-80.3371,23.0399,0.7367],[-80.3329,23.0401,0.0],[-80.3371,23.044,0.0],[-80.3385,23.0446,0.5943]]],
[[[-80.2526,22.9235,0.2089],[-80.2526,22.9254,0.5538],[-80.2557,22.9246,0.5919],[-80.2549,22.9232,2.0889],[-80.2526,22.9235,0.2089]]],
[[[-80.2396,22.934,0.3287],[-80.2393,22.9354,0.3287],[-80.2421,22.9349,0.6251],[-80.2451,22.931,0.0],[-80.2401,22.9301,0.0],[-80.2421,22.9329,0.2272],[-80.2396,22.9318,0.0],[-80.2396,22.934,0.3287]]],
[[[-80.2665,23.0101,0.0],[-80.2699,23.0113,0.0],[-80.2704,23.0076,0.0],[-80.2663,23.0093,0.0],[-80.2665,23.0101,0.0]]],
[[[-80.2651,23.0124,0.333],[-80.2649,23.0149,0.1789],[-80.2671,23.0149,0.1976],[-80.2682,23.0121,0.1712],[-80.2651,23.0124,0.333]]],
[[[-80.3068,22.989,0.1257],[-80.3082,22.991,0.0],[-80.3093,22.9882,0.0],[-80.3085,22.9876,0.0],[-80.3068,22.989,0.1257]]],
[[[-80.2982,23.0029,0.4323],[-80.3001,23.0046,0.5771],[-80.3007,22.9988,0.5813],[-80.298,22.9999,0.0],[-80.2982,23.0029,0.4323]]],
[[[-80.2901,23.0029,1.0053],[-80.2907,23.0043,0.0],[-80.2926,23.0021,0.0],[-80.2915,23.0018,0.1536],[-80.2901,23.0029,1.0053]]],
[[[-80.2882,23.0068,0.0],[-80.294,23.0065,0.2416],[-80.294,23.0038,0.1506],[-80.2929,23.0032,0.0],[-80.2915,23.006,0.0],[-80.2857,23.0051,0.0],[-80.2862,23.0074,0.0],[-80.2882,23.0068,0.0]]],
[[[-80.2421,23.0332,0.0],[-80.2438,23.0349,0.0],[-80.2443,23.031,0.0],[-80.2421,23.0318,0.0],[-80.2404,23.0285,0.0],[-80.2401,23.0318,0.0],[-80.2421,23.0332,0.0]]],
[[[-80.2685,23.0465,0.0],[-80.2679,23.0488,0.0],[-80.269,23.049,0.0],[-80.2707,23.046,0.0],[-80.2685,23.0465,0.0]]],
[[[-80.2782,23.0504,0.0],[-80.281,23.0521,0.0],[-80.281,23.0462,0.8146],[-80.2832,23.0451,0.0],[-80.2796,23.046,0.0],[-80.2782,23.0504,0.0]]],
[[[-80.2429,23.0632,1.5968],[-80.2438,23.0646,0.0],[-80.2487,23.0637,0.5342],[-80.2471,23.061,0.4571],[-80.2493,23.0599,0.0],[-80.2471,23.0588,0.3748],[-80.2468,23.0568,0.7343],[-80.2493,23.054,0.0],[-80.2443,23.0485,0.361],[-80.2415,23.0476,0.0],[-80.2412,23.0504,0.0],[-80.2446,23.0554,0.0],[-80.241,23.056,0.0],[-80.2429,23.0632,1.5968]]],
[[[-80.2896,23.0146,0.5461],[-80.289,23.0165,1.2043],[-80.2918,23.0168,3.208],[-80.2918,23.016,3.208],[-80.2896,23.0146,0.5461]]],
[[[-80.3051,23.0549,0.0],[-80.3054,23.0568,0.0],[-80.3071,23.0574,0.0],[-80.3065,23.0551,0.0],[-80.3051,23.0549,0.0]]],
[[[-80.3146,23.0613,0.0],[-80.3143,23.0637,0.0],[-80.3151,23.0643,0.0],[-80.3151,23.0604,0.0],[-80.3146,23.0613,0.0]]],
[[[-80.2907,23.0799,2.8912],[-80.2921,23.0824,0.0],[-80.2962,23.0729,2.3701],[-80.2854,23.0696,0.0],[-80.2849,23.0738,0.0],[-80.2899,23.0721,1.1154],[-80.291,23.0757,1.1571],[-80.2913,23.074,1.1213],[-80.2932,23.0749,2.9837],[-80.2929,23.0771,4.2507],[-80.2901,23.0763,1.1571],[-80.2907,23.0799,2.8912]]],
[[[-80.4596,23.0318,0.571],[-80.4604,23.0301,0.0],[-80.4565,23.034,0.0],[-80.459,23.0329,0.0],[-80.4596,23.0318,0.571]]],
[[[-80.3938,23.0549,1.0252],[-80.3938,23.0565,1.4062],[-80.3954,23.0565,0.0],[-80.3968,23.0526,0.8709],[-80.3949,23.0526,0.0],[-80.3938,23.0549,1.0252]]],
[[[-80.4168,23.0696,0.0],[-80.4176,23.0735,0.0],[-80.4165,23.0743,0.0],[-80.4182,23.0743,0.0],[-80.4196,23.0699,1.844],[-80.4232,23.0685,0.0],[-80.4179,23.0663,0.0],[-80.4168,23.0696,0.0]]],
[[[-80.4007,23.0829,0.0],[-80.3996,23.0846,0.6926],[-80.4065,23.0835,2.0014],[-80.4085,23.0788,2.0872],[-80.4132,23.0774,0.4007],[-80.4135,23.076,0.6829],[-80.4026,23.0804,0.0],[-80.4007,23.0829,0.0]]],
[[[-80.3668,23.0454,0.0],[-80.3671,23.0474,0.0],[-80.3688,23.0474,0.0],[-80.3715,23.0443,1.2086],[-80.3693,23.044,2.0712],[-80.3668,23.0454,0.0]]],
[[[-80.3532,23.0526,0.141],[-80.3546,23.0537,0.2335],[-80.3546,23.0493,0.0],[-80.3499,23.0488,1.4964],[-80.3515,23.0518,0.1949],[-80.3532,23.0526,0.141]]],
[[[-80.3557,23.0685,0.7618],[-80.3576,23.0699,1.9384],[-80.3587,23.0671,0.0],[-80.3501,23.0624,0.0],[-80.3499,23.0593,0.0],[-80.3538,23.0585,0.7809],[-80.3546,23.0568,0.0],[-80.3526,23.0546,0.0],[-80.3432,23.0626,0.0],[-80.3471,23.0629,0.5652],[-80.3557,23.0685,0.7618]]],
[[[-80.3196,23.0851,0.0],[-80.3193,23.0868,1.2189],[-80.3232,23.0846,3.7709],[-80.3268,23.0868,1.325],[-80.3262,23.0835,1.5512],[-80.329,23.0785,0.0],[-80.3229,23.0796,0.0],[-80.3196,23.0851,0.0]]],
[[[-80.3838,23.1021,0.0],[-80.3846,23.1049,0.0],[-80.3887,23.1029,0.8702],[-80.3863,23.0976,2.7705],[-80.3882,23.096,1.765],[-80.3885,23.0926,1.4865],[-80.391,23.0915,0.0],[-80.3904,23.0899,0.0],[-80.381,23.0957,1.1663],[-80.3807,23.0999,4.2994],[-80.3838,23.1021,0.0]]],
[[[-80.4721,23.1032,1.1575],[-80.4732,23.1057,0.0],[-80.4779,23.1038,0.0],[-80.4765,23.1021,3.6571],[-80.4771,23.0999,2.963],[-80.4729,23.0957,0.9365],[-80.4662,23.0963,0.0],[-80.4643,23.0979,1.1883],[-80.4668,23.1015,0.0],[-80.4693,23.1018,1.211],[-80.4707,23.1001,2.1449],[-80.4721,23.1032,1.1575]]],
[[[-80.4104,23.1035,1.7862],[-80.4129,23.1038,0.0],[-80.4118,23.1004,0.0],[-80.4085,23.1024,0.0],[-80.4104,23.1035,1.7862]]],
[[[-80.479,23.1035,1.1158],[-80.4793,23.1057,0.0],[-80.481,23.1063,0.0],[-80.4812,23.1038,2.7424],[-80.479,23.1035,1.1158]]],
[[[-80.364,23.1121,0.0],[-80.3671,23.1135,0.9267],[-80.3763,23.1099,0.757],[-80.3796,23.1104,1.029],[-80.3843,23.1085,0.5937],[-80.3846,23.1071,0.5937],[-80.3804,23.1051,0.0],[-80.3724,23.1054,0.0],[-80.366,23.1079,0.0],[-80.364,23.1121,0.0]]],
[[[-80.354,23.1365,3.4384],[-80.3562,23.1371,2.0856],[-80.356,23.139,0.9294],[-80.3613,23.1374,0.9612],[-80.3599,23.1296,1.6438],[-80.3582,23.1282,0.0],[-80.3557,23.1288,0.0],[-80.3529,23.1321,1.7115],[-80.354,23.1365,3.4384]]],
[[[-80.2482,23.0868,0.0],[-80.2513,23.0879,0.0],[-80.2543,23.0779,1.1638],[-80.2601,23.0757,2.151],[-80.2601,23.074,0.5966],[-80.2549,23.0715,1.7302],[-80.2526,23.0679,1.6815],[-80.2504,23.0682,0.0],[-80.2474,23.0732,1.7451],[-80.244,23.0738,0.5649],[-80.2449,23.0751,1.7014],[-80.2518,23.0746,2.2221],[-80.2462,23.0768,0.0],[-80.2454,23.0804,0.2193],[-80.2482,23.0799,0.0],[-80.2479,23.0815,0.7264],[-80.246,23.081,0.922],[-80.2418,23.084,0.2452],[-80.2482,23.0868,0.0]]],
[[[-80.2401,23.1001,0.0],[-80.241,23.1024,0.0],[-80.2432,23.1013,0.0],[-80.2412,23.0996,0.0],[-80.2401,23.1001,0.0]]],
[[[-80.2585,23.1249,0.5893],[-80.2618,23.126,0.0],[-80.2618,23.1243,0.0],[-80.2649,23.1243,0.0],[-80.2624,23.1212,0.759],[-80.2649,23.1157,1.5068],[-80.2668,23.1149,0.0],[-80.2663,23.114,0.0],[-80.2641,23.1151,0.0],[-80.264,23.1138,0.0],[-80.2665,23.1126,0.0],[-80.266,23.1107,0.6851],[-80.2679,23.1087,0.0],[-80.2665,23.1079,0.0],[-80.2646,23.1099,0.0],[-80.2613,23.1154,1.1232],[-80.2613,23.1074,0.5502],[-80.2654,23.1076,0.0],[-80.2674,23.1049,1.6279],[-80.2643,23.0996,0.1771],[-80.2613,23.0999,1.5739],[-80.2613,23.0974,0.0],[-80.2582,23.0954,0.4096],[-80.2599,23.0912,0.3316],[-80.2535,23.0899,0.0],[-80.2513,23.0912,0.5514],[-80.2493,23.0888,0.0],[-80.2401,23.0854,0.0],[-80.2357,23.0868,0.0],[-80.2335,23.0924,0.0],[-80.234,23.0985,0.0],[-80.2385,23.0943,0.0],[-80.2401,23.0982,0.0],[-80.2493,23.0949,0.2491],[-80.2482,23.099,1.6255],[-80.2443,23.099,0.0],[-80.2457,23.1032,0.7326],[-80.2432,23.1026,0.6657],[-80.2415,23.1082,1.5818],[-80.2443,23.1121,0.0],[-80.2474,23.1135,5.7496],[-80.2479,23.1165,3.0981],[-80.2496,23.1154,2.3787],[-80.2529,23.1162,0.0],[-80.2507,23.1188,0.0],[-80.2585,23.1249,0.5893]]],
[[[-80.2693,23.1132,0.0],[-80.2701,23.1168,1.4871],[-80.2715,23.1168,1.4871],[-80.2735,23.1135,0.8513],[-80.2718,23.1093,0.0],[-80.2746,23.106,0.0],[-80.2754,23.1068,0.0],[-80.2732,23.1101,0.0],[-80.2749,23.1126,0.0],[-80.2768,23.1124,0.3495],[-80.2777,23.1101,0.0],[-80.279,23.1115,0.0],[-80.2804,23.109,0.0],[-80.2757,23.104,0.0],[-80.2685,23.1024,0.0],[-80.2707,23.104,1.1924],[-80.2679,23.1101,0.0],[-80.2696,23.1104,1.1284],[-80.271,23.1085,1.0131],[-80.2693,23.1132,0.0]]],
[[[-80.2904,23.0846,0.0],[-80.2899,23.0857,0.0],[-80.2949,23.0851,0.0],[-80.2926,23.0843,0.5313],[-80.2904,23.0846,0.0]]],
[[[-80.2829,23.0896,0.2618],[-80.2843,23.091,0.9127],[-80.2868,23.0904,4.0127],[-80.2893,23.0885,0.0],[-80.2896,23.0863,0.0],[-80.2849,23.0838,0.8523],[-80.281,23.0868,0.0],[-80.281,23.0879,0.4051],[-80.2835,23.0874,0.6071],[-80.2829,23.0896,0.2618]]],
[[[-80.3018,23.1138,0.0],[-80.3035,23.1151,0.8689],[-80.3032,23.1104,0.0],[-80.301,23.111,0.9466],[-80.3018,23.1138,0.0]]],
[[[-80.3104,23.1363,0.0],[-80.3107,23.1379,1.5537],[-80.3299,23.1368,0.7768],[-80.331,23.1271,4.7869],[-80.3324,23.1268,0.0],[-80.3335,23.1215,0.0],[-80.3324,23.1196,2.1267],[-80.3301,23.1246,1.4931],[-80.3279,23.1226,0.9046],[-80.3251,23.1238,3.8548],[-80.3249,23.119,1.0929],[-80.3176,23.1151,0.0],[-80.3168,23.1171,0.6191],[-80.3221,23.1207,1.6531],[-80.3187,23.1199,0.0],[-80.3165,23.1218,0.5609],[-80.3157,23.1174,0.0],[-80.3132,23.116,0.0],[-80.3104,23.1101,0.0],[-80.3076,23.1079,1.0686],[-80.3051,23.1126,3.9362],[-80.3087,23.1212,3.961],[-80.3079,23.1246,0.5172],[-80.3129,23.1279,0.0],[-80.3121,23.1293,0.875],[-80.3107,23.1276,0.0],[-80.3082,23.1282,0.0],[-80.3107,23.1304,0.875],[-80.309,23.1338,0.0],[-80.3118,23.1321,0.0],[-80.3104,23.1363,0.0]]],
[[[-80.2651,23.1318,0.4812],[-80.2668,23.1329,0.7653],[-80.2763,23.1293,0.769],[-80.2776,23.1262,2.1301],[-80.2804,23.1268,0.0],[-80.2824,23.1254,0.0],[-80.2843,23.1215,1.6176],[-80.2871,23.1224,1.0309],[-80.2835,23.1249,0.0],[-80.2854,23.1243,1.0367],[-80.2866,23.1262,0.4587],[-80.289,23.1262,0.0],[-80.2901,23.1229,0.0],[-80.2926,23.1215,0.8826],[-80.2893,23.1176,0.9412],[-80.2913,23.1138,0.8814],[-80.296,23.1104,0.0],[-80.296,23.1087,0.0],[-80.2946,23.1082,0.0],[-80.2932,23.1107,1.5677],[-80.2924,23.1076,0.252],[-80.2874,23.106,0.0],[-80.2887,23.1093,0.0],[-80.2838,23.1113,2.1999],[-80.2835,23.109,1.6102],[-80.2821,23.1126,1.1646],[-80.2782,23.1138,0.0],[-80.2782,23.1154,0.0],[-80.274,23.1154,0.0],[-80.2712,23.1179,0.0],[-80.2704,23.1226,2.5021],[-80.266,23.1262,1.7797],[-80.2651,23.1318,0.4812]]],
[[[-80.2643,23.1215,0.3743],[-80.2657,23.1232,0.0],[-80.2688,23.1229,0.0],[-80.2699,23.1218,1.8427],[-80.269,23.1179,0.0],[-80.2654,23.119,0.0],[-80.2643,23.1215,0.3743]]],
[[[-80.2529,23.1293,0.0],[-80.2551,23.1313,0.0],[-80.2568,23.1282,0.0],[-80.2546,23.1274,0.8975],[-80.2529,23.1293,0.0]]],
[[[-80.276,23.131,0.3092],[-80.2768,23.1326,0.0],[-80.2787,23.1299,1.3567],[-80.2826,23.1318,0.0],[-80.2843,23.1301,0.0],[-80.2787,23.1276,0.0],[-80.276,23.131,0.3092]]],
[[[-80.3018,23.1262,0.742],[-80.3029,23.1285,0.1916],[-80.3046,23.1254,0.0],[-80.304,23.1235,0.0],[-80.3021,23.1238,0.5659],[-80.3024,23.1199,0.0],[-80.2993,23.1207,0.0],[-80.2996,23.1268,0.0],[-80.3018,23.1262,0.742]]],
[[[-80.2851,23.1279,0.0],[-80.2885,23.1285,0.0],[-80.2857,23.1265,0.0],[-80.2824,23.1271,0.0],[-80.2851,23.1279,0.0]]],
[[[-80.304,23.1288,0.0],[-80.3046,23.1315,0.0],[-80.3068,23.1307,0.0],[-80.3063,23.1282,0.0],[-80.304,23.1288,0.0]]],
[[[-80.2976,23.1351,0.0],[-80.2957,23.136,0.0],[-80.2949,23.1393,0.9494],[-80.3074,23.1365,0.0],[-80.3079,23.1343,0.0],[-80.3063,23.1318,0.0],[-80.301,23.134,0.8797],[-80.299,23.1371,2.0253],[-80.2974,23.1374,1.4405],[-80.2974,23.1368,0.0],[-80.2985,23.1368,0.7409],[-80.2976,23.1351,0.0]]],
[[[-80.2226,23.0396,0.0923],[-80.2274,23.0404,0.0],[-80.2268,23.0371,0.0],[-80.2215,23.0354,0.0713],[-80.2221,23.0329,0.1103],[-80.2174,23.029,0.4384],[-80.2207,23.0221,0.0],[-80.2232,23.0196,0.354],[-80.2315,23.0185,1.4336],[-80.236,23.0204,0.0],[-80.2374,23.0185,0.2228],[-80.2401,23.0207,0.0],[-80.2385,23.0171,0.2228],[-80.2312,23.016,0.0],[-80.2315,23.0174,1.4336],[-80.2282,23.0171,1.6459],[-80.2251,23.0154,0.0],[-80.2237,23.0185,0.1215],[-80.2243,23.0149,0.0],[-80.2226,23.014,0.5316],[-80.2215,23.0146,0.0],[-80.2224,23.0182,0.1215],[-80.219,23.0187,0.0],[-80.2179,23.0163,0.0],[-80.2138,23.0182,0.7772],[-80.2104,23.0124,0.0],[-80.2076,23.0115,0.2971],[-80.2068,23.0079,0.0],[-80.2032,23.0104,0.0],[-80.196,23.0113,0.3746],[-80.1965,23.009,0.3065],[-80.1951,23.0076,0.5176],[-80.1963,23.006,0.0],[-80.1937,23.0043,0.0],[-80.1924,23.0051,0.0],[-80.1932,23.0068,0.0],[-80.1907,23.004,0.0],[-80.1907,23.0065,0.0],[-80.186,23.0079,0.7618],[-80.1832,23.0076,0.3645],[-80.1865,23.006,0.7082],[-80.1857,23.004,0.5288],[-80.1826,23.0046,0.981],[-80.1813,23.0029,0.0],[-80.1801,23.0051,0.5203],[-80.1782,23.0049,0.5984],[-80.1785,23.0015,1.0661],[-80.1826,23.0004,0.0],[-80.1807,22.9918,0.0],[-80.1785,22.9896,0.4285],[-80.179,22.986,0.0],[-80.1818,22.9821,0.0],[-80.1857,22.9815,0.0],[-80.1857,22.9796,0.0],[-80.1799,22.9771,0.6369],[-80.176,22.9782,0.9499],[-80.1746,22.9746,2.2635],[-80.1757,22.9713,0.0],[-80.1735,22.9696,0.0],[-80.1715,22.9713,0.301],[-80.1687,22.9701,0.3626],[-80.1687,22.9682,0.0],[-80.1637,22.9699,2.0495],[-80.1629,22.9674,1.637],[-80.1543,22.9643,0.5062],[-80.1446,22.9707,1.6233],[-80.1404,22.9699,0.0],[-80.139,22.9674,0.0],[-80.136,22.9699,0.7744],[-80.1363,22.9749,0.2078],[-80.1407,22.9765,0.99],[-80.1418,22.9793,0.0],[-80.149,22.9801,0.3304],[-80.1479,22.9832,0.0],[-80.1537,22.9829,2.4335],[-80.154,22.9849,0.0],[-80.1579,22.9865,0.5789],[-80.1568,22.9907,0.2863],[-80.1588,22.9949,0.7564],[-80.1679,22.9943,0.9274],[-80.1685,22.9963,0.0],[-80.1663,22.9982,1.3896],[-80.1687,23.001,0.8397],[-80.1718,23.0001,0.0],[-80.1715,23.0024,0.0],[-80.1765,23.0024,0.6728],[-80.1738,23.0038,0.7373],[-80.1729,23.0082,1.1245],[-80.1712,23.0085,0.0],[-80.1762,23.0168,0.2169],[-80.1829,23.011,0.6742],[-80.186,23.0096,0.2909],[-80.1879,23.0104,0.2104],[-80.1885,23.0082,0.2845],[-80.1918,23.0101,0.0],[-80.1935,23.0076,0.5176],[-80.1946,23.0118,0.0],[-80.2015,23.0163,0.0956],[-80.2029,23.0157,0.0],[-80.2029,23.0132,0.7032],[-80.2043,23.0133,0.1235],[-80.2043,23.0168,0.0],[-80.2087,23.016,0.0],[-80.209,23.0146,0.0],[-80.2065,23.014,0.3038],[-80.206,23.0124,0.0],[-80.209,23.0126,0.0],[-80.2115,23.0154,0.0952],[-80.2115,23.0187,0.0],[-80.2146,23.0215,0.5184],[-80.2107,23.0218,0.0],[-80.209,23.0254,0.0],[-80.2071,23.026,0.0],[-80.2079,23.0304,0.7635],[-80.2063,23.031,0.813],[-80.2051,23.029,0.7292],[-80.2032,23.0293,1.4997],[-80.1988,23.0263,1.1452],[-80.1971,23.0215,0.0],[-80.1929,23.024,0.0],[-80.1932,23.0257,0.0],[-80.1951,23.0238,0.9852],[-80.1968,23.0251,0.2163],[-80.1937,23.029,0.2014],[-80.1951,23.0296,0.2014],[-80.1968,23.0274,1.0377],[-80.1982,23.0301,0.0],[-80.201,23.0301,1.3226],[-80.2012,23.0326,0.0986],[-80.204,23.0346,0.0731],[-80.2082,23.0343,1.2375],[-80.2101,23.0365,0.4906],[-80.2085,23.0396,0.0],[-80.2129,23.0376,0.0],[-80.2168,23.0388,0.0],[-80.2176,23.0407,0.0],[-80.216,23.0446,0.0],[-80.221,23.0426,0.0],[-80.2229,23.0446,0.1646],[-80.2232,23.0424,0.0],[-80.2215,23.0415,0.0],[-80.2226,23.0396,0.0923]]],
[[[-80.1826,23.0193,0.0],[-80.1874,23.0199,0.1422],[-80.1904,23.0163,0.4449],[-80.1918,23.0168,0.0],[-80.191,23.0193,0.0],[-80.1935,23.0179,0.2787],[-80.1968,23.0185,0.0],[-80.1976,23.0157,0.0],[-80.1921,23.0107,0.2018],[-80.1904,23.0124,0.0],[-80.1924,23.0121,0.8277],[-80.1929,23.0157,0.0],[-80.1907,23.0154,0.2371],[-80.1913,23.0135,0.8277],[-80.1882,23.0118,0.0],[-80.1871,23.014,0.5116],[-80.1837,23.0124,0.2057],[-80.1815,23.0146,0.0],[-80.1837,23.0157,0.1341],[-80.1826,23.0193,0.0]]],
[[[-80.1901,23.0213,0.2669],[-80.1885,23.0207,0.1241],[-80.1868,23.0226,0.0],[-80.1896,23.0218,0.2669],[-80.1901,23.0213,0.2669]]],
[[[-80.1637,23.0263,0.7791],[-80.1663,23.0274,0.3368],[-80.1682,23.0254,0.0],[-80.1646,23.0249,0.0],[-80.1637,23.0263,0.7791]]],
[[[-80.2065,23.0004,0.0],[-80.204,23.0041,0.0],[-80.2071,23.0035,0.26],[-80.2074,22.9996,0.0],[-80.2065,23.0004,0.0]]],
[[[-80.2221,23.0113,0.3285],[-80.2237,23.0137,0.0],[-80.2285,23.0132,0.0],[-80.2262,23.0104,0.0],[-80.221,23.0099,0.1892],[-80.2207,23.0113,0.3285],[-80.2221,23.0113,0.3285]]],
[[[-80.2301,23.0137,0.0],[-80.2299,23.0146,0.0],[-80.2335,23.0154,0.0],[-80.2332,23.0143,0.0],[-80.2301,23.0137,0.0]]],
[[[-80.1985,23.0187,0.0],[-80.201,23.0201,0.3223],[-80.2026,23.0185,0.0],[-80.1982,23.0176,0.0],[-80.1985,23.0187,0.0]]],
[[[-80.2371,23.0232,0.2419],[-80.2379,23.0257,0.0],[-80.2396,23.0257,0.0],[-80.2379,23.0218,0.0],[-80.2357,23.021,0.1098],[-80.2371,23.0232,0.2419]]],
[[[-80.226,23.0326,0.0],[-80.2288,23.0343,0.0],[-80.2326,23.0321,0.0],[-80.2307,23.0293,0.0],[-80.2301,23.0326,0.0],[-80.2279,23.0307,0.0],[-80.226,23.0326,0.0]]],
[[[-80.1996,23.0362,0.0],[-80.1999,23.0404,0.1418],[-80.2015,23.0404,0.1418],[-80.2018,23.0362,0.0],[-80.1996,23.0362,0.0]]],
[[[-80.231,23.0382,0.3387],[-80.2296,23.039,0.0],[-80.2321,23.0396,0.0],[-80.2332,23.0371,0.1593],[-80.231,23.0365,0.0],[-80.231,23.0382,0.3387]]],
[[[-80.1735,23.0407,0.4159],[-80.1746,23.0421,0.8124],[-80.1774,23.0412,0.2193],[-80.176,23.0382,0.0],[-80.1726,23.0371,0.0],[-80.1735,23.0407,0.4159]]],
[[[-80.1963,23.0404,0.0],[-80.1954,23.0415,0.135],[-80.1982,23.0418,0.0],[-80.1988,23.0396,0.0],[-80.1963,23.0399,0.0],[-80.1963,23.0404,0.0]]],
[[[-80.1904,23.0446,0.6892],[-80.1935,23.0465,0.0],[-80.1924,23.0426,0.0],[-80.1907,23.0426,0.5016],[-80.1904,23.0446,0.6892]]],
[[[-80.199,23.0479,2.9316],[-80.1985,23.046,0.0],[-80.1971,23.0488,0.0],[-80.1988,23.0485,2.9316],[-80.199,23.0479,2.9316]]],
[[[-80.1982,23.0518,0.4898],[-80.1974,23.0535,0.0],[-80.1985,23.0537,5.0737],[-80.2004,23.0513,0.0],[-80.1988,23.051,0.4898],[-80.1982,23.0518,0.4898]]],
[[[-80.1804,23.0529,0.0],[-80.1796,23.0554,0.4147],[-80.1849,23.0537,0.0],[-80.1815,23.0524,0.1853],[-80.1804,23.0529,0.0]]],
[[[-80.1879,23.0557,0.0],[-80.1918,23.0568,0.0],[-80.1929,23.0546,0.0],[-80.1913,23.0513,0.0],[-80.1882,23.0518,0.344],[-80.1879,23.0557,0.0]]],
[[[-80.1732,23.0629,1.6075],[-80.1754,23.064,0.5241],[-80.176,23.0618,0.0],[-80.1732,23.0604,0.0],[-80.1721,23.0635,0.6543],[-80.1732,23.0629,1.6075]]],
[[[-80.2021,23.0426,0.0],[-80.2043,23.0451,0.0],[-80.204,23.0399,0.0],[-80.2012,23.0412,0.0],[-80.2021,23.0426,0.0]]],
[[[-80.2049,23.0435,0.0],[-80.206,23.0454,0.0],[-80.2085,23.0451,0.0],[-80.2068,23.0424,0.1162],[-80.2049,23.0435,0.0]]],
[[[-80.2299,23.0412,0.0],[-80.2274,23.0404,0.0],[-80.226,23.0432,0.0],[-80.2282,23.0446,0.1822],[-80.231,23.0535,1.7945],[-80.2349,23.0521,0.0],[-80.2346,23.0507,0.0],[-80.2324,23.0507,0.5959],[-80.2326,23.0493,0.026],[-80.2401,23.0485,0.2488],[-80.2415,23.0465,0.1428],[-80.2407,23.0438,0.0],[-80.2429,23.0432,0.0],[-80.2401,23.0407,0.3116],[-80.2379,23.041,0.1443],[-80.2371,23.0435,0.1324],[-80.2329,23.0435,0.0],[-80.2318,23.0412,0.087],[-80.2299,23.0412,0.0]]],
[[[-80.2288,23.0857,0.5463],[-80.2307,23.0868,0.4735],[-80.2288,23.0832,1.9065],[-80.2318,23.0857,0.4735],[-80.2354,23.0851,0.3357],[-80.2443,23.0788,0.489],[-80.2446,23.0763,2.429],[-80.2421,23.0754,1.1297],[-80.2424,23.0715,0.0],[-80.2454,23.0696,0.0],[-80.2462,23.066,0.3795],[-80.239,23.0643,0.4794],[-80.2412,23.0679,0.0],[-80.2363,23.0693,0.0],[-80.2363,23.0707,0.0],[-80.2396,23.0707,0.0],[-80.2412,23.0726,1.1664],[-80.2399,23.0726,0.0],[-80.2401,23.0746,0.0],[-80.2371,23.0746,0.0],[-80.2371,23.0732,0.0],[-80.234,23.0724,0.0],[-80.2326,23.0815,0.3716],[-80.2299,23.0749,0.2426],[-80.2268,23.0746,0.6972],[-80.2279,23.0776,0.6688],[-80.2299,23.0776,1.221],[-80.2296,23.0793,1.0509],[-80.2257,23.0779,0.6619],[-80.2246,23.079,0.0],[-80.2268,23.0801,1.5712],[-80.2288,23.0857,0.5463]]],
[[[-80.1415,23.086,0.6787],[-80.1438,23.0857,0.0],[-80.1471,23.0815,2.8868],[-80.1529,23.0838,0.0],[-80.1554,23.0832,0.0],[-80.1557,23.0774,1.9613],[-80.1568,23.0846,0.7117],[-80.1643,23.0857,1.162],[-80.1657,23.0888,0.0],[-80.1693,23.0865,0.0],[-80.1687,23.0821,0.0],[-80.1654,23.0804,0.6841],[-80.1693,23.0774,0.0],[-80.1701,23.0743,0.4828],[-80.1724,23.0793,0.3095],[-80.1701,23.0826,0.0],[-80.1721,23.0843,0.0],[-80.1685,23.0893,0.0],[-80.1754,23.0929,2.1077],[-80.1807,23.1001,0.0],[-80.184,23.1001,4.7622],[-80.1826,23.1035,0.0],[-80.1924,23.106,2.978],[-80.1979,23.1115,1.4306],[-80.2004,23.119,0.0],[-80.2046,23.1165,3.642],[-80.2143,23.1174,0.0],[-80.2182,23.1157,0.0],[-80.2204,23.1126,0.0],[-80.2143,23.1087,0.0],[-80.2124,23.1032,0.4408],[-80.2149,23.101,0.8206],[-80.2129,23.0971,0.3119],[-80.2165,23.0979,0.7428],[-80.2171,23.1015,0.0],[-80.2226,23.1051,0.7801],[-80.2254,23.1029,2.608],[-80.2254,23.1007,1.1883],[-80.2235,23.0996,1.1423],[-80.2243,23.0976,0.5953],[-80.2265,23.0946,1.5041],[-80.2299,23.094,0.6358],[-80.2285,23.091,0.0],[-80.2301,23.0876,0.4826],[-80.2279,23.0857,0.2241],[-80.2249,23.0879,0.2216],[-80.2224,23.0871,0.5818],[-80.2226,23.0849,0.7031],[-80.2254,23.0849,0.5938],[-80.2254,23.0829,0.5481],[-80.2226,23.0807,0.3934],[-80.2224,23.0832,0.6777],[-80.2182,23.074,0.0],[-80.2162,23.0746,0.0],[-80.216,23.0707,0.0],[-80.2132,23.0729,0.0],[-80.2154,23.0785,0.3694],[-80.2132,23.0774,0.3656],[-80.2121,23.0785,0.3656],[-80.2104,23.0768,0.5355],[-80.2115,23.0729,0.0],[-80.2096,23.0718,0.0],[-80.2095,23.0771,2.0474],[-80.2076,23.0765,1.8106],[-80.2063,23.0785,0.9788],[-80.2074,23.0718,0.0],[-80.2063,23.0704,0.0],[-80.2026,23.0704,0.0],[-80.2065,23.069,0.0],[-80.2071,23.0674,0.3906],[-80.204,23.064,0.8525],[-80.2015,23.0649,0.8799],[-80.2004,23.0674,1.5016],[-80.2004,23.0743,0.7784],[-80.1929,23.0771,1.0529],[-80.1915,23.0757,0.0],[-80.194,23.0732,0.0],[-80.1904,23.0713,1.0784],[-80.1893,23.0657,0.899],[-80.1913,23.0618,0.0],[-80.1899,23.0604,0.0],[-80.1874,23.0624,1.3366],[-80.1882,23.0654,0.4483],[-80.1843,23.0657,0.4029],[-80.1835,23.064,0.0],[-80.1815,23.0668,0.2615],[-80.1799,23.0649,1.5005],[-80.1824,23.0637,0.8946],[-80.1832,23.0596,0.3938],[-80.1787,23.0596,0.0],[-80.1735,23.0713,1.7963],[-80.1701,23.0715,0.1583],[-80.1732,23.0671,0.815],[-80.1721,23.0651,0.0],[-80.1696,23.0657,1.4353],[-80.1712,23.0599,0.0],[-80.1774,23.056,0.0],[-80.1768,23.0529,0.0741],[-80.1735,23.0529,0.2476],[-80.1738,23.0474,0.0],[-80.1707,23.0485,0.0826],[-80.171,23.0471,0.0826],[-80.1735,23.0457,0.488],[-80.1754,23.0476,0.2864],[-80.1832,23.049,0.6213],[-80.1837,23.0457,0.0],[-80.186,23.0443,0.3113],[-80.184,23.0493,0.6213],[-80.1843,23.0518,0.0],[-80.186,23.0521,0.0],[-80.1874,23.0501,0.0],[-80.1874,23.044,0.5699],[-80.1896,23.0446,0.6892],[-80.1879,23.0415,2.118],[-80.1907,23.0385,0.2128],[-80.1835,23.039,0.4312],[-80.1821,23.036,0.9042],[-80.1835,23.0338,0.7674],[-80.1865,23.0365,0.4494],[-80.1893,23.0362,0.0],[-80.1876,23.0324,0.0],[-80.1904,23.0321,0.0],[-80.1896,23.0349,0.0],[-80.1901,23.0371,0.2128],[-80.1915,23.0371,0.2001],[-80.1918,23.0412,0.0],[-80.1963,23.0385,0.0],[-80.1963,23.0351,0.0],[-80.1929,23.029,0.0],[-80.1874,23.0287,0.0],[-80.1901,23.0251,0.2581],[-80.1885,23.0243,0.0],[-80.1879,23.0265,0.0],[-80.1837,23.0293,1.4236],[-80.1846,23.0304,1.4236],[-80.1865,23.0293,0.8544],[-80.1871,23.0313,0.0],[-80.1824,23.0318,0.291],[-80.1826,23.0338,0.0],[-80.1801,23.036,0.2047],[-80.1815,23.0393,0.221],[-80.1782,23.0374,0.1417],[-80.1785,23.0399,0.3144],[-80.1801,23.0407,0.8209],[-80.1779,23.0421,0.1362],[-80.1801,23.0443,0.7239],[-80.1771,23.0446,0.8265],[-80.1707,23.0418,0.3653],[-80.171,23.0401,0.2963],[-80.1693,23.0407,0.7899],[-80.1701,23.034,0.0],[-80.1751,23.0371,0.0],[-80.1785,23.0357,0.0],[-80.1782,23.0329,0.7935],[-80.1813,23.0324,0.0791],[-80.181,23.0296,0.2031],[-80.179,23.0296,0.2155],[-80.176,23.0321,0.6318],[-80.1754,23.0349,0.3382],[-80.176,23.0307,0.1559],[-80.1735,23.0301,0.1374],[-80.1774,23.0276,0.0],[-80.1768,23.024,0.0],[-80.1801,23.0251,0.4559],[-80.1815,23.0232,0.1744],[-80.1821,23.0201,0.0],[-80.1804,23.0199,0.0],[-80.1801,23.0168,0.0],[-80.1776,23.0176,0.312],[-80.1787,23.0201,0.0],[-80.1762,23.0235,0.0],[-80.174,23.0251,1.0036],[-80.1712,23.0243,0.4545],[-80.1721,23.0285,0.0],[-80.1687,23.0276,0.0],[-80.1629,23.0293,0.0],[-80.164,23.031,0.3593],[-80.1618,23.0326,0.0],[-80.1604,23.039,1.1834],[-80.1582,23.0399,0.0],[-80.1574,23.0429,1.4238],[-80.1612,23.046,0.6351],[-80.1626,23.0493,1.6465],[-80.1618,23.0526,0.4929],[-80.151,23.0546,0.3476],[-80.1504,23.0565,0.8309],[-80.1471,23.0546,0.0],[-80.1465,23.0565,0.57],[-80.1429,23.0585,0.0],[-80.1446,23.0601,3.9601],[-80.1446,23.0643,0.8791],[-80.1426,23.0635,1.4581],[-80.1435,23.0613,0.0],[-80.1379,23.0615,1.7036],[-80.1357,23.0599,0.0],[-80.1326,23.0615,0.0],[-80.1307,23.0674,5.3451],[-80.129,23.0682,0.0],[-80.1321,23.0699,3.0327],[-80.1299,23.0729,2.0611],[-80.1301,23.0763,2.3055],[-80.1374,23.0785,2.8378],[-80.1399,23.0824,6.0488],[-80.1399,23.086,0.6787],[-80.1415,23.086,0.6787]]],
[[[-80.1965,23.0707,0.0],[-80.1985,23.0732,1.3712],[-80.2004,23.0651,0.8799],[-80.1996,23.0635,0.0],[-80.1968,23.0632,0.8404],[-80.1949,23.0654,0.0],[-80.1965,23.0707,0.0]]],
[[[-80.1468,23.0832,0.3633],[-80.1449,23.0846,0.4364],[-80.1451,23.0865,0.0],[-80.1515,23.0843,0.6591],[-80.1507,23.0835,0.0],[-80.1468,23.0832,0.3633]]],
[[[-80.1221,23.0932,1.5089],[-80.1218,23.0946,1.0489],[-80.1249,23.0954,3.8092],[-80.1282,23.0949,0.6154],[-80.1263,23.0935,0.9279],[-80.1268,23.0924,0.9279],[-80.1329,23.0929,1.1064],[-80.1396,23.0882,0.4958],[-80.1393,23.0829,0.0],[-80.1276,23.0868,0.0],[-80.1285,23.0879,0.0],[-80.124,23.090699999999998,1.5088],[-80.1254,23.0932,0.8342],[-80.1226,23.0918,0.0],[-80.1221,23.0932,1.5089]]],
[[[-80.1188,23.0899,0.0],[-80.1193,23.0921,0.0],[-80.1229,23.0904,0.6232],[-80.1221,23.0888,0.6232],[-80.1188,23.0899,0.0]]],
[[[-80.2371,23.0987,0.0],[-80.2387,23.0996,0.0],[-80.2385,23.0965,0.0],[-80.2368,23.0965,0.0],[-80.2371,23.0987,0.0]]],
[[[-80.2279,23.1085,3.5559],[-80.2288,23.111,0.0],[-80.2318,23.1076,1.5166],[-80.2296,23.1038,3.6664],[-80.2271,23.1057,3.5976],[-80.2288,23.1074,2.7369],[-80.2279,23.1085,3.5559]]],
[[[-80.2285,23.1188,3.4797],[-80.2312,23.1204,3.5381],[-80.2324,23.1182,3.3406],[-80.2293,23.116,0.0],[-80.2218,23.1146,0.0],[-80.2232,23.1174,1.1701],[-80.2285,23.1188,3.4797]]],
[[[-80.219,23.1193,3.799],[-80.2193,23.1215,1.3104],[-80.221,23.1221,0.0],[-80.2232,23.1179,1.1701],[-80.219,23.1171,2.6719],[-80.219,23.1193,3.799]]],
[[[-80.2368,23.1371,3.5858],[-80.2379,23.1393,0.0],[-80.2399,23.139,0.0],[-80.239,23.1301,1.6635],[-80.241,23.1335,2.6473],[-80.2438,23.1335,3.4123],[-80.2471,23.1226,0.0],[-80.2465,23.1165,0.0],[-80.241,23.1157,2.5947],[-80.2374,23.1193,3.6627],[-80.2299,23.1221,0.0],[-80.2346,23.1254,5.4831],[-80.2335,23.1349,0.0],[-80.2368,23.1371,3.5858]]],
[[[-80.2235,23.1435,0.0],[-80.2235,23.1463,0.0],[-80.229,23.146,0.0],[-80.2285,23.1429,0.0],[-80.2312,23.1357,0.776],[-80.2276,23.1324,1.3528],[-80.2279,23.1293,0.0],[-80.2251,23.1293,0.0],[-80.224,23.1313,0.0],[-80.2249,23.1385,0.0],[-80.2235,23.1435,0.0]]],
[[[-80.2443,23.1379,0.0],[-80.2474,23.1382,0.0],[-80.2479,23.131,0.1275],[-80.2443,23.1329,3.4123],[-80.2443,23.1379,0.0]]],
[[[-80.2574,23.1371,0.0],[-80.2621,23.1382,2.713],[-80.2649,23.1376,0.9512],[-80.2526,23.1338,0.0],[-80.2574,23.1371,0.0]]],
[[[-80.2921,23.1365,0.0],[-80.2915,23.1379,0.0],[-80.2932,23.1379,0.0],[-80.2935,23.1349,0.0],[-80.2924,23.1354,0.0],[-80.2921,23.1365,0.0]]],
[[[-80.274,23.1457,0.7243],[-80.2779,23.1457,1.2153],[-80.2838,23.1393,0.3019],[-80.2838,23.1371,0.5472],[-80.2849,23.1385,0.0],[-80.2901,23.139,0.0],[-80.2876,23.1376,0.0],[-80.2882,23.1354,0.0],[-80.2951,23.129,0.0],[-80.2932,23.1285,0.0],[-80.2838,23.1324,0.0],[-80.2801,23.1382,0.0],[-80.2707,23.1354,0.0],[-80.2707,23.1385,0.3254],[-80.2674,23.1399,0.0],[-80.274,23.1457,0.7243]]],
[[[-80.4746,23.1107,0.535],[-80.4751,23.1154,0.0],[-80.4762,23.1154,1.7719],[-80.4765,23.1104,0.0],[-80.4735,23.1068,0.0],[-80.4746,23.1107,0.535]]],
[[[-80.4582,23.1274,0.0],[-80.4593,23.1285,0.0],[-80.4579,23.1257,0.0],[-80.456,23.126,0.0],[-80.4563,23.1268,0.0],[-80.4582,23.1274,0.0]]],
[[[-80.4449,23.131,0.0],[-80.4463,23.1324,0.0],[-80.4468,23.1307,0.0],[-80.4512,23.1288,0.0],[-80.446,23.1265,0.0],[-80.4435,23.1296,0.0],[-80.4449,23.131,0.0]]],
[[[-80.4496,23.1382,0.4871],[-80.4496,23.1399,0.4309],[-80.454,23.1388,0.7923],[-80.4551,23.1307,0.0],[-80.4529,23.1318,0.0],[-80.4496,23.1382,0.4871]]],
[[[-80.4587,23.1382,0.0],[-80.4593,23.1399,1.4171],[-80.4629,23.1365,0.452],[-80.461,23.1321,0.735],[-80.4596,23.1329,0.3132],[-80.4607,23.1357,1.0592],[-80.4587,23.1382,0.0]]],
[[[-80.3774,23.1546,0.7352],[-80.3915,23.1546,0.7628],[-80.4082,23.1507,0.9103],[-80.4196,23.1524,0.0],[-80.4435,23.1496,0.5101],[-80.4512,23.1515,3.1494],[-80.454,23.1501,4.6758],[-80.4549,23.1471,0.0],[-80.4515,23.1474,5.6814],[-80.4379,23.1393,1.4312],[-80.4393,23.1374,0.0],[-80.4413,23.1399,0.2551],[-80.4454,23.1407,0.4891],[-80.4449,23.1357,0.0],[-80.4415,23.134,0.0],[-80.4424,23.1313,0.0],[-80.4404,23.1329,0.0],[-80.4354,23.1326,0.0],[-80.4296,23.1379,0.4227],[-80.4229,23.1368,0.4833],[-80.4221,23.1413,0.9785],[-80.4276,23.141,2.4153],[-80.4279,23.1421,1.1437],[-80.4229,23.146,0.7557],[-80.4163,23.146,0.4677],[-80.4115,23.1426,0.0],[-80.4096,23.1432,0.1494],[-80.4071,23.1382,1.8428],[-80.4082,23.1349,1.5702],[-80.4104,23.1335,0.9494],[-80.4149,23.1346,0.0],[-80.4118,23.1332,0.0],[-80.4101,23.1265,0.0],[-80.4062,23.126,0.9308],[-80.4029,23.1226,0.0],[-80.4037,23.1257,0.4786],[-80.4093,23.1282,0.0],[-80.4096,23.1313,0.5872],[-80.4049,23.1346,0.0],[-80.4049,23.1393,0.0],[-80.4074,23.1413,1.5505],[-80.396,23.1468,0.0],[-80.3921,23.1457,0.1489],[-80.3879,23.1488,1.0439],[-80.3854,23.1476,0.0],[-80.3868,23.1457,0.0],[-80.3896,23.1471,0.2704],[-80.3876,23.1426,0.0],[-80.3838,23.1415,0.0],[-80.3801,23.1432,0.2607],[-80.3801,23.1388,1.1654],[-80.3846,23.1357,1.8664],[-80.3832,23.1335,2.1978],[-80.3854,23.1332,0.0],[-80.3851,23.131,0.0],[-80.3887,23.1243,0.419],[-80.3832,23.1254,0.0],[-80.3799,23.1279,0.0],[-80.379,23.1315,0.6818],[-80.3829,23.1338,2.9774],[-80.3796,23.1326,0.2017],[-80.3793,23.134,1.0524],[-80.3724,23.1313,0.0],[-80.3674,23.1371,4.5211],[-80.3654,23.136,0.0],[-80.366,23.1401,0.0],[-80.3704,23.1415,2.7368],[-80.3671,23.149,0.619],[-80.371,23.153199999999998,3.8119],[-80.3774,23.1546,0.7352]]]]}
,"properties": {"GID_2": "CUB.16.4_1","GID_0": "CUB","country": "Cuba","GID_1": "CUB.16_1","province": "VillaClara","NL_NAME_1": "NA","county": "Corralillo","VARNAME_2": "NA","NL_NAME_2": "NA","TYPE_2": "Municipio","ENGTYPE_2": "Municipality","CC_2": "NA","HASC_2": "CU.VC.CO","name": "Corralillo.county","area_km2": 1183.4614,"hist_schema_id": "Elevation0-9000","hist_area_km2": {"0": 307.647,"25": 110.1593,"50": 222.8619,"75": 295.5427,"100": 245.2973,"125": 1.6993,"150": 0.2539}}}