{"type": "Feature","bbox": [-61.9301,10.0435,-61.4675,10.2513],"geometry": {"type": "MultiPolygon","coordinates": [[[[-61.5218,10.236,0.8726],[-61.524,10.2357,0.0],[-61.5276,10.2321,0.0],[-61.5349,10.2304,10.4328],[-61.5596,10.2296,3.3941],[-61.5801,10.2349,7.7851],[-61.5865,10.2401,9.0727],[-61.6099,10.2463,12.0724],[-61.6185,10.2513,1.2128],[-61.6243,10.2479,2.3635],[-61.6335,10.2471,0.0],[-61.6334,10.2454,12.501],[-61.6376,10.2429,0.4271],[-61.639,10.2362,0.0],[-61.6365,10.2346,9.2123],[-61.6357,10.2282,2.1754],[-61.6368,10.2268,0.0],[-61.633,10.2235,1.9844],[-61.6315,10.2199,2.8787],[-61.6376,10.2124,0.0],[-61.6308,10.2,9.0628],[-61.6324,10.1957,10.9092],[-61.6431,10.1834,31.0414],[-61.6469,10.1699,9.5164],[-61.6559,10.1667,14.7162],[-61.6581,10.1613,11.1028],[-61.6624,10.1614,16.0801],[-61.6838,10.1431,27.1498],[-61.6982,10.1422,33.0804],[-61.7009,10.1502,13.7137],[-61.7035,10.1519,12.1085],[-61.7049,10.1637,1.9086],[-61.7185,10.1576,14.3317],[-61.7465,10.1513,8.8274],[-61.7754,10.1482,12.6806],[-61.7879,10.1485,1.0371],[-61.7907,10.1443,9.3041],[-61.8007,10.1418,8.7509],[-61.8004,10.1387,21.6275],[-61.8063,10.1357,2.0248],[-61.8262,10.1346,2.5059],[-61.8246,10.1301,3.3009],[-61.8249,10.1204,9.8561],[-61.8271,10.1168,19.373],[-61.831,10.1146,0.0],[-61.8343,10.106,2.5034],[-61.8537,10.0954,11.4263],[-61.8693,10.0924,4.2363],[-61.8819,10.0929,3.7411],[-61.8882,10.089,5.7768],[-61.9085,10.0874,0.0],[-61.9082,10.0818,2.3803],[-61.9124,10.0751,1.5474],[-61.9293,10.0607,0.0],[-61.9301,10.0518,3.0027],[-61.929,10.049,1.9333],[-61.9149,10.0435,0.0],[-61.8971,10.0446,1.797],[-61.8865,10.0496,0.0],[-61.8785,10.0565,1.2777],[-61.8646,10.0649,3.3436],[-61.8576,10.0654,0.0],[-61.8488,10.071,3.8288],[-61.8437,10.0715,0.0],[-61.841,10.0746,3.5253],[-61.8282,10.0818,1.9561],[-61.8076,10.0876,7.1261],[-61.7979,10.0876,5.5336],[-61.7926,10.086,10.9043],[-61.7843,10.0796,12.2775],[-61.781,10.0751,0.0],[-61.756,10.0851,3.5912],[-61.7471,10.084,9.1813],[-61.734,10.0874,9.249],[-61.7251,10.0874,10.4448],[-61.7218,10.0857,20.9832],[-61.711,10.0849,0.0],[-61.6954,10.0874,21.4565],[-61.6868,10.0818,0.0],[-61.6782,10.0826,17.6016],[-61.6654,10.0776,30.4345],[-61.659,10.0688,8.101],[-61.6529,10.0651,14.7724],[-61.6512,10.0596,0.0],[-61.6476,10.0601,0.0],[-61.6449,10.0582,0.0],[-61.6407,10.0607,9.5395],[-61.6343,10.0607,12.495],[-61.6276,10.0554,0.0],[-61.6054,10.0671,28.4225],[-61.6018,10.0673,16.583],[-61.599,10.0643,0.0],[-61.5871,10.0713,3.1648],[-61.5726,10.0737,0.0],[-61.5626,10.0732,0.0],[-61.5596,10.0713,2.0298],[-61.5451,10.0724,1.8201],[-61.5404,10.0746,14.543],[-61.5276,10.0743,9.4629],[-61.521,10.0701,0.0],[-61.5146,10.0718,0.0],[-61.5058,10.0716,0.0],[-61.5094,10.0814,75.6646],[-61.505,10.0932,50.2426],[-61.5023,10.0949,58.9237],[-61.5034,10.0966,56.9186],[-61.5076,10.0966,60.7119],[-61.51,10.1056,30.0225],[-61.5141,10.1106,50.6749],[-61.5082,10.1148,45.5805],[-61.5082,10.1235,35.542],[-61.506,10.1273,22.3961],[-61.4932,10.1282,17.2884],[-61.4841,10.1336,25.3418],[-61.4778,10.1352,28.4545],[-61.4713,10.1432,14.7023],[-61.4734,10.1589,13.4956],[-61.4675,10.1663,12.1547],[-61.4691,10.1685,17.9316],[-61.4734,10.1691,10.1643],[-61.4754,10.1782,4.7455],[-61.4717,10.1938,1.5865],[-61.4679,10.2025,1.3854],[-61.469,10.2046,1.586],[-61.4791,10.2079,1.1504],[-61.4908,10.209,0.6605],[-61.5015,10.2161,0.4737],[-61.5025,10.2193,1.6571],[-61.5004,10.2214,5.5811],[-61.5015,10.2242,9.4477],[-61.5191,10.2313,14.5862],[-61.5218,10.236,0.8726]]]]}
,"properties": {"GID_1": "TTO.13_1","GID_0": "TTO","country": "TrinidadandTobago","province": "Siparia","VARNAME_1": "NA","NL_NAME_1": "NA","TYPE_1": "Region","ENGTYPE_1": "Region","CC_1": "NA","HASC_1": "TT.SI","ISO_1": "TT-SIP","name": "Siparia.province","area_km2": 500.9733,"hist_schema_id": "Elevation0-9000","hist_area_km2": {"0": 99.5738,"25": 238.1169,"50": 143.9543,"75": 18.8482,"100": 0.4801}}}