{"type": "Feature","id": "52","bbox": [-61.9287,10.04206,-61.4688,10.2475],"geometry": {"type": "Polygon","coordinates": [[[-61.52078,10.24014,0.0],[-61.52078,10.24014,0.0],[-61.56013,10.23871,0.0],[-61.61181,10.2475,2.9716],[-61.62694,10.24726,3.7356],[-61.63964,10.24067,0.0],[-61.63878,10.21052,0.0],[-61.63931,10.21007,6.0216],[-61.63755,10.2078,7.366],[-61.63225,10.20243,13.6857],[-61.62957,10.19757,16.1973],[-61.63073,10.19225,17.596],[-61.63972,10.17984,34.5999],[-61.64375,10.17307,13.2009],[-61.64982,10.1647,6.7818],[-61.67111,10.14703,29.777],[-61.68248,10.14321,27.1498],[-61.69202,10.14238,16.74],[-61.70414,10.1615,9.0057],[-61.70738,10.16588,0.0],[-61.70739,10.16588,0.0],[-61.71207,10.16364,0.0],[-61.78917,10.14094,13.8953],[-61.8059,10.13288,22.4539],[-61.82152,10.12116,18.7759],[-61.83194,10.10615,22.3188],[-61.83853,10.09984,21.2789],[-61.87096,10.09382,0.0],[-61.88195,10.09048,21.6216],[-61.88671,10.08674,16.305],[-61.91893,10.07001,0.0],[-61.9287,10.05646,2.5401],[-61.90722,10.04206,0.0],[-61.88976,10.0423,0.0],[-61.86929,10.05003,0.0],[-61.84984,10.06147,0.0],[-61.83519,10.07274,0.0],[-61.81705,10.08137,0.0],[-61.79332,10.08413,0.0],[-61.7067,10.08397,0.0],[-61.68619,10.08161,0.0],[-61.66759,10.07616,0.0],[-61.65608,10.06965,9.0736],[-61.64696,10.06297,32.1563],[-61.63703,10.05781,0.0],[-61.62291,10.05565,0.0],[-61.61278,10.05679,0.0],[-61.59313,10.06143,0.0],[-61.58194,10.06257,0.0],[-61.55346,10.07388,57.4511],[-61.5441,10.07616,46.3382],[-61.50415,10.06953,0.0],[-61.49919,10.10667,43.4948],[-61.49557,10.11757,26.4166],[-61.49048,10.12605,19.7647],[-61.47797,10.14057,19.6357],[-61.4733,10.15023,18.7587],[-61.46924,10.16853,17.9316],[-61.4688,10.18574,1.5371],[-61.47157,10.19287,3.1317],[-61.47668,10.20212,0.8179],[-61.48919,10.20987,0.9824],[-61.51645,10.23354,16.1616],[-61.52078,10.24014,0.0]]]}
,"properties": {"ISO3166-1-Alpha-3": "TTO","country": "Trinidad and Tobago","fill": "#FF0","name": "Siparia","area_km2": 519.4659,"hist_schema_id": "Elevation0-9000","hist_area_km2": {"0": 118.9426,"25": 234.7776,"50": 145.6033,"75": 19.5162,"100": 0.6262}}}