{"type":"Feature","properties":{"GID_2":"HTI.5.3_1","GID_0":"HTI","country":"Haiti","GID_1":"HTI.5_1","province":"Nord-Est","NL_NAME_1":"NA","county":"Ouanaminthe","VARNAME_2":"NA","NL_NAME_2":"NA","TYPE_2":"Arrondissement","ENGTYPE_2":"District","CC_2":"NA","HASC_2":"HT.NE.OU","name":"Ouanaminthe.county"},
"geometry":{"type": "MultiPolygon","coordinates": [[[[-71.689,19.3783,513.4286],[-71.691,19.3795,390.8279],[-71.691,19.3849,384.0377],[-71.6946,19.3942,298.3892],[-71.6938,19.3954,298.3892],[-71.6958,19.3969,245.1579],[-71.6946,19.3989,229.7805],[-71.6956,19.4006,210.9765],[-71.6871,19.4121,194.5507],[-71.6864,19.4195,177.4369],[-71.6883,19.4187,190.0623],[-71.6883,19.4214,171.9103],[-71.6864,19.4269,158.5874],[-71.6844,19.4269,191.513],[-71.6797,19.4362,139.0548],[-71.6805,19.4374,134.8447],[-71.677,19.4382,157.5527],[-71.679,19.4436,128.1169],[-71.6778,19.4475,121.4044],[-71.6758,19.4483,139.3432],[-71.6758,19.4502,138.3896],[-71.6778,19.4502,123.6314],[-71.677,19.4561,133.7289],[-71.679,19.4561,125.3356],[-71.6845,19.4634,114.8033],[-71.6825,19.4654,120.3009],[-71.6853,19.4669,101.4124],[-71.6845,19.4716,113.0468],[-71.6884,19.4716,96.2772],[-71.6865,19.4774,95.1766],[-71.6884,19.4794,90.2914],[-71.6912,19.4794,92.4428],[-71.6919,19.482,79.5963],[-71.6892,19.4868,82.5429],[-71.6919,19.4938,64.1415],[-71.6885,19.4969,80.3253],[-71.6893,19.4996,53.5222],[-71.6854,19.5074,57.4629],[-71.6866,19.5182,67.6],[-71.6901,19.5147,48.1503],[-71.6932,19.5167,56.4089],[-71.696,19.5155,54.634],[-71.6979,19.5174,51.1926],[-71.6979,19.5248,53.5995],[-71.7007,19.5248,51.4347],[-71.7015,19.5275,49.7969],[-71.7007,19.538,45.4622],[-71.7027,19.5388,43.7484],[-71.7042,19.5361,47.8042],[-71.7074,19.5353,46.781],[-71.7101,19.5361,41.9367],[-71.7109,19.538,39.37],[-71.7109,19.5555,31.8473],[-71.7129,19.5567,32.1486],[-71.7176,19.566,26.7986],[-71.742,19.5888,18.5228],[-71.7504,19.5891,18.9566],[-71.753,19.5869,17.8998],[-71.7685,19.5874,19.6054],[-71.7707,19.5838,16.9647],[-71.7728,19.5859,19.8577],[-71.7819,19.586,18.2524],[-71.7851,19.5814,21.7501],[-71.7861,19.5836,19.7673],[-71.7958,19.5815,22.4333],[-71.7963,19.5837,22.6453],[-71.8001,19.5867,24.7346],[-71.8002,19.59,23.6524],[-71.8039,19.5927,30.5576],[-71.8119,19.5897,54.6066],[-71.8183,19.5848,49.8292],[-71.8173,19.5745,46.7698],[-71.8094,19.5695,30.8911],[-71.8093,19.564,36.1267],[-71.8053,19.5638,30.8439],[-71.8064,19.5613,37.3442],[-71.8091,19.5602,37.9413],[-71.8098,19.5569,31.9548],[-71.8135,19.5593,32.538],[-71.8162,19.5574,35.8942],[-71.8157,19.5543,43.851],[-71.8206,19.555,42.9987],[-71.8197,19.5509,40.9961],[-71.8226,19.5499,41.2369],[-71.822,19.5456,51.6864],[-71.8246,19.5427,59.0429],[-71.8218,19.5425,50.6551],[-71.8207,19.5402,52.1946],[-71.8225,19.5333,59.744],[-71.828,19.527,78.1805],[-71.8334,19.5251,82.0196],[-71.8366,19.5169,89.964],[-71.836,19.5099,120.3021],[-71.8384,19.5069,119.1345],[-71.8379,19.4951,410.7117],[-71.836,19.4912,400.2219],[-71.8378,19.4838,376.22],[-71.8303,19.4799,201.1896],[-71.8282,19.4781,173.0392],[-71.8281,19.4755,156.2497],[-71.8294,19.4713,166.6747],[-71.8391,19.4627,293.6874],[-71.8466,19.4503,844.3306],[-71.8457,19.4455,891.8685],[-71.8394,19.4395,665.2261],[-71.8438,19.4354,823.7314],[-71.8412,19.4314,809.7399],[-71.8417,19.4267,976.9449],[-71.8458,19.4275,823.3076],[-71.8532,19.424,673.9362],[-71.8534,19.4211,667.6485],[-71.8582,19.4193,665.3572],[-71.8592,19.4114,650.3879],[-71.8547,19.406,636.9749],[-71.8537,19.4056,636.9749],[-71.8535,19.4077,645.3739],[-71.8512,19.4072,642.0436],[-71.8476,19.4029,630.0145],[-71.845,19.4023,626.8561],[-71.8449,19.4003,630.8353],[-71.8403,19.4001,621.1561],[-71.8316,19.3893,613.9618],[-71.8318,19.3852,613.3493],[-71.8282,19.3831,610.8822],[-71.8268,19.3838,617.4515],[-71.8278,19.3815,612.4055],[-71.8253,19.3738,612.972],[-71.8202,19.3702,611.6889],[-71.8189,19.3662,612.6091],[-71.8147,19.3651,603.4667],[-71.8133,19.3578,601.6805],[-71.8113,19.3588,619.014],[-71.8083,19.356,599.1828],[-71.8085,19.3533,603.1656],[-71.807,19.3532,611.0062],[-71.805,19.3488,613.8613],[-71.8059,19.3463,610.5501],[-71.8032,19.3406,598.1646],[-71.7983,19.3371,591.5146],[-71.7985,19.3348,599.4369],[-71.7858,19.3317,586.9911],[-71.7804,19.3346,620.295],[-71.7831,19.3354,606.8884],[-71.7718,19.342,690.3922],[-71.7494,19.344,801.9247],[-71.7466,19.3546,695.2416],[-71.7375,19.3581,787.4423],[-71.735,19.3607,830.9827],[-71.7316,19.3606,786.956],[-71.7244,19.3666,823.5289],[-71.7182,19.3628,850.5303],[-71.7169,19.3684,843.6118],[-71.7153,19.3675,840.3613],[-71.7145,19.3728,943.5835],[-71.7126,19.3736,832.2413],[-71.7118,19.3767,743.5149],[-71.7004,19.3689,566.3098],[-71.6984,19.3643,570.0355],[-71.6918,19.3643,558.7714],[-71.689,19.3674,463.8082],[-71.691,19.369,405.0835],[-71.691,19.3736,353.7291],[-71.6883,19.3756,614.8397],[-71.689,19.3783,513.4286]]]]}}