{"type":"Feature","properties":{"GID_1":"PRI.30_1","GID_0":"PRI","country":"PuertoRico","province":"Guayama","VARNAME_1":"NA","NL_NAME_1":"NA","TYPE_1":"Municipio","ENGTYPE_1":"Municipality","CC_1":"NA","HASC_1":"PR.GM","ISO_1":"-","name":"Guayama.province"},
"geometry":{"type": "MultiPolygon","coordinates": [[[[-66.0822,18.0326,622.2406],[-66.0859,18.0369,593.0925],[-66.0873,18.0436,561.7582],[-66.0854,18.0483,558.5652],[-66.0891,18.0564,550.9565],[-66.0855,18.0636,604.0828],[-66.0808,18.0641,604.8329],[-66.0799,18.066,615.7006],[-66.0795,18.0703,613.7045],[-66.0813,18.0736,639.7133],[-66.0679,18.0789,695.4404],[-66.0605,18.0894,691.9152],[-66.0606,18.0984,709.019],[-66.0532,18.1075,831.4227],[-66.0596,18.1037,726.1729],[-66.0684,18.1018,686.3124],[-66.0827,18.1042,667.2474],[-66.0883,18.1075,630.4092],[-66.098,18.107,499.8862],[-66.109,18.1003,425.8442],[-66.1127,18.0903,689.8694],[-66.1266,18.0969,627.8266],[-66.1289,18.0893,618.9323],[-66.1261,18.0826,649.6779],[-66.1265,18.0774,647.2589],[-66.1252,18.0745,627.7778],[-66.1215,18.0731,557.4843],[-66.1205,18.0702,572.6653],[-66.1237,18.054,793.8689],[-66.1279,18.0483,830.7272],[-66.1288,18.0392,622.7552],[-66.139,18.0368,686.8217],[-66.144,18.0416,717.1747],[-66.156,18.0435,724.9163],[-66.1574,18.0478,687.7903],[-66.1662,18.0501,692.9514],[-66.1749,18.0329,301.998],[-66.1869,18.0248,352.4154],[-66.2003,18.019,324.0645],[-66.2058,18.0114,147.2143],[-66.2062,17.9626,2.1225],[-66.199,17.9604,0.0],[-66.1849,17.9507,1.4353],[-66.1768,17.9501,1.879],[-66.1749,17.946,2.8965],[-66.1807,17.9451,0.3514],[-66.1824,17.9432,0.0],[-66.1815,17.9401,1.5546],[-66.184,17.939,0.3982],[-66.1835,17.9376,0.9652],[-66.1888,17.9407,0.0],[-66.2018,17.9438,0.0],[-66.2024,17.9457,0.0],[-66.2085,17.944,0.8774],[-66.2135,17.9449,0.0],[-66.2132,17.941,0.0],[-66.2076,17.9351,0.0],[-66.2104,17.9324,0.8393],[-66.2074,17.9324,0.8221],[-66.2099,17.9312,0.783],[-66.2093,17.9299,0.6316],[-66.2113,17.9265,0.7399],[-66.2126,17.9271,0.233],[-66.2138,17.9238,0.536],[-66.2151,17.9246,0.0],[-66.2176,17.9218,0.0],[-66.2135,17.921,1.4342],[-66.2104,17.9246,0.0],[-66.2018,17.9279,0.0],[-66.1982,17.9307,0.4046],[-66.1965,17.9357,4.4776],[-66.1921,17.9379,0.0],[-66.1851,17.9351,0.0],[-66.1738,17.9368,1.3544],[-66.1679,17.9329,0.0],[-66.1632,17.9318,0.0],[-66.1604,17.9318,0.0],[-66.1599,17.9365,1.0853],[-66.1571,17.9374,3.6518],[-66.156,17.9349,1.9357],[-66.1596,17.9276,0.0],[-66.1585,17.9296,1.5393],[-66.1549,17.9293,0.0],[-66.1474,17.9337,0.0],[-66.1415,17.941,1.8081],[-66.1371,17.9404,0.0],[-66.1335,17.9421,2.6986],[-66.1299,17.9465,2.1911],[-66.1129,17.9482,0.0],[-66.1024,17.9557,9.3941],[-66.0829,17.966,4.0956],[-66.0779,17.9671,7.599],[-66.0757,17.9649,0.0],[-66.0704,17.966,1.6619],[-66.0725,17.9786,20.1005],[-66.0716,17.9939,200.8677],[-66.0951,18.0216,711.1536],[-66.0942,18.0235,688.1129],[-66.0896,18.0245,619.7667],[-66.0845,18.0283,633.9271],[-66.0822,18.0326,622.2406]]]]}}