{"type":"Feature","properties":{"GID_1":"BLM.2_1","GID_0":"BLM","country":"Saint-Barthélemy","province":"SousleVent","VARNAME_1":"NA","NL_NAME_1":"NA","TYPE_1":"Paroisse","ENGTYPE_1":"Parish","CC_1":"NA","HASC_1":"NA","ISO_1":"NA","name":"Sousle_Vent.province"},
"geometry":{"type": "MultiPolygon","coordinates": [[[[-62.856,17.8939,0.0],[-62.8559,17.8936,0.0],[-62.8554,17.8935,0.0],[-62.8556,17.8938,0.0],[-62.856,17.8939,0.0]]],
[[[-62.8566,17.895,0.0],[-62.8564,17.8946,0.0],[-62.8561,17.8946,0.0],[-62.8561,17.8949,0.0],[-62.8566,17.895,0.0]]],
[[[-62.8505,17.8929,8.5054],[-62.8475,17.892,6.7374],[-62.8475,17.8898,0.0],[-62.8445,17.8865,43.916],[-62.8362,17.893,101.5179],[-62.8329,17.8933,87.9276],[-62.8371,17.8981,12.3559],[-62.8365,17.9031,4.5321],[-62.8411,17.906,4.6374],[-62.8398,17.9102,1.0161],[-62.8431,17.9104,15.113],[-62.8449,17.9131,8.4756],[-62.844,17.9166,0.0],[-62.8486,17.9173,0.0],[-62.8499,17.9221,0.0],[-62.8566,17.9192,0.0],[-62.86,17.9198,3.0738],[-62.8609,17.9219,0.0],[-62.8635,17.9199,53.9959],[-62.8675,17.9249,6.6143],[-62.8672,17.929,0.0],[-62.8709,17.9284,38.3762],[-62.8727,17.9271,0.0],[-62.868899999999996,17.9258,32.5168],[-62.8688,17.9221,22.0602],[-62.8743,17.9207,0.0],[-62.8705,17.9194,33.0272],[-62.8698,17.9159,21.413],[-62.8607,17.9081,12.5543],[-62.8563,17.9083,4.8439],[-62.8488,17.8961,0.0],[-62.8498,17.8952,5.9266],[-62.8513,17.8982,1.6051],[-62.854,17.8983,0.0],[-62.8505,17.8929,8.5054]]],
[[[-62.8769,17.8966,0.9021],[-62.8759,17.8964,0.9021],[-62.876,17.8977,0.6891],[-62.877,17.8976,0.6891],[-62.8769,17.8966,0.9021]]],
[[[-62.8608,17.8997,0.0],[-62.8609,17.8993,0.0],[-62.8605,17.8993,0.0],[-62.8606,17.8997,0.0],[-62.8608,17.8997,0.0]]],
[[[-62.8608,17.9009,0.0],[-62.8609,17.9003,0.0],[-62.8607,17.9001,0.0],[-62.8601,17.9009,0.0],[-62.8608,17.9009,0.0]]],
[[[-62.8481,17.9329,6.0764],[-62.8467,17.9365,30.5992],[-62.8498,17.937,34.976],[-62.8547,17.9339,2.9867],[-62.8549,17.9306,0.0],[-62.8527,17.9299,0.0],[-62.8481,17.9329,6.0764]]],
[[[-62.8783,17.9204,0.0],[-62.8783,17.9199,0.0],[-62.8779,17.9199,0.0],[-62.8783,17.9208,0.0],[-62.8783,17.9204,0.0]]],
[[[-62.8767,17.9203,1.822],[-62.8756,17.9198,1.822],[-62.8751,17.92,0.0],[-62.8756,17.9213,6.9043],[-62.8767,17.9203,1.822]]],
[[[-62.9467,17.951,0.1963],[-62.9458,17.9514,0.1963],[-62.9469,17.9529,0.0],[-62.9478,17.95,0.0],[-62.9467,17.951,0.1963]]],
[[[-62.8709,17.9561,0.0],[-62.8741,17.9572,0.0],[-62.8745,17.9569,3.1882],[-62.8741,17.9547,0.6733],[-62.8709,17.9561,0.0]]],
[[[-62.9027,17.9598,17.1454],[-62.9094,17.9602,19.8563],[-62.9103,17.9582,32.293],[-62.9102,17.9569,0.0],[-62.9062,17.958,17.9991],[-62.9031,17.9569,6.4703],[-62.9049,17.9524,10.2794],[-62.9032,17.951,14.2673],[-62.9024,17.9538,32.557],[-62.8987,17.9552,5.6721],[-62.8977,17.9573,2.1277],[-62.9027,17.9598,17.1454]]],
[[[-62.867,17.9563,0.0],[-62.8677,17.9569,0.958],[-62.8684,17.9565,0.958],[-62.8679,17.9559,0.958],[-62.867,17.9563,0.0]]],
[[[-62.9108,17.956,3.4692],[-62.9103,17.9568,0.0],[-62.9116,17.9572,0.0],[-62.9116,17.9567,3.4692],[-62.9108,17.956,3.4692]]],
[[[-62.8976,17.9567,2.2699],[-62.8967,17.9565,2.2699],[-62.8955,17.9572,0.0],[-62.8967,17.9575,2.1277],[-62.8976,17.9567,2.2699]]]]}}