{"type": "Feature","bbox": [-71.152,18.4902,-70.8224,18.7046],"geometry": {"type": "MultiPolygon","coordinates": [[[[-71.0395,18.7046,422.2809],[-71.0393,18.6805,359.5866],[-71.0429,18.6735,356.3902],[-71.0539,18.6748,355.3868],[-71.0617,18.6681,283.5403],[-71.0653,18.6681,283.0023],[-71.0657,18.6748,291.0186],[-71.0606,18.6815,304.587],[-71.0598,18.6855,303.4085],[-71.061,18.6904,314.3076],[-71.0644,18.6913,324.3796],[-71.0707,18.6851,294.6303],[-71.0785,18.6675,323.9608],[-71.0911,18.648,725.235],[-71.1031,18.6381,657.3828],[-71.1257,18.6229,704.0586],[-71.1323,18.62,722.1703],[-71.1512,18.6169,736.9407],[-71.152,18.6072,632.0241],[-71.147,18.5997,548.4134],[-71.1456,18.5919,577.6162],[-71.1383,18.5861,600.3746],[-71.1297,18.5702,834.8459],[-71.1163,18.5609,895.6146],[-71.1038,18.555,732.8864],[-71.091,18.5573,737.6004],[-71.0639,18.5565,791.4434],[-71.0568,18.5522,845.2593],[-71.0395,18.5479,628.4265],[-71.0323,18.5433,579.0415],[-71.0181,18.542,552.8025],[-70.9854,18.5276,195.5837],[-70.9741,18.5191,228.568],[-70.9747,18.5112,220.6456],[-70.9803,18.5072,213.5112],[-70.9759,18.4944,292.9309],[-70.9722,18.4919,298.9727],[-70.9614,18.4902,331.4988],[-70.9521,18.494,289.2766],[-70.9444,18.4951,241.7899],[-70.9306,18.5026,192.9756],[-70.9068,18.4973,152.9709],[-70.9057,18.5011,182.7669],[-70.9106,18.5058,171.3744],[-70.9144,18.5168,200.9283],[-70.9168,18.5194,204.8799],[-70.9159,18.522,208.5708],[-70.9081,18.5175,201.5961],[-70.8949,18.5141,177.7593],[-70.8847,18.5137,184.965],[-70.8808,18.5149,176.628],[-70.877,18.5217,229.8709],[-70.8771,18.5318,245.0235],[-70.8806,18.5381,276.2425],[-70.8845,18.5386,252.5137],[-70.8899,18.5321,232.4081],[-70.8971,18.5306,212.473],[-70.9082,18.5315,275.5554],[-70.9194,18.5374,299.862],[-70.9206,18.5511,362.012],[-70.9233,18.5596,368.9739],[-70.9231,18.5667,323.5199],[-70.92,18.5699,294.1217],[-70.909,18.5718,276.48],[-70.9051,18.592,365.3224],[-70.9028,18.5955,445.7212],[-70.8708,18.6142,696.4827],[-70.8594,18.6146,1071.3597],[-70.8509,18.6124,1109.8177],[-70.8224,18.6113,1097.0181],[-70.8224,18.6268,1204.9884],[-70.8258,18.6401,1502.8854],[-70.8295,18.647,1620.9097],[-70.8406,18.6587,1370.7999],[-70.8462,18.6625,1423.4395],[-70.8511,18.6627,1255.4419],[-70.8574,18.6603,1018.4904],[-70.8624,18.6608,1001.1864],[-70.8641,18.6695,1079.7556],[-70.8658,18.671,1015.1985],[-70.8727,18.6692,1058.9821],[-70.8802,18.671,975.3561],[-70.8861,18.6696,1017.0578],[-70.8929,18.6715,1011.1821],[-70.8995,18.6704,950.5206],[-70.9076,18.6741,841.5814],[-70.9249,18.6714,574.5365],[-70.9299,18.6634,419.7601],[-70.9323,18.662,408.4555],[-70.9408,18.6682,448.1286],[-70.9486,18.67,445.4454],[-70.9521,18.6774,420.9018],[-70.9644,18.6805,381.6135],[-70.9847,18.681,379.494],[-70.9884,18.6804,388.5781],[-70.9911,18.6777,417.3386],[-70.9925,18.6676,335.1114],[-70.998,18.6667,329.3963],[-71.0004,18.6687,306.1778],[-71.002,18.6762,316.3501],[-71.0128,18.6897,373.0855],[-71.0276,18.7003,458.512],[-71.0395,18.7046,422.2809]]]]}
,"properties": {"GID_2": "DOM.1.5_1","GID_0": "DOM","country": "DominicanRepublic","GID_1": "DOM.1_1","province": "Azua","NL_NAME_1": "NA","county": "LasYayasdeViajama","VARNAME_2": "NA","NL_NAME_2": "NA","TYPE_2": "Distritomunicipal","ENGTYPE_2": "Municipaldistrict","CC_2": "NA","HASC_2": "DO.AZ.YV","name": "Las_Yayasde_Viajama.county","area_km2": 420.0504,"hist_schema_id": "Elevation0-9000","hist_area_km2": {"150": 0.2614,"175": 3.8599,"200": 11.3374,"225": 20.4815,"250": 27.5736,"275": 26.3661,"300": 30.9663,"325": 32.0104,"350": 30.2013,"375": 24.4329,"400": 21.7394,"425": 18.1028,"450": 16.6162,"475": 14.1252,"500": 13.4423,"525": 13.4222,"550": 12.2767,"575": 11.7746,"600": 11.6339,"625": 10.5691,"650": 8.821,"675": 8.2182,"700": 7.1934,"725": 6.4702,"750": 5.4052,"775": 4.059,"800": 3.5364,"825": 2.0092,"850": 1.6877,"875": 1.5269,"900": 1.2054,"925": 0.8638,"950": 0.904,"975": 0.8638,"1000": 0.7232,"1025": 0.7835,"1050": 0.8237,"1075": 0.9643,"1100": 1.0045,"1125": 0.7233,"1150": 1.0447,"1175": 0.7433,"1200": 0.8639,"1225": 0.8438,"1250": 0.7032,"1275": 0.6228,"1300": 0.7032,"1325": 0.442,"1350": 0.5424,"1375": 0.4822,"1400": 0.5023,"1425": 0.4822,"1450": 0.663,"1475": 0.4822,"1500": 0.5223,"1525": 0.4219,"1550": 0.3013,"1575": 0.3214,"1600": 0.2411,"1625": 0.1406}}}