{"type": "Feature","bbox": [-71.8062,19.5814,-71.7311,19.7088],"geometry": {"type": "MultiPolygon","coordinates": [[[[-71.7348,19.6441,5.396],[-71.7311,19.6499,4.2455],[-71.7341,19.6659,2.0],[-71.7366,19.6666,8.7498],[-71.7366,19.6686,25.0631],[-71.7421,19.6686,22.1626],[-71.7433,19.6705,19.1191],[-71.7453,19.6705,19.3523],[-71.7516,19.6798,17.7193],[-71.7555,19.6806,3.4261],[-71.7527,19.6833,6.563],[-71.7547,19.6861,2.5297],[-71.7528,19.6899,11.7546],[-71.7555,19.6892,2.7483],[-71.7547,19.6907,2.3133],[-71.7583,19.6907,2.3542],[-71.7583,19.6919,2.3542],[-71.7536,19.6947,29.3035],[-71.7536,19.6965,24.4476],[-71.7555,19.6954,23.2941],[-71.7575,19.6965,7.2806],[-71.7575,19.6985,6.6592],[-71.7602,19.6965,3.8782],[-71.7602,19.6993,2.3048],[-71.7583,19.7,4.1814],[-71.7613,19.7049,1.7551],[-71.774,19.7079,0.8535],[-71.7908,19.7088,0.0],[-71.7976,19.6594,16.6759],[-71.7883,19.6583,3.1394],[-71.7845,19.655,1.7577],[-71.7839,19.6523,3.3617],[-71.7853,19.6474,4.9507],[-71.7903,19.6465,9.7227],[-71.7963,19.6365,13.1056],[-71.7893,19.62,25.7624],[-71.8008,19.609,31.8231],[-71.8062,19.6003,43.3439],[-71.8045,19.5924,32.6715],[-71.8002,19.59,23.6524],[-71.8001,19.5867,24.7346],[-71.7963,19.5837,22.6453],[-71.7958,19.5815,22.4333],[-71.7861,19.5836,19.7673],[-71.7851,19.5814,21.7501],[-71.7819,19.586,18.2524],[-71.7728,19.5859,19.8577],[-71.7707,19.5838,16.9647],[-71.7685,19.5874,19.6054],[-71.753,19.5869,17.8998],[-71.7504,19.5891,18.9566],[-71.742,19.5888,18.5228],[-71.744,19.6354,8.4379],[-71.7348,19.6441,5.396]]]]}
,"properties": {"GID_3": "HTI.5.1.3_1","GID_0": "HTI","country": "Haiti","GID_1": "HTI.5_1","province": "Nord-Est","NL_NAME_1": "NA","GID_2": "HTI.5.1_1","county": "Fort-Liberté","NL_NAME_2": "NA","city": "Terrier","VARNAME_3": "NA","NL_NAME_3": "NA","TYPE_3": "Commune","ENGTYPE_3": "Commune","CC_3": "NA","HASC_3": "NA","name": "Terrier.city","area_km2": 71.68693,"hist_schema_id": "Elevation0-9000","hist_area_km2": {"0": 38.29669,"25": 32.25175,"50": 1.13849}}}