{"type": "Feature","bbox": [-65.7669,18.1979,-65.5754,18.297],"geometry": {"type": "MultiPolygon","coordinates": [[[[-65.6338,18.2815,3.884],[-65.6338,18.2837,5.6946],[-65.6365,18.2847,5.3135],[-65.6462,18.2814,29.4751],[-65.6541,18.2829,42.7401],[-65.6661,18.2882,97.8782],[-65.6684,18.2848,169.1497],[-65.6749,18.2834,277.8836],[-65.6749,18.2796,213.1065],[-65.6791,18.2744,125.4061],[-65.6828,18.2753,105.524],[-65.6952,18.2859,58.4127],[-65.7022,18.2749,73.9911],[-65.6999,18.273,84.1164],[-65.7161,18.2673,96.0959],[-65.735,18.275,198.9437],[-65.7373,18.2736,241.2029],[-65.7406,18.2798,285.15],[-65.7373,18.2827,372.7379],[-65.7535,18.297,509.5573],[-65.7577,18.2918,584.4326],[-65.7623,18.2889,684.8336],[-65.7669,18.2799,882.2015],[-65.7632,18.2756,966.3628],[-65.7623,18.2713,994.179],[-65.7522,18.2636,805.6356],[-65.7392,18.2607,396.6154],[-65.73,18.2531,220.0857],[-65.7221,18.2521,182.2432],[-65.7217,18.2573,151.4908],[-65.7161,18.2578,163.1571],[-65.712,18.2554,136.0709],[-65.7078,18.2559,154.464],[-65.7027,18.2597,172.4683],[-65.7004,18.2568,165.8076],[-65.6949,18.2549,150.8161],[-65.6935,18.2511,195.6955],[-65.6842,18.2534,118.3709],[-65.6828,18.2525,94.0622],[-65.6838,18.2472,72.3736],[-65.6866,18.2463,78.6979],[-65.6931,18.2382,48.2017],[-65.6889,18.2363,40.1948],[-65.6885,18.2315,84.4874],[-65.6695,18.2228,7.9681],[-65.6621,18.2252,4.1698],[-65.6584,18.2247,3.2909],[-65.658,18.2218,5.4198],[-65.6603,18.2176,18.0743],[-65.6645,18.2138,11.3664],[-65.66,18.2065,0.0],[-65.6551,18.2051,4.2241],[-65.6518,18.2001,0.0],[-65.6487,18.2004,0.0],[-65.6438,18.1979,0.0],[-65.6426,18.2004,0.0],[-65.6399,18.2001,0.0],[-65.6413,18.2021,4.7585],[-65.639,18.2065,2.2665],[-65.636,18.2032,0.5686],[-65.6357,18.1996,0.0],[-65.631,18.2001,0.0],[-65.6315,18.2021,6.8861],[-65.6276,18.206,1.675],[-65.6276,18.2082,2.0843],[-65.6301,18.2099,1.0972],[-65.6321,18.2068,9.0805],[-65.6354,18.2057,2.3762],[-65.6351,18.2099,2.9442],[-65.6318,18.2099,0.0],[-65.6307,18.2118,3.0059],[-65.6326,18.214,0.0],[-65.6326,18.2179,0.0],[-65.6368,18.2182,3.1387],[-65.6396,18.2201,1.9077],[-65.6357,18.2235,0.0],[-65.6374,18.2251,2.8179],[-65.6374,18.2285,3.2719],[-65.6315,18.2332,1.4489],[-65.6224,18.2318,2.0234],[-65.6224,18.2287,0.0],[-65.6257,18.2237,0.0],[-65.6212,18.229,0.0],[-65.6171,18.2274,0.0],[-65.6199,18.2224,0.0],[-65.6165,18.2229,0.0],[-65.6137,18.2207,2.5938],[-65.6113,18.211,0.9874],[-65.6101,18.211,0.0],[-65.6099,18.2143,1.2185],[-65.6079,18.2149,0.0],[-65.6051,18.2129,4.2589],[-65.6046,18.2104,0.0],[-65.5982,18.211,2.3855],[-65.5985,18.2132,2.9367],[-65.6049,18.2138,0.0],[-65.6071,18.215699999999998,0.0],[-65.6065,18.2174,3.6899],[-65.604,18.2174,0.8469],[-65.6038,18.221,0.0],[-65.6054,18.2221,0.0],[-65.606,18.2257,2.1496],[-65.6029,18.2299,0.0],[-65.594,18.2237,0.0],[-65.5921,18.2237,0.0],[-65.5912,18.2276,4.3729],[-65.5893,18.2276,0.0],[-65.5921,18.2313,2.6608],[-65.5946,18.231,4.5418],[-65.6026,18.2376,1.0172],[-65.6029,18.2426,0.6231],[-65.6093,18.2526,1.9363],[-65.6093,18.2562,1.6616],[-65.606,18.2571,0.0],[-65.6043,18.261,0.0],[-65.6107,18.2604,2.3194],[-65.6115,18.2571,8.1757],[-65.6157,18.2546,1.4302],[-65.6237,18.2557,0.4734],[-65.6301,18.2632,0.8586],[-65.631,18.2671,1.523],[-65.6307,18.2696,2.9614],[-65.6254,18.2732,1.115],[-65.6285,18.2749,1.7889],[-65.6285,18.2765,0.0],[-65.6243,18.2785,0.0],[-65.6249,18.2815,3.8269],[-65.6321,18.2804,8.2956],[-65.6338,18.2815,3.884]]],
[[[-65.5754,18.2499,7.0584],[-65.5785,18.2496,4.6364],[-65.5807,18.2468,0.0],[-65.5771,18.2463,0.0],[-65.5754,18.2499,7.0584]]],
[[[-65.5854,18.2535,0.0],[-65.5851,18.2568,0.9887],[-65.5874,18.2554,13.3208],[-65.5874,18.2526,10.5006],[-65.5918,18.2557,2.8746],[-65.5999,18.2551,0.0],[-65.5982,18.2521,2.5201],[-65.599,18.2482,0.6853],[-65.596,18.2476,1.7344],[-65.5971,18.2499,0.5412],[-65.5957,18.2499,2.0572],[-65.5882,18.2474,28.5741],[-65.5829,18.2479,3.4669],[-65.5854,18.2535,0.0]]]]}
,"properties": {"GID_1": "PRI.19_1","GID_0": "PRI","country": "PuertoRico","province": "Ceiba","VARNAME_1": "NA","NL_NAME_1": "NA","TYPE_1": "Municipio","ENGTYPE_1": "Municipality","CC_1": "NA","HASC_1": "PR.CB","ISO_1": "-","name": "Ceiba.province","area_km2": 76.9378,"hist_schema_id": "Elevation0-9000","hist_area_km2": {"0": 24.10414,"25": 12.94783,"50": 4.45001,"75": 3.92625,"100": 4.48993,"125": 4.95306,"150": 4.57052,"175": 3.3222,"200": 2.31545,"225": 1.36914,"250": 1.28859,"275": 0.58389,"300": 0.44295,"325": 0.302,"350": 0.34226,"375": 0.40266,"400": 0.28185,"425": 0.58384,"450": 0.42278,"475": 0.48317,"500": 0.44291,"525": 0.22146,"550": 0.38252,"575": 0.40264,"600": 0.32212,"625": 0.34225,"650": 0.24159,"675": 0.22146,"700": 0.34225,"725": 0.20133,"750": 0.30199,"775": 0.22146,"800": 0.18119,"825": 0.16106,"850": 0.14093,"875": 0.16106,"900": 0.20133,"925": 0.1812,"950": 0.26173,"975": 0.2416,"1000": 0.1208,"1025": 0.0604}}}