{"type":"Feature","properties":{"GID_2":"CUB.2.6_1","GID_0":"CUB","country":"Cuba","GID_1":"CUB.2_1","province":"CiegodeÁvila","NL_NAME_1":"NA","county":"Florencia","VARNAME_2":"NA","NL_NAME_2":"NA","TYPE_2":"Municipio","ENGTYPE_2":"Municipality","CC_2":"NA","HASC_2":"CU.CA.FL","name":"Florencia.county"},
"geometry":{"type": "MultiPolygon","coordinates": [[[[-78.8373,22.0699,140.4912],[-78.8189,22.059,135.0566],[-78.803,22.0554,127.9785],[-78.7759,22.0426,87.569],[-78.768,22.0428,80.808],[-78.7608,22.0484,67.2093],[-78.7486,22.073,70.2087],[-78.7357,22.0891,52.6014],[-78.7269,22.105,27.1384],[-78.725,22.1225,17.9759],[-78.7329,22.1432,11.1157],[-78.7328,22.1608,5.2254],[-78.7273,22.1694,4.4],[-78.7059,22.1895,2.361],[-78.703,22.1976,2.1697],[-78.7496,22.2843,10.1852],[-78.7536,22.2957,7.8273],[-78.7546,22.3149,1.6785],[-78.7576,22.3162,4.4598],[-78.7624,22.3221,2.3694],[-78.7712,22.3388,0.0],[-78.7707,22.3501,0.0],[-78.7665,22.364,0.0],[-78.7696,22.3724,3.45],[-78.769,22.3779,0.0],[-78.7765,22.3854,4.0034],[-78.7765,22.389,0.0],[-78.7929,22.3904,2.9991],[-78.8065,22.3815,2.1734],[-78.8082,22.3835,1.0131],[-78.8112,22.3807,0.4174],[-78.8213,22.3818,2.182],[-78.8246,22.3799,4.2715],[-78.8296,22.3796,4.6303],[-78.8349,22.3824,0.0],[-78.8551,22.3854,2.4312],[-78.8674,22.3929,0.657],[-78.871,22.3979,0.0],[-78.8796,22.3985,0.1422],[-78.8824,22.401,0.0],[-78.8926,22.4001,1.1581],[-78.8951,22.3976,0.0],[-78.881,22.3937,0.0],[-78.8774,22.391,0.4011],[-78.8754,22.3915,1.5113],[-78.8771,22.3896,1.0784],[-78.8815,22.3918,0.8379],[-78.8854,22.3904,1.3345],[-78.8899,22.3937,1.1693],[-78.8921,22.3913,0.8086],[-78.8968,22.3932,2.2643],[-78.9018,22.3921,3.5596],[-78.9046,22.3993,0.963],[-78.9096,22.4015,0.877],[-78.9185,22.3937,5.8467],[-78.9276,22.3929,3.9052],[-78.9304,22.391,0.0],[-78.9292,22.355,7.3935],[-78.9327,22.3408,5.6277],[-78.9558,22.3066,12.1092],[-78.9785,22.2831,18.2523],[-78.9864,22.2706,20.8099],[-78.9981,22.2242,33.0281],[-79.0161,22.2033,42.7783],[-79.0453,22.1529,141.1297],[-79.0441,22.1397,153.6018],[-78.9823,22.1232,96.8827],[-78.9634,22.1217,93.5834],[-78.9274,22.1232,83.4021],[-78.8823,22.1381,154.2168],[-78.8353,22.1379,87.101],[-78.8296,22.1331,83.1823],[-78.8205,22.1061,119.8303],[-78.8224,22.0968,117.905],[-78.8373,22.0699,140.4912]]]]}}