{"type": "Feature","bbox": [-61.7101,15.946,-61.6754,15.9744],"geometry": {"type": "MultiPolygon","coordinates": [[[[-61.7101,15.9706,20.6946],[-61.7085,15.9615,27.3871],[-61.7099,15.954,7.2455],[-61.7074,15.9515,6.8957],[-61.7076,15.9474,0.6757],[-61.7035,15.9487,6.5547],[-61.701,15.9465,0.0],[-61.6971,15.946,1.7866],[-61.6754,15.9524,0.0],[-61.6816,15.9603,123.4629],[-61.6835,15.9725,483.8082],[-61.6866,15.9744,547.5498],[-61.6928,15.9709,566.1363],[-61.7101,15.9706,20.6946]]]]}
,"properties": {"GID_2": "GLP.1.17_1","GID_0": "GLP","country": "Guadeloupe","GID_1": "GLP.1_1","province": "Basse-Terre","NL_NAME_1": "NA","county": "Vieux-Fort","VARNAME_2": "NA","NL_NAME_2": "NA","TYPE_2": "Communesimple","ENGTYPE_2": "Commune","CC_2": "35","HASC_2": "NA","name": "Vieux-Fort.county","area_km2": 7.827838,"hist_schema_id": "Elevation0-9000","hist_area_km2": {"0": 0.4281,"25": 0.265016,"50": 0.550413,"75": 0.591182,"100": 0.672721,"125": 0.672712,"150": 0.468862,"175": 0.448471,"200": 0.326161,"225": 0.448464,"250": 0.407695,"275": 0.570769,"300": 0.142692,"325": 0.264998,"350": 0.163076,"375": 0.346535,"400": 0.244611,"425": 0.183459,"450": 0.142688,"475": 0.101921,"500": 0.122303,"525": 0.101919,"550": 0.040768,"575": 0.040768,"600": 0.040767,"625": 0.020384,"650": 0.020384}}}