{"type":"Feature","properties":{"GID_2":"DOM.11.1_1","GID_0":"DOM","country":"DominicanRepublic","GID_1":"DOM.11_1","province":"LaAltagracia","NL_NAME_1":"NA","county":"LaLagunadeNisibón","VARNAME_2":"NA","NL_NAME_2":"NA","TYPE_2":"Distritomunicipal","ENGTYPE_2":"Municipaldistrict","CC_2":"NA","HASC_2":"DO.AL.LN","name":"La_Lagunade_Nisibón.county"},
"geometry":{"type": "MultiPolygon","coordinates": [[[[-68.7765,18.9735,5.0555],[-68.7784,18.9673,6.1094],[-68.7851,18.971,0.5435],[-68.7878,18.9701,1.9822],[-68.7885,18.9673,0.3347],[-68.7864,18.9625,5.1266],[-68.788,18.9592,4.6576],[-68.7919,18.9582,18.6412],[-68.8011,18.9601,25.9203],[-68.8073,18.9523,25.9142],[-68.8186,18.9445,36.8214],[-68.8211,18.94,40.8373],[-68.8187,18.9329,44.407],[-68.8192,18.923,50.4055],[-68.8375,18.9121,110.0778],[-68.8421,18.9068,168.1],[-68.8417,18.8994,143.3891],[-68.8338,18.8987,165.6095],[-68.8311,18.896,238.7628],[-68.8301,18.8871,327.5094],[-68.8251,18.8832,184.0321],[-68.8265,18.8734,339.7693],[-68.808,18.840699999999998,497.3151],[-68.8135,18.8328,364.8372],[-68.7952,18.8277,181.9259],[-68.7895,18.8243,328.2201],[-68.7823,18.8252,339.0156],[-68.77,18.8224,104.7413],[-68.7661,18.8236,86.4755],[-68.7647,18.8325,84.6933],[-68.7606,18.8338,90.9506],[-68.7499,18.825,250.3791],[-68.7448,18.8148,300.5112],[-68.7528,18.8019,216.9814],[-68.7534,18.7853,430.3484],[-68.756,18.7787,426.118],[-68.7563,18.7726,338.6396],[-68.7541,18.7669,230.4988],[-68.7472,18.761,181.7521],[-68.7434,18.7617,189.5982],[-68.7391,18.7676,141.9791],[-68.7107,18.7853,80.1892],[-68.7036,18.7853,90.5668],[-68.6872,18.7784,49.5942],[-68.6781,18.7849,24.0305],[-68.6707,18.7827,28.4994],[-68.6653,18.783,43.7939],[-68.6569,18.7959,4.1879],[-68.6462,18.792,13.3506],[-68.6381,18.7945,30.5087],[-68.6315,18.8036,1.0585],[-68.6314,18.8112,0.7148],[-68.6369,18.8199,0.8801],[-68.6374,18.8289,1.6741],[-68.6366,18.8329,0.8181],[-68.632,18.839,1.5849],[-68.6337,18.8499,6.9467],[-68.629,18.8579,2.3514],[-68.6318,18.8593,1.1021],[-68.6357,18.8657,1.1601],[-68.6418,18.871,5.399],[-68.6429,18.8743,1.8773],[-68.6479,18.8768,3.9551],[-68.6507,18.8838,0.8536],[-68.6549,18.886,1.7968],[-68.6649,18.8974,0.0],[-68.6699,18.8982,1.598],[-68.6807,18.9099,3.3309],[-68.686,18.9126,0.0],[-68.6993,18.9293,1.7915],[-68.7104,18.9338,0.0],[-68.714,18.9387,3.2172],[-68.7288,18.9471,0.0],[-68.7465,18.9601,7.337],[-68.7507,18.9599,4.3016],[-68.7538,18.9626,0.0],[-68.7607,18.9626,3.1674],[-68.7671,18.9657,1.2362],[-68.7751,18.9743,0.0],[-68.7765,18.9735,5.0555]]]]}}