{"type":"Feature","properties":{"GID_3":"HTI.10.3.3_1","GID_0":"HTI","country":"Haiti","GID_1":"HTI.10_1","province":"Sud","NL_NAME_1":"NA","GID_2":"HTI.10.3_1","county":"lesChardonnières","NL_NAME_2":"NA","city":"Tiburon","VARNAME_3":"NA","NL_NAME_3":"NA","TYPE_3":"Commune","ENGTYPE_3":"Commune","CC_3":"NA","HASC_3":"NA","name":"Tiburon.city"},
"geometry":{"type": "MultiPolygon","coordinates": [[[[-74.3368,18.2899,1.1865],[-74.3116,18.2849,0.0],[-74.3035,18.2868,0.0],[-74.2578,18.3109,2.711],[-74.2529,18.3103,0.0],[-74.2338,18.331,65.9545],[-74.2217,18.3367,123.6945],[-74.2297,18.3554,384.8899],[-74.2279,18.362,547.2336],[-74.2309,18.3629,524.2701],[-74.2317,18.365,522.9834],[-74.244,18.3751,825.306],[-74.2603,18.3764,483.5142],[-74.265,18.3813,398.9703],[-74.277,18.3813,471.5026],[-74.2939,18.3946,589.7242],[-74.2961,18.3917,689.564],[-74.2947,18.3854,856.1892],[-74.2961,18.3789,991.7126],[-74.3022,18.3721,1157.8169],[-74.3086,18.3669,963.385],[-74.3176,18.3641,894.7071],[-74.3245,18.3644,819.9409],[-74.3292,18.3609,900.2219],[-74.335,18.3627,878.3137],[-74.34,18.3619,918.7224],[-74.3431,18.3642,911.2742],[-74.3557,18.3601,969.2865],[-74.3655,18.3626,935.1296],[-74.3703,18.3601,1009.3645],[-74.3825,18.3605,1039.3646],[-74.3878,18.3628,962.6186],[-74.3896,18.3603,948.1396],[-74.3997,18.3575,871.0269],[-74.4102,18.3606,721.4866],[-74.4162,18.36,704.9871],[-74.4231,18.3571,646.9196],[-74.4304,18.3597,362.7481],[-74.4323,18.3588,299.5354],[-74.4324,18.3633,263.4148],[-74.4367,18.3662,131.6006],[-74.4357,18.3608,266.5307],[-74.4411,18.3569,215.4872],[-74.449,18.3584,7.9258],[-74.4504,18.3574,0.0],[-74.4471,18.3487,0.0],[-74.4449,18.3472,43.8252],[-74.4399,18.3465,0.0],[-74.4388,18.3443,0.0],[-74.431,18.3407,10.0282],[-74.4119,18.3379,0.0],[-74.4021,18.334,4.9807],[-74.3973,18.3254,1.0146],[-74.4019,18.3191,8.6792],[-74.3971,18.3157,9.9863],[-74.3887,18.3159,23.8812],[-74.3838,18.3142,59.3927],[-74.384,18.3112,9.3357],[-74.3766,18.3054,0.0],[-74.3696,18.2963,0.2327],[-74.3583,18.2961,2.0614],[-74.3564,18.2943,1.1009],[-74.3437,18.2927,2.0085],[-74.3368,18.2899,1.1865]]]]}}