{"type": "Feature","bbox": [-59.5823,13.096,-59.5062,13.1795],"geometry": {"type": "MultiPolygon","coordinates": [[[[-59.5116,13.123,65.2158],[-59.5062,13.1344,95.6608],[-59.5401,13.1795,265.3813],[-59.553,13.167,221.3924],[-59.5823,13.1564,134.3088],[-59.5676,13.096,104.1832],[-59.5116,13.123,65.2158]]]]}
,"properties": {"GID_1": "BRB.3_1","GID_0": "BRB","country": "Barbados","province": "SaintGeorge","VARNAME_1": "NA","NL_NAME_1": "NA","TYPE_1": "Parish","ENGTYPE_1": "Parish","CC_1": "NA","HASC_1": "BB.GE","ISO_1": "BB-03","name": "Saint_George.province","area_km2": 43.48323,"hist_schema_id": "Elevation0-9000","hist_area_km2": {"50": 6.587,"75": 5.90546,"100": 6.95853,"125": 3.86104,"150": 3.59254,"175": 5.98751,"200": 4.58339,"225": 3.79873,"250": 1.98193,"275": 0.2271}}}