{"type": "Feature","bbox": [-61.1307,16.1668,-61.0001,16.3504],"geometry": {"type": "MultiPolygon","coordinates": [[[[-61.1104,16.1743,0.0388],[-61.1182,16.1718,-0.3108],[-61.1185,16.1732,-0.0332],[-61.1265,16.1724,0.6139],[-61.129,16.1735,0.4454],[-61.1307,16.1712,0.0],[-61.1293,16.169,0.2551],[-61.1193,16.1668,0.0],[-61.1068,16.1699,0.0],[-61.1065,16.1715,0.0],[-61.1099,16.1724,1.5214],[-61.1104,16.1743,0.0388]]],
[[[-61.1035,16.1813,0.0],[-61.1137,16.1782,0.3909],[-61.1143,16.1765,0.0],[-61.1054,16.176,0.0],[-61.1046,16.1787,0.3277],[-61.1029,16.1785,0.0],[-61.1035,16.1813,0.0]]],
[[[-61.0068,16.3496,0.0],[-61.011,16.3504,3.5828],[-61.0146,16.3479,47.8875],[-61.0174,16.3487,0.0],[-61.0179,16.3451,43.6969],[-61.0199,16.3435,73.1355],[-61.024,16.3443,0.0],[-61.0274,16.3426,0.0],[-61.0288,16.3399,117.1016],[-61.0312,16.3404,0.0],[-61.031,16.3371,0.0],[-61.0354,16.3393,0.0],[-61.0357,16.3376,15.3546],[-61.0426,16.3349,0.0],[-61.0462,16.3316,0.0],[-61.049,16.3324,0.0],[-61.051,16.3282,10.424],[-61.0568,16.3271,0.0],[-61.0601,16.3221,9.0227],[-61.0635,16.3226,0.0],[-61.0646,16.3204,23.7198],[-61.0704,16.3187,99.6314],[-61.0721,16.321,0.0],[-61.074,16.3207,0.0],[-61.0765,16.3187,2.3406],[-61.0765,16.3166,27.7669],[-61.0779,16.3171,0.0],[-61.0776,16.3129,14.7283],[-61.0865,16.3118,13.0118],[-61.0904,16.3129,0.0],[-61.0935,16.3065,0.0],[-61.0985,16.3029,4.6414],[-61.0965,16.2999,4.0005],[-61.0988,16.2946,2.5965],[-61.0976,16.2901,0.0],[-61.0954,16.2896,0.0],[-61.0935,16.2943,2.9651],[-61.0904,16.2957,1.5777],[-61.0807,16.2965,0.0],[-61.081,16.2985,0.0],[-61.0796,16.2999,2.1596],[-61.0765,16.2993,0.0],[-61.0751,16.3024,4.3169],[-61.0724,16.3013,0.0],[-61.0701,16.3029,1.5888],[-61.0657,16.3026,0.2659],[-61.0474,16.3074,0.0],[-61.0357,16.3182,1.472],[-61.0276,16.3235,5.3276],[-61.0193,16.3274,7.0658],[-61.0137,16.3263,0.0],[-61.0135,16.3296,4.0619],[-61.0129,16.3296,6.192],[-61.0126,16.3279,0.0],[-61.0099,16.329,1.6695],[-61.0088,16.3279,0.0],[-61.0068,16.331,0.0],[-61.0046,16.3301,0.0],[-61.0029,16.3326,7.8741],[-61.001,16.3324,0.0],[-61.0001,16.3349,0.0],[-61.0024,16.3368,0.0],[-61.001,16.3388,0.0],[-61.0026,16.3379,0.0],[-61.0029,16.3404,1.2026],[-61.0049,16.3401,8.911],[-61.0037,16.3424,0.0],[-61.0057,16.3437,0.4768],[-61.0043,16.3451,0.0],[-61.0076,16.3465,12.0762],[-61.0068,16.3496,0.0]]]]}
,"properties": {"GID_2": "GLP.2.4_1","GID_0": "GLP","country": "Guadeloupe","GID_1": "GLP.2_1","province": "Pointe-à-Pitre","NL_NAME_1": "NA","county": "LaDésirade","VARNAME_2": "NA","NL_NAME_2": "NA","TYPE_2": "Chef-lieucanton","ENGTYPE_2": "Commune","CC_2": "10","HASC_2": "NA","name": "La_Désirade.county","area_km2": 22.66873,"hist_schema_id": "Elevation0-9000","hist_area_km2": {"0": 5.9429,"25": 2.99113,"50": 1.56677,"75": 1.5871,"100": 1.28191,"125": 1.20055,"150": 0.79356,"175": 1.46498,"200": 2.56375,"225": 1.4854,"250": 0.97672,"275": 0.81395}}}