{"type":"Feature","properties":{"ISO3166-1-Alpha-3":"BHS","country":"The Bahamas","fill":"#FF0","id":"5029","name":"South Eleuthera"},
"geometry":{"type": "Polygon","coordinates": [[[-76.15445,24.98139,1.9858],[-76.17032,24.98885,0.0],[-76.18798,24.97394,0.0],[-76.19384,24.96743,0.0],[-76.1966,24.96345,7.3878],[-76.20226,24.94668,2.0422],[-76.21093,24.90103,4.679],[-76.21203,24.87539,2.1464],[-76.20596,24.86408,2.1659],[-76.19542,24.87328,4.4055],[-76.18395,24.88931,0.0],[-76.17577,24.89452,5.8207],[-76.17496,24.87153,0.0],[-76.17764,24.85765,0.0],[-76.18244,24.84878,0.0],[-76.19884,24.83369,0.0],[-76.20397,24.82689,0.0],[-76.20812,24.81916,0.0],[-76.21276,24.81273,0.0],[-76.21935,24.81004,0.0],[-76.31745,24.82526,0.0],[-76.33373,24.82416,6.9094],[-76.33633,24.81493,8.1228],[-76.31526,24.79267,7.1374],[-76.2967,24.78205,4.2726],[-76.253,24.76577,3.4887],[-76.23644,24.75483,4.6852],[-76.22265,24.72696,0.8531],[-76.21178,24.69025,0.0],[-76.19449,24.65839,0.0],[-76.16128,24.64501,12.9672],[-76.17398,24.67731,10.6956],[-76.17748,24.71581,0.0],[-76.17496,24.78587,7.8716],[-76.16967,24.79979,3.9551],[-76.14615,24.83421,0.7396],[-76.14086,24.85444,11.1683],[-76.13695,24.90217,0.0],[-76.14086,24.91869,0.0],[-76.15355,24.94432,3.7069],[-76.15795,24.96214,2.4176],[-76.15445,24.98139,1.9858]]]}}