{"type": "Feature","bbox": [-76.3951,24.6126,-76.1335,24.9963],"geometry": {"type": "MultiPolygon","coordinates": [[[[-76.2926,24.804,0.0],[-76.2943,24.8035,0.0],[-76.2918,24.8024,0.0],[-76.2921,24.8035,0.4066],[-76.2926,24.804,0.0]]],
[[[-76.1425,24.9933,20.3275],[-76.1521,24.9963,0.0],[-76.1676,24.9818,1.9245],[-76.1918,24.969,0.0],[-76.1996,24.9599,2.332],[-76.2049,24.9401,2.4308],[-76.2076,24.9154,5.2072],[-76.2157,24.8907,2.4024],[-76.2143,24.8735,0.0],[-76.2126,24.8701,0.0],[-76.209,24.8682,2.0227],[-76.2038,24.8582,0.0],[-76.199,24.8563,0.994],[-76.1979,24.8535,0.0],[-76.1926,24.8504,1.2298],[-76.1904,24.8471,0.0],[-76.1893,24.8515,0.1303],[-76.1915,24.8504,1.2298],[-76.1924,24.8515,0.0],[-76.1921,24.8571,0.0],[-76.1937,24.8618,0.9007],[-76.1915,24.8696,0.0],[-76.1935,24.8801,3.2743],[-76.1924,24.8849,0.0],[-76.1874,24.8893,1.9264],[-76.1801,24.8913,0.761],[-76.1715,24.8885,0.0],[-76.1649,24.8832,0.6679],[-76.166,24.879,1.2059],[-76.1629,24.8679,0.0],[-76.1585,24.8621,0.7955],[-76.1588,24.8557,0.0],[-76.156,24.8499,5.8474],[-76.156,24.8451,6.4419],[-76.1579,24.8379,8.9908],[-76.1618,24.8321,2.8708],[-76.1785,24.8238,0.0],[-76.179,24.8215,1.6057],[-76.1813,24.8221,0.0],[-76.1849,24.8174,0.0],[-76.1846,24.8146,0.0993],[-76.1935,24.8207,2.7175],[-76.194,24.824,0.0],[-76.2029,24.8224,0.0],[-76.2074,24.8243,1.6541],[-76.206,24.8204,0.0],[-76.2004,24.8157,0.5173],[-76.1996,24.8129,0.1267],[-76.1963,24.8137,0.1135],[-76.1943,24.8113,0.3356],[-76.1949,24.8065,2.8415],[-76.201,24.8015,0.817],[-76.2051,24.7949,3.0051],[-76.2071,24.7949,0.0849],[-76.2218,24.784,0.8398],[-76.2254,24.7846,0.1547],[-76.229,24.7835,0.0],[-76.2293,24.7821,0.0],[-76.2335,24.7843,0.0],[-76.2415,24.7826,0.573],[-76.2551,24.7835,5.3973],[-76.2654,24.7882,5.4819],[-76.2721,24.7951,1.4988],[-76.2871,24.7999,0.5659],[-76.2887,24.8018,0.2373],[-76.2899,24.8007,0.0],[-76.2876,24.7993,0.5659],[-76.2924,24.7999,1.1873],[-76.2971,24.8051,0.0],[-76.3001,24.8063,2.0494],[-76.3054,24.8132,0.257],[-76.3076,24.8137,1.0367],[-76.3087,24.8168,1.5712],[-76.3126,24.8196,0.0],[-76.314,24.8182,0.5431],[-76.3168,24.819,0.2604],[-76.3288,24.8321,0.0],[-76.3371,24.8338,0.3049],[-76.3371,24.8368,0.0],[-76.3404,24.8365,0.7596],[-76.3437,24.8404,1.3168],[-76.3451,24.8401,1.3168],[-76.3446,24.836,0.743],[-76.3463,24.8304,0.2614],[-76.3412,24.8182,5.0606],[-76.341,24.8107,7.7738],[-76.3424,24.8082,0.0],[-76.3412,24.8051,1.0123],[-76.3376,24.8037,0.0],[-76.3329,24.7915,6.9496],[-76.3276,24.7835,0.0],[-76.3132,24.7807,0.4779],[-76.3085,24.778199999999998,0.0],[-76.3087,24.7768,0.0],[-76.3007,24.7763,0.5708],[-76.2982,24.774,0.0],[-76.2862,24.7729,0.6544],[-76.2812,24.7693,0.1888],[-76.2796,24.7696,0.1888],[-76.2801,24.7718,0.3653],[-76.2943,24.7788,0.9412],[-76.2793,24.7754,0.2378],[-76.2732,24.7724,0.4563],[-76.2679,24.7696,0.1644],[-76.2646,24.7649,0.5422],[-76.2674,24.7643,0.4909],[-76.2679,24.7668,0.309],[-76.2751,24.7687,0.2162],[-76.2804,24.7676,0.0],[-76.2724,24.7649,0.5519],[-76.2682,24.7588,0.4328],[-76.2668,24.7604,0.0],[-76.2621,24.759,1.3607],[-76.2604,24.7571,1.1516],[-76.2607,24.7549,1.1543],[-76.2629,24.754,0.2448],[-76.2615,24.7524,0.3643],[-76.2487,24.7485,0.0],[-76.2415,24.7418,0.0],[-76.2304,24.7349,0.0],[-76.2268,24.7299,1.2801],[-76.2285,24.7257,0.0],[-76.2235,24.7176,0.4344],[-76.224,24.7129,0.0],[-76.2182,24.7062,0.0],[-76.2193,24.704,0.0],[-76.2151,24.6946,0.4265],[-76.2093,24.6876,0.5113],[-76.2099,24.6851,0.0],[-76.2076,24.6807,0.3551],[-76.2038,24.6763,0.0],[-76.2049,24.6743,0.0],[-76.1954,24.6696,0.3884],[-76.1946,24.6668,0.0],[-76.186,24.6599,0.5994],[-76.1832,24.6529,0.0],[-76.184,24.6504,0.0],[-76.1826,24.646,1.478],[-76.1774,24.6407,1.1644],[-76.1749,24.6315,0.0],[-76.1699,24.6285,0.7322],[-76.1685,24.6232,0.0],[-76.1635,24.6226,2.5092],[-76.1601,24.6201,2.0473],[-76.159,24.6171,0.0],[-76.1554,24.6171,2.6757],[-76.1543,24.6154,0.0],[-76.1482,24.6168,0.0],[-76.1449,24.6126,1.3091],[-76.1443,24.6132,1.3091],[-76.1454,24.6157,0.0],[-76.1449,24.6262,0.0],[-76.1504,24.6368,4.8422],[-76.1543,24.6574,1.3915],[-76.1615,24.6796,0.0],[-76.1643,24.6804,3.6202],[-76.1732,24.6893,0.6115],[-76.1757,24.6971,1.4094],[-76.1743,24.699,0.0],[-76.1751,24.7007,0.0],[-76.1824,24.7018,1.7866],[-76.189,24.7096,4.7251],[-76.1924,24.7221,0.0],[-76.1921,24.7246,0.0],[-76.189,24.7254,0.0],[-76.1913,24.7349,1.5341],[-76.1901,24.7412,0.0],[-76.1935,24.744,6.4383],[-76.1946,24.7476,1.9922],[-76.1929,24.7529,0.0],[-76.1888,24.7543,0.0],[-76.1876,24.7654,1.4158],[-76.1799,24.7687,0.0],[-76.1807,24.7718,0.0],[-76.179,24.7793,9.602],[-76.1735,24.7846,2.2474],[-76.1704,24.7846,8.9098],[-76.1704,24.7824,8.0476],[-76.1682,24.7821,0.0],[-76.1663,24.7874,0.0],[-76.1654,24.7988,0.0],[-76.1607,24.8051,0.0],[-76.1562,24.8182,2.4655],[-76.1499,24.8221,4.2383],[-76.1462,24.8315,1.8845],[-76.1438,24.8324,1.7475],[-76.1399,24.8415,6.915],[-76.1376,24.8418,0.0],[-76.136,24.8604,1.3698],[-76.134,24.8638,0.0],[-76.1335,24.8699,1.6191],[-76.1351,24.8726,0.0],[-76.1349,24.8782,0.0],[-76.1385,24.8863,0.0],[-76.139,24.8915,0.0],[-76.1376,24.8943,0.0],[-76.1426,24.9176,0.0],[-76.1479,24.9254,5.5974],[-76.1482,24.9351,5.7984],[-76.1499,24.9351,0.0],[-76.1521,24.9321,0.0],[-76.1521,24.9274,0.0],[-76.1482,24.9212,0.0],[-76.1507,24.9146,3.0244],[-76.1543,24.9146,2.1106],[-76.156,24.9168,0.0],[-76.1571,24.9151,3.3244],[-76.1588,24.916,4.9677],[-76.1643,24.9268,3.9486],[-76.1629,24.9337,0.6007],[-76.1593,24.9387,0.1742],[-76.1565,24.9396,0.9084],[-76.1504,24.9363,0.0],[-76.1474,24.9374,0.0],[-76.1496,24.9443,0.4279],[-76.1579,24.9451,0.8765],[-76.1599,24.9476,1.4016],[-76.1607,24.954,6.874],[-76.1576,24.961,0.0],[-76.1546,24.9632,1.47],[-76.1521,24.9632,0.0],[-76.1507,24.9596,0.0],[-76.1476,24.9585,0.0],[-76.1465,24.9696,0.0],[-76.1451,24.9715,0.7773],[-76.1404,24.971,0.7225],[-76.1421,24.9749,3.8297],[-76.1421,24.9821,14.1772],[-76.1385,24.993,0.0],[-76.1425,24.9933,20.3275]]],
[[[-76.3679,24.903199999999998,0.0],[-76.3685,24.9035,0.0545],[-76.3718,24.9004,0.0],[-76.3699,24.8999,0.0],[-76.3679,24.903199999999998,0.0]]],
[[[-76.3529,24.9054,1.0026],[-76.3551,24.9051,0.2748],[-76.3538,24.903199999999998,0.0],[-76.3524,24.9035,0.0],[-76.3529,24.9054,1.0026]]],
[[[-76.3924,24.9279,0.0],[-76.3926,24.9293,0.0],[-76.3951,24.9293,0.0],[-76.3949,24.9279,0.0],[-76.3924,24.9279,0.0]]]]}
,"properties": {"GID_1": "BHS.30_1","GID_0": "BHS","country": "Bahamas","state": "SouthEleuthera","VARNAME_1": "NA","NL_NAME_1": "NA","TYPE_1": "District","ENGTYPE_1": "District","CC_1": "NA","HASC_1": "BS.SE","ISO_1": "BS-SE","name": "SouthEleuthera.state","area_km2": 213.1966,"hist_schema_id": "Elevation0-9000","hist_area_km2": {"0": 182.1254,"25": 31.0713}}}