{"type": "Feature","bbox": [-71.0446,19.5336,-70.8728,19.7017],"geometry": {"type": "MultiPolygon","coordinates": [[[[-70.9584,19.6748,721.6216],[-70.97,19.6813,722.9691],[-70.9754,19.6868,597.9429],[-70.9779,19.6924,794.6857],[-70.9858,19.6945,554.425],[-70.992,19.7013,578.7593],[-70.996,19.7017,534.9897],[-71.0046,19.6992,474.3723],[-71.0227,19.6989,553.4656],[-71.019,19.6915,547.498],[-71.0211,19.6857,393.1405],[-71.0218,19.6748,201.2211],[-71.0269,19.6645,147.2772],[-71.0278,19.6551,115.6269],[-71.033,19.6384,76.8006],[-71.0335,19.6108,69.1866],[-71.0413,19.6011,66.4994],[-71.0446,19.5943,64.4169],[-71.0424,19.5871,70.4139],[-71.0422,19.5781,60.6647],[-71.0382,19.5706,62.5293],[-71.0318,19.5682,64.8926],[-71.0331,19.5641,64.4866],[-71.0315,19.5609,62.5578],[-71.0255,19.5589,64.9025],[-71.0169,19.5618,65.2546],[-71.0119,19.5653,67.9732],[-71.0079,19.5587,65.1646],[-71.0111,19.5521,65.666],[-71.0065,19.5494,69.6502],[-71.0025,19.5499,70.2301],[-70.9995,19.5542,69.324],[-70.9931,19.556,71.4799],[-70.9892,19.56,69.3236],[-70.9853,19.56,73.1894],[-70.9829,19.5571,78.3132],[-70.9823,19.5477,74.9273],[-70.9793,19.5384,87.2627],[-70.9738,19.5336,93.272],[-70.9666,19.5368,93.1274],[-70.9649,19.5438,92.0058],[-70.9619,19.5466,72.8435],[-70.9552,19.54,82.6209],[-70.9502,19.5381,97.0781],[-70.9411,19.5465,95.3252],[-70.9249,19.551,81.7151],[-70.9149,19.566,105.7499],[-70.916,19.5685,107.8133],[-70.9231,19.5707,114.754],[-70.923,19.5744,120.1237],[-70.9195,19.5773,134.0816],[-70.9133,19.5762,124.3246],[-70.8898,19.5565,119.2784],[-70.8854,19.5557,114.4596],[-70.8791,19.5649,126.1183],[-70.8782,19.5733,127.1854],[-70.8728,19.5914,188.9833],[-70.8762,19.6128,280.4085],[-70.89,19.6377,656.1802],[-70.8908,19.6435,804.7818],[-70.8947,19.6443,797.5404],[-70.9009,19.6424,828.3349],[-70.9111,19.6456,801.3861],[-70.9166,19.6522,900.2622],[-70.9282,19.6608,866.8542],[-70.9416,19.6601,725.5406],[-70.9584,19.6748,721.6216]]]]}
,"properties": {"GID_2": "DOM.32.1_1","GID_0": "DOM","country": "DominicanRepublic","GID_1": "DOM.32_1","province": "Valverde","NL_NAME_1": "NA","county": "Esperanza","VARNAME_2": "NA","NL_NAME_2": "NA","TYPE_2": "Municipio","ENGTYPE_2": "Municipality","CC_2": "NA","HASC_2": "DO.VA.ES","name": "Esperanza.county","area_km2": 211.9241,"hist_schema_id": "Elevation0-9000","hist_area_km2": {"50": 3.5153,"75": 49.998,"100": 44.2014,"125": 37.1316,"150": 13.1213,"175": 8.2476,"200": 5.7912,"225": 4.4133,"250": 3.7143,"275": 3.1351,"300": 3.155,"325": 3.0751,"350": 2.7555,"375": 2.5558,"400": 2.6156,"425": 2.0764,"450": 2.1762,"475": 1.9965,"500": 2.1762,"525": 2.1763,"550": 1.9366,"575": 1.9367,"600": 1.6571,"625": 1.3976,"650": 1.2379,"675": 0.9983,"700": 0.8386,"725": 0.7587,"750": 0.7787,"775": 0.6789,"800": 0.3594,"825": 0.4992,"850": 0.3993,"875": 0.3195,"900": 0.0998}}}