{"type":"Feature","properties":{"GID_2":"CUB.2.4_1","GID_0":"CUB","country":"Cuba","GID_1":"CUB.2_1","province":"CiegodeÁvila","NL_NAME_1":"NA","county":"Ciegodeávila","VARNAME_2":"NA","NL_NAME_2":"NA","TYPE_2":"Municipio","ENGTYPE_2":"Municipality","CC_2":"NA","HASC_2":"CU.CA.CA","name":"Ciegodeávila.county"},
"geometry":{"type": "MultiPolygon","coordinates": [[[[-78.871,21.8989,86.0781],[-78.9058,21.8319,59.2127],[-78.9021,21.765,32.8919],[-78.8959,21.7582,30.4893],[-78.8702,21.7423,23.6151],[-78.8508,21.7334,22.025],[-78.7871,21.7326,19.153],[-78.7206,21.7546,23.0576],[-78.6982,21.7577,15.4499],[-78.6822,21.7642,15.3381],[-78.7131,21.8279,34.5806],[-78.7124,21.8435,42.7282],[-78.697,21.891,43.7968],[-78.6974,21.9004,44.3458],[-78.703,21.9078,49.1411],[-78.7306,21.9131,50.5215],[-78.7605,21.9263,64.4915],[-78.7832,21.9258,64.0026],[-78.808,21.9149,83.358],[-78.8092,21.8775,70.9447],[-78.8116,21.873,67.1977],[-78.8168,21.8715,68.5163],[-78.871,21.8989,86.0781]]]]}}