{"type":"Feature","properties":{"GID_2":"CUB.13.3_1","GID_0":"CUB","country":"Cuba","GID_1":"CUB.13_1","province":"PinardelRío","NL_NAME_1":"NA","county":"ConsolacióndelSur","VARNAME_2":"NA","NL_NAME_2":"NA","TYPE_2":"Municipio","ENGTYPE_2":"Municipality","CC_2":"NA","HASC_2":"CU.PR.CS","name":"Consolacióndel_Sur.county"},
"geometry":{"type": "MultiPolygon","coordinates": [[[[-83.2712,22.3377,0.294],[-83.2715,22.3377,0.294],[-83.2712,22.3376,0.294],[-83.2712,22.3377,0.294]]],
[[[-83.6199,22.5466,54.0095],[-83.6277,22.5411,60.7906],[-83.6189,22.533,78.825],[-83.6198,22.513,75.5061],[-83.6268,22.4943,50.5013],[-83.6262,22.4866,51.0381],[-83.6221,22.4794,43.7216],[-83.6058,22.4648,50.2652],[-83.5858,22.4536,49.5129],[-83.5582,22.4283,32.0937],[-83.5242,22.3822,18.935],[-83.493,22.3678,17.1675],[-83.48,22.3587,16.6908],[-83.4766,22.3328,12.4272],[-83.4698,22.3153,11.6351],[-83.4681,22.2777,7.0296],[-83.4606,22.2584,6.2804],[-83.4594,22.2166,0.5036],[-83.4518,22.1954,5.433],[-83.4513,22.1863,1.9623],[-83.4396,22.1882,1.6055],[-83.4246,22.1851,1.6507],[-83.4221,22.1832,0.0],[-83.4168,22.184,0.8983],[-83.4096,22.194,2.9215],[-83.4037,22.1968,0.3802],[-83.4035,22.1979,0.3211],[-83.4079,22.2004,3.5306],[-83.4074,22.2029,0.0],[-83.4051,22.2043,2.4866],[-83.4013,22.2038,2.6753999999999998],[-83.3982,22.1999,1.3633],[-83.394,22.2004,0.0],[-83.3915,22.2049,3.1699],[-83.3874,22.2004,0.0],[-83.3799,22.1996,1.3068],[-83.3701,22.201,0.5169],[-83.3618,22.2051,0.0],[-83.3579,22.209,1.2373],[-83.3582,22.211,1.1427],[-83.356,22.2107,0.416],[-83.3507,22.215699999999998,0.7479],[-83.3435,22.2274,0.4826],[-83.3415,22.2354,0.0],[-83.336,22.2421,2.4003],[-83.3315,22.2449,1.01],[-83.3307,22.2499,0.0],[-83.3285,22.2526,0.7266],[-83.3251,22.2518,2.0799],[-83.3249,22.2501,1.7119],[-83.3293,22.2482,2.4023],[-83.3285,22.2451,1.3195],[-83.3307,22.2435,0.3239],[-83.3313,22.2365,0.0],[-83.3196,22.2449,0.3769],[-83.3135,22.2468,0.9007],[-83.3132,22.251,1.1621],[-83.3179,22.2526,1.164],[-83.3179,22.2543,0.0],[-83.321,22.2565,0.0],[-83.3238,22.2646,1.2571],[-83.3232,22.2738,3.5619],[-83.3199,22.2824,0.6826],[-83.3185,22.2826,1.7878],[-83.3149,22.2787,0.0],[-83.3082,22.2801,0.0],[-83.3012,22.2851,0.4457],[-83.2935,22.2882,0.0],[-83.291,22.2915,0.6994],[-83.2954,22.2938,0.0],[-83.2996,22.2924,1.4846],[-83.3024,22.2946,0.6875],[-83.2957,22.2971,1.5565],[-83.2893,22.2932,0.0],[-83.2857,22.296,0.0],[-83.2851,22.3032,0.0],[-83.2874,22.3121,0.0],[-83.2921,22.309,0.6224],[-83.2904,22.3113,1.8904],[-83.2893,22.3235,2.1571],[-83.2871,22.3274,4.2023],[-83.2829,22.3288,3.0593],[-83.2776,22.3238,0.3602],[-83.2724,22.3254,0.0],[-83.2682,22.324,0.3506],[-83.2682,22.3263,0.428],[-83.2663,22.3265,0.4984],[-83.2732,22.3293,0.4967],[-83.2743,22.3312,0.9137],[-83.274,22.3346,0.8182],[-83.2715,22.3377,0.294],[-83.2746,22.3377,1.3091],[-83.286,22.374,7.4646],[-83.2887,22.4069,9.1498],[-83.2963,22.4293,12.1149],[-83.298,22.5955,75.0309],[-83.3,22.6065,71.5991],[-83.3082,22.6229,65.498],[-83.3181,22.6375,93.7341],[-83.3298,22.6443,64.1292],[-83.3748,22.6552,78.0804],[-83.3867,22.6535,108.5793],[-83.4408,22.6279,131.8869],[-83.4522,22.6183,101.9281],[-83.4676,22.6099,111.2221],[-83.4898,22.5917,66.8089],[-83.5072,22.5838,67.4266],[-83.523,22.5803,82.4151],[-83.5505,22.5674,71.0458],[-83.6063,22.5518,54.9852],[-83.6199,22.5466,54.0095]]]]}}