{"type": "Feature","bbox": [-73.6998,18.2101,-73.5386,18.4332],"geometry": {"type": "MultiPolygon","coordinates": [[[[-73.5546,18.336,877.4631],[-73.5615,18.3472,545.4474],[-73.5643,18.3444,634.0874],[-73.5643,18.3465,547.4626],[-73.5563,18.3497,830.6975],[-73.5572,18.3583,636.0804],[-73.5549,18.3699,454.0576],[-73.5462,18.3753,563.7446],[-73.543,18.3757,565.4875],[-73.5418,18.3736,506.0827],[-73.5386,18.3845,475.8293],[-73.5438,18.3862,448.7751],[-73.5463,18.3892,477.8279],[-73.5486,18.3874,488.9577],[-73.5526,18.3904,503.591],[-73.5589,18.3911,517.9965],[-73.5594,18.3993,594.3403],[-73.5622,18.4013,555.8101],[-73.5739,18.4011,528.2023],[-73.5789,18.4071,504.8514],[-73.5794,18.4165,344.7047],[-73.578,18.4204,328.489],[-73.5852,18.4208,414.7292],[-73.5915,18.4188,545.7237],[-73.6016,18.4203,379.6355],[-73.6096,18.427,422.9119],[-73.6261,18.4256,359.2691],[-73.6315,18.4219,418.3113],[-73.6389,18.4249,372.4841],[-73.6435,18.4301,415.843],[-73.6479,18.4297,586.3645],[-73.6534,18.4257,679.3358],[-73.6681,18.4332,510.2808],[-73.6699,18.4301,552.9741],[-73.672,18.4306,628.625],[-73.671,18.4254,632.7036],[-73.6726,18.4157,674.2314],[-73.671,18.4056,684.6884],[-73.6739,18.4,507.3129],[-73.6767,18.3979,548.1161],[-73.6797,18.3988,527.0443],[-73.691,18.409,448.6588],[-73.6965,18.4041,579.6842],[-73.6972,18.3991,615.6134],[-73.6913,18.3895,578.9135],[-73.6977,18.3786,480.1079],[-73.6973,18.3727,401.5002],[-73.6933,18.3668,181.1368],[-73.6867,18.3653,132.3861],[-73.6884,18.3601,75.7101],[-73.6865,18.3521,31.1844],[-73.6879,18.3499,34.2592],[-73.6945,18.3486,39.1386],[-73.6998,18.3375,248.6077],[-73.6984,18.332,209.7285],[-73.6958,18.3298,186.0636],[-73.6953,18.3248,144.336],[-73.6884,18.3194,96.6078],[-73.6891,18.3137,62.0214],[-73.6875,18.3118,52.4675],[-73.6837,18.312,71.8183],[-73.6828,18.3083,50.8778],[-73.6852,18.303,46.683],[-73.6821,18.2902,69.0307],[-73.6888,18.2819,18.0216],[-73.6841,18.2663,6.0894],[-73.6806,18.264,2.8999],[-73.6807,18.2602,3.7218],[-73.6843,18.2572,0.9579],[-73.6839,18.2539,0.736],[-73.6888,18.2557,28.6116],[-73.6925,18.2549,3.5649],[-73.6926,18.253,6.988],[-73.6892,18.2514,5.1094],[-73.6856,18.2445,0.6013],[-73.6849,18.2385,1.1987],[-73.6793,18.2385,0.0],[-73.6754,18.2365,0.0],[-73.6751,18.2321,0.0],[-73.6774,18.226,0.0],[-73.6751,18.2251,0.0],[-73.6746,18.2229,0.0],[-73.6729,18.2229,0.0],[-73.6699,18.2268,0.0],[-73.6675,18.2332,9.1106],[-73.6583,18.2358,8.0002],[-73.6544,18.239,5.9701],[-73.6496,18.2526,0.0],[-73.6466,18.2532,0.5501],[-73.6418,18.2454,0.0],[-73.6451,18.2404,26.7224],[-73.6482,18.2393,3.2941],[-73.6513,18.2276,1.3199],[-73.6612,18.2274,0.0],[-73.6607,18.2235,0.0],[-73.6624,18.2218,0.0],[-73.6612,18.2185,5.1137],[-73.6643,18.2154,0.0],[-73.6626,18.2101,0.0],[-73.6574,18.2105,0.5654],[-73.6518,18.2154,0.9032],[-73.6454,18.2142,0.5163],[-73.6396,18.2171,4.0782],[-73.6387,18.2213,0.7441],[-73.6329,18.2235,0.0],[-73.6324,18.2268,4.1319],[-73.6338,18.2282,14.0415],[-73.6432,18.2266,44.3095],[-73.6443,18.2279,54.7165],[-73.6367,18.2403,24.1378],[-73.6363,18.2485,34.0228],[-73.633,18.2572,25.5346],[-73.6223,18.2652,103.108],[-73.6257,18.2754,156.2805],[-73.6298,18.2779,91.4631],[-73.6355,18.2784,75.4847],[-73.634,18.2817,26.3013],[-73.6297,18.2841,78.4939],[-73.6304,18.2871,50.2935],[-73.627,18.2896,104.4132],[-73.6299,18.293,40.8544],[-73.6244,18.2956,77.2036],[-73.623,18.2939,71.1011],[-73.6209,18.2957,155.5435],[-73.6131,18.2951,161.0913],[-73.6124,18.2921,234.9027],[-73.6104,18.2909,289.1674],[-73.6031,18.2969,353.7972],[-73.5979,18.2982,341.3354],[-73.5882,18.3075,299.4393],[-73.5887,18.309,343.7498],[-73.5848,18.3157,357.4958],[-73.5818,18.3159,414.5999],[-73.5827,18.3205,390.1686],[-73.5746,18.3201,425.7517],[-73.5724,18.3217,470.9263],[-73.571,18.3203,425.8589],[-73.5653,18.3267,361.8659],[-73.564,18.3217,238.6584],[-73.5606,18.3221,335.6061],[-73.5544,18.3306,579.7661],[-73.5546,18.336,877.4631]]]]}
,"properties": {"GID_3": "HTI.10.1.2_1","GID_0": "HTI","country": "Haiti","GID_1": "HTI.10_1","province": "Sud","NL_NAME_1": "NA","GID_2": "HTI.10.1_1","county": "Aquin","NL_NAME_2": "NA","city": "Cavaillon","VARNAME_3": "NA","NL_NAME_3": "NA","TYPE_3": "Commune","ENGTYPE_3": "Commune","CC_3": "NA","HASC_3": "NA","name": "Cavaillon.city","area_km2": 229.4448,"hist_schema_id": "Elevation0-9000","hist_area_km2": {"0": 22.3085,"25": 24.7588,"50": 21.1945,"75": 13.3852,"100": 8.9363,"125": 7.3458,"150": 6.2186,"175": 5.494,"200": 5.675,"225": 5.5341,"250": 5.031,"275": 5.5542,"300": 4.9304,"325": 4.4071,"350": 4.5882,"375": 5.2317,"400": 5.7545,"425": 4.7283,"450": 5.191,"475": 5.5732,"500": 5.8548,"525": 6.9412,"550": 6.9816,"575": 6.8809,"600": 6.1566,"625": 5.6939,"650": 4.1849,"675": 2.9173,"700": 2.3338,"725": 2.1126,"750": 1.6096,"775": 0.7848,"800": 0.644,"825": 0.6843,"850": 0.8453,"875": 0.7044,"900": 0.4629,"925": 0.4226,"950": 0.3019,"975": 0.3623,"1000": 0.161,"1025": 0.2013,"1050": 0.2013,"1075": 0.1006,"1100": 0.0604}}}