{"type":"Feature","properties":{"GID_1":"HTI.2_1","GID_0":"HTI","country":"Haiti","province":"Grand'Anse","VARNAME_1":"Grande-Asne|GrandeAnse","NL_NAME_1":"NA","TYPE_1":"Département","ENGTYPE_1":"Department","CC_1":"NA","HASC_1":"HT.GR","ISO_1":"NA","name":"Grand'Anse.province"},
"geometry":{"type": "MultiPolygon","coordinates": [[[[-74.3933,18.3591,868.4869],[-74.3896,18.3603,948.1396],[-74.3878,18.3628,962.6186],[-74.3825,18.3605,1039.3646],[-74.3703,18.3601,1009.3645],[-74.3655,18.3626,935.1296],[-74.3557,18.3601,969.2865],[-74.3431,18.3642,911.2742],[-74.34,18.3619,918.7224],[-74.335,18.3627,878.3137],[-74.3299,18.3608,900.2219],[-74.3245,18.3644,819.9409],[-74.3176,18.3641,894.7071],[-74.3086,18.3669,963.385],[-74.2961,18.3789,991.7126],[-74.2947,18.3854,856.1892],[-74.2961,18.3917,689.564],[-74.2939,18.3946,589.7242],[-74.277,18.3813,471.5026],[-74.265,18.3813,398.9703],[-74.2603,18.3764,483.5142],[-74.2497,18.3747,624.7682],[-74.2355,18.3768,765.8966],[-74.2305,18.3799,1013.6072],[-74.2229,18.3799,924.8289],[-74.2208,18.3834,990.9964],[-74.2232,18.3882,835.1764],[-74.2174,18.3919,727.7714],[-74.2171,18.402,881.7188],[-74.215,18.4039,811.1697],[-74.2064,18.398,596.8766],[-74.1964,18.3977,707.1957],[-74.1811,18.3919,958.6603],[-74.1757,18.3938,1175.2821],[-74.1716,18.3929,1219.3491],[-74.1554,18.3956,1078.1721],[-74.1317,18.401,1455.3884],[-74.1241,18.3963,1693.2192],[-74.1182,18.3967,1733.7159],[-74.1065,18.4034,1810.1443],[-74.1008,18.4027,1999.8523],[-74.0818,18.4075,1121.1294],[-74.0754,18.4051,1128.9192],[-74.061,18.4033,982.0336],[-74.047,18.3894,1913.3657],[-74.0355,18.3874,2145.7559],[-74.0319,18.384,2290.3193],[-74.0156,18.3818,2066.5762],[-74.0027,18.3836,1922.7457],[-73.9838,18.3737,813.6937],[-73.9785,18.3732,794.043],[-73.9777,18.3712,797.7612],[-73.976,18.3728,775.1509],[-73.9735,18.3704,831.9202],[-73.9643,18.3687,720.2408],[-73.9428,18.3704,582.3362],[-73.9309,18.3654,608.03],[-73.9261,18.3664,501.7318],[-73.9229,18.364,490.0479],[-73.9188,18.3647,467.2976],[-73.9066,18.3621,394.8359],[-73.8956,18.363,358.0066],[-73.8929,18.3753,680.8807],[-73.8979,18.377,818.822],[-73.9062,18.3891,916.4146],[-73.9064,18.3959,820.2624],[-73.9057,18.3989,807.1788],[-73.9034,18.4005,787.7103],[-73.8786,18.4073,798.3356],[-73.8751,18.4055,886.1104],[-73.8684,18.4071,814.4863],[-73.8627,18.4062,896.1783],[-73.8457,18.4077,925.5178],[-73.8428,18.4067,1061.6755],[-73.8354,18.4102,1122.7659],[-73.8213,18.4128,1063.4935],[-73.7856,18.424,1103.3995],[-73.78,18.4239,1086.592],[-73.7789,18.4412,873.6298],[-73.7758,18.4421,842.4801],[-73.7748,18.4541,701.1531],[-73.7724,18.4568,665.6496],[-73.7663,18.4594,568.6419],[-73.7654,18.4654,403.8486],[-73.7425,18.4777,220.981],[-73.738,18.484,288.0427],[-73.7385,18.4862,342.8564],[-73.7423,18.4892,303.3923],[-73.7617,18.4941,354.0577],[-73.7673,18.4964,393.5909],[-73.7688,18.4989,413.9645],[-73.7653,18.506,370.8011],[-73.7576,18.5117,366.6922],[-73.7539,18.517,329.1968],[-73.7433,18.5231,315.3116],[-73.7374,18.536,139.8833],[-73.7315,18.5406,14.7566],[-73.7314,18.5428,2.0011],[-73.7355,18.5458,68.2513],[-73.7316,18.5496,10.6137],[-73.734,18.5502,22.6636],[-73.7391,18.5471,0.0],[-73.7421,18.5477,0.0],[-73.7535,18.544,18.8061],[-73.7596,18.5451,5.3517],[-73.7624,18.5401,62.6244],[-73.7646,18.5449,0.0],[-73.7718,18.5421,0.0],[-73.7729,18.5385,23.2071],[-73.7737,18.5404,4.3098],[-73.776,18.539,17.8349],[-73.7747,18.5421,0.0],[-73.776,18.5421,0.0],[-73.7781,18.5392,7.8936],[-73.7765,18.5376,15.75],[-73.7771,18.536,11.179],[-73.7787,18.5362,3.9714],[-73.7782,18.5385,0.0],[-73.7801,18.5401,8.0612],[-73.7815,18.5385,54.4752],[-73.7831,18.5399,7.5963],[-73.7882,18.539,0.0],[-73.7899,18.5368,20.0354],[-73.7901,18.5379,59.7918],[-73.7887,18.541,0.0],[-73.7924,18.5449,12.1555],[-73.7909,18.5457,1.2478],[-73.7957,18.5455,0.0],[-73.7935,18.5483,0.0],[-73.7971,18.5468,12.8916],[-73.7967,18.5494,0.0],[-73.8018,18.5522,0.0],[-73.8032,18.5503,32.2222],[-73.8029,18.5532,0.0],[-73.8051,18.5551,4.0085],[-73.8077,18.5552,33.6804],[-73.8101,18.5575,0.0],[-73.8112,18.5567,22.6668],[-73.812,18.5581,0.0],[-73.8143,18.5565,15.0867],[-73.8129,18.5594,0.0],[-73.8141,18.561,0.0],[-73.816,18.5601,14.6489],[-73.8152,18.559,14.6489],[-73.8165,18.5574,54.6622],[-73.8183,18.5607,0.0],[-73.8206,18.559,15.9855],[-73.822,18.5627,0.0],[-73.8251,18.5607,15.7282],[-73.8268,18.5629,0.0],[-73.8335,18.5657,10.2894],[-73.8332,18.5668,10.2894],[-73.8365,18.5668,11.4155],[-73.8361,18.569,0.0],[-73.8396,18.5671,3.6367],[-73.8402,18.5701,0.0],[-73.8424,18.5699,26.4707],[-73.8418,18.572,7.3663],[-73.8465,18.5699,24.8414],[-73.8471,18.5722,0.0],[-73.8501,18.5661,46.7548],[-73.8524,18.5674,15.855],[-73.8515,18.5715,17.3577],[-73.8525,18.5725,0.0],[-73.8546,18.571,9.0317],[-73.8551,18.5726,0.0],[-73.8585,18.5701,0.927],[-73.8653,18.5718,13.8611],[-73.8698,18.5694,8.4895],[-73.8724,18.5701,36.6062],[-73.8721,18.5724,0.0],[-73.8732,18.5724,0.0],[-73.8766,18.5697,20.5761],[-73.8815,18.5707,0.0],[-73.8901,18.5685,2.1982],[-73.9011,18.5691,0.0],[-73.9033,18.5665,2.1766],[-73.9045,18.571,0.2722],[-73.9024,18.5706,0.0],[-73.9023,18.5724,0.0],[-73.9046,18.5739,0.1282],[-73.9051,18.5776,0.0],[-73.9076,18.5735,0.1649],[-73.9096,18.5732,0.8417],[-73.9126,18.5746,0.0],[-73.9128,18.5761,0.0],[-73.9121,18.578,0.0],[-73.9118,18.5765,0.0],[-73.909,18.5771,0.0],[-73.9085,18.5796,0.0],[-73.9163,18.5793,0.0],[-73.9135,18.5829,0.5818],[-73.9147,18.5857,0.0],[-73.911,18.5857,0.0],[-73.9091,18.5878,0.0],[-73.9129,18.5876,0.2734],[-73.9149,18.586,0.0],[-73.9147,18.5875,0.0],[-73.9167,18.5879,0.0848],[-73.9163,18.5901,0.0],[-73.924,18.5901,1.5601],[-73.9265,18.594,0.0],[-73.9318,18.5949,0.0],[-73.9365,18.5896,0.3649],[-73.9401,18.5885,9.9877],[-73.9506,18.5964,11.5321],[-73.9546,18.5965,14.2023],[-73.9627,18.6015,6.2382],[-73.9652,18.6004,46.5839],[-73.9743,18.6018,12.0068],[-73.9776,18.6001,25.3409],[-73.9802,18.6018,7.7772],[-73.984,18.6003,50.717],[-73.9854,18.6027,0.0],[-73.9927,18.6025,0.0],[-74.0045,18.5993,2.0164],[-74.0062,18.6007,0.0],[-74.0368,18.6035,6.5528],[-74.0609,18.6088,0.0],[-74.0833,18.6185,7.762],[-74.0884,18.6261,4.2912],[-74.1093,18.6368,17.7236],[-74.1118,18.6404,3.8764],[-74.1104,18.6471,0.0],[-74.1188,18.6518,5.4759],[-74.1193,18.6546,0.0],[-74.1274,18.6543,13.4738],[-74.1296,18.6588,0.0],[-74.1404,18.664,0.0],[-74.146,18.6604,25.8658],[-74.1549,18.6668,1.8069],[-74.1712,18.6704,12.3733],[-74.176,18.6694,11.5],[-74.1882,18.6718,9.397],[-74.1954,18.676,0.0],[-74.2101,18.676,0.0],[-74.2332,18.6724,0.0],[-74.2388,18.67,7.279],[-74.2435,18.6701,4.9762],[-74.2479,18.6657,0.0],[-74.249,18.6663,3.617],[-74.2482,18.669,0.0],[-74.2501,18.6701,1.0329],[-74.2588,18.671,1.5358],[-74.2635,18.669,0.0],[-74.2629,18.6671,12.14],[-74.2646,18.6657,0.0],[-74.2635,18.664,0.0],[-74.269,18.6604,27.7995],[-74.2701,18.6557,30.6152],[-74.2757,18.6551,0.0],[-74.2751,18.6522,33.8345],[-74.279,18.6479,7.5242],[-74.2876,18.6521,0.0],[-74.2882,18.6568,0.0],[-74.2907,18.6599,16.5325],[-74.2971,18.6621,0.0],[-74.3075,18.6593,0.0],[-74.3054,18.6528,42.9738],[-74.3093,18.6495,1.378],[-74.3107,18.6497,25.8956],[-74.3121,18.6535,0.0],[-74.3146,18.6543,0.0],[-74.3296,18.6554,14.3596],[-74.3369,18.6485,24.0939],[-74.3437,18.6512,0.0],[-74.3443,18.6474,4.4694],[-74.3463,18.6474,0.8291],[-74.3469,18.649,0.0],[-74.3496,18.6482,2.3291],[-74.3528,18.6429,17.6574],[-74.3603,18.6393,16.3607],[-74.3636,18.6404,19.0911],[-74.3674,18.636,17.0901],[-74.3698,18.6371,0.0],[-74.3763,18.6358,25.5929],[-74.3828,18.6401,21.935],[-74.3838,18.6429,0.0],[-74.3868,18.6437,0.6473],[-74.3905,18.6406,0.0],[-74.3885,18.636,0.0],[-74.3909,18.6336,9.2556],[-74.3951,18.6326,0.0],[-74.3951,18.6271,0.0],[-74.3988,18.6304,2.1762],[-74.4072,18.6298,0.0],[-74.4099,18.6235,24.0596],[-74.4174,18.6207,0.0],[-74.4182,18.6188,5.1549],[-74.421,18.6193,0.0],[-74.4262,18.6149,0.0],[-74.4249,18.6122,6.0578],[-74.4261,18.6063,7.0842],[-74.4293,18.6044,2.5749],[-74.4221,18.5944,0.0],[-74.4165,18.593,1.2011],[-74.415,18.5824,8.7283],[-74.4257,18.5577,1.1178],[-74.4313,18.5524,1.6555],[-74.4324,18.5493,2.0148],[-74.4357,18.5487,2.8335],[-74.4343,18.5419,0.0],[-74.4354,18.5382,2.2166],[-74.4371,18.539,0.0],[-74.4424,18.5365,0.0],[-74.4424,18.5349,3.5621],[-74.4457,18.5326,4.2642],[-74.4424,18.5154,1.117],[-74.451,18.5076,0.0],[-74.454,18.5026,1.7222],[-74.4582,18.5007,0.0],[-74.4595,18.4989,0.0],[-74.4585,18.4951,0.0],[-74.4628,18.4907,0.0],[-74.4601,18.4907,31.4367],[-74.4529,18.486,1.4233],[-74.454,18.4829,13.8292],[-74.4527,18.4799,17.4398],[-74.4546,18.476,3.6011],[-74.4529,18.4749,2.6677],[-74.4532,18.4712,2.2459],[-74.4618,18.4651,14.7457],[-74.4596,18.4632,3.9234],[-74.4599,18.4613,3.7245],[-74.4654,18.459,0.0],[-74.4651,18.4532,3.0997],[-74.4682,18.4496,11.1644],[-74.4709,18.4495,0.0],[-74.4693,18.4468,13.8515],[-74.4718,18.4457,0.0],[-74.4696,18.445,5.1196],[-74.4701,18.4421,19.5771],[-74.4715,18.4407,0.9272],[-74.4749,18.441,0.0],[-74.4729,18.4349,0.0],[-74.4812,18.4287,0.0],[-74.4804,18.4271,16.6362],[-74.4751,18.4268,0.0],[-74.4737,18.4235,0.0],[-74.4751,18.4221,0.0],[-74.4735,18.421,4.6059],[-74.476,18.4171,0.0],[-74.4799,18.4162,4.1786],[-74.4807,18.414,3.0285],[-74.476,18.4129,0.0],[-74.4715,18.4145,0.0],[-74.4645,18.412,0.4442],[-74.4535,18.4027,1.2533],[-74.4491,18.3951,0.0],[-74.449,18.391,0.0],[-74.4535,18.3765,0.0],[-74.4476,18.371,0.8517],[-74.4493,18.3583,7.9258],[-74.4411,18.3569,215.4872],[-74.4357,18.3608,266.5307],[-74.4367,18.3662,131.6006],[-74.4324,18.3633,263.4148],[-74.4323,18.3588,299.5354],[-74.4304,18.3597,362.7481],[-74.4248,18.3573,555.2253],[-74.4116,18.3605,672.0801],[-74.401,18.3573,823.4642],[-74.3933,18.3591,868.4869]]],
[[[-73.8857,18.5882,0.0],[-73.8871,18.5893,0.0],[-73.8899,18.5879,0.0],[-73.8899,18.5854,0.0],[-73.8874,18.5879,0.0],[-73.8857,18.5882,0.0]]],
[[[-73.911,18.5907,0.0],[-73.9124,18.5929,0.2713],[-73.9143,18.5901,0.0],[-73.9126,18.589,0.1548],[-73.911,18.5907,0.0]]],
[[[-73.8076,18.6149,13.6341],[-73.8104,18.6157,0.0],[-73.8107,18.6135,2.4822],[-73.8151,18.6096,3.8906],[-73.816,18.6057,1.2677],[-73.8121,18.6065,11.2477],[-73.8112,18.6049,0.0],[-73.8074,18.6049,0.0],[-73.804,18.6079,0.0],[-73.8018,18.6112,0.0],[-73.8021,18.6135,23.5743],[-73.8076,18.6149,13.6341]]],
[[[-73.7562,18.6437,7.2887],[-73.7596,18.6446,0.8547],[-73.7688,18.6424,0.5345],[-73.771,18.6399,3.3894],[-73.7751,18.6388,0.0],[-73.7865,18.6285,22.0818],[-73.7935,18.6265,32.4626],[-73.7968,18.6204,10.3328],[-73.7971,18.6021,0.9766],[-73.7907,18.5971,22.1039],[-73.776,18.5946,0.5395],[-73.7712,18.5882,0.0],[-73.7699,18.5882,0.0],[-73.7701,18.5912,0.0581],[-73.7668,18.5932,0.0831],[-73.7671,18.5901,0.0855],[-73.7693,18.589,0.0],[-73.7688,18.5871,0.3369],[-73.7643,18.5882,0.1159],[-73.7621,18.5854,0.0],[-73.7593,18.5857,0.1326],[-73.7576,18.5838,0.6709],[-73.7474,18.5843,0.3712],[-73.7435,18.5815,0.0],[-73.7349,18.5835,0.0],[-73.7229,18.5888,0.6749],[-73.709,18.5982,0.0],[-73.701,18.6082,0.0],[-73.6988,18.6135,0.0],[-73.6985,18.6201,0.0],[-73.6999,18.6249,0.0],[-73.7029,18.6276,0.0],[-73.7138,18.6318,10.2278],[-73.726,18.6332,16.997],[-73.7421,18.6396,4.5561],[-73.744,18.6429,0.0],[-73.7562,18.6437,7.2887]]],
[[[-74.0001,18.9999,0.0],[-73.9999,18.9999,0.0],[-73.9999,19.0001,0.0],[-74.0001,19.0001,0.0],[-74.0001,18.9999,0.0]]]]}}