{"type":"Feature","properties":{"ISO3166-1-Alpha-3":"HTI","country":"Haiti","fill":"#F0F","id":"1359","name":"Grand'Anse"},
"geometry":{"type": "MultiPolygon","coordinates": [[[[-73.71459,18.6013,29.6388],[-73.71496,18.62348,51.4754],[-73.73998,18.63687,77.019],[-73.77269,18.63935,0.3648],[-73.7965,18.62865,0.0],[-73.79442,18.60187,1.2594],[-73.76952,18.58836,0.0],[-73.73762,18.5882,13.0776],[-73.71459,18.6013,29.6388]]],
[[[-74.15998,18.65917,46.4418],[-74.19978,18.6673,62.051],[-74.25593,18.67031,14.3348],[-74.26769,18.66962,0.0],[-74.2788,18.66657,0.0],[-74.28376,18.65965,0.0],[-74.28799,18.65152,77.3539],[-74.29821,18.65119,113.0124],[-74.32128,18.65656,0.0],[-74.3402,18.65339,0.0],[-74.38463,18.6363,47.0713],[-74.41853,18.6175,41.2746],[-74.42626,18.60822,2.9778],[-74.4237,18.5976,0.0],[-74.41979,18.58983,0.0],[-74.41584,18.5773,18.9487],[-74.41413,18.56558,37.259],[-74.41686,18.56037,13.5544],[-74.43175,18.55012,2.0148],[-74.44351,18.50381,107.2193],[-74.46182,18.49144,1.9889],[-74.45743,18.48176,0.0],[-74.45442,18.47777,0.0],[-74.48917,18.42939,0.0],[-74.46321,18.39818,0.0],[-74.45665,18.38434,0.0],[-74.45442,18.36481,0.0],[-74.45265,18.36098,0.0],[-74.45261,18.361,0.0],[-74.44881,18.36265,0.0],[-74.42486,18.36508,293.106],[-74.39708,18.36012,792.4661],[-74.34168,18.36534,911.2742],[-74.28701,18.3764,720.0203],[-74.18665,18.39593,833.7222],[-74.08532,18.40363,1425.1393],[-74.04312,18.39376,1631.8552],[-74.0015,18.38043,1794.6581],[-73.9538,18.36751,686.7745],[-73.90631,18.36384,554.5292],[-73.90802,18.38756,882.7969],[-73.89417,18.4073,784.7207],[-73.87107,18.40782,808.7609],[-73.84794,18.40787,879.0877],[-73.81598,18.41614,1082.7332],[-73.78404,18.42472,1098.0822],[-73.76601,18.46332,450.2971],[-73.74371,18.48719,276.9763],[-73.76017,18.49453,364.5999],[-73.76505,18.50848,366.8712],[-73.74772,18.52729,212.3365],[-73.7394,18.54373,109.8004],[-73.73935,18.54381,61.5595],[-73.74201,18.54194,133.6441],[-73.74812,18.53925,144.1663],[-73.75707,18.53937,105.73],[-73.76944,18.54515,0.0],[-73.77941,18.5467,0.0],[-73.78474,18.54487,0.0],[-73.78808,18.54133,0.0],[-73.79304,18.53852,111.1098],[-73.80333,18.53925,95.6126],[-73.80968,18.54279,62.976],[-73.83121,18.56037,59.4333],[-73.84293,18.56525,85.0583],[-73.85359,18.56721,60.2445],[-73.89855,18.56879,0.0],[-73.91145,18.57319,0.801],[-73.9405,18.58763,9.9877],[-73.94677,18.58698,36.8851],[-73.95372,18.58356,100.0197],[-73.9593,18.58299,128.3408],[-73.96158,18.59077,76.9642],[-73.96296,18.59284,95.1535],[-73.96947,18.5998,94.6095],[-73.97155,18.6013,34.2746],[-74.02912,18.60375,0.0],[-74.15998,18.65917,46.4418]]]]}}