{"type":"Feature","properties":{"GID_1":"PRI.51_1","GID_0":"PRI","country":"PuertoRico","province":"Moca","VARNAME_1":"NA","NL_NAME_1":"NA","TYPE_1":"Municipio","ENGTYPE_1":"Municipality","CC_1":"NA","HASC_1":"PR.MC","ISO_1":"-","name":"Moca.province"},
"geometry":{"type": "MultiPolygon","coordinates": [[[[-67.1301,18.318,174.0363],[-67.1264,18.319,163.9906],[-67.1214,18.3239,183.3065],[-67.1121,18.3202,169.2926],[-67.0778,18.313,198.1675],[-67.0634,18.3117,231.3038],[-67.0527,18.3066,303.3056],[-67.0372,18.3263,81.8271],[-67.0368,18.3334,82.6747],[-67.0429,18.341,56.7969],[-67.0481,18.3538,47.9613],[-67.0426,18.3563,44.0504],[-67.0373,18.3778,73.9574],[-67.0273,18.3936,279.6396],[-67.0509,18.4438,184.4884],[-67.0562,18.4609,138.7641],[-67.0743,18.4564,144.8924],[-67.0742,18.4517,154.7837],[-67.0769,18.4459,159.8011],[-67.0834,18.4449,167.2686],[-67.093,18.4367,176.0745],[-67.0986,18.4376,196.0389],[-67.1256,18.4096,187.2275],[-67.1237,18.4034,95.768],[-67.1323,18.3895,10.1612],[-67.1308,18.3757,45.3827],[-67.127,18.3715,93.2976],[-67.1283,18.3638,146.5574],[-67.1274,18.36,177.5573],[-67.1282,18.3548,175.1819],[-67.1314,18.349,173.3727],[-67.1346,18.3466,174.9289],[-67.1313,18.3366,123.3173],[-67.1344,18.3304,175.8624],[-67.1301,18.318,174.0363]]]]}}