{"type":"Feature","properties":{"GID_2":"CUB.9.4_1","GID_0":"CUB","country":"Cuba","GID_1":"CUB.9_1","province":"LaHabana","NL_NAME_1":"NA","county":"Caimito","VARNAME_2":"NA","NL_NAME_2":"NA","TYPE_2":"Municipio","ENGTYPE_2":"Municipality","CC_2":"NA","HASC_2":"CU.LH.CA","name":"Caimito.county"},
"geometry":{"type": "MultiPolygon","coordinates": [[[[-82.5582,22.8532,35.3562],[-82.5315,22.8933,84.5774],[-82.5432,22.9109,101.7028],[-82.5468,22.9317,58.923],[-82.5555,22.9563,66.1728],[-82.5716,22.9899,66.3548],[-82.5717,23.0173,35.0],[-82.5647,23.0366,13.6622],[-82.5626,23.0524,0.0],[-82.5746,23.0507,0.0],[-82.5729,23.0454,3.7816],[-82.5768,23.0476,2.6425],[-82.5776,23.051,0.0],[-82.5788,23.0482,1.8331],[-82.5801,23.0501,0.0],[-82.586,23.0487,0.7319],[-82.5982,23.0446,0.4089],[-82.6021,23.0415,3.0443],[-82.6043,23.0421,0.0],[-82.6038,23.0404,2.2876],[-82.6051,23.0396,2.0744],[-82.6085,23.0404,1.4768],[-82.6113,23.0387,2.1121],[-82.6243,23.041,0.0],[-82.6349,23.0396,0.0],[-82.6399,23.0379,0.7035],[-82.639,23.0338,0.0],[-82.6374,23.0332,5.0882],[-82.6393,23.031,3.6253],[-82.6429,23.034,1.1653],[-82.644,23.0374,0.0],[-82.6554,23.0329,1.6942],[-82.6589,23.0338,0.0],[-82.661,23.0163,45.7594],[-82.6756,22.9849,86.556],[-82.6667,22.955,144.6103],[-82.6662,22.9324,134.3319],[-82.6588,22.9079,104.5511],[-82.6737,22.8665,82.015],[-82.6771,22.844,55.9632],[-82.651,22.7968,24.531],[-82.6483,22.7878,17.6205],[-82.6114,22.7996,19.6695],[-82.5829,22.8402,34.4641],[-82.5582,22.8532,35.3562]]]]}}