{"type": "Feature","bbox": [-73.8757,18.1695,-73.6806,18.424],"geometry": {"type": "MultiPolygon","coordinates": [[[[-73.7193,18.2095,0.0],[-73.7164,18.2111,0.4204],[-73.7126,18.21,0.0],[-73.7085,18.2107,1.3508],[-73.7065,18.2126,2.9242],[-73.701,18.2124,0.0],[-73.6996,18.2162,0.0],[-73.7026,18.2208,11.7094],[-73.6996,18.2232,0.0],[-73.7004,18.2282,0.0],[-73.6965,18.2325,0.0],[-73.6968,18.2354,0.0],[-73.6927,18.2379,2.3345],[-73.6818,18.2382,0.2204],[-73.6849,18.2385,1.1987],[-73.6856,18.2445,0.6013],[-73.6892,18.2514,5.1094],[-73.6926,18.253,6.988],[-73.6925,18.2549,3.5649],[-73.6888,18.2557,28.6116],[-73.6839,18.2539,0.736],[-73.6843,18.2572,0.9579],[-73.6807,18.2602,3.7218],[-73.6806,18.264,2.8999],[-73.6841,18.2663,6.0894],[-73.6888,18.2819,18.0216],[-73.6821,18.2902,69.0307],[-73.6852,18.303,46.683],[-73.6828,18.3083,50.8778],[-73.6837,18.312,71.8183],[-73.6875,18.3118,52.4675],[-73.6989,18.3181,89.2961],[-73.7081,18.3151,78.2043],[-73.7125,18.32,143.6208],[-73.7227,18.3159,118.8736],[-73.7293,18.3207,143.6521],[-73.7297,18.3243,150.1681],[-73.7325,18.3243,142.0223],[-73.7341,18.3316,247.8229],[-73.7364,18.3317,233.3299],[-73.7396,18.3301,210.5619],[-73.7389,18.3235,114.004],[-73.741,18.3231,126.5723],[-73.7471,18.3307,243.3775],[-73.7511,18.3305,221.5977],[-73.7631,18.3249,240.3567],[-73.7706,18.3163,143.8625],[-73.774,18.3147,89.3776],[-73.7841,18.3209,303.0491],[-73.7851,18.3242,290.1123],[-73.79,18.3275,281.5975],[-73.7886,18.3349,166.7237],[-73.7937,18.3394,95.3802],[-73.7911,18.3424,82.7557],[-73.7925,18.346,80.3547],[-73.785,18.349,72.8616],[-73.7829,18.3476,69.8621],[-73.7774,18.3509,64.5464],[-73.7705,18.3505,64.1262],[-73.7674,18.3473,58.7367],[-73.7646,18.3469,59.8897],[-73.7614,18.3486,56.5951],[-73.7531,18.348,61.9849],[-73.7494,18.3503,53.1682],[-73.7468,18.3488,50.7314],[-73.7441,18.3499,48.856],[-73.7376,18.3485,68.5606],[-73.7337,18.3513,47.1087],[-73.7289,18.3477,42.3245],[-73.7265,18.349,43.3015],[-73.7255,18.3478,41.3847],[-73.727,18.3452,75.2046],[-73.7225,18.345,60.1297],[-73.7139,18.3476,39.7117],[-73.7081,18.3512,34.3635],[-73.7021,18.3477,37.463],[-73.6999,18.3509,32.0606],[-73.6879,18.3499,34.2592],[-73.6865,18.3521,31.1844],[-73.6884,18.3601,75.7101],[-73.6867,18.3653,132.3861],[-73.6933,18.3668,181.1368],[-73.6973,18.3727,401.5002],[-73.6977,18.3786,480.1079],[-73.6913,18.3895,578.9135],[-73.6972,18.3991,615.6134],[-73.6965,18.4041,579.6842],[-73.691,18.409,448.6588],[-73.6978,18.4141,504.2778],[-73.7023,18.42,552.2526],[-73.7069,18.421,459.3206],[-73.7214,18.4146,792.5858],[-73.7378,18.4159,715.5153],[-73.7435,18.4205,884.8099],[-73.7591,18.4234,913.87],[-73.771,18.4176,1145.0215],[-73.7776,18.4208,1246.3749],[-73.78,18.4239,1086.592],[-73.7856,18.424,1103.3995],[-73.8213,18.4128,1063.4935],[-73.8142,18.4064,711.8577],[-73.821,18.398,841.638],[-73.8154,18.394,712.6449],[-73.8185,18.3872,794.4119],[-73.8181,18.3835,602.2283],[-73.8161,18.3811,490.7031],[-73.8165,18.3782,365.1747],[-73.8102,18.3689,276.2649],[-73.8105,18.3638,200.4508],[-73.8186,18.3591,178.7179],[-73.8198,18.3569,162.9878],[-73.8183,18.3532,113.5147],[-73.8086,18.3526,117.8472],[-73.8029,18.3495,88.8799],[-73.8038,18.3473,107.0183],[-73.8096,18.346,161.8876],[-73.8034,18.3357,128.7581],[-73.8128,18.3348,159.6189],[-73.8141,18.3363,153.9433],[-73.8198,18.3345,172.4522],[-73.8221,18.3354,173.9467],[-73.8277,18.332,191.4394],[-73.8274,18.329,227.6266],[-73.8328,18.3246,307.0186],[-73.8327,18.3222,297.4685],[-73.8291,18.3099,125.7645],[-73.8278,18.297,124.5827],[-73.82,18.2872,105.7328],[-73.8157,18.2882,97.756],[-73.8115,18.2823,90.1268],[-73.8121,18.2793,88.154],[-73.817,18.2777,91.8437],[-73.8176,18.2735,91.3063],[-73.8425,18.2654,108.5527],[-73.8458,18.2712,118.6989],[-73.8539,18.2769,128.1116],[-73.8576,18.2839,145.9865],[-73.8625,18.286,144.4544],[-73.8665,18.2922,168.6868],[-73.8664,18.2981,171.7117],[-73.8685,18.3028,243.5714],[-73.8696,18.2996,182.787],[-73.8757,18.2993,173.4954],[-73.8752,18.2966,174.0086],[-73.8638,18.2796,144.4506],[-73.8624,18.2738,140.2327],[-73.8062,18.206,31.4768],[-73.8094,18.2038,29.1348],[-73.7949,18.1857,11.6416],[-73.7922,18.1777,6.3775],[-73.7894,18.1749,4.0475],[-73.7889,18.1695,0.0],[-73.7686,18.1805,3.8065],[-73.7562,18.1818,0.1201],[-73.7471,18.191,3.6216],[-73.7381,18.1927,0.4259],[-73.7344,18.198,0.1029],[-73.73,18.199,0.3236],[-73.7298,18.2022,0.4144],[-73.7243,18.2035,0.1824],[-73.7228,18.2023,0.4219],[-73.7207,18.2051,0.1778],[-73.7213,18.2079,1.5732],[-73.7193,18.2095,0.0]]]]}
,"properties": {"GID_3": "HTI.10.2.4_1","GID_0": "HTI","country": "Haiti","GID_1": "HTI.10_1","province": "Sud","NL_NAME_1": "NA","GID_2": "HTI.10.2_1","county": "lesCayes","NL_NAME_2": "NA","city": "LesCayes","VARNAME_3": "NA","NL_NAME_3": "NA","TYPE_3": "Commune","ENGTYPE_3": "Commune","CC_3": "NA","HASC_3": "NA","name": "Les_Cayes.city","area_km2": 319.561,"hist_schema_id": "Elevation0-9000","hist_area_km2": {"0": 24.411,"25": 45.308,"50": 48.662,"75": 44.8929,"100": 31.9874,"125": 19.0426,"150": 12.1375,"175": 8.6145,"200": 6.3196,"225": 5.0915,"250": 5.0511,"275": 5.0107,"300": 3.1794,"325": 2.5353,"350": 2.4145,"375": 1.9919,"400": 2.4546,"425": 2.4748,"450": 2.6558,"475": 2.5351,"500": 2.193,"525": 1.7101,"550": 1.9918,"575": 1.4888,"600": 1.7905,"625": 1.8911,"650": 1.871,"675": 2.2532,"700": 2.1325,"725": 2.213,"750": 2.7562,"775": 2.555,"800": 2.5348,"825": 2.3336,"850": 1.7703,"875": 1.6496,"900": 1.3277,"925": 1.0863,"950": 0.8047,"975": 0.9656,"1000": 0.7846,"1025": 0.7846,"1050": 0.8248,"1075": 0.4023,"1100": 0.3822,"1125": 0.523,"1150": 0.523,"1175": 0.6035,"1200": 0.4023,"1225": 0.0805,"1250": 0.1408,"1275": 0.0201}}}