{"type":"Feature","properties":{"GID_2":"GLP.2.6_1","GID_0":"GLP","country":"Guadeloupe","GID_1":"GLP.2_1","province":"Pointe-à-Pitre","NL_NAME_1":"NA","county":"LeMoule","VARNAME_2":"NA","NL_NAME_2":"NA","TYPE_2":"Chef-lieucanton","ENGTYPE_2":"Commune","CC_2":"96","HASC_2":"NA","name":"Le_Moule.county"},
"geometry":{"type": "MultiPolygon","coordinates": [[[[-61.4294,16.3424,26.5096],[-61.4211,16.3309,21.0556],[-61.4068,16.3304,35.2429],[-61.4018,16.3104,26.7246],[-61.4185,16.3038,53.6406],[-61.4283,16.308,56.7498],[-61.4414,16.2912,68.4913],[-61.4415,16.2876,63.7598],[-61.4385,16.2863,61.7865],[-61.4374,16.2802,105.6779],[-61.4232,16.2794,78.1261],[-61.3777,16.2931,35.1463],[-61.3654,16.3008,28.0436],[-61.3597,16.2983,17.9803],[-61.3617,16.2916,31.9218],[-61.3597,16.2887,35.9293],[-61.3379,16.2891,36.6319],[-61.336,16.286,31.7444],[-61.3225,16.2907,39.342],[-61.3184,16.2995,30.3244],[-61.3057,16.3051,35.2674],[-61.2814,16.3033,46.3657],[-61.278,16.3165,24.3423],[-61.2812,16.3171,0.0],[-61.286,16.3218,23.3382],[-61.2899,16.321,5.2603],[-61.2938,16.3226,2.96],[-61.2943,16.3246,0.0],[-61.2962,16.324,0.0],[-61.2976,16.3282,7.4216],[-61.3007,16.3276,8.39],[-61.3026,16.3251,13.5145],[-61.3049,16.3257,0.0],[-61.3065,16.3293,0.0],[-61.3112,16.3321,0.0],[-61.3174,16.3301,2.6188],[-61.3271,16.3335,1.3868],[-61.3374,16.3338,0.0],[-61.3404,16.3326,0.0],[-61.3418,16.3293,3.6474],[-61.3471,16.3363,0.4944],[-61.3529,16.3335,3.9107],[-61.3618,16.3376,0.0],[-61.366,16.3379,0.4943],[-61.3682,16.3351,4.8813],[-61.3679,16.3393,0.0],[-61.3751,16.341,0.0],[-61.379,16.344,0.0],[-61.3849,16.3518,0.8672],[-61.3879,16.3535,25.2547],[-61.3951,16.3662,0.0],[-61.3985,16.3685,68.1028],[-61.3985,16.3707,4.9943],[-61.4024,16.3746,42.2564],[-61.4026,16.3818,12.5673],[-61.406,16.3849,0.0],[-61.4054,16.3933,0.751],[-61.4156,16.3906,47.1513],[-61.4141,16.3773,50.4138],[-61.4195,16.3688,47.9424],[-61.4187,16.3585,50.0536],[-61.4234,16.3533,53.9052],[-61.4235,16.3464,40.2624],[-61.4294,16.3424,26.5096]]]]}}