{"type": "Feature","id": "1432","bbox": [-61.44921,15.44487,-61.26863,15.63308],"geometry": {"type": "Polygon","coordinates": [[[-61.26863,15.50991,134.4923],[-61.28405,15.5314,157.0807],[-61.28962,15.54096,37.3837],[-61.29955,15.5572,15.9773],[-61.3059,15.57246,15.5033],[-61.30769,15.57925,23.5129],[-61.35733,15.59829,0.0],[-61.36974,15.59593,11.4079],[-61.38463,15.58836,21.4521],[-61.39757,15.59663,34.9829],[-61.41373,15.61957,97.9783],[-61.42593,15.62849,233.692],[-61.43725,15.63264,330.8786],[-61.44921,15.63308,223.0142],[-61.44921,15.63308,223.0142],[-61.4403,15.59512,237.9559],[-61.43761,15.59068,469.7996],[-61.43087,15.58417,287.0746],[-61.42725,15.58277,259.235],[-61.42699,15.58236,259.235],[-61.42653,15.58145,180.9566],[-61.42614,15.58106,180.9566],[-61.42575,15.58081,180.9566],[-61.42397,15.58006,152.4019],[-61.42343,15.57998,152.4019],[-61.4225,15.57993,162.0212],[-61.42206,15.58003,162.0212],[-61.42172,15.58008,162.0212],[-61.42136,15.58013,162.0212],[-61.42105,15.58006,162.0212],[-61.42072,15.57993,162.0212],[-61.42043,15.57975,160.6196],[-61.41968,15.57866,145.1312],[-61.41922,15.57848,145.1312],[-61.41826,15.56765,301.0458],[-61.41886,15.53869,603.6194],[-61.41798,15.5328,456.377],[-61.41144,15.52758,616.9755],[-61.41015,15.52264,766.1237],[-61.40772,15.50301,1010.8704],[-61.40568,15.49446,895.7449],[-61.39286,15.4821,848.1819],[-61.38927,15.47986,713.0981],[-61.38446,15.47779,687.9261],[-61.37857,15.47838,812.2996],[-61.37454,15.47962,828.382],[-61.37043,15.48164,689.7761],[-61.36935,15.48185,689.7761],[-61.36811,15.48159,658.4208],[-61.3577,15.47714,578.5779],[-61.35405,15.47593,523.342],[-61.35088,15.47528,503.3686],[-61.34785,15.47497,512.1217],[-61.34398,15.47337,632.0093],[-61.33811,15.47024,533.9237],[-61.32287,15.45833,357.0346],[-61.31736,15.44487,581.8203],[-61.29842,15.46229,407.1224],[-61.29385,15.46539,353.1689],[-61.29346,15.46515,353.1689],[-61.29302,15.465,353.1689],[-61.29269,15.46487,299.5493],[-61.2924,15.46492,299.5493],[-61.29168,15.46508,299.5493],[-61.29129,15.46505,299.5493],[-61.29062,15.46492,267.7397],[-61.29028,15.46492,267.7397],[-61.28959,15.46531,267.7397],[-61.28873,15.46603,273.0633],[-61.28703,15.46784,253.3991],[-61.2845,15.46993,213.4652],[-61.28411,15.47009,213.4652],[-61.28377,15.47017,213.4652],[-61.28215,15.47019,214.3157],[-61.28168,15.47027,214.3157],[-61.28114,15.47043,224.0502],[-61.28057,15.47074,275.4448],[-61.27954,15.47156,275.4448],[-61.27592,15.47515,251.6035],[-61.2753,15.47562,220.883],[-61.27491,15.47577,220.883],[-61.27465,15.47771,230.0607],[-61.27538,15.49802,38.0291],[-61.27576,15.49944,34.4175],[-61.27414,15.50314,86.7142],[-61.26863,15.50991,134.4923]]]}
,"properties": {"ISO3166-1-Alpha-3": "DMA","country": "Dominica","fill": "#F0F","name": "Saint Andrew","area_km2": 199.1073,"hist_schema_id": "Elevation0-9000","hist_area_km2": {"0": 1.2867,"25": 5.5964,"50": 9.7221,"75": 9.375,"100": 9.0892,"125": 9.9268,"150": 9.6614,"175": 8.3953,"200": 8.62,"225": 8.5588,"250": 7.9871,"275": 7.8441,"300": 7.5174,"325": 7.3132,"350": 7.2723,"375": 6.8026,"400": 6.3941,"425": 6.3329,"450": 6.0675,"475": 5.6793,"500": 4.7805,"525": 4.8214,"550": 5.4344,"575": 5.1075,"600": 4.045,"625": 3.1462,"650": 2.8397,"675": 1.6957,"700": 1.5935,"725": 1.2462,"750": 1.1032,"775": 1.3075,"800": 1.5527,"825": 0.9398,"850": 1.4915,"875": 0.9603,"900": 1.1646,"925": 0.8581,"950": 0.7151,"975": 0.6947,"1000": 0.5312,"1025": 0.4699,"1050": 0.4086,"1075": 0.2043,"1100": 0.286,"1125": 0.286,"1150": 0.2043,"1175": 0.2656,"1200": 0.1226,"1225": 0.143,"1250": 0.2043,"1275": 0.2656,"1300": 0.2656,"1325": 0.2043,"1350": 0.1226,"1375": 0.1226,"1400": 0.0613}}}