{"type":"Feature","properties":{"GID_1":"DMA.1_1","GID_0":"DMA","country":"Dominica","province":"SaintAndrew","VARNAME_1":"NA","NL_NAME_1":"NA","TYPE_1":"Parish","ENGTYPE_1":"Parish","CC_1":"NA","HASC_1":"DM.AN","ISO_1":"NA","name":"Saint_Andrew.province"},
"geometry":{"type": "MultiPolygon","coordinates": [[[[-61.2732,15.519,0.0],[-61.2754,15.5232,23.3033],[-61.2707,15.5318,5.0971],[-61.2718,15.5329,4.8277],[-61.2707,15.5379,20.5475],[-61.274,15.5418,2.6611],[-61.2776,15.5413,19.7494],[-61.2821,15.5429,0.0],[-61.2829,15.5415,42.3273],[-61.2871,15.5413,18.6058],[-61.2874,15.544,2.4833],[-61.2907,15.5451,12.5552],[-61.2921,15.549,0.0],[-61.2943,15.5496,4.0377],[-61.2982,15.5637,7.7624],[-61.2976,15.5668,0.0],[-61.3024,15.5676,20.2988],[-61.3015,15.571,0.0],[-61.3054,15.5735,15.5033],[-61.3024,15.5849,1.6674],[-61.3057,15.5865,2.9266],[-61.3112,15.586,6.2856],[-61.3165,15.5896,0.0],[-61.3199,15.5857,3.4739],[-61.3265,15.5865,20.3261],[-61.3279,15.5888,0.0],[-61.3307,15.5876,19.0273],[-61.3299,15.5901,0.0],[-61.3343,15.591,11.4999],[-61.3329,15.5962,0.0],[-61.3354,15.5951,21.6649],[-61.336,15.5976,0.0],[-61.3407,15.5943,20.2111],[-61.3435,15.5976,0.0],[-61.346,15.594,0.0],[-61.3554,15.5929,26.0146],[-61.3571,15.5938,36.5905],[-61.3576,15.5971,0.0],[-61.3618,15.5974,0.0],[-61.364,15.6007,0.891],[-61.3665,15.5999,10.5445],[-61.369,15.5962,49.4821],[-61.3718,15.5979,0.0],[-61.3751,15.5935,63.1441],[-61.3771,15.596,0.0],[-61.3785,15.5935,16.4124],[-61.3799,15.5965,0.0],[-61.3821,15.5937,12.8372],[-61.384,15.5968,16.4736],[-61.3904,15.594,25.7471],[-61.3904,15.5979,14.4947],[-61.3935,15.5996,4.1967],[-61.3932,15.6012,0.6531],[-61.3951,15.6007,0.0],[-61.3949,15.6043,0.0],[-61.3965,15.6068,0.0],[-61.3993,15.6062,94.7358],[-61.4007,15.6082,84.3544],[-61.4024,15.6154,25.8787],[-61.4068,15.6171,114.8583],[-61.409,15.6268,46.5293],[-61.4176,15.6326,121.5135],[-61.4174,15.6365,35.7606],[-61.4207,15.6374,2.3428],[-61.4221,15.6362,50.7616],[-61.4224,15.6401,0.0],[-61.426,15.6388,0.0],[-61.442,15.6385,150.2597],[-61.4302,15.6113,554.3234],[-61.4329,15.5927,478.2209],[-61.4156,15.587,106.5696],[-61.4149,15.5811,110.4167],[-61.412,15.58,96.7423],[-61.4119,15.565,296.2691],[-61.4136,15.5622,275.9381],[-61.4108,15.5583,417.9164],[-61.4107,15.5521,405.6431],[-61.4136,15.5409,594.3878],[-61.404,15.5326,641.8714],[-61.4048,15.5239,895.0502],[-61.3998,15.5065,1350.7217],[-61.4002,15.5018,1323.3303],[-61.3852,15.4869,913.8951],[-61.3757,15.4831,956.5008],[-61.3667,15.4887,655.6346],[-61.3635,15.4889,606.5732],[-61.3534,15.4837,567.7798],[-61.3422,15.4829,637.2502],[-61.3158,15.4643,439.6623],[-61.3151,15.4522,489.6595],[-61.3094,15.4577,344.7576],[-61.3054,15.4584,342.2976],[-61.2959,15.4735,192.0948],[-61.2885,15.473,185.6672],[-61.2845,15.4777,109.9292],[-61.2791,15.4794,120.5203],[-61.2781,15.4831,85.9514],[-61.2741,15.4869,138.2332],[-61.2727,15.5027,86.7142],[-61.2755,15.5102,21.6544],[-61.2732,15.519,0.0]]]]}}