{"type":"Feature","properties":{"ISO3166-1-Alpha-3":"FRA","country":"France","fill":"#F0F","id":"4603","name":"Guadeloupe"},
"geometry":{"type": "MultiPolygon","coordinates": [[[[-61.60501,15.84093,0.0],[-61.6077,15.84081,0.0],[-61.60599,15.83902,0.0],[-61.60351,15.83898,0.0],[-61.60501,15.84093,0.0]]],
[[[-61.58642,15.84044,0.0],[-61.59101,15.8441,0.0],[-61.59057,15.84016,12.8671],[-61.58593,15.83649,74.4031],[-61.58642,15.84044,0.0]]],
[[[-61.6188,15.85228,8.3834],[-61.61608,15.86005,0.0],[-61.62108,15.86774,0.0],[-61.62466,15.87124,0.0],[-61.63459,15.86616,46.2831],[-61.63834,15.85322,103.2768],[-61.62755,15.84699,83.0636],[-61.6188,15.85228,8.3834]]],
[[[-61.59065,15.88048,0.0],[-61.59602,15.88125,0.0],[-61.59415,15.87796,0.0],[-61.58882,15.87718,0.0],[-61.59065,15.88048,0.0]]],
[[[-61.58218,15.8618,35.6369],[-61.57055,15.86961,20.0129],[-61.56501,15.87442,6.604],[-61.56603,15.87678,0.0],[-61.56648,15.87836,0.0],[-61.56798,15.88105,0.0],[-61.57388,15.88337,0.0],[-61.57995,15.8808,0.0],[-61.58511,15.87067,0.0],[-61.59048,15.86758,0.0],[-61.59569,15.86286,28.1038],[-61.59264,15.85838,228.351],[-61.58218,15.8618,35.6369]]],
[[[-61.24071,15.88182,74.6152],[-61.21573,15.89395,0.0],[-61.20425,15.90278,7.1552],[-61.19774,15.91059,0.0],[-61.19469,15.91958,0.0],[-61.194,15.93207,0.0],[-61.19738,15.94505,0.0],[-61.2049,15.95303,0.0],[-61.21239,15.95893,0.0],[-61.22399,15.98753,0.0],[-61.24389,16.00397,0.0],[-61.2683,16.00926,0.0],[-61.29019,15.9975,21.6024],[-61.30826,15.97769,6.3353],[-61.3153,15.96695,30.275],[-61.31819,15.95254,3.5164],[-61.32779,15.93928,9.3688],[-61.33202,15.93195,2.4054],[-61.32872,15.92866,2.4336],[-61.3251,15.92585,2.4574],[-61.32169,15.91909,32.559],[-61.3192,15.91108,46.3079],[-61.31819,15.90449,42.5431],[-61.30508,15.87849,4.2266],[-61.27489,15.87377,103.7434],[-61.24071,15.88182,74.6152]]],
[[[-61.11172,16.17699,0.9999],[-61.12157,16.17654,0.0],[-61.12731,16.17699,0.0],[-61.11954,16.1704,5.0345],[-61.11673,16.17031,4.8438],[-61.10961,16.17145,4.4413],[-61.10627,16.17621,2.0873],[-61.11172,16.17699,0.9999]]],
[[[-61.10395,16.18053,0.0],[-61.10578,16.18114,0.0],[-61.10582,16.17857,4.6429],[-61.10395,16.18053,0.0]]],
[[[-61.03991,16.31391,15.6352],[-60.98925,16.34638,0.0],[-61.01488,16.35399,0.0],[-61.03913,16.34447,0.0],[-61.07852,16.3122,14.7283],[-61.09162,16.30541,63.3706],[-61.06859,16.30223,0.0],[-61.03991,16.31391,15.6352]]],
[[[-61.58642,16.35008,0.3764],[-61.57665,16.35265,0.0],[-61.58096,16.35558,0.0],[-61.58418,16.35733,0.0],[-61.58869,16.35574,0.0],[-61.5935,16.34955,0.0],[-61.59105,16.3454,0.0],[-61.58642,16.35008,0.3764]]],
[[[-61.60464,16.28229,0.0],[-61.61295,16.28555,1.3395],[-61.59874,16.29169,0.0],[-61.61583,16.31184,0.0],[-61.65014,16.32933,0.0],[-61.687,16.3417,0.0],[-61.71203,16.34638,0.0],[-61.72204,16.3509,0.0],[-61.72859,16.35961,0.0],[-61.73786,16.3653,0.0],[-61.75642,16.36066,0.0],[-61.77082,16.34882,20.4285],[-61.78759,16.3203,2.9444],[-61.79735,16.3122,188.6483],[-61.79385,16.29906,118.0022],[-61.79784,16.26789,143.0229],[-61.79735,16.2508,98.1556],[-61.7919,16.24006,81.7613],[-61.78401,16.22932,75.7902],[-61.77945,16.21723,139.0934],[-61.78429,16.20234,167.3956],[-61.76944,16.16649,186.3391],[-61.76863,16.08763,0.0],[-61.75642,16.05219,130.9494],[-61.74779,16.0467,116.9707],[-61.74364,16.0373,106.1765],[-61.74006,16.02582,88.7496],[-61.73278,16.01398,101.2493],[-61.72106,16.00385,164.6587],[-61.7108,15.99738,171.4404],[-61.70202,15.98989,231.4755],[-61.69494,15.97647,562.9916],[-61.70238,15.96963,454.8237],[-61.69652,15.95502,155.4761],[-61.69494,15.94916,33.0235],[-61.64342,15.97036,30.0587],[-61.59748,15.99673,0.0],[-61.56599,16.03351,8.9826],[-61.55773,16.08633,0.0],[-61.56456,16.14094,0.0],[-61.5773,16.17593,0.0],[-61.57946,16.22232,0.0],[-61.57266,16.23257,0.0],[-61.5546,16.23652,6.8977],[-61.54796,16.23843,0.0],[-61.55541,16.25825,10.1557],[-61.54918,16.28059,0.8426],[-61.55167,16.28555,2.652],[-61.55797,16.29169,0.0],[-61.57055,16.28974,0.0],[-61.58023,16.28213,1.2875],[-61.58507,16.27131,1.6159],[-61.59557,16.28164,0.0],[-61.59874,16.28555,0.0],[-61.60302,16.28221,0.0],[-61.60314,16.2812,0.0],[-61.60464,16.28229,0.0]]],
[[[-61.35314,16.34028,0.0],[-61.36571,16.34882,0.0],[-61.37662,16.35956,0.0],[-61.38646,16.37368,0.0],[-61.39415,16.38935,0.0],[-61.39566,16.39924,0.0],[-61.39322,16.42548,0.0],[-61.39761,16.45185,0.0],[-61.40941,16.47248,0.0],[-61.42683,16.4892,0.0],[-61.4593,16.51179,0.0],[-61.46251,16.51309,0.0],[-61.46532,16.50983,0.0],[-61.49625,16.49372,0.0],[-61.50585,16.48697,0.0],[-61.50992,16.48041,0.0],[-61.52562,16.46231,0.0],[-61.53429,16.44929,4.411],[-61.53384,16.43944,1.4513],[-61.52916,16.43049,9.3244],[-61.52359,16.39476,3.651],[-61.51561,16.39305,2.5072],[-61.50731,16.38984,1.9443],[-61.50036,16.38565,4.1464],[-61.49625,16.38117,2.6617],[-61.49523,16.37446,0.7527],[-61.49551,16.36514,0.9356],[-61.49706,16.35676,1.4593],[-61.49966,16.35322,0.0],[-61.51814,16.34894,0.0],[-61.52766,16.33784,3.6617],[-61.5441,16.28555,3.986],[-61.5441,16.28547,3.986],[-61.54418,16.28539,1.9924],[-61.54796,16.27106,2.551],[-61.54833,16.25804,6.9923],[-61.5441,16.24567,0.678],[-61.53384,16.23338,0.7026],[-61.52042,16.22297,12.4139],[-61.50341,16.21328,5.7013],[-61.48371,16.20588,39.9973],[-61.46215,16.20234,17.1031],[-61.44445,16.20506,8.144],[-61.41072,16.21947,33.8118],[-61.23445,16.25829,6.4868],[-61.21886,16.25422,7.7841],[-61.21125,16.25072,5.0622],[-61.18318,16.24413,0.0],[-61.17479,16.24396,13.7925],[-61.16356,16.253,0.0],[-61.16918,16.25869,0.0],[-61.18838,16.26382,0.0],[-61.24258,16.30036,0.0],[-61.253,16.30541,0.0],[-61.2589,16.30923,0.0],[-61.28059,16.32705,0.0],[-61.29019,16.33271,0.0],[-61.30167,16.33454,0.0],[-61.31184,16.33417,0.0],[-61.32152,16.33491,0.0],[-61.33178,16.34016,0.0],[-61.33869,16.33271,2.0018],[-61.35314,16.34028,0.0]]]]}}