{"type": "Feature","bbox": [-64.774,18.33466,-64.27074,18.74624],"geometry": {"type": "MultiPolygon","coordinates": [[[[-64.56786,18.33739,104.6194],[-64.56819,18.3509,42.3392],[-64.56945,18.35798,0.0],[-64.57836,18.36058,0.0],[-64.58283,18.35944,0.0],[-64.5869,18.35798,0.0],[-64.59406,18.35781,0.0],[-64.60302,18.35562,0.0],[-64.60074,18.35163,18.6221],[-64.58532,18.34862,0.0],[-64.5747,18.343,0.0],[-64.57091,18.33466,95.2285],[-64.56786,18.33739,104.6194]]],
[[[-64.5272,18.44912,1.7129],[-64.56016,18.4541,53.8218],[-64.5927,18.44856,0.0],[-64.60363,18.45162,17.1484],[-64.62727,18.44709,75.5825],[-64.6417,18.45116,92.6314],[-64.66182,18.44042,0.0],[-64.66565,18.4244,0.0],[-64.6744,18.4124,0.0],[-64.68255,18.39955,0.0],[-64.70051,18.39807,36.9575],[-64.71413,18.3862,0.0],[-64.68963,18.38464,0.0],[-64.67548,18.38411,6.2547],[-64.65969,18.38307,0.0],[-64.64367,18.39395,117.8355],[-64.63512,18.4055,51.1599],[-64.63036,18.40485,0.0],[-64.62072,18.41157,134.6018],[-64.61286,18.4195,0.0],[-64.61339,18.42255,0.0],[-64.60338,18.42304,10.6865],[-64.59699,18.4208,78.1835],[-64.59118,18.41779,180.3582],[-64.58332,18.41633,1.3615],[-64.57405,18.41913,0.0],[-64.5664,18.42573,10.9899],[-64.56117,18.43355,0.0],[-64.5486,18.44027,0.0],[-64.53159,18.43568,0.0],[-64.52013,18.43412,88.2463],[-64.51685,18.43929,16.9064],[-64.5272,18.44912,1.7129]]],
[[[-64.72423,18.44269,73.2456],[-64.72753,18.4499,10.4999],[-64.72981,18.45344,40.687],[-64.74291,18.45498,98.7467],[-64.76842,18.44965,0.0],[-64.774,18.44229,134.7674],[-64.75939,18.44184,0.0],[-64.73034,18.43789,13.9003],[-64.72423,18.44269,73.2456]]],
[[[-64.53161,18.46703,155.4447],[-64.52916,18.47639,0.0],[-64.52892,18.48184,43.8436],[-64.52953,18.49258,0.0],[-64.5327,18.49413,65.3058],[-64.53771,18.49067,63.6399],[-64.53946,18.48286,0.0],[-64.53734,18.47183,0.0],[-64.53824,18.46516,18.0549],[-64.53653,18.46239,86.4586],[-64.53161,18.46703,155.4447]]],
[[[-64.32604,18.51195,0.0],[-64.34683,18.5069,0.0],[-64.40241,18.50576,0.0],[-64.40575,18.50821,0.0],[-64.40811,18.51048,0.0],[-64.41096,18.51195,0.0],[-64.41539,18.51195,0.0],[-64.41173,18.49136,29.391],[-64.41853,18.47533,0.0],[-64.44335,18.44306,7.5374],[-64.42931,18.44489,31.0247],[-64.40819,18.45669,0.0],[-64.38903,18.4711,56.7192],[-64.3806,18.4809,0.0],[-64.37198,18.48192,0.0],[-64.3531,18.48721,0.0],[-64.3343,18.49706,18.5619],[-64.32604,18.51195,0.0]]],
[[[-64.28506,18.73408,0.0],[-64.3203,18.74624,0.0],[-64.40856,18.7447,5.1506],[-64.39867,18.73208,2.3118],[-64.38052,18.72614,3.6975],[-64.33654,18.72427,3.5618],[-64.27953,18.70124,1.3489],[-64.27074,18.70067,0.0],[-64.28506,18.73408,0.0]]]]}
,"properties": {"ISO3166-1-Alpha-3": "VGB","country": "British Virgin Islands","name": "British Virgin Islands","area_km2": 145.0196,"hist_schema_id": "Elevation0-9000","hist_area_km2": {"0": 72.5293,"25": 11.1631,"50": 7.6029,"75": 7.5023,"100": 6.698,"125": 5.9336,"150": 5.2296,"175": 4.9278,"200": 4.5055,"225": 3.9423,"250": 3.2584,"275": 3.0171,"300": 2.0315,"325": 1.6896,"350": 1.8506,"375": 1.1465,"400": 0.7242,"425": 0.4627,"450": 0.342,"475": 0.3018,"500": 0.1609}}}