{"type": "Feature","bbox": [-61.2371,13.1221,-61.1426,13.2101],"geometry": {"type": "MultiPolygon","coordinates": [[[[-61.2024,13.1315,0.0],[-61.2043,13.1315,10.7681],[-61.2035,13.1285,1.8096],[-61.2049,13.1276,0.0],[-61.2024,13.1285,0.0],[-61.2024,13.1315,0.0]]],
[[[-61.2032,13.2087,631.5812],[-61.2051,13.2101,666.2089],[-61.2075,13.2079,590.1934],[-61.2056,13.1997,482.5167],[-61.2274,13.18,211.2578],[-61.2303,13.1689,171.2115],[-61.2371,13.1613,101.2004],[-61.2368,13.1568,1.2037],[-61.2351,13.1579,15.2156],[-61.2313,13.1563,5.501],[-61.2265,13.1532,0.7755],[-61.226,13.1501,0.0],[-61.2243,13.1493,2.6811],[-61.226,13.1435,34.4829],[-61.229,13.1396,23.5361],[-61.2246,13.1365,0.6616],[-61.2218,13.1396,8.2883],[-61.2124,13.141,2.2212],[-61.2099,13.1396,2.2202],[-61.2099,13.1365,2.0068],[-61.2071,13.1371,12.8919],[-61.2024,13.1346,12.27],[-61.1999,13.131,5.1779],[-61.1968,13.131,3.6016],[-61.1921,13.1279,8.8431],[-61.1926,13.1243,2.3541],[-61.1943,13.1237,0.0],[-61.1932,13.1221,5.6227],[-61.1904,13.1237,7.5647],[-61.1871,13.1226,0.5979],[-61.1857,13.1246,1.8146],[-61.1854,13.1224,0.0],[-61.184,13.1221,0.0],[-61.1843,13.1257,24.8372],[-61.1818,13.1251,7.9018],[-61.1801,13.1226,0.0],[-61.1779,13.1257,38.4317],[-61.1757,13.1226,0.0],[-61.1704,13.1221,6.5914],[-61.1668,13.1232,0.0],[-61.1674,13.1251,0.0],[-61.1618,13.124,0.0],[-61.1637,13.1268,2.3972],[-61.1668,13.1274,2.0252],[-61.1662,13.1313,3.0183],[-61.1624,13.134,9.8711],[-61.1629,13.1362,1.7811],[-61.1599,13.1388,0.0],[-61.1574,13.146,6.3857],[-61.1551,13.1468,0.0],[-61.151,13.1454,0.0],[-61.1485,13.1468,0.0],[-61.1482,13.1499,1.1574],[-61.146,13.1496,0.0],[-61.1426,13.1579,0.0],[-61.1429,13.1671,9.2739],[-61.1485,13.1675,19.8294],[-61.1646,13.1748,232.3262],[-61.1681,13.1793,122.3676],[-61.1714,13.1757,130.2861],[-61.1795,13.1792,198.1961],[-61.1847,13.1891,297.4551],[-61.1913,13.1917,358.1338],[-61.1928,13.1963,417.9744],[-61.1993,13.2001,538.8865],[-61.2032,13.2087,631.5812]]]]}
,"properties": {"GID_1": "VCT.5_1","GID_0": "VCT","country": "SaintVincentandtheGrenadines","province": "SaintGeorge","VARNAME_1": "NA","NL_NAME_1": "NA","TYPE_1": "Parish","ENGTYPE_1": "Parish","CC_1": "NA","HASC_1": "VC.GE","ISO_1": "VC-04","name": "Saint_George.province","area_km2": 52.17093,"hist_schema_id": "Elevation0-9000","hist_area_km2": {"0": 3.94359,"25": 5.5746,"50": 4.50096,"75": 3.94349,"100": 3.57178,"125": 3.32398,"150": 3.71621,"175": 3.32389,"200": 2.6632,"225": 2.60124,"250": 2.39478,"275": 1.96122,"300": 1.67218,"325": 1.36251,"350": 1.03219,"375": 0.78447,"400": 0.82574,"425": 0.63995,"450": 0.61929,"475": 0.55736,"500": 0.53672,"525": 0.35092,"550": 0.33029,"575": 0.59863,"600": 0.35092,"625": 0.51605,"650": 0.22707,"675": 0.1445,"700": 0.04128,"725": 0.06192}}}