{"type": "Feature","id": "5067","bbox": [-61.2379,13.13251,-61.13554,13.21669],"geometry": {"type": "Polygon","coordinates": [[[-61.17459,13.20324,334.2983],[-61.18771,13.21242,478.8534],[-61.19277,13.21669,814.4855],[-61.19885,13.20455,563.3177],[-61.22114,13.1803,374.1431],[-61.2379,13.16337,88.4953],[-61.21019,13.14419,10.1647],[-61.18521,13.13251,76.6065],[-61.16735,13.14606,168.5954],[-61.13801,13.18692,0.0],[-61.13554,13.19785,22.1119],[-61.14772,13.20259,102.4712],[-61.16279,13.20521,288.1442],[-61.17459,13.20324,334.2983]]]}
,"properties": {"ISO3166-1-Alpha-3": "VCT","country": "Saint Vincent and the Grenadines","fill": "#00F","name": "Saint George","area_km2": 55.59484,"hist_schema_id": "Elevation0-9000","hist_area_km2": {"0": 0.72255,"25": 1.83742,"50": 2.82837,"75": 3.42708,"100": 4.02583,"125": 4.31482,"150": 4.95479,"175": 4.54182,"200": 3.8605,"225": 3.73659,"250": 3.36498,"275": 2.93142,"300": 2.51851,"325": 2.00242,"350": 1.48631,"375": 1.25923,"400": 1.23858,"425": 1.03213,"450": 1.03212,"475": 0.99083,"500": 0.66056,"525": 0.51605,"550": 0.43349,"575": 0.55734,"600": 0.37156,"625": 0.3922,"650": 0.26834,"675": 0.18578,"700": 0.04128,"725": 0.04128,"800": 0.02064}}}