{"type":"Feature","properties":{"GID_2":"GLP.1.5_1","GID_0":"GLP","country":"Guadeloupe","GID_1":"GLP.1_1","province":"Basse-Terre","NL_NAME_1":"NA","county":"Capesterre-Belle-Eau","VARNAME_2":"NA","NL_NAME_2":"NA","TYPE_2":"Chef-lieucanton","ENGTYPE_2":"Commune","CC_2":"90","HASC_2":"NA","name":"Capesterre-Belle-Eau.county"},
"geometry":{"type": "MultiPolygon","coordinates": [[[[-61.6806,16.0845,1146.241],[-61.6752,16.0758,938.7556],[-61.6728,16.0624,1107.1436],[-61.6641,16.0569,1317.1832],[-61.6629,16.0439,1440.4791],[-61.6597,16.0423,1263.209],[-61.6556,16.0334,1133.5194],[-61.6401,16.0253,785.5205],[-61.6325,16.018,669.1048],[-61.6282,16.0124,573.7109],[-61.6229,15.9924,196.3046],[-61.6143,15.9858,22.1024],[-61.6121,15.9913,29.8059],[-61.6071,15.9918,0.0],[-61.6074,15.9935,0.0],[-61.6035,15.9954,0.0],[-61.6021,15.9999,1.2901],[-61.5982,16.0007,0.0],[-61.5968,16.004,8.6895],[-61.5913,16.0063,0.0],[-61.5904,16.009,6.9055],[-61.5882,16.0088,0.0],[-61.5879,16.0115,0.0],[-61.5824,16.0138,0.0],[-61.5801,16.0182,0.0],[-61.5687,16.0254,0.0],[-61.569,16.029,11.4209],[-61.564,16.0335,0.0],[-61.5638,16.0426,0.0],[-61.5568,16.0501,0.5852],[-61.5574,16.0537,3.6262],[-61.5551,16.0543,0.0],[-61.5601,16.0604,3.3657],[-61.5607,16.0718,3.768],[-61.5588,16.0785,7.8211],[-61.5601,16.0796,2.7498],[-61.5601,16.086,0.0],[-61.5588,16.094,3.4556],[-61.561,16.096,5.5412],[-61.5607,16.1015,1.6649],[-61.5635,16.1037,2.9852],[-61.5621,16.1068,0.0],[-61.5685,16.1106,0.0],[-61.5792,16.1073,45.3396],[-61.5896,16.098,142.9805],[-61.6035,16.0943,237.4702],[-61.6223,16.0845,441.9719],[-61.6423,16.0916,715.0782],[-61.6635,16.0946,1216.9718],[-61.6683,16.0902,1053.7328],[-61.6781,16.0919,1254.8108],[-61.6841,16.0895,1314.8245],[-61.6806,16.0845,1146.241]]]]}}