{"type": "Feature","bbox": [-75.9764,20.0779,-75.668,20.4606],"geometry": {"type": "MultiPolygon","coordinates": [[[[-75.8239,20.436,500.2951],[-75.8429,20.4295,567.4404],[-75.8255,20.3901,398.7989],[-75.8246,20.3573,179.6274],[-75.8285,20.3459,228.9924],[-75.8359,20.3402,148.2642],[-75.858,20.3319,237.1929],[-75.8739,20.3329,143.4114],[-75.8929,20.3394,118.2773],[-75.9174,20.3385,112.3999],[-75.9274,20.3127,98.3165],[-75.9299,20.2855,118.917],[-75.9387,20.2591,149.1149],[-75.9455,20.2501,179.1803],[-75.9729,20.225,175.1393],[-75.9764,20.2159,157.5484],[-75.9715,20.209,185.9314],[-75.9236,20.1647,174.5594],[-75.9149,20.1503,207.5992],[-75.8961,20.1307,311.4026],[-75.8885,20.1178,305.3073],[-75.8696,20.0984,419.5811],[-75.8629,20.0779,159.0621],[-75.8409,20.0934,355.2769],[-75.8287,20.0993,447.9544],[-75.8004,20.1261,289.7917],[-75.7652,20.1847,152.4335],[-75.7608,20.2012,191.1184],[-75.7397,20.2417,204.1284],[-75.7352,20.2582,245.5977],[-75.7207,20.2877,305.9342],[-75.7218,20.2991,343.7261],[-75.7359,20.3247,341.6659],[-75.745,20.349,340.7947],[-75.7452,20.3641,330.8892],[-75.726,20.3994,336.6206],[-75.668,20.4424,304.0102],[-75.6932,20.4486,332.0131],[-75.7194,20.4598,424.7233],[-75.73,20.4606,453.1053],[-75.7372,20.4587,461.1984],[-75.7664,20.4371,477.8578],[-75.7784,20.4326,475.8698],[-75.7942,20.4291,326.4181],[-75.8082,20.4296,471.3708],[-75.8173,20.4312,448.0303],[-75.8239,20.436,500.2951]]]]}
,"properties": {"GID_2": "CUB.15.5_1","GID_0": "CUB","country": "Cuba","GID_1": "CUB.15_1","province": "SantiagodeCuba","NL_NAME_1": "NA","county": "SanLuis","VARNAME_2": "NA","NL_NAME_2": "NA","TYPE_2": "Municipio","ENGTYPE_2": "Municipality","CC_2": "NA","HASC_2": "CU.SC.SL","name": "San_Luis.county","area_km2": 613.5658,"hist_schema_id": "Elevation0-9000","hist_area_km2": {"100": 8.5711,"125": 68.7811,"150": 103.5412,"175": 94.302,"200": 64.6333,"225": 45.3025,"250": 39.6965,"275": 30.9094,"300": 28.2437,"325": 27.9008,"350": 22.9855,"375": 22.5649,"400": 19.9588,"425": 17.2723,"450": 10.4942,"475": 5.4458,"500": 1.809,"525": 0.6163,"550": 0.3782,"575": 0.1592}}}