{"type": "Feature","bbox": [-66.9263,17.9543,-66.7962,18.1711],"geometry": {"type": "MultiPolygon","coordinates": [[[[-66.8271,18.1711,555.623],[-66.8368,18.1705,675.133],[-66.8437,18.1609,915.154],[-66.8502,18.1628,904.4932],[-66.856,18.1393,884.9026],[-66.8583,18.1379,922.7076],[-66.8703,18.1387,927.9064],[-66.8875,18.1533,911.5841],[-66.8898,18.1524,900.9531],[-66.8912,18.1481,840.3817],[-66.9032,18.146,853.6025],[-66.9152,18.154,799.3319],[-66.9263,18.151,755.1103],[-66.9248,18.143,658.579],[-66.9168,18.1263,606.8867],[-66.9177,18.1201,634.4578],[-66.9241,18.1153,663.9635],[-66.9175,18.102,449.6423],[-66.9188,18.0901,374.6833],[-66.9141,18.0844,338.7961],[-66.9131,18.0748,244.0927],[-66.9098,18.0663,169.9106],[-66.9033,18.0621,176.1228],[-66.8985,18.0444,77.6237],[-66.8869,18.0322,63.5438],[-66.885,18.025,41.7197],[-66.8687,18.007,165.6722],[-66.8631,17.998,143.3847],[-66.8632,17.9651,92.1284],[-66.8591,17.9543,0.0],[-66.8546,17.956,2.6595],[-66.8529,17.9543,7.8009],[-66.8365,17.9658,70.839],[-66.8353,17.9882,45.7767],[-66.8308,17.9988,130.8127],[-66.8262,17.9998,115.5656],[-66.8267,18.0079,155.8038],[-66.8309,18.0102,160.1396],[-66.8296,18.0188,144.6541],[-66.8181,18.0294,173.982],[-66.8243,18.0466,204.6897],[-66.8183,18.0576,108.6237],[-66.8175,18.0691,381.8021],[-66.8025,18.0911,510.0459],[-66.8067,18.0954,658.7943],[-66.8105,18.1135,785.1299],[-66.7962,18.1213,854.632],[-66.7977,18.1336,1061.8914],[-66.8034,18.1427,1011.3305],[-66.8043,18.1484,1106.141],[-66.8136,18.1497,970.2064],[-66.821,18.153,790.4654],[-66.8261,18.1601,702.8506],[-66.8239,18.1673,606.2198],[-66.8271,18.1711,555.623]]]]}
,"properties": {"GID_1": "PRI.78_1","GID_0": "PRI","country": "PuertoRico","province": "Yauco","VARNAME_1": "NA","NL_NAME_1": "NA","TYPE_1": "Municipio","ENGTYPE_1": "Municipality","CC_1": "NA","HASC_1": "PR.YU","ISO_1": "-","name": "Yauco.province","area_km2": 177.6285,"hist_schema_id": "Elevation0-9000","hist_area_km2": {"0": 0.605,"25": 7.8436,"50": 11.835,"75": 12.1571,"100": 10.5844,"125": 8.9714,"150": 8.2254,"175": 8.1238,"200": 7.0146,"225": 6.6713,"250": 5.1999,"275": 5.8246,"300": 5.9454,"325": 5.764,"350": 5.5422,"375": 4.3329,"400": 3.2244,"425": 2.8213,"450": 2.7608,"475": 2.5794,"500": 2.5793,"525": 2.1158,"550": 2.5591,"575": 2.6397,"600": 2.6799,"625": 2.9016,"650": 2.7,"675": 2.4986,"700": 2.4985,"725": 2.7,"750": 2.7201,"775": 2.4582,"800": 3.1231,"825": 2.9215,"850": 2.7805,"875": 2.8409,"900": 2.1558,"925": 2.2364,"950": 1.9141,"975": 1.1485,"1000": 0.7052,"1025": 0.3425,"1050": 0.1813,"1075": 0.1209,"1100": 0.0403,"1125": 0.0403}}}