{"type": "Feature","bbox": [-66.3175,18.3831,-66.2114,18.4807],"geometry": {"type": "MultiPolygon","coordinates": [[[[-66.3149,18.4746,3.9528],[-66.3175,18.4502,50.7345],[-66.3086,18.4336,47.4701],[-66.3021,18.4341,54.3113],[-66.3021,18.4288,44.8991],[-66.2998,18.4231,63.6894],[-66.3039,18.4112,62.161],[-66.3038,18.384,95.6685],[-66.2886,18.3855,66.5365],[-66.2862,18.3831,81.6966],[-66.2714,18.3837,66.7987],[-66.2705,18.3856,46.2291],[-66.264,18.388,36.2057],[-66.258,18.3875,34.7013],[-66.2525,18.3942,10.3509],[-66.2562,18.3961,14.3147],[-66.2599,18.409,7.724],[-66.2558,18.4118,10.7796],[-66.2567,18.4156,6.7893],[-66.2581,18.4166,6.7893],[-66.2622,18.4147,4.8251],[-66.2641,18.4204,7.0951],[-66.2595,18.4237,5.8187],[-66.2549,18.439,6.2129],[-66.2591,18.449,4.1693],[-66.2582,18.4552,2.3612],[-66.248,18.4514,1.8968],[-66.2415,18.4557,2.9523],[-66.2304,18.4505,2.9024],[-66.2308,18.4543,3.2617],[-66.2114,18.4665,4.0683],[-66.2204,18.4657,1.9654],[-66.2396,18.4682,3.4722],[-66.2524,18.4726,2.2486],[-66.2568,18.4712,2.6846],[-66.2549,18.4776,0.0],[-66.2582,18.4762,1.0942],[-66.2699,18.4807,0.0],[-66.2726,18.4788,4.064],[-66.2754,18.479,0.0],[-66.2846,18.4712,7.0865],[-66.294,18.4732,2.9861],[-66.299,18.4774,0.0],[-66.3049,18.4749,4.7607],[-66.3093,18.476,1.107],[-66.3054,18.4712,7.1422],[-66.309,18.4715,8.0974],[-66.3099,18.4701,12.9513],[-66.3107,18.4751,4.5047],[-66.3149,18.4746,3.9528]]]]}
,"properties": {"GID_1": "PRI.26_1","GID_0": "PRI","country": "PuertoRico","province": "Dorado","VARNAME_1": "NA","NL_NAME_1": "NA","TYPE_1": "Municipio","ENGTYPE_1": "Municipality","CC_1": "NA","HASC_1": "PR.DO","ISO_1": "-","name": "Dorado.province","area_km2": 60.50297,"hist_schema_id": "Elevation0-9000","hist_area_km2": {"0": 28.1566,"25": 10.07679,"50": 5.25013,"75": 7.58401,"100": 5.39161,"125": 3.17873,"150": 0.7444,"175": 0.12071}}}