{"type": "Feature","id": "5144","bbox": [-64.8329,32.25428,-64.78831,32.28994],"geometry": {"type": "MultiPolygon","coordinates": [[[[-64.78831,32.26528,0.0],[-64.79709,32.27909,12.8961],[-64.80305,32.27598,2.0723],[-64.81972,32.26746,19.232],[-64.82902,32.26668,3.5776],[-64.8329,32.2597,0.1417],[-64.82068,32.2619,11.4107],[-64.81515,32.25428,2.593],[-64.80925,32.25622,0.0],[-64.78831,32.26528,0.0]]],
[[[-64.81197,32.28994,0.8049],[-64.81545,32.28877,0.0],[-64.82088,32.28722,0.0],[-64.82941,32.28916,0.0],[-64.83251,32.28722,0.0],[-64.82979,32.2818,0.0],[-64.82049,32.28102,1.0152],[-64.81119,32.28218,0.0],[-64.8077,32.28645,0.0],[-64.81197,32.28994,0.8049]]]]}
,"properties": {"ISO3166-1-Alpha-3": "BMU","country": "Bermuda","fill": "#F0F","name": "Warwick","area_km2": 6.776516,"hist_schema_id": "Elevation0-9000","hist_area_km2": {"0": 3.621209,"25": 2.958095,"50": 0.197212}}}