{"type":"Feature","properties":{"GID_2":"DOM.31.5_1","GID_0":"DOM","country":"DominicanRepublic","GID_1":"DOM.31_1","province":"SantoDomingo","NL_NAME_1":"NA","county":"SantoDomingoEste","VARNAME_2":"NA","NL_NAME_2":"NA","TYPE_2":"Municipio","ENGTYPE_2":"Municipality","CC_2":"NA","HASC_2":"DO.SD.ES","name":"Santo_Domingo_Este.county"},
"geometry":{"type": "MultiPolygon","coordinates": [[[[-69.8729,18.4655,4.4958],[-69.8676,18.466,0.0],[-69.8657,18.4676,4.9478],[-69.8624,18.4662,0.0],[-69.8576,18.4687,0.8838],[-69.8501,18.4665,0.0],[-69.831,18.4687,1.0932],[-69.8171,18.464,3.9853],[-69.7849,18.4657,9.8923],[-69.7649,18.4632,0.0],[-69.7432,18.4629,5.6917],[-69.7149,18.4551,0.0],[-69.7025,18.454,2.9537],[-69.6992,18.459,11.7039],[-69.696,18.4709,25.3063],[-69.6956,18.4869,39.1105],[-69.7153,18.487,38.7877],[-69.7257,18.4843,34.4738],[-69.7357,18.4848,35.0316],[-69.7372,18.487,39.0235],[-69.7374,18.4989,36.3525],[-69.7401,18.5073,29.6941],[-69.7407,18.5309,9.6624],[-69.7437,18.5324,15.6004],[-69.7571,18.5327,14.2587],[-69.7626,18.5375,12.8214],[-69.7559,18.5467,15.4117],[-69.758,18.5578,26.8027],[-69.7546,18.566,26.7151],[-69.751,18.5687,29.9105],[-69.7386,18.5695,25.0632],[-69.7347,18.5748,18.1584],[-69.7343,18.5807,12.0509],[-69.7382,18.5963,5.1987],[-69.7423,18.5973,18.6214],[-69.7613,18.5965,8.4373],[-69.7674,18.5846,11.1951],[-69.779,18.5779,12.963],[-69.7857,18.5674,3.2581],[-69.796,18.5623,5.3648],[-69.8048,18.5661,4.2302],[-69.8129,18.5623,11.5492],[-69.8168,18.5546,3.3286],[-69.8152,18.5471,6.6384],[-69.8199,18.542,11.3387],[-69.8272,18.539,11.0732],[-69.8368,18.5415,4.7851],[-69.8451,18.5402,9.8753],[-69.8573,18.5194,29.0661],[-69.8618,18.5195,19.823],[-69.8675,18.5244,10.4988],[-69.8731,18.5248,5.0839],[-69.882,18.5217,21.6827],[-69.8866,18.5183,9.3881],[-69.89,18.5146,4.401],[-69.8826,18.5113,3.8386],[-69.8735,18.5097,37.8283],[-69.8657,18.5019,39.7772],[-69.8661,18.4982,38.8057],[-69.8737,18.4864,42.6602],[-69.8739,18.4655,9.2867],[-69.8729,18.4655,4.4958]]]]}}