{"type": "Feature","id": "5139","bbox": [-64.81397,32.28955,-64.77902,32.30756],"geometry": {"type": "Polygon","coordinates": [[[-64.78014,32.30341,10.0548],[-64.81083,32.30756,0.6829],[-64.81397,32.30398,9.8325],[-64.80538,32.29342,15.0135],[-64.79452,32.28955,0.0],[-64.79382,32.29637,7.8708],[-64.78443,32.29734,7.0146],[-64.78443,32.29056,0.0],[-64.77902,32.2911,0.0],[-64.78014,32.30341,10.0548]]]}
,"properties": {"ISO3166-1-Alpha-3": "BMU","country": "Bermuda","fill": "#00F","name": "Pembroke","area_km2": 4.014422,"hist_schema_id": "Elevation0-9000","hist_area_km2": {"0": 2.652416,"25": 1.344085,"50": 0.017921}}}