{"type":"Feature","properties":{"GID_1":"BMU.5_1","GID_0":"BMU","country":"Bermuda","province":"Pembroke","VARNAME_1":"NA","NL_NAME_1":"NA","TYPE_1":"Parish","ENGTYPE_1":"Parish","CC_1":"NA","HASC_1":"BM.PE","ISO_1":"NA","name":"Pembroke.province"},
"geometry":{"type": "MultiPolygon","coordinates": [[[[-64.8322,32.29,0.0],[-64.8339,32.2897,0.0],[-64.8294,32.2867,3.1822],[-64.8297,32.2839,3.6201],[-64.825,32.2864,2.0329],[-64.8253,32.2831,4.4632],[-64.8283,32.2819,0.0],[-64.8239,32.28,0.0],[-64.8197,32.2803,0.0],[-64.8167,32.2856,1.5845],[-64.8161,32.2825,0.0],[-64.8111,32.2831,0.0],[-64.8094,32.2817,0.0],[-64.8072,32.2844,0.0],[-64.8022,32.2789,0.0],[-64.7994,32.28,0.0],[-64.7981,32.2828,0.0],[-64.8067,32.285,0.0],[-64.8103,32.2881,0.0],[-64.8122,32.2853,3.1268],[-64.8147,32.2861,0.0],[-64.8156,32.2883,0.0],[-64.8197,32.2867,2.1307],[-64.8267,32.2872,3.5102],[-64.8322,32.29,0.0]]],
[[[-64.7966,32.2862,0.0],[-64.8023,32.2888,0.0],[-64.8026,32.2882,0.0],[-64.7978,32.2852,0.0],[-64.7966,32.2862,0.0]]],
[[[-64.8114,32.2894,0.0],[-64.8083,32.2933,0.0],[-64.8086,32.2997,0.0],[-64.81,32.2994,0.0],[-64.81,32.2944,0.0],[-64.8144,32.29,0.0],[-64.8114,32.2894,0.0]]],
[[[-64.7754,32.3052,29.4037],[-64.7764,32.3086,0.0],[-64.7817,32.3064,4.655],[-64.7953,32.3053,15.0077],[-64.8067,32.3083,5.3782],[-64.8164,32.3075,0.0],[-64.8206,32.3097,0.0],[-64.8172,32.3064,0.0],[-64.8169,32.3028,1.2966],[-64.8128,32.3017,2.246],[-64.8139,32.2986,0.0],[-64.8103,32.3008,4.3994],[-64.8078,32.3,0.0],[-64.8064,32.2978,4.7331],[-64.8078,32.2958,0.0],[-64.8072,32.2925,7.8299],[-64.805,32.2911,1.8832],[-64.8019,32.2919,0.0],[-64.7997,32.2897,0.0],[-64.7983,32.2922,6.8048],[-64.796,32.2903,0.0],[-64.7902,32.2969,4.8375],[-64.7797,32.2974,11.7128],[-64.7772,32.2941,26.325],[-64.7783,32.2897,5.3326],[-64.7758,32.2896,2.7616],[-64.7768,32.2928,4.9654],[-64.7725,32.2937,1.3719],[-64.7754,32.3052,29.4037]]]]}}