{"type": "Feature","bbox": [-61.732,16.1891,-61.6058,16.2987],"geometry": {"type": "MultiPolygon","coordinates": [[[[-61.6244,16.2763,2.0676],[-61.6263,16.2785,0.0],[-61.6263,16.2824,5.4198],[-61.6193,16.2865,4.7505],[-61.6207,16.2921,14.3485],[-61.6182,16.2912,1.568],[-61.6174,16.2868,2.3144],[-61.621,16.2832,2.0967],[-61.616,16.2821,1.0241],[-61.6121,16.2854,0.8931],[-61.6107,16.2938,4.0012],[-61.6058,16.2977,8.8188],[-61.6198,16.2953,4.579],[-61.6301,16.2987,18.1314],[-61.6554,16.2957,2.4171],[-61.6659,16.2866,3.9087],[-61.6737,16.2631,11.8139],[-61.6724,16.2528,24.4295],[-61.6858,16.2361,77.5382],[-61.709,16.2262,376.1583],[-61.7231,16.2293,683.7043],[-61.7253,16.2192,643.6042],[-61.7309,16.215,627.6022],[-61.732,16.2016,536.8455],[-61.7266,16.1891,621.9045],[-61.72,16.1918,551.3061],[-61.7056,16.1917,425.9052],[-61.6911,16.2022,256.3875],[-61.6694,16.2012,159.1723],[-61.6657,16.2073,118.0613],[-61.6484,16.213,109.4471],[-61.6401,16.2243,46.1874],[-61.6403,16.2344,62.3762],[-61.6304,16.2489,29.4601],[-61.6303,16.2591,22.0711],[-61.6244,16.2763,2.0676]]]]}
,"properties": {"GID_2": "GLP.1.9_1","GID_0": "GLP","country": "Guadeloupe","GID_1": "GLP.1_1","province": "Basse-Terre","NL_NAME_1": "NA","county": "Lamentin","VARNAME_2": "NA","NL_NAME_2": "NA","TYPE_2": "Chef-lieucanton","ENGTYPE_2": "Commune","CC_2": "13","HASC_2": "NA","name": "Lamentin.county","area_km2": 65.66866,"hist_schema_id": "Elevation0-9000","hist_area_km2": {"0": 7.34696,"25": 17.09669,"50": 10.64615,"75": 5.72044,"100": 2.93161,"125": 2.15801,"150": 1.62871,"175": 1.60836,"200": 1.32334,"225": 0.91616,"250": 0.93652,"275": 1.03832,"300": 0.91616,"325": 0.91617,"350": 0.93653,"375": 1.16048,"400": 1.03833,"425": 1.18085,"450": 1.07904,"475": 0.91618,"500": 1.01799,"525": 0.75331,"550": 0.71258,"575": 0.52933,"600": 0.42754,"625": 0.36646,"650": 0.16287,"675": 0.06107,"700": 0.14251}}}