{"type": "Feature","bbox": [-69.9958,19.0409,-69.7199,19.2565],"geometry": {"type": "MultiPolygon","coordinates": [[[[-69.8815,19.2273,106.0472],[-69.8871,19.2287,198.5726],[-69.8961,19.2407,100.6526],[-69.9128,19.2422,136.2719],[-69.9188,19.2522,105.091],[-69.9236,19.2524,113.5728],[-69.9306,19.2477,149.4769],[-69.9348,19.2473,160.339],[-69.954,19.2565,247.235],[-69.9545,19.2487,242.6765],[-69.9578,19.2373,194.1532],[-69.9643,19.2318,149.3468],[-69.9695,19.2232,107.3727],[-69.9744,19.2189,100.3186],[-69.9818,19.202,75.3074],[-69.9922,19.1937,50.1258],[-69.992,19.1905,47.2651],[-69.9873,19.1817,40.3584],[-69.9867,19.1742,34.1641],[-69.9906,19.1641,23.9056],[-69.9958,19.1578,20.7943],[-69.9952,19.1529,18.1886],[-69.9902,19.1491,19.8633],[-69.992,19.1398,23.5717],[-69.9875,19.1358,21.0895],[-69.9738,19.1371,19.4408],[-69.9572,19.1316,17.8342],[-69.9572,19.1288,17.4145],[-69.972,19.1286,34.8006],[-69.9768,19.1241,84.9899],[-69.9832,19.1219,100.6217],[-69.984,19.1179,117.3711],[-69.9813,19.1103,149.1355],[-69.9813,19.1035,113.7061],[-69.9687,19.1033,122.3936],[-69.9589,19.1006,145.1305],[-69.9446,19.1006,159.145],[-69.943,19.1035,167.8356],[-69.948,19.1153,113.0681],[-69.9473,19.1194,100.7817],[-69.9386,19.1226,16.4247],[-69.9295,19.12,15.4864],[-69.9276,19.1175,64.8354],[-69.9271,19.107,20.938],[-69.9242,19.1036,17.2418],[-69.9176,19.1007,41.191],[-69.8976,19.0973,22.8879],[-69.895,19.0954,53.3593],[-69.8951,19.0842,164.9279],[-69.903,19.0684,26.3191],[-69.9021,19.0636,65.8952],[-69.9046,19.0468,41.3033],[-69.8824,19.0464,211.8176],[-69.8688,19.0409,209.3806],[-69.8648,19.0424,201.2554],[-69.8621,19.0499,198.6014],[-69.8656,19.0574,187.0387],[-69.8702,19.0623,178.0328],[-69.868,19.0715,184.0361],[-69.8703,19.0812,166.9063],[-69.8683,19.0832,197.4364],[-69.8614,19.0846,152.2147],[-69.8546,19.0825,156.37],[-69.8527,19.0759,168.402],[-69.8507,19.0747,186.1216],[-69.8479,19.0753,169.0046],[-69.8439,19.0794,157.5562],[-69.833,19.0827,169.6167],[-69.8229,19.0814,184.8392],[-69.818,19.0786,200.6711],[-69.8109,19.0796,166.8515],[-69.8019,19.0771,176.0903],[-69.7974,19.0795,162.9264],[-69.7932,19.0908,137.8628],[-69.7897,19.0936,146.2256],[-69.779,19.0918,179.0718],[-69.7684,19.099,83.8546],[-69.7556,19.0938,97.54],[-69.7351,19.0938,85.3084],[-69.7202,19.0999,10.3402],[-69.7199,19.109,3.5801],[-69.7262,19.1118,10.3074],[-69.7304,19.1157,2.9045],[-69.7453,19.1412,2.5864],[-69.7461,19.1472,4.7301],[-69.7491,19.1501,7.2763],[-69.7589,19.1506,6.213],[-69.7628,19.155,9.9923],[-69.772,19.1508,8.4884],[-69.7858,19.1556,7.2613],[-69.793,19.1561,6.6477],[-69.7993,19.1553,12.9151],[-69.8053,19.1506,8.0457],[-69.8169,19.1504,7.728],[-69.8202,19.1526,9.8637],[-69.8204,19.1618,7.885],[-69.8224,19.164,11.9495],[-69.8371,19.1619,8.0503],[-69.8471,19.1662,11.6179],[-69.8529,19.1601,8.9512],[-69.8587,19.159,9.0534],[-69.8648,19.1598,11.9816],[-69.8756,19.1652,12.0011],[-69.8773,19.1709,12.037],[-69.8761,19.1754,12.1887],[-69.8724,19.176,11.1402],[-69.8661,19.1738,10.1224],[-69.8634,19.1758,10.0528],[-69.8677,19.1957,12.4956],[-69.8625,19.2007,23.4893],[-69.8619,19.2116,22.7012],[-69.8635,19.2151,25.6448],[-69.8755,19.2202,65.6694],[-69.8815,19.2273,106.0472]]]]}
,"properties": {"GID_2": "DOM.6.7_1","GID_0": "DOM","country": "DominicanRepublic","GID_1": "DOM.6_1","province": "Duarte","NL_NAME_1": "NA","county": "VillaRivas","VARNAME_2": "NA","NL_NAME_2": "NA","TYPE_2": "Municipio","ENGTYPE_2": "Municipality","CC_2": "NA","HASC_2": "DO.DU.VR","name": "Villa_Rivas.county","area_km2": 310.995,"hist_schema_id": "Elevation0-9000","hist_area_km2": {"0": 86.573,"25": 93.3304,"50": 26.1124,"75": 20.4062,"100": 19.7274,"125": 20.8112,"150": 19.3316,"175": 13.6436,"200": 7.0327,"225": 2.7849,"250": 0.8212,"275": 0.2002,"300": 0.2002,"325": 0.02}}}