{"type": "Feature","bbox": [-74.5354,21.691,-73.4699,22.7379],"geometry": {"type": "MultiPolygon","coordinates": [[[[-73.8471,21.6938,0.0],[-73.8482,21.6943,0.0],[-73.8474,21.691,0.0],[-73.8465,21.6926,0.0],[-73.8471,21.6938,0.0]]],
[[[-73.5954,22.6113,0.0],[-73.6038,22.611,0.5092],[-73.6071,22.6074,0.2281],[-73.6113,22.606,1.2897],[-73.6171,22.6068,1.6795],[-73.6196,22.6051,1.1119],[-73.621,22.5985,1.2522],[-73.626,22.5901,0.0],[-73.6276,22.5785,0.801],[-73.6274,22.576,0.4392],[-73.6243,22.5746,2.1604],[-73.6232,22.5721,0.0],[-73.6185,22.5735,0.0],[-73.6168,22.5776,1.8916],[-73.6096,22.5804,0.0],[-73.6038,22.5857,0.0],[-73.5985,22.5949,1.306],[-73.5979,22.5996,0.7905],[-73.5951,22.6013,0.0],[-73.5954,22.6113,0.0]]],
[[[-73.5146,22.6135,5.1538],[-73.5371,22.6135,1.4493],[-73.561,22.6096,3.7794],[-73.5574,22.6079,0.0],[-73.5243,22.6076,3.2593],[-73.5032,22.5985,0.0],[-73.4801,22.5932,1.1587],[-73.476,22.5893,0.3391],[-73.4732,22.589,0.7105],[-73.4729,22.5862,0.0],[-73.4699,22.5888,0.2243],[-73.4701,22.5924,0.0],[-73.4762,22.5949,1.8008],[-73.4826,22.6021,0.0],[-73.5007,22.6082,1.5416],[-73.5068,22.6126,0.0],[-73.5146,22.6135,5.1538]]],
[[[-73.8846,22.699,0.1818],[-73.8826,22.6999,0.0938],[-73.8824,22.7024,0.0798],[-73.8851,22.7013,0.2081],[-73.8846,22.699,0.1818]]],
[[[-74.009,22.6999,0.5073],[-74.0113,22.701,0.0],[-74.0154,22.6988,0.0],[-74.0151,22.6915,0.0],[-74.0113,22.6907,0.1567],[-74.0054,22.6957,0.0],[-74.009,22.6999,0.5073]]],
[[[-74.0193,22.7071,0.0],[-74.019,22.7088,0.0],[-74.0212,22.7085,0.4104],[-74.0207,22.7004,0.0],[-74.0168,22.7013,0.0],[-74.0137,22.7057,0.0],[-74.014,22.7074,0.0],[-74.0179,22.7054,0.6382],[-74.0193,22.7071,0.0]]],
[[[-73.9274,22.7196,0.0],[-73.9282,22.7215,0.0],[-73.9318,22.721,0.0],[-73.9301,22.719,0.0],[-73.9274,22.7196,0.0]]],
[[[-73.9362,22.7235,1.0591],[-73.9382,22.7243,0.0],[-73.9385,22.7226,0.0],[-73.936,22.7224,1.0591],[-73.9362,22.7235,1.0591]]],
[[[-73.8715,22.726,1.3533],[-73.871,22.7276,0.8144],[-73.8782,22.7263,0.0],[-73.8829,22.7235,0.0],[-73.8812,22.7232,0.0],[-73.8799,22.7237,0.2129],[-73.8774,22.7204,1.2562],[-73.8804,22.7162,2.2727],[-73.8893,22.715699999999998,0.23],[-73.8904,22.7071,0.1255],[-73.8893,22.7057,0.0907],[-73.8887,22.7085,0.1255],[-73.8863,22.7054,0.0],[-73.8796,22.7076,0.0884],[-73.874,22.7118,0.0],[-73.8712,22.716,0.1474],[-73.8721,22.7196,1.3996],[-73.8701,22.7212,1.9103],[-73.8715,22.726,1.3533]]],
[[[-73.8715,22.7288,0.0],[-73.8699,22.7274,0.8144],[-73.8696,22.7237,0.0],[-73.8632,22.715699999999998,0.7258],[-73.8704,22.714,0.0],[-73.876,22.7082,0.126],[-73.8735,22.706,0.2646],[-73.8701,22.7065,0.1584],[-73.8701,22.7038,0.0],[-73.864,22.7013,0.4945],[-73.8607,22.6968,0.0],[-73.8554,22.7001,0.0],[-73.856,22.7101,3.391],[-73.8485,22.7282,1.3677],[-73.8454,22.7296,1.6443],[-73.8349,22.7274,0.0],[-73.836,22.7288,0.0],[-73.849,22.731,0.0],[-73.8568,22.7379,0.7713],[-73.8607,22.736,0.0],[-73.8593,22.7332,0.4518],[-73.8618,22.7335,0.0],[-73.8668,22.729,1.7991],[-73.8715,22.7288,0.0]]],
[[[-73.9154,22.7232,1.2704],[-73.9187,22.7235,3.8435],[-73.9193,22.7224,0.0],[-73.9135,22.7212,0.7698],[-73.9154,22.7232,1.2704]]],
[[[-74.5174,22.0965,0.0],[-74.5251,22.096,0.0],[-74.5304,22.0932,2.6503],[-74.5315,22.0912,0.0],[-74.5301,22.0876,1.149],[-74.5235,22.0882,0.0],[-74.5221,22.0924,0.0],[-74.5182,22.094,3.0542],[-74.5174,22.0965,0.0]]],
[[[-74.4929,22.1229,0.0],[-74.4954,22.1235,2.2167],[-74.4976,22.1185,0.0],[-74.4935,22.1213,1.2521],[-74.4929,22.1229,0.0]]],
[[[-74.3157,22.136,0.0],[-74.3215,22.1357,0.0],[-74.3285,22.129,1.2306],[-74.3301,22.129,0.0],[-74.3299,22.1246,1.5469],[-74.3249,22.124,3.2849],[-74.3171,22.129,5.229],[-74.3046,22.1251,0.0],[-74.3035,22.131,0.4766],[-74.2993,22.1313,0.0],[-74.2982,22.134,3.5871],[-74.2993,22.136,0.0],[-74.3071,22.1326,0.0],[-74.3132,22.1326,1.8023],[-74.3157,22.136,0.0]]],
[[[-74.2913,22.1429,0.0],[-74.2943,22.1421,0.0],[-74.2954,22.1396,0.0],[-74.2946,22.1396,0.0],[-74.2913,22.1429,0.0]]],
[[[-74.5296,22.1435,0.0],[-74.5312,22.1454,2.0566],[-74.5354,22.1415,0.0],[-74.5338,22.1413,0.0],[-74.5296,22.1435,0.0]]],
[[[-74.161,22.3204,0.2649],[-74.1671,22.3204,0.0],[-74.1699,22.3174,0.0],[-74.1671,22.3151,0.0],[-74.1624,22.3176,0.1982],[-74.161,22.3204,0.2649]]],
[[[-74.0999,22.3885,0.0],[-74.0999,22.3901,0.0],[-74.1018,22.3907,0.0],[-74.1057,22.386,0.0],[-74.1024,22.3813,0.3053],[-74.1007,22.374,0.6001],[-74.099,22.3751,0.3891],[-74.1021,22.3843,0.0],[-74.0999,22.3885,0.0]]],
[[[-74.0263,22.616,0.0],[-74.0243,22.6113,0.0],[-74.0243,22.6074,0.0],[-74.0185,22.6068,0.0],[-74.0174,22.6049,0.0],[-74.0154,22.6049,0.0],[-74.0146,22.6087,0.0],[-74.0176,22.609,0.0],[-74.0176,22.6113,0.0],[-74.0132,22.6093,0.0],[-74.0049,22.6124,0.0],[-74.0046,22.6079,0.0695],[-74.0057,22.6065,0.064],[-74.0085,22.6071,0.0],[-74.0093,22.6051,0.0],[-74.0024,22.6054,0.0],[-74.0013,22.6079,0.0],[-73.9985,22.6079,0.0],[-73.9987,22.6096,0.0101],[-74.0024,22.6113,0.0],[-74.0015,22.614,0.0],[-73.9999,22.6145,0.0],[-73.9999,22.6171,0.4747],[-73.9979,22.6165,0.4644],[-73.999,22.6146,0.245],[-73.9965,22.6157,0.3634],[-73.9968,22.6079,0.1283],[-73.9918,22.6101,0.1002],[-73.9921,22.6085,0.1696],[-73.9971,22.604,0.1939],[-74.001,22.604,0.0],[-74.0015,22.6021,0.0],[-74.0068,22.5999,0.0],[-74.0065,22.5979,0.0],[-74.0093,22.5974,0.0],[-74.0121,22.5926,0.0],[-74.0079,22.5901,0.0],[-74.0021,22.5921,0.289],[-73.996,22.5899,0.0],[-73.9968,22.5876,0.0],[-73.9926,22.5901,0.0709],[-73.9918,22.5885,0.0],[-73.9899,22.5885,0.0],[-73.9868,22.5915,0.0448],[-73.9832,22.5921,0.2114],[-73.9854,22.5882,0.0],[-73.9843,22.586,0.0],[-73.9868,22.5843,0.0475],[-73.984,22.5804,0.0],[-73.9799,22.5812,-0.1403],[-73.9804,22.5829,0.0203],[-73.984,22.5829,0.111],[-73.9776,22.591,0.1079],[-73.9735,22.5938,0.2676],[-73.9713,22.5929,0.1558],[-73.9751,22.5857,0.0],[-73.9721,22.5835,0.0],[-73.9699,22.5874,0.0],[-73.9699,22.5946,0.1164],[-73.9682,22.5974,0.2528],[-73.9654,22.5949,0.0],[-73.9651,22.5985,0.1063],[-73.9638,22.5954,0.184],[-73.9657,22.584,0.0],[-73.9643,22.5851,0.0],[-73.9638,22.590699999999998,0.167],[-73.9618,22.5904,0.0],[-73.9629,22.5974,0.2448],[-73.9599,22.5976,0.0639],[-73.9579,22.5957,0.0],[-73.959,22.5818,0.0],[-73.9565,22.5818,0.0661],[-73.9532,22.5838,0.0],[-73.9557,22.5857,0.0],[-73.9521,22.5921,0.0],[-73.9535,22.5968,-0.1165],[-73.9526,22.5996,0.0561],[-73.9485,22.5985,0.0],[-73.9488,22.590699999999998,0.0],[-73.9468,22.5901,0.0],[-73.9454,22.5918,0.0],[-73.9463,22.6013,0.0],[-73.9415,22.5951,0.0935],[-73.9424,22.6032,0.1116],[-73.939,22.5987,0.0],[-73.936,22.5985,0.082],[-73.9371,22.6032,0.0946],[-73.9337,22.5982,0.0],[-73.9318,22.6026,0.1208],[-73.9246,22.6001,0.0],[-73.9221,22.5935,0.0],[-73.9168,22.5926,0.0981],[-73.916,22.5885,0.0],[-73.9126,22.5888,0.2274],[-73.911,22.5829,0.2329],[-73.9079,22.581,0.1357],[-73.9068,22.5735,0.0],[-73.904,22.5721,-0.0691],[-73.9049,22.5746,0.1199],[-73.8996,22.5746,0.0],[-73.8954,22.5715,0.0],[-73.894,22.5685,0.0],[-73.8929,22.5713,-0.3954],[-73.8904,22.5707,0.2899],[-73.8915,22.5676,0.0761],[-73.8887,22.5674,0.0152],[-73.8879,22.5637,0.68],[-73.8829,22.5621,0.3818],[-73.8821,22.5599,0.2214],[-73.8857,22.5615,0.1113],[-73.8868,22.5604,0.0],[-73.8838,22.559,0.1744],[-73.8849,22.5513,0.0488],[-73.876,22.536,4.2573],[-73.8749,22.5187,1.2259],[-73.8768,22.5121,0.0],[-73.8785,22.5101,0.3917],[-73.8857,22.5088,0.0],[-73.8849,22.5051,0.3043],[-73.8882,22.504,0.0],[-73.8904,22.501,0.3883],[-73.8938,22.501,0.0],[-73.8924,22.4985,0.0],[-73.8896,22.4982,0.0],[-73.891,22.4946,0.2283],[-73.8938,22.4943,0.2534],[-73.8949,22.4876,0.0],[-73.8993,22.4796,1.1763],[-73.9046,22.474,0.8563],[-73.9132,22.4685,1.6365],[-73.9251,22.464,1.338],[-73.9354,22.464,0.0],[-73.9449,22.4613,1.5439],[-73.9529,22.4604,4.4368],[-73.9576,22.4615,1.5179],[-73.9735,22.459,0.7354],[-73.9799,22.4599,0.9998],[-74.0035,22.4493,0.2662],[-73.999,22.4276,1.574],[-74.0032,22.416,0.1877],[-74.0076,22.411,0.5473],[-74.0062,22.4082,1.1057],[-74.0082,22.406,0.0],[-74.0343,22.3985,1.9932],[-74.0435,22.3999,0.0],[-74.0488,22.3963,0.8842],[-74.0574,22.3976,0.0],[-74.0615,22.3963,0.903],[-74.0751,22.3968,0.9096],[-74.0782,22.3946,0.0],[-74.1001,22.3918,0.0],[-74.0993,22.3901,0.0],[-74.0937,22.3907,0.1207],[-74.0963,22.3854,0.0],[-74.096,22.3835,0.0],[-74.0946,22.386,0.121],[-74.0924,22.3838,0.1344],[-74.0937,22.3824,0.1019],[-74.0926,22.3771,0.0],[-74.0949,22.3738,0.0],[-74.0851,22.3746,0.2728],[-74.0818,22.3712,0.4036],[-74.0821,22.3571,0.0],[-74.0843,22.3504,0.2556],[-74.0899,22.3479,0.0],[-74.0899,22.3429,0.2292],[-74.1038,22.334,0.1563],[-74.1074,22.3346,0.0],[-74.1065,22.3335,0.561],[-74.1082,22.3312,0.2872],[-74.1149,22.3307,0.0],[-74.1162,22.3282,0.1796],[-74.1201,22.3263,0.5378],[-74.1254,22.326,0.1005],[-74.1235,22.3288,0.2499],[-74.1193,22.3304,0.0],[-74.1179,22.3332,0.0],[-74.1293,22.3279,0.3358],[-74.1387,22.3263,0.3699],[-74.1413,22.3271,0.0],[-74.1432,22.3257,0.2195],[-74.1487,22.3276,0.0],[-74.1518,22.3257,0.0],[-74.1507,22.3249,0.3482],[-74.1535,22.3221,0.2123],[-74.154,22.3226,0.4342],[-74.1524,22.3254,0.2231],[-74.1588,22.3229,0.0],[-74.1604,22.3168,0.1136],[-74.166,22.3124,0.3315],[-74.1682,22.3121,0.0],[-74.1696,22.3149,0.0],[-74.171,22.3104,0.4118],[-74.1724,22.3101,0.4054],[-74.1701,22.3165,0.0],[-74.1724,22.3171,0.0],[-74.1824,22.3113,0.6126],[-74.1896,22.3004,0.0],[-74.186,22.301,0.1467],[-74.186,22.3029,0.109],[-74.1807,22.3082,0.1023],[-74.1771,22.3113,0.6057],[-74.1751,22.3107,0.1502],[-74.1793,22.3054,0.2385],[-74.1837,22.3032,0.3919],[-74.1862,22.2971,0.0],[-74.1924,22.2962,0.1783],[-74.1929,22.2915,0.8977],[-74.1913,22.289,0.3815],[-74.1871,22.2879,0.0],[-74.1851,22.2882,0.2573],[-74.1829,22.2918,0.0],[-74.1779,22.2912,0.0],[-74.1757,22.2868,0.0],[-74.1757,22.2824,0.0],[-74.1785,22.2796,0.2461],[-74.1787,22.2763,0.0],[-74.1837,22.2724,0.1747],[-74.1843,22.2682,0.7858],[-74.1871,22.2674,0.0],[-74.1885,22.2629,0.1528],[-74.1907,22.2643,0.0],[-74.1915,22.2687,0.4554],[-74.1963,22.2635,0.0],[-74.1937,22.261,0.0],[-74.1979,22.2607,0.0],[-74.1985,22.2504,0.0],[-74.196,22.2529,0.3205],[-74.1929,22.2515,0.0],[-74.1896,22.2551,0.0],[-74.1871,22.2551,0.0],[-74.1865,22.2538,0.0888],[-74.1946,22.2371,0.0906],[-74.2074,22.2235,0.537],[-74.2151,22.221,0.0],[-74.221,22.2215,1.4219],[-74.224,22.2254,0.2231],[-74.226,22.2232,0.9959],[-74.2307,22.2232,0.9201],[-74.2404,22.226,1.9027],[-74.2468,22.2326,0.0],[-74.2574,22.2329,0.0],[-74.2688,22.2268,2.8472],[-74.2826,22.2226,0.0],[-74.289,22.2182,1.3192],[-74.2896,22.216,2.1531],[-74.2835,22.2096,0.0],[-74.2821,22.2029,0.0],[-74.2793,22.199,4.5938],[-74.2793,22.1949,4.9341],[-74.2835,22.1815,0.0],[-74.2918,22.1693,0.0],[-74.2904,22.1668,0.0],[-74.2926,22.1643,0.5645],[-74.2874,22.1646,5.0181],[-74.2849,22.1629,0.0],[-74.2832,22.1643,0.627],[-74.2679,22.1885,0.9771],[-74.2518,22.2001,0.0],[-74.2401,22.2038,1.8622],[-74.2371,22.2032,0.0],[-74.2374,22.2004,0.0],[-74.2349,22.1999,0.0],[-74.2213,22.2051,0.0],[-74.2129,22.2015,0.0],[-74.2076,22.2024,0.908],[-74.2001,22.2082,0.0],[-74.1971,22.2088,4.6916],[-74.1893,22.2179,0.7414],[-74.1871,22.2193,2.7443],[-74.1846,22.2185,0.0],[-74.1821,22.2237,0.0],[-74.1782,22.2254,0.0],[-74.1735,22.2318,0.0],[-74.1663,22.2376,7.5643],[-74.1599,22.2549,0.0],[-74.1526,22.264,0.9701],[-74.1526,22.271,1.8755],[-74.1507,22.2746,2.1431],[-74.1351,22.2907,1.6603],[-74.1257,22.2935,0.0],[-74.1154,22.2921,0.8573],[-74.1129,22.2882,0.2502],[-74.114,22.2851,0.0],[-74.1124,22.2846,0.0],[-74.1043,22.2896,0.0],[-74.101,22.2949,0.0],[-74.0857,22.3018,0.0],[-74.0829,22.3015,0.0],[-74.0724,22.306,3.3292],[-74.0696,22.3054,0.0],[-74.0638,22.3079,3.5764],[-74.0532,22.3093,0.0],[-74.049,22.3115,0.0],[-74.046,22.3107,0.8168],[-74.0413,22.3137,0.0],[-74.0365,22.314,1.278],[-74.0265,22.3187,0.697],[-74.0137,22.321,0.0],[-73.9976,22.329,3.4642],[-73.989,22.3418,0.0],[-73.9743,22.3574,2.9864],[-73.966,22.3785,1.3337],[-73.9632,22.3935,0.8492],[-73.9551,22.4046,0.8572],[-73.9493,22.4082,1.4811],[-73.9451,22.4182,0.0],[-73.9393,22.4243,0.7507],[-73.9368,22.4332,0.0],[-73.9313,22.4426,3.9044],[-73.9276,22.4451,0.6742],[-73.919,22.4424,1.3246],[-73.914,22.4449,1.3834],[-73.904,22.4593,6.6223],[-73.891,22.4685,0.6512],[-73.8874,22.474,4.7],[-73.8793,22.4799,0.0],[-73.8724,22.4879,0.813],[-73.8654,22.5088,0.0],[-73.8646,22.5163,0.6626],[-73.8562,22.5351,2.7515],[-73.8496,22.5399,0.0],[-73.8449,22.5404,1.0437],[-73.8374,22.5343,0.0],[-73.8388,22.5374,0.0],[-73.844,22.5424,0.0],[-73.846,22.5421,0.3908],[-73.8485,22.546,1.0966],[-73.8582,22.5768,2.0047],[-73.8587,22.5849,0.0],[-73.8615,22.5893,0.597],[-73.8693,22.6257,5.5286],[-73.8685,22.6321,5.0722],[-73.8718,22.6521,0.8159],[-73.871,22.6649,1.703],[-73.8737,22.6638,1.0529],[-73.8785,22.6696,0.0],[-73.8771,22.666,0.2273],[-73.8799,22.6632,0.0955],[-73.8832,22.6638,0.0],[-73.8843,22.6612,0.0],[-73.8793,22.6626,0.0955],[-73.8785,22.6565,0.1792],[-73.8818,22.6557,0.1391],[-73.8854,22.6582,0.3795],[-73.8871,22.6568,0.4883],[-73.891,22.6579,0.1494],[-73.8951,22.6546,0.1094],[-73.9015,22.6538,0.0],[-73.9107,22.6707,0.3814],[-73.9085,22.6718,0.0],[-73.9093,22.6763,0.0862],[-73.906,22.676,0.346],[-73.9051,22.6813,0.351],[-73.9076,22.6815,0.0],[-73.9121,22.6771,0.0],[-73.9112,22.6801,0.1461],[-73.9126,22.6818,0.0],[-73.9076,22.6829,0.5772],[-73.9032,22.681,0.1745],[-73.9026,22.6885,0.0],[-73.9115,22.6849,0.549],[-73.9132,22.6857,0.6239],[-73.9137,22.6896,0.8214],[-73.9115,22.6924,0.1398],[-73.9082,22.6921,0.5719],[-73.9071,22.696,0.4672],[-73.9032,22.6954,0.0],[-73.904,22.6999,0.238],[-73.9004,22.6996,0.2277],[-73.901,22.6974,0.0],[-73.899,22.6979,0.1093],[-73.8924,22.6843,0.2099],[-73.8882,22.6843,0.25],[-73.8896,22.6796,0.2468],[-73.8926,22.6787,0.0],[-73.8887,22.6771,0.2312],[-73.8901,22.6743,0.2189],[-73.8882,22.6743,0.1871],[-73.8854,22.6779,0.8011],[-73.8868,22.6732,0.0659],[-73.891,22.6721,0.0],[-73.8896,22.6696,0.1769],[-73.8929,22.6657,0.0971],[-73.8913,22.6668,0.0],[-73.8904,22.6643,0.231],[-73.8876,22.664,0.3044],[-73.884,22.6657,0.0],[-73.8776,22.6743,0.2815],[-73.881,22.6818,1.3726],[-73.881,22.6893,1.3169],[-73.8793,22.6907,0.5928],[-73.8779,22.6971,0.8613],[-73.8737,22.6996,0.0],[-73.8776,22.7018,0.2867],[-73.8876,22.6882,0.1564],[-73.8921,22.6893,0.1853],[-73.8876,22.6974,0.5503],[-73.8907,22.7062,0.2636],[-73.8932,22.7049,0.0923],[-73.8932,22.7071,0.0],[-73.8949,22.7079,0.358],[-73.8907,22.7124,0.2676],[-73.8904,22.7162,0.23],[-73.8882,22.7182,0.0],[-73.8913,22.7212,0.4593],[-73.8954,22.7224,0.0],[-73.9051,22.7215,0.0],[-73.9043,22.7151,0.4761],[-73.9082,22.7107,0.7418],[-73.9287,22.7054,2.0535],[-73.9407,22.7099,2.0354],[-73.9457,22.7146,0.0],[-73.9471,22.7207,0.7278],[-73.9443,22.7221,0.0],[-73.9471,22.7232,0.0],[-73.944,22.7246,1.0608],[-73.9574,22.726,0.6963],[-73.9574,22.7243,0.0],[-73.9543,22.7221,0.7705],[-73.954,22.719,1.3711],[-73.9565,22.7126,0.0],[-73.9626,22.7049,0.0],[-73.9493,22.709,0.499],[-73.9465,22.7068,0.0],[-73.9532,22.706,0.0],[-73.9532,22.704,0.216],[-73.9476,22.7049,0.0],[-73.944,22.7029,0.0],[-73.9424,22.6999,0.0],[-73.9393,22.6999,0.0],[-73.9376,22.6982,0.102],[-73.9343,22.6999,0.2275],[-73.9296,22.6993,0.0],[-73.9254,22.7024,0.2566],[-73.919,22.7018,1.9258],[-73.9218,22.6996,0.3432],[-73.9362,22.6968,5.1643],[-73.9404,22.6988,0.0],[-73.9482,22.6979,1.9495],[-73.9535,22.7018,0.0],[-73.9582,22.7026,0.0],[-73.9618,22.7007,0.5205],[-73.9635,22.6965,2.8121],[-73.9668,22.6957,0.9379],[-73.9632,22.7007,0.0],[-73.9665,22.7018,1.3572],[-73.9732,22.6988,0.0],[-73.971,22.6965,0.8111],[-73.9788,22.6921,0.508],[-73.989,22.691,1.1565],[-74.001,22.6924,0.0],[-74.0029,22.6901,0.5095],[-74.0079,22.6899,0.0],[-74.0054,22.686,0.2364],[-74.0021,22.6868,0.0],[-74.0001,22.6852,0.0],[-73.9979,22.6868,0.0],[-74.0013,22.689,0.0],[-73.9999,22.691,0.5985],[-73.9929,22.6871,1.1317],[-73.9846,22.6882,0.5853],[-73.9851,22.6851,0.4039],[-73.9821,22.6843,0.0],[-73.9826,22.6826,0.5601],[-73.9807,22.6821,0.2128],[-73.9746,22.6924,1.4588],[-73.9721,22.6924,0.1363],[-73.9682,22.6954,0.8166],[-73.9682,22.6929,2.1882],[-73.9771,22.684,0.0],[-73.9751,22.6818,0.0],[-73.9724,22.6832,0.5779],[-73.9701,22.6813,1.1178],[-73.9718,22.6782,1.8988],[-73.9782,22.6749,0.268],[-73.976,22.6699,0.18],[-73.9768,22.6679,0.1103],[-73.9818,22.671,0.0825],[-73.9796,22.6738,0.0],[-73.9854,22.6738,0.5565],[-73.9854,22.6757,0.3554],[-73.9821,22.6774,0.0915],[-73.9782,22.6824,0.534],[-73.9837,22.6804,4.9762],[-73.9868,22.681,0.0],[-73.9971,22.6765,1.626],[-74.0001,22.6788,0.0],[-74.0082,22.6787,1.1636],[-74.0096,22.6829,0.6186],[-74.0082,22.6846,0.1905],[-74.0099,22.6876,0.0],[-74.0118,22.6865,0.0],[-74.0107,22.6846,0.2403],[-74.0137,22.684,0.0],[-74.016,22.6854,0.0],[-74.0174,22.6824,0.4047],[-74.0193,22.6849,0.2956],[-74.0196,22.6896,0.0],[-74.0212,22.6871,0.0],[-74.0282,22.6887,0.0981],[-74.0287,22.686,0.0],[-74.0276,22.6846,0.0],[-74.0257,22.6851,0.8992],[-74.0257,22.6815,0.4921],[-74.0235,22.6796,0.4783],[-74.024,22.6787,0.0],[-74.026,22.6799,0.0],[-74.0257,22.6776,0.0],[-74.0232,22.6779,0.0],[-74.0201,22.6754,0.0],[-74.0185,22.676,0.0],[-74.0104,22.6724,5.0196],[-74.0085,22.6707,0.0],[-74.0082,22.664,0.0],[-74.0001,22.6666,0.0],[-73.9979,22.6688,0.2489],[-73.9968,22.6662,0.1593],[-74.0018,22.6596,0.0],[-74.0049,22.6585,0.0],[-74.0007,22.6557,0.0],[-73.9999,22.6588,0.3065],[-73.9974,22.659,0.3861],[-73.9971,22.6551,0.2233],[-73.999,22.6551,0.2578],[-73.9987,22.6529,0.2532],[-74.0001,22.655,0.0],[-74.0032,22.6554,0.279],[-74.0051,22.6549,0.0631],[-74.006,22.6518,0.3168],[-74.0079,22.6515,0.2733],[-74.0082,22.6568,0.4864],[-74.0107,22.6576,0.0],[-74.0118,22.6524,0.1529],[-74.0171,22.6515,0.1915],[-74.0196,22.649,0.0],[-74.0204,22.6449,0.1193],[-74.029,22.6426,0.0],[-74.0312,22.6393,0.0],[-74.0346,22.6387,0.0],[-74.0351,22.6349,0.0],[-74.0326,22.634,0.0],[-74.0335,22.629,0.1857],[-74.0279,22.6257,0.0],[-74.0282,22.6238,0.0],[-74.031,22.6274,0.0],[-74.0343,22.6282,0.0],[-74.0346,22.6315,0.1587],[-74.0385,22.6363,0.0],[-74.0429,22.6346,0.0],[-74.0446,22.6288,0.0],[-74.0421,22.6279,0.1632],[-74.0424,22.6257,0.1121],[-74.0432,22.624,0.0],[-74.0462,22.6246,0.0753],[-74.0471,22.6224,0.0],[-74.0454,22.6196,0.0],[-74.046,22.6165,0.0],[-74.0407,22.619,0.0523],[-74.044,22.6132,0.0],[-74.0424,22.6104,0.0],[-74.0407,22.6099,0.0],[-74.0343,22.6132,0.0],[-74.0346,22.6176,0.0654],[-74.0376,22.6193,0.0833],[-74.0374,22.6229,0.1811],[-74.0318,22.6199,0.0],[-74.0287,22.6196,0.0],[-74.031,22.6229,0.0],[-74.026,22.6199,0.0],[-74.0235,22.6204,0.0],[-74.0263,22.616,0.0]]],
[[[-74.0268,22.6124,0.1764],[-74.0257,22.6143,0.0],[-74.0312,22.6162,0.0],[-74.0326,22.6121,0.0],[-74.0351,22.611,0.0],[-74.0351,22.6093,0.0],[-74.0335,22.6096,0.0],[-74.0335,22.6068,0.2171],[-74.0365,22.6049,0.0],[-74.0365,22.6032,0.0],[-74.0343,22.6024,0.0],[-74.0274,22.6051,0.0],[-74.0254,22.6079,0.0],[-74.0271,22.6096,0.175],[-74.0257,22.6113,0.0],[-74.0268,22.6124,0.1764]]],
[[[-74.041,22.6643,0.0903],[-74.0435,22.6651,0.0],[-74.0462,22.6607,0.0],[-74.0404,22.6604,0.275],[-74.0437,22.6585,0.0],[-74.0426,22.6571,0.2131],[-74.0404,22.6576,0.3094],[-74.0396,22.6543,0.1226],[-74.0365,22.6565,0.0],[-74.0329,22.6554,0.0],[-74.0293,22.6576,0.0726],[-74.0301,22.6643,0.0],[-74.0387,22.6621,0.101],[-74.041,22.6643,0.0903]]],
[[[-74.0188,22.674,0.0],[-74.0229,22.6751,0.0983],[-74.024,22.6732,1.6604],[-74.0207,22.6699,0.0],[-74.0204,22.6657,0.0],[-74.0132,22.6671,0.2019],[-74.0099,22.6693,0.4079],[-74.011,22.6718,0.0],[-74.0188,22.674,0.0]]],
[[[-74.0154,22.6882,0.0],[-74.0171,22.689,0.0],[-74.0176,22.6865,0.0],[-74.0143,22.6863,0.0],[-74.0154,22.6882,0.0]]]]}
,"properties": {"GID_1": "BHS.1_1","GID_0": "BHS","country": "Bahamas","state": "Acklins","VARNAME_1": "NA","NL_NAME_1": "NA","TYPE_1": "District","ENGTYPE_1": "District","CC_1": "NA","HASC_1": "BS.AK","ISO_1": "NA","name": "Acklins.state","area_km2": 495.0941,"hist_schema_id": "Elevation0-9000","hist_area_km2": {"0": 468.3933,"25": 26.7008}}}