{"type":"Feature","properties":{"ISO3166-1-Alpha-3":"BHS","country":"The Bahamas","fill":"#F0F","id":"5036","name":"Acklins"},
"geometry":{"type": "MultiPolygon","coordinates": [[[[-73.60762,22.57726,0.0],[-73.59379,22.60199,0.0],[-73.60598,22.60949,0.0],[-73.61818,22.60125,2.1528],[-73.6255,22.57426,0.3649],[-73.60762,22.57726,0.0]]],
[[[-73.46874,22.58766,0.0],[-73.47846,22.60116,0.0],[-73.50119,22.61093,0.0],[-73.52392,22.6162,0.0],[-73.54098,22.61396,0.0],[-73.55885,22.61172,0.5438],[-73.55642,22.60647,0.0],[-73.53611,22.60346,0.0],[-73.51744,22.5982,0.0],[-73.47523,22.58617,0.0],[-73.46874,22.58766,0.0]]],
[[[-73.84488,22.7202,0.0],[-73.84878,22.72313,0.0],[-73.85021,22.72622,2.9973],[-73.85066,22.72944,7.5616],[-73.85171,22.7333,3.3501],[-73.87849,22.72333,0.2129],[-73.90315,22.71967,3.6002],[-73.95474,22.7202,0.0],[-73.94856,22.71377,2.178],[-73.94587,22.71019,2.1049],[-73.94249,22.70808,1.3116],[-73.93432,22.70596,2.1382],[-73.93432,22.69847,0.0],[-73.93855,22.6979,0.8746],[-73.94127,22.69648,4.6433],[-73.94734,22.69229,13.2086],[-73.95556,22.69538,5.6052],[-73.96451,22.69147,4.5007],[-73.97191,22.68293,0.5779],[-73.97525,22.67182,1.8872],[-73.98314,22.67597,0.0865],[-74.01622,22.68488,0.0],[-74.00211,22.66405,0.0],[-73.99572,22.65754,0.8535],[-74.00357,22.6551,0.279],[-74.01085,22.65127,-0.0188],[-74.01745,22.64549,0.0982],[-74.02953,22.62743,0.3935],[-74.03124,22.62368,0.0],[-74.01622,22.61034,0.0],[-73.98453,22.59561,0.4347],[-73.91344,22.59447,0.3999],[-73.88589,22.57559,5.1345],[-73.87084,22.53531,25.9512],[-73.8802,22.50292,3.83],[-73.9077,22.47944,0.0],[-73.94734,22.46577,0.0],[-73.96935,22.46223,0.0],[-73.98693,22.45751,0.0],[-73.9984,22.44587,1.0996],[-74.00255,22.4217,0.0],[-74.01334,22.40583,0.0],[-74.03808,22.40021,0.0],[-74.06542,22.39753,0.0],[-74.08385,22.39061,1.0552],[-74.08406,22.38154,4.978],[-74.08023,22.36774,0.6252],[-74.07917,22.35517,0.6386],[-74.0924,22.3465,0.0],[-74.10334,22.33242,0.2553],[-74.10871,22.32917,0.7516],[-74.13183,22.32591,0.5442],[-74.1612,22.30923,1.1567],[-74.1813,22.30191,0.4445],[-74.18049,22.29531,1.8889],[-74.17748,22.29169,0.0],[-74.17292,22.28986,0.8318],[-74.16706,22.28823,6.2243],[-74.17414,22.28555,0.7461],[-74.19371,22.27391,0.0],[-74.19371,22.26777,0.0],[-74.18309,22.26048,1.0125],[-74.18391,22.2541,8.6927],[-74.2141,22.22919,0.0],[-74.22252,22.22553,0.0],[-74.26195,22.2285,1.8898],[-74.27245,22.22573,0.0],[-74.27697,22.21589,0.5],[-74.27823,22.18057,22.8812],[-74.27697,22.17154,0.0],[-74.24474,22.20038,0.0],[-74.22692,22.20921,3.9254],[-74.20425,22.21247,13.8575],[-74.19416,22.21686,19.2121],[-74.16771,22.23843,7.5643],[-74.15966,22.24665,0.0],[-74.13467,22.28388,0.0],[-74.11937,22.29686,0.6128],[-74.09439,22.30191,6.4036],[-74.0336,22.32502,31.3523],[-74.02302,22.32575,0.5],[-74.01378,22.33006,0.0],[-73.96158,22.37018,0.0],[-73.92837,22.43012,0.0],[-73.9169,22.43903,0.0],[-73.90477,22.44375,0.0],[-73.88956,22.45502,0.0],[-73.87515,22.46849,0.0],[-73.86539,22.48005,0.0],[-73.85912,22.49872,0.0],[-73.85558,22.52066,0.0],[-73.84838,22.53758,0.0],[-73.83121,22.54145,0.0],[-73.84398,22.56712,0.0],[-73.84948,22.58246,0.0],[-73.85863,22.65717,0.0],[-73.86539,22.67182,0.0],[-73.87694,22.66547,0.2273],[-73.88781,22.67182,0.4178],[-73.89607,22.68488,0.0],[-73.89953,22.69847,0.1093],[-73.89025,22.69546,0.5772],[-73.8837,22.68985,0.0],[-73.8802,22.68187,1.3726],[-73.87971,22.67182,0.0],[-73.86848,22.68146,0.0],[-73.84488,22.7202,0.0]]]]}}