{"type":"Feature","properties":{"GID_1":"PRI.68_1","GID_0":"PRI","country":"PuertoRico","province":"SantaIsabel","VARNAME_1":"NA","NL_NAME_1":"NA","TYPE_1":"Municipio","ENGTYPE_1":"Municipality","CC_1":"NA","HASC_1":"PR.SI","ISO_1":"NA","name":"Santa_Isabel.province"},
"geometry":{"type": "MultiPolygon","coordinates": [[[[-66.3854,17.9218,0.0],[-66.3871,17.9221,0.0],[-66.3893,17.9196,0.0],[-66.3857,17.919,0.0],[-66.3854,17.9218,0.0]]],
[[[-66.3821,17.9226,1.5349],[-66.3843,17.9221,0.0],[-66.3829,17.9196,0.0],[-66.381,17.9204,0.0],[-66.3821,17.9226,1.5349]]],
[[[-66.364,17.9299,0.7009],[-66.366,17.9301,1.6022],[-66.3693,17.9282,1.2161],[-66.3621,17.9285,0.0],[-66.364,17.9299,0.7009]]],
[[[-66.3881,18.0404,95.7436],[-66.395,18.0375,120.7653],[-66.4269,18.0426,77.8017],[-66.4259,18.0312,65.1692],[-66.4213,18.0188,41.9502],[-66.4282,18.0097,35.5165],[-66.4309,18.0101,31.2078],[-66.4346,18.0072,24.6052],[-66.4346,17.9967,17.2686],[-66.4368,17.9924,14.4449],[-66.447,17.9876,7.4692],[-66.4521,17.9815,0.0],[-66.4457,17.9799,0.5019],[-66.4415,17.9765,0.0],[-66.4296,17.9604,0.0],[-66.426,17.9582,0.0],[-66.4182,17.9599,1.4966],[-66.4115,17.9574,3.6088],[-66.4101,17.9538,2.1943],[-66.4032,17.9526,1.4522],[-66.399,17.9507,2.7931],[-66.3976,17.9482,0.0],[-66.3921,17.9465,1.8118],[-66.3896,17.941,0.8019],[-66.3924,17.9432,4.2641],[-66.3926,17.946,1.8118],[-66.3943,17.9449,1.9262],[-66.3962,17.9474,0.0],[-66.4024,17.9499,0.9295],[-66.4021,17.9485,0.0],[-66.3918,17.9421,4.3722],[-66.3904,17.9393,0.0],[-66.3882,17.9401,1.7215],[-66.3857,17.9374,0.0],[-66.3801,17.9415,1.0504],[-66.3801,17.9443,0.5345],[-66.3776,17.9443,0.0],[-66.3765,17.9463,0.0],[-66.3771,17.949,0.7899],[-66.3749,17.9518,0.0],[-66.3763,17.9557,1.8354],[-66.3715,17.9549,0.0],[-66.3724,17.9521,0.0],[-66.3696,17.9507,1.5428],[-66.3674,17.9532,1.228],[-66.3701,17.9593,3.3531],[-66.3693,17.9613,1.3486],[-66.3674,17.9615,1.3486],[-66.3643,17.9565,0.0],[-66.3607,17.9585,0.0],[-66.3596,17.9618,0.0],[-66.3635,17.9626,1.6358],[-66.3649,17.9646,1.0905],[-66.3632,17.9682,0.555],[-66.359,17.9688,1.8867],[-66.3579,17.9649,0.0],[-66.3549,17.9651,0.0],[-66.3518,17.9685,0.0],[-66.3381,17.9765,1.4847],[-66.3428,17.9938,37.046],[-66.3313,18.0148,78.8351],[-66.3359,18.0229,112.2279],[-66.3405,18.0229,119.5377],[-66.3484,18.0267,146.8917],[-66.3563,18.0367,172.7304],[-66.3715,18.0328,67.152],[-66.3881,18.0404,95.7436]]]]}}