{"type": "Feature","bbox": [-76.7146,20.6904,-76.4079,21.0413],"geometry": {"type": "MultiPolygon","coordinates": [[[[-76.6016,20.6904,37.0076],[-76.5996,20.7016,39.4571],[-76.593,20.7168,44.6115],[-76.5927,20.7281,46.4471],[-76.5967,20.7358,49.9629],[-76.6148,20.7459,53.7793],[-76.618,20.7502,55.4578],[-76.62,20.7766,57.9034],[-76.618,20.7897,62.6743],[-76.6098,20.7935,68.8011],[-76.5889,20.7864,76.4455],[-76.5767,20.7892,80.9405],[-76.5475,20.8437,114.7889],[-76.5286,20.8646,152.0191],[-76.5185,20.8814,223.4086],[-76.5094,20.888,157.3723],[-76.5013,20.8853,141.3002],[-76.485,20.8618,133.9344],[-76.4791,20.8434,99.0794],[-76.4713,20.83,84.7229],[-76.4627,20.8266,86.2786],[-76.4514,20.8291,79.0],[-76.4382,20.84,82.4869],[-76.4357,20.8565,88.297],[-76.4298,20.8718,98.425],[-76.429,20.9601,82.6705],[-76.4079,20.9986,111.8713],[-76.4311,21.008,97.9994],[-76.4553,21.0277,60.1044],[-76.4981,21.0413,46.6807],[-76.502,21.0394,47.0071],[-76.5066,21.0358,54.415],[-76.5102,21.0248,56.6455],[-76.5168,20.9912,110.0536],[-76.5238,20.9769,136.3119],[-76.5302,20.9724,130.9082],[-76.5716,20.9725,132.2997],[-76.5796,20.9712,135.5845],[-76.6062,20.9615,184.3125],[-76.6162,20.9605,161.7409],[-76.639,20.9685,142.2547],[-76.6496,20.9701,134.4787],[-76.6601,20.9691,136.748],[-76.6697,20.9655,125.5531],[-76.674,20.9598,117.5],[-76.6791,20.9474,120.4272],[-76.6807,20.932,119.1533],[-76.6796,20.9202,117.8308],[-76.673,20.8953,134.3911],[-76.6808,20.8568,94.4442],[-76.6847,20.8456,87.2979],[-76.7146,20.8087,56.0468],[-76.7145,20.8013,53.3376],[-76.6925,20.7644,46.6301],[-76.6748,20.7428,39.1241],[-76.6731,20.7349,39.3499],[-76.6761,20.7281,37.7817],[-76.6885,20.7193,34.6596],[-76.6824,20.7126,37.7368],[-76.6793,20.71,37.8908],[-76.6752,20.7098,38.4098],[-76.6641,20.717,38.4394],[-76.6601,20.717,39.6609],[-76.6545,20.7142,40.5632],[-76.6493,20.6992,38.8027],[-76.646,20.6924,35.656],[-76.6438,20.691,35.3141],[-76.6206,20.6954,38.557],[-76.6141,20.6949,39.6837],[-76.6016,20.6904,37.0076]]]]}
,"properties": {"GID_2": "CUB.7.5_1","GID_0": "CUB","country": "Cuba","GID_1": "CUB.7_1","province": "Holguín","NL_NAME_1": "NA","county": "CalixtoGarcía","VARNAME_2": "NA","NL_NAME_2": "NA","TYPE_2": "Municipio","ENGTYPE_2": "Municipality","CC_2": "NA","HASC_2": "CU.HO.CG","name": "Calixto_García.county","area_km2": 577.9266,"hist_schema_id": "Elevation0-9000","hist_area_km2": {"25": 2.955,"50": 82.8727,"75": 112.4989,"100": 189.6066,"125": 129.7268,"150": 50.8971,"175": 7.0715,"200": 1.7631,"225": 0.5349}}}