{"type":"Feature","properties":{"GID_2":"DOM.1.10_1","GID_0":"DOM","country":"DominicanRepublic","GID_1":"DOM.1_1","province":"Azua","NL_NAME_1":"NA","county":"VillaTabaraArriba","VARNAME_2":"NA","NL_NAME_2":"NA","TYPE_2":"Municipio","ENGTYPE_2":"Municipality","CC_2":"NA","HASC_2":"DO.AZ.VT","name":"Villa_Tabara_Arriba.county"},
"geometry":{"type": "MultiPolygon","coordinates": [[[[-70.828,18.5151,236.6139],[-70.8245,18.5301,282.4916],[-70.8194,18.5411,320.1371],[-70.8215,18.5555,446.8089],[-70.8188,18.558,506.8313],[-70.8114,18.5595,406.186],[-70.8086,18.5692,656.485],[-70.81,18.5724,590.3486],[-70.818,18.5801,736.3578],[-70.8194,18.5847,883.2192],[-70.8181,18.5905,1033.8728],[-70.8108,18.5964,867.4338],[-70.8105,18.6028,831.9919],[-70.8148,18.6078,869.4499],[-70.8224,18.6113,1097.0181],[-70.8509,18.6124,1109.8177],[-70.8594,18.6146,1071.3597],[-70.8708,18.6142,696.4827],[-70.9006,18.5973,443.7526],[-70.9051,18.592,365.3224],[-70.909,18.5718,276.48],[-70.92,18.5699,294.1217],[-70.9231,18.5667,323.5199],[-70.9233,18.5596,368.9739],[-70.9206,18.5511,362.012],[-70.9203,18.5399,299.9159],[-70.919,18.5369,281.6532],[-70.9082,18.5315,275.5554],[-70.8947,18.5307,207.8262],[-70.8899,18.5321,232.4081],[-70.8861,18.5376,252.5137],[-70.8825,18.5389,275.2698],[-70.8793,18.5367,262.0957],[-70.8771,18.5318,245.0235],[-70.8773,18.5207,229.8709],[-70.8798,18.5158,186.7516],[-70.8833,18.5139,193.5647],[-70.8949,18.5141,177.7593],[-70.9074,18.5172,201.5961],[-70.9141,18.5219,211.415],[-70.9165,18.5216,208.5708],[-70.9168,18.5194,204.8799],[-70.9144,18.5168,200.9283],[-70.9106,18.5058,171.3744],[-70.9057,18.5011,182.7669],[-70.9068,18.4973,152.9709],[-70.9306,18.5026,192.9756],[-70.9444,18.4951,241.7899],[-70.9521,18.494,289.2766],[-70.9614,18.4902,331.4988],[-70.9722,18.4919,298.9727],[-70.9759,18.4944,292.9309],[-70.9803,18.5072,213.5112],[-70.9834,18.5106,245.1921],[-70.9961,18.5082,182.2631],[-70.9984,18.5013,179.0311],[-71.0028,18.5005,175.665],[-71.0063,18.5042,161.3249],[-71.0054,18.5125,171.3689],[-71.0142,18.5214,186.5733],[-71.0188,18.5232,181.4725],[-71.0288,18.5227,147.1908],[-71.0305,18.5199,174.7593],[-71.03,18.5128,187.9851],[-71.0221,18.5058,196.6344],[-71.0153,18.4917,210.5713],[-71.0078,18.489,211.9785],[-70.9889,18.4912,245.0361],[-70.986,18.4889,272.3398],[-70.984,18.4834,256.9701],[-70.9864,18.4667,207.8013],[-70.9961,18.4558,202.2841],[-70.9954,18.4504,210.8858],[-70.998,18.4402,256.612],[-71.006,18.4326,296.6631],[-71.0091,18.4262,319.1084],[-71.0102,18.4189,371.8265],[-71.0166,18.4067,502.9742],[-71.0201,18.4048,576.2668],[-71.0322,18.4048,609.4393],[-71.0358,18.4033,694.5224],[-71.0364,18.3944,959.7479],[-71.0351,18.3897,1086.2941],[-71.0259,18.3771,1302.674],[-71.0098,18.3729,1249.5095],[-70.9974,18.3656,1205.437],[-70.986,18.3643,1211.9927],[-70.974,18.3576,1184.5286],[-70.9732,18.3646,1078.0292],[-70.9692,18.3701,1056.0931],[-70.9736,18.3805,877.1925],[-70.9734,18.395,479.9788],[-70.9569,18.4228,225.9709],[-70.948,18.4237,208.7276],[-70.942,18.4168,186.9732],[-70.9383,18.416,199.4094],[-70.9187,18.4242,139.1741],[-70.9168,18.4318,142.4967],[-70.9141,18.4345,125.6371],[-70.8994,18.4357,86.0641],[-70.8979,18.438,85.3764],[-70.8988,18.4431,109.2106],[-70.8956,18.446,96.629],[-70.8842,18.446,85.9977],[-70.8713,18.4409,75.1283],[-70.8702,18.4429,75.8422],[-70.8728,18.446,81.415],[-70.873,18.455,98.5879],[-70.8757,18.4621,117.0727],[-70.8744,18.4652,121.559],[-70.8341,18.4516,90.4715],[-70.8248,18.455,94.4919],[-70.8146,18.4617,113.739],[-70.8133,18.4716,134.589],[-70.8195,18.4844,177.1486],[-70.8261,18.4928,208.2905],[-70.8326,18.4943,253.1795],[-70.8342,18.497,259.9763],[-70.8336,18.5048,265.6594],[-70.828,18.5151,236.6139]]]]}}