{"type":"Feature","properties":{"GID_2":"CUB.11.12_1","GID_0":"CUB","country":"Cuba","GID_1":"CUB.11_1","province":"Matanzas","NL_NAME_1":"NA","county":"Perico","VARNAME_2":"NA","NL_NAME_2":"NA","TYPE_2":"Municipio","ENGTYPE_2":"Municipality","CC_2":"NA","HASC_2":"CU.MA.PE","name":"Perico.county"},
"geometry":{"type": "MultiPolygon","coordinates": [[[[-81.0573,22.7955,34.9317],[-81.0595,22.7183,28.4217],[-81.0472,22.6787,27.9607],[-81.0386,22.6623,24.819],[-81.0125,22.633,26.8962],[-81.0051,22.6293,27.9076],[-80.9982,22.6404,29.2054],[-80.9942,22.6632,28.0878],[-80.9858,22.6757,31.1579],[-80.9753,22.6784,32.3653],[-80.9447,22.6784,37.7926],[-80.9368,22.6843,40.7162],[-80.9362,22.7793,54.771],[-80.9131,22.8254,35.4192],[-80.9523,22.8644,36.891],[-80.9627,22.8923,34.1157],[-80.966,22.9136,23.7087],[-80.9754,22.9356,20.6304],[-80.9821,22.9368,17.8009],[-80.9932,22.9321,18.1517],[-81.0137,22.9292,26.7866],[-81.0639,22.9019,13.1982],[-81.0737,22.8911,14.8721],[-81.073,22.8864,15.3569],[-81.07,22.8825,15.6838],[-81.0251,22.8421,16.5715],[-81.019,22.8343,18.3923],[-81.0196,22.8296,18.3088],[-81.0237,22.8244,17.4228],[-81.0573,22.7955,34.9317]]]]}}