{"type": "Feature","bbox": [-61.0715,13.8818,-61.0183,13.9385],"geometry": {"type": "MultiPolygon","coordinates": [[[[-61.0471,13.9385,36.8227],[-61.0504,13.9343,29.7873],[-61.0574,13.9357,0.0],[-61.0585,13.9343,0.0],[-61.0599,13.9299,0.9428],[-61.0571,13.9271,0.0],[-61.0604,13.9249,7.3376],[-61.0596,13.9224,9.3198],[-61.0612,13.9179,11.3436],[-61.0676,13.9149,0.0],[-61.0682,13.9124,8.3425],[-61.0657,13.9087,10.3751],[-61.0696,13.9057,0.0],[-61.0715,13.8962,13.0217],[-61.0605,13.8909,192.7621],[-61.0485,13.8892,235.2178],[-61.0458,13.8859,278.3136],[-61.0432,13.8869,309.8341],[-61.0391,13.8818,411.6739],[-61.0351,13.8866,140.7846],[-61.0292,13.8869,194.9926],[-61.0275,13.8927,443.2021],[-61.019,13.8987,305.1181],[-61.0183,13.9032,214.7905],[-61.0214,13.9086,296.9966],[-61.0221,13.918,191.0834],[-61.0268,13.9272,40.0677],[-61.0394,13.931,111.6975],[-61.0471,13.9385,36.8227]]]]}
,"properties": {"GID_1": "LCA.2_1","GID_0": "LCA","country": "SaintLucia","province": "Canaries","VARNAME_1": "NA","NL_NAME_1": "NA","TYPE_1": "Quarter","ENGTYPE_1": "Quarter","CC_1": "NA","HASC_1": "LC.CN","ISO_1": "NA","name": "Canaries.province","area_km2": 22.57682,"hist_schema_id": "Elevation0-9000","hist_area_km2": {"0": 0.74087,"25": 1.11131,"50": 1.44059,"75": 1.79045,"100": 2.0374,"125": 1.72874,"150": 1.74935,"175": 1.39949,"200": 1.50239,"225": 1.35832,"250": 1.31718,"275": 1.13195,"300": 0.84382,"325": 1.04963,"350": 0.94673,"375": 0.96732,"400": 0.45278,"425": 0.39105,"450": 0.28814,"475": 0.10291,"500": 0.10291,"525": 0.04116,"550": 0.06174,"575": 0.02058}}}