{"type":"Feature","properties":{"GID_3":"HTI.10.4.1_1","GID_0":"HTI","country":"Haiti","GID_1":"HTI.10_1","province":"Sud","NL_NAME_1":"NA","GID_2":"HTI.10.4_1","county":"lesCôteaux","NL_NAME_2":"NA","city":"Côteaux","VARNAME_3":"NA","NL_NAME_3":"NA","TYPE_3":"Commune","ENGTYPE_3":"Commune","CC_3":"NA","HASC_3":"NA","name":"Côteaux.city"},
"geometry":{"type": "MultiPolygon","coordinates": [[[[-74.0337,18.1968,4.5253],[-74.0229,18.1946,6.2563],[-74.0199,18.1919,5.3096],[-74.019,18.1871,4.1222],[-74.0066,18.1821,5.6491],[-74.0076,18.1828,5.6491],[-74.006,18.1849,7.8868],[-73.9971,18.1882,37.0686],[-73.9984,18.1912,26.5488],[-73.9953,18.1967,55.593],[-73.9966,18.2,63.7656],[-73.994,18.2053,66.0054],[-73.9915,18.2028,78.8939],[-73.9865,18.2096,91.3503],[-73.9946,18.229,299.9816],[-73.9941,18.2332,445.5817],[-73.9963,18.2374,739.9399],[-73.9963,18.2402,643.0961],[-73.9908,18.2448,347.4271],[-73.9948,18.2503,491.0804],[-74.0032,18.2571,787.2768],[-74.0047,18.2618,870.7959],[-74.0021,18.2633,802.5217],[-73.9916,18.2631,656.9954],[-73.9938,18.2784,746.0635],[-74.0024,18.2849,620.7289],[-74.0071,18.2952,798.187],[-74.0162,18.3036,791.5907],[-74.018,18.3014,778.9958],[-74.0187,18.2911,435.2083],[-74.0235,18.2904,440.3406],[-74.0276,18.2868,381.399],[-74.0307,18.2869,283.0171],[-74.0407,18.2807,342.2328],[-74.046,18.2825,359.7827],[-74.0497,18.2786,330.8547],[-74.0539,18.2725,575.1516],[-74.0557,18.2656,763.8873],[-74.0587,18.2652,661.5233],[-74.062,18.2605,417.5765],[-74.0623,18.2535,267.4293],[-74.0661,18.2466,134.9295],[-74.0733,18.2406,121.2728],[-74.0766,18.2328,22.1617],[-74.0639,18.2282,1.1524],[-74.061,18.2204,0.0],[-74.0535,18.2182,0.0],[-74.054,18.2113,0.0],[-74.0493,18.2082,0.0],[-74.043,18.2067,0.0],[-74.041,18.2026,0.0],[-74.0349,18.1999,0.0],[-74.0337,18.1968,4.5253]]]]}}