{"type": "Feature","bbox": [-71.2012,18.1208,-71.0551,18.2561],"geometry": {"type": "MultiPolygon","coordinates": [[[[-71.1934,18.1209,1500.2888],[-71.1908,18.1208,1491.4482],[-71.1884,18.1228,1404.4204],[-71.1809,18.1208,1446.2047],[-71.1688,18.1209,1359.9684],[-71.1549,18.1262,1292.6648],[-71.148,18.1259,1158.8325],[-71.1399,18.1234,960.5992],[-71.1269,18.1232,629.8517],[-71.1086,18.1264,531.5312],[-71.0966,18.1332,351.4905],[-71.0792,18.1401,107.8688],[-71.0781,18.1435,137.7676],[-71.0808,18.1542,224.129],[-71.0765,18.1583,134.7426],[-71.066,18.1595,104.7786],[-71.0582,18.1544,1.2478],[-71.0551,18.1551,0.0],[-71.0632,18.1663,0.616],[-71.0668,18.1682,1.3787],[-71.0699,18.1749,1.897],[-71.0679,18.1782,0.0],[-71.0696,18.1782,4.0979],[-71.0718,18.1815,15.4208],[-71.0729,18.1893,0.0],[-71.0793,18.1921,0.0],[-71.0818,18.1982,1.8748],[-71.0865,18.1999,4.5069],[-71.0893,18.204,1.0805],[-71.089,18.2074,0.0],[-71.0921,18.2088,4.9279],[-71.0912,18.2118,0.3879],[-71.0879,18.2146,1.3755],[-71.0871,18.2135,0.0],[-71.0882,18.2121,0.2166],[-71.0857,18.2132,0.0],[-71.0832,18.2179,0.0],[-71.0885,18.2271,0.6666],[-71.0971,18.2329,1.0882],[-71.0987,18.2404,4.048],[-71.1018,18.2418,2.6983],[-71.0957,18.2274,12.7404],[-71.111,18.2277,42.8095],[-71.1213,18.2304,55.322],[-71.1336,18.2282,67.0669],[-71.143,18.2311,35.1483],[-71.1614,18.2399,2.9802],[-71.1637,18.2429,3.1309],[-71.1654,18.2511,3.7435],[-71.1726,18.2553,4.5206],[-71.1913,18.2561,6.3621],[-71.2003,18.2522,15.5532],[-71.1973,18.2468,33.0749],[-71.1945,18.2322,128.9938],[-71.1993,18.2242,125.5943],[-71.1998,18.2143,220.8609],[-71.1941,18.2009,458.9854],[-71.1937,18.1804,499.6804],[-71.1911,18.1716,535.6702],[-71.1963,18.1621,658.8472],[-71.1969,18.1569,800.53],[-71.1969,18.1249,1395.2097],[-71.1957,18.1217,1507.2085],[-71.1934,18.1209,1500.2888]]],
[[[-71.201,18.2524,13.1886],[-71.2003,18.2522,15.5532],[-71.2012,18.2525,13.1886],[-71.201,18.2524,13.1886]]]]}
,"properties": {"GID_2": "DOM.3.10_1","GID_0": "DOM","country": "DominicanRepublic","GID_1": "DOM.3_1","province": "Barahona","NL_NAME_1": "NA","county": "SantaCruzdeBarahona","VARNAME_2": "Barahona","NL_NAME_2": "NA","TYPE_2": "Municipio","ENGTYPE_2": "Municipality","CC_2": "NA","HASC_2": "DO.BH.SC","name": "Santa_Cruzde_Barahona.county","area_km2": 154.5421,"hist_schema_id": "Elevation0-9000","hist_area_km2": {"0": 7.7131,"25": 9.7677,"50": 7.331,"75": 6.0017,"100": 4.5719,"125": 3.7864,"150": 3.7059,"175": 4.1692,"200": 4.4714,"225": 5.0959,"250": 5.5794,"275": 4.935,"300": 4.9955,"325": 4.9754,"350": 4.3912,"375": 4.3913,"400": 4.331,"425": 4.7742,"450": 4.1497,"475": 3.183,"500": 2.9614,"525": 3.4651,"550": 2.8003,"575": 3.0622,"600": 2.8003,"625": 2.5384,"650": 2.337,"675": 1.5714,"700": 2.055,"725": 1.6319,"750": 1.5715,"775": 1.5916,"800": 1.4708,"825": 1.5715,"850": 1.3902,"875": 0.9268,"900": 1.0477,"925": 1.0074,"950": 1.1283,"975": 1.2895,"1000": 0.8664,"1025": 1.0276,"1050": 1.0276,"1075": 0.8261,"1100": 0.9067,"1125": 0.9671,"1150": 0.6649,"1175": 0.8664,"1200": 0.5642,"1225": 0.6851,"1250": 0.7858,"1275": 0.5843,"1300": 0.5239,"1325": 0.4433,"1350": 0.5642,"1375": 0.4634,"1400": 0.4433,"1425": 0.4232,"1450": 0.6045,"1475": 0.5441,"1500": 0.1612,"1525": 0.0605}}}