{"type":"Feature","properties":{"GID_2":"CUB.16.6_1","GID_0":"CUB","country":"Cuba","GID_1":"CUB.16_1","province":"VillaClara","NL_NAME_1":"NA","county":"Manicaragua","VARNAME_2":"NA","NL_NAME_2":"NA","TYPE_2":"Municipio","ENGTYPE_2":"Municipality","CC_2":"NA","HASC_2":"CU.VC.MA","name":"Manicaragua.county"},
"geometry":{"type": "MultiPolygon","coordinates": [[[[-80.0973,22.1509,106.0098],[-80.0919,22.1403,146.5483],[-80.0884,22.1223,300.7364],[-80.0909,22.1081,214.6882],[-80.1026,22.0847,487.3059],[-80.1023,22.072,681.9034],[-80.1007,22.0691,714.6038],[-80.0871,22.0575,363.0],[-80.0861,22.0513,461.7342],[-80.0924,22.0388,598.3844],[-80.0941,22.0314,657.4674],[-80.09,22.0156,683.082],[-80.0826,22.0042,738.5491],[-80.0623,21.9832,760.7859],[-80.0555,21.9719,537.8334],[-80.0463,21.9443,694.0741],[-80.0287,21.9052,705.1143],[-80.0063,21.9077,675.1723],[-79.9931,21.9118,563.6749],[-79.9829,21.919,586.0198],[-79.9727,21.9366,654.8672],[-79.9663,21.9414,579.8326],[-79.9594,21.9412,521.3429],[-79.9462,21.9352,462.5183],[-79.9398,21.9368,473.1275],[-79.9383,21.9421,329.8279],[-79.9402,21.9598,277.204],[-79.9367,21.9698,289.561],[-79.9309,21.977,302.6114],[-79.9229,21.9804,277.8875],[-79.9102,21.9823,205.4854],[-79.8774,21.9766,356.0238],[-79.8577,21.9707,233.389],[-79.8438,21.9636,259.5073],[-79.8434,21.9828,205.0626],[-79.8365,22.0026,220.7348],[-79.8339,22.0376,125.6004],[-79.8247,22.0485,112.5289],[-79.8065,22.0594,112.7752],[-79.8014,22.07,87.6785],[-79.802,22.1105,154.5683],[-79.8096,22.1327,164.7134],[-79.8115,22.1559,143.566],[-79.8444,22.2212,174.6093],[-79.875,22.2322,279.2351],[-79.9064,22.2351,233.3828],[-79.9413,22.2511,243.5715],[-79.9863,22.2888,167.9123],[-80.0026,22.2888,172.48],[-80.02,22.2775,212.9746],[-80.0195,22.2455,156.7776],[-80.0229,22.2358,181.8371],[-80.0374,22.2324,191.5085],[-80.0603,22.2362,160.688],[-80.0921,22.2057,170.0648],[-80.0902,22.1969,147.0114],[-80.0919,22.1851,109.738],[-80.1001,22.1593,104.2215],[-80.0973,22.1509,106.0098]]]]}}