{"type":"Feature","properties":{"GID_2":"DOM.10.5_1","GID_0":"DOM","country":"DominicanRepublic","GID_1":"DOM.10_1","province":"Independencia","NL_NAME_1":"NA","county":"Mella","VARNAME_2":"NA","NL_NAME_2":"NA","TYPE_2":"Distritomunicipal","ENGTYPE_2":"Municipaldistrict","CC_2":"NA","HASC_2":"DO.IN.ME","name":"Mella.county"},
"geometry":{"type": "MultiPolygon","coordinates": [[[[-71.4325,18.4176,-24.7979],[-71.4466,18.4234,-27.5549],[-71.4562,18.4214,-28.632],[-71.4611,18.4219,-29.169],[-71.4715,18.4284,-32.599],[-71.4789,18.4425,-34.8196],[-71.498,18.4494,-37.0],[-71.5109,18.4503,-37.0],[-71.5268,18.4556,-37.0],[-71.5268,18.3988,-27.249],[-71.5292,18.3894,-19.2063],[-71.521,18.3806,-6.8881],[-71.5209,18.3683,35.9624],[-71.5235,18.3584,268.231],[-71.52,18.3487,276.4655],[-71.5156,18.3433,294.5147],[-71.5185,18.3345,351.2234],[-71.523,18.3275,360.2436],[-71.5224,18.3197,483.834],[-71.5047,18.2958,652.4797],[-71.5044,18.2909,495.5279],[-71.4992,18.2803,709.311],[-71.4872,18.2737,746.7238],[-71.4685,18.2586,770.3724],[-71.4657,18.2527,804.8028],[-71.466,18.2456,908.5204],[-71.4528,18.2316,1070.1124],[-71.4546,18.2277,1071.2747],[-71.4635,18.2232,1219.8914],[-71.4708,18.2123,1452.001],[-71.4813,18.2064,1723.5725],[-71.4815,18.1944,1840.5293],[-71.4601,18.1746,1764.9841],[-71.4502,18.1574,1782.2285],[-71.4314,18.1453,1601.345],[-71.4195,18.1396,1530.9249],[-71.4126,18.1382,1189.374],[-71.4111,18.1453,1137.5563],[-71.4134,18.1519,1360.1108],[-71.4141,18.1628,1261.0721],[-71.4184,18.1703,1309.4111],[-71.4153,18.1752,1302.0182],[-71.4161,18.1799,1276.6096],[-71.4134,18.1969,854.1711],[-71.4079,18.1979,1057.167],[-71.3986,18.1904,757.8873],[-71.388,18.1892,602.9683],[-71.3787,18.1851,584.6773],[-71.3734,18.187,372.2499],[-71.3721,18.1892,324.8424],[-71.3724,18.1964,330.0215],[-71.3772,18.2033,341.5482],[-71.3779,18.207,271.3067],[-71.3668,18.2292,121.1334],[-71.3663,18.2346,105.8531],[-71.3758,18.2627,54.1797],[-71.3807,18.2723,90.27],[-71.3808,18.2818,158.0769],[-71.3732,18.2892,49.0072],[-71.37,18.2955,42.4484],[-71.3599,18.3004,30.8625],[-71.3525,18.3067,21.2912],[-71.3485,18.3073,16.7371],[-71.3423,18.3034,16.8872],[-71.3416,18.311,10.0008],[-71.3308,18.3234,5.8372],[-71.3321,18.3331,13.2906],[-71.3278,18.341,8.5923],[-71.3277,18.3555,13.1477],[-71.3312,18.3696,7.7121],[-71.3425,18.3981,3.2978],[-71.353,18.3937,4.4842],[-71.3646,18.3819,2.7629],[-71.4018,18.3708,-1.3618],[-71.4073,18.3761,-0.8526],[-71.4084,18.3916,-10.9654],[-71.4184,18.4005,-14.8442],[-71.4244,18.4111,-21.4086],[-71.4325,18.4176,-24.7979]]]]}}