{"type":"Feature","properties":{"GID_2":"CUB.3.4_1","GID_0":"CUB","country":"Cuba","GID_1":"CUB.3_1","province":"Cienfuegos","NL_NAME_1":"NA","county":"Cruces","VARNAME_2":"NA","NL_NAME_2":"NA","TYPE_2":"Municipio","ENGTYPE_2":"Municipality","CC_2":"NA","HASC_2":"CU.CF.CR","name":"Cruces.county"},
"geometry":{"type": "MultiPolygon","coordinates": [[[[-80.0973,22.1509,106.0098],[-80.1001,22.1593,104.2215],[-80.0919,22.1851,109.738],[-80.0902,22.1969,147.0114],[-80.0933,22.2116,182.6198],[-80.0995,22.223,186.321],[-80.1151,22.2407,130.7778],[-80.1238,22.258,101.6052],[-80.1273,22.2615,103.4433],[-80.1423,22.2666,83.1229],[-80.1468,22.2715,79.1062],[-80.1472,22.2759,77.0787],[-80.1442,22.2798,76.9081],[-80.1367,22.2826,90.2552],[-80.1101,22.2859,116.5897],[-80.1067,22.2892,114.5173],[-80.1068,22.2936,122.3988],[-80.1091,22.2977,118.5269],[-80.1312,22.3004,81.0934],[-80.1881,22.3139,104.7545],[-80.2001,22.3223,94.3001],[-80.224,22.3561,119.4436],[-80.2519,22.3243,89.5498],[-80.2701,22.3091,77.0727],[-80.2976,22.292,73.6864],[-80.3416,22.2788,65.2502],[-80.3404,22.2592,46.9063],[-80.3308,22.2331,41.098],[-80.301,22.1786,75.8844],[-80.2527,22.1677,66.868],[-80.1723,22.1669,72.5],[-80.1452,22.1572,95.5679],[-80.1319,22.15,105.1109],[-80.113,22.1468,108.6609],[-80.0973,22.1509,106.0098]]]]}}