{"type":"Feature","properties":{"GID_2":"BLM.1.2_1","GID_0":"BLM","country":"Saint-Barthélemy","GID_1":"BLM.1_1","province":"AuVent","NL_NAME_1":"NA","county":"AnseduGrandCul-de-Sac","VARNAME_2":"NA","NL_NAME_2":"NA","TYPE_2":"Quartier","ENGTYPE_2":"Quarter","CC_2":"NA","HASC_2":"NA","name":"Ansedu_Grand_Cul-de-Sac.county"},
"geometry":{"type": "MultiPolygon","coordinates": [[[[-62.8048,17.913,4.1189],[-62.8055,17.9105,12.4557],[-62.8038,17.9063,21.3575],[-62.7988,17.9012,35.5645],[-62.7959,17.9054,16.4502],[-62.7972,17.9066,11.5054],[-62.7964,17.911,3.2127],[-62.7977,17.9126,0.0],[-62.8015,17.9086,1.7765],[-62.8034,17.9104,18.5365],[-62.8019,17.9136,3.3845],[-62.8048,17.913,4.1189]]]]}}