{"type":"Feature","properties":{"GID_3":"HTI.8.3.2_1","GID_0":"HTI","country":"Haiti","GID_1":"HTI.8_1","province":"Ouest","NL_NAME_1":"NA","GID_2":"HTI.8.3_1","county":"LaGonâve","NL_NAME_2":"NA","city":"Pointe-à-Raquette","VARNAME_3":"NA","NL_NAME_3":"NA","TYPE_3":"Commune","ENGTYPE_3":"Commune","CC_3":"NA","HASC_3":"NA","name":"Pointe-à-Raquette.city"},
"geometry":{"type": "MultiPolygon","coordinates": [[[[-73.1126,18.849,170.4021],[-73.1176,18.8534,170.4367],[-73.1215,18.863,184.9777],[-73.122,18.9089,90.5502],[-73.1187,18.9124,75.3703],[-73.0983,18.9132,100.6842],[-73.09,18.9214,53.6278],[-73.0905,18.9304,0.2047],[-73.0993,18.9297,0.9452],[-73.1132,18.9315,1.8715],[-73.1196,18.9346,0.7783],[-73.135,18.9382,0.4181],[-73.149,18.9471,0.0],[-73.161,18.951,0.4335],[-73.1774,18.9626,0.0],[-73.1979,18.9699,0.0],[-73.2035,18.9704,0.4062],[-73.2201,18.9693,0.0],[-73.2385,18.9657,0.0],[-73.2529,18.9662,0.0],[-73.2676,18.9568,7.3235],[-73.2729,18.9557,0.0],[-73.2818,18.9501,0.0],[-73.2993,18.934,0.0],[-73.2993,18.9296,0.0],[-73.3021,18.9254,0.0],[-73.3008,18.9241,0.0],[-73.301,18.9132,0.0],[-73.2971,18.9063,1.316],[-73.2846,18.8993,0.9891],[-73.2829,18.896,0.1596],[-73.266,18.8865,0.1147],[-73.256,18.8735,0.0],[-73.2529,18.8665,0.0],[-73.2485,18.864,0.5528],[-73.239,18.8501,0.0],[-73.2368,18.8482,0.0],[-73.2307,18.849,0.6608],[-73.2279,18.8476,0.0],[-73.2175,18.8351,0.0],[-73.2082,18.834,1.6169],[-73.199,18.837,0.0],[-73.1918,18.8365,0.1013],[-73.1813,18.8332,0.0],[-73.1704,18.8265,0.0],[-73.1451,18.8213,0.0],[-73.1371,18.8218,0.243],[-73.1349,18.8199,0.0],[-73.1257,18.819,0.6024],[-73.1168,18.8115,0.0],[-73.1118,18.8104,0.7325],[-73.1079,18.8051,0.0],[-73.1024,18.8036,0.0],[-73.1001,18.8001,0.0],[-73.089,18.7976,0.1888],[-73.0833,18.7986,0.0],[-73.0753,18.7959,8.1296],[-73.0711,18.7916,0.9551],[-73.0704,18.7865,0.0],[-73.0615,18.7826,0.0],[-73.0535,18.7712,0.0],[-73.0452,18.7669,0.0],[-73.0361,18.7583,0.0],[-73.031,18.7582,0.0],[-72.996,18.7454,0.0],[-72.9943,18.7508,212.1244],[-72.9971,18.7587,370.5827],[-72.996,18.7626,590.2156],[-72.9972,18.7815,738.1888],[-72.9956,18.7868,656.6461],[-72.9973,18.7935,632.5665],[-72.9948,18.7982,504.9154],[-72.9974,18.8006,482.6948],[-73.0055,18.8178,483.9024],[-73.0125,18.8206,472.7125],[-73.0209,18.8203,462.94],[-73.0258,18.8221,416.3196],[-73.032,18.8193,370.9116],[-73.0366,18.8252,340.6793],[-73.0397,18.8254,340.0304],[-73.0393,18.8276,334.246],[-73.0419,18.8314,327.1296],[-73.0465,18.8308,329.7093],[-73.052,18.8388,282.2095],[-73.0544,18.8379,269.8805],[-73.0623,18.840699999999998,251.0837],[-73.065,18.8395,259.47],[-73.0681,18.8347,261.584],[-73.0802,18.8416,195.688],[-73.0809,18.8446,190.9326],[-73.087,18.8507,176.0815],[-73.0928,18.8475,213.332],[-73.0944,18.8445,199.3139],[-73.0993,18.8426,193.2181],[-73.1126,18.849,170.4021]]]]}}