{"type": "Feature","bbox": [-71.5356,19.3136,-71.4493,19.4843],"geometry": {"type": "MultiPolygon","coordinates": [[[[-71.5318,19.3343,929.5044],[-71.5128,19.3318,768.0352],[-71.5075,19.3136,1025.7179],[-71.4992,19.317,690.683],[-71.4955,19.3235,559.7465],[-71.4781,19.3309,358.2885],[-71.4709,19.3384,356.7698],[-71.4678,19.3479,380.6537],[-71.4729,19.354,306.6087],[-71.4732,19.3592,264.7414],[-71.4689,19.3647,254.1958],[-71.4604,19.3665,377.8707],[-71.4585,19.3688,397.7989],[-71.4585,19.383,292.0561],[-71.4611,19.3904,276.8353],[-71.4613,19.3978,259.3766],[-71.454,19.4109,227.8322],[-71.4546,19.4183,240.4406],[-71.4502,19.4213,216.3547],[-71.4493,19.4254,230.4871],[-71.4499,19.4315,170.4617],[-71.4552,19.4412,199.6699],[-71.4553,19.4525,165.29],[-71.4535,19.4599,148.2867],[-71.4571,19.468,156.2711],[-71.4638,19.4692,170.3677],[-71.4644,19.4802,173.4442],[-71.4676,19.4843,154.3397],[-71.476,19.4843,153.1806],[-71.4839,19.4773,153.0537],[-71.4892,19.4648,169.5126],[-71.4964,19.4565,199.6889],[-71.4974,19.439,219.2344],[-71.5041,19.4352,245.2253],[-71.5073,19.429,323.7177],[-71.5128,19.4261,388.7022],[-71.5284,19.4234,365.382],[-71.5344,19.4238,363.5538],[-71.5356,19.4164,429.9685],[-71.5325,19.4122,348.8802],[-71.5223,19.4088,352.8204],[-71.5096,19.4116,289.7213],[-71.5019,19.4114,276.6008],[-71.4953,19.401,278.3192],[-71.4968,19.3982,283.8678],[-71.517,19.3841,313.3205],[-71.5166,19.3796,317.2068],[-71.5046,19.3681,358.9],[-71.5035,19.3637,325.8602],[-71.5072,19.3585,391.633],[-71.5175,19.3575,412.5369],[-71.5305,19.349,733.9132],[-71.5328,19.3441,961.8959],[-71.5318,19.3343,929.5044]]]]}
,"properties": {"GID_2": "DOM.4.2_1","GID_0": "DOM","country": "DominicanRepublic","GID_1": "DOM.4_1","province": "Dajabón","NL_NAME_1": "NA","county": "ElPino","VARNAME_2": "NA","NL_NAME_2": "NA","TYPE_2": "Distritomunicipal","ENGTYPE_2": "Municipaldistrict","CC_2": "NA","HASC_2": "DO.DA.EP","name": "El_Pino.county","area_km2": 88.41388,"hist_schema_id": "Elevation0-9000","hist_area_km2": {"150": 1.4393,"175": 9.89577,"200": 11.33637,"225": 8.51825,"250": 9.65926,"275": 6.74004,"300": 7.26023,"325": 6.9603,"350": 5.90026,"375": 3.54027,"400": 1.72008,"425": 1.34014,"450": 1.44008,"475": 1.36027,"500": 1.2203,"525": 1.10031,"550": 0.92023,"575": 0.80023,"600": 0.76023,"625": 0.48014,"650": 0.6202,"675": 0.58018,"700": 0.52016,"725": 0.50015,"750": 0.44014,"775": 0.3401,"800": 0.30009,"825": 0.38012,"850": 0.22007,"875": 0.14004,"900": 0.12003,"925": 0.16005,"950": 0.22006,"975": 0.26008,"1000": 0.24007,"1025": 0.16005,"1050": 0.12004,"1075": 0.10003,"1100": 0.3201,"1125": 0.16005,"1150": 0.06002,"1175": 0.06002}}}