{"type": "Feature","bbox": [-61.6484,16.213,-61.5343,16.2871],"geometry": {"type": "MultiPolygon","coordinates": [[[[-61.5426,16.219,0.0],[-61.5446,16.2168,0.0],[-61.544,16.214,5.7072],[-61.5343,16.2132,0.0],[-61.536,16.2157,0.0],[-61.5407,16.2154,9.6524],[-61.5426,16.219,0.0]]],
[[[-61.5571,16.2816,3.9779],[-61.5585,16.2871,0.0],[-61.5615,16.2862,0.5656],[-61.5604,16.2851,2.0929],[-61.5615,16.2835,3.6369],[-61.5638,16.2868,0.2618],[-61.569,16.2849,0.7299],[-61.5701,16.2815,4.693],[-61.5751,16.2813,2.7128],[-61.5754,16.2854,0.9725],[-61.5776,16.2838,0.0],[-61.5801,16.2843,0.0],[-61.5812,16.2824,0.0],[-61.5799,16.2824,1.2875],[-61.579,16.2785,10.6611],[-61.5843,16.2746,0.0],[-61.5838,16.2715,1.6159],[-61.5904,16.2665,18.2203],[-61.5929,16.2662,11.1706],[-61.5979,16.2662,7.0812],[-61.6001,16.269,4.2451],[-61.6004,16.2715,4.3927],[-61.5974,16.2724,0.0],[-61.5968,16.2743,0.0],[-61.5988,16.2774,0.0],[-61.5974,16.2824,0.0],[-61.5996,16.2824,0.0],[-61.6024,16.2732,4.3638],[-61.6046,16.2729,0.0],[-61.6085,16.2679,4.0114],[-61.6124,16.2674,1.7113],[-61.6149,16.269,2.0021],[-61.611,16.276,0.0],[-61.6113,16.2793,0.0],[-61.6244,16.2763,2.0676],[-61.6303,16.2591,22.0711],[-61.6304,16.2489,29.4601],[-61.6403,16.2344,62.3762],[-61.6401,16.2243,46.1874],[-61.6484,16.213,109.4471],[-61.6182,16.2227,34.4814],[-61.5973,16.2349,14.4464],[-61.5835,16.2344,4.6203],[-61.5801,16.2374,7.476],[-61.5751,16.234,5.6244],[-61.5724,16.236,8.5823],[-61.5674,16.2357,4.2831],[-61.5662,16.2329,1.0179],[-61.5626,16.231,1.6194],[-61.5624,16.234,1.3269],[-61.5596,16.2354,0.0],[-61.5557,16.2324,6.9],[-61.5551,16.2307,4.8832],[-61.5568,16.229,0.0],[-61.5537,16.2276,3.935],[-61.5532,16.2249,0.7066],[-61.5551,16.224,0.0],[-61.5537,16.2215,0.0],[-61.5493,16.2221,0.0],[-61.5465,16.2207,0.0],[-61.5504,16.2237,1.2096],[-61.5451,16.2235,0.0],[-61.546,16.2276,0.0],[-61.5418,16.2321,0.0],[-61.5443,16.2343,0.0],[-61.5493,16.2337,0.4226],[-61.5501,16.2382,0.0],[-61.5485,16.2418,5.286],[-61.5529,16.2501,2.6083],[-61.5472,16.2606,1.4973],[-61.5483,16.2734,1.562],[-61.5565,16.276,0.5576],[-61.5571,16.2816,3.9779]]]]}
,"properties": {"GID_2": "GLP.1.1_1","GID_0": "GLP","country": "Guadeloupe","GID_1": "GLP.1_1","province": "Basse-Terre","NL_NAME_1": "NA","county": "Baie-Mahault","VARNAME_2": "NA","NL_NAME_2": "NA","TYPE_2": "Chef-lieucanton","ENGTYPE_2": "Commune","CC_2": "04","HASC_2": "NA","name": "Baie-Mahault.county","area_km2": 47.89547,"hist_schema_id": "Elevation0-9000","hist_area_km2": {"0": 20.55795,"25": 20.31436,"50": 5.67954,"75": 1.07896,"100": 0.26466}}}