{"type": "Feature","bbox": [-82.3388,23.1223,-82.2865,23.1704],"geometry": {"type": "MultiPolygon","coordinates": [[[[-82.3377,23.141,0.0],[-82.3318,23.1407,0.0],[-82.3307,23.1385,0.0],[-82.3274,23.1415,0.8092],[-82.3254,23.1401,1.3598],[-82.3288,23.1378,3.8779],[-82.3203,23.1362,4.6578],[-82.2952,23.1223,39.9458],[-82.2865,23.1223,42.2482],[-82.2892,23.1396,15.5704],[-82.3082,23.1704,2.757],[-82.3163,23.1674,0.5147],[-82.3246,23.1668,1.4976],[-82.3388,23.1607,0.4795],[-82.3377,23.141,0.0]]]]}
,"properties": {"GID_2": "CUB.4.9_1","GID_0": "CUB","country": "Cuba","GID_1": "CUB.4_1","province": "CiudaddelaHabana","NL_NAME_1": "NA","county": "LaHabanaVieja","VARNAME_2": "NA","NL_NAME_2": "NA","TYPE_2": "Municipio","ENGTYPE_2": "Municipality","CC_2": "NA","HASC_2": "CU.CH.HV","name": "La_Habana_Vieja.county","area_km2": 16.92203,"hist_schema_id": "Elevation0-9000","hist_area_km2": {"0": 6.14099,"25": 8.98744,"50": 1.7936}}}