{"type":"Feature","properties":{"GID_1":"UMI.7_1","GID_0":"UMI","country":"UnitedStatesMinorOutlyingIsl","province":"Navassa","VARNAME_1":"NA","NL_NAME_1":"NA","TYPE_1":"Island","ENGTYPE_1":"Island","CC_1":"NA","HASC_1":"NA","ISO_1":"NA","name":"Navassa.province"},
"geometry":{"type": "MultiPolygon","coordinates": [[[[-75.0271,18.4143,0.0],[-75.0299,18.4132,5.6468],[-75.0299,18.4107,0.0],[-75.0188,18.3949,0.0],[-75.011,18.3907,3.5398],[-75.0054,18.3912,0.0],[-75.0018,18.394,10.237],[-75.001,18.4049,0.0],[-75.004,18.4104,3.6685],[-75.0271,18.4143,0.0]]]]}}