{"type": "Feature","id": "5177","bbox": [-75.03083,18.39501,-75.00263,18.41726],"geometry": {"type": "Polygon","coordinates": [[[-75.02432,18.41726,0.0],[-75.03026,18.41726,0.0],[-75.03083,18.41348,0.0],[-75.02595,18.40803,55.3873],[-75.02375,18.40697,59.8335],[-75.02375,18.40644,59.8335],[-75.0205,18.40261,64.1665],[-75.0205,18.40042,37.787],[-75.01891,18.39883,60.5823],[-75.01891,18.39773,11.6754],[-75.01781,18.39667,63.6713],[-75.01618,18.39667,63.6713],[-75.01509,18.3961,70.4251],[-75.01183,18.3961,73.7622],[-75.01073,18.39501,75.5583],[-75.00805,18.39501,72.9291],[-75.00699,18.3961,67.5872],[-75.00532,18.3961,40.9161],[-75.00316,18.39773,20.5395],[-75.00316,18.40371,20.4016],[-75.00263,18.40477,21.8598],[-75.00263,18.40644,10.3764],[-75.00263,18.41022,0.0],[-75.00373,18.41079,0.0],[-75.00699,18.41515,0.0],[-75.01024,18.41515,0.0],[-75.01073,18.41564,0.0],[-75.02107,18.41564,0.0],[-75.02432,18.41726,0.0]]]}
,"properties": {"ISO3166-1-Alpha-3": "UMI","country": "United States Minor Outlying Islands","fill": "#F0F","name": "Navassa Island","area_km2": 4.767832,"hist_schema_id": "Elevation0-9000","hist_area_km2": {"0": 1.34782,"25": 0.362107,"50": 1.02598,"75": 2.031924}}}