{"type":"Feature","properties":{"GID_2":"DOM.17.5_1","GID_0":"DOM","country":"DominicanRepublic","GID_1":"DOM.17_1","province":"MonteCristi","NL_NAME_1":"NA","county":"SanFernandodeMonteCristi","VARNAME_2":"Montecristi","NL_NAME_2":"NA","TYPE_2":"Municipio","ENGTYPE_2":"Municipality","CC_2":"NA","HASC_2":"DO.MC.SF","name":"San_Fernandode_Monte_Cristi.county"},
"geometry":{"type": "MultiPolygon","coordinates": [[[[-71.5097,19.6044,58.622],[-71.5067,19.6094,57.0],[-71.5065,19.6138,63.4701],[-71.5131,19.619,89.4892],[-71.5143,19.6215,75.4748],[-71.5127,19.6232,98.7727],[-71.5068,19.6241,90.0622],[-71.5031,19.6303,51.9505],[-71.506,19.6457,39.6335],[-71.505,19.649,43.7892],[-71.4985,19.6564,39.6186],[-71.5021,19.6615,36.478],[-71.5001,19.6669,34.5002],[-71.5006,19.6765,21.3734],[-71.5068,19.69,19.1042],[-71.5198,19.6963,16.6691],[-71.5192,19.7028,15.1252],[-71.5228,19.7074,14.8918],[-71.5267,19.7095,14.4398],[-71.532,19.7057,14.4321],[-71.5353,19.7081,14.4741],[-71.5412,19.7179,13.1031],[-71.5397,19.7326,13.5636],[-71.5488,19.7321,10.9437],[-71.553,19.7375,10.2049],[-71.5461,19.747,11.8343],[-71.5378,19.7497,15.7661],[-71.5316,19.7488,13.8945],[-71.5263,19.751,16.1099],[-71.52,19.7566,14.2676],[-71.5143,19.7725,24.5422],[-71.5042,19.7854,53.9842],[-71.4951,19.7939,58.9897],[-71.4873,19.7962,92.2393],[-71.491,19.8126,79.256],[-71.4905,19.8247,85.213],[-71.4882,19.8261,98.6677],[-71.473,19.8269,172.767],[-71.468,19.8341,150.42],[-71.4673,19.8427,146.6482],[-71.473,19.8588,222.2939],[-71.4769,19.8964,30.6556],[-71.4837,19.9065,2.0567],[-71.4887,19.909,0.0],[-71.4946,19.9074,0.0],[-71.4976,19.9046,2.3304],[-71.5007,19.9046,6.1094],[-71.5065,19.9065,4.2607],[-71.534,19.9096,2.3263],[-71.5384,19.9123,0.0],[-71.5535,19.9091,0.0],[-71.5551,19.9071,0.0],[-71.5532,19.9068,3.823],[-71.5607,19.9046,5.7701],[-71.5599,19.9063,1.6901],[-71.5562,19.9071,0.0],[-71.5585,19.9082,1.9691],[-71.5626,19.9063,1.4987],[-71.5679,19.909,0.0],[-71.581,19.9102,0.8273],[-71.586,19.9074,0.0],[-71.5915,19.9068,1.1817],[-71.5951,19.9037,0.9416],[-71.5987,19.903199999999998,0.5928],[-71.6004,19.9004,1.6243],[-71.604,19.9029,0.0],[-71.6154,19.9007,0.0],[-71.619,19.8968,0.0],[-71.618,19.8879,0.2792],[-71.6235,19.8826,0.0],[-71.6301,19.8801,0.6423],[-71.6382,19.884,0.3498],[-71.6402,19.8932,0.0],[-71.6435,19.8965,24.4863],[-71.6488,19.8991,0.0],[-71.6543,19.8993,0.0],[-71.6554,19.8949,73.7738],[-71.659,19.8944,13.4551],[-71.6607,19.896,0.0],[-71.6612,19.8949,0.0],[-71.6604,19.8904,0.0],[-71.6554,19.8841,3.1411],[-71.6535,19.8727,1.1582],[-71.6554,19.8632,1.9503],[-71.6585,19.8604,0.0],[-71.659,19.8576,0.2244],[-71.6748,19.8443,0.0],[-71.6807,19.8413,0.7008],[-71.6913,19.8399,0.0],[-71.6926,19.8307,1.5006],[-71.6957,19.8285,0.0],[-71.7179,19.8185,1.552],[-71.7415,19.8151,0.6153],[-71.7399,19.8132,2.4109],[-71.7399,19.8088,1.7634],[-71.7468,19.8037,3.5493],[-71.7418,19.8096,0.1991],[-71.744,19.8101,1.3661],[-71.7446,19.8137,1.1149],[-71.7468,19.8063,0.0],[-71.7776,19.7804,0.8974],[-71.7787,19.7771,1.8779],[-71.7765,19.7724,1.6922],[-71.7793,19.7604,0.0],[-71.7751,19.7588,1.8815],[-71.7724,19.7601,0.0],[-71.7718,19.7626,0.0],[-71.7751,19.7646,0.8585],[-71.7749,19.7687,0.0],[-71.769,19.7699,0.0],[-71.7643,19.7729,1.4258],[-71.7632,19.7771,0.0],[-71.7651,19.7774,1.7997],[-71.7668,19.7804,0.0],[-71.7588,19.779,1.0946],[-71.7593,19.7821,1.5236],[-71.7568,19.786,2.7684],[-71.7501,19.7857,0.0],[-71.7538,19.7893,0.0],[-71.7532,19.7935,0.9039],[-71.7471,19.7954,1.5793],[-71.7474,19.7926,1.2654],[-71.7504,19.7899,2.4011],[-71.7485,19.7888,2.4011],[-71.7481,19.786,3.5841],[-71.7501,19.7829,2.0873],[-71.7485,19.781,0.0],[-71.7476,19.7713,2.0637],[-71.7501,19.7685,2.4939],[-71.7535,19.7685,0.0],[-71.7493,19.7646,0.4036],[-71.7476,19.7596,0.3451],[-71.7468,19.7601,0.3451],[-71.7482,19.7654,0.2803],[-71.7459,19.7671,3.0997],[-71.7438,19.766,3.4062],[-71.7423,19.7618,0.0],[-71.7435,19.7576,1.1152],[-71.7396,19.7577,2.1994],[-71.7379,19.7557,4.993],[-71.7443,19.7565,1.7906],[-71.7451,19.7585,0.0],[-71.7465,19.7565,0.0],[-71.7385,19.744,0.0],[-71.7374,19.7388,1.1317],[-71.736,19.7382,0.0],[-71.7318,19.7421,0.5737],[-71.7299,19.7374,0.0],[-71.7301,19.736,1.4072],[-71.7326,19.7371,0.0],[-71.731,19.7326,0.5434],[-71.7262,19.7296,1.0167],[-71.7257,19.7215,4.5902],[-71.7282,19.7174,0.0],[-71.7296,19.7091,1.9285],[-71.7131,19.7049,11.2989],[-71.7019,19.6954,11.0834],[-71.6893,19.6907,14.9346],[-71.6825,19.6824,3.0891],[-71.6662,19.6727,2.0114],[-71.6516,19.6693,6.0972],[-71.6428,19.6723,5.1954],[-71.6374,19.6779,7.4366],[-71.6358,19.6879,7.6144],[-71.6258,19.6891,8.4386],[-71.6212,19.6913,8.9891],[-71.6169,19.6996,6.6878],[-71.6021,19.6966,7.1284],[-71.5911,19.6912,7.2624],[-71.5867,19.6928,9.1395],[-71.5858,19.7024,8.6306],[-71.5827,19.705,9.1006],[-71.5805,19.7038,9.4203],[-71.5798,19.6975,10.854],[-71.5772,19.6952,12.4856],[-71.5661,19.7025,13.8582],[-71.5581,19.7023,14.9168],[-71.5474,19.6989,15.2973],[-71.5458,19.6966,16.6941],[-71.5468,19.6926,17.9025],[-71.5452,19.6869,20.5887],[-71.5468,19.6819,22.6323],[-71.5462,19.6759,28.1932],[-71.5501,19.6722,27.7652],[-71.5616,19.6685,29.8475],[-71.5649,19.6656,26.6539],[-71.5679,19.66,30.9362],[-71.5684,19.6554,37.7291],[-71.5673,19.6526,43.7003],[-71.5636,19.651,45.8357],[-71.5632,19.6489,48.2445],[-71.5693,19.6385,84.5616],[-71.5824,19.6301,94.2861],[-71.5856,19.6263,88.7387],[-71.5861,19.6086,74.5608],[-71.582,19.6071,155.341],[-71.5782,19.611,170.3943],[-71.5745,19.6117,153.0197],[-71.5651,19.6045,71.1213],[-71.5574,19.6033,70.4587],[-71.5475,19.5993,57.7891],[-71.5387,19.6024,77.5202],[-71.521,19.6008,92.571],[-71.5097,19.6044,58.622]]],
[[[-71.7668,19.8649,0.0],[-71.7679,19.8635,0.4835],[-71.766,19.8622,1.4158],[-71.7657,19.8632,1.4158],[-71.7668,19.8649,0.0]]],
[[[-71.6668,19.8907,0.0],[-71.6699,19.8904,1.1533],[-71.6701,19.8857,3.1955],[-71.6676,19.8857,0.0],[-71.6651,19.8888,0.0],[-71.6668,19.8907,0.0]]],
[[[-71.7955,19.8288,0.0],[-71.7965,19.829,0.0],[-71.7976,19.8274,1.3041],[-71.7954,19.8268,0.0],[-71.7955,19.8288,0.0]]],
[[[-71.8176,19.8771,0.0],[-71.8196,19.8777,0.8645],[-71.8168,19.8743,0.5966],[-71.8171,19.8762,1.7297],[-71.8176,19.8771,0.0]]],
[[[-71.8118,19.896,0.0],[-71.814,19.8949,2.2294],[-71.8099,19.8921,1.4699],[-71.8095,19.8932,1.4699],[-71.8118,19.896,0.0]]]]}}