{"type":"Feature","properties":{"GID_2":"DOM.24.2_1","GID_0":"DOM","country":"DominicanRepublic","GID_1":"DOM.24_1","province":"SanCristóbal","NL_NAME_1":"NA","county":"CambitaGarabito","VARNAME_2":"NA","NL_NAME_2":"NA","TYPE_2":"Municipio","ENGTYPE_2":"Municipality","CC_2":"NA","HASC_2":"DO.CR.CG","name":"Cambita_Garabito.county"},
"geometry":{"type": "MultiPolygon","coordinates": [[[[-70.2587,18.3955,201.7545],[-70.243,18.3917,255.0947],[-70.2257,18.3917,244.7577],[-70.2201,18.3961,374.1559],[-70.2175,18.4034,411.0844],[-70.2135,18.4054,512.0103],[-70.1961,18.398,414.4402],[-70.1818,18.397,256.9313],[-70.1738,18.4016,312.5022],[-70.164,18.404,250.7022],[-70.1561,18.4137,218.0643],[-70.1479,18.4177,75.9324],[-70.1473,18.4244,71.7712],[-70.1489,18.4271,73.3313],[-70.1584,18.4305,85.0773],[-70.1609,18.4328,86.5744],[-70.1564,18.442,116.4394],[-70.1572,18.4589,236.2258],[-70.1603,18.4613,303.3109],[-70.1764,18.4657,278.1219],[-70.1758,18.4685,284.9366],[-70.1687,18.4758,221.0353],[-70.1683,18.4789,209.7471],[-70.1697,18.4809,158.3226],[-70.1768,18.4819,269.8151],[-70.1795,18.4844,178.0027],[-70.1794,18.4875,218.6164],[-70.1744,18.4969,379.3728],[-70.1745,18.5031,270.1586],[-70.1878,18.5221,237.004],[-70.2031,18.5316,236.8482],[-70.208,18.5398,293.1396],[-70.2148,18.5418,405.4192],[-70.2174,18.5503,450.929],[-70.2244,18.5487,464.3834],[-70.2296,18.5441,463.3969],[-70.2495,18.5381,640.5187],[-70.2572,18.5389,750.7574],[-70.2748,18.5481,833.0713],[-70.2751,18.5537,741.3076],[-70.2696,18.5674,803.2975],[-70.2696,18.5741,818.8497],[-70.2769,18.58,929.348],[-70.2859,18.5911,977.2322],[-70.29,18.5998,913.6344],[-70.2892,18.6037,924.9893],[-70.2847,18.6098,1094.578],[-70.2796,18.6292,893.676],[-70.2896,18.643,1003.5419],[-70.2967,18.6623,1090.417],[-70.3021,18.6722,1203.8765],[-70.3137,18.6784,1273.4868],[-70.3137,18.6677,1144.0789],[-70.3103,18.6545,1012.2419],[-70.2973,18.641,1001.3585],[-70.2932,18.6315,975.9534],[-70.2986,18.6212,1026.9905],[-70.3039,18.6203,1059.0156],[-70.3126,18.6225,898.5297],[-70.325,18.6102,752.2714],[-70.3251,18.5993,634.1964],[-70.3179,18.5953,639.7855],[-70.3131,18.5852,667.5898],[-70.3087,18.5822,681.6468],[-70.3067,18.575,582.1269],[-70.3021,18.5708,711.4207],[-70.3072,18.5654,663.5594],[-70.3103,18.5581,619.8838],[-70.3102,18.5457,437.1825],[-70.3058,18.5426,540.2529],[-70.3039,18.5366,450.0651],[-70.2934,18.5273,471.2368],[-70.2821,18.528,659.6317],[-70.2811,18.5391,835.9631],[-70.278,18.5407,838.0185],[-70.2715,18.5372,779.1396],[-70.2649,18.5276,592.9667],[-70.2415,18.5269,492.1497],[-70.2331,18.5294,405.1166],[-70.2306,18.5279,426.371],[-70.2247,18.5186,284.8571],[-70.2248,18.5144,311.8815],[-70.2269,18.511,326.9307],[-70.237,18.5062,348.2594],[-70.2502,18.496,563.0772],[-70.2601,18.4965,760.4157],[-70.2707,18.5113,590.3506],[-70.2874,18.5159,506.837],[-70.2916,18.5153,537.6702],[-70.2947,18.511,592.5856],[-70.3009,18.5093,470.5304],[-70.3039,18.5048,595.0325],[-70.3155,18.4997,532.5991],[-70.3094,18.4922,321.1411],[-70.3017,18.4897,411.7501],[-70.298,18.4869,533.0364],[-70.2921,18.4774,270.996],[-70.282,18.4738,627.9915],[-70.2788,18.4671,736.5838],[-70.2829,18.4594,388.4059],[-70.2802,18.4531,444.6947],[-70.2775,18.4523,380.6967],[-70.2711,18.4558,359.5939],[-70.2659,18.4517,260.57],[-70.2584,18.4498,340.5073],[-70.2562,18.4463,519.3552],[-70.2524,18.4439,385.5013],[-70.2566,18.4357,185.111],[-70.2517,18.4324,224.7278],[-70.2505,18.4264,145.8987],[-70.2399,18.4248,150.0287],[-70.2344,18.4202,256.6191],[-70.2337,18.4155,263.2146],[-70.2358,18.4119,194.9821],[-70.2464,18.4038,181.8404],[-70.253,18.4011,150.6904],[-70.2587,18.3955,201.7545]]]]}}