{"type": "Feature","id": "5125","bbox": [-63.04697,18.22672,-63.0293,18.23516],"geometry": {"type": "Polygon","coordinates": [[[-63.03423,18.22791,20.6507],[-63.0293,18.23516,18.4526],[-63.04275,18.23489,47.4867],[-63.04411,18.23227,53.6245],[-63.04697,18.22672,30.5931],[-63.03423,18.22791,20.6507]]]}
,"properties": {"ISO3166-1-Alpha-3": "AIA","country": "Anguilla","fill": "#000","name": "The Quarter","area_km2": 1.167997,"hist_schema_id": "Elevation0-9000","hist_area_km2": {"25": 0.6645548,"50": 0.5034422}}}