{"type": "Feature","bbox": [-63.0543,18.1907,-63.0354,18.2169],"geometry": {"type": "MultiPolygon","coordinates": [[[[-63.0543,18.1907,2.3133],[-63.045,18.1965,0.0],[-63.0391,18.1973,3.1386],[-63.0354,18.2009,0.0],[-63.0381,18.2119,21.7212],[-63.0426,18.2166,21.9318],[-63.0505,18.2169,14.5742],[-63.0516,18.2109,30.784],[-63.0501,18.2057,29.1104],[-63.0543,18.1907,2.3133]]]]}
,"properties": {"GID_1": "AIA.12_1","GID_0": "AIA","country": "Anguilla","state": "TheQuarter","VARNAME_1": "NA","NL_NAME_1": "NA","TYPE_1": "District","ENGTYPE_1": "District","CC_1": "NA","HASC_1": "AI.TQ","ISO_1": "NA","name": "TheQuarter.state","area_km2": 3.383671,"hist_schema_id": "Elevation0-9000","hist_area_km2": {"0": 0.845955,"25": 2.215469,"50": 0.322248}}}