{"type":"Feature","properties":{"featurecla":"Island group","name":"WEST INDIES","namealt":null,"region":"North America","subregion":"West Indies","min_label":2.0,"max_label":5.0,"scalerank":1},
"geometry":{"type": "Polygon","coordinates": [[[-69.579746160129872,12.038471409362074,0.0],[-66.615145411441063,11.025018902082678,0.0],[-66.095203950583,10.847276257519709,0.0],[-65.36750589149193,10.598511757660987,0.0],[-65.206654426166239,10.543524481244091,0.0],[-64.228478660727745,10.55531938399885,28.7692],[-63.86528479725996,10.559698797650313,118.6409],[-62.509195301316339,10.725072518994111,211.9162],[-61.877308723041267,10.802130438275313,0.0],[-61.943061446529356,10.678820798192717,345.3541],[-61.957749769169482,10.651274991995194,238.3773],[-62.135853644916267,10.317267157025299,0.0],[-62.144450149515279,10.231366990315436,0.0],[-62.061909019106793,10.165944107385059,0.0],[-62.000904914447517,10.117591675359392,0.0],[-61.837388651948061,9.9879871346198,0.0],[-61.825823383296125,9.9788203929804382,0.0],[-61.720249315286623,9.895141385221649,0.0],[-60.923695441791239,9.7193057312440487,0.0],[-60.314097438097605,10.541588441566276,0.0],[-59.53380286366621,11.59412262577537,0.0],[-59.116932746478795,12.789435125775356,0.0],[-59.082020637103795,13.715155340619091,0.0],[-59.622242805072517,15.632818914837856,0.0],[-60.540577766010045,17.307379461712856,0.0],[-61.435414191791295,18.245550848431549,0.0],[-63.727650519916295,19.279059149212827,0.0],[-65.714283820697489,19.412543035931549,0.0],[-68.853627082416267,20.083136297650356,0.0],[-76.711720344135017,27.173956610150327,0.0],[-77.981739875385045,27.464972235150384,0.0],[-79.436940070697517,27.412054754681634,0.0],[-79.505665656634989,26.060675360150356,0.0],[-79.960560676166239,24.790472723431606,0.0],[-80.934071418353739,23.9638736023378,0.0],[-83.052601691791267,23.452582098431634,0.0],[-84.8649796214788,22.659735418744077,0.0],[-85.398915168353767,21.7500064148378,0.0],[-85.195668098041239,21.355536199994106,0.0],[-83.537037726947489,21.039190985150356,0.0],[-82.476124641010045,20.473395086712856,0.0],[-81.627430793353767,18.740607000775327,0.0],[-78.833790656634989,17.644354559369049,0.0],[-77.030323859760017,17.078558660931577,0.0],[-74.07475745350996,17.3402163757753,0.0],[-70.983265754291267,17.043219305462856,0.0],[-70.123646613666267,17.481390692181577,0.0],[-69.179798957416267,17.644354559369049,0.0],[-67.689442512103739,17.304999090619106,0.0],[-66.032521125384989,17.1492984070253,0.0],[-64.831959601947489,17.375555731244106,0.0],[-63.238880988666267,16.618841864056634,0.0],[-62.70848548085371,16.053045965619049,0.0],[-62.186146613666295,14.870794989056577,0.0],[-62.001210090228767,14.143500067181549,0.0],[-62.158070441791267,12.98285553593162,0.0],[-63.396534797260045,12.353705145306606,0.0],[-69.974537726947489,13.113348699994063,0.0],[-70.556385871478739,12.806219793744106,0.0],[-70.399066043054546,12.51778910537422,0.0],[-70.26549231679121,12.272894598431577,0.0],[-69.579746160129872,12.038471409362074,0.0]],
[[-61.253163215228795,10.084784246869077,7.5884],[-61.553639289447517,10.075018621869134,57.4511],[-61.806080695697517,10.13403961796287,18.0404],[-61.462330695697489,10.28339264530662,24.4823],[-61.472462531634989,10.596014715619134,5.1942],[-61.65019690663496,10.689032293744077,203.3484],[-60.904652473041267,10.829413153119077,0.0],[-61.038258430072517,10.654791571087827,23.3218],[-60.990406867572517,10.300482489056549,0.0],[-61.041737433978795,10.136786199994106,0.0],[-61.253163215228795,10.084784246869077,7.5884]],
[[-63.903106894861,10.675319082861861,0.0],[-63.907948371478739,10.67047760624412,0.0],[-63.926163192559954,10.673978546501004,0.0],[-63.903106894861,10.675319082861861,0.0]],
[[-65.034485003794572,18.474919867688357,0.0],[-64.63347327382246,18.522040106244077,0.0],[-64.421803351947517,18.826361395306577,0.0],[-64.196949836322545,18.826361395306577,0.0],[-64.168019172259989,18.651922918744077,0.0],[-64.421803351947517,18.376532293744106,0.0],[-64.770008918353767,18.187079168744049,0.0],[-65.043528368959471,18.275729741667703,0.0],[-65.1097305980413,18.297186590619106,0.0],[-65.083302375385045,18.469183660931549,0.0],[-65.034485003794572,18.474919867688357,0.0]],
[[-65.184803840228739,18.047186590619049,0.0],[-65.52458655507246,17.681952215619077,0.0],[-66.332081672259989,17.438299871869106,0.0],[-67.516468879291267,17.572821356244049,0.0],[-69.1314591136663,17.922796942181634,0.0],[-70.3965958324163,17.841986395306577,0.0],[-71.09642493397871,17.303717352337827,0.0],[-71.957753058978767,17.330633856244106,0.0],[-73.572804328510017,17.626715399212827,0.0],[-75.93803870350996,17.522528387494106,0.0],[-76.964405891009989,17.411383367962827,0.0],[-78.444813605853767,17.788214422650356,0.0],[-81.594166633197545,18.945624090619049,0.0],[-82.2670792308538,20.614508367962827,0.0],[-83.505299445697517,21.287420965619077,0.0],[-85.067067023822545,21.575934149212856,0.0],[-85.195668098041239,21.888251043744106,0.0],[-84.718068000384989,22.494391180462827,0.0],[-82.9362686839788,23.284247137494106,0.0],[-80.78709876210371,23.486273504681549,0.0],[-78.784962531634989,22.971991278119077,0.0],[-77.076649543353739,22.053534246869106,0.0],[-74.159779426166267,20.466498114056577,0.0],[-72.442311164447517,20.210760809369134,0.0],[-70.477406379291239,20.156927801556577,0.0],[-65.14769446522871,18.811102606244077,0.0],[-65.184803840228739,18.047186590619049,0.0]],
[[-70.780629035541267,20.805060125775356,0.0],[-71.27324378163496,20.434637762494077,0.0],[-72.35594641835371,20.473822332806577,0.0],[-74.100941535541267,20.694220282025327,0.0],[-78.729847785541239,23.229132391400356,0.0],[-80.750416633197517,23.872015692181634,0.0],[-79.721791144916267,24.790472723431606,0.0],[-79.33311926991621,26.1864077820253,0.0],[-79.252369758197489,27.236151434369077,0.0],[-78.068043586322517,27.263006903119049,0.0],[-76.883656379291267,26.966986395306549,0.0],[-74.99944007069746,25.378851629681577,0.0],[-73.303639289447489,23.736944891400356,0.0],[-70.692677375384989,21.475897528119106,0.0],[-70.780629035541267,20.805060125775356,0.0]]]}}