{"type": "Feature","id": "1362","bbox": [-74.45265,18.02595,-73.00693,18.42931],"geometry": {"type": "MultiPolygon","coordinates": [[[[-73.69424,18.10688,0.0],[-73.69994,18.1083,1.8143],[-73.70446,18.10419,2.2985],[-73.70767,18.09422,0.0],[-73.68253,18.07201,20.4863],[-73.66723,18.06314,5.802],[-73.64973,18.05948,0.0],[-73.61083,18.05756,3.785],[-73.59044,18.05939,2.7519],[-73.57799,18.06696,3.804],[-73.57799,18.08112,0.0],[-73.59227,18.08934,0.1573],[-73.61205,18.09325,0.2115],[-73.6289,18.09422,0.0],[-73.65998,18.09422,0.0],[-73.6669,18.09858,0.0],[-73.67089,18.10537,0.0],[-73.67638,18.1081,0.0],[-73.68786,18.10049,4.4625],[-73.69424,18.10688,0.0]]],
[[[-73.58189,18.41278,500.0606],[-73.5994,18.42704,342.2688],[-73.62666,18.42931,358.3162],[-73.65875,18.42508,732.4225],[-73.68144,18.40699,521.0831],[-73.69836,18.41226,525.2638],[-73.71844,18.42187,541.6987],[-73.75159,18.42043,937.7487],[-73.78404,18.42472,1098.0822],[-73.81598,18.41614,1082.7332],[-73.84794,18.40787,879.0877],[-73.87107,18.40782,808.7609],[-73.89417,18.4073,784.7207],[-73.90802,18.38756,882.7969],[-73.90631,18.36384,554.5292],[-73.9538,18.36751,686.7745],[-74.0015,18.38043,1794.6581],[-74.04312,18.39376,1631.8552],[-74.08532,18.40363,1425.1393],[-74.18665,18.39593,833.7222],[-74.28701,18.3764,720.0203],[-74.34168,18.36534,911.2742],[-74.39708,18.36012,792.4661],[-74.42486,18.36508,293.106],[-74.44881,18.36265,0.0],[-74.45261,18.361,0.0],[-74.45265,18.36098,0.0],[-74.44591,18.34638,0.0],[-74.40831,18.32827,0.0],[-74.39977,18.31708,0.0],[-74.39159,18.30878,0.0],[-74.37218,18.29849,0.0],[-74.34935,18.2897,0.0],[-74.33092,18.28604,0.0],[-74.30895,18.29247,3.8838],[-74.28783,18.30492,11.1647],[-74.26781,18.31297,45.7342],[-74.24893,18.30655,0.0],[-74.24218,18.31395,121.5013],[-74.23379,18.30927,0.0],[-74.208,18.29971,11.3226],[-74.19758,18.29706,0.0],[-74.18908,18.29654,2.0359],[-74.18342,18.29328,19.3489],[-74.1813,18.28262,0.0],[-74.17667,18.27318,0.0],[-74.16576,18.26561,0.0],[-74.15294,18.26057,0.0],[-74.12243,18.25568,0.0],[-74.10505,18.24763,0.0],[-74.00821,18.17975,0.0],[-73.98957,18.16315,0.0],[-73.98689,18.15888,0.0],[-73.9864,18.15571,0.0],[-73.98559,18.15266,0.0],[-73.98205,18.14887,0.0],[-73.97851,18.14688,0.0],[-73.97094,18.1437,0.0],[-73.96776,18.14142,15.17],[-73.9038,18.05386,9.5244],[-73.89997,18.03913,27.1523],[-73.89269,18.03217,23.6033],[-73.88296,18.02774,30.2536],[-73.87328,18.02619,14.3718],[-73.80704,18.02595,13.3274],[-73.79381,18.029,6.1896],[-73.79141,18.03669,3.5653],[-73.7965,18.05634,40.6503],[-73.80281,18.07193,0.0],[-73.84488,18.11469,1.5999],[-73.82746,18.14204,0.0],[-73.80932,18.15917,3.6648],[-73.73778,18.19074,0.0],[-73.69408,18.22394,0.0],[-73.69298,18.22744,0.0],[-73.69416,18.23192,0.0],[-73.69457,18.23591,0.0],[-73.69099,18.23762,2.3345],[-73.68025,18.23542,0.0],[-73.67439,18.23322,2.8547],[-73.67357,18.23078,0.1038],[-73.66544,18.23851,48.2855],[-73.65416,18.25267,54.7325],[-73.64631,18.25873,2.8863],[-73.656,18.23583,0.0],[-73.65929,18.22382,23.7189],[-73.65998,18.21035,0.0],[-73.64562,18.2211,29.5461],[-73.63321,18.24726,0.0],[-73.61901,18.25129,0.0],[-73.62401,18.23485,0.0],[-73.61962,18.22191,0.0],[-73.60969,18.21678,24.6334],[-73.59789,18.22394,63.3451],[-73.59166,18.22394,22.0065],[-73.57811,18.21686,0.0],[-73.57071,18.23151,109.6702],[-73.56347,18.25104,0.0],[-73.55012,18.25873,0.0],[-73.5428,18.25312,0.0],[-73.53417,18.23477,0.0],[-73.52619,18.23078,0.0],[-73.51399,18.23314,0.0],[-73.4818,18.25129,0.0],[-73.45824,18.25751,0.0],[-73.37727,18.25812,0.0],[-73.31045,18.25129,0.5],[-73.31045,18.24506,1.7516],[-73.34659,18.24535,163.3194],[-73.35985,18.24038,0.0],[-73.3651,18.22736,119.4421],[-73.35587,18.22492,1.7734],[-73.29621,18.23078,0.0],[-73.1634,18.21035,15.5917],[-73.15465,18.20751,22.3718],[-73.12556,18.18985,0.0],[-73.11726,18.18863,0.0],[-73.09081,18.18985,9.3052],[-73.00804,18.18106,0.0],[-73.00693,18.18597,0.3818],[-73.01006,18.20339,127.7958],[-73.01246,18.2209,88.2251],[-73.03794,18.25403,171.6496],[-73.046,18.29749,175.58],[-73.07794,18.32576,258.7024],[-73.11587,18.35511,210.811],[-73.14008,18.36152,295.199],[-73.16284,18.355,390.2052],[-73.18811,18.35774,266.0575],[-73.21434,18.36074,286.0843],[-73.26728,18.35976,261.5069],[-73.31934,18.36663,227.6352],[-73.35061,18.35449,375.6362],[-73.3865,18.3456,449.8138],[-73.41807,18.34663,734.8262],[-73.44962,18.34374,863.3918],[-73.51336,18.33402,1246.6858],[-73.56406,18.34627,547.4626],[-73.55408,18.36782,498.8552],[-73.54512,18.38508,514.1094],[-73.56744,18.39583,536.8572],[-73.58189,18.41278,500.0606]]]]}
,"properties": {"ISO3166-1-Alpha-3": "HTI","country": "Haiti","fill": "#00F","name": "Sud","area_km2": 2676.264,"hist_schema_id": "Elevation0-9000","hist_area_km2": {"0": 233.613,"25": 243.739,"50": 197.817,"75": 167.85,"100": 151.219,"125": 131.18,"150": 115.327,"175": 102.821,"200": 93.88,"225": 93.03,"250": 89.642,"275": 89.197,"300": 77.58,"325": 66.709,"350": 58.192,"375": 54.285,"400": 45.306,"425": 41.08,"450": 38.764,"475": 36.671,"500": 34.698,"525": 32.322,"550": 28.376,"575": 27.29,"600": 26.666,"625": 24.794,"650": 23.909,"675": 22.077,"700": 21.856,"725": 21.251,"750": 23.002,"775": 19.56,"800": 17.991,"825": 17.125,"850": 15.576,"875": 14.63,"900": 12.759,"925": 10.927,"950": 10.263,"975": 9.881,"1000": 8.412,"1025": 6.983,"1050": 6.62,"1075": 6.117,"1100": 5.574,"1125": 5.654,"1150": 4.87,"1175": 4.95,"1200": 4.648,"1225": 4.347,"1250": 3.904,"1275": 3.602,"1300": 3.702,"1325": 3.622,"1350": 3.32,"1375": 3.26,"1400": 3.24,"1425": 3.36,"1450": 2.797,"1475": 2.254,"1500": 2.475,"1525": 2.073,"1550": 2.395,"1575": 2.817,"1600": 2.052,"1625": 2.173,"1650": 2.113,"1675": 2.073,"1700": 2.113,"1725": 2.052,"1750": 2.576,"1775": 2.153,"1800": 2.535,"1825": 2.153,"1850": 1.348,"1875": 1.207,"1900": 0.885,"1925": 0.865,"1950": 0.845,"1975": 0.785,"2000": 0.644,"2025": 0.463,"2050": 0.584,"2075": 0.503,"2100": 0.241,"2125": 0.443,"2150": 0.402,"2175": 0.161,"2200": 0.241,"2225": 0.141,"2250": 0.282,"2275": 0.181,"2300": 0.161}}}