{"type":"Feature","properties":{"GID_3":"HTI.10.2.6_1","GID_0":"HTI","country":"Haiti","GID_1":"HTI.10_1","province":"Sud","NL_NAME_1":"NA","GID_2":"HTI.10.2_1","county":"lesCayes","NL_NAME_2":"NA","city":"Torbeck","VARNAME_3":"NA","NL_NAME_3":"NA","TYPE_3":"Commune","ENGTYPE_3":"Commune","CC_3":"NA","HASC_3":"NA","name":"Torbeck.city"},
"geometry":{"type": "MultiPolygon","coordinates": [[[[-73.8094,18.2038,29.1348],[-73.8062,18.206,31.4768],[-73.8624,18.2738,140.2327],[-73.8638,18.2796,144.4506],[-73.872,18.2906,169.5216],[-73.8757,18.2993,173.4954],[-73.8696,18.2996,182.787],[-73.8666,18.3046,174.9988],[-73.868,18.3106,199.9962],[-73.8718,18.3104,295.9262],[-73.8795,18.3027,189.796],[-73.8919,18.305,272.1685],[-73.9041,18.312,304.1333],[-73.91,18.3178,412.0411],[-73.9114,18.3252,564.0015],[-73.9217,18.3315,969.829],[-73.9213,18.3346,823.7303],[-73.9264,18.3368,965.2204],[-73.9266,18.3386,874.2689],[-73.9228,18.3393,974.7723],[-73.9236,18.3411,1114.2441],[-73.9278,18.3425,1101.946],[-73.9257,18.3466,1311.3228],[-73.9287,18.3467,1285.7686],[-73.9299,18.3489,1175.26],[-73.9269,18.353,939.2627],[-73.929,18.3615,653.6152],[-73.9279,18.3661,492.2085],[-73.9309,18.3654,608.03],[-73.9428,18.3704,582.3362],[-73.9643,18.3687,720.2408],[-73.9667,18.3699,685.9533],[-73.972,18.3654,920.3099],[-73.9767,18.3645,973.9841],[-73.9806,18.3545,1830.3319],[-73.9883,18.3486,1515.9283],[-73.9875,18.345,1396.6422],[-73.9834,18.3407,1175.3948],[-73.9793,18.34,1018.5493],[-73.9771,18.3318,874.6954],[-73.9736,18.3275,761.7555],[-73.9726,18.3233,763.7311],[-73.9666,18.3216,795.8869],[-73.9516,18.3231,607.827],[-73.9469,18.3199,536.0851],[-73.9445,18.3121,505.1285],[-73.9424,18.31,472.9461],[-73.9441,18.3025,397.4239],[-73.948,18.3016,394.488],[-73.9491,18.2975,352.6016],[-73.9526,18.2964,399.5414],[-73.9559,18.2917,356.9613],[-73.9553,18.2871,323.4872],[-73.952,18.2845,343.8608],[-73.9504,18.2747,221.6488],[-73.9444,18.2676,183.8175],[-73.9412,18.2608,170.2025],[-73.9285,18.2561,155.7877],[-73.9234,18.251,146.546],[-73.9183,18.2491,125.0907],[-73.9117,18.2495,118.0319],[-73.899,18.243,99.5539],[-73.8977,18.2407,95.7365],[-73.892,18.2373,92.9164],[-73.8923,18.2342,85.9892],[-73.886,18.2233,69.3793],[-73.884,18.2211,66.68],[-73.8799,18.2209,65.3804],[-73.8751,18.2166,60.705],[-73.8754,18.2118,56.6009],[-73.8814,18.2045,48.8442],[-73.8814,18.2022,47.7125],[-73.8782,18.2006,45.5335],[-73.8793,18.1959,43.5562],[-73.8769,18.1927,40.2359],[-73.8777,18.1892,38.1504],[-73.8888,18.1813,31.6582],[-73.8931,18.175,41.0626],[-73.8971,18.1739,63.3642],[-73.9014,18.1751,74.3164],[-73.8944,18.1681,40.973],[-73.8836,18.1663,25.81],[-73.8811,18.1639,24.7674],[-73.8767,18.1559,17.8289],[-73.8673,18.1484,19.88],[-73.8683,18.1409,25.7056],[-73.8629,18.1402,9.8661],[-73.8621,18.1388,9.8661],[-73.8638,18.1369,20.832],[-73.8571,18.1303,11.4744],[-73.8563,18.123,9.5203],[-73.8447,18.1181,1.5381],[-73.8422,18.1155,0.4691],[-73.8429,18.1232,2.3745],[-73.8229,18.1488,2.1708],[-73.8201,18.1512,0.65],[-73.8159,18.1516,0.0],[-73.8083,18.1585,1.9179],[-73.8037,18.1584,0.0],[-73.7889,18.1695,0.0],[-73.7894,18.1749,4.0475],[-73.7922,18.1777,6.3775],[-73.7949,18.1857,11.6416],[-73.8094,18.2038,29.1348]]]]}}