{"type":"Feature","properties":{"GID_2":"BLM.1.9_1","GID_0":"BLM","country":"Saint-Barthélemy","GID_1":"BLM.1_1","province":"AuVent","NL_NAME_1":"NA","county":"GrandeSaline","VARNAME_2":"NA","NL_NAME_2":"NA","TYPE_2":"Quartier","ENGTYPE_2":"Quarter","CC_2":"NA","HASC_2":"NA","name":"Grande_Saline.county"},
"geometry":{"type": "MultiPolygon","coordinates": [[[[-62.8223,17.89,3.2687],[-62.815,17.8914,163.1674],[-62.8113,17.8943,13.4832],[-62.8152,17.8967,46.3663],[-62.8163,17.8994,111.9511],[-62.8232,17.8971,75.1941],[-62.8289,17.8988,47.3686],[-62.8277,17.8952,7.3717],[-62.8223,17.89,3.2687]]]]}}