{"type":"Feature","properties":{"ISO3166-1-Alpha-3":"AIA","country":"Anguilla","fill":"#FF0","id":"5121","name":"Sandy Hill"},
"geometry":{"type": "Polygon","coordinates": [[[-63.00197,18.24384,13.6581],[-62.9964,18.2522,28.1713],[-62.9952,18.25619,24.9677],[-63.01113,18.25021,10.1335],[-63.02308,18.25101,23.7044],[-63.0293,18.23516,18.4526],[-63.03423,18.22791,20.6507],[-63.03144,18.22473,9.8611],[-63.03044,18.21503,20.2257],[-63.01155,18.22045,15.5087],[-63.00056,18.22736,14.8187],[-62.9948,18.23453,11.2503],[-62.99441,18.24384,21.422],[-63.00197,18.24384,13.6581]]]}}