{"type":"Feature","properties":{"GID_1":"AIA.8_1","GID_0":"AIA","country":"Anguilla","state":"SandyHill","VARNAME_1":"NA","NL_NAME_1":"NA","TYPE_1":"District","ENGTYPE_1":"District","CC_1":"NA","HASC_1":"AI.SH","ISO_1":"NA","name":"SandyHill.state"},
"geometry":{"type": "MultiPolygon","coordinates": [[[[-62.9951,18.2465,8.8976],[-63.0168,18.2342,8.9186],[-63.0249,18.2358,4.1172],[-63.0348,18.2355,29.9508],[-63.0331,18.2294,20.4107],[-63.0359,18.223,6.4994],[-63.0075,18.2227,0.0],[-63.0024,18.2209,5.0085],[-62.9968,18.2218,2.8278],[-62.9905,18.2257,1.6034],[-62.9917,18.23,2.855],[-63.0034,18.23,6.1266],[-62.9981,18.2344,5.1721],[-62.9956,18.2399,9.2837],[-62.9951,18.2465,8.8976]]]]}}