{"type": "Feature","bbox": [-62.7988,17.8941,-62.7893,17.9107],"geometry": {"type": "MultiPolygon","coordinates": [[[[-62.7988,17.9012,35.5645],[-62.7979,17.897,0.0],[-62.7957,17.8976,3.5866],[-62.7925,17.8941,0.0],[-62.7923,17.901,0.0],[-62.7893,17.9047,11.0347],[-62.7893,17.9107,0.0],[-62.798,17.9037,22.4878],[-62.7988,17.9012,35.5645]]]]}
,"properties": {"GID_2": "BLM.1.17_1","GID_0": "BLM","country": "Saint-Barthélemy","GID_1": "BLM.1_1","province": "AuVent","NL_NAME_1": "NA","county": "PetitCul-de-Sac","VARNAME_2": "NA","NL_NAME_2": "NA","TYPE_2": "Quartier","ENGTYPE_2": "Quarter","CC_2": "NA","HASC_2": "NA","name": "Petit_Cul-de-Sac.county","area_km2": 0.9078996,"hist_schema_id": "Elevation0-9000","hist_area_km2": {"0": 0.2017544,"25": 0.3631593,"50": 0.2219308,"75": 0.0807032,"100": 0.0403519}}}