{"type":"Feature","properties":{"GID_3":"HTI.6.2.3_1","GID_0":"HTI","country":"Haiti","GID_1":"HTI.6_1","province":"Nord-Ouest","NL_NAME_1":"NA","GID_2":"HTI.6.2_1","county":"Port-de-Paix","NL_NAME_2":"NA","city":"LaTortue","VARNAME_3":"NA","NL_NAME_3":"NA","TYPE_3":"Commune","ENGTYPE_3":"Commune","CC_3":"NA","HASC_3":"NA","name":"La_Tortue.city"},
"geometry":{"type": "MultiPolygon","coordinates": [[[[-73.0001,20.0001,0.0],[-73.0001,19.9999,0.0],[-72.9999,19.9999,0.0],[-72.9999,20.0001,0.0],[-73.0001,20.0001,0.0]]],
[[[-72.764,20.0149,0.0],[-72.7613,20.0132,1.8811],[-72.761,20.0107,0.0],[-72.7571,20.0115,0.0],[-72.7532,20.009,1.5213],[-72.7454,20.0088,38.3989],[-72.7412,20.0068,0.0],[-72.73,20.0068,0.0],[-72.7268,20.0049,0.0],[-72.7108,20.0033,0.0],[-72.6957,19.9974,0.4842],[-72.6591,19.9968,0.0],[-72.6468,19.9921,6.4364],[-72.6376,19.9937,0.0],[-72.6288,19.9929,0.0],[-72.6199,19.9968,0.0],[-72.6279,20.0096,0.0],[-72.6401,20.0229,0.0],[-72.6654,20.0393,0.0],[-72.6757,20.044,0.0],[-72.7124,20.0529,4.7998],[-72.744,20.0657,0.0],[-72.7526,20.0671,0.0],[-72.7651,20.0735,3.3911],[-72.7818,20.0785,5.3738],[-72.8015,20.0896,0.0],[-72.8215,20.0899,2.0923],[-72.8388,20.0861,3.5717],[-72.8535,20.0863,0.0],[-72.8599,20.0882,0.0],[-72.8721,20.0857,0.0],[-72.8863,20.0854,0.0],[-72.8882,20.0838,0.0],[-72.8957,20.0832,0.0],[-72.9107,20.0784,10.6642],[-72.9304,20.0771,0.0],[-72.9535,20.0692,0.0],[-72.9621,20.0688,0.0],[-72.9713,20.0651,0.0],[-72.9699,20.061,0.7044],[-72.9646,20.0589,0.0],[-72.9585,20.0526,0.0],[-72.9401,20.0521,16.5007],[-72.9062,20.0411,0.3399],[-72.8905,20.0393,4.8783],[-72.8818,20.0335,0.0],[-72.8646,20.0328,0.0],[-72.8468,20.0299,0.0],[-72.8382,20.0307,22.9205],[-72.8326,20.0304,0.0],[-72.8318,20.029,0.0],[-72.8258,20.0301,0.0],[-72.8105,20.0285,0.0],[-72.8049,20.0251,0.0],[-72.7899,20.0227,0.0],[-72.789,20.0213,0.0],[-72.7804,20.019,4.3295],[-72.7737,20.0187,0.0],[-72.764,20.0149,0.0]]]]}}