{"type": "Feature","id": "5102","bbox": [-62.57862,17.10053,-62.53677,17.15004],"geometry": {"type": "Polygon","coordinates": [[[-62.53696,17.13839,0.0],[-62.54878,17.1455,67.8021],[-62.5624,17.15004,209.2617],[-62.57862,17.1455,533.2217],[-62.56574,17.10053,0.0],[-62.5476,17.10464,0.0],[-62.54357,17.10887,0.0],[-62.53844,17.121,0.0],[-62.53677,17.12971,0.0],[-62.53696,17.13839,0.0]]]}
,"properties": {"ISO3166-1-Alpha-3": "KNA","country": "Saint Kitts and Nevis","fill": "#F0F","name": "Saint George Gingerland","area_km2": 16.95929,"hist_schema_id": "Elevation0-9000","hist_area_km2": {"0": 4.68078,"25": 2.53282,"50": 1.49938,"75": 1.31702,"100": 1.25622,"125": 0.87124,"150": 0.81046,"175": 0.76992,"200": 0.87123,"225": 0.64835,"250": 0.44573,"275": 0.28365,"300": 0.24312,"325": 0.26338,"350": 0.2026,"375": 0.1013,"400": 0.04052,"425": 0.06078,"450": 0.02026,"475": 0.02026,"525": 0.02026}}}