{"type":"Feature","properties":{"GID_1":"KNA.4_1","GID_0":"KNA","country":"SaintKittsandNevis","province":"SaintGeorgeGingerland","VARNAME_1":"NA","NL_NAME_1":"NA","TYPE_1":"Parish","ENGTYPE_1":"Parish","CC_1":"NA","HASC_1":"KN.GG","ISO_1":"NA","name":"Saint_George_Gingerland.province"},
"geometry":{"type": "MultiPolygon","coordinates": [[[[-62.5396,17.1415,0.0],[-62.5436,17.1443,18.0079],[-62.5473,17.1444,53.6361],[-62.5513,17.1481,86.0874],[-62.5596,17.1489,192.8243],[-62.5644,17.1518,229.0386],[-62.5834,17.1534,818.4697],[-62.5772,17.1026,4.4979],[-62.5679,17.104,0.0],[-62.5638,17.1068,0.0],[-62.5599,17.1071,8.0887],[-62.5568,17.1046,0.0],[-62.5529,17.1051,0.0],[-62.5471,17.114,4.0008],[-62.5476,17.1165,2.2168],[-62.5449,17.1215,0.0],[-62.5449,17.1257,0.8117],[-62.5424,17.1276,1.7548],[-62.5421,17.1299,2.982],[-62.5399,17.1293,0.0],[-62.5418,17.1376,0.0],[-62.5399,17.1385,0.0],[-62.5396,17.1415,0.0]]]]}}