{"type":"Feature","properties":{"ISO3166-1-Alpha-3":"LCA","country":"Saint Lucia","fill":"#F00","id":"5084","name":"Praslin"},
"geometry":{"type": "Polygon","coordinates": [[[-60.8922,13.8332,0.2742],[-60.89509,13.87735,0.0],[-60.89023,13.90848,4.1068],[-60.90668,13.90533,124.0649],[-60.92172,13.89781,86.9131],[-60.93927,13.90408,195.1969],[-60.96057,13.90032,216.994],[-60.96057,13.87901,327.867],[-60.96057,13.86898,390.7935],[-60.96433,13.84517,211.5573],[-60.94303,13.84016,227.3676],[-60.91546,13.83264,33.6065],[-60.8922,13.8332,0.2742]]]}}