{"type":"Feature","properties":{"GID_2":"CUB.10.7_1","GID_0":"CUB","country":"Cuba","GID_1":"CUB.10_1","province":"LasTunas","NL_NAME_1":"NA","county":"Manatí","VARNAME_2":"NA","NL_NAME_2":"NA","TYPE_2":"Municipio","ENGTYPE_2":"Municipality","CC_2":"NA","HASC_2":"CU.LT.MN","name":"Manatí.county"},
"geometry":{"type": "MultiPolygon","coordinates": [[[[-77.1269,21.2045,43.2805],[-77.1261,21.1803,51.8272],[-77.11,21.1696,52.6677],[-77.0906,21.1645,50.3356],[-77.0769,21.1565,49.8151],[-77.0739,21.1473,49.6444],[-77.0741,21.1111,58.8065],[-77.0694,21.103,65.7512],[-77.0224,21.1,70.677],[-76.9837,21.0704,80.3139],[-76.9286,21.0707,78.0264],[-76.9061,21.081,57.9619],[-76.9,21.0926,52.4415],[-76.9017,21.2495,11.2403],[-76.8997,21.2641,9.3795],[-76.8637,21.3013,2.1252],[-76.8532,21.317,0.343],[-76.8557,21.3196,1.0816],[-76.8607,21.3182,0.5422],[-76.8624,21.3151,0.0],[-76.8613,21.3118,1.5788],[-76.874,21.2976,1.0116],[-76.876,21.2982,0.0],[-76.8771,21.301,0.0],[-76.881,21.3015,1.0836],[-76.8835,21.2993,1.2526],[-76.884,21.3026,0.0],[-76.8879,21.3021,0.0],[-76.8921,21.299,0.4193],[-76.8951,21.2999,1.3471],[-76.8971,21.3029,1.3664],[-76.8938,21.306,0.0],[-76.894,21.3082,0.0],[-76.8965,21.3099,0.7431],[-76.9026,21.309,0.0],[-76.9037,21.3104,1.6783],[-76.9029,21.3151,0.0],[-76.894,21.3168,0.0],[-76.8882,21.3218,0.6092],[-76.8821,21.3199,0.0],[-76.881,21.3215,0.411],[-76.8838,21.3229,0.0],[-76.884,21.3257,0.344],[-76.8782,21.329,0.0],[-76.8887,21.3296,1.0883],[-76.8863,21.3307,0.0],[-76.8876,21.3335,0.4987],[-76.8957,21.3388,0.6076],[-76.8968,21.3424,0.3501],[-76.8896,21.349,0.8155],[-76.8846,21.3499,0.0],[-76.8818,21.3521,1.4353],[-76.8568,21.3524,0.6289],[-76.856,21.3549,3.8121],[-76.8535,21.3549,0.3981],[-76.8568,21.3582,1.1686],[-76.8543,21.3596,0.8593],[-76.8465,21.3565,0.5274],[-76.8487,21.3551,1.2501],[-76.8521,21.3563,0.0],[-76.8529,21.3549,0.3981],[-76.8474,21.351,1.0452],[-76.8296,21.3485,0.3937],[-76.8193,21.3696,1.1197],[-76.8199,21.3726,1.1298],[-76.8174,21.3762,0.9492],[-76.8171,21.3801,1.6919],[-76.8135,21.3851,0.0],[-76.8126,21.391,0.7047],[-76.8138,21.3935,0.0],[-76.8229,21.396,0.0],[-76.8276,21.3876,0.6922],[-76.834,21.3896,1.1864],[-76.8368,21.3965,0.0],[-76.829,21.3999,0.7632],[-76.8329,21.406,0.0],[-76.8357,21.419,0.6021],[-76.839,21.4246,0.0],[-76.8415,21.4249,0.0],[-76.8463,21.4204,3.0696],[-76.8688,21.4218,2.8581],[-76.8904,21.4299,0.7121],[-76.9015,21.4382,0.0],[-76.9049,21.4382,0.8106],[-76.9082,21.4413,0.0],[-76.9232,21.4421,0.0],[-76.9315,21.4543,0.0],[-76.9371,21.4543,0.2184],[-76.9449,21.4576,0.0],[-76.9499,21.4571,0.0],[-76.9493,21.4549,0.0],[-76.9474,21.4554,0.0],[-76.9463,21.454,0.0],[-76.9488,21.4538,0.0],[-76.9485,21.4513,0.0],[-76.9515,21.4474,0.1021],[-76.9551,21.4463,0.0],[-76.9549,21.4413,0.3292],[-76.9571,21.4407,0.2981],[-76.9587,21.436,0.0],[-76.9662,21.4343,0.177],[-76.966,21.4304,1.6585],[-76.9704,21.4226,1.4592],[-76.9743,21.4196,1.3752],[-76.979,21.4201,2.9471],[-76.9826,21.4176,0.0],[-76.9837,21.4074,1.2919],[-76.9879,21.419,0.2714],[-76.9974,21.416,2.5012],[-77.0043,21.416,0.0],[-77.0057,21.414,2.5679],[-77.0099,21.4146,0.9965],[-77.0171,21.4107,0.0],[-77.024,21.4112,1.0523],[-77.0296,21.4096,1.0863],[-77.0315,21.4071,0.5383],[-77.0354,21.4082,1.215],[-77.0399,21.4057,1.0151],[-77.0429,21.4074,0.0],[-77.0401,21.411,0.0],[-77.0479,21.4114,2.2698],[-77.0623,21.4152,2.2438],[-77.076,21.4127,1.4281],[-77.0821,21.4094,1.6408],[-77.0876,21.4043,2.7273],[-77.0913,21.3966,3.2759],[-77.1049,21.3546,8.5026],[-77.1086,21.351,10.285],[-77.1247,21.3481,14.1351],[-77.1287,21.344,10.9203],[-77.1398,21.3143,17.9957],[-77.14,21.3081,16.7851],[-77.1334,21.305,18.6742],[-77.0806,21.3091,17.0908],[-77.0747,21.3068,17.2344],[-77.0712,21.3025,17.2297],[-77.0717,21.293,16.0334],[-77.0744,21.2865,18.9908],[-77.105,21.2537,29.2572],[-77.1211,21.2282,35.9626],[-77.1269,21.2045,43.2805]]],
[[[-76.9701,21.4332,0.0],[-76.971,21.4343,0.0],[-76.9726,21.4321,1.3221],[-76.9713,21.4321,1.3221],[-76.9701,21.4332,0.0]]],
[[[-76.9621,21.4499,0.8743],[-76.9654,21.4499,0.4575],[-76.9665,21.4465,1.3204],[-76.9665,21.4371,1.4031],[-76.964,21.4354,1.728],[-76.9587,21.4371,1.3637],[-76.9582,21.4449,0.0],[-76.9571,21.4451,0.0],[-76.9576,21.4488,0.0],[-76.9621,21.4499,0.8743]]],
[[[-76.8715,21.3274,0.0],[-76.8788,21.3232,0.0],[-76.879,21.3213,0.0],[-76.8768,21.3204,0.0],[-76.8754,21.3235,0.0],[-76.8718,21.3251,0.0],[-76.8715,21.3274,0.0]]],
[[[-76.8579,21.3429,1.3571],[-76.8615,21.3424,0.5647],[-76.8649,21.3382,0.2893],[-76.8629,21.3376,0.2822],[-76.859,21.3399,0.4106],[-76.8579,21.3429,1.3571]]]]}}