{"type": "Feature","bbox": [-62.6307,17.1334,-62.5834,17.1535],"geometry": {"type": "MultiPolygon","coordinates": [[[[-62.5834,17.1535,818.4697],[-62.6019,17.1439,221.2122],[-62.6085,17.1423,137.598],[-62.6299,17.1442,1.8438],[-62.6307,17.1335,3.8089],[-62.6202,17.1334,28.5062],[-62.6076,17.1374,158.0889],[-62.6007,17.138,196.0737],[-62.5834,17.1535,818.4697]]]]}
,"properties": {"GID_1": "KNA.10_1","GID_0": "KNA","country": "SaintKittsandNevis","province": "SaintPaulCharlestown","VARNAME_1": "NA","NL_NAME_1": "NA","TYPE_1": "Parish","ENGTYPE_1": "Parish","CC_1": "NA","HASC_1": "KN.PL","ISO_1": "KN-10","name": "Saint_Paul_Charlestown.province","area_km2": 3.444289,"hist_schema_id": "Elevation0-9000","hist_area_km2": {"0": 0.465998,"25": 0.607822,"50": 0.465996,"75": 0.263389,"100": 0.263388,"125": 0.202606,"150": 0.162084,"175": 0.121563,"200": 0.182345,"225": 0.081041,"250": 0.101302,"275": 0.04052,"300": 0.06078,"325": 0.06078,"350": 0.02026,"375": 0.04052,"400": 0.02026,"425": 0.02026,"450": 0.02026,"475": 0.04052,"525": 0.02026,"550": 0.02026,"575": 0.02026,"675": 0.02026,"725": 0.040519,"750": 0.020259,"775": 0.040519,"825": 0.02026}}}