{"type": "Feature","bbox": [-72.0376,19.2593,-71.7479,19.5257],"geometry": {"type": "MultiPolygon","coordinates": [[[[-71.7664,19.2742,595.6084],[-71.7635,19.2766,583.7099],[-71.7592,19.2754,580.3648],[-71.7479,19.2833,587.9888],[-71.752,19.2841,585.0573],[-71.752,19.2868,595.7151],[-71.7501,19.2868,623.5698],[-71.7501,19.2934,589.4402],[-71.7529,19.2954,586.8492],[-71.7576,19.2954,578.4927],[-71.7576,19.2973,570.1053],[-71.7561,19.2976,571.3362],[-71.7568,19.3008,570.1798],[-71.7529,19.302,590.7498],[-71.7529,19.3047,602.9501],[-71.7568,19.3055,592.9157],[-71.7556,19.3074,596.7775],[-71.7588,19.3074,592.5428],[-71.7595,19.3094,596.0159],[-71.7595,19.3074,592.5428],[-71.7615,19.3074,585.251],[-71.7595,19.3113,599.3118],[-71.7615,19.3121,602.1639],[-71.7623,19.316,598.5897],[-71.7635,19.316,592.8947],[-71.7643,19.3206,614.1545],[-71.767,19.3222,601.1274],[-71.7651,19.3241,615.0394],[-71.767,19.3253,606.5391],[-71.7709,19.3241,602.444],[-71.7709,19.3268,609.6526],[-71.7737,19.3268,608.8408],[-71.7737,19.3307,613.555],[-71.7764,19.3334,616.0488],[-71.7804,19.3334,605.6722],[-71.7804,19.3346,620.295],[-71.7858,19.3317,586.9911],[-71.7985,19.3348,599.4369],[-71.7983,19.3371,591.5146],[-71.8032,19.3406,598.1646],[-71.8059,19.3463,610.5501],[-71.805,19.3488,613.8613],[-71.807,19.3532,611.0062],[-71.8085,19.3533,603.1656],[-71.8083,19.356,599.1828],[-71.8113,19.3588,619.014],[-71.8133,19.3578,601.6805],[-71.8147,19.3651,603.4667],[-71.8189,19.3662,612.6091],[-71.8202,19.3702,611.6889],[-71.8253,19.3738,612.972],[-71.8278,19.3815,612.4055],[-71.8268,19.3838,617.4515],[-71.8282,19.3831,610.8822],[-71.8318,19.3852,613.3493],[-71.8316,19.3893,613.9618],[-71.8403,19.4001,621.1561],[-71.8449,19.4003,630.8353],[-71.845,19.4023,626.8561],[-71.8476,19.4029,630.0145],[-71.8512,19.4072,642.0436],[-71.8535,19.4077,645.3739],[-71.8537,19.4056,636.9749],[-71.8547,19.406,636.9749],[-71.8592,19.4114,650.3879],[-71.8582,19.4193,665.3572],[-71.8534,19.4211,667.6485],[-71.8532,19.424,673.9362],[-71.8613,19.4269,883.7356],[-71.8668,19.4267,923.5155],[-71.8732,19.4363,1075.3602],[-71.8747,19.444,825.1337],[-71.8812,19.4525,611.2858],[-71.8938,19.4622,560.1565],[-71.8992,19.4599,645.0778],[-71.9066,19.4601,625.5302],[-71.9101,19.4586,547.3551],[-71.9349,19.4762,625.8449],[-71.9508,19.4947,642.7485],[-71.9662,19.5006,950.6301],[-71.9695,19.5082,920.6426],[-72.0,19.5235,698.948],[-72.019,19.5257,802.4276],[-72.0161,19.5189,591.0335],[-72.0097,19.5106,501.352],[-72.0193,19.497,473.1266],[-72.0231,19.4969,551.9542],[-72.0251,19.4944,574.5479],[-72.0236,19.4781,719.2585],[-72.0218,19.475,750.4525],[-72.0128,19.4703,644.6154],[-72.0061,19.4583,491.6939],[-72.0026,19.4463,330.7436],[-72.0063,19.4464,313.8577],[-72.0087,19.449,340.3166],[-72.0156,19.4452,327.9973],[-72.0233,19.4406,303.9739],[-72.032,19.4314,236.0871],[-72.0368,19.4295,223.7709],[-72.0376,19.4265,234.3849],[-72.034,19.4256,327.5863],[-72.0312,19.4198,279.0467],[-72.026,19.4166,331.7005],[-72.0235,19.4173,437.0747],[-72.0228,19.4141,372.8169],[-72.0207,19.4142,376.4076],[-72.0228,19.4117,407.8441],[-72.0218,19.4101,378.6301],[-72.0201,19.4099,378.6301],[-72.0115,19.4009,435.3678],[-72.0076,19.3996,456.9421],[-71.9947,19.3802,521.1804],[-71.995,19.3782,526.0518],[-71.9889,19.3685,490.8516],[-71.9901,19.3661,482.5443],[-71.9857,19.3659,490.9715],[-71.9859,19.3611,630.2173],[-71.9796,19.354,772.7279],[-71.9745,19.3507,623.6329],[-71.9702,19.3432,501.2464],[-71.9707,19.3398,471.5276],[-71.9733,19.3384,482.0439],[-71.9785,19.3404,471.5751],[-71.9775,19.3351,456.3143],[-71.982,19.3348,454.7882],[-71.9822,19.3332,457.8858],[-71.9602,19.3127,551.2947],[-71.9418,19.3081,806.946],[-71.914,19.3055,722.9209],[-71.9139,19.3007,615.5914],[-71.9069,19.294,612.5784],[-71.9095,19.2908,575.7132],[-71.9092,19.2886,518.0138],[-71.9072,19.2885,515.5082],[-71.9028,19.2842,657.2479],[-71.9007,19.2754,837.0989],[-71.893,19.2747,935.8046],[-71.8876,19.2767,940.9161],[-71.8794,19.2746,963.3491],[-71.8725,19.2758,965.2281],[-71.8656,19.2798,969.5914],[-71.8539,19.2698,957.3691],[-71.8463,19.2664,702.4207],[-71.8284,19.2641,584.6179],[-71.8092,19.2647,807.5363],[-71.7986,19.2605,731.3513],[-71.7843,19.2618,766.2311],[-71.7747,19.2593,804.1079],[-71.7735,19.2611,808.3886],[-71.7761,19.2671,806.4848],[-71.7722,19.2674,752.8939],[-71.7698,19.2723,639.2096],[-71.7664,19.2742,595.6084]]]]}
,"properties": {"GID_2": "HTI.5.4_1","GID_0": "HTI","country": "Haiti","GID_1": "HTI.5_1","province": "Nord-Est","NL_NAME_1": "NA","county": "Vallières","VARNAME_2": "NA","NL_NAME_2": "NA","TYPE_2": "Arrondissement","ENGTYPE_2": "District","CC_2": "NA","HASC_2": "HT.NE.VR","name": "Vallières.county","area_km2": 417.3467,"hist_schema_id": "Elevation0-9000","hist_area_km2": {"200": 0.04,"225": 0.06,"250": 0.08,"275": 0.1999,"300": 0.3999,"325": 0.5598,"350": 0.9797,"375": 1.3995,"400": 3.5587,"425": 8.6965,"450": 13.1743,"475": 13.7146,"500": 14.895,"525": 17.2563,"550": 19.198,"575": 22.3604,"600": 27.4428,"625": 31.2034,"650": 32.344,"675": 32.7448,"700": 29.6052,"725": 25.9258,"750": 21.7056,"775": 17.8643,"800": 17.2042,"825": 14.4232,"850": 12.0824,"875": 9.482,"900": 8.1616,"925": 6.2814,"950": 4.261,"975": 2.9606,"1000": 1.9605,"1025": 1.8202,"1050": 1.2202,"1075": 0.8202,"1100": 0.5402,"1125": 0.4402,"1150": 0.2401,"1175": 0.04}}}