{"type":"Feature","properties":{"GID_2":"DOM.26.3_1","GID_0":"DOM","country":"DominicanRepublic","GID_1":"DOM.26_1","province":"SanJuan","NL_NAME_1":"NA","county":"JuandeHerrera","VARNAME_2":"NA","NL_NAME_2":"NA","TYPE_2":"Municipio","ENGTYPE_2":"Municipality","CC_2":"NA","HASC_2":"DO.JU.JH","name":"Juande_Herrera.county"},
"geometry":{"type": "MultiPolygon","coordinates": [[[[-71.1674,18.9283,1555.8899],[-71.1745,18.9302,1449.4956],[-71.1842,18.9276,1334.077],[-71.201,18.9272,1237.4821],[-71.215,18.9239,1020.0334],[-71.2223,18.9174,804.2469],[-71.2238,18.9121,642.3778],[-71.2223,18.9071,772.5238],[-71.2055,18.8988,674.7496],[-71.204,18.8959,667.2881],[-71.2111,18.8921,869.0775],[-71.2203,18.8931,650.8965],[-71.225,18.8889,574.6758],[-71.2297,18.8873,548.4811],[-71.2386,18.8731,472.1071],[-71.244,18.8694,463.8188],[-71.244,18.861,453.6852],[-71.2385,18.8494,448.6789],[-71.2386,18.8303,433.2526],[-71.2369,18.8267,428.1024],[-71.215,18.8259,428.0345],[-71.2047,18.8236,426.6129],[-71.1989,18.8348,445.6104],[-71.1945,18.8371,453.1485],[-71.1743,18.8288,440.5994],[-71.1668,18.8286,465.5815],[-71.1637,18.8307,472.097],[-71.1613,18.8358,497.4791],[-71.1605,18.848,593.7904],[-71.1527,18.8569,651.2616],[-71.1479,18.8689,722.0665],[-71.1382,18.8788,915.9412],[-71.1372,18.8834,994.0881],[-71.1412,18.8937,860.6985],[-71.1519,18.9066,1120.3954],[-71.1736,18.9076,801.5325],[-71.1798,18.911,837.9955],[-71.1804,18.9144,1027.7432],[-71.1741,18.9203,1045.7817],[-71.162,18.9218,1284.0059],[-71.1585,18.9245,1407.1366],[-71.1602,18.9288,1593.7974],[-71.1674,18.9283,1555.8899]]]]}}