{"type":"Feature","properties":{"ISO3166-1-Alpha-3":"ATG","country":"Antigua and Barbuda","fill":"#FF0","id":"5098","name":"Saint John"},
"geometry":{"type": "Polygon","coordinates": [[[-61.79337,17.16494,0.0],[-61.82527,17.16877,0.894],[-61.83967,17.15986,65.2628],[-61.84878,17.14948,1.0489],[-61.85045,17.13764,6.3011],[-61.84236,17.12442,16.3474],[-61.86539,17.11782,4.0031],[-61.88313,17.1105,30.4438],[-61.89415,17.10053,0.0],[-61.87336,17.08954,43.5539],[-61.8662,17.08686,83.5046],[-61.8538,17.0949,3.8296],[-61.84462,17.08673,7.5966],[-61.82727,17.08265,27.3307],[-61.82625,17.07959,36.9991],[-61.83135,17.06837,31.6582],[-61.83544,17.04286,268.0796],[-61.82013,17.05918,85.9414],[-61.81503,17.04796,64.5594],[-61.80686,17.05612,69.9438],[-61.78441,17.06224,36.7436],[-61.77421,17.0602,28.4007],[-61.77421,17.07143,35.8411],[-61.78135,17.07449,38.2165],[-61.79564,17.08367,76.7418],[-61.7936,17.0949,13.8411],[-61.79666,17.11633,12.7194],[-61.80482,17.12347,21.5529],[-61.80584,17.14388,46.954],[-61.79156,17.1449,19.8285],[-61.79337,17.16494,0.0]]]}}