{"type": "Feature","bbox": [-61.9057,17.05,-61.7926,17.1732],"geometry": {"type": "MultiPolygon","coordinates": [[[[-61.8021,17.1701,9.2832],[-61.8221,17.1679,5.8683],[-61.8326,17.1732,3.2839],[-61.8401,17.1688,3.6746],[-61.8424,17.1693,0.0],[-61.8429,17.1671,8.1331],[-61.8474,17.1663,0.0],[-61.8468,17.1604,0.6076],[-61.8493,17.1568,2.6008],[-61.8537,17.154,0.4168],[-61.854,17.1551,0.4168],[-61.856,17.1546,0.0],[-61.8543,17.1521,1.1469],[-61.8549,17.149,0.0],[-61.8596,17.1421,0.0],[-61.8604,17.139,4.5497],[-61.8593,17.1374,0.9745],[-61.8646,17.1318,0.0],[-61.8646,17.1299,0.0],[-61.8587,17.1318,0.0],[-61.8521,17.1299,3.416],[-61.8529,17.1265,1.8884],[-61.8579,17.1274,0.0],[-61.8582,17.1254,0.0],[-61.849,17.1238,2.4289],[-61.8449,17.1174,2.1692],[-61.8476,17.1193,0.0],[-61.851,17.1174,1.1259],[-61.8554,17.1196,9.3398],[-61.856,17.1218,1.7986],[-61.8604,17.1193,3.8115],[-61.8618,17.121,0.0],[-61.8649,17.1196,2.4276],[-61.8676,17.1207,3.1245],[-61.8674,17.1232,4.6772],[-61.871,17.1265,0.0],[-61.8768,17.1251,2.7371],[-61.8787,17.1293,0.0],[-61.8804,17.1282,8.2501],[-61.8829,17.1304,4.6782],[-61.8857,17.1304,20.8293],[-61.8918,17.129,0.0],[-61.8907,17.1276,0.0],[-61.886,17.1282,0.0],[-61.8854,17.1251,2.7547],[-61.8907,17.1249,0.0],[-61.8932,17.1213,3.1175],[-61.8979,17.121,0.0],[-61.8976,17.114,11.5918],[-61.8988,17.1124,1.4463],[-61.9001,17.1132,0.0],[-61.8999,17.1115,5.0416],[-61.9035,17.1087,1.7143],[-61.904,17.1063,4.3554],[-61.9012,17.1049,1.4679],[-61.9057,17.1004,5.1586],[-61.9024,17.0979,0.0],[-61.8996,17.0985,0.0],[-61.8963,17.1024,0.598],[-61.8913,17.101,0.0],[-61.8904,17.1026,1.9224],[-61.8807,17.1038,9.3037],[-61.8707,17.1093,4.41],[-61.8588,17.0962,1.0319],[-61.8426,17.0932,7.2803],[-61.8359,17.0888,9.7098],[-61.8351,17.0867,10.8379],[-61.8441,17.0722,21.998],[-61.8438,17.0675,131.0938],[-61.8466,17.0618,115.2773],[-61.8446,17.0583,178.7777],[-61.8462,17.0518,102.3619],[-61.8235,17.0592,120.9365],[-61.8232,17.0568,88.4581],[-61.8194,17.0537,79.1356],[-61.8177,17.05,91.606],[-61.8088,17.0553,50.4912],[-61.8009,17.0633,68.9896],[-61.7949,17.0639,75.1859],[-61.7926,17.0789,78.4745],[-61.8033,17.0803,77.4373],[-61.8102,17.0898,48.6785],[-61.8049,17.112,11.3656],[-61.8083,17.1121,17.3692],[-61.8095,17.1416,66.7097],[-61.8165,17.1426,49.6433],[-61.8166,17.155,78.7433],[-61.806399999999996,17.1557,28.4289],[-61.806399999999996,17.1574,40.0909],[-61.8006,17.1571,13.1801],[-61.8021,17.1701,9.2832]]]]}
,"properties": {"GID_1": "ATG.4_1","GID_0": "ATG","country": "AntiguaandBarbuda","state": "SaintJohn","VARNAME_1": "SaintJohn's","NL_NAME_1": "NA","TYPE_1": "Parish","ENGTYPE_1": "Parish","CC_1": "NA","HASC_1": "AG.JO","ISO_1": "AG-04","name": "SaintJohn.state","area_km2": 71.14523,"hist_schema_id": "Elevation0-9000","hist_area_km2": {"0": 16.51381,"25": 28.55093,"50": 13.4145,"75": 7.76127,"100": 2.71571,"125": 0.97286,"150": 0.2635,"175": 0.18242,"200": 0.20269,"225": 0.12162,"250": 0.08108,"275": 0.08108,"300": 0.22296,"325": 0.06081}}}