{"type":"Feature","properties":{"GID_1":"DOM.8_1","GID_0":"DOM","country":"DominicanRepublic","province":"Espaillat","VARNAME_1":"NA","NL_NAME_1":"NA","TYPE_1":"Provincia","ENGTYPE_1":"Province","CC_1":"NA","HASC_1":"DO.ES","ISO_1":"DO-09","name":"Espaillat.province"},
"geometry":{"type": "MultiPolygon","coordinates": [[[[-70.4478,19.3597,174.3356],[-70.4477,19.3658,185.847],[-70.4454,19.3672,184.0552],[-70.4396,19.3782,179.6416],[-70.4411,19.3881,216.9094],[-70.4305,19.4055,246.4529],[-70.4283,19.4126,266.9828],[-70.4295,19.4269,361.5576],[-70.4219,19.4386,502.3111],[-70.4208,19.4427,494.4135],[-70.4213,19.4522,599.7004],[-70.4262,19.4622,463.9225],[-70.4241,19.4667,488.6643],[-70.4242,19.4719,479.3976],[-70.4292,19.4788,422.6817],[-70.4373,19.4961,399.8346],[-70.4275,19.5126,439.85],[-70.4263,19.5252,396.6534],[-70.4187,19.53,429.2705],[-70.4159,19.5344,283.6016],[-70.4174,19.5425,217.9714],[-70.4137,19.5474,322.9639],[-70.4096,19.5496,302.3799],[-70.4047,19.5394,401.2474],[-70.3969,19.5324,308.9819],[-70.3895,19.5293,396.7805],[-70.3736,19.5283,569.8906],[-70.3543,19.5186,572.5518],[-70.351,19.5106,615.6136],[-70.3452,19.509,608.3033],[-70.3411,19.5121,626.2838],[-70.3381,19.5212,589.9205],[-70.3374,19.5328,581.8939],[-70.3341,19.5442,339.8654],[-70.3202,19.5488,135.6109],[-70.3165,19.5563,97.5066],[-70.3074,19.5568,170.1058],[-70.2992,19.5535,202.1187],[-70.2943,19.5491,210.5837],[-70.2879,19.5338,293.1915],[-70.2866,19.5259,196.7246],[-70.2844,19.5236,178.1274],[-70.2673,19.5223,304.8491],[-70.2557,19.5144,417.1752],[-70.2409,19.5144,475.45],[-70.2356,19.5116,440.7405],[-70.2064,19.5063,384.705],[-70.1949,19.5126,611.9767],[-70.1951,19.5361,490.0094],[-70.198,19.5448,360.1199],[-70.196,19.5494,304.8905],[-70.1921,19.5499,245.728],[-70.1829,19.5453,349.1741],[-70.1779,19.5447,321.3809],[-70.1652,19.5495,236.1308],[-70.1593,19.546,308.2329],[-70.1517,19.5499,122.2432],[-70.1365,19.5505,186.2154],[-70.1274,19.5565,148.9194],[-70.1181,19.5661,69.2898],[-70.0859,19.5788,30.7685],[-70.0819,19.6003,33.343],[-70.0825,19.6053,37.6726],[-70.0865,19.6118,8.2689],[-70.0802,19.6203,34.8693],[-70.0836,19.6272,5.9101],[-70.0909,19.6302,8.5902],[-70.0886,19.6343,0.0],[-70.0976,19.629,3.4955],[-70.1026,19.6293,0.0],[-70.1118,19.626,4.333],[-70.1188,19.6262,0.0],[-70.1318,19.6224,0.6909],[-70.1404,19.6226,2.8096],[-70.1518,19.6199,6.8458],[-70.1576,19.6201,8.7609],[-70.164,19.6226,0.0],[-70.1715,19.621,3.7556],[-70.1762,19.6226,0.0],[-70.1826,19.6282,3.2993],[-70.189,19.6276,4.2451],[-70.2029,19.6324,0.0],[-70.2171,19.6349,7.989],[-70.2279,19.6404,2.5545],[-70.2412,19.6424,0.0],[-70.2518,19.641,2.272],[-70.2693,19.6415,4.2571],[-70.2957,19.6501,2.8313],[-70.3087,19.6568,5.7472],[-70.3318,19.676,0.0],[-70.3337,19.6754,5.9345],[-70.334,19.6776,0.0],[-70.3401,19.6826,0.0],[-70.3554,19.6924,4.9153],[-70.3632,19.7015,0.7979],[-70.3724,19.6973,4.5618],[-70.3786,19.6865,3.7784],[-70.3776,19.6845,4.4329],[-70.3707,19.6821,5.6523],[-70.3676,19.6713,5.7395],[-70.3686,19.6661,9.0239],[-70.3743,19.6618,8.3965],[-70.3872,19.6613,9.3783],[-70.3905,19.6595,9.9749],[-70.3964,19.6522,12.1855],[-70.3997,19.651,16.85],[-70.4009,19.6431,126.4927],[-70.4078,19.6526,40.0257],[-70.4107,19.6513,81.682],[-70.4142,19.6451,97.4132],[-70.4224,19.6454,105.7218],[-70.4271,19.6551,16.3645],[-70.431,19.6584,12.3194],[-70.4379,19.6539,65.9816],[-70.453,19.6534,58.4592],[-70.4566,19.6507,46.4096],[-70.4691,19.6488,58.0326],[-70.4738,19.65,60.1558],[-70.4804,19.6466,89.3787],[-70.4912,19.6508,118.4756],[-70.4973,19.6502,117.3281],[-70.4981,19.6238,226.2104],[-70.4955,19.6139,258.724],[-70.5032,19.608,248.8327],[-70.5042,19.6026,298.8287],[-70.4958,19.5915,350.522],[-70.4902,19.5807,390.257],[-70.4886,19.5722,415.0613],[-70.4839,19.5633,467.999],[-70.4841,19.5574,497.1088],[-70.4926,19.5422,568.4608],[-70.499,19.541,607.4203],[-70.5028,19.5415,633.1385],[-70.5034,19.544,607.2292],[-70.5012,19.5518,537.8705],[-70.5018,19.5576,503.8432],[-70.509,19.5618,539.4197],[-70.5101,19.5664,530.1026],[-70.5121,19.568,522.4387],[-70.5158,19.5685,543.3369],[-70.5205,19.5645,600.4017],[-70.5275,19.5632,618.7723],[-70.53,19.5612,627.3229],[-70.5309,19.5527,671.0333],[-70.5282,19.544,717.275],[-70.5301,19.5363,770.0527],[-70.5265,19.5288,787.2683],[-70.5286,19.5201,867.1363],[-70.5334,19.5166,923.0229],[-70.5345,19.5089,776.9782],[-70.5398,19.5074,700.7711],[-70.5414,19.5054,634.6467],[-70.548,19.4861,555.4922],[-70.5753,19.4762,307.1082],[-70.5784,19.4721,242.6139],[-70.5755,19.458,223.2307],[-70.5758,19.438,203.1372],[-70.5883,19.428,186.8157],[-70.5903,19.4224,175.9688],[-70.5859,19.4151,177.454],[-70.5866,19.4091,173.9544],[-70.5819,19.4014,167.2275],[-70.5829,19.3952,164.5586],[-70.5761,19.3791,188.1328],[-70.5814,19.3778,179.5091],[-70.5895,19.3802,177.3923],[-70.599,19.3775,181.5688],[-70.604,19.3734,189.7305],[-70.6067,19.367,204.6441],[-70.5983,19.3508,212.4022],[-70.5871,19.3489,220.1476],[-70.5745,19.3416,183.1027],[-70.5321,19.3409,126.9639],[-70.5224,19.3464,145.7123],[-70.5131,19.3481,146.4784],[-70.5073,19.346,141.9846],[-70.4863,19.3322,130.7093],[-70.4953,19.3144,119.2582],[-70.4947,19.3043,116.2706],[-70.489,19.301,113.429],[-70.4817,19.3017,112.4024],[-70.4725,19.3077,111.9868],[-70.4679,19.3278,132.8622],[-70.4593,19.3302,133.4245],[-70.4505,19.3364,139.6239],[-70.453,19.3503,156.4517],[-70.4478,19.3597,174.3356]]]]}}