{"type":"Feature","properties":{"featurecla":"River","scalerank":11,"rivernum":22264,"dissolve":"22264River","name":"null22","name_alt":null,"note":"ID is link back to CEC data","name_full":null,"min_zoom":6.7,"strokeweig":0.15,"uident":2015701,"min_label":7.7},
"geometry":{"type": "LineString","coordinates": [[-70.595082160541239,19.530585028119035,558.8677],[-70.604562954812067,19.504584051556535,371.0213],[-70.595285611062067,19.474147853639863,236.3321],[-70.520375129291239,19.371446030723206,164.8678],[-70.512766079812067,19.303737697389863,119.8313],[-70.5018611318954,19.282253322389863,106.8878]]}}