{"type":"Feature","properties":{"GID_3":"HTI.9.3.1_1","GID_0":"HTI","country":"Haiti","GID_1":"HTI.9_1","province":"Sud-Est","NL_NAME_1":"NA","GID_2":"HTI.9.3_1","county":"Jacmel","NL_NAME_2":"NA","city":"Cayes-Jacmel","VARNAME_3":"Cap-Haïtien","NL_NAME_3":"NA","TYPE_3":"Commune","ENGTYPE_3":"Commune","CC_3":"NA","HASC_3":"NA","name":"Cayes-Jacmel.city"},
"geometry":{"type": "MultiPolygon","coordinates": [[[[-72.3968,18.2293,4.765],[-72.3968,18.2296,4.765],[-72.3971,18.2295,4.765],[-72.3971,18.2293,4.765],[-72.3968,18.2293,4.765]]],
[[[-72.3599,18.234,10.0697],[-72.3573,18.2316,0.9172],[-72.3566,18.2406,116.4347],[-72.3599,18.2619,708.8704],[-72.3653,18.2668,780.0541],[-72.3688,18.2743,782.504],[-72.3682,18.2836,900.2881],[-72.3662,18.2882,906.4141],[-72.3685,18.2992,1064.9609],[-72.3715,18.301,1098.5271],[-72.3728,18.3066,913.1017],[-72.3822,18.3025,902.9857],[-72.3828,18.3007,879.0242],[-72.3802,18.2961,942.9882],[-72.3869,18.2925,824.6635],[-72.3929,18.2905,907.5261],[-72.407,18.2951,903.2947],[-72.4142,18.2871,827.9272],[-72.4296,18.2835,808.3823],[-72.4523,18.2853,827.7393],[-72.4556,18.283,788.4814],[-72.4656,18.2858,744.3154],[-72.4724,18.2899,708.3405],[-72.4696,18.2836,686.8296],[-72.4608,18.2773,711.3152],[-72.4445,18.2754,691.0652],[-72.444,18.2694,685.9042],[-72.4412,18.2666,653.8651],[-72.4411,18.2625,607.7511],[-72.4298,18.2603,559.7904],[-72.4264,18.2619,502.4595],[-72.411,18.2627,460.3893],[-72.4081,18.2614,360.9258],[-72.3996,18.253,142.638],[-72.3977,18.237,41.9295],[-72.3951,18.2311,14.943],[-72.3965,18.2293,3.6672],[-72.3788,18.234,9.4547],[-72.3718,18.234,8.421],[-72.3668,18.2321,6.3679],[-72.3599,18.234,10.0697]]]]}}