{"type":"Feature","properties":{"GID_3":"HTI.3.4.2_1","GID_0":"HTI","country":"Haiti","GID_1":"HTI.3_1","province":"L'Artibonite","NL_NAME_1":"NA","GID_2":"HTI.3.4_1","county":"Marmelade","NL_NAME_2":"NA","city":"SaintMicheldel'Attalaye","VARNAME_3":"NA","NL_NAME_3":"NA","TYPE_3":"Commune","ENGTYPE_3":"Commune","CC_3":"NA","HASC_3":"NA","name":"Saint_Micheldel'Attalaye.city"},
"geometry":{"type": "MultiPolygon","coordinates": [[[[-72.241,19.2574,334.5979],[-72.242,19.2647,339.0041],[-72.2383,19.2701,345.8694],[-72.2311,19.275,338.4589],[-72.2266,19.2748,333.7155],[-72.2208,19.281,338.1042],[-72.2179,19.2868,351.9695],[-72.2033,19.2984,352.5571],[-72.2007,19.3113,338.7697],[-72.206,19.3151,339.6081],[-72.2084,19.319,345.3045],[-72.2239,19.325,361.6633],[-72.2255,19.3276,363.7639],[-72.2243,19.3384,364.9454],[-72.2307,19.3433,375.5261],[-72.2277,19.3439,374.2362],[-72.2333,19.3583,389.2884],[-72.2303,19.3637,389.5883],[-72.2323,19.369,406.6003],[-72.2364,19.373,418.8854],[-72.2415,19.3746,433.7637],[-72.2486,19.3845,498.5009],[-72.2443,19.3864,495.7994],[-72.2426,19.3855,489.7761],[-72.2422,19.3875,508.5589],[-72.2405,19.3878,508.5589],[-72.2288,19.3841,483.429],[-72.2314,19.3915,629.4399],[-72.2293,19.4,663.8788],[-72.2315,19.4072,734.946],[-72.2311,19.4171,720.9031],[-72.223,19.4155,533.7089],[-72.2241,19.4177,625.8926],[-72.2229,19.4191,585.9904],[-72.2299,19.4261,733.4584],[-72.2297,19.4299,689.2186],[-72.2269,19.4331,682.2286],[-72.2501,19.4443,793.1672],[-72.2519,19.4534,815.5338],[-72.257,19.456,929.222],[-72.2536,19.4716,1023.441],[-72.2495,19.4769,1029.4791],[-72.2607,19.4758,1033.7133],[-72.2654,19.4706,1051.5137],[-72.2732,19.4697,963.5215],[-72.2756,19.4639,991.3008],[-72.2821,19.4672,866.6036],[-72.2907,19.4676,861.3387],[-72.297,19.4657,803.847],[-72.3068,19.4654,594.3735],[-72.3204,19.4597,580.7158],[-72.3288,19.4629,590.4155],[-72.329,19.4652,592.8366],[-72.3257,19.4732,652.0427],[-72.3231,19.4773,774.4343],[-72.3222,19.4767,765.5353],[-72.3207,19.4845,832.2444],[-72.33,19.4837,874.4481],[-72.3327,19.4852,877.9923],[-72.3338,19.4885,903.5721],[-72.3474,19.4864,703.891],[-72.3499,19.4889,717.8884],[-72.3534,19.4897,755.9045],[-72.3546,19.4834,707.2061],[-72.3579,19.4831,749.1833],[-72.3577,19.4732,684.5507],[-72.3618,19.4685,670.9537],[-72.3641,19.4624,655.6594],[-72.3692,19.4588,683.0088],[-72.3781,19.4574,690.8316],[-72.3819,19.453,650.0266],[-72.3817,19.4479,600.5767],[-72.378,19.4431,572.8593],[-72.3791,19.4407,585.8489],[-72.3876,19.4445,567.4992],[-72.3872,19.439,538.7219],[-72.39,19.4354,541.7183],[-72.3887,19.4298,530.1619],[-72.3898,19.4262,507.5657],[-72.4063,19.4222,550.1678],[-72.4123,19.4184,605.7147],[-72.4139,19.4157,724.5416],[-72.4108,19.4087,575.9822],[-72.4268,19.4051,649.2892],[-72.4248,19.4011,620.1245],[-72.4251,19.3985,630.4087],[-72.4368,19.3971,976.071],[-72.4472,19.4046,1120.3956],[-72.4595,19.407,1441.1378],[-72.4577,19.4023,1424.8074],[-72.4539,19.4006,1429.8468],[-72.4522,19.3953,1400.9664],[-72.4627,19.392,1097.0793],[-72.4656,19.3894,785.7374],[-72.4676,19.3838,741.0642],[-72.4774,19.3832,612.2684],[-72.4785,19.3821,612.2684],[-72.4766,19.3793,606.591],[-72.4773,19.3776,597.4786],[-72.4823,19.3746,650.9388],[-72.486,19.3684,569.4365],[-72.4953,19.3696,440.7147],[-72.496,19.3598,431.5237],[-72.4933,19.3533,593.4191],[-72.4965,19.337,708.8163],[-72.4978,19.3371,713.3015],[-72.4948,19.3315,717.6787],[-72.487,19.3251,650.7643],[-72.4826,19.3134,542.2041],[-72.4724,19.3042,509.1223],[-72.4597,19.2968,527.0792],[-72.4566,19.2934,525.9551],[-72.4551,19.2883,573.7548],[-72.4277,19.2603,612.7556],[-72.4261,19.2567,561.7833],[-72.4193,19.25,682.4005],[-72.4124,19.2459,449.653],[-72.4093,19.2447,476.1726],[-72.4046,19.2495,509.0728],[-72.3899,19.2412,557.2491],[-72.3841,19.244,505.8164],[-72.3781,19.2419,538.832],[-72.3647,19.2296,642.7027],[-72.3543,19.2313,712.7155],[-72.3487,19.2255,753.225],[-72.3375,19.2218,837.704],[-72.3273,19.215699999999998,649.0646],[-72.3115,19.2138,548.3807],[-72.3045,19.2076,543.2941],[-72.2986,19.2053,453.5332],[-72.2867,19.209,407.2327],[-72.2842,19.2092,393.7795],[-72.2813,19.207,406.5353],[-72.2741,19.213,359.7169],[-72.268,19.2133,340.8485],[-72.2647,19.2173,343.348],[-72.2616,19.2186,328.2475],[-72.2562,19.2274,320.6881],[-72.2488,19.2314,300.7162],[-72.2417,19.2321,292.456],[-72.2391,19.2518,320.7842],[-72.241,19.2574,334.5979]]]]}}