{"type":"Feature","properties":{"ISO3166-1-Alpha-3":"LCA","country":"Saint Lucia","fill":"#00F","id":"5085","name":"Soufrière"},
"geometry":{"type": "Polygon","coordinates": [[[-60.99065,13.86648,431.3491],[-61.01071,13.87149,470.128],[-61.02449,13.89405,389.785],[-61.04078,13.90533,404.1479],[-61.05582,13.90909,233.3015],[-61.06688,13.909,0.0],[-61.07592,13.89037,0.0],[-61.07852,13.87979,74.3541],[-61.07811,13.86961,44.3827],[-61.07559,13.86327,21.1556],[-61.07274,13.85822,0.0],[-61.07116,13.85179,0.0],[-61.07006,13.8321,0.0],[-61.07116,13.82197,0.0],[-61.07811,13.8063,0.0],[-61.07421,13.79873,0.0],[-61.0681,13.79218,36.4227],[-61.04956,13.80632,243.0201],[-61.02574,13.8176,462.1051],[-60.99191,13.83013,433.656],[-60.98158,13.83577,357.5715],[-60.97522,13.83923,295.2267],[-60.96433,13.84517,211.5573],[-60.96057,13.86898,390.7935],[-60.96057,13.87901,327.867],[-60.97185,13.88277,311.5538],[-60.98063,13.8928,284.8091],[-60.98313,13.874,208.8972],[-60.99065,13.86648,431.3491]]]}}