{"type": "Feature","bbox": [-61.0801,13.801,-60.98,13.8962],"geometry": {"type": "MultiPolygon","coordinates": [[[[-61.0291,13.887,194.9926],[-61.0351,13.8866,140.7846],[-61.0391,13.8818,411.6739],[-61.0423,13.8864,309.8341],[-61.0458,13.8859,278.3136],[-61.0485,13.8892,235.2178],[-61.0605,13.8909,192.7621],[-61.0715,13.8962,13.0217],[-61.0737,13.8935,0.0],[-61.0793,13.8826,0.0],[-61.0785,13.8654,6.4633],[-61.0801,13.8629,1.7083],[-61.0715,13.861,55.5988],[-61.0687,13.8565,0.0],[-61.0629,13.8579,5.5895],[-61.0629,13.8557,0.0],[-61.0604,13.8546,3.4724],[-61.0599,13.8524,2.749],[-61.0624,13.8499,24.3329],[-61.064,13.8404,35.3036],[-61.0687,13.8368,0.0],[-61.0679,13.8296,0.0],[-61.064,13.8279,0.0],[-61.0638,13.8235,36.9617],[-61.066,13.8193,2.0218],[-61.0707,13.8171,0.0],[-61.0785,13.8096,0.0],[-61.0785,13.8065,0.0],[-61.076,13.804,0.0],[-61.0692,13.801,4.3571],[-61.0644,13.8034,126.3173],[-61.0594,13.811,217.3334],[-61.0506,13.8136,251.2576],[-61.044,13.8189,324.1134],[-61.0289,13.8215,436.7167],[-61.004,13.842,593.3843],[-60.9986,13.8437,504.1425],[-60.9924,13.8427,581.0283],[-60.98,13.8612,269.5757],[-60.9828,13.8671,287.2006],[-60.9878,13.8708,241.3062],[-60.9894,13.8759,184.598],[-60.9974,13.8685,284.0016],[-61.0052,13.8566,639.9977],[-61.0091,13.8543,811.5627],[-61.0137,13.8545,614.1635],[-61.025,13.8716,328.8527],[-61.0237,13.8812,271.0191],[-61.0291,13.887,194.9926]]]]}
,"properties": {"GID_1": "LCA.9_1","GID_0": "LCA","country": "SaintLucia","province": "Soufrière","VARNAME_1": "NA","NL_NAME_1": "NA","TYPE_1": "Quarter","ENGTYPE_1": "Quarter","CC_1": "NA","HASC_1": "LC.CO","ISO_1": "NA","name": "Soufrière.province","area_km2": 54.2223,"hist_schema_id": "Elevation0-9000","hist_area_km2": {"0": 1.60577,"25": 1.56447,"50": 1.58504,"75": 1.50268,"100": 2.2026,"125": 1.81144,"150": 1.93494,"175": 2.09969,"200": 1.95556,"225": 2.05853,"250": 2.73786,"275": 2.55261,"300": 2.9643099999999998,"325": 2.96437,"350": 3.56135,"375": 3.41727,"400": 2.88205,"425": 2.9644,"450": 2.47032,"475": 1.74978,"500": 1.42041,"525": 1.21455,"550": 1.27632,"575": 1.39982,"600": 1.21457,"625": 0.51464,"650": 0.18526,"675": 0.12351,"700": 0.12351,"725": 0.06176,"750": 0.04117,"800": 0.02059,"850": 0.04117}}}