{"type": "Feature","bbox": [-71.2922,18.1136,-71.1908,18.3043],"geometry": {"type": "MultiPolygon","coordinates": [[[[-71.2235,18.3043,4.763],[-71.2289,18.2956,3.5],[-71.236,18.2747,3.5],[-71.247,18.2727,3.5],[-71.2618,18.2646,3.5],[-71.2626,18.2575,3.5],[-71.2682,18.2443,38.5506],[-71.2772,18.2416,71.5772],[-71.285,18.2344,119.0267],[-71.2867,18.226,232.5846],[-71.2915,18.2164,484.7929],[-71.2922,18.2104,536.1673],[-71.2873,18.2068,645.577],[-71.285,18.1971,865.2151],[-71.2744,18.1853,945.2351],[-71.2717,18.1763,1025.1254],[-71.2738,18.1679,1346.1769],[-71.2694,18.1539,1272.9688],[-71.241,18.1455,957.2098],[-71.2298,18.1382,1144.401],[-71.2192,18.1254,1416.3867],[-71.2054,18.1199,1589.0684],[-71.1961,18.1136,1252.2057],[-71.1925,18.1155,1438.5371],[-71.1908,18.1208,1491.4482],[-71.1957,18.1217,1507.2085],[-71.197,18.1271,1270.8193],[-71.1967,18.1599,741.2429],[-71.1911,18.1716,535.6702],[-71.1937,18.1804,499.6804],[-71.1941,18.2009,458.9854],[-71.1991,18.2113,296.0988],[-71.1999,18.2174,172.558],[-71.1993,18.2242,125.5943],[-71.1945,18.2329,128.9938],[-71.1973,18.2468,33.0749],[-71.2003,18.2522,15.5532],[-71.2117,18.2535,8.2777],[-71.213,18.2513,8.903],[-71.2168,18.2508,11.6738],[-71.2228,18.2547,5.8318],[-71.2189,18.266,6.4931],[-71.2066,18.2717,7.9529],[-71.2079,18.278,8.5337],[-71.2041,18.2872,6.2231],[-71.2081,18.2939,5.5164],[-71.2096,18.3033,5.9858],[-71.2235,18.3043,4.763]]]]}
,"properties": {"GID_2": "DOM.3.1_1","GID_0": "DOM","country": "DominicanRepublic","GID_1": "DOM.3_1","province": "Barahona","NL_NAME_1": "NA","county": "Cabral","VARNAME_2": "NA","NL_NAME_2": "NA","TYPE_2": "Municipio","ENGTYPE_2": "Municipality","CC_2": "NA","HASC_2": "DO.BH.CA","name": "Cabral.county","area_km2": 130.2503,"hist_schema_id": "Elevation0-9000","hist_area_km2": {"0": 20.0526,"25": 6.6651,"50": 4.4301,"75": 3.9066,"100": 4.088,"125": 4.6721,"150": 3.7659,"175": 2.6584,"200": 2.316,"225": 2.5779,"250": 2.6585,"275": 2.6384,"300": 2.5176,"325": 2.578,"350": 2.0343,"375": 2.1954,"400": 2.3566,"425": 1.9538,"450": 2.417,"475": 2.9609,"500": 3.0818,"525": 2.9006,"550": 1.9136,"575": 1.7524,"600": 1.8532,"625": 2.0346,"650": 1.6921,"675": 1.9339,"700": 1.8936,"725": 2.2562,"750": 1.8534,"775": 1.6116,"800": 1.6116,"825": 1.5713,"850": 1.6519,"875": 1.8131,"900": 1.6922,"925": 1.3296,"950": 1.3498,"975": 1.0274,"1000": 1.1483,"1025": 0.967,"1050": 0.6648,"1075": 0.8059,"1100": 0.8865,"1125": 0.8462,"1150": 0.9268,"1175": 0.7455,"1200": 0.685,"1225": 0.5642,"1250": 0.4634,"1275": 0.6246,"1300": 0.5843,"1325": 0.7254,"1350": 0.5037,"1375": 0.5239,"1400": 0.403,"1425": 0.5843,"1450": 0.2217,"1475": 0.2015,"1500": 0.2418,"1525": 0.1612,"1550": 0.3224,"1575": 0.1411,"1600": 0.0403}}}