{"type":"Feature","properties":{"GID_2":"DOM.30.3_1","GID_0":"DOM","country":"DominicanRepublic","GID_1":"DOM.30_1","province":"Santiago","NL_NAME_1":"NA","county":"Puñal","VARNAME_2":"NA","NL_NAME_2":"NA","TYPE_2":"Distritomunicipal","ENGTYPE_2":"Municipaldistrict","CC_2":"NA","HASC_2":"DO.ST.PU","name":"Puñal.county"},
"geometry":{"type": "MultiPolygon","coordinates": [[[[-70.5829,19.3952,164.5586],[-70.596,19.4005,166.3848],[-70.6093,19.3987,165.9815],[-70.6148,19.4032,169.3877],[-70.6171,19.3991,166.9319],[-70.6168,19.3894,171.9569],[-70.6303,19.3885,183.5183],[-70.6403,19.3849,197.0165],[-70.6436,19.3816,211.8907],[-70.6424,19.3671,219.3403],[-70.637,19.3581,231.0666],[-70.6321,19.354,242.2331],[-70.6315,19.3611,213.3548],[-70.6283,19.3659,206.5788],[-70.6128,19.3642,199.7988],[-70.6067,19.367,204.6441],[-70.604,19.3734,189.7305],[-70.599,19.3775,181.5688],[-70.5895,19.3802,177.3923],[-70.5814,19.3778,179.5091],[-70.577,19.3782,206.0678],[-70.5762,19.3814,183.5977],[-70.5829,19.3952,164.5586]]]]}}