{"type": "Feature","bbox": [-65.7535,18.2673,-65.5274,18.3982],"geometry": {"type": "MultiPolygon","coordinates": [[[[-65.6082,18.314,1.557],[-65.6101,18.3149,1.557],[-65.6113,18.3126,0.6407],[-65.6082,18.311,0.7556],[-65.6082,18.314,1.557]]],
[[[-65.6374,18.2842,6.5338],[-65.6338,18.2837,5.6946],[-65.6304,18.2851,0.0],[-65.6318,18.2896,0.0],[-65.6343,18.2882,0.0],[-65.6354,18.291,4.7582],[-65.6315,18.2951,0.0],[-65.6276,18.2965,0.0],[-65.6249,18.3032,5.3867],[-65.626,18.3054,6.1712],[-65.6251,18.309,4.8663],[-65.6276,18.3099,12.3508],[-65.6279,18.3135,0.0],[-65.6265,18.3318,0.0],[-65.6301,18.3362,0.0],[-65.6338,18.3374,15.4228],[-65.6335,18.3393,20.014],[-65.6307,18.3404,0.0],[-65.6304,18.3432,0.0],[-65.6346,18.3438,0.0],[-65.6363,18.346,3.2862],[-65.6329,18.3454,0.0],[-65.6329,18.3501,11.0104],[-65.6249,18.3557,13.8435],[-65.6232,18.3596,0.0],[-65.6249,18.3643,7.6011],[-65.619,18.3662,0.7491],[-65.6171,18.3782,3.5435],[-65.6137,18.3807,0.0],[-65.6135,18.3835,0.0],[-65.6165,18.3849,5.3313],[-65.6176,18.3882,2.709],[-65.6207,18.3863,5.1945],[-65.6246,18.3874,0.0],[-65.6235,18.3832,7.5391],[-65.6268,18.3813,0.0],[-65.6274,18.3754,7.6968],[-65.6357,18.3688,2.2965],[-65.639,18.3699,10.1359],[-65.6404,18.374,0.0],[-65.639,18.3765,4.5879],[-65.6421,18.3771,0.0],[-65.6424,18.3801,0.0],[-65.6443,18.381,0.0],[-65.6438,18.3785,2.0219],[-65.6482,18.3749,6.0457],[-65.6496,18.3713,7.2214],[-65.6518,18.3707,0.0],[-65.6521,18.3674,0.0],[-65.6551,18.3646,9.3225],[-65.6695,18.3621,0.0],[-65.6798,18.3463,52.5428],[-65.6779,18.3425,36.0233],[-65.683,18.3321,151.4889],[-65.6858,18.3302,229.0453],[-65.6845,18.3235,233.4198],[-65.6868,18.3225,163.208],[-65.6951,18.325,238.9493],[-65.7039,18.3207,304.9425],[-65.7044,18.3093,278.8171],[-65.71,18.3064,373.773],[-65.7192,18.3064,473.3908],[-65.7206,18.3041,416.084],[-65.7206,18.296,410.6834],[-65.7253,18.295,463.0311],[-65.7257,18.2922,481.8624],[-65.7336,18.2879,553.709],[-65.7378,18.2965,660.3423],[-65.7438,18.2994,591.9413],[-65.7502,18.3013,621.2456],[-65.7535,18.297,509.5573],[-65.7373,18.2827,372.7379],[-65.7406,18.2798,285.15],[-65.7373,18.2736,241.2029],[-65.735,18.275,198.9437],[-65.7161,18.2673,96.0959],[-65.6999,18.273,84.1164],[-65.7022,18.2749,73.9911],[-65.6952,18.2859,58.4127],[-65.6828,18.2753,105.524],[-65.6791,18.2744,125.4061],[-65.6749,18.2796,213.1065],[-65.6749,18.2834,277.8836],[-65.6684,18.2848,169.1497],[-65.6661,18.2882,97.8782],[-65.6541,18.2829,42.7401],[-65.6462,18.2814,29.4751],[-65.6374,18.2842,6.5338]]],
[[[-65.6193,18.3415,0.9188],[-65.6221,18.3421,0.0],[-65.6224,18.3399,0.3241],[-65.621,18.3382,0.0],[-65.6182,18.3382,2.0404],[-65.6193,18.3357,0.0],[-65.6176,18.3354,0.0],[-65.6162,18.3385,0.0],[-65.6179,18.3385,2.0404],[-65.6193,18.3415,0.9188]]],
[[[-65.5904,18.3907,0.0],[-65.5921,18.391,1.4906],[-65.5915,18.3924,0.0],[-65.5943,18.3912,0.0],[-65.5907,18.3835,0.0],[-65.5851,18.3818,0.0],[-65.5829,18.3854,0.0],[-65.5799,18.3832,2.3615],[-65.5815,18.3813,0.0],[-65.5785,18.381,0.0],[-65.5799,18.3857,0.0],[-65.5904,18.3907,0.0]]],
[[[-65.5674,18.3515,18.5244],[-65.5682,18.3526,0.0],[-65.5746,18.3521,0.0],[-65.5693,18.3474,18.276],[-65.5687,18.3435,0.0],[-65.5646,18.3465,0.0],[-65.5674,18.3515,18.5244]]],
[[[-65.529,18.3651,0.0],[-65.5321,18.3646,0.0],[-65.5296,18.3626,1.2012],[-65.5321,18.3632,0.0],[-65.5324,18.3613,0.0],[-65.5276,18.3621,0.0],[-65.5274,18.3643,0.0],[-65.529,18.3651,0.0]]],
[[[-65.5457,18.3715,0.0],[-65.5468,18.3724,0.0],[-65.5493,18.3662,0.0],[-65.5454,18.3682,0.0],[-65.5457,18.3715,0.0]]],
[[[-65.5515,18.3718,0.0],[-65.551,18.3743,0.0],[-65.5565,18.3699,0.0],[-65.5535,18.3701,0.0],[-65.5515,18.3718,0.0]]],
[[[-65.5696,18.3824,0.0],[-65.5721,18.3821,0.0],[-65.5699,18.3796,0.0],[-65.5721,18.3804,0.0],[-65.5721,18.3751,0.0],[-65.5649,18.3774,0.0],[-65.5696,18.3824,0.0]]],
[[[-65.5965,18.3982,0.0],[-65.5999,18.3982,0.0],[-65.599,18.3957,0.0],[-65.5974,18.3957,0.0],[-65.5965,18.3982,0.0]]]]}
,"properties": {"GID_1": "PRI.27_1","GID_0": "PRI","country": "PuertoRico","province": "Fajardo","VARNAME_1": "NA","NL_NAME_1": "NA","TYPE_1": "Municipio","ENGTYPE_1": "Municipality","CC_1": "NA","HASC_1": "PR.FJ","ISO_1": "-","name": "Fajardo.province","area_km2": 81.47731,"hist_schema_id": "Elevation0-9000","hist_area_km2": {"0": 18.83711,"25": 20.50936,"50": 10.08396,"75": 8.19252,"100": 4.67013,"125": 3.26106,"150": 2.31497,"175": 2.41561,"200": 1.83187,"225": 1.55003,"250": 1.24808,"275": 0.98637,"300": 0.68445,"325": 0.7247,"350": 0.62406,"375": 0.64419,"400": 0.54354,"425": 0.36235,"450": 0.52341,"475": 0.28183,"500": 0.24157,"525": 0.20131,"550": 0.22144,"575": 0.12078,"600": 0.2013,"625": 0.12078,"650": 0.04026,"675": 0.04026}}}