{"type": "Feature","bbox": [-62.8364,17.8931,-62.8277,17.8999],"geometry": {"type": "MultiPolygon","coordinates": [[[[-62.8277,17.8952,7.3717],[-62.8292,17.8986,21.344],[-62.8335,17.8999,51.5025],[-62.8364,17.8969,47.8291],[-62.8325,17.8931,87.9276],[-62.8277,17.8952,7.3717]]]]}
,"properties": {"GID_2": "BLM.1.15_1","GID_0": "BLM","country": "Saint-Barthélemy","GID_1": "BLM.1_1","province": "AuVent","NL_NAME_1": "NA","county": "MornedeDépoudré","VARNAME_2": "NA","NL_NAME_2": "NA","TYPE_2": "Quartier","ENGTYPE_2": "Quarter","CC_2": "NA","HASC_2": "NA","name": "Mornede_Dépoudré.county","area_km2": 0.4237021,"hist_schema_id": "Elevation0-9000","hist_area_km2": {"25": 0.0807055,"50": 0.1008815,"75": 0.1614101,"100": 0.0605287,"125": 0.0201763}}}