{"type":"Feature","properties":{"GID_3":"HTI.5.3.3_1","GID_0":"HTI","country":"Haiti","GID_1":"HTI.5_1","province":"Nord-Est","NL_NAME_1":"NA","GID_2":"HTI.5.3_1","county":"Ouanaminthe","NL_NAME_2":"NA","city":"Ouanaminthe","VARNAME_3":"NA","NL_NAME_3":"NA","TYPE_3":"Commune","ENGTYPE_3":"Commune","CC_3":"NA","HASC_3":"NA","name":"Ouanaminthe.city"},
"geometry":{"type": "MultiPolygon","coordinates": [[[[-71.7373,19.4383,158.1332],[-71.7309,19.4441,142.4904],[-71.7325,19.4464,148.2493],[-71.7357,19.4464,159.8132],[-71.7344,19.4504,140.722],[-71.7293,19.4509,132.8046],[-71.7253,19.4494,131.1964],[-71.7277,19.4552,129.082],[-71.7263,19.4567,126.3921],[-71.7264,19.4643,117.7278],[-71.7229,19.4627,123.3197],[-71.7211,19.466,112.5958],[-71.7112,19.4665,114.3516],[-71.7103,19.471,98.1611],[-71.714,19.4755,120.3004],[-71.7149,19.4798,137.0318],[-71.7046,19.4941,113.9199],[-71.7044,19.4994,104.8343],[-71.7073,19.5079,89.067],[-71.707,19.5169,63.9947],[-71.7171,19.5293,45.1499],[-71.7185,19.5367,41.9322],[-71.7104,19.5442,40.4398],[-71.7109,19.5555,31.8473],[-71.7129,19.5567,32.1486],[-71.7176,19.566,26.7986],[-71.742,19.5888,18.5228],[-71.7504,19.5891,18.9566],[-71.753,19.5869,17.8998],[-71.7685,19.5874,19.6054],[-71.7707,19.5838,16.9647],[-71.7728,19.5859,19.8577],[-71.7819,19.586,18.2524],[-71.7851,19.5814,21.7501],[-71.7861,19.5836,19.7673],[-71.7958,19.5815,22.4333],[-71.7963,19.5837,22.6453],[-71.8001,19.5867,24.7346],[-71.8002,19.59,23.6524],[-71.8039,19.5927,30.5576],[-71.8119,19.5897,54.6066],[-71.8183,19.5848,49.8292],[-71.8173,19.5745,46.7698],[-71.8094,19.5695,30.8911],[-71.8093,19.564,36.1267],[-71.8053,19.5638,30.8439],[-71.8064,19.5613,37.3442],[-71.8091,19.5602,37.9413],[-71.8098,19.5569,31.9548],[-71.8135,19.5593,32.538],[-71.8162,19.5574,35.8942],[-71.8157,19.5543,43.851],[-71.8206,19.555,42.9987],[-71.8197,19.5509,40.9961],[-71.8226,19.5499,41.2369],[-71.822,19.5456,51.6864],[-71.8246,19.5427,59.0429],[-71.8218,19.5425,50.6551],[-71.8207,19.5402,52.1946],[-71.8225,19.5333,59.744],[-71.828,19.527,78.1805],[-71.8334,19.5251,82.0196],[-71.8344,19.5232,84.1486],[-71.8366,19.5169,89.964],[-71.836,19.5099,120.3021],[-71.8384,19.5069,119.1345],[-71.8379,19.4951,410.7117],[-71.836,19.4912,400.2219],[-71.8383,19.4859,339.3642],[-71.8371,19.4825,391.5272],[-71.8282,19.4781,173.0392],[-71.8281,19.4755,156.2497],[-71.8314,19.4688,179.9676],[-71.8391,19.4627,293.6874],[-71.847,19.4477,871.5482],[-71.8394,19.4395,665.2261],[-71.8323,19.4427,697.0386],[-71.8217,19.4383,478.6566],[-71.8192,19.4407,438.0672],[-71.8142,19.4399,407.2109],[-71.8065,19.4418,316.2122],[-71.7985,19.4401,368.4429],[-71.7796,19.4174,662.7869],[-71.757,19.4027,649.8783],[-71.752,19.4034,601.9906],[-71.7514,19.4093,313.9635],[-71.7528,19.4128,285.058],[-71.7507,19.4179,218.0658],[-71.7508,19.4241,198.0207],[-71.7473,19.4267,193.855],[-71.7468,19.4305,181.1683],[-71.7429,19.4334,164.3988],[-71.7412,19.4375,157.3888],[-71.7373,19.4383,158.1332]]]]}}