{"type":"Feature","properties":{"GID_3":"HTI.1.2.1_1","GID_0":"HTI","country":"Haiti","GID_1":"HTI.1_1","province":"Centre","NL_NAME_1":"NA","GID_2":"HTI.1.2_1","county":"Hinche","NL_NAME_2":"NA","city":"CercaCarvajal","VARNAME_3":"NA","NL_NAME_3":"NA","TYPE_3":"Commune","ENGTYPE_3":"Commune","CC_3":"NA","HASC_3":"NA","name":"Cerca_Carvajal.city"},
"geometry":{"type": "MultiPolygon","coordinates": [[[[-71.8539,19.2698,957.3691],[-71.8656,19.2798,969.5914],[-71.8725,19.2758,965.2281],[-71.8794,19.2746,963.3491],[-71.8876,19.2767,940.9161],[-71.893,19.2747,935.8046],[-71.9007,19.2754,837.0989],[-71.9028,19.2842,657.2479],[-71.9072,19.2885,515.5082],[-71.9092,19.2886,518.0138],[-71.9095,19.2908,575.7132],[-71.9069,19.294,612.5784],[-71.9139,19.3007,615.5914],[-71.914,19.3055,722.9209],[-71.9418,19.3081,806.946],[-71.9602,19.3127,551.2947],[-71.9789,19.3311,488.7573],[-71.9871,19.3346,446.5331],[-71.9919,19.3328,432.918],[-71.9986,19.3259,413.4862],[-72.0038,19.3238,400.7189],[-72.0087,19.3273,415.2975],[-72.0221,19.3244,425.4149],[-72.0227,19.3149,438.2707],[-72.0309,19.3073,431.4639],[-72.0246,19.2984,607.347],[-72.0172,19.2985,703.0116],[-72.0173,19.2934,659.0103],[-72.0157,19.2911,657.0092],[-72.0097,19.286,626.0706],[-72.0065,19.2791,541.223],[-71.9998,19.274,483.6432],[-72.0027,19.27,475.8656],[-71.9961,19.2672,483.5987],[-71.989,19.2596,487.9916],[-71.9794,19.2549,438.4185],[-71.9731,19.2466,398.1181],[-71.9763,19.2255,422.3076],[-71.9749,19.2239,437.7891],[-71.9715,19.2245,551.8203],[-71.9728,19.2195,492.117],[-71.9619,19.2056,568.8804],[-71.9602,19.2049,550.4055],[-71.9575,19.2065,546.2601],[-71.9569,19.2013,541.4415],[-71.9531,19.1978,540.7257],[-71.9507,19.1968,516.2421],[-71.9479,19.1981,576.4432],[-71.9384,19.1886,556.3331],[-71.9284,19.1854,596.4942],[-71.9182,19.1861,607.3314],[-71.916,19.1886,614.3235],[-71.9048,19.1933,702.7029],[-71.9001,19.1986,742.2743],[-71.8898,19.1998,696.6292],[-71.8865,19.2022,768.4324],[-71.8834,19.2075,795.397],[-71.8778,19.2082,791.0077],[-71.8781,19.2118,786.4084],[-71.8849,19.2194,838.1942],[-71.8847,19.222,875.4044],[-71.8607,19.2449,797.6447],[-71.8546,19.2611,948.1866],[-71.8539,19.2698,957.3691]]]]}}