{"type":"Feature","properties":{"GID_2":"CUB.16.9_1","GID_0":"CUB","country":"Cuba","GID_1":"CUB.16_1","province":"VillaClara","NL_NAME_1":"NA","county":"Ranchuelo","VARNAME_2":"NA","NL_NAME_2":"NA","TYPE_2":"Municipio","ENGTYPE_2":"Municipality","CC_2":"NA","HASC_2":"CU.VC.RA","name":"Ranchuelo.county"},
"geometry":{"type": "MultiPolygon","coordinates": [[[[-80.0921,22.2057,170.0648],[-80.0603,22.2362,160.688],[-80.0374,22.2324,191.5085],[-80.0229,22.2358,181.8371],[-80.0195,22.2455,156.7776],[-80.02,22.2775,212.9746],[-80.0421,22.309,150.3057],[-80.0632,22.3282,130.7238],[-80.0654,22.4274,93.9503],[-80.0635,22.4356,81.5382],[-80.0574,22.4424,84.0],[-80.0165,22.4621,103.8157],[-80.0085,22.4694,100.0127],[-80.0767,22.4917,186.1261],[-80.0844,22.4904,137.5916],[-80.0993,22.48,108.5066],[-80.1076,22.4774,96.4608],[-80.1469,22.4763,72.6439],[-80.1569,22.478,63.3919],[-80.161,22.4875,58.621],[-80.1542,22.5037,69.0657],[-80.154,22.5151,72.7651],[-80.1753,22.5508,88.9539],[-80.2403,22.5188,60.8327],[-80.2563,22.5142,70.0602],[-80.2462,22.4976,67.3747],[-80.2445,22.4897,68.6093],[-80.248,22.4805,73.3058],[-80.252,22.4763,72.7489],[-80.252,22.474,75.0896],[-80.2491,22.4699,77.0062],[-80.2315,22.4634,79.4095],[-80.2242,22.4555,78.013],[-80.2228,22.4461,79.9201],[-80.2251,22.436,87.7369],[-80.226,22.4195,98.6534],[-80.2138,22.4038,111.894],[-80.2099,22.3929,110.0867],[-80.2094,22.3817,105.0741],[-80.2108,22.3773,110.8465],[-80.2145,22.3749,114.9363],[-80.2257,22.3732,111.6249],[-80.2281,22.3702,112.9756],[-80.228,22.367,118.0811],[-80.2244,22.3567,121.0002],[-80.1963,22.3185,100.5963],[-80.1881,22.3139,104.7545],[-80.1781,22.3111,111.2097],[-80.1312,22.3004,81.0934],[-80.1091,22.2977,118.5269],[-80.1068,22.2936,122.3988],[-80.1067,22.2892,114.5173],[-80.1101,22.2859,116.5897],[-80.1367,22.2826,90.2552],[-80.1442,22.2798,76.9081],[-80.1472,22.2759,77.0787],[-80.1468,22.2715,79.1062],[-80.1423,22.2666,83.1229],[-80.1273,22.2615,103.4433],[-80.1238,22.258,101.6052],[-80.1151,22.2407,130.7778],[-80.0995,22.223,186.321],[-80.0933,22.2116,182.6198],[-80.0921,22.2057,170.0648]]]]}}