{"type":"Feature","properties":{"GID_3":"HTI.7.5.2_1","GID_0":"HTI","country":"Haiti","GID_1":"HTI.7_1","province":"Nord","NL_NAME_1":"NA","GID_2":"HTI.7.5_1","county":"leLimbé","NL_NAME_2":"NA","city":"Limbé","VARNAME_3":"NA","NL_NAME_3":"NA","TYPE_3":"Commune","ENGTYPE_3":"Commune","CC_3":"NA","HASC_3":"NA","name":"Limbé.city"},
"geometry":{"type": "MultiPolygon","coordinates": [[[[-72.4144,19.5693,309.3986],[-72.4034,19.5772,534.2174],[-72.4028,19.58,533.6074],[-72.4063,19.5832,414.5389],[-72.4032,19.5943,601.1075],[-72.4063,19.5985,783.757],[-72.4026,19.6036,686.0476],[-72.4044,19.6095,785.9326],[-72.3958,19.6108,776.2722],[-72.3952,19.6168,805.5461],[-72.3971,19.6184,769.7873],[-72.3966,19.6308,695.7532],[-72.3774,19.6506,79.8189],[-72.3721,19.6516,59.5199],[-72.3707,19.6552,53.3162],[-72.3652,19.6545,68.9016],[-72.3589,19.6577,72.9738],[-72.361,19.6659,339.8101],[-72.3472,19.6823,254.3485],[-72.3422,19.6855,248.532],[-72.3414,19.691,314.3323],[-72.3473,19.6995,201.6651],[-72.3529,19.7036,201.9912],[-72.3542,19.709,133.581],[-72.3616,19.7124,374.1252],[-72.3636,19.7179,341.6058],[-72.3686,19.7199,526.3232],[-72.3709,19.7235,582.8229],[-72.381,19.7257,229.8712],[-72.3855,19.7244,84.6473],[-72.3883,19.721,26.0649],[-72.3892,19.7166,20.1964],[-72.3925,19.718,24.7193],[-72.3942,19.7155,22.1631],[-72.3979,19.715,24.1217],[-72.3982,19.7128,20.3491],[-72.3926,19.7071,24.7492],[-72.398,19.7069,28.4022],[-72.4092,19.7078,31.8068],[-72.4109,19.7132,29.7174],[-72.4176,19.7145,72.3384],[-72.4289,19.7232,194.3864],[-72.4288,19.7196,129.2631],[-72.4345,19.7136,297.4775],[-72.4342,19.709,345.8752],[-72.4464,19.7003,336.2702],[-72.4442,19.694,346.1733],[-72.4458,19.6926,326.8005],[-72.4462,19.6855,595.1478],[-72.4605,19.677,1027.5151],[-72.4578,19.6742,945.8776],[-72.458,19.6707,695.344],[-72.4603,19.6687,671.2013],[-72.4614,19.6628,911.6495],[-72.4544,19.652,579.3367],[-72.4512,19.6428,669.9758],[-72.4512,19.6288,540.5302],[-72.4537,19.6239,669.5144],[-72.4482,19.6167,507.7527],[-72.4486,19.6137,441.9131],[-72.4519,19.6107,450.732],[-72.4497,19.6057,493.0197],[-72.4449,19.6024,517.2834],[-72.4464,19.6013,552.5425],[-72.4442,19.5935,517.9948],[-72.4458,19.5898,519.6762],[-72.4438,19.5855,602.3732],[-72.4273,19.5731,646.218],[-72.4231,19.5652,600.8245],[-72.4144,19.5693,309.3986]]]]}}