{"type":"Feature","properties":{"GID_2":"HTI.3.1_1","GID_0":"HTI","country":"Haiti","GID_1":"HTI.3_1","province":"L'Artibonite","NL_NAME_1":"NA","county":"Dessalines","VARNAME_2":"NA","NL_NAME_2":"NA","TYPE_2":"Arrondissement","ENGTYPE_2":"District","CC_2":"NA","HASC_2":"HT.AR.DS","name":"Dessalines.county"},
"geometry":{"type": "MultiPolygon","coordinates": [[[[-72.2256,18.9539,234.5914],[-72.2259,18.9582,193.2723],[-72.2343,18.9643,244.0131],[-72.2382,18.9702,324.186],[-72.241,18.985,568.8873],[-72.237,18.993,540.8298],[-72.2378,19.002,478.0214],[-72.2445,19.0104,734.866],[-72.2445,19.0172,1003.5806],[-72.2485,19.0268,804.2748],[-72.2454,19.033,907.7934],[-72.2385,19.0367,933.16],[-72.2414,19.0434,916.2032],[-72.2401,19.0497,1089.7205],[-72.2325,19.0558,1261.7169],[-72.2288,19.0627,1516.3022],[-72.2267,19.0725,1381.7606],[-72.2218,19.0803,1161.0626],[-72.2217,19.0833,1139.1475],[-72.2385,19.0998,1058.5968],[-72.2406,19.1156,656.2697],[-72.2394,19.1179,609.8057],[-72.2208,19.1271,464.2905],[-72.2196,19.1309,502.7168],[-72.2312,19.1419,720.7504],[-72.2425,19.1561,537.8043],[-72.255,19.161,399.022],[-72.2544,19.1669,342.4552],[-72.2603,19.1766,399.2403],[-72.2609,19.1876,397.3813],[-72.2643,19.1916,410.2422],[-72.2633,19.1953,374.0767],[-72.2579,19.2023,347.4008],[-72.2575,19.2066,347.9509],[-72.2657,19.216,351.4371],[-72.268,19.2133,340.8485],[-72.2741,19.213,359.7169],[-72.2772,19.2112,405.3106],[-72.2813,19.207,406.5353],[-72.2842,19.2092,393.7795],[-72.2867,19.209,407.2327],[-72.2986,19.2053,453.5332],[-72.3045,19.2076,543.2941],[-72.3115,19.2138,548.3807],[-72.3273,19.215699999999998,649.0646],[-72.3375,19.2218,837.704],[-72.3487,19.2255,753.225],[-72.3543,19.2313,712.7155],[-72.3647,19.2296,642.7027],[-72.3781,19.2419,538.832],[-72.3841,19.244,505.8164],[-72.3899,19.2412,557.2491],[-72.4046,19.2495,509.0728],[-72.4093,19.2447,476.1726],[-72.4124,19.2459,449.653],[-72.4193,19.25,682.4005],[-72.4261,19.2567,561.7833],[-72.4277,19.2603,612.7556],[-72.4551,19.2883,573.7548],[-72.4566,19.2934,525.9551],[-72.4597,19.2968,527.0792],[-72.4724,19.3042,509.1223],[-72.4826,19.3134,542.2041],[-72.487,19.3251,650.7643],[-72.4948,19.3315,717.6787],[-72.4978,19.3371,713.3015],[-72.5084,19.3375,547.9813],[-72.5105,19.3366,625.7437],[-72.5106,19.3323,685.3339],[-72.5235,19.3307,545.1543],[-72.5301,19.3258,350.3635],[-72.5339,19.3151,484.4972],[-72.538,19.3123,537.6021],[-72.5408,19.3118,492.5805],[-72.5464,19.3176,451.5072],[-72.5548,19.3135,190.569],[-72.56,19.3131,205.6095],[-72.5625,19.3088,120.3002],[-72.5622,19.3049,7.3081],[-72.5648,19.3023,4.6793],[-72.5827,19.3039,5.1531],[-72.5904,19.3106,5.2157],[-72.5936,19.3114,5.1318],[-72.5996,19.306,5.9423],[-72.6069,19.305,5.7212],[-72.6086,19.3033,6.7652],[-72.6078,19.3009,5.1236],[-72.6105,19.2989,6.0176],[-72.6115,19.3006,5.2785],[-72.6167,19.2986,3.9027],[-72.6207,19.3032,3.4273],[-72.6234,19.3041,3.4997],[-72.6296,19.3019,2.3408],[-72.6465,19.3037,2.7064],[-72.6516,19.3131,2.0304],[-72.6514,19.3164,2.1049],[-72.6568,19.3163,2.6843],[-72.6619,19.3204,2.1429],[-72.6638,19.3253,2.3304],[-72.6803,19.3349,1.5411],[-72.6963,19.3393,-0.4374],[-72.7015,19.3447,0.1965],[-72.7022,19.3508,0.494],[-72.707,19.3551,-0.1675],[-72.7103,19.3555,0.2164],[-72.7118,19.3603,-0.0164],[-72.7142,19.3614,0.0448],[-72.7187,19.3601,0.0147],[-72.7189,19.3624,0.1188],[-72.7254,19.3693,0.0],[-72.729,19.3679,0.0],[-72.7312,19.3649,-0.0142],[-72.7335,19.3651,0.0104],[-72.7337,19.3635,0.0079],[-72.7354,19.3646,0.0],[-72.7374,19.3635,-0.1167],[-72.7461,19.3721,0.0],[-72.7474,19.3751,-0.0255],[-72.7585,19.3763,0.0],[-72.7651,19.3727,0.0],[-72.7679,19.3693,0.0],[-72.7724,19.3565,0.0],[-72.7736,19.3457,0.0],[-72.7693,19.3396,0.0],[-72.7674,19.3301,0.0],[-72.7649,19.3296,0.0441],[-72.7643,19.3332,0.1243],[-72.7696,19.3418,0.0],[-72.7643,19.3407,-0.0803],[-72.7604,19.3438,-0.0274],[-72.7615,19.3299,0.0175],[-72.7571,19.3299,-0.0039],[-72.7585,19.3271,0.0301],[-72.7546,19.3246,0.0],[-72.7504,19.3249,0.0349],[-72.7476,19.3212,0.0],[-72.7448,19.3245,0.1278],[-72.7287,19.3257,0.0681],[-72.7259,19.3183,0.0428],[-72.7326,19.311,0.0],[-72.7282,19.3088,0.186],[-72.7267,19.3055,0.1352],[-72.7279,19.3054,0.5808],[-72.7279,19.3078,0.0],[-72.7293,19.3063,0.3409],[-72.7337,19.3071,0.0],[-72.7312,19.3041,0.5525],[-72.7355,19.2976,0.5588],[-72.7326,19.2957,0.7238],[-72.7293,19.301,0.533],[-72.7268,19.3014,0.0],[-72.7254,19.3035,0.2877],[-72.726,19.3,0.0],[-72.7226,19.3009,0.0],[-72.7237,19.3032,0.3255],[-72.7168,19.2988,0.5804],[-72.7157,19.2957,0.0],[-72.7204,19.286,0.0],[-72.7254,19.2832,0.2713],[-72.7319,19.2872,0.0],[-72.7315,19.2928,0.1205],[-72.7365,19.2935,0.0],[-72.7396,19.2899,0.0],[-72.7385,19.2879,0.0],[-72.7408,19.2823,0.0],[-72.7471,19.2779,0.1377],[-72.7664,19.2843,0.0],[-72.7705,19.2847,0.0964],[-72.7735,19.2828,0.0],[-72.7746,19.2789,0.0],[-72.7734,19.2763,0.0],[-72.7705,19.2798,0.4135],[-72.7671,19.2764,0.0],[-72.7667,19.2729,0.3304],[-72.7699,19.2676,0.6332],[-72.7726,19.2674,0.0611],[-72.774,19.2701,0.168],[-72.7732,19.2745,0.1703],[-72.7709,19.2769,0.0],[-72.7744,19.2748,0.1703],[-72.7756,19.2438,0.0],[-72.7795,19.2376,0.1247],[-72.7754,19.2397,0.1747],[-72.7707,19.2483,0.0],[-72.761,19.2505,0.297],[-72.7562,19.2479,0.6454],[-72.7608,19.2555,0.6937],[-72.7597,19.2567,1.2287],[-72.7546,19.2556,1.6233],[-72.7525,19.2488,1.2787],[-72.752,19.2525,1.8049],[-72.7503,19.2537,1.9484],[-72.7479,19.2514,0.8306],[-72.7491,19.2576,1.7054],[-72.7463,19.2613,2.2853],[-72.7459,19.2566,3.3148],[-72.7399,19.2575,2.0064],[-72.7399,19.2558,2.965],[-72.7366,19.2539,2.9153],[-72.7328,19.2552,2.071],[-72.7327,19.2583,1.9137],[-72.7306,19.2589,2.1111],[-72.7301,19.2537,2.3623],[-72.7263,19.2477,3.7945],[-72.7209,19.25,5.0022],[-72.7206,19.2441,3.4786],[-72.7181,19.2446,4.6767],[-72.7165,19.248,4.0716],[-72.7129,19.2432,3.6521],[-72.709,19.2415,3.8369],[-72.7068,19.2422,2.588],[-72.7069,19.2441,3.8941],[-72.7123,19.2455,4.9448],[-72.7129,19.2482,5.8438],[-72.7101,19.2498,5.1864],[-72.7064,19.2487,3.7688],[-72.7044,19.2501,3.2852],[-72.7038,19.255,3.5923],[-72.6976,19.258,5.0258],[-72.6932,19.2549,5.679],[-72.6964,19.2517,4.0968],[-72.6965,19.2484,4.3874],[-72.6906,19.2432,4.8646],[-72.6913,19.2475,5.0998],[-72.6886,19.2489,4.3289],[-72.6882,19.251,4.1203],[-72.6892,19.2543,4.8329],[-72.6858,19.2577,5.6381],[-72.6841,19.2565,6.4763],[-72.6856,19.2525,4.5821],[-72.6839,19.2497,5.7534],[-72.6709,19.2467,6.6225],[-72.6684,19.2418,5.8603],[-72.663,19.2405,6.6181],[-72.6681,19.2394,5.5566],[-72.6714,19.2264,6.4315],[-72.6666,19.2218,6.6474],[-72.6602,19.2242,7.2343],[-72.6594,19.2208,5.4293],[-72.6539,19.228,8.0395],[-72.6468,19.2288,6.6093],[-72.6425,19.2251,7.5092],[-72.6436,19.2213,8.5304],[-72.6424,19.2203,8.5695],[-72.6386,19.2289,8.1976],[-72.6348,19.2305,9.1242],[-72.6354,19.2246,8.5855],[-72.6293,19.2224,7.9034],[-72.6353,19.2166,9.2232],[-72.6345,19.2122,9.2809],[-72.6282,19.2156,8.042],[-72.6237,19.2127,9.0339],[-72.6211,19.2128,8.8746],[-72.6193,19.2212,9.3178],[-72.6166,19.2184,8.8349],[-72.612,19.2196,9.6837],[-72.6109,19.2163,9.0777],[-72.6039,19.2118,10.0691],[-72.6045,19.209,8.6343],[-72.6103,19.2097,10.3311],[-72.6124,19.2151,9.3488],[-72.6155,19.2163,9.1991],[-72.617,19.2147,9.6769],[-72.6172,19.2122,9.4254],[-72.6144,19.2104,10.0933],[-72.6149,19.2057,11.7091],[-72.6106,19.2066,10.2655],[-72.608,19.2036,10.7127],[-72.6023,19.2036,10.9014],[-72.6006,19.2014,10.7023],[-72.6074,19.199,10.5564],[-72.6045,19.1915,11.6719],[-72.6078,19.1901,10.5079],[-72.6107,19.1847,12.2428],[-72.6155,19.1924,10.5376],[-72.62,19.192,12.0617],[-72.6208,19.1962,12.3249],[-72.6226,19.1966,11.3056],[-72.6242,19.1886,13.4827],[-72.617,19.1882,13.4771],[-72.6147,19.1843,13.8795],[-72.6196,19.1805,13.9133],[-72.6245,19.1822,13.0647],[-72.6265,19.1733,14.2693],[-72.6253,19.1714,16.728],[-72.6195,19.1712,12.7088],[-72.617,19.1655,14.3723],[-72.6195,19.1649,15.2926],[-72.6225,19.1691,14.8243],[-72.6261,19.17,14.9052],[-72.6291,19.1658,13.6398],[-72.621,19.1575,14.7333],[-72.6167,19.1572,16.8601],[-72.6078,19.1493,13.8947],[-72.6055,19.1497,15.6241],[-72.6046,19.1526,12.5821],[-72.6082,19.1562,13.4992],[-72.6,19.1585,13.0758],[-72.5974,19.1502,16.3491],[-72.588,19.1483,14.313],[-72.5825,19.1528,15.7225],[-72.5796,19.1496,15.7363],[-72.5806,19.1448,16.289],[-72.5794,19.1422,16.8803],[-72.5764,19.1399,15.6174],[-72.5715,19.1392,15.8838],[-72.5641,19.142,16.5964],[-72.5632,19.146,16.5098],[-72.5591,19.1443,19.4024],[-72.5526,19.1489,18.3463],[-72.5393,19.1406,15.7905],[-72.5325,19.1481,16.511],[-72.5248,19.1507,16.8286],[-72.5211,19.1544,18.1846],[-72.513,19.1526,19.086],[-72.5122,19.148,17.6521],[-72.5161,19.1482,17.2903],[-72.5181,19.1466,22.314],[-72.5188,19.1438,19.840699999999998],[-72.514,19.1386,18.1192],[-72.519,19.1362,17.5912],[-72.5195,19.1307,17.1044],[-72.5155,19.1299,20.4087],[-72.5136,19.1329,17.4509],[-72.5064,19.1355,23.0893],[-72.5073,19.1316,18.9394],[-72.5043,19.1286,18.7286],[-72.5045,19.1249,19.1421],[-72.4989,19.1205,20.4747],[-72.4945,19.12,19.8242],[-72.4931,19.1249,20.9917],[-72.488,19.1264,21.1108],[-72.492,19.1224,19.7219],[-72.4914,19.1197,20.0742],[-72.4902,19.1187,23.4712],[-72.4817,19.12,20.1559],[-72.4764,19.1167,20.6429],[-72.4751,19.108,21.4262],[-72.4797,19.1013,20.5065],[-72.479,19.0996,21.4205],[-72.4745,19.0982,22.9371],[-72.4732,19.0934,22.3779],[-72.4795,19.0922,23.3731],[-72.4834,19.097,23.7495],[-72.4861,19.0971,24.8747],[-72.4891,19.0931,25.2372],[-72.4879,19.0915,24.4771],[-72.4814,19.0908,23.7661],[-72.4808,19.0866,25.674],[-72.4827,19.0833,24.5705],[-72.4802,19.0815,22.0721],[-72.4793,19.077,27.4062],[-72.4769,19.0782,24.3669],[-72.4782,19.0807,24.9617],[-72.4774,19.0829,21.8782],[-72.474,19.0846,24.4273],[-72.4702,19.0841,27.9428],[-72.4684,19.0811,26.8102],[-72.4715,19.0795,22.978],[-72.473,19.0757,24.3351],[-72.4684,19.0722,23.6249],[-72.4643,19.0759,31.8314],[-72.4652,19.0782,25.6818],[-72.463,19.0831,26.6374],[-72.4507,19.0836,28.369],[-72.45,19.0767,29.6811],[-72.4522,19.0703,36.1557],[-72.4484,19.0644,38.6708],[-72.4409,19.0627,36.7008],[-72.4403,19.0571,30.8004],[-72.4351,19.0534,31.906],[-72.4364,19.048,30.9422],[-72.4349,19.045,31.0414],[-72.4309,19.044,32.2127],[-72.4266,19.0459,33.8618],[-72.4217,19.0369,36.5787],[-72.4186,19.0349,33.9278],[-72.4176,19.0366,32.0],[-72.4198,19.044,34.0404],[-72.4191,19.0462,34.1008],[-72.4163,19.0458,39.5012],[-72.4144,19.0444,34.8647],[-72.4135,19.0388,32.375],[-72.4086,19.0404,33.3345],[-72.4049,19.036,34.3287],[-72.401,19.0358,35.2455],[-72.3972,19.0332,36.7995],[-72.3912,19.0338,37.7991],[-72.3797,19.0254,39.1971],[-72.3799,19.0232,38.8284],[-72.3861,19.0161,39.7511],[-72.3821,19.0148,39.6304],[-72.3808,19.0121,39.125],[-72.3768,19.0114,41.2841],[-72.3733,19.005,39.243],[-72.3685,19.0039,40.5587],[-72.3685,18.996,40.0],[-72.3736,18.992,43.6529],[-72.3728,18.9891,46.2588],[-72.3673,18.9912,43.3888],[-72.3612,18.9886,44.8998],[-72.3562,18.9901,45.5622],[-72.3543,18.9881,45.6521],[-72.3545,18.9844,46.5466],[-72.3576,18.9823,46.8764],[-72.3661,18.9846,44.6465],[-72.3659,18.9779,47.153],[-72.357,18.9694,48.5554],[-72.3542,18.9756,48.8767],[-72.3514,18.9748,48.6787],[-72.3514,18.9691,47.5159],[-72.3494,18.9679,48.8019],[-72.3459,18.9702,50.379],[-72.3437,18.9761,51.4813],[-72.3412,18.9755,58.6363],[-72.3429,18.973,50.9203],[-72.3383,18.97,49.7805],[-72.3408,18.9574,55.4799],[-72.3287,18.945,70.5468],[-72.3202,18.9386,63.9202],[-72.3177,18.9397,57.1602],[-72.3095,18.9316,66.7891],[-72.2886,18.9199,64.1113],[-72.2853,18.9232,64.2417],[-72.283,18.923,64.3644],[-72.2797,18.9181,62.8412],[-72.2717,18.9142,64.2786],[-72.2668,18.9215,63.971],[-72.2599,18.9168,66.8732],[-72.246,18.9199,69.3682],[-72.2439,18.9181,65.6906],[-72.2428,18.9244,222.4151],[-72.2375,18.9324,384.5754],[-72.2368,18.9398,426.879],[-72.2268,18.9482,193.6035],[-72.2256,18.9539,234.5914]]],
[[[-72.7371,19.3157,0.121],[-72.7387,19.3177,0.0],[-72.7396,19.3057,0.0],[-72.7379,19.3057,0.0],[-72.7387,19.3099,0.0],[-72.7363,19.3118,0.2413],[-72.7371,19.3157,0.121]]]]}}