{"type": "Feature","id": "1989","bbox": [-59.60024,13.05117,-59.47578,13.12943],"geometry": {"type": "Polygon","coordinates": [[[-59.47578,13.0865,57.3858],[-59.48065,13.0931,63.044],[-59.48321,13.09434,60.7295],[-59.48892,13.09651,53.9727],[-59.4906,13.09703,56.8389],[-59.49156,13.09775,47.4681],[-59.49153,13.09817,47.4681],[-59.4928,13.10096,35.8736],[-59.49866,13.11078,31.9142],[-59.49895,13.11155,31.9142],[-59.50057,13.12246,55.3446],[-59.50228,13.12514,60.5692],[-59.50375,13.12659,65.408],[-59.51311,13.12943,82.0103],[-59.57047,13.10819,83.2227],[-59.56897,13.10158,94.8081],[-59.56884,13.10023,102.3711],[-59.56928,13.10018,102.3711],[-59.60024,13.08413,19.7197],[-59.5869,13.0832,38.3344],[-59.56444,13.07803,44.7237],[-59.54597,13.06769,21.9836],[-59.53612,13.05117,0.0],[-59.52929,13.05541,15.2748],[-59.5231,13.05646,13.745],[-59.51671,13.05638,13.8896],[-59.50886,13.05732,13.8407],[-59.48754,13.07856,51.817],[-59.47578,13.08649,57.3858],[-59.47578,13.0865,57.3858]]]}
,"properties": {"ISO3166-1-Alpha-3": "BRB","country": "Barbados","fill": "#F0F","name": "Christ Church","area_km2": 57.67879,"hist_schema_id": "Elevation0-9000","hist_area_km2": {"0": 1.19792,"25": 6.36096,"50": 18.73057,"75": 17.51205,"100": 13.42298,"125": 0.45432}}}