{"type": "Feature","bbox": [-59.6081,13.0446,-59.4738,13.123],"geometry": {"type": "MultiPolygon","coordinates": [[[[-59.4738,13.077,0.0],[-59.5116,13.123,65.2158],[-59.6081,13.0768,0.0],[-59.5979,13.0732,0.0],[-59.5893,13.0735,0.0],[-59.5726,13.0662,1.5445],[-59.5685,13.0665,2.3856],[-59.5651,13.0637,0.0],[-59.5535,13.0657,5.2732],[-59.5443,13.0621,0.0],[-59.5426,13.0629,1.472],[-59.5382,13.059,8.474],[-59.534,13.0471,0.0],[-59.5251,13.0446,0.0],[-59.5218,13.0465,4.0659],[-59.519,13.0454,0.0],[-59.5057,13.0532,2.8723],[-59.5037,13.0521,1.9651],[-59.4954,13.0665,8.799],[-59.489,13.066,4.2029],[-59.4738,13.077,0.0]]]]}
,"properties": {"GID_1": "BRB.1_1","GID_0": "BRB","country": "Barbados","province": "ChristChurch","VARNAME_1": "NA","NL_NAME_1": "NA","TYPE_1": "Parish","ENGTYPE_1": "Parish","CC_1": "NA","HASC_1": "BB.CC","ISO_1": "BB-01","name": "Christ_Church.province","area_km2": 60.13833,"hist_schema_id": "Elevation0-9000","hist_area_km2": {"0": 7.26998,"25": 10.84281,"50": 16.95502,"75": 14.1462,"100": 10.57326,"125": 0.35107}}}