{"type":"Feature","properties":{"ISO3166-1-Alpha-3":"DOM","country":"Dominican Republic","fill":"#FF0","id":"1394","name":"Santo Domingo"},
"geometry":{"type": "Polygon","coordinates": [[[-70.00877,18.66222,92.6966],[-70.05605,18.67103,140.3174],[-70.08884,18.67948,496.0264],[-70.1207,18.69069,258.9444],[-70.13902,18.72204,478.4765],[-70.16718,18.73167,774.3649],[-70.16638,18.68692,201.0693],[-70.1393,18.64535,112.5697],[-70.14801,18.6231,208.1147],[-70.15284,18.59855,120.9314],[-70.14212,18.56316,126.8798],[-70.12365,18.53125,62.5655],[-70.09907,18.51386,89.8542],[-70.0805,18.49231,45.2627],[-70.07781,18.47513,82.8199],[-70.06631,18.46337,14.0268],[-70.0437,18.46404,23.4506],[-70.02122,18.46324,14.4796],[-70.00854,18.44539,12.3271],[-70.00771,18.42376,6.7481],[-70.004,18.41747,0.0],[-69.99352,18.42255,11.1986],[-69.98092,18.42646,7.5189],[-69.98092,18.42647,7.5189],[-69.97518,18.46262,56.5938],[-69.9974,18.49388,51.6559],[-69.99477,18.52244,51.1346],[-69.968,18.53675,20.2082],[-69.9558,18.52024,10.9482],[-69.9435,18.50182,45.6058],[-69.92449,18.50009,50.7589],[-69.90573,18.50497,43.3306],[-69.87782,18.50096,6.9519],[-69.87937,18.47122,0.0],[-69.85147,18.47248,15.7523],[-69.69738,18.45637,11.2784],[-69.68993,18.45409,7.4704],[-69.68196,18.44676,5.6845],[-69.66515,18.4195,17.1788],[-69.65949,18.41592,24.969],[-69.6466,18.41356,23.751],[-69.63256,18.41352,15.7571],[-69.62361,18.41633,0.0],[-69.62084,18.42548,0.0],[-69.62263,18.43675,0.0],[-69.62316,18.44798,8.474],[-69.61681,18.45734,10.8039],[-69.60212,18.45572,11.3351],[-69.57999,18.44448,11.6431],[-69.52811,18.41031,9.1736],[-69.5281,18.41035,9.1736],[-69.52467,18.4366,46.3521],[-69.51826,18.46854,46.9768],[-69.57696,18.47975,30.3792],[-69.61657,18.51998,21.341],[-69.60047,18.54618,25.1562],[-69.57991,18.57153,23.3489],[-69.57805,18.59659,25.9062],[-69.58254,18.62163,29.8933],[-69.58792,18.61935,26.9795],[-69.59355,18.61979,27.7837],[-69.58781,18.63517,30.1555],[-69.57533,18.64822,43.3872],[-69.61112,18.66124,41.1609],[-69.6451,18.65429,23.4193],[-69.66393,18.64266,17.5412],[-69.68574,18.63824,19.8874],[-69.74385,18.61773,10.455],[-69.78997,18.57184,4.5664],[-69.79798,18.60011,6.2725],[-69.81899,18.61943,9.1316],[-69.82462,18.63928,11.2379],[-69.83847,18.65669,11.5757],[-69.86116,18.68108,14.0177],[-69.88826,18.70134,25.6965],[-69.91144,18.70248,21.5511],[-69.93464,18.70341,22.8118],[-69.9473,18.70284,23.5204],[-69.95908,18.69904,71.0995],[-69.96368,18.69013,46.044],[-69.96634,18.68093,53.4704],[-70.00877,18.66222,92.6966]]]}}