{"type": "Feature","bbox": [-70.1648,18.4001,-69.5066,18.7265],"geometry": {"type": "MultiPolygon","coordinates": [[[[-69.6243,18.4414,0.0],[-69.6274,18.441,0.0],[-69.6293,18.4374,0.0],[-69.6212,18.4385,0.0],[-69.6176,18.4407,0.0],[-69.619,18.441,0.0],[-69.6237,18.4393,0.0],[-69.6243,18.4414,0.0]]],
[[[-69.5078,18.4742,49.6933],[-69.5066,18.4772,48.3297],[-69.5549,18.478,33.3897],[-69.5669,18.4836,28.8312],[-69.5792,18.4938,27.8541],[-69.5949,18.5017,27.7014],[-69.5951,18.5171,19.3369],[-69.6087,18.5259,19.6734],[-69.608,18.5286,19.9322],[-69.592,18.5373,21.2094],[-69.5892,18.5429,21.3048],[-69.5879,18.5509,23.0097],[-69.5684,18.585,31.4281],[-69.5687,18.5882,27.1298],[-69.5758,18.5958,26.887],[-69.5796,18.604,25.0035],[-69.5784,18.6085,27.4989],[-69.5713,18.6161,28.707],[-69.5711,18.6215,29.0721],[-69.5744,18.6263,27.9974],[-69.5836,18.6246,33.5308],[-69.5859,18.6288,28.076],[-69.5848,18.6332,28.4838],[-69.578,18.6378,29.7013],[-69.5725,18.6478,34.7454],[-69.5662,18.6532,35.4218],[-69.5731,18.6553,38.0081],[-69.5906,18.6559,39.2882],[-69.6037,18.6634,43.1961],[-69.6143,18.6646,40.1889],[-69.6248,18.6686,32.5946],[-69.6349,18.6639,28.1353],[-69.6405,18.6564,25.3653],[-69.6537,18.6553,24.1982],[-69.6721,18.6453,20.629],[-69.6827,18.6444,22.3843],[-69.6971,18.6398,15.6208],[-69.7159,18.6435,12.2526],[-69.7208,18.6422,19.0978],[-69.7388,18.6264,13.2224],[-69.7436,18.6066,7.4591],[-69.7477,18.5967,16.9979],[-69.7613,18.5965,8.4373],[-69.7674,18.5846,11.1951],[-69.779,18.5779,12.963],[-69.7838,18.583,7.3676],[-69.7869,18.5919,6.5121],[-69.7849,18.5978,7.1897],[-69.7848,18.6056,12.1615],[-69.7902,18.6126,10.8063],[-69.7916,18.6231,5.0879],[-69.7962,18.6258,8.7285],[-69.8067,18.6243,9.6416],[-69.8132,18.6278,13.8934],[-69.8146,18.6326,13.5199],[-69.8149,18.6583,15.0553],[-69.819,18.6596,12.5025],[-69.8281,18.6555,10.6176],[-69.8312,18.6564,13.9629],[-69.8363,18.6686,12.7944],[-69.8457,18.6787,14.2829],[-69.8483,18.6871,11.2587],[-69.8524,18.6896,16.8712],[-69.8538,18.7009,13.4017],[-69.8579,18.7034,14.5362],[-69.8604,18.7073,14.2124],[-69.8709,18.7055,15.7579],[-69.8827,18.7075,21.2722],[-69.8892,18.7044,20.3667],[-69.8979,18.6973,18.9566],[-69.9073,18.6942,23.3245],[-69.9114,18.6958,22.6544],[-69.9191,18.7041,27.0545],[-69.9229,18.7003,23.6179],[-69.9285,18.7001,23.9622],[-69.9378,18.7034,25.5941],[-69.9408,18.7075,27.1543],[-69.9456,18.7072,27.7165],[-69.9493,18.7114,30.3516],[-69.9525,18.7114,33.9807],[-69.9541,18.7096,23.5054],[-69.9537,18.7058,22.6529],[-69.9465,18.6971,52.3159],[-69.9491,18.6923,60.0401],[-69.9548,18.6902,56.1175],[-69.9605,18.6838,43.1072],[-69.9705,18.6826,48.8375],[-69.9739,18.6761,64.1967],[-69.9782,18.6724,96.2494],[-69.9968,18.6669,70.2251],[-70.0074,18.6659,71.2828],[-70.0127,18.6594,176.3038],[-70.0276,18.6614,290.9929],[-70.0343,18.6643,371.7949],[-70.0622,18.6834,221.3015],[-70.0759,18.6837,442.7371],[-70.0835,18.6815,434.2845],[-70.0907,18.6843,545.5878],[-70.0981,18.6949,518.1688],[-70.116,18.7026,446.264],[-70.1365,18.7262,542.3074],[-70.1481,18.7265,553.6955],[-70.1602,18.7225,796.6237],[-70.1648,18.7153,368.828],[-70.1647,18.711,281.4244],[-70.1572,18.7045,344.4875],[-70.1527,18.6912,298.2056],[-70.1478,18.6862,281.8424],[-70.1475,18.6765,241.2143],[-70.1494,18.6669,241.972],[-70.1431,18.6553,135.488],[-70.1362,18.65,132.1825],[-70.1311,18.6395,118.706],[-70.1308,18.6354,105.3066],[-70.1239,18.6317,105.9349],[-70.1244,18.6283,104.8499],[-70.1298,18.6254,134.9615],[-70.1383,18.6267,175.9483],[-70.1407,18.6252,158.247],[-70.141,18.6222,162.192],[-70.1361,18.6135,148.3352],[-70.1357,18.6095,153.5886],[-70.1461,18.594,117.558],[-70.1402,18.5846,117.8075],[-70.1306,18.5746,127.5871],[-70.1325,18.5664,81.4983],[-70.1318,18.5627,87.5809],[-70.1299,18.5613,88.6794],[-70.1242,18.5614,151.0564],[-70.1134,18.5414,108.4963],[-70.1134,18.5391,110.428],[-70.1175,18.5331,106.3006],[-70.1172,18.5245,59.5039],[-70.1095,18.5206,102.2762],[-70.1059,18.5205,90.9961],[-70.1046,18.5239,53.5262],[-70.1012,18.5259,47.3012],[-70.0883,18.5236,63.3737],[-70.0861,18.5267,34.1209],[-70.0896,18.534,42.4321],[-70.08,18.5334,41.9383],[-70.0775,18.5193,30.3942],[-70.0668,18.5124,30.2082],[-70.0604,18.5103,33.1219],[-70.063,18.5032,30.9288],[-70.0608,18.4988,30.112],[-70.0566,18.4952,32.5979],[-70.0583,18.4899,27.1421],[-70.0642,18.4835,48.9904],[-70.0702,18.4865,16.861],[-70.0732,18.4839,16.0105],[-70.071,18.4807,22.2318],[-70.062,18.4806,46.6921],[-70.0589,18.4791,31.8484],[-70.0579,18.4655,16.618],[-70.0553,18.4609,45.6453],[-70.0505,18.4705,17.6751],[-70.0404,18.4771,33.347],[-70.036,18.476,23.1573],[-70.0334,18.4691,16.1196],[-70.0276,18.4616,37.4251],[-70.0244,18.4605,24.6137],[-70.0174,18.4615,4.1098],[-70.0106,18.4736,10.3508],[-70.0054,18.4739,17.0208],[-70.0048,18.4678,35.3886],[-70.0102,18.4592,1.3414],[-70.0086,18.4581,2.783],[-70.0047,18.4606,17.539],[-70.0017,18.4597,18.0555],[-70.0001,18.4576,17.3325],[-70.0006,18.4529,10.8406],[-69.9942,18.449,15.3108],[-69.9931,18.4464,40.4601],[-69.9984,18.4392,44.8207],[-69.9969,18.4302,28.7753],[-70.0056,18.4265,12.9523],[-70.0076,18.4237,0.0],[-70.0013,18.4235,0.0],[-69.9946,18.4207,2.4542],[-69.9899,18.4218,0.0],[-69.9882,18.4279,16.2329],[-69.9765,18.4338,42.3296],[-69.9682,18.4415,47.1747],[-69.9575,18.4611,55.1155],[-69.9571,18.4716,51.3176],[-69.9593,18.4764,57.5706],[-69.9759,18.4922,50.8065],[-69.9918,18.5019,51.4282],[-70.0004,18.5117,51.3854],[-69.9848,18.5121,40.1614],[-69.9839,18.5173,37.4741],[-69.9867,18.526,42.4809],[-69.9851,18.5297,36.1269],[-69.9789,18.5349,41.4634],[-69.9816,18.5408,29.6795],[-69.9712,18.5444,10.1562],[-69.9604,18.5416,10.541],[-69.9569,18.539,30.0608],[-69.9516,18.5298,6.5758],[-69.9503,18.5192,24.6251],[-69.9428,18.5145,31.4138],[-69.9389,18.5148,22.9251],[-69.9325,18.519,7.8153],[-69.9277,18.5194,20.1079],[-69.9254,18.5184,2.4287],[-69.9231,18.5142,7.6605],[-69.9117,18.5083,31.237],[-69.8987,18.5082,41.6197],[-69.89,18.5146,4.401],[-69.871,18.508,37.9541],[-69.8667,18.5038,38.7676],[-69.8655,18.5,39.0899],[-69.8737,18.4864,42.6602],[-69.8739,18.4655,9.2867],[-69.8676,18.466,0.0],[-69.8657,18.4676,4.9478],[-69.8624,18.4662,0.0],[-69.8576,18.4687,0.8838],[-69.8501,18.4665,0.0],[-69.831,18.4687,1.0932],[-69.8171,18.464,3.9853],[-69.7849,18.4657,9.8923],[-69.7649,18.4632,0.0],[-69.7432,18.4629,5.6917],[-69.7149,18.4551,0.0],[-69.6993,18.4543,4.0953],[-69.6851,18.449,1.6617],[-69.6824,18.4463,0.0],[-69.6804,18.4274,0.0],[-69.6743,18.4154,0.0],[-69.6693,18.4101,0.0],[-69.6649,18.4074,5.1272],[-69.6476,18.404,5.7024],[-69.6365,18.4001,0.0],[-69.631,18.4004,0.0],[-69.6265,18.4065,0.0],[-69.6329,18.4387,0.0],[-69.6301,18.4415,0.0],[-69.6279,18.441,0.0],[-69.6276,18.4429,1.0272],[-69.6243,18.4437,0.0],[-69.6237,18.4465,0.0],[-69.621,18.4479,5.6849],[-69.6074,18.4465,0.0],[-69.601,18.4479,3.1739],[-69.5915,18.4463,4.3592],[-69.5771,18.4363,2.3093],[-69.5749,18.4365,4.6831],[-69.5743,18.4338,1.5692],[-69.5699,18.4313,6.648],[-69.5696,18.4287,0.0],[-69.5674,18.4285,0.0],[-69.5676,18.4263,0.0],[-69.5635,18.4212,0.0],[-69.5604,18.4204,2.7839],[-69.5485,18.4096,1.3593],[-69.536,18.4054,0.0],[-69.515,18.4035,0.0],[-69.5112,18.4283,46.4001],[-69.5114,18.443,50.1381],[-69.5141,18.4517,48.5174],[-69.5143,18.4647,49.4851],[-69.5131,18.4679,52.4943],[-69.5091,18.4704,51.1766],[-69.5078,18.4742,49.6933]]]]}
,"properties": {"GID_1": "DOM.31_1","GID_0": "DOM","country": "DominicanRepublic","province": "SantoDomingo","VARNAME_1": "NA","NL_NAME_1": "NA","TYPE_1": "Provincia","ENGTYPE_1": "Province","CC_1": "NA","HASC_1": "DO.SD","ISO_1": "NA","name": "Santo_Domingo.province","area_km2": 1302.427,"hist_schema_id": "Elevation0-9000","hist_area_km2": {"0": 152.371,"25": 685.344,"50": 220.803,"75": 71.012,"100": 44.627,"125": 29.637,"150": 19.369,"175": 12.436,"200": 8.357,"225": 6.248,"250": 6.026,"275": 4.941,"300": 4.72,"325": 4.62,"350": 4.299,"375": 4.278,"400": 3.294,"425": 3.234,"450": 3.234,"475": 2.41,"500": 2.189,"525": 2.169,"550": 1.988,"575": 1.446,"600": 1.105,"625": 0.683,"650": 0.442,"675": 0.341,"700": 0.221,"725": 0.261,"750": 0.201,"775": 0.1,"800": 0.02}}}