{"type": "Feature","id": "5136","bbox": [-64.78014,32.28618,-64.73793,32.31653],"geometry": {"type": "Polygon","coordinates": [[[-64.73793,32.30214,0.8877],[-64.74816,32.31653,5.9751],[-64.75121,32.31363,30.162],[-64.76183,32.31094,2.534],[-64.78014,32.30341,10.0548],[-64.77902,32.2911,0.0],[-64.76697,32.29637,38.746],[-64.76082,32.28618,4.7857],[-64.75487,32.29312,5.7668],[-64.74059,32.30044,0.0],[-64.73793,32.30214,0.8877]]]}
,"properties": {"ISO3166-1-Alpha-3": "BMU","country": "Bermuda","fill": "#F0F","name": "Devonshire","area_km2": 6.6487,"hist_schema_id": "Elevation0-9000","hist_area_km2": {"0": 2.043031,"25": 3.691673,"50": 0.896073,"75": 0.017921}}}