{"type":"Feature","properties":{"GID_1":"BMU.1_1","GID_0":"BMU","country":"Bermuda","province":"Devonshire","VARNAME_1":"NA","NL_NAME_1":"NA","TYPE_1":"Parish","ENGTYPE_1":"Parish","CC_1":"NA","HASC_1":"BM.DE","ISO_1":"NA","name":"Devonshire.province"},
"geometry":{"type": "MultiPolygon","coordinates": [[[[-64.7417,32.3025,2.0302],[-64.7493,32.3171,0.0],[-64.7633,32.31,18.6363],[-64.7754,32.308,0.0],[-64.7725,32.2937,1.3719],[-64.7614,32.3005,20.2609],[-64.7541,32.292,0.0],[-64.7486,32.2969,1.4175],[-64.7475,32.2961,0.0],[-64.7425,32.2986,0.0],[-64.7417,32.3025,2.0302]]]]}}