{"type":"Feature","properties":{"GID_1":"PRI.41_1","GID_0":"PRI","country":"PuertoRico","province":"Lajas","VARNAME_1":"NA","NL_NAME_1":"NA","TYPE_1":"Municipio","ENGTYPE_1":"Municipality","CC_1":"NA","HASC_1":"PR.LJ","ISO_1":"-","name":"Lajas.province"},
"geometry":{"type": "MultiPolygon","coordinates": [[[[-67.0171,17.9368,0.0],[-67.0193,17.9374,0.0],[-67.0204,17.9363,0.0],[-67.0168,17.9357,0.0],[-67.0171,17.9368,0.0]]],
[[[-67.0015,17.9454,0.0],[-67.0026,17.9463,0.0],[-67.0032,17.944,0.0],[-67.0076,17.9435,0.0],[-67.0129,17.9449,0.0],[-67.0135,17.9435,0.0],[-67.0007,17.9426,0.0],[-67.0015,17.9454,0.0]]],
[[[-66.9849,17.9501,0.9452],[-66.9896,17.9507,0.0],[-66.9946,17.9476,0.0],[-66.9863,17.949,0.9452],[-66.9796,17.946,0.0],[-66.9765,17.9463,0.0],[-66.9849,17.9501,0.9452]]],
[[[-67.0354,17.9613,0.0],[-67.0357,17.9624,0.0],[-67.0321,17.964,0.0],[-67.0362,17.9635,0.0],[-67.0376,17.9607,0.0],[-67.041,17.9599,0.0],[-67.0371,17.9599,0.0],[-67.0354,17.9613,0.0]]],
[[[-67.0951,17.9326,0.0],[-67.0976,17.9332,0.0],[-67.0954,17.9315,0.0],[-67.089,17.9315,0.0],[-67.089,17.9324,0.0],[-67.0951,17.9326,0.0]]],
[[[-67.0496,17.9379,0.0],[-67.0515,17.9385,0.0],[-67.0518,17.9374,0.0],[-67.0488,17.9371,0.0],[-67.0496,17.9379,0.0]]],
[[[-67.0396,17.9399,0.0],[-67.0429,17.9401,0.0],[-67.0429,17.939,0.0],[-67.0404,17.9387,0.0],[-67.0396,17.9399,0.0]]],
[[[-67.1079,17.9515,4.4108],[-67.1097,17.9481,3.991],[-67.109,17.9454,0.0],[-67.0999,17.9465,0.0],[-67.0957,17.9507,3.376],[-67.094,17.9501,0.0],[-67.0926,17.9526,1.8742],[-67.0901,17.951,0.8267],[-67.0871,17.9585,0.0],[-67.0882,17.9624,1.5156],[-67.0854,17.9632,0.7692],[-67.0874,17.9651,0.0],[-67.0829,17.9662,0.7483],[-67.084,17.961,1.1918],[-67.0871,17.9607,0.0],[-67.0793,17.9596,6.9552],[-67.0782,17.9579,0.9388],[-67.0762,17.9626,0.0],[-67.0785,17.9657,0.6875],[-67.0738,17.969,1.9907],[-67.0721,17.9726,0.9435],[-67.0685,17.971,0.7698],[-67.0615,17.9749,0.0],[-67.0571,17.9713,0.0],[-67.0529,17.9724,0.0],[-67.0443,17.9676,1.9752],[-67.0354,17.9732,4.8096],[-67.0338,17.9707,2.3775],[-67.0265,17.9718,0.0],[-67.0237,17.9701,9.116],[-67.0229,17.9676,1.024],[-67.019,17.9674,0.0],[-67.0163,17.9693,5.3556],[-67.016,17.9732,0.3156],[-67.0124,17.9732,0.5643],[-67.0113,17.9715,2.7547],[-67.0146,17.9707,0.0],[-67.0154,17.9685,3.5919],[-67.0113,17.966,22.8068],[-67.0093,17.9604,0.0],[-67.0088,17.9646,9.3503],[-67.0032,17.9601,0.0],[-67.0007,17.9613,0.0],[-67.0007,17.964,0.0],[-67.0038,17.9671,2.9839],[-67.0018,17.9665,1.4968],[-67.0007,17.969,0.0],[-67.0032,17.969,0.0],[-67.0038,17.971,0.6046],[-66.9999,17.9718,1.878],[-66.9993,17.9696,0.0],[-66.996,17.9724,0.6342],[-66.996,17.9701,0.3081],[-66.994,17.9718,0.2006],[-66.9926,17.9696,0.0],[-66.9893,17.971,0.5734],[-66.9851,17.9671,0.4959],[-66.9871,17.9624,0.0],[-66.9846,17.9643,4.7016],[-66.9854,17.961,0.0],[-66.9829,17.9613,0.6937],[-66.9815,17.9596,1.4297],[-66.9829,17.9582,2.2469],[-66.9818,17.9518,0.0],[-66.9617,17.9918,19.4263],[-66.9589,18.0324,22.7274],[-66.9603,18.0367,39.7323],[-66.9825,18.0412,31.1225],[-66.9835,18.0526,82.406],[-66.9923,18.0525,157.1162],[-67.002,18.0553,183.2503],[-67.0081,18.0605,199.7941],[-67.0182,18.0589,175.3477],[-67.027,18.0612,194.1544],[-67.0408,18.0606,101.7596],[-67.07,18.0655,156.3193],[-67.0962,18.0609,148.7187],[-67.1091,18.0565,97.0764],[-67.1141,18.0464,59.9324],[-67.1136,18.043,45.4307],[-67.1108,18.0397,37.2706],[-67.1158,18.032,27.2197],[-67.1105,18.0125,15.974],[-67.1101,17.9791,49.1057],[-67.1022,17.9749,26.659],[-67.1071,17.9639,16.6591],[-67.1079,17.9515,4.4108]]]]}}