{"type": "Feature","bbox": [-83.6456,22.5647,-83.3037,22.9268],"geometry": {"type": "MultiPolygon","coordinates": [[[[-83.3294,22.7892,344.257],[-83.3424,22.7998,159.0917],[-83.3521,22.8359,39.4305],[-83.353,22.9068,0.6843],[-83.3587,22.9093,0.0],[-83.3618,22.9065,0.5414],[-83.359,22.8949,0.0],[-83.3624,22.8882,0.7172],[-83.3662,22.891,0.0],[-83.3699,22.891,0.9256],[-83.3726,22.8888,0.0],[-83.3796,22.8904,0.5575],[-83.3815,22.8865,1.3761],[-83.3812,22.871,1.394],[-83.384,22.8654,2.1812],[-83.3901,22.8651,2.0725],[-83.3921,22.8665,1.5434],[-83.3949,22.8643,1.9103],[-83.399,22.8649,2.6707],[-83.3996,22.8685,1.4527],[-83.3996,22.871,0.5579],[-83.3962,22.874,0.4882],[-83.3954,22.8826,0.2905],[-83.3987,22.8771,0.6973],[-83.4013,22.8779,0.1935],[-83.4026,22.8765,1.3157],[-83.404,22.8801,1.2973],[-83.4163,22.8857,0.0],[-83.4187,22.8799,1.3646],[-83.4243,22.881,0.866],[-83.4282,22.8865,1.4705],[-83.4268,22.889,0.6656],[-83.4229,22.8901,0.0],[-83.424,22.8946,0.3454],[-83.4276,22.8982,0.0],[-83.4296,22.8949,0.7622],[-83.4343,22.8946,0.5895],[-83.4365,22.9007,0.0],[-83.4424,22.9013,0.3002],[-83.4399,22.8979,0.4888],[-83.4432,22.8965,0.6114],[-83.4426,22.8949,0.7495],[-83.4449,22.8935,0.4835],[-83.4449,22.8907,0.0],[-83.4479,22.8885,0.9716],[-83.4471,22.8865,0.3423],[-83.449,22.8851,0.9872],[-83.4507,22.8849,0.9872],[-83.4482,22.8868,0.3423],[-83.4496,22.8904,0.5585],[-83.4515,22.8896,0.4427],[-83.4515,22.8879,1.3935],[-83.4574,22.8926,0.3471],[-83.4643,22.8901,0.0],[-83.4585,22.8849,0.7246],[-83.4626,22.8738,2.2995],[-83.4726,22.8599,3.5236],[-83.484,22.856,0.7368],[-83.4896,22.8504,2.6207],[-83.4929,22.851,1.5694],[-83.4949,22.8546,0.9453],[-83.4999,22.8537,1.4205],[-83.5021,22.8513,2.0629],[-83.509,22.8485,1.5841],[-83.5165,22.8535,1.4655],[-83.5176,22.8585,2.416],[-83.5282,22.856,1.1381],[-83.5249,22.8607,1.2798],[-83.521,22.8624,0.5116],[-83.5179,22.8668,0.5566],[-83.5188,22.8685,1.7533],[-83.5207,22.8682,1.7533],[-83.5207,22.8662,1.288],[-83.5263,22.8665,0.6576],[-83.5296,22.8604,1.2672],[-83.5315,22.8615,1.0528],[-83.5335,22.8596,1.2445],[-83.5376,22.8607,0.0],[-83.5446,22.8579,0.5164],[-83.5471,22.8557,0.7114],[-83.5446,22.851,0.7868],[-83.5449,22.8479,1.823],[-83.5476,22.8446,0.0],[-83.5512,22.8349,2.4245],[-83.5535,22.8338,0.5565],[-83.5571,22.8357,0.0],[-83.5587,22.8338,0.0],[-83.5568,22.826,1.6112],[-83.561,22.8188,0.0],[-83.5687,22.8199,2.1387],[-83.5713,22.826,0.0],[-83.5788,22.8238,0.5605],[-83.5821,22.8246,1.7691],[-83.5824,22.8265,0.5074],[-83.5857,22.8243,1.0751],[-83.5937,22.8246,0.0],[-83.5937,22.8229,0.8349],[-83.5965,22.8226,1.0622],[-83.5971,22.824,0.0],[-83.6001,22.8235,4.0098],[-83.6007,22.8249,0.0],[-83.6043,22.8251,2.396],[-83.6107,22.8293,0.0],[-83.6129,22.8257,1.7515],[-83.6137,22.8285,4.1613],[-83.6171,22.8293,1.6489],[-83.6165,22.8271,3.3262],[-83.6179,22.8274,0.0],[-83.6182,22.826,3.1223],[-83.6235,22.8262,2.5175],[-83.6251,22.8226,2.4886],[-83.631,22.8246,0.6488],[-83.6318,22.8221,1.536],[-83.6363,22.821,0.9656],[-83.6365,22.8176,1.302],[-83.6401,22.8176,0.0],[-83.6415,22.814,1.0841],[-83.6399,22.8121,1.0633],[-83.6335,22.8101,1.0273],[-83.6332,22.8063,0.3797],[-83.6282,22.8054,0.443],[-83.6263,22.8024,1.0232],[-83.6282,22.8018,1.2647],[-83.6282,22.7979,2.2898],[-83.6306,22.7976,0.51],[-83.6298,22.7458,38.2336],[-83.6369,22.7232,61.2034],[-83.6394,22.6986,78.8115],[-83.6456,22.6837,114.0207],[-83.6452,22.6734,197.7907],[-83.6249,22.6362,166.6887],[-83.5986,22.6104,213.5211],[-83.5897,22.5958,172.1785],[-83.5623,22.5647,56.1582],[-83.5505,22.5674,71.0458],[-83.523,22.5803,82.4151],[-83.5072,22.5838,67.4266],[-83.4898,22.5917,66.8089],[-83.4676,22.6099,111.2221],[-83.4522,22.6183,101.9281],[-83.4408,22.6279,131.8869],[-83.4304,22.6583,384.8789],[-83.4274,22.6875,133.3369],[-83.4144,22.7092,164.8441],[-83.3898,22.7202,213.4895],[-83.3293,22.7225,413.0926],[-83.3188,22.738,223.1608],[-83.3149,22.7609,300.9858],[-83.3037,22.7791,392.2448],[-83.3294,22.7892,344.257]]],
[[[-83.5393,22.8762,3.2161],[-83.539,22.8774,1.0081],[-83.5407,22.8774,0.357],[-83.5429,22.876,0.0],[-83.5426,22.8746,2.3712],[-83.5465,22.8713,0.5463],[-83.539,22.8749,0.0],[-83.5393,22.8762,3.2161]]],
[[[-83.5335,22.8749,2.5091],[-83.5329,22.8762,0.6455],[-83.5351,22.8754,2.5091],[-83.5338,22.8729,0.0],[-83.5329,22.8738,0.6782],[-83.534,22.8743,2.5091],[-83.5335,22.8749,2.5091]]],
[[[-83.5132,22.8874,0.0],[-83.5151,22.8879,0.0],[-83.5199,22.8851,2.7849],[-83.5354,22.8835,2.1075],[-83.5404,22.8776,0.357],[-83.539,22.8787,1.0081],[-83.5354,22.876,0.327],[-83.5307,22.8774,1.8712],[-83.5315,22.8746,0.6782],[-83.5301,22.8746,0.0],[-83.5276,22.8771,0.0],[-83.529,22.8787,1.8712],[-83.5307,22.8776,1.8712],[-83.5301,22.8796,1.2652],[-83.5263,22.8796,1.0255],[-83.5249,22.8826,3.5862],[-83.5201,22.8818,0.0],[-83.5154,22.8849,2.3917],[-83.5121,22.8829,0.0],[-83.511,22.8857,1.7693],[-83.509,22.8849,1.5057],[-83.5093,22.886,0.6495],[-83.5132,22.8874,0.0]]],
[[[-83.3921,22.8896,1.2869],[-83.3929,22.8904,1.2869],[-83.396,22.8882,0.0],[-83.3957,22.8851,0.0],[-83.3913,22.8885,0.9208],[-83.3921,22.8896,1.2869]]],
[[[-83.431,22.914,0.2817],[-83.441,22.9135,0.9367],[-83.4443,22.9104,3.0692],[-83.4521,22.9082,2.3066],[-83.4538,22.9051,0.0],[-83.4512,22.9049,0.5799],[-83.4482,22.9001,0.9821],[-83.4504,22.8982,1.4163],[-83.4535,22.8982,1.5153],[-83.4571,22.9026,1.5004],[-83.4551,22.9062,0.3317],[-83.4571,22.9049,0.9917],[-83.4649,22.9051,2.2259],[-83.4674,22.904,0.0],[-83.4679,22.9013,0.6205],[-83.4735,22.8949,0.0],[-83.4724,22.8932,0.0],[-83.4679,22.8935,1.5796],[-83.466,22.8921,2.1123],[-83.4576,22.8943,0.7411],[-83.4546,22.8932,0.5065],[-83.4526,22.8899,0.4427],[-83.4485,22.8907,0.4376],[-83.446,22.8935,0.4835],[-83.4482,22.894,0.6603],[-83.4437,22.8946,0.7495],[-83.4446,22.8971,1.0889],[-83.4415,22.8985,0.0],[-83.4454,22.8996,2.0107],[-83.4463,22.9051,0.5937],[-83.4415,22.909,2.2458],[-83.4321,22.9112,0.7884],[-83.4271,22.909,0.501],[-83.4238,22.9099,0.0],[-83.4249,22.9138,0.0],[-83.4296,22.9124,0.7522],[-83.431,22.914,0.2817]]],
[[[-83.4149,22.9082,0.4964],[-83.4165,22.9088,0.0],[-83.4163,22.9049,0.6367],[-83.4121,22.9068,0.8746],[-83.4149,22.9082,0.4964]]],
[[[-83.4321,22.9268,0.9531],[-83.4351,22.926,1.1874],[-83.4337,22.9229,0.5733],[-83.4315,22.9254,0.615],[-83.4321,22.9268,0.9531]]]]}
,"properties": {"GID_2": "CUB.13.5_1","GID_0": "CUB","country": "Cuba","GID_1": "CUB.13_1","province": "PinardelRío","NL_NAME_1": "NA","county": "LaPalma","VARNAME_2": "NA","NL_NAME_2": "NA","TYPE_2": "Municipio","ENGTYPE_2": "Municipality","CC_2": "NA","HASC_2": "CU.PR.LA","name": "La_Palma.county","area_km2": 773.3757,"hist_schema_id": "Elevation0-9000","hist_area_km2": {"0": 106.8023,"25": 83.0625,"50": 65.6234,"75": 51.1338,"100": 43.0013,"125": 70.3518,"150": 70.438,"175": 59.529,"200": 50.5111,"225": 38.4803,"250": 30.1063,"275": 24.1382,"300": 23.1384,"325": 17.249,"350": 12.4169,"375": 11.1846,"400": 6.7457,"425": 4.2429,"450": 1.8379,"475": 1.095,"500": 0.606,"525": 0.4887,"550": 0.2541,"575": 0.4692,"600": 0.2737,"625": 0.1173,"650": 0.0782}}}