{"type": "Feature","bbox": [-72.8494,18.2669,-72.6486,18.4432],"geometry": {"type": "MultiPolygon","coordinates": [[[[-72.7423,18.3207,1048.8153],[-72.7437,18.3236,1074.8071],[-72.7378,18.3222,1119.3633],[-72.7266,18.3108,949.2297],[-72.7247,18.3057,890.8835],[-72.7164,18.3029,733.533],[-72.7123,18.2952,750.4915],[-72.7034,18.3003,706.0645],[-72.7034,18.3074,843.3815],[-72.6993,18.3086,837.5629],[-72.6971,18.3114,792.467],[-72.6953,18.3188,711.697],[-72.6929,18.3208,689.8388],[-72.6834,18.322,466.5059],[-72.6824,18.3253,454.0948],[-72.6698,18.33,324.6075],[-72.6653,18.3283,304.1996],[-72.6629,18.3253,324.1572],[-72.6511,18.3237,268.5196],[-72.6486,18.326,263.0198],[-72.6504,18.3353,266.374],[-72.6526,18.3364,258.777],[-72.6529,18.3521,317.5306],[-72.6611,18.3503,481.4979],[-72.6708,18.3512,562.677],[-72.6777,18.3565,519.1483],[-72.6846,18.3582,499.3133],[-72.6738,18.3634,287.7097],[-72.6719,18.3714,297.3871],[-72.6633,18.3737,402.1512],[-72.6558,18.3846,675.4368],[-72.6726,18.3789,404.5028],[-72.6771,18.381,330.0406],[-72.6814,18.3806,300.5782],[-72.6792,18.3901,439.1433],[-72.6867,18.3889,385.5982],[-72.6971,18.3977,391.2386],[-72.6943,18.3994,398.5492],[-72.6992,18.4056,373.8545],[-72.6913,18.4118,271.4941],[-72.6927,18.418,301.6374],[-72.687,18.419,308.9418],[-72.6867,18.4213,278.2147],[-72.6924,18.4278,137.1701],[-72.6991,18.429,101.9761],[-72.703,18.4385,1.0975],[-72.7071,18.4341,3.1135],[-72.711,18.4351,1.027],[-72.7143,18.4332,0.0],[-72.7143,18.4315,0.783],[-72.7157,18.4321,0.0],[-72.7213,18.4287,2.4258],[-72.7288,18.4265,1.235],[-72.7393,18.4263,1.2412],[-72.7451,18.4271,0.0],[-72.7487,18.4301,1.3566],[-72.7538,18.4285,1.9551],[-72.7635,18.434,0.0],[-72.7826,18.4329,0.6212],[-72.786,18.4307,0.0],[-72.7913,18.4301,3.8167],[-72.7965,18.4326,2.733],[-72.8015,18.4379,0.0],[-72.8132,18.4424,0.0],[-72.8337,18.4432,20.7444],[-72.8335,18.4394,55.8433],[-72.8303,18.4364,111.8615],[-72.8255,18.4254,119.0428],[-72.8187,18.4226,144.0207],[-72.815,18.4168,258.1216],[-72.814,18.4072,461.3022],[-72.8158,18.4046,594.1064],[-72.8142,18.3975,587.5304],[-72.8163,18.3927,621.9741],[-72.8142,18.3891,749.2197],[-72.8195,18.3811,821.4665],[-72.8192,18.3772,873.2676],[-72.8215,18.3758,983.1484],[-72.8145,18.3697,709.6525],[-72.8081,18.3698,800.2626],[-72.8058,18.3642,807.5328],[-72.8087,18.359,946.1594],[-72.8158,18.3598,998.7716],[-72.8165,18.364,833.6035],[-72.8208,18.3691,823.8181],[-72.8245,18.3684,882.3372],[-72.8313,18.3647,1014.777],[-72.8248,18.3552,1069.6721],[-72.8253,18.353,1122.0023],[-72.8435,18.3476,1180.7334],[-72.8429,18.3388,1222.6609],[-72.847,18.3341,1069.8053],[-72.8457,18.3311,1011.5255],[-72.8494,18.3293,875.7753],[-72.8489,18.3271,874.2134],[-72.8468,18.3243,901.0034],[-72.8321,18.3189,905.3884],[-72.8291,18.3141,866.2209],[-72.8363,18.3113,772.3757],[-72.8365,18.3082,752.5354],[-72.8391,18.3089,676.9817],[-72.8418,18.3033,743.8801],[-72.8453,18.2999,918.4587],[-72.8335,18.2978,827.4596],[-72.8306,18.2916,524.1118],[-72.8243,18.2873,352.3733],[-72.8086,18.2867,676.7466],[-72.7947,18.2754,580.2025],[-72.765,18.2669,402.2009],[-72.7613,18.2685,376.7112],[-72.7617,18.2749,576.306],[-72.7636,18.2757,403.013],[-72.763,18.2786,497.1144],[-72.7558,18.2883,745.6382],[-72.7536,18.2903,1043.2352],[-72.7496,18.2901,1077.3577],[-72.7436,18.2873,1064.6523],[-72.7416,18.2896,1117.5411],[-72.7401,18.3001,1164.1144],[-72.7415,18.3096,1221.1604],[-72.7403,18.3125,1178.3185],[-72.7423,18.3207,1048.8153]]],
[[[-72.7493,18.4326,0.9884],[-72.7501,18.4335,0.9884],[-72.7518,18.4335,0.7592],[-72.7499,18.4313,0.0],[-72.7493,18.4326,0.9884]]]]}
,"properties": {"GID_3": "HTI.8.4.1_1","GID_0": "HTI","country": "Haiti","GID_1": "HTI.8_1","province": "Ouest","NL_NAME_1": "NA","GID_2": "HTI.8.4_1","county": "Léogâne","NL_NAME_2": "NA","city": "Grand-Goâve","VARNAME_3": "NA","NL_NAME_3": "NA","TYPE_3": "Commune","ENGTYPE_3": "Commune","CC_3": "NA","HASC_3": "NA","name": "Grand-Goâve.city","area_km2": 247.4749,"hist_schema_id": "Elevation0-9000","hist_area_km2": {"0": 4.9483,"25": 6.7588,"50": 3.6813,"75": 4.8884,"100": 6.2564,"125": 6.4375,"150": 6.4577,"175": 6.6992,"200": 6.9811,"225": 6.0759,"250": 6.2974,"275": 5.2713,"300": 4.7484,"325": 5.1308,"350": 4.6078,"375": 4.7487,"400": 4.608,"425": 3.4813,"450": 4.1655,"475": 4.7693,"500": 4.2863,"525": 4.4676,"550": 4.2061,"575": 4.4879,"600": 5.313,"625": 6.0175,"650": 6.0979,"675": 6.6818,"700": 7.487,"725": 5.3738,"750": 5.716,"775": 5.4745,"800": 5.8972,"825": 4.8506,"850": 5.7362,"875": 5.5954,"900": 5.5149,"925": 5.1124,"950": 4.8507,"975": 4.0455,"1000": 3.4819,"1025": 3.2203,"1050": 3.5424,"1075": 3.5021,"1100": 2.536,"1125": 2.6367,"1150": 2.536,"1175": 2.4555,"1200": 2.1737,"1225": 1.8315,"1250": 1.7912,"1275": 1.3484,"1300": 1.1069,"1325": 0.7245,"1350": 0.322,"1375": 0.0403}}}