{"type":"Feature","properties":{"ISO3166-1-Alpha-3":"JAM","country":"Jamaica","fill":"#F0F","id":"1378","name":"Portland"},
"geometry":{"type": "Polygon","coordinates": [[[-76.26374,18.01236,0.0],[-76.29581,18.07917,17.0891],[-76.31786,18.10928,0.0],[-76.34626,18.1352,98.0924],[-76.35114,18.15599,0.0],[-76.38939,18.16918,80.9665],[-76.463,18.18236,2.55],[-76.46662,18.18675,5.178],[-76.47448,18.20108,0.0],[-76.47973,18.20409,37.0322],[-76.5548,18.20409,0.0],[-76.56306,18.20596,0.0],[-76.5692,18.21011,0.0],[-76.57421,18.21467,0.0],[-76.57977,18.21603,0.0],[-76.59716,18.22775,38.5543],[-76.63036,18.22573,5.7632],[-76.64733,18.23078,0.0],[-76.66198,18.23981,0.3908],[-76.68102,18.25812,3.4913],[-76.69571,18.26557,1.2843],[-76.70145,18.26678,3.379],[-76.70146,18.26677,3.379],[-76.70443,18.26354,2.4233],[-76.75143,18.13861,985.7903],[-76.74521,18.11833,1062.7859],[-76.74484,18.11579,1046.1509],[-76.7359,18.0907,1273.4724],[-76.73466,18.08856,1134.3802],[-76.73162,18.08468,1149.877],[-76.7279,18.08251,1167.6443],[-76.72141,18.08063,1368.984],[-76.70846,18.07807,1283.6942],[-76.69841,18.0798,1278.3938],[-76.69358,18.08171,1205.4731],[-76.69157,18.08466,1255.9507],[-76.68934,18.08962,1004.1564],[-76.68785,18.09179,1046.4263],[-76.68593,18.09334,1081.1398],[-76.67296,18.09145,1405.4546],[-76.6278,18.07363,1510.239],[-76.60904,18.06138,1947.9316],[-76.60144,18.05153,1528.3463],[-76.59961,18.04975,1592.5967],[-76.59754,18.04805,1714.3149],[-76.5909,18.04373,1961.1788],[-76.58338,18.04032,1950.2202],[-76.53602,18.02603,1462.5074],[-76.52899,18.02216,992.1979],[-76.52519,18.02177,969.9731],[-76.52054,18.02221,959.809],[-76.51243,18.02508,1169.5946],[-76.50855,18.02748,1345.6506],[-76.50408,18.03161,1282.6754],[-76.50207,18.03316,1193.2533],[-76.49972,18.0343,1050.2197],[-76.49566,18.03477,839.3558],[-76.48155,18.03484,745.6479],[-76.47654,18.03549,611.6929],[-76.47295,18.03642,629.2142],[-76.46626,18.03993,708.2021],[-76.46119,18.04197,602.4381],[-76.45711,18.04179,726.8707],[-76.45215,18.04058,727.0138],[-76.43019,18.02841,582.762],[-76.39748,18.02355,516.6761],[-76.36789,18.01518,421.7047],[-76.36254,18.01304,453.4305],[-76.36068,18.01161,472.2513],[-76.359,18.0097,557.8694],[-76.35247,18.00066,598.876],[-76.34968,17.99787,608.1384],[-76.34577,17.99469,596.2579],[-76.33223,17.99146,754.7423],[-76.29578,17.98673,445.0035],[-76.28526,17.98789,237.5977],[-76.25738,17.99616,23.0209],[-76.25679,17.99634,15.7959],[-76.26374,18.01236,0.0]]]}}