{"type":"Feature","properties":{"GID_1":"JAM.5_1","GID_0":"JAM","country":"Jamaica","province":"Portland","VARNAME_1":"NA","NL_NAME_1":"NA","TYPE_1":"Parish","ENGTYPE_1":"Parish","CC_1":"NA","HASC_1":"JM.PO","ISO_1":"JM-04","name":"Portland.province"},
"geometry":{"type": "MultiPolygon","coordinates": [[[[-76.2634,18.0041,35.6022],[-76.2621,18.0079,0.0],[-76.2671,18.0104,0.0],[-76.2657,18.0163,1.6916],[-76.2693,18.0146,7.7166],[-76.2718,18.0157,3.2541],[-76.2699,18.0171,0.0],[-76.271,18.0232,0.0],[-76.2688,18.024,0.0],[-76.2696,18.0307,0.0],[-76.2749,18.034,0.0],[-76.2785,18.0332,0.2826],[-76.2774,18.0346,0.0],[-76.2782,18.0401,0.0],[-76.2768,18.041,0.8508],[-76.2743,18.0401,0.0],[-76.2724,18.0357,0.0],[-76.2707,18.036,0.0],[-76.2721,18.0482,1.5232],[-76.2793,18.0521,0.0],[-76.2796,18.0574,0.0],[-76.2826,18.0579,0.0],[-76.2821,18.0646,0.0],[-76.2854,18.0663,0.0],[-76.284,18.0671,0.0],[-76.2849,18.0699,0.0],[-76.2887,18.0713,9.3615],[-76.2885,18.0743,4.1485],[-76.2921,18.0768,15.7931],[-76.2921,18.0796,0.0],[-76.2971,18.0835,2.2792],[-76.3001,18.0885,1.2445],[-76.3024,18.089,0.8424],[-76.3065,18.0963,7.0109],[-76.3118,18.0985,5.5731],[-76.3115,18.1018,0.0],[-76.3143,18.1024,0.0],[-76.3168,18.1054,27.6756],[-76.3182,18.1104,0.0],[-76.3171,18.1221,8.278],[-76.319,18.1262,4.0205],[-76.3276,18.1274,0.0],[-76.3329,18.1318,0.0],[-76.3313,18.1457,0.0],[-76.3326,18.1499,0.0],[-76.3349,18.1504,5.7555],[-76.334,18.1529,1.1534],[-76.3371,18.1557,0.0],[-76.3404,18.1549,10.5848],[-76.3418,18.1563,0.0],[-76.3446,18.1535,12.0154],[-76.3504,18.1529,7.569],[-76.3529,18.1549,5.5848],[-76.3512,18.1588,0.0],[-76.354,18.1591,3.5905],[-76.356,18.1654,7.3364],[-76.3599,18.169,0.0],[-76.3721,18.1729,0.0],[-76.3757,18.1704,15.5372],[-76.3771,18.1749,0.0],[-76.3812,18.1724,0.0],[-76.3812,18.1746,0.0],[-76.3832,18.1751,6.3639],[-76.3843,18.1712,28.4996],[-76.3885,18.1738,0.0],[-76.3938,18.1735,5.1957],[-76.3951,18.1757,8.5286],[-76.3932,18.1768,0.0],[-76.3926,18.1796,0.0],[-76.3971,18.1762,2.8446],[-76.4026,18.1787,4.0868],[-76.4037,18.1735,28.0762],[-76.4088,18.1787,4.0009],[-76.4079,18.1815,0.0],[-76.4096,18.1818,2.5625],[-76.4115,18.1785,8.1166],[-76.4168,18.1787,6.2109],[-76.4196,18.174,0.0],[-76.4218,18.1746,5.607],[-76.4221,18.1765,3.5052],[-76.4182,18.1801,0.0],[-76.4232,18.1851,1.0879],[-76.4357,18.1843,1.3488],[-76.4365,18.186,0.0],[-76.4401,18.1865,8.614],[-76.439,18.1893,0.0],[-76.441,18.1879,0.9444],[-76.4429,18.1893,0.0],[-76.444,18.1876,4.3424],[-76.4437,18.1854,0.0],[-76.4404,18.1838,2.7728],[-76.4407,18.1796,0.0],[-76.4437,18.1774,0.9918],[-76.4476,18.1771,0.0],[-76.4507,18.1804,2.9027],[-76.4488,18.1851,3.3302],[-76.4535,18.1835,7.6942],[-76.4535,18.1796,2.9663],[-76.4574,18.1813,0.7911],[-76.4599,18.1851,0.0],[-76.4654,18.1846,2.5584],[-76.4668,18.1904,16.0228],[-76.4704,18.1913,0.0],[-76.4721,18.1982,0.0],[-76.476,18.2007,1.4154],[-76.4779,18.2057,0.0],[-76.4807,18.2076,0.0],[-76.4912,18.2068,17.1584],[-76.4957,18.2085,9.7057],[-76.4982,18.2068,16.8803],[-76.5024,18.2068,6.1319],[-76.5038,18.2032,13.4852],[-76.5085,18.2029,0.0],[-76.5085,18.2004,1.8815],[-76.5135,18.2021,0.0],[-76.519,18.1963,2.9825],[-76.5274,18.1982,5.2389],[-76.5354,18.2068,3.5868],[-76.5379,18.2074,0.0],[-76.5418,18.2057,0.8966],[-76.5429,18.2015,0.0],[-76.5476,18.1999,1.5429],[-76.5537,18.2012,1.8521],[-76.5579,18.204,0.0],[-76.5701,18.204,1.556],[-76.576,18.2079,3.7268],[-76.5832,18.219,0.0],[-76.5854,18.2199,10.0716],[-76.5974,18.2354,10.3199],[-76.6004,18.2321,7.9306],[-76.606,18.2318,2.358],[-76.6104,18.2287,4.5706],[-76.6229,18.2282,0.9776],[-76.6249,18.2293,0.0],[-76.6301,18.2271,0.0],[-76.6443,18.2274,0.0],[-76.6493,18.2299,26.377],[-76.6551,18.2365,0.0],[-76.6643,18.2424,0.0],[-76.6685,18.2488,3.0169],[-76.6696,18.2538,0.0],[-76.6774,18.2593,3.8825],[-76.681,18.2651,2.0233],[-76.6857,18.2671,0.0],[-76.6998,18.2668,1.3879],[-76.7534,18.1322,1069.1725],[-76.7525,18.1272,1040.1405],[-76.7463,18.1212,1047.6464],[-76.7453,18.1088,1268.2925],[-76.7395,18.0977,1265.7266],[-76.7243,18.0801,1223.6105],[-76.7153,18.0795,1300.9359],[-76.7069,18.0751,1200.5049],[-76.7036,18.0752,1283.8829],[-76.6928,18.0837,1171.2642],[-76.6865,18.0993,1282.8093],[-76.6837,18.101,1339.311],[-76.6724,18.0934,1569.6046],[-76.6658,18.0912,1501.4709],[-76.6575,18.0902,1460.0117],[-76.647,18.0923,1716.1919],[-76.6415,18.0905,1820.9141],[-76.6258,18.0795,1863.5775],[-76.6198,18.0633,1547.9241],[-76.5989,18.0501,1592.5967],[-76.595,18.0455,1859.9454],[-76.5798,18.0445,2152.3667],[-76.5749,18.0392,2065.6714],[-76.5677,18.035,1858.585],[-76.5585,18.0361,1838.0586],[-76.5446,18.0283,1550.4353],[-76.54,18.0286,1525.3857],[-76.5354,18.0333,1598.0898],[-76.5286,18.0304,1266.7493],[-76.5226,18.0305,1361.7361],[-76.5115,18.0371,1433.4595],[-76.5082,18.0409,1276.0696],[-76.5088,18.0442,1145.9238],[-76.5074,18.0458,1284.3179],[-76.4924,18.0381,657.2108],[-76.4841,18.0365,826.5636],[-76.473,18.0375,745.3412],[-76.4671,18.0436,674.0114],[-76.463,18.0443,714.0045],[-76.45,18.0402,752.8994],[-76.4438,18.0321,897.6914],[-76.3837,18.0228,244.2476],[-76.3806,18.0211,285.7536],[-76.3798,18.0148,314.5722],[-76.3687,18.0101,427.9659],[-76.3557,18.002,662.7645],[-76.2983,17.9872,522.0844],[-76.2798,17.988,181.5452],[-76.2661,17.9962,56.4738],[-76.2634,18.0041,35.6022]]],
[[[-76.4518,18.1893,1.5974],[-76.456,18.1882,3.6366],[-76.4576,18.1857,0.0],[-76.4538,18.1849,0.0],[-76.4499,18.1863,0.0],[-76.4493,18.1882,2.7899],[-76.4518,18.1893,1.5974]]]]}}