{"type": "Feature","bbox": [-62.8541,17.9113,-62.8494,17.9155],"geometry": {"type": "MultiPolygon","coordinates": [[[[-62.8494,17.9146,120.8762],[-62.8541,17.9155,58.9176],[-62.8534,17.9123,112.2166],[-62.8526,17.9113,142.7289],[-62.8494,17.9146,120.8762]]]]}
,"properties": {"GID_2": "BLM.2.17_1","GID_0": "BLM","country": "Saint-Barthélemy","GID_1": "BLM.2_1","province": "SousleVent","NL_NAME_1": "NA","county": "Merlette","VARNAME_2": "NA","NL_NAME_2": "NA","TYPE_2": "Quartier","ENGTYPE_2": "Quarter","CC_2": "NA","HASC_2": "NA","name": "Merlette.county","area_km2": 0.12104583,"hist_schema_id": "Elevation0-9000","hist_area_km2": {"50": 0.02017419,"75": 0.02017429,"100": 0.06052287,"125": 0.02017448}}}