{"type": "Feature","bbox": [-76.8996,20.2397,-76.5158,20.5893],"geometry": {"type": "MultiPolygon","coordinates": [[[[-76.8888,20.3938,19.0231],[-76.8996,20.3804,21.4733],[-76.8988,20.372,19.6416],[-76.8935,20.3696,20.9608],[-76.8652,20.3689,29.825],[-76.8606,20.3654,29.4861],[-76.8573,20.3516,29.6359],[-76.8526,20.3465,31.6301],[-76.8295,20.3387,34.8829],[-76.807,20.3359,37.5749],[-76.7942,20.3293,42.7255],[-76.7897,20.3242,45.2655],[-76.7752,20.2874,59.1465],[-76.7402,20.2714,70.0161],[-76.7325,20.2533,78.7319],[-76.7232,20.2417,90.8245],[-76.6745,20.2397,98.0],[-76.6754,20.2745,86.1768],[-76.6729,20.2817,74.5539],[-76.6661,20.288,72.3754],[-76.6313,20.2998,68.8785],[-76.5882,20.32,85.9979],[-76.5593,20.3228,98.2282],[-76.5429,20.3287,111.4847],[-76.5158,20.3324,111.4703],[-76.5265,20.3472,80.442],[-76.5394,20.3863,69.9159],[-76.5531,20.4122,60.4341],[-76.5569,20.4332,54.0662],[-76.5638,20.4507,49.8401],[-76.5631,20.4738,45.7847],[-76.5574,20.4873,45.1118],[-76.5539,20.5083,41.4932],[-76.5454,20.5242,40.2562],[-76.5609,20.5389,37.7542],[-76.5948,20.5844,34.6116],[-76.6028,20.5893,26.5158],[-76.6149,20.5893,32.986],[-76.6352,20.5824,32.8614],[-76.6799,20.5814,23.7177],[-76.7049,20.5739,22.0],[-76.7253,20.574,25.3724],[-76.7373,20.5775,14.5312],[-76.7678,20.5667,11.3954],[-76.7991,20.5637,17.2991],[-76.8215,20.556,13.4858],[-76.8252,20.5502,12.0629],[-76.8235,20.5396,16.1303],[-76.805,20.5074,20.663],[-76.7921,20.4915,23.6271],[-76.7658,20.443,30.866],[-76.7663,20.4339,30.9636],[-76.7818,20.4063,33.6275],[-76.793,20.4024,31.2289],[-76.8517,20.402,23.5924],[-76.8704,20.3957,22.5419],[-76.8888,20.3938,19.0231]]]]}
,"properties": {"GID_2": "CUB.5.2_1","GID_0": "CUB","country": "Cuba","GID_1": "CUB.5_1","province": "Granma","NL_NAME_1": "NA","county": "Bayamo","VARNAME_2": "NA","NL_NAME_2": "NA","TYPE_2": "Municipio","ENGTYPE_2": "Municipality","CC_2": "NA","HASC_2": "CU.GR.BY","name": "Bayamo.county","area_km2": 871.7608,"hist_schema_id": "Elevation0-9000","hist_area_km2": {"0": 2.6007,"25": 366.7839,"50": 343.9183,"75": 123.197,"100": 32.8944,"125": 2.1279,"150": 0.1988,"175": 0.0398}}}