{"type":"Feature","properties":{"ISO3166-1-Alpha-3":"DOM","country":"Dominican Republic","fill":"#F0F","id":"1979","name":"Duarte"},
"geometry":{"type": "Polygon","coordinates": [[[-70.21514,19.49739,381.8903],[-70.22579,19.49933,341.4661],[-70.23659,19.4992,398.9156],[-70.2425,19.47372,332.3094],[-70.25056,19.44168,312.2871],[-70.27904,19.41876,375.7614],[-70.32108,19.39944,467.5116],[-70.34056,19.35722,153.5066],[-70.34872,19.3104,101.3974],[-70.36273,19.26748,76.5344],[-70.36363,19.22493,62.1358],[-70.33126,19.17759,53.9685],[-70.28144,19.14643,47.1065],[-70.28188,19.15067,46.1316],[-70.28501,19.14984,47.0858],[-70.26643,19.15563,45.7996],[-70.24708,19.15059,43.0359],[-70.2261,19.14695,39.8809],[-70.2055,19.15043,37.5645],[-70.16124,19.15116,33.6645],[-70.11745,19.14633,28.4256],[-70.08908,19.14428,38.0619],[-70.06306,19.13307,26.2305],[-70.04053,19.12312,32.7085],[-70.01691,19.11615,128.1522],[-69.98614,19.11581,89.6062],[-69.95384,19.11369,135.0506],[-69.92906,19.10638,16.7473],[-69.90777,19.09349,126.0436],[-69.91115,19.06685,121.6749],[-69.92033,19.03925,74.1665],[-69.89343,19.03835,179.0701],[-69.87829,19.05734,201.48],[-69.877,19.07282,162.0604],[-69.87493,19.08398,163.993],[-69.82134,19.09,190.9193],[-69.75579,19.08759,179.0586],[-69.73613,19.1054,3.4329],[-69.73253,19.13669,3.1585],[-69.71902,19.15266,2.0621],[-69.70329,19.1626,3.1493],[-69.67675,19.17942,1.0469],[-69.6768,19.20648,6.8808],[-69.73731,19.22012,4.876],[-69.78615,19.19805,3.0492],[-69.85542,19.21074,13.3639],[-69.9226,19.24069,120.0359],[-69.99128,19.25712,211.9053],[-70.03993,19.29611,226.599],[-70.05355,19.31934,152.516],[-70.08393,19.32303,185.8679],[-70.11869,19.34709,469.1107],[-70.13106,19.38923,488.4159],[-70.13396,19.42352,252.0072],[-70.14574,19.4552,302.7393],[-70.17966,19.477,270.1497],[-70.21514,19.49739,381.8903]]]}}