{"type":"Feature","properties":{"GID_1":"DOM.6_1","GID_0":"DOM","country":"DominicanRepublic","province":"Duarte","VARNAME_1":"NA","NL_NAME_1":"NA","TYPE_1":"Provincia","ENGTYPE_1":"Province","CC_1":"NA","HASC_1":"DO.DU","ISO_1":"DO-06","name":"Duarte.province"},
"geometry":{"type": "MultiPolygon","coordinates": [[[[-69.9514,19.2553,277.9076],[-69.967,19.2667,331.1184],[-69.9771,19.2649,314.0127],[-70.0005,19.2697,402.4071],[-70.0119,19.2703,266.1961],[-70.02,19.2755,352.7802],[-70.0189,19.2812,425.1602],[-70.012,19.2921,81.2592],[-70.0165,19.3006,152.7995],[-70.0163,19.316,366.8625],[-70.0306,19.3186,274.6539],[-70.058,19.3274,179.6093],[-70.0787,19.3374,415.5704],[-70.0907,19.3388,487.1699],[-70.0987,19.3431,565.3586],[-70.0997,19.3482,656.231],[-70.0962,19.3578,617.4112],[-70.0884,19.3674,384.4884],[-70.0874,19.3803,187.6611],[-70.0763,19.3914,129.5343],[-70.0745,19.4031,105.0312],[-70.0764,19.4191,123.4819],[-70.0803,19.4249,63.2092],[-70.0921,19.4231,85.1631],[-70.1039,19.4288,157.3777],[-70.1103,19.4281,194.7184],[-70.1126,19.4238,168.5504],[-70.1165,19.4208,180.8617],[-70.1326,19.4248,133.6449],[-70.1353,19.4297,133.4934],[-70.1355,19.4377,220.767],[-70.1241,19.4579,306.2858],[-70.1235,19.4729,292.1445],[-70.1259,19.4784,341.2647],[-70.1349,19.4837,301.7018],[-70.1359,19.4956,269.4034],[-70.1401,19.5034,185.0576],[-70.1452,19.5049,248.534],[-70.1547,19.5026,429.2924],[-70.1759,19.5077,467.3407],[-70.1881,19.5085,491.4328],[-70.1949,19.5126,611.9767],[-70.209,19.506,366.1854],[-70.2257,19.5107,498.3892],[-70.2356,19.5116,440.7405],[-70.2409,19.5144,475.45],[-70.2471,19.5034,478.483],[-70.2442,19.496,441.1684],[-70.2506,19.4879,389.5895],[-70.2536,19.4787,389.7363],[-70.2576,19.4774,357.4415],[-70.2699,19.4777,343.3626],[-70.2804,19.4827,344.3889],[-70.2924,19.4747,336.9029],[-70.2871,19.4621,339.9431],[-70.2878,19.4581,365.3076],[-70.2924,19.4525,353.0116],[-70.292,19.4502,331.4935],[-70.2878,19.4493,338.0419],[-70.2796,19.4514,321.8124],[-70.2777,19.4452,334.8645],[-70.2752,19.4439,330.4819],[-70.2668,19.4485,304.723],[-70.2628,19.4486,319.6013],[-70.2577,19.4453,309.6053],[-70.2572,19.4405,408.3638],[-70.2594,19.4385,431.8427],[-70.2661,19.4402,410.9326],[-70.2745,19.4361,399.1686],[-70.2776,19.4322,340.1767],[-70.2792,19.4221,350.0185],[-70.2899,19.4187,375.3252],[-70.2941,19.4109,399.3403],[-70.3008,19.4052,479.9753],[-70.3097,19.3917,430.724],[-70.3192,19.3862,280.9132],[-70.3204,19.3737,182.0838],[-70.3233,19.3692,177.8918],[-70.3281,19.3661,170.357],[-70.3242,19.3561,158.9499],[-70.3282,19.3501,147.8511],[-70.335,19.3299,122.2865],[-70.339,19.3297,120.7427],[-70.3454,19.3364,127.0208],[-70.3525,19.3314,126.5162],[-70.3511,19.3279,118.5364],[-70.344,19.322,113.7886],[-70.3459,19.3124,99.0297],[-70.341,19.2966,96.3828],[-70.3408,19.2906,97.6529],[-70.3428,19.2869,89.9439],[-70.3605,19.2698,77.1366],[-70.3669,19.2579,75.1365],[-70.3674,19.2532,72.6371],[-70.3638,19.2415,67.8306],[-70.3559,19.2364,65.2831],[-70.3555,19.213,62.3363],[-70.3538,19.2086,59.5152],[-70.3476,19.2028,57.7027],[-70.3275,19.1914,55.1851],[-70.3247,19.1843,54.8418],[-70.3149,19.1716,51.4789],[-70.3034,19.1669,47.7833],[-70.2982,19.1621,47.5243],[-70.2868,19.158,45.2271],[-70.2779,19.1511,42.7825],[-70.2753,19.1504,45.4703],[-70.2663,19.158,43.9274],[-70.2589,19.1537,49.8932],[-70.2485,19.1559,40.6054],[-70.2372,19.1488,47.4789],[-70.228,19.1495,38.2235],[-70.2232,19.1423,39.9226],[-70.2069,19.137,48.0588],[-70.2018,19.1411,39.0371],[-70.2,19.149,41.3655],[-70.191,19.1482,34.5871],[-70.1817,19.1566,35.1331],[-70.1772,19.1583,35.9201],[-70.1698,19.1576,32.01],[-70.1672,19.148,33.2548],[-70.1594,19.1484,32.8173],[-70.1557,19.1471,33.6681],[-70.1528,19.1399,31.2982],[-70.15,19.1381,32.0425],[-70.1452,19.1397,32.6584],[-70.1471,19.1462,31.5449],[-70.1461,19.1493,33.9819],[-70.1405,19.1522,30.7038],[-70.1326,19.1524,29.1388],[-70.1323,19.1563,31.2374],[-70.1307,19.1574,28.5923],[-70.1273,19.1556,30.6181],[-70.1251,19.1509,33.1356],[-70.1063,19.1522,32.9173],[-70.1038,19.1512,27.4508],[-70.1021,19.1476,25.1633],[-70.0969,19.145,39.2898],[-70.084,19.1469,30.1144],[-70.0801,19.1508,25.3937],[-70.0774,19.1513,21.8236],[-70.0716,19.1415,31.7909],[-70.0626,19.1426,20.2796],[-70.0597,19.1386,29.4164],[-70.0447,19.1301,64.33],[-70.0433,19.1257,77.6907],[-70.0428,19.1069,118.1939],[-70.0391,19.1001,114.4809],[-70.0329,19.0938,91.8176],[-70.02,19.085,98.2891],[-70.0005,19.0782,121.6089],[-69.9928,19.0709,114.9912],[-69.9817,19.0792,87.1453],[-69.9839,19.0968,122.6395],[-69.9813,19.1035,113.7061],[-69.9687,19.1033,122.3936],[-69.9589,19.1006,145.1305],[-69.9446,19.1006,159.145],[-69.943,19.1035,167.8356],[-69.9478,19.1147,141.2075],[-69.9479,19.1184,128.7207],[-69.9393,19.1225,16.4247],[-69.9358,19.1222,15.8898],[-69.928,19.1187,64.8354],[-69.9271,19.107,20.938],[-69.9242,19.1036,17.2418],[-69.9176,19.1007,41.191],[-69.8976,19.0973,22.8879],[-69.895,19.0954,53.3593],[-69.8951,19.0842,164.9279],[-69.903,19.0684,26.3191],[-69.9021,19.0636,65.8952],[-69.9046,19.0468,41.3033],[-69.8824,19.0464,211.8176],[-69.8688,19.0409,209.3806],[-69.8648,19.0424,201.2554],[-69.8621,19.0499,198.6014],[-69.8656,19.0574,187.0387],[-69.8702,19.0623,178.0328],[-69.868,19.0715,184.0361],[-69.8703,19.0812,166.9063],[-69.8683,19.0832,197.4364],[-69.8614,19.0846,152.2147],[-69.8546,19.0825,156.37],[-69.8527,19.0759,168.402],[-69.8507,19.0747,186.1216],[-69.8479,19.0753,169.0046],[-69.8439,19.0794,157.5562],[-69.833,19.0827,169.6167],[-69.8229,19.0814,184.8392],[-69.818,19.0786,200.6711],[-69.8109,19.0796,166.8515],[-69.8019,19.0771,176.0903],[-69.7974,19.0795,162.9264],[-69.7932,19.0908,137.8628],[-69.7897,19.0936,146.2256],[-69.779,19.0918,179.0718],[-69.7684,19.099,83.8546],[-69.7556,19.0938,97.54],[-69.7351,19.0938,85.3084],[-69.7211,19.0991,10.3402],[-69.7191,19.103,11.1721],[-69.7199,19.109,3.5801],[-69.7262,19.1118,10.3074],[-69.7304,19.1157,2.9045],[-69.7453,19.1412,2.5864],[-69.7461,19.1472,4.7301],[-69.7431,19.15,4.6506],[-69.7375,19.1494,4.7622],[-69.7305,19.1394,5.0106],[-69.7239,19.1362,4.9339],[-69.706,19.1447,2.6963],[-69.7037,19.1523,4.5939],[-69.697,19.1577,2.6321],[-69.6947,19.1629,2.6195],[-69.6913,19.1634,2.5557],[-69.6855,19.1595,0.8589],[-69.6757,19.1673,0.7514],[-69.6742,19.1804,3.169],[-69.6668,19.1889,0.9671],[-69.6641,19.1946,0.8858],[-69.6675,19.2005,10.497],[-69.6863,19.2165,1.5937],[-69.71,19.2176,2.5992],[-69.7251,19.2205,2.8492],[-69.7506,19.2209,3.7358],[-69.756,19.2182,2.2954],[-69.7667,19.2173,2.7405],[-69.7746,19.2104,3.6616],[-69.7792,19.1985,9.0826],[-69.7825,19.1965,4.2199],[-69.7909,19.2003,3.0167],[-69.7977,19.1999,4.6771],[-69.8052,19.2059,3.8138],[-69.8184,19.2122,7.9023],[-69.8335,19.2114,6.9416],[-69.8415,19.2177,16.4646],[-69.8516,19.2199,10.8507],[-69.8591,19.2297,17.5289],[-69.886,19.228,187.4599],[-69.8961,19.2407,100.6526],[-69.9134,19.2426,159.6196],[-69.9164,19.25,88.2809],[-69.9194,19.2524,106.9671],[-69.9236,19.2524,113.5728],[-69.9306,19.2477,149.4769],[-69.9348,19.2473,160.339],[-69.9514,19.2553,277.9076]]]]}}