{"type":"Feature","properties":{"featurecla":"River","scalerank":11,"rivernum":22264,"dissolve":"22264River","name":"null990","name_alt":null,"note":"ID is link back to CEC data","name_full":null,"min_zoom":6.7,"strokeweig":0.2,"uident":2015701,"min_label":7.7},
"geometry":{"type": "LineString","coordinates": [[-70.5018611318954,19.282253322389863,106.8878],[-70.491037564187067,19.260809637494035,94.6699],[-70.382639126687067,19.154811916139863,66.6443],[-70.320912238666239,19.144639390098206,50.6692],[-70.275502082416239,19.152614650514863,45.9146],[-70.2333064443954,19.142401434369035,44.7262],[-70.163685676166239,19.149196681764863,33.6033],[-70.095041470437067,19.123073634889863,85.065],[-70.064523892312067,19.129746811973206,79.6453],[-69.998117642312067,19.118272202598206,129.9435],[-69.8241267568954,19.160508530723206,12.1736],[-69.7257380850204,19.136257228639863,3.4835],[-69.6810603506454,19.139349676556535,2.5989],[-69.648060676166239,19.159491278119035,12.7666],[-69.627308723041239,19.157253322389863,0.0]]}}