{"type": "Feature","bbox": [-82.3654,23.0394,-82.3072,23.0897],"geometry": {"type": "MultiPolygon","coordinates": [[[[-82.3072,23.0394,74.9073],[-82.32,23.0619,55.6903],[-82.3193,23.0897,30.6583],[-82.347,23.0896,17.4967],[-82.3556,23.0814,38.4627],[-82.3654,23.0533,86.8764],[-82.3505,23.0401,77.2898],[-82.3072,23.0394,74.9073]]]]}
,"properties": {"GID_2": "CUB.4.6_1","GID_0": "CUB","country": "Cuba","GID_1": "CUB.4_1","province": "CiudaddelaHabana","NL_NAME_1": "NA","county": "DiezdeOctubre","VARNAME_2": "NA","NL_NAME_2": "NA","TYPE_2": "Municipio","ENGTYPE_2": "Municipality","CC_2": "NA","HASC_2": "CU.CH.DO","name": "Diezde_Octubre.county","area_km2": 23.60422,"hist_schema_id": "Elevation0-9000","hist_area_km2": {"25": 3.88145,"50": 5.81285,"75": 8.73999,"100": 4.87731,"125": 0.29263}}}