{"type": "Feature","bbox": [-70.6067,19.335,-70.4015,19.6028],"geometry": {"type": "MultiPolygon","coordinates": [[[[-70.4477,19.3658,185.847],[-70.4454,19.3672,184.0552],[-70.4396,19.3782,179.6416],[-70.4411,19.3881,216.9094],[-70.4302,19.4061,246.4529],[-70.4282,19.4136,266.9828],[-70.4297,19.4193,312.5006],[-70.4295,19.4269,361.5576],[-70.4219,19.4386,502.3111],[-70.4208,19.4427,494.4135],[-70.4213,19.4522,599.7004],[-70.4262,19.4622,463.9225],[-70.4241,19.4667,488.6643],[-70.4242,19.4719,479.3976],[-70.4292,19.4788,422.6817],[-70.4373,19.4961,399.8346],[-70.4275,19.5126,439.85],[-70.4263,19.5252,396.6534],[-70.4187,19.53,429.2705],[-70.4159,19.5344,283.6016],[-70.417,19.5438,216.4971],[-70.4096,19.5496,302.3799],[-70.4085,19.5581,190.1645],[-70.4041,19.5616,294.7934],[-70.4044,19.5649,248.183],[-70.4015,19.5708,214.3889],[-70.4088,19.5779,189.9596],[-70.4134,19.5923,150.2728],[-70.4215,19.6005,114.4859],[-70.4271,19.6028,124.1175],[-70.4321,19.6019,117.6102],[-70.4352,19.5969,100.3695],[-70.4328,19.5868,108.7666],[-70.4328,19.5615,298.0842],[-70.4338,19.5583,337.3488],[-70.4406,19.5522,319.2881],[-70.4423,19.545,396.5631],[-70.4458,19.5433,413.2498],[-70.4556,19.5439,263.5172],[-70.4615,19.5507,344.4582],[-70.4648,19.551,333.9818],[-70.4667,19.5476,451.9942],[-70.4711,19.5446,498.1501],[-70.474,19.5371,491.5774],[-70.4751,19.5271,531.9243],[-70.4836,19.519,631.7913],[-70.4977,19.5183,724.2179],[-70.5006,19.5198,683.233],[-70.4982,19.5315,629.867],[-70.5034,19.544,607.2292],[-70.5013,19.5563,523.2971],[-70.504,19.5599,496.2569],[-70.509,19.5618,539.4197],[-70.5101,19.5664,530.1026],[-70.5158,19.5685,543.3369],[-70.5205,19.5645,600.4017],[-70.5275,19.5632,618.7723],[-70.53,19.5612,627.3229],[-70.5309,19.5527,671.0333],[-70.5282,19.544,717.275],[-70.5301,19.5363,770.0527],[-70.5265,19.5288,787.2683],[-70.5286,19.5201,867.1363],[-70.5334,19.5166,923.0229],[-70.5345,19.5089,776.9782],[-70.5398,19.5074,700.7711],[-70.5414,19.5054,634.6467],[-70.548,19.4861,555.4922],[-70.5753,19.4762,307.1082],[-70.5784,19.4721,242.6139],[-70.5755,19.458,223.2307],[-70.5758,19.438,203.1372],[-70.5883,19.428,186.8157],[-70.5903,19.4224,175.9688],[-70.5859,19.4151,177.454],[-70.5866,19.4091,173.9544],[-70.5819,19.4014,167.2275],[-70.5829,19.3952,164.5586],[-70.5761,19.3791,188.1328],[-70.5814,19.3778,179.5091],[-70.5895,19.3802,177.3923],[-70.599,19.3775,181.5688],[-70.604,19.3734,189.7305],[-70.6067,19.367,204.6441],[-70.5983,19.3508,212.4022],[-70.5871,19.3489,220.1476],[-70.5745,19.3416,183.1027],[-70.5321,19.3409,126.9639],[-70.5239,19.3461,145.7123],[-70.5131,19.3481,146.4784],[-70.4893,19.335,134.4994],[-70.4792,19.3419,140.1979],[-70.4749,19.3492,156.4923],[-70.4717,19.3563,166.0819],[-70.4715,19.3684,172.4487],[-70.47,19.3712,180.0314],[-70.4613,19.3714,184.7265],[-70.4533,19.3666,160.2189],[-70.4477,19.3658,185.847]]]]}
,"properties": {"GID_2": "DOM.8.4_1","GID_0": "DOM","country": "DominicanRepublic","GID_1": "DOM.8_1","province": "Espaillat","NL_NAME_1": "NA","county": "Moca","VARNAME_2": "NA","NL_NAME_2": "NA","TYPE_2": "Municipio","ENGTYPE_2": "Municipality","CC_2": "NA","HASC_2": "DO.ES.MO","name": "Moca.county","area_km2": 334.7188,"hist_schema_id": "Elevation0-9000","hist_area_km2": {"75": 0.0399,"100": 0.3396,"125": 4.1397,"150": 29.3222,"175": 46.9379,"200": 44.194,"225": 31.6919,"250": 18.9128,"275": 11.1947,"300": 7.6161,"325": 7.656,"350": 7.9157,"375": 9.3147,"400": 9.3946,"425": 9.4347,"450": 8.1952,"475": 7.2957,"500": 7.2955,"525": 6.7756,"550": 6.256,"575": 5.876,"600": 6.7554,"625": 6.635,"650": 6.6151,"675": 5.9156,"700": 5.7357,"725": 4.3768,"750": 4.2569,"775": 3.6574,"800": 3.0379,"825": 2.5183,"850": 2.2385,"875": 1.5189,"900": 0.8394,"925": 0.6795,"950": 0.1399}}}