{"type": "Feature","bbox": [-82.0957,22.9906,-81.8465,23.1229],"geometry": {"type": "MultiPolygon","coordinates": [[[[-82.0957,23.0426,234.0704],[-82.0821,23.0489,120.382],[-82.0461,23.0323,201.7884],[-82.0311,23.0084,173.7001],[-82.0238,23.0027,135.5315],[-81.9631,22.9906,105.8417],[-81.9351,22.9998,97.4161],[-81.9126,23.003,93.568],[-81.8465,23.0337,113.3657],[-81.875,23.0654,119.1177],[-81.891,23.0973,81.9273],[-81.925,23.0998,105.4885],[-81.9484,23.1066,114.6221],[-81.9947,23.1075,50.1185],[-82.0432,23.1229,37.397],[-82.0633,23.1037,56.9049],[-82.0622,23.1007,54.4865],[-82.0638,23.0874,55.8446],[-82.0695,23.0788,87.8241],[-82.0803,23.0718,111.3621],[-82.0882,23.0637,105.8072],[-82.0945,23.051,114.6245],[-82.0957,23.0426,234.0704]]]]}
,"properties": {"GID_2": "CUB.12.4_1","GID_0": "CUB","country": "Cuba","GID_1": "CUB.12_1","province": "Mayabeque","NL_NAME_1": "NA","county": "Jaruco","VARNAME_2": "NA","NL_NAME_2": "NA","TYPE_2": "Municipio","ENGTYPE_2": "Municipality","CC_2": "NA","HASC_2": "CU.LH.JA","name": "Jaruco.county","area_km2": 230.2619,"hist_schema_id": "Elevation0-9000","hist_area_km2": {"25": 4.9337,"50": 17.8647,"75": 17.6138,"100": 115.0118,"125": 61.024,"150": 7.0045,"175": 2.1268,"200": 1.3267,"225": 1.5413,"250": 1.3853,"275": 0.4097,"300": 0.0195}}}