{"type": "Feature","id": "1430","bbox": [-82.16397,22.04401,-80.47077,23.26557],"geometry": {"type": "MultiPolygon","coordinates": [[[[-81.54939,22.05842,1.1219],[-81.55626,22.06599,0.0],[-81.56115,22.06916,0.0],[-81.57152,22.07412,0.0],[-81.58251,22.07661,1.7298],[-81.58886,22.0727,0.0],[-81.58886,22.06436,0.8807],[-81.58633,22.05679,0.0],[-81.58186,22.0506,0.0],[-81.57575,22.04906,0.3393],[-81.56542,22.04987,0.0],[-81.55492,22.04401,0.0],[-81.54703,22.04458,0.8967],[-81.54939,22.05842,1.1219]]],
[[[-80.84374,23.17821,0.0],[-80.84813,23.18513,0.0],[-80.85497,23.1789,0.0],[-80.85082,23.17365,1.0401],[-80.8452,23.16323,0.6211],[-80.8413,23.15778,0.6901],[-80.86254,23.16218,0.0],[-80.88195,23.16279,0.0],[-80.89981,23.15917,0.0],[-80.96044,23.12214,0.0],[-80.97167,23.11066,0.0],[-80.92219,23.13386,0.0],[-80.89782,23.14175,4.4008],[-80.86555,23.14476,2.7983],[-80.85318,23.14175,0.9979],[-80.8426,23.13666,6.7819],[-80.83064,23.13565,4.4526],[-80.81404,23.14476,0.0],[-80.80484,23.1529,0.0],[-80.8048,23.15754,0.0],[-80.81111,23.16429,0.0],[-80.82079,23.1789,0.0],[-80.82824,23.1789,0.0],[-80.82824,23.16523,0.0],[-80.84374,23.17821,0.0]]],
[[[-80.52599,23.19257,0.0],[-80.53136,23.19546,0.0],[-80.5393,23.20433,0.0],[-80.54337,23.20624,0.0],[-80.55968,23.20506,0.0],[-80.57042,23.20091,0.0],[-80.57698,23.19257,0.8653],[-80.58064,23.1789,0.8781],[-80.56847,23.18513,0.2274],[-80.56408,23.18476,1.1009],[-80.56017,23.1789,0.1033],[-80.54308,23.1822,0.0],[-80.52294,23.17674,0.1557],[-80.50528,23.16975,2.2096],[-80.49523,23.16836,1.1023],[-80.48681,23.1739,4.3612],[-80.47891,23.17744,1.8001],[-80.47301,23.18155,4.8629],[-80.47077,23.18887,0.0],[-80.47338,23.19603,0.0],[-80.4794,23.19636,3.975],[-80.48644,23.19379,0.0],[-80.49185,23.19257,0.0],[-80.51732,23.1918,0.0],[-80.52599,23.19257,0.0]]],
[[[-80.66364,23.2014,0.0],[-80.66588,23.20917,1.6398],[-80.66853,23.21223,5.7562],[-80.6776,23.21027,0.1753],[-80.69489,23.20392,0.0],[-80.70495,23.19306,0.9023],[-80.70425,23.18032,1.368],[-80.70084,23.17719,1.6817],[-80.69884,23.18391,0.0],[-80.69131,23.18773,0.0],[-80.67984,23.18561,0.0],[-80.67467,23.18684,1.1773],[-80.6737,23.19404,0.5026],[-80.67052,23.19481,0.0],[-80.66613,23.19448,0.0],[-80.66364,23.2014,0.0]]],
[[[-81.18489,23.05207,1.5597],[-81.24193,23.11371,0.0],[-81.28628,23.12425,4.8459],[-81.28628,23.13052,5.3535],[-81.27221,23.14199,4.6315],[-81.21788,23.17267,4.7257],[-81.17243,23.18366,2.9258],[-81.14476,23.19428,9.3654],[-81.1306,23.20563,0.0],[-81.14916,23.21239,0.0],[-81.1656,23.20783,0.0],[-81.20983,23.18374,0.0],[-81.23424,23.16645,0.0],[-81.27139,23.14956,0.0],[-81.28628,23.14476,0.0],[-81.33336,23.13825,0.0],[-81.35814,23.13174,0.0],[-81.36889,23.12092,0.0],[-81.38012,23.11636,0.0],[-81.46422,23.10285,0.0],[-81.4733,23.10261,0.0],[-81.4807,23.10033,0.0],[-81.489,23.09325,0.0],[-81.49254,23.08487,0.0],[-81.49877,23.06049,0.0],[-81.50267,23.05537,0.0],[-81.51765,23.04979,0.0],[-81.5288,23.04719,0.0],[-81.54019,23.04857,0.0],[-81.55256,23.05435,0.0],[-81.5524,23.05736,1.9236],[-81.54621,23.06118,3.3219],[-81.54019,23.06904,15.1449],[-81.53531,23.08633,54.0143],[-81.53209,23.10932,1.5004],[-81.53555,23.12938,0.0],[-81.55679,23.14081,0.0],[-81.57429,23.154,0.0],[-81.58117,23.15778,0.0],[-81.59459,23.15933,0.0],[-81.60643,23.15884,0.0],[-81.61758,23.15961,0.0],[-81.62898,23.16523,0.0],[-81.64232,23.15884,0.0],[-81.65807,23.15681,0.0],[-81.68391,23.15693,0.0],[-81.68391,23.15693,0.0],[-81.68522,23.14874,4.2392],[-81.69534,23.13655,117.3896],[-81.68258,23.08417,84.3207],[-81.68075,23.07146,66.7038],[-81.68056,23.06451,51.4736],[-81.68206,23.0641,60.2563],[-81.68475,23.06503,65.9756],[-81.69431,23.0703,114.2506],[-81.69948,23.07014,85.8498],[-81.70465,23.06738,83.8953],[-81.71175,23.05826,115.6142],[-81.71369,23.05327,102.3709],[-81.71307,23.04952,85.3476],[-81.70449,23.04314,94.0083],[-81.7001,23.03766,87.1328],[-81.69984,23.03482,77.0467],[-81.70227,23.03195,64.8023],[-81.7062,23.0304,63.0],[-81.7155,23.01841,275.5874],[-81.73575,23.00555,174.1355],[-81.74139,23.00097,141.6257],[-81.74188,23.0003,138.2199],[-81.74302,22.99826,137.3946],[-81.74464,22.99457,111.0786],[-81.74718,22.98684,91.7283],[-81.74557,22.98364,98.2426],[-81.74201,22.98185,80.9743],[-81.73097,22.98061,75.7506],[-81.72369,22.978,71.0341],[-81.71643,22.97276,96.1955],[-81.70857,22.96601,59.3204],[-81.69227,22.94645,62.7592],[-81.68067,22.93067,93.6185],[-81.67979,22.92749,91.4394],[-81.67904,22.92067,171.7815],[-81.6801,22.91659,145.4091],[-81.68261,22.88801,153.9511],[-81.6955,22.85065,122.805],[-81.67917,22.82357,53.8178],[-81.6638,22.81018,41.0632],[-81.6509,22.80166,35.6689],[-81.64664,22.79613,32.8919],[-81.64664,22.7899,28.6753],[-81.65754,22.76463,26.4155],[-81.65798,22.74936,22.7737],[-81.65212,22.73993,14.8977],[-81.61434,22.71843,17.494],[-81.59809,22.70497,14.022],[-81.59618,22.69009,8.8667],[-81.60385,22.63952,12.0844],[-81.60592,22.63247,13.3628],[-81.6091,22.62511,9.6144],[-81.61475,22.6164,2.6193],[-81.62336,22.60601,1.7044],[-81.63612,22.58684,2.5692],[-81.63948,22.58389,3.8157],[-81.64393,22.58087,6.6527],[-81.64723,22.57947,7.987],[-81.64809,22.57878,7.987],[-81.64923,22.57716,7.9397],[-81.65071,22.57507,4.3734],[-81.64326,22.57274,7.6042],[-81.64265,22.56196,9.5751],[-81.65131,22.53384,4.5363],[-81.64879,22.5183,7.2972],[-81.6528,22.50878,3.6726],[-81.65156,22.48783,0.5575],[-81.66095,22.48419,0.0],[-81.6703,22.47595,0.0],[-81.6835,22.46359,2.5512],[-81.69787,22.45954,0.0],[-81.70873,22.45718,0.0],[-81.72851,22.45722,0.0],[-81.73884,22.45209,0.0],[-81.75007,22.45401,1.3288],[-81.78964,22.43832,2.3998],[-81.84114,22.43076,0.0],[-81.86389,22.43263,0.0],[-81.89058,22.43855,0.0],[-81.90904,22.43546,0.3919],[-81.93947,22.43322,0.0],[-81.96608,22.43712,0.0],[-82.00363,22.42815,0.0],[-82.11874,22.43183,0.0],[-82.13121,22.42813,0.0],[-82.14639,22.42219,0.0],[-82.15838,22.41253,0.0],[-82.16397,22.39688,0.0],[-82.15453,22.37987,0.0],[-82.1376,22.37214,2.0819],[-82.11925,22.37006,0.0],[-82.10562,22.37018,0.0],[-82.10464,22.3662,0.0],[-82.09317,22.34785,2.0453],[-82.08825,22.34223,1.9953],[-82.0799,22.3393,2.1562],[-82.05997,22.33731,1.933],[-82.05101,22.33259,4.4072],[-82.03588,22.32099,0.0],[-82.02139,22.3133,0.0],[-81.87971,22.2604,2.8477],[-81.86238,22.24356,0.0],[-81.85875,22.22891,0.0],[-81.84968,22.21499,1.1309],[-81.82445,22.18891,0.0],[-81.81021,22.18382,1.139],[-81.76354,22.17841,1.2139],[-81.75251,22.17837,1.2299],[-81.75524,22.18537,1.1925],[-81.75691,22.18806,0.4148],[-81.75992,22.19204,2.3581],[-81.74108,22.1896,0.0],[-81.73461,22.19278,1.3162],[-81.732,22.20502,1.2778],[-81.72574,22.20502,1.2743],[-81.71198,22.19916,0.5149],[-81.68863,22.19684,1.1166],[-81.66662,22.1979,1.1047],[-81.65685,22.20197,1.09],[-81.65148,22.21296,1.6306],[-81.63956,22.21271,1.7893],[-81.6278,22.20795,1.9255],[-81.62271,22.20502,1.4308],[-81.58117,22.19204,0.7492],[-81.57677,22.18887,0.0],[-81.57433,22.18012,0.2503],[-81.5712,22.17837,0.7963],[-81.56517,22.17951,2.2409],[-81.56212,22.18207,5.3022],[-81.56021,22.18464,0.9764],[-81.55761,22.18578,3.0643],[-81.54589,22.18887,1.4338],[-81.53124,22.20197,1.1572],[-81.52351,22.20502,1.0062],[-81.51281,22.20197,0.9128],[-81.49356,22.18887,0.0],[-81.48217,22.18578,0.0],[-81.43407,22.18578,1.1804],[-81.39611,22.17072,0.4923],[-81.37409,22.10415,0.8309],[-81.33788,22.08902,1.0578],[-81.32559,22.0917,0.0],[-81.32274,22.09785,0.0],[-81.32152,22.10472,0.0],[-81.31428,22.10952,0.4831],[-81.30606,22.10737,1.1553],[-81.29931,22.10126,0.1778],[-81.29133,22.09756,0.0],[-81.27953,22.10261,0.0],[-81.27526,22.11026,0.0],[-81.27644,22.12889,0.0],[-81.2733,22.1374,1.227],[-81.26708,22.14159,0.0],[-81.23913,22.15107,0.8214],[-81.22981,22.14395,0.9885],[-81.21544,22.11498,0.9689],[-81.21125,22.08348,0.0],[-81.22549,22.06167,0.0],[-81.2047,22.06029,0.0],[-81.19689,22.09125,0.0],[-81.19758,22.21247,1.5691],[-81.21158,22.25532,2.3549],[-81.21182,22.26777,0.0],[-81.20519,22.27806,0.0],[-81.19396,22.28156,5.4712],[-81.18053,22.27888,10.8113],[-81.16714,22.27082,12.7731],[-81.1407,22.23273,11.0165],[-81.1361,22.22989,3.9501],[-81.14363,22.1874,0.0],[-81.14297,22.17154,0.0],[-81.13948,22.16181,0.0],[-81.11376,22.11123,8.2425],[-81.10367,22.09589,0.0],[-81.08845,22.08584,9.4013],[-81.04918,22.07844,13.3022],[-81.01163,22.06053,8.7028],[-80.9921,22.05427,6.2744],[-80.90526,22.04613,10.0075],[-80.7611,22.0611,9.1345],[-80.63801,22.05305,6.3203],[-80.59337,22.05423,10.659],[-80.59342,22.05431,10.659],[-80.60079,22.06532,11.7985],[-80.60296,22.07144,11.681],[-80.60479,22.08279,10.0512],[-80.6052,22.1002,1.8401],[-80.60621,22.10547,3.7339],[-80.6082,22.11002,2.6346],[-80.61107,22.11397,1.8844],[-80.61817,22.12129,7.1936],[-80.62471,22.12351,6.9757],[-80.63559,22.124389999999998,2.2058],[-80.65644,22.12191,1.725],[-80.67073,22.11834,1.6779],[-80.68003,22.11793,1.9967],[-80.68476,22.11963,1.9997],[-80.69122,22.1256,2.0154],[-80.69628,22.12769,1.6378],[-80.70556,22.12751,12.3247],[-80.71292,22.12645,5.9595],[-80.72884,22.12588,1.6724],[-80.73284,22.12464,10.5868],[-80.73566,22.12245,10.2034],[-80.73827,22.1194,4.9282],[-80.74119,22.11694,2.0865],[-80.74478,22.11694,2.725],[-80.75204,22.11958,2.9095],[-80.76589,22.12746,1.6839],[-80.80077,22.14074,5.9072],[-80.83227,22.15754,1.8991],[-80.84304,22.17294,1.6389],[-80.85534,22.18384,2.7321],[-80.89743,22.21149,2.528],[-80.89325,22.23014,6.808],[-80.89426,22.23841,4.9694],[-80.89573,22.24213,7.9806],[-80.89622,22.2467,6.8677],[-80.89725,22.24898,9.5758],[-80.89937,22.25009,8.0058],[-80.90332,22.25022,3.8867],[-80.91947,22.24841,7.5581],[-80.92361,22.24947,3.6841],[-80.92637,22.25151,3.317],[-80.92831,22.25479,2.0694],[-80.92986,22.26001,2.0326],[-80.93095,22.26911,4.863],[-80.92994,22.27655,4.2593],[-80.9279,22.28528,4.7701],[-80.92257,22.29916,3.6128999999999998],[-80.92126,22.30704,5.469],[-80.92123,22.3122,5.2379],[-80.92433,22.31879,5.6097],[-80.9256,22.32282,6.4794],[-80.92428,22.32809,7.2243],[-80.92123,22.33404,10.6592],[-80.91343,22.34489,12.5815],[-80.91211,22.35006,15.4394],[-80.91343,22.35409,15.4367],[-80.91699,22.35608,10.6535],[-80.91994,22.35711,9.0515],[-80.92278,22.35719,8.8486],[-80.92599,22.35616,11.8833],[-80.93069,22.35414,8.4904],[-80.93555,22.35262,9.2545],[-80.93947,22.35228,8.0057],[-80.9419,22.3529,8.258],[-80.94299,22.35491,7.4059],[-80.94074,22.36013,8.4661],[-80.92513,22.38362,10.316],[-80.92172,22.39052,12.1399],[-80.91537,22.40685,12.1621],[-80.91482,22.41109,12.3913],[-80.91637,22.41334,13.0253],[-80.92033,22.41507,11.9652],[-80.92544,22.41589,11.178],[-80.92839,22.41737,11.4731],[-80.92867,22.41923,10.3664],[-80.92118,22.42757,13.7059],[-80.90911,22.43563,16.9543],[-80.90379,22.44013,19.1849],[-80.90077,22.44336,15.9923],[-80.88898,22.4538,15.0949],[-80.88289,22.45736,21.3149],[-80.8617,22.46659,17.6732],[-80.84968,22.47351,22.5953],[-80.84583,22.47651,22.9953],[-80.8371,22.48204,20.8154],[-80.82927,22.48336,23.398],[-80.81821,22.48297,26.402],[-80.76783,22.47059,31.3902],[-80.76034,22.4702,29.1063],[-80.73688,22.47201,31.2023],[-80.64456,22.46284,41.7179],[-80.63489,22.45977,44.9395],[-80.63009,22.4592,43.4814],[-80.6237,22.45953,46.5672],[-80.60156,22.46922,50.0505],[-80.59476,22.47139,51.1912],[-80.58849,22.47263,51.0442],[-80.58019,22.47356,49.8924],[-80.57608,22.47439,52.012],[-80.57164,22.47865,55.2333],[-80.56526,22.48687,56.7863],[-80.54332,22.52516,57.409],[-80.53981,22.52927,55.8712],[-80.51968,22.54201,60.5],[-80.5341,22.56508,69.4],[-80.54035,22.57141,70.4879],[-80.54477,22.58139,72.2953],[-80.54761,22.59152,78.0579],[-80.54994,22.61118,82.4812],[-80.55484,22.61898,84.2703],[-80.55931,22.62366,80.1487],[-80.56172,22.62782,80.9124],[-80.56265,22.63516,78.1451],[-80.55753,22.68213,81.8221],[-80.558,22.69081,84.7079],[-80.55963,22.6974,82.7733],[-80.56417,22.70425,82.3532],[-80.57143,22.7113,80.0718],[-80.57314,22.71572,80.9872],[-80.57195,22.72143,82.9832],[-80.56637,22.72895,79.2936],[-80.55702,22.73272,86.2466],[-80.5518,22.73559,86.4991],[-80.55032,22.74071,91.3584],[-80.55298,22.74822,93.2653],[-80.56807,22.77218,101.1034],[-80.57523,22.79285,99.2852],[-80.57957,22.80158,93.4693],[-80.58076,22.80494,94.1013],[-80.58492,22.81365,89.4672],[-80.58766,22.81747,88.5829],[-80.59505,22.82049,80.7486],[-80.60471,22.82034,71.9182],[-80.6243,22.81341,61.1367],[-80.64412,22.79995,49.7105],[-80.6514,22.79701,47.6313],[-80.66747,22.79597,45.9474],[-80.68773,22.81225,41.3236],[-80.7044,22.82241,42.9372],[-80.70853,22.82589,40.2294],[-80.71142,22.82982,37.5171],[-80.71442,22.83527,36.3026],[-80.72073,22.8437,36.9913],[-80.73093,22.85406,31.3888],[-80.73439,22.85886,34.4507],[-80.73633,22.86351,33.3627],[-80.73737,22.87008,34.9512],[-80.73933,22.87331,32.6],[-80.74305,22.87574,32.8123],[-80.74685,22.87765,31.5026],[-80.74842,22.88052,31.4912],[-80.74716,22.88429,30.1436],[-80.74013,22.88801,33.4604],[-80.73509,22.89276,32.7622],[-80.72967,22.9,29.836],[-80.72706,22.91449,28.287],[-80.72827,22.92261,29.7449],[-80.73222,22.93783,28.7916],[-80.73279,22.94899,21.8321],[-80.7321,22.95695,21.9452],[-80.72938,22.9664,23.0355],[-80.72595,22.97072,21.8711],[-80.72073,22.97328,24.8884],[-80.69579,22.9726,34.9088],[-80.69153,22.97307,35.6423],[-80.67747,22.97803,33.1747],[-80.67267,22.97909,28.0935],[-80.66732,22.97942,24.3372],[-80.66344,22.9788,24.1749],[-80.65936,22.97702,25.2183],[-80.6507,22.97136,25.8674],[-80.64613,22.97048,26.7475],[-80.64032,22.9711,27.8385],[-80.63019,22.97397,31.6333],[-80.62301,22.97942,35.1929],[-80.61802,22.98731,16.7061],[-80.61743,23.00395,10.639099999999999],[-80.61817,23.01428,10.7919],[-80.61531,23.03717,4.8448],[-80.59929,23.06567,0.0],[-80.5931,23.06803,0.0],[-80.59435,23.07014,0.0],[-80.62222,23.08954,0.0],[-80.59602,23.13744,0.4808],[-80.58747,23.14476,0.0],[-80.58747,23.15103,0.0],[-80.59728,23.15607,0.0],[-80.60985,23.15819,0.0],[-80.62344,23.15672,0.0],[-80.63646,23.15103,0.0],[-80.61803,23.13174,0.0],[-80.62352,23.11294,0.0],[-80.64224,23.09781,0.0],[-80.66316,23.08954,0.0],[-80.68814,23.08861,0.0],[-80.73477,23.0976,0.0],[-80.75935,23.09699,0.0],[-80.91637,23.06904,0.0],[-80.93676,23.06293,0.0],[-80.95938,23.05903,0.0],[-80.97777,23.06444,0.0],[-80.98526,23.08641,1.623],[-80.98571,23.10224,1.8281],[-80.98754,23.10586,0.0],[-80.99144,23.10407,1.078],[-80.99836,23.10383,0.0],[-81.03991,23.11066,0.0],[-81.04625,23.10985,0.0],[-81.06676,23.10497,0.0],[-81.07811,23.10383,0.0],[-81.08316,23.0987,0.0],[-81.09374,23.0742,0.0],[-81.09854,23.06599,0.0],[-81.11368,23.04922,0.0],[-81.12072,23.03897,0.0],[-81.1293,23.03449,0.0],[-81.14916,23.0349,0.0],[-81.18489,23.05207,1.5597]]],
[[[-80.71247,23.1999,0.6403],[-80.77501,23.20661,2.7968],[-80.80993,23.21381,0.0],[-80.83788,23.22354,1.8492],[-80.85733,23.22582,0.8682],[-80.86144,23.22036,4.4372],[-80.85562,23.21772,0.0],[-80.84826,23.20848,0.2165],[-80.83849,23.20624,0.0],[-80.81005,23.1966,0.7835],[-80.79922,23.19587,0.0],[-80.78075,23.1977,0.0],[-80.77383,23.1966,0.0],[-80.76207,23.19318,0.0],[-80.74083,23.18427,0.825],[-80.73681,23.18675,1.2755],[-80.73229,23.19306,0.0],[-80.72517,23.19278,0.3047],[-80.71776,23.18895,0.0],[-80.7119,23.19082,0.0],[-80.71101,23.19701,2.2566],[-80.71247,23.1999,0.6403]]],
[[[-80.91299,23.26557,1.7992],[-80.93586,23.26313,5.9978],[-80.9427,23.25727,0.9921],[-80.93375,23.25446,0.0],[-80.92943,23.25015,2.1088],[-80.92447,23.24311,0.0],[-80.91316,23.23871,2.3673],[-80.90123,23.23721,0.0],[-80.89013,23.23387,3.763],[-80.87857,23.23212,0.7158],[-80.87092,23.24038,2.7215],[-80.87413,23.24897,2.8228],[-80.87877,23.25043,0.0],[-80.88561,23.25007,0.0],[-80.91299,23.26557,1.7992]]]]}
,"properties": {"ISO3166-1-Alpha-3": "CUB","country": "Cuba","fill": "#FF0","name": "Matanzas","area_km2": 11791.798,"hist_schema_id": "Elevation0-9000","hist_area_km2": {"0": 6057.73,"25": 2614.241,"50": 1397.874,"75": 977.87,"100": 340.056,"125": 209.215,"150": 105.95,"175": 50.397,"200": 22.856,"225": 10.1,"250": 3.517,"275": 1.192,"300": 0.41,"325": 0.195,"350": 0.098,"375": 0.098}}}