{"type":"Feature","properties":{"GID_2":"BLM.2.10_1","GID_0":"BLM","country":"Saint-Barthélemy","GID_1":"BLM.2_1","province":"SousleVent","NL_NAME_1":"NA","county":"Gustavia","VARNAME_2":"NA","NL_NAME_2":"NA","TYPE_2":"Quartier","ENGTYPE_2":"Quarter","CC_2":"NA","HASC_2":"NA","name":"Gustavia.county"},
"geometry":{"type": "MultiPolygon","coordinates": [[[[-62.8514,17.8997,3.1249],[-62.8488,17.8958,0.0],[-62.8498,17.8952,5.9266],[-62.8511,17.8978,1.6051],[-62.8535,17.896,0.0],[-62.8494,17.8927,8.5054],[-62.8467,17.8953,19.088],[-62.8471,17.8968,13.1338],[-62.8495,17.9008,56.8293],[-62.8514,17.8997,3.1249]]]]}}