{"type":"Feature","properties":{"GID_2":"HTI.2.2_1","GID_0":"HTI","country":"Haiti","GID_1":"HTI.2_1","province":"Grand'Anse","NL_NAME_1":"NA","county":"Corail","VARNAME_2":"NA","NL_NAME_2":"NA","TYPE_2":"Arrondissement","ENGTYPE_2":"District","CC_2":"NA","HASC_2":"HT.GR.CL","name":"Corail.county"},
"geometry":{"type": "MultiPolygon","coordinates": [[[[-73.8649,18.407,876.336],[-73.8457,18.4077,925.5178],[-73.8428,18.4067,1061.6755],[-73.8354,18.4102,1122.7659],[-73.8213,18.4128,1063.4935],[-73.7856,18.424,1103.3995],[-73.78,18.4239,1086.592],[-73.7789,18.4412,873.6298],[-73.7758,18.4421,842.4801],[-73.7748,18.4541,701.1531],[-73.7724,18.4568,665.6496],[-73.7663,18.4594,568.6419],[-73.7654,18.4654,403.8486],[-73.7425,18.4777,220.981],[-73.738,18.484,288.0427],[-73.7385,18.4862,342.8564],[-73.7423,18.4892,303.3923],[-73.7617,18.4941,354.0577],[-73.7673,18.4964,393.5909],[-73.7688,18.4989,413.9645],[-73.7653,18.506,370.8011],[-73.7576,18.5117,366.6922],[-73.7539,18.517,329.1968],[-73.7433,18.5231,315.3116],[-73.7374,18.536,139.8833],[-73.7315,18.5406,14.7566],[-73.7314,18.5428,2.0011],[-73.7355,18.5458,68.2513],[-73.7318,18.5499,10.6137],[-73.734,18.5502,22.6636],[-73.7403,18.5468,22.8221],[-73.7426,18.5476,2.8185],[-73.7469,18.5451,12.2707],[-73.7518,18.5454,34.4088],[-73.7538,18.544,18.8061],[-73.7596,18.5451,5.3517],[-73.7624,18.5401,62.6244],[-73.7646,18.5449,0.0],[-73.7718,18.5421,0.0],[-73.7729,18.5385,23.2071],[-73.7737,18.5404,4.3098],[-73.776,18.539,17.8349],[-73.7747,18.5421,0.0],[-73.776,18.5421,0.0],[-73.7781,18.5392,7.8936],[-73.7765,18.5376,15.75],[-73.7771,18.536,11.179],[-73.7787,18.5362,3.9714],[-73.7782,18.5385,0.0],[-73.7801,18.5401,8.0612],[-73.7815,18.5385,54.4752],[-73.7831,18.5399,7.5963],[-73.7882,18.539,0.0],[-73.7899,18.5368,20.0354],[-73.7901,18.5379,59.7918],[-73.7887,18.541,0.0],[-73.7924,18.5449,12.1555],[-73.7909,18.5457,1.2478],[-73.7957,18.5455,0.0],[-73.7935,18.5483,0.0],[-73.7971,18.5468,12.8916],[-73.7967,18.5494,0.0],[-73.8018,18.5522,0.0],[-73.8032,18.5503,32.2222],[-73.8029,18.5532,0.0],[-73.8051,18.5551,4.0085],[-73.8077,18.5552,33.6804],[-73.8101,18.5575,0.0],[-73.8112,18.5567,22.6668],[-73.812,18.5581,0.0],[-73.8143,18.5565,15.0867],[-73.8129,18.5594,0.0],[-73.8141,18.561,0.0],[-73.816,18.5601,14.6489],[-73.8152,18.559,14.6489],[-73.8165,18.5574,54.6622],[-73.8183,18.5607,0.0],[-73.8206,18.559,15.9855],[-73.822,18.5627,0.0],[-73.8251,18.5607,15.7282],[-73.8268,18.5629,0.0],[-73.8335,18.5657,10.2894],[-73.8332,18.5668,10.2894],[-73.8365,18.5668,11.4155],[-73.8361,18.569,0.0],[-73.8396,18.5671,3.6367],[-73.8402,18.5701,0.0],[-73.8424,18.5699,26.4707],[-73.8418,18.572,7.3663],[-73.8465,18.5699,24.8414],[-73.8471,18.5722,0.0],[-73.8501,18.5661,46.7548],[-73.8524,18.5674,15.855],[-73.8515,18.5715,17.3577],[-73.8525,18.5725,0.0],[-73.8546,18.571,9.0317],[-73.8551,18.5726,0.0],[-73.8585,18.5701,0.927],[-73.8653,18.5718,13.8611],[-73.8698,18.5694,8.4895],[-73.8724,18.5701,36.6062],[-73.8721,18.5724,0.0],[-73.8732,18.5724,0.0],[-73.8766,18.5697,20.5761],[-73.8815,18.5707,0.0],[-73.8901,18.5685,2.1982],[-73.9011,18.5691,0.0],[-73.9033,18.5665,2.1766],[-73.9045,18.571,0.2722],[-73.9024,18.5706,0.0],[-73.9023,18.5724,0.0],[-73.9046,18.5739,0.1282],[-73.9051,18.5776,0.0],[-73.9076,18.5735,0.1649],[-73.9096,18.5732,0.8417],[-73.9126,18.5746,0.0],[-73.9128,18.5761,0.0],[-73.9121,18.578,0.0],[-73.9118,18.5765,0.0],[-73.909,18.5771,0.0],[-73.9085,18.5796,0.0],[-73.9163,18.5793,0.0],[-73.9135,18.5829,0.5818],[-73.9147,18.5857,0.0],[-73.911,18.5857,0.0],[-73.9091,18.5878,0.0],[-73.9129,18.5876,0.2734],[-73.9149,18.586,0.0],[-73.9147,18.5875,0.0],[-73.9167,18.5879,0.0848],[-73.9163,18.5901,0.0],[-73.924,18.5901,1.5601],[-73.9265,18.594,0.0],[-73.9318,18.5949,0.0],[-73.9365,18.5896,0.3649],[-73.9401,18.5885,9.9877],[-73.9506,18.5964,11.5321],[-73.9546,18.5965,14.2023],[-73.9627,18.6015,6.2382],[-73.9652,18.6004,46.5839],[-73.9743,18.6018,12.0068],[-73.9776,18.6001,25.3409],[-73.9802,18.6018,7.7772],[-73.984,18.6003,50.717],[-73.9854,18.6027,0.0],[-73.9927,18.6025,0.0],[-74.0038,18.5993,2.0164],[-74.0085,18.601,1.0229],[-74.0221,18.6013,4.6638],[-74.0609,18.6088,0.0],[-74.0783,18.6163,1.5072],[-74.072,18.598,77.3563],[-74.0732,18.5865,115.0938],[-74.0703,18.5767,277.7688],[-74.0895,18.5592,188.2393],[-74.0903,18.5565,158.9613],[-74.0873,18.5515,189.8993],[-74.0888,18.5448,317.1352],[-74.0843,18.5364,351.7455],[-74.0865,18.5315,392.09],[-74.0896,18.5305,389.8093],[-74.0902,18.5281,450.9338],[-74.0864,18.5218,448.07],[-74.0771,18.5253,427.9198],[-74.0754,18.5231,386.0332],[-74.0846,18.5078,475.0874],[-74.0874,18.4992,393.0764],[-74.089,18.4979,586.7231],[-74.0961,18.4981,653.0675],[-74.0949,18.4917,530.5556],[-74.1021,18.48,691.2667],[-74.0998,18.476,628.8904],[-74.1005,18.4706,772.9089],[-74.0971,18.4639,773.684],[-74.0976,18.4568,827.736],[-74.1014,18.4509,985.3245],[-74.108,18.4466,1262.1909],[-74.1129,18.4379,1381.5715],[-74.1197,18.4345,1222.2517],[-74.1155,18.43,1260.6248],[-74.1157,18.4263,1409.5566],[-74.1079,18.416,1603.4713],[-74.1065,18.4034,1810.1443],[-74.1008,18.4027,1999.8523],[-74.0818,18.4075,1121.1294],[-74.0754,18.4051,1128.9192],[-74.0642,18.4047,745.2783],[-74.0582,18.4016,1098.9049],[-74.047,18.3894,1913.3657],[-74.0355,18.3874,2145.7559],[-74.0319,18.384,2290.3193],[-74.0156,18.3818,2066.5762],[-74.0027,18.3836,1922.7457],[-73.9838,18.3737,813.6937],[-73.9785,18.3732,794.043],[-73.9777,18.3712,797.7612],[-73.976,18.3728,775.1509],[-73.9735,18.3704,831.9202],[-73.9643,18.3687,720.2408],[-73.9399,18.3701,564.224],[-73.9309,18.3654,608.03],[-73.9261,18.3664,501.7318],[-73.9229,18.364,490.0479],[-73.9188,18.3647,467.2976],[-73.9066,18.3621,394.8359],[-73.8947,18.3636,358.0066],[-73.8929,18.3753,680.8807],[-73.8979,18.377,818.822],[-73.9062,18.3891,916.4146],[-73.9057,18.3989,807.1788],[-73.8966,18.4027,926.1829],[-73.8888,18.4038,959.3259],[-73.8861,18.4059,885.5921],[-73.8786,18.4073,798.3356],[-73.8751,18.4055,886.1104],[-73.8649,18.407,876.336]]],
[[[-73.8082,18.6149,18.7972],[-73.8104,18.6157,0.0],[-73.8107,18.6135,2.4822],[-73.8151,18.6096,3.8906],[-73.816,18.6057,1.2677],[-73.8121,18.6065,11.2477],[-73.8112,18.6049,0.0],[-73.8074,18.6049,0.0],[-73.804,18.6079,0.0],[-73.8018,18.6112,0.0],[-73.8021,18.6135,23.5743],[-73.8082,18.6149,18.7972]]],
[[[-73.7562,18.644,0.0],[-73.7688,18.6424,0.5345],[-73.771,18.6399,3.3894],[-73.7751,18.6388,0.0],[-73.7865,18.6285,22.0818],[-73.7935,18.6265,32.4626],[-73.7968,18.6204,10.3328],[-73.7971,18.6021,0.9766],[-73.7907,18.5971,22.1039],[-73.776,18.5946,0.5395],[-73.7712,18.5882,0.0],[-73.7699,18.5882,0.0],[-73.7701,18.5912,0.0581],[-73.7668,18.5932,0.0831],[-73.7671,18.5901,0.0855],[-73.7693,18.589,0.0],[-73.7688,18.5871,0.3369],[-73.7643,18.5882,0.1159],[-73.7621,18.5854,0.0],[-73.7593,18.5857,0.1326],[-73.7576,18.5838,0.6709],[-73.7474,18.5843,0.3712],[-73.744,18.5815,0.0],[-73.7279,18.5863,0.0],[-73.7074,18.5999,1.2251],[-73.6988,18.6135,0.0],[-73.6985,18.6201,0.0],[-73.7007,18.6257,0.0],[-73.711,18.631,0.0],[-73.726,18.6332,16.997],[-73.7324,18.6357,3.9926],[-73.7421,18.6396,4.5561],[-73.744,18.6429,0.0],[-73.7562,18.644,0.0]]],
[[[-73.8854,18.5882,0.0],[-73.8871,18.5893,0.0],[-73.8899,18.5879,0.0],[-73.8899,18.5854,0.0],[-73.8874,18.5879,0.0],[-73.8854,18.5882,0.0]]],
[[[-73.9112,18.5907,0.4234],[-73.9124,18.5929,0.2713],[-73.9143,18.5901,0.0],[-73.9126,18.589,0.1548],[-73.9112,18.5907,0.4234]]],
[[[-74.0001,18.9999,0.0],[-73.9999,18.9999,0.0],[-73.9999,19.0001,0.0],[-74.0001,19.0001,0.0],[-74.0001,18.9999,0.0]]]]}}