{"type": "Feature","id": "5019","bbox": [-78.44298,24.46064,-77.73615,25.20673],"geometry": {"type": "Polygon","coordinates": [[[-77.74181,24.63471,0.0],[-77.73778,24.6577,0.0],[-77.73615,24.6822,0.0],[-77.73721,24.70018,0.0],[-77.74649,24.7145,0.0],[-77.78352,24.74824,0.0],[-77.79556,24.75483,0.0],[-77.81257,24.76191,0.0],[-77.82917,24.77823,0.0],[-77.87336,24.83857,0.0],[-77.93419,24.97622,0.0],[-77.94726,24.99116,0.0],[-77.96227,24.99934,0.0],[-77.98058,25.0019,0.0],[-77.98656,25.01288,0.8058],[-77.98253,25.0375,1.185],[-77.96996,25.07697,6.4754],[-77.9864,25.08877,1.7972],[-77.99429,25.10517,0.0],[-77.99177,25.12279,6.364],[-77.97688,25.13841,0.0],[-77.98766,25.15225,0.0],[-78.00121,25.16096,0.0],[-78.01525,25.16779,0.0],[-78.02798,25.17626,0.0],[-78.04516,25.18309,0.0],[-78.06045,25.17634,0.6679],[-78.07518,25.16535,0.5315],[-78.09044,25.15949,0.0],[-78.10705,25.16307,0.0],[-78.11535,25.17202,0.0],[-78.12218,25.18317,0.0],[-78.13443,25.19367,0.0],[-78.14957,25.19953,0.0],[-78.1859,25.20588,0.0],[-78.20275,25.20673,0.0],[-78.21434,25.18464,0.285],[-78.20092,25.14643,0.6441],[-78.18004,25.10493,0.3274],[-78.16926,25.07323,0.3059],[-78.1599,25.02831,0.152],[-78.1577,25.00019,0.1513],[-78.16552,24.98762,-0.2192],[-78.17455,24.98168,0.3803],[-78.18224,24.96849,0.0],[-78.18761,24.95458,-0.2702],[-78.18969,24.94668,0.2687],[-78.18554,24.93789,0.2921],[-78.17748,24.92744,0.3401],[-78.17394,24.91962,0.2925],[-78.18293,24.91869,0.0946],[-78.18602,24.90477,0.0],[-78.1997,24.88044,0.5351],[-78.20275,24.86782,0.4002],[-78.20812,24.8618,0.3552],[-78.23424,24.85712,0.0],[-78.24372,24.85102,0.0],[-78.23961,24.82636,0.3219],[-78.25495,24.80646,0.9604],[-78.27684,24.78998,0.5381],[-78.29214,24.77534,0.5992],[-78.30114,24.74535,0.6367],[-78.30407,24.72822,0.1475],[-78.30236,24.72069,0.5789],[-78.28844,24.71418,0.8194],[-78.28063,24.6992,0.201],[-78.27424,24.68293,0.5529],[-78.2648,24.67231,0.4656],[-78.26415,24.71052,0.0767],[-78.26789,24.72606,0.2551],[-78.27847,24.73436,1.7171],[-78.26403,24.73933,0.5158],[-78.25788,24.72993,0.5365],[-78.25512,24.71418,0.0],[-78.25113,24.70018,0.0821],[-78.24498,24.69286,0.0],[-78.22936,24.67975,0.0642],[-78.22326,24.67231,0.1993],[-78.22224,24.66608,0.3774],[-78.22452,24.65095,0.204],[-78.22326,24.64501,0.4508],[-78.21459,24.6363,0.5317],[-78.2045,24.62832,0.0],[-78.19713,24.61835,0.0],[-78.19652,24.60399,0.0],[-78.20173,24.59878,0.0],[-78.21068,24.60126,0.3908],[-78.2211,24.60692,0.0],[-78.2307,24.61083,0.4015],[-78.22594,24.59154,-0.7731],[-78.22826,24.56948,0.0],[-78.2377,24.55687,0.4822],[-78.25426,24.56615,0.0],[-78.25723,24.58381,1.6627],[-78.25202,24.6048,0.0],[-78.25219,24.62279,0.0],[-78.27164,24.63133,0.3309],[-78.26911,24.6092,0.0],[-78.27725,24.60126,0.1034],[-78.29206,24.59736,0.7147],[-78.319,24.58173,0.0662],[-78.32632,24.58539,0.1544],[-78.33113,24.59414,0.0],[-78.33312,24.60399,0.7035],[-78.33015,24.60643,0.1505],[-78.31261,24.61766,0.0],[-78.30346,24.63032,0.2593],[-78.29703,24.64378,0.1939],[-78.29332,24.65884,0.6132],[-78.29214,24.67601,0.365],[-78.29792,24.69684,0.4991],[-78.31143,24.71011,0.9707],[-78.32746,24.71064,0.0],[-78.34057,24.69343,0.0],[-78.33332,24.68211,0.0],[-78.33507,24.67284,0.318],[-78.34284,24.66535,0.2129],[-78.35359,24.65925,0.3435],[-78.36181,24.66144,0.2773],[-78.37108,24.66816,0.0],[-78.37841,24.66942,0.0],[-78.3815,24.6555,0.4892],[-78.3898,24.64671,0.399],[-78.40884,24.63618,0.5479],[-78.4296,24.62751,0.0],[-78.44298,24.6245,0.0],[-78.43053,24.60179,-0.0014],[-78.41149,24.58104,0.1197],[-78.35163,24.53046,0.8579],[-78.22643,24.46548,0.4788],[-78.20645,24.46064,0.5781],[-78.18004,24.46491,1.4394],[-78.16478,24.47541,0.6896],[-78.15246,24.48876,1.4867],[-78.13443,24.50161,0.0775],[-78.09979,24.54759,0.3276],[-78.07181,24.59655,0.7024],[-78.02986,24.61752,0.9704],[-77.94244,24.6385,0.5621],[-77.83405,24.64899,1.5771],[-77.74181,24.63471,0.0]]]}
,"properties": {"ISO3166-1-Alpha-3": "BHS","country": "The Bahamas","fill": "#FF0","name": "North Andros","area_km2": 2479.876,"hist_schema_id": "Elevation0-9000","hist_area_km2": {"0": 2476.702,"25": 3.174}}}