{"type":"Feature","properties":{"GID_1":"BHS.23_1","GID_0":"BHS","country":"Bahamas","state":"NorthAndros","VARNAME_1":"NA","NL_NAME_1":"NA","TYPE_1":"District","ENGTYPE_1":"District","CC_1":"NA","HASC_1":"BS.NN","ISO_1":"BS-NS","name":"NorthAndros.state"},
"geometry":{"type": "MultiPolygon","coordinates": [[[[-77.7432,24.6154,0.0],[-77.7426,24.6188,0.0],[-77.7462,24.6188,0.0],[-77.7462,24.6157,0.0],[-77.7432,24.6154,0.0]]],
[[[-77.7321,24.6251,0.0],[-77.7343,24.6257,0.0],[-77.7343,24.6224,0.3541],[-77.7379,24.6201,0.3195],[-77.7399,24.6207,0.0],[-77.7407,24.6182,0.0],[-77.7376,24.6176,0.7399],[-77.7346,24.6193,0.2308],[-77.7312,24.6243,0.0],[-77.7321,24.6251,0.0]]],
[[[-77.6935,24.6349,0.0],[-77.6937,24.6329,0.0],[-77.6929,24.6326,0.0],[-77.6924,24.6363,0.0],[-77.6935,24.6349,0.0]]],
[[[-77.7276,24.6526,0.0],[-77.7307,24.6529,0.0],[-77.7332,24.6496,0.0],[-77.7296,24.6457,0.0],[-77.7312,24.644,0.0],[-77.7312,24.639,0.1114],[-77.7332,24.6385,0.0],[-77.731,24.6335,0.1128],[-77.7354,24.6335,0.34],[-77.7307,24.6288,0.0],[-77.7279,24.6329,0.0],[-77.7279,24.6446,0.0],[-77.7265,24.6479,0.0],[-77.7268,24.6499,0.0],[-77.7285,24.6501,1.1407],[-77.7276,24.6526,0.0]]],
[[[-77.7374,24.6443,0.9455],[-77.7368,24.646,0.0],[-77.7401,24.6463,0.0],[-77.7401,24.644,0.0],[-77.7374,24.6443,0.9455]]],
[[[-77.6954,24.6507,0.0],[-77.6974,24.651,0.0],[-77.6974,24.6485,0.0],[-77.6943,24.6474,2.8318],[-77.6937,24.6488,0.0],[-77.6954,24.6507,0.0]]],
[[[-77.7318,24.664,0.0],[-77.7307,24.6699,0.0],[-77.7326,24.6696,0.0],[-77.7387,24.6615,0.0],[-77.7363,24.6582,0.0],[-77.7335,24.6593,0.219],[-77.7337,24.6576,0.1805],[-77.7379,24.6554,0.0],[-77.7351,24.6513,0.0792],[-77.7332,24.6526,0.0],[-77.734,24.6546,0.0],[-77.7304,24.6579,0.0],[-77.7318,24.664,0.0]]],
[[[-77.7746,24.7393,0.0],[-77.7771,24.7401,0.5347],[-77.7768,24.7385,0.0],[-77.7732,24.7365,0.0],[-77.7701,24.7365,0.0],[-77.7701,24.7371,0.0],[-77.7746,24.7393,0.0]]],
[[[-77.7851,24.595,3.6832],[-77.7708,24.6033,5.5285],[-77.7585,24.6044,0.0],[-77.7588,24.6101,0.0],[-77.7524,24.6115,0.0],[-77.751,24.6124,0.0],[-77.7513,24.6146,0.0],[-77.7476,24.6157,0.0],[-77.7493,24.6213,0.311],[-77.7471,24.6296,0.2578],[-77.7426,24.6288,0.134],[-77.7415,24.6299,0.0],[-77.7418,24.6335,0.0],[-77.7438,24.6332,0.1278],[-77.7443,24.6432,0.0],[-77.7412,24.6476,0.3291],[-77.739,24.6482,0.0],[-77.7435,24.651,0.0],[-77.7465,24.6565,0.0],[-77.7515,24.659,0.0],[-77.7518,24.6638,0.6832],[-77.7476,24.6707,0.1456],[-77.7479,24.6782,0.2313],[-77.7493,24.6801,0.0],[-77.7521,24.679,0.0],[-77.7507,24.684,0.0],[-77.7554,24.6813,0.0847],[-77.7538,24.6763,0.0],[-77.7501,24.6729,0.6951],[-77.7524,24.6699,0.0],[-77.756,24.6807,0.0847],[-77.7585,24.6826,0.0],[-77.7574,24.6863,0.9331],[-77.754,24.6871,0.2223],[-77.7554,24.6926,0.5339],[-77.7637,24.7049,6.1539],[-77.7643,24.7082,0.304],[-77.7668,24.7082,1.943],[-77.7707,24.7132,0.0],[-77.7701,24.7165,0.0],[-77.7737,24.7168,2.2479],[-77.7929,24.7374,0.0],[-77.7976,24.739,0.0],[-77.8021,24.7382,2.5045],[-77.8065,24.7401,4.4474],[-77.8096,24.7435,1.825],[-77.809,24.7474,0.0],[-77.8115,24.7485,1.7876],[-77.8121,24.7515,0.0],[-77.8174,24.7529,0.297],[-77.8204,24.756,0.0],[-77.821,24.7599,0.0],[-77.826,24.761,0.3307],[-77.8304,24.7732,0.0],[-77.8404,24.7829,0.0],[-77.8454,24.7854,1.4131],[-77.8507,24.7932,0.0],[-77.8579,24.7996,0.965],[-77.8613,24.8076,0.0],[-77.8671,24.8132,0.0],[-77.8685,24.8171,0.0],[-77.8799,24.824,0.0],[-77.8838,24.8282,0.0],[-77.8876,24.8363,1.4574],[-77.8885,24.8451,0.0],[-77.8918,24.8443,0.9696],[-77.8938,24.8457,1.717],[-77.9021,24.8579,0.0],[-77.9062,24.8765,0.0],[-77.9135,24.8779,0.0],[-77.9126,24.8735,0.0],[-77.9107,24.874,0.4708],[-77.9096,24.8721,0.1502],[-77.9099,24.869,0.1015],[-77.9062,24.8676,0.567],[-77.9074,24.8626,0.0],[-77.9049,24.8613,1.1136],[-77.9049,24.8587,0.0],[-77.9026,24.8571,0.0],[-77.9024,24.8518,0.0],[-77.8971,24.8485,0.0],[-77.899,24.8432,0.3804],[-77.9035,24.8426,0.586],[-77.9026,24.8446,0.0],[-77.9054,24.8479,1.3574],[-77.9043,24.8571,0.0],[-77.9065,24.8574,0.0],[-77.9096,24.8551,0.5216],[-77.9099,24.8593,0.0],[-77.9157,24.8662,0.7599],[-77.9171,24.8712,0.0],[-77.914,24.874,0.1919],[-77.9199,24.8815,5.8116],[-77.9221,24.8924,0.0],[-77.9265,24.8937,4.1264],[-77.9279,24.8968,4.474],[-77.9315,24.899,0.0],[-77.9296,24.909,0.0],[-77.9318,24.9135,0.0],[-77.931,24.9204,0.0],[-77.9329,24.9193,0.0],[-77.9349,24.9212,0.6342],[-77.9351,24.9254,0.0],[-77.9376,24.9274,0.0],[-77.9404,24.9374,0.2275],[-77.946,24.944,0.0],[-77.9471,24.9515,2.8202],[-77.9451,24.9538,0.4156],[-77.9413,24.9468,0.112],[-77.9413,24.9438,0.1918],[-77.9376,24.9438,0.1237],[-77.9329,24.9387,0.0],[-77.9257,24.9379,0.0],[-77.9229,24.9399,0.0],[-77.9254,24.9426,0.0],[-77.9304,24.9415,0.3868],[-77.9346,24.944,0.0],[-77.9432,24.9546,0.0],[-77.9468,24.9557,3.9684],[-77.9443,24.9596,0.2982],[-77.9435,24.9757,0.9007],[-77.941,24.979,1.2985],[-77.9382,24.9793,0.6071],[-77.9374,24.9818,0.0],[-77.9407,24.9835,0.0],[-77.9429,24.9818,0.5454],[-77.9474,24.9865,0.5914],[-77.9501,24.9851,0.1198],[-77.9471,24.9826,0.0],[-77.9499,24.9832,0.2797],[-77.9521,24.989,0.0],[-77.9565,24.9901,1.0112],[-77.961,24.9951,0.3276],[-77.9629,24.9954,0.0],[-77.9599,24.9885,0.2549],[-77.9657,24.9893,0.0],[-77.9651,24.9849,0.0],[-77.9679,24.9837,0.0793],[-77.9682,24.981,0.174],[-77.9671,24.9801,0.0],[-77.9601,24.9826,0.5903],[-77.9571,24.9754,0.0611],[-77.9585,24.9743,0.0611],[-77.9626,24.9768,0.0],[-77.9651,24.976,0.0],[-77.9649,24.9732,0.0635],[-77.9665,24.9715,0.1456],[-77.9649,24.9699,0.0],[-77.9679,24.9676,0.0],[-77.9607,24.9613,0.0],[-77.9704,24.9596,0.0],[-77.9682,24.9593,0.2312],[-77.9685,24.9568,0.2329],[-77.9754,24.9593,0.2899],[-77.9774,24.9635,0.0],[-77.9774,24.9671,0.2912],[-77.9757,24.969,0.1842],[-77.9765,24.971,0.3055],[-77.9743,24.9713,0.0],[-77.9724,24.971,0.5299],[-77.9749,24.9696,0.0757],[-77.9726,24.9638,0.2974],[-77.9701,24.9643,0.0],[-77.9687,24.976,0.0],[-77.9718,24.9768,0.0787],[-77.9715,24.9807,0.0],[-77.9749,24.9804,0.1932],[-77.9824,24.9737,0.2811],[-77.9879,24.9763,0.0738],[-77.9865,24.9787,0.0953],[-77.9815,24.9779,0.0],[-77.9799,24.981,0.1917],[-77.9746,24.9815,0.0926],[-77.9749,24.9832,0.0],[-77.9799,24.9865,0.1093],[-77.9804,24.989,0.0],[-77.9918,24.9882,0.323],[-77.9915,24.9901,0.0],[-77.9857,24.9912,0.0],[-77.9846,24.9935,0.0],[-77.9863,24.9996,0.0],[-77.9774,25.0043,0.0],[-77.9801,25.0088,0.0],[-77.9835,25.0099,1.5691],[-77.9821,25.016,0.0],[-77.9843,25.0196,3.4592],[-77.9815,25.0226,3.7056],[-77.9785,25.0224,0.0],[-77.9762,25.0268,0.0],[-77.9776,25.0315,0.3099],[-77.9749,25.0388,0.0],[-77.9771,25.0446,0.0],[-77.9762,25.0499,1.318],[-77.9713,25.051,0.0],[-77.974,25.0521,0.8297],[-77.9718,25.0579,0.2464],[-77.9651,25.0587,0.0],[-77.9646,25.0565,0.0],[-77.961,25.0551,0.0],[-77.9576,25.0582,0.2941],[-77.964,25.0724,0.0],[-77.966,25.0735,3.3563],[-77.9713,25.0835,0.0],[-77.9735,25.0857,0.0],[-77.9829,25.0854,2.7116],[-77.9824,25.0885,0.0],[-77.9846,25.0918,0.0],[-77.9865,25.0921,0.0],[-77.9871,25.0949,0.0],[-77.989,25.0949,0.0],[-77.9885,25.0924,0.7128],[-77.9901,25.0901,0.0],[-77.9876,25.0893,0.2202],[-77.9851,25.0821,0.1398],[-77.9826,25.0804,0.1374],[-77.9851,25.079,0.1085],[-77.9932,25.0818,0.0863],[-77.9982,25.0871,0.0],[-78.0024,25.0888,0.0],[-78.0085,25.0885,0.1509],[-78.0057,25.0932,0.0],[-77.9999,25.0912,0.0],[-77.9949,25.0982,0.0],[-77.9979,25.0987,9.6387],[-77.9968,25.1001,0.0],[-77.9993,25.1015,0.3255],[-78.0015,25.0999,0.2293],[-78.0038,25.1013,0.0],[-78.006,25.1074,2.022],[-78.0049,25.1129,0.819],[-77.9946,25.1165,0.0],[-77.9912,25.1204,0.0],[-77.991,25.1249,0.9139],[-77.9893,25.1262,0.0],[-77.9938,25.1318,6.2282],[-77.9987,25.1429,1.0449],[-78.0032,25.1435,2.5792],[-78.0046,25.1485,0.0],[-78.006,25.1485,6.8099],[-78.0137,25.161,0.0],[-78.0235,25.1799,0.0],[-78.0271,25.1801,0.0],[-78.0254,25.1735,4.2416],[-78.0315,25.1735,3.0339],[-78.0354,25.1776,1.4937],[-78.0376,25.1779,2.0409],[-78.0401,25.1743,3.7397],[-78.044,25.1749,0.0],[-78.044,25.1721,0.3669],[-78.0471,25.1718,4.1514],[-78.056,25.1804,1.0724],[-78.0563,25.1829,0.0],[-78.0629,25.181,0.0],[-78.0657,25.1776,0.0],[-78.0638,25.1746,0.0],[-78.069,25.1632,0.1819],[-78.0671,25.1621,0.2256],[-78.0587,25.1626,0.133],[-78.054,25.1651,0.129],[-78.0512,25.1638,0.4999],[-78.0593,25.1596,0.607],[-78.0704,25.1612,0.3087],[-78.0676,25.1682,0.2023],[-78.0693,25.1704,0.0],[-78.0726,25.1696,0.2539],[-78.0765,25.171,0.0],[-78.0829,25.1685,0.5461],[-78.084,25.1657,0.3924],[-78.076,25.164,0.0955],[-78.0754,25.1621,0.1149],[-78.0726,25.1615,0.0774],[-78.0726,25.1596,0.0982],[-78.0654,25.1576,0.2248],[-78.0551,25.1582,0.2519],[-78.0576,25.1549,0.2285],[-78.0601,25.1543,0.0],[-78.0587,25.1518,0.3764],[-78.0649,25.1479,2.0549],[-78.0785,25.1529,2.7002],[-78.0785,25.1551,0.0],[-78.0813,25.1543,0.5],[-78.0829,25.1563,0.0],[-78.0854,25.1554,1.0939],[-78.0921,25.1582,0.0],[-78.0954,25.1576,0.0],[-78.0976,25.1546,0.0],[-78.0957,25.1507,0.0],[-78.1029,25.151,0.0],[-78.106,25.1521,0.0673],[-78.106,25.1543,0.0],[-78.1093,25.1546,0.0],[-78.1096,25.151,0.0],[-78.1065,25.1482,0.0681],[-78.1071,25.1468,0.3019],[-78.1132,25.151,0.1774],[-78.1126,25.1563,0.0],[-78.1157,25.1563,0.0],[-78.1165,25.154,0.0677],[-78.1188,25.1554,0.2799],[-78.1188,25.146,0.2347],[-78.1218,25.1526,0.0],[-78.1274,25.1526,0.3381],[-78.1304,25.1579,0.2669],[-78.1296,25.1601,0.2844],[-78.1268,25.1599,0.0],[-78.1296,25.1621,0.3478],[-78.1285,25.164,0.0],[-78.1293,25.1674,0.0],[-78.134,25.1696,0.0],[-78.1374,25.1696,0.0],[-78.1382,25.1676,0.0],[-78.1399,25.1696,0.2512],[-78.1396,25.1721,0.0],[-78.1546,25.179,0.0],[-78.1585,25.1774,0.0],[-78.1676,25.1785,0.1688],[-78.1785,25.1763,0.2912],[-78.1896,25.1771,0.0],[-78.1921,25.176,0.155],[-78.1949,25.1776,0.0],[-78.1974,25.1754,0.3659],[-78.2021,25.1754,0.2895],[-78.2021,25.1776,0.2173],[-78.1982,25.1768,0.0],[-78.196,25.1787,0.0],[-78.1957,25.1824,0.0784],[-78.1982,25.1832,0.1545],[-78.2038,25.181,0.0],[-78.2049,25.1785,0.107],[-78.2135,25.1782,0.0596],[-78.2135,25.1793,0.1072],[-78.2076,25.181,0.0],[-78.2087,25.1846,0.0707],[-78.2115,25.1843,0.0486],[-78.2129,25.1865,0.098],[-78.2085,25.1854,0.0707],[-78.206,25.181,0.0],[-78.2035,25.1824,0.0],[-78.2035,25.1849,0.1506],[-78.1926,25.1857,0.1195],[-78.1885,25.1829,0.0],[-78.181,25.1815,0.0],[-78.1649,25.181,0.1582],[-78.1596,25.1818,0.0],[-78.1585,25.1851,0.1383],[-78.1521,25.1824,0.1305],[-78.1496,25.1854,0.0],[-78.1457,25.1868,0.0],[-78.1468,25.1893,0.0],[-78.159,25.1915,0.0],[-78.1588,25.1887,0.5673],[-78.1637,25.1885,0.3805],[-78.1663,25.1904,0.0673],[-78.1604,25.1893,0.0737],[-78.1601,25.1929,0.0],[-78.1643,25.1968,0.0],[-78.1835,25.2035,0.6508],[-78.1965,25.206,0.0],[-78.2018,25.206,0.0],[-78.2093,25.2029,0.3132],[-78.2129,25.2049,0.1676],[-78.2171,25.2049,1.0373],[-78.2226,25.2024,0.0],[-78.2201,25.1974,0.0],[-78.2218,25.196,0.3885],[-78.2257,25.1968,0.7604],[-78.2276,25.1901,1.0906],[-78.2299,25.1879,0.6426],[-78.2249,25.1754,0.0],[-78.2171,25.1643,4.2393],[-78.2182,25.156,0.0],[-78.2201,25.1563,0.0],[-78.2213,25.154,0.0717],[-78.2157,25.1535,0.5121],[-78.2154,25.1471,0.0701],[-78.2126,25.1501,0.0987],[-78.2101,25.1435,0.0],[-78.2115,25.1407,0.2395],[-78.2054,25.1318,0.0],[-78.2007,25.1285,2.5274],[-78.1996,25.1174,0.109],[-78.1921,25.1104,0.0],[-78.1799,25.0924,0.4526],[-78.184,25.0796,0.0],[-78.1757,25.0701,0.1926],[-78.1701,25.059,0.7253],[-78.169,25.0518,0.0],[-78.1654,25.0493,0.0],[-78.1649,25.0462,0.0],[-78.166,25.0407,0.0331],[-78.1704,25.0368,0.7202],[-78.1715,25.0287,0.4841],[-78.1732,25.0268,0.0],[-78.1718,25.0226,0.2238],[-78.1676,25.0196,0.0],[-78.164,25.0196,0.489],[-78.1676,25.0129,0.0],[-78.1663,25.0074,0.0953],[-78.1701,25.0068,0.376],[-78.1762,25.0024,0.0],[-78.176,25.0001,0.0],[-78.1724,24.9971,0.5684],[-78.174,24.9826,0.6347],[-78.1707,24.9768,0.3764],[-78.1724,24.9726,0.523],[-78.179,24.9668,0.1472],[-78.1868,24.9562,0.4702],[-78.1943,24.954,0.1029],[-78.1949,24.9496,0.4622],[-78.1971,24.9465,0.4209],[-78.1974,24.9429,0.1354],[-78.1937,24.9374,0.2172],[-78.1899,24.9262,0.1353],[-78.1829,24.9199,0.431],[-78.184,24.9135,0.0],[-78.1821,24.9129,0.3248],[-78.1843,24.9101,0.0],[-78.1846,24.9054,2.7351],[-78.1885,24.9004,0.7368],[-78.1896,24.896,0.342],[-78.1921,24.8949,0.0],[-78.1924,24.8915,1.3064],[-78.1988,24.8857,0.9179],[-78.1999,24.8813,0.5351],[-78.2099,24.8699,0.0],[-78.2104,24.8632,0.0],[-78.2149,24.859,0.1264],[-78.2151,24.856,0.2794],[-78.219,24.8504,0.2834],[-78.2213,24.8496,0.0973],[-78.2254,24.8435,0.2905],[-78.2282,24.8426,0.1896],[-78.2407,24.8435,0.1094],[-78.2421,24.8424,0.1094],[-78.246,24.8485,0.0],[-78.2476,24.8388,0.1568],[-78.2546,24.8335,0.0],[-78.2529,24.8235,0.0],[-78.2538,24.8207,0.0],[-78.2596,24.816,0.0],[-78.2596,24.8113,0.9846],[-78.2649,24.8079,0.184],[-78.2657,24.8046,0.3918],[-78.2737,24.8018,0.0],[-78.2771,24.7918,0.6409],[-78.2871,24.7912,0.3862],[-78.291,24.7932,0.3261],[-78.2943,24.7904,0.0],[-78.2876,24.779,0.5967],[-78.2876,24.7757,0.3693],[-78.289,24.7746,0.4634],[-78.2937,24.776,0.0],[-78.3054,24.7751,0.5384],[-78.3087,24.7663,0.2588],[-78.3149,24.7624,0.0],[-78.3124,24.754,0.7693],[-78.3065,24.7471,0.2859],[-78.3051,24.7412,0.6185],[-78.311,24.7363,0.1193],[-78.3115,24.734,0.1911],[-78.3146,24.7354,0.3243],[-78.3168,24.7387,0.2167],[-78.3193,24.7371,0.0],[-78.3154,24.7288,0.0],[-78.3174,24.7249,0.7867],[-78.3221,24.7237,0.6615],[-78.3271,24.7271,0.0],[-78.3288,24.7265,0.4785],[-78.331,24.7199,0.5333],[-78.3268,24.7165,0.1494],[-78.3271,24.7099,0.0],[-78.3321,24.7004,0.1879],[-78.3337,24.6996,0.2133],[-78.341,24.7029,0.0],[-78.3457,24.7076,0.0],[-78.3468,24.7038,0.228],[-78.3449,24.6976,0.0],[-78.3574,24.6996,0.0716],[-78.3546,24.6849,0.0441],[-78.3501,24.6796,0.0],[-78.3521,24.6732,0.0],[-78.3465,24.6688,0.2759],[-78.346,24.6604,0.0],[-78.341,24.651,0.278],[-78.3487,24.6599,0.0748],[-78.3474,24.6612,0.0983],[-78.3482,24.6665,0.0849],[-78.3554,24.6713,0.0714],[-78.3576,24.6785,0.0],[-78.3621,24.681,0.4277],[-78.3624,24.6854,0.1916],[-78.3668,24.6918,0.7792],[-78.3696,24.7024,0.0986],[-78.3696,24.7107,0.0],[-78.3724,24.7107,0.0],[-78.3729,24.709,0.1537],[-78.3757,24.7088,0.0],[-78.3724,24.7035,0.0],[-78.3737,24.6996,0.4075],[-78.3796,24.7001,0.1756],[-78.381,24.6957,0.0508],[-78.3893,24.6915,0.1017],[-78.3915,24.6882,0.1861],[-78.3915,24.6835,0.1262],[-78.3885,24.6801,0.0],[-78.3821,24.6793,0.2099],[-78.3757,24.6743,0.1156],[-78.3688,24.6715,0.0381],[-78.3662,24.6665,0.0],[-78.3765,24.6682,0.0669],[-78.3812,24.6654,0.415],[-78.3876,24.6701,0.5531],[-78.3938,24.6654,0.3402],[-78.396,24.666,0.096],[-78.3965,24.6604,0.1488],[-78.389,24.6515,0.0],[-78.3885,24.6474,0.1572],[-78.3954,24.6463,0.0],[-78.4037,24.6379,0.0682],[-78.4082,24.6376,0.0814],[-78.4154,24.6288,0.1829],[-78.4257,24.6221,0.0],[-78.434,24.614,0.0545],[-78.4407,24.6126,0.0581],[-78.4437,24.6135,0.4524],[-78.4507,24.6107,0.0],[-78.4535,24.6068,0.0764],[-78.4596,24.6043,0.4728],[-78.4618,24.6015,0.2179],[-78.4612,24.5996,0.0881],[-78.4538,24.5938,0.0375],[-78.4496,24.5868,0.0],[-78.4371,24.5807,0.5064],[-78.4143,24.561,0.3728],[-78.4079,24.5574,0.861],[-78.4032,24.5515,0.0],[-78.396,24.5476,0.0779],[-78.3932,24.5504,0.1666],[-78.3915,24.5632,0.0],[-78.3924,24.5801,0.0],[-78.3949,24.5915,0.3625],[-78.3938,24.5935,0.0901],[-78.3871,24.5646,0.0],[-78.386,24.5393,0.0],[-78.3812,24.5307,0.2624],[-78.376,24.5271,0.6136],[-78.3751,24.5249,0.0],[-78.3649,24.5215,0.9778],[-78.3535,24.5143,0.5328],[-78.3532,24.5126,0.0828],[-78.329,24.499,0.2853],[-78.3249,24.4988,0.5683],[-78.3082,24.4843,0.1288],[-78.2865,24.4718,0.1744],[-78.2862,24.4701,0.0],[-78.2838,24.4704,0.0],[-78.2774,24.4654,0.0],[-78.2707,24.4626,0.8529],[-78.2499,24.4468,0.0],[-78.2382,24.444,0.5948],[-78.2363,24.4415,0.0],[-78.234,24.4424,0.3694],[-78.2204,24.4387,0.0],[-78.2185,24.439,0.0],[-78.2174,24.4435,0.0],[-78.2135,24.4474,0.3614],[-78.2182,24.4376,0.0],[-78.2082,24.4338,0.2662],[-78.2049,24.4346,0.0],[-78.1963,24.4418,0.0],[-78.1757,24.4638,0.9209],[-78.1715,24.4632,0.0],[-78.1693,24.4679,0.8701],[-78.1604,24.4715,0.0],[-78.1574,24.4746,0.5452],[-78.1443,24.4779,0.4104],[-78.1349,24.486,0.2392],[-78.129,24.4938,0.0],[-78.1232,24.5054,0.0],[-78.1215,24.519,0.3266],[-78.1118,24.5286,0.4213],[-78.0998,24.5375,-1.0],[-78.0845,24.5447,1.0342],[-78.048,24.5577,-1.0],[-77.9937,24.5679,0.6419],[-77.948,24.5724,1.1713],[-77.921,24.5809,2.9421],[-77.8613,24.5821,3.8538],[-77.8426,24.5855,2.4093],[-77.8167,24.587,0.5],[-77.7851,24.595,3.6832]]],
[[[-77.9301,24.9243,0.1458],[-77.9324,24.926,0.0],[-77.9321,24.9218,0.0],[-77.9304,24.9221,0.102],[-77.9301,24.9243,0.1458]]],
[[[-77.9313,24.9371,0.0],[-77.9337,24.9374,0.0],[-77.9332,24.9343,0.0],[-77.929,24.9329,0.0],[-77.9301,24.9282,0.0],[-77.9274,24.9262,0.0],[-77.9268,24.9337,0.0],[-77.9285,24.9368,0.4401],[-77.931,24.9349,0.1769],[-77.9313,24.9371,0.0]]],
[[[-77.9399,24.9407,0.0],[-77.9401,24.9424,0.0],[-77.9413,24.9393,0.0],[-77.9401,24.9393,0.0],[-77.9399,24.9407,0.0]]],
[[[-77.7782,24.7418,0.0],[-77.7804,24.7426,0.0],[-77.7793,24.7404,0.0],[-77.7779,24.7404,0.0],[-77.7782,24.7418,0.0]]],
[[[-77.7821,24.7446,0.0],[-77.7846,24.7454,0.0],[-77.7826,24.7426,0.0],[-77.7812,24.7432,0.0],[-77.7821,24.7446,0.0]]],
[[[-77.7862,24.7479,0.0],[-77.7874,24.749,0.0],[-77.7885,24.7485,0.0],[-77.7854,24.746,0.0],[-77.7862,24.7479,0.0]]],
[[[-77.9096,24.8993,0.0],[-77.911,24.9007,0.0],[-77.9124,24.8976,0.0],[-77.9093,24.8968,0.0],[-77.9096,24.8993,0.0]]],
[[[-78.4512,24.679,0.1981],[-78.451,24.6804,0.1981],[-78.4532,24.6796,0.054],[-78.4543,24.6685,0.0503],[-78.4574,24.6632,0.0719],[-78.4626,24.6632,0.0301],[-78.4721,24.6576,0.0],[-78.4765,24.6599,0.1255],[-78.4771,24.6618,0.0],[-78.479,24.6615,0.5724],[-78.4832,24.6501,0.0723],[-78.4837,24.6465,0.0],[-78.4818,24.6457,0.1638],[-78.4815,24.6426,0.0],[-78.4657,24.6332,0.0],[-78.4621,24.6329,0.0],[-78.4535,24.6363,0.0],[-78.4521,24.6413,0.1839],[-78.4385,24.6437,0.0],[-78.4315,24.6482,0.0782],[-78.4299,24.6468,0.0],[-78.4268,24.6507,0.0],[-78.4276,24.6582,0.0],[-78.4307,24.6632,0.1905],[-78.4293,24.6696,0.1402],[-78.4318,24.6679,0.123],[-78.4343,24.669,0.0],[-78.4351,24.6671,0.0616],[-78.4449,24.6665,0.0496],[-78.4496,24.671,0.0502],[-78.4512,24.679,0.1981]]],
[[[-78.5182,24.6715,0.0],[-78.5212,24.6718,0.1419],[-78.5229,24.6679,0.1325],[-78.5271,24.6643,0.0],[-78.5229,24.6607,0.1608],[-78.5185,24.6496,0.0],[-78.5104,24.6463,0.1071],[-78.5099,24.6479,0.0626],[-78.5135,24.656,0.0],[-78.5126,24.6629,0.0386],[-78.5182,24.669,0.0764],[-78.5182,24.6715,0.0]]],
[[[-78.349,24.7237,0.0],[-78.3499,24.7246,0.0],[-78.351,24.7243,0.0],[-78.3485,24.7224,0.0],[-78.349,24.7237,0.0]]],
[[[-78.2374,25.1399,0.6057],[-78.2396,25.1407,0.0],[-78.2438,25.1379,1.2203],[-78.2479,25.1304,0.0],[-78.246,25.1293,0.8096],[-78.2424,25.1312,0.0],[-78.2374,25.1376,0.6845],[-78.2374,25.1399,0.6057]]],
[[[-78.119,25.166,0.0],[-78.1212,25.1671,0.0],[-78.1226,25.1654,0.0],[-78.121,25.1646,0.0],[-78.119,25.166,0.0]]],
[[[-78.1093,25.1724,0.0],[-78.1113,25.1732,0.0],[-78.1129,25.1712,0.4963],[-78.1121,25.169,0.0],[-78.109,25.1707,0.1921],[-78.1093,25.1724,0.0]]],
[[[-78.119,25.1746,0.0],[-78.1235,25.1751,0.0],[-78.1226,25.1715,0.0],[-78.1196,25.1721,0.3258],[-78.119,25.1746,0.0]]],
[[[-78.1307,25.1843,0.1234],[-78.1335,25.1843,0.1112],[-78.134,25.1804,0.0],[-78.1296,25.1813,0.3649],[-78.1307,25.1843,0.1234]]],
[[[-78.2251,25.1485,0.0],[-78.2271,25.1493,0.0],[-78.2293,25.1468,0.0],[-78.2274,25.1474,0.3648],[-78.2251,25.1454,0.0],[-78.2251,25.1485,0.0]]],
[[[-78.2124,25.2129,0.3626],[-78.2168,25.2135,0.5828],[-78.2201,25.2104,0.0],[-78.2204,25.2079,0.0],[-78.2146,25.2062,0.4012],[-78.2126,25.2107,0.2438],[-78.2104,25.2115,0.26],[-78.211,25.2132,0.1331],[-78.2124,25.2129,0.3626]]],
[[[-78.2349,25.2165,0.6641],[-78.2321,25.2162,0.0],[-78.2312,25.2187,0.3095],[-78.2346,25.2182,0.8637],[-78.2349,25.2165,0.6641]]],
[[[-78.1813,25.2335,0.2734],[-78.1865,25.234,0.161],[-78.1885,25.2293,0.4857],[-78.1843,25.2282,0.0],[-78.1796,25.2293,0.076],[-78.1779,25.2315,0.0],[-78.1813,25.2335,0.2734]]],
[[[-78.1154,25.1951,0.4073],[-78.1182,25.196,0.0],[-78.1185,25.1946,0.4336],[-78.1154,25.194,0.4073],[-78.1154,25.1951,0.4073]]],
[[[-78.1451,25.2085,0.0],[-78.1435,25.2085,0.0],[-78.1432,25.2096,0.1999],[-78.1471,25.2096,0.5772],[-78.1451,25.2085,0.0]]],
[[[-78.1315,25.244,0.9159],[-78.1363,25.2454,0.4676],[-78.1413,25.2438,0.0],[-78.1421,25.2415,0.0],[-78.1385,25.2382,0.3144],[-78.1338,25.2382,0.857],[-78.1304,25.2407,1.4838],[-78.1315,25.244,0.9159]]],
[[[-78.1415,25.2485,0.0],[-78.1413,25.2501,0.5286],[-78.1443,25.249,0.0],[-78.1438,25.2479,1.2629],[-78.1415,25.2485,0.0]]],
[[[-77.9165,24.9024,0.0],[-77.9176,24.9037,0.3765],[-77.9187,24.901,0.6739],[-77.9168,24.9007,0.0],[-77.9165,24.9024,0.0]]],
[[[-77.9151,24.9304,0.0],[-77.916,24.9335,0.4117],[-77.9174,24.9307,0.6386],[-77.916,24.9293,0.1299],[-77.9151,24.9304,0.0]]],
[[[-77.966,24.9735,0.0635],[-77.9657,24.9754,0.1566],[-77.9679,24.9754,0.0971],[-77.9679,24.9732,0.0],[-77.966,24.9735,0.0635]]],
[[[-77.946,24.9954,0.0],[-77.9485,24.9963,0.0],[-77.9493,24.9951,0.0],[-77.9476,24.9921,0.0],[-77.9468,24.9924,0.0],[-77.946,24.9954,0.0]]],
[[[-77.9549,25.0176,0.4642],[-77.9587,25.019,0.0],[-77.9599,25.0165,0.0],[-77.956,25.0171,0.4642],[-77.9543,25.0079,0.2644],[-77.9493,25.0054,0.0921],[-77.9501,25.0015,0.4144],[-77.9499,25.0049,0.0921],[-77.9538,25.0054,0.0],[-77.9518,25.0043,0.1548],[-77.9518,25.0015,0.0],[-77.9485,24.9993,0.0],[-77.946,24.9999,0.0],[-77.9496,25.0132,0.0],[-77.9512,25.0132,0.9284],[-77.9515,25.0151,0.0],[-77.9535,25.0149,0.5024],[-77.9549,25.0176,0.4642]]],
[[[-77.9557,25.0221,0.0],[-77.9587,25.0224,0.0],[-77.9565,25.0201,0.0],[-77.9551,25.0204,0.0],[-77.9557,25.0221,0.0]]],
[[[-77.9524,25.0265,0.0],[-77.9543,25.0276,0.0],[-77.956,25.0254,0.0],[-77.9521,25.0251,0.0],[-77.9524,25.0265,0.0]]],
[[[-78.1124,25.1662,0.0],[-78.1121,25.1688,0.0],[-78.1154,25.1676,0.0],[-78.1154,25.164,0.0],[-78.1132,25.1632,0.0],[-78.1135,25.1612,0.0],[-78.1087,25.1563,0.0],[-78.1035,25.1557,0.1084],[-78.0993,25.153199999999998,0.0],[-78.0968,25.1568,0.2323],[-78.0974,25.1615,0.0],[-78.0996,25.1607,0.0],[-78.0996,25.1571,0.0],[-78.1035,25.1618,0.2602],[-78.1068,25.1588,0.2276],[-78.1087,25.1621,0.0],[-78.1076,25.164,0.0],[-78.1121,25.1643,0.0],[-78.1124,25.1662,0.0]]],
[[[-78.1054,25.1871,0.3358],[-78.1046,25.1887,0.0],[-78.1087,25.1882,0.4735],[-78.1079,25.1865,0.0],[-78.1054,25.1871,0.3358]]],
[[[-78.036,25.2046,0.0],[-78.0362,25.2065,0.0],[-78.0393,25.2057,0.0],[-78.0393,25.2038,0.0],[-78.036,25.2046,0.0]]],
[[[-78.0943,25.2065,0.0],[-78.1007,25.2074,0.0],[-78.1012,25.2057,0.1873],[-78.0951,25.2043,0.3446],[-78.0943,25.2065,0.0]]],
[[[-78.0782,25.2099,5.9376],[-78.0801,25.2115,0.0],[-78.0824,25.2074,0.0],[-78.0765,25.206,0.0],[-78.0782,25.2099,5.9376]]],
[[[-78.1687,25.2499,0.9828],[-78.1724,25.2507,0.0],[-78.1743,25.2488,0.9267],[-78.171,25.2476,0.6932],[-78.1687,25.2482,0.5934],[-78.1687,25.2499,0.9828]]],
[[[-78.1813,25.2496,0.0],[-78.1801,25.2499,0.0],[-78.1804,25.2521,0.0],[-78.1824,25.2518,0.4041],[-78.1813,25.2496,0.0]]],
[[[-78.1762,25.2588,0.0],[-78.1796,25.2588,0.0],[-78.1799,25.2576,0.0],[-78.1785,25.2563,0.1618],[-78.1762,25.2588,0.0]]],
[[[-78.1757,25.2657,0.5381],[-78.1762,25.2668,0.5381],[-78.1804,25.2665,0.1962],[-78.1801,25.2654,0.0],[-78.1757,25.2657,0.5381]]],
[[[-78.1274,25.2682,0.4103],[-78.1338,25.2671,0.0],[-78.1343,25.264,0.0],[-78.1301,25.2615,0.0],[-78.1315,25.2593,0.0],[-78.1207,25.2563,0.0],[-78.116,25.2582,0.2375],[-78.1162,25.2596,0.5056],[-78.1212,25.2599,0.6142],[-78.1246,25.266,0.0],[-78.1282,25.2654,0.7048],[-78.1274,25.2682,0.4103]]],
[[[-78.1399,25.2796,0.5095],[-78.1446,25.2804,0.4033],[-78.1468,25.2779,0.2402],[-78.1371,25.276,0.0],[-78.1368,25.2779,0.0],[-78.1396,25.278199999999998,0.3108],[-78.1399,25.2796,0.5095]]],
[[[-78.1232,25.2982,0.5709],[-78.1257,25.3007,0.0],[-78.1271,25.2968,0.9862],[-78.1312,25.2938,0.0],[-78.1382,25.2971,0.0],[-78.1432,25.2968,0.2531],[-78.1451,25.2949,0.5998],[-78.1435,25.2926,0.3205],[-78.1379,25.2929,0.1979],[-78.1354,25.2913,0.3113],[-78.1315,25.2932,0.4129],[-78.1321,25.2899,0.0],[-78.1268,25.2896,0.5642],[-78.1249,25.2854,0.5646],[-78.1282,25.2862,0.1838],[-78.1293,25.2846,0.5521],[-78.1343,25.2851,0.331],[-78.1363,25.2838,0.0],[-78.1349,25.2818,0.0],[-78.1293,25.2815,0.6981],[-78.1293,25.2771,0.5655],[-78.1321,25.2801,0.2648],[-78.134,25.2793,0.0],[-78.1332,25.2754,0.0],[-78.1279,25.2763,0.1762],[-78.1235,25.274,0.3288],[-78.1185,25.2757,0.5157],[-78.1132,25.2801,0.2693],[-78.1126,25.2824,0.0],[-78.1157,25.2901,1.2748],[-78.1232,25.2982,0.5709]]],
[[[-78.1426,25.3143,0.1671],[-78.1471,25.3151,0.4748],[-78.1474,25.3137,0.1226],[-78.1429,25.3126,0.1867],[-78.1426,25.3143,0.1671]]],
[[[-78.1854,25.2946,2.2074],[-78.1868,25.296,0.0],[-78.1882,25.2938,1.2724],[-78.1854,25.2929,0.9334],[-78.1854,25.2946,2.2074]]],
[[[-78.1868,25.3035,0.0],[-78.1882,25.3046,0.7832],[-78.1904,25.3024,2.031],[-78.1882,25.3018,0.0],[-78.1868,25.3035,0.0]]],
[[[-78.1376,25.3301,0.0],[-78.139,25.331,0.398],[-78.1415,25.3279,0.0],[-78.1379,25.3232,0.131],[-78.1399,25.3243,0.0],[-78.1418,25.3224,0.0],[-78.1374,25.3171,0.6121],[-78.1385,25.3118,0.1431],[-78.1368,25.3104,0.6709],[-78.1382,25.3074,0.4087],[-78.1354,25.3043,0.3966],[-78.1396,25.3021,0.2239],[-78.1401,25.3001,0.0],[-78.136,25.2979,0.0805],[-78.1276,25.3007,1.3689],[-78.1265,25.3032,0.0],[-78.1304,25.3121,0.4569],[-78.1321,25.3137,0.6931],[-78.1343,25.3132,0.5233],[-78.1349,25.316,0.5389],[-78.1329,25.3151,0.0],[-78.1329,25.3168,0.5605],[-78.1363,25.3232,1.0],[-78.1376,25.3301,0.0]]],
[[[-78.1651,25.319,0.9101],[-78.1671,25.3204,1.9262],[-78.169,25.3182,0.0],[-78.1674,25.3179,0.3954],[-78.1651,25.319,0.9101]]]]}}