{"type": "Feature","bbox": [-72.0039,18.3467,-71.6412,18.6586],"geometry": {"type": "MultiPolygon","coordinates": [[[[-71.6412,18.4956,-37.0],[-71.6601,18.4958,-30.1865],[-71.6717,18.4932,-20.7837],[-71.7277,18.4935,-27.1735],[-71.7802,18.5063,-37.0],[-71.7826,18.511,-37.0],[-71.7818,18.5189,-15.6458],[-71.7713,18.5255,16.0986],[-71.7686,18.5295,26.1628],[-71.7619,18.5425,94.9693],[-71.7617,18.5513,146.9016],[-71.7672,18.5606,408.6176],[-71.7712,18.5614,374.9269],[-71.7788,18.5588,282.9283],[-71.7874,18.559,395.4117],[-71.7996,18.5704,539.8491],[-71.8009,18.584,574.8176],[-71.8041,18.593,488.7488],[-71.8108,18.6039,413.429],[-71.8042,18.6094,459.5167],[-71.7978,18.621,608.4446],[-71.7976,18.6256,607.8904],[-71.8006,18.6309,788.6715],[-71.8121,18.6341,958.548],[-71.8154,18.6306,1000.5582],[-71.8276,18.6332,1158.1526],[-71.8362,18.6296,1150.9285],[-71.8443,18.6294,1138.0409],[-71.8523,18.6358,1267.0568],[-71.8604,18.6367,1264.2771],[-71.8651,18.6364,1231.2332],[-71.8686,18.6308,943.4464],[-71.8752,18.63,1053.9968],[-71.8788,18.6394,1192.1517],[-71.8996,18.6514,1024.5547],[-71.9051,18.6502,1074.6488],[-71.9082,18.6514,1059.3364],[-71.9164,18.6393,810.061],[-71.9231,18.6373,834.3992],[-71.9239,18.6393,867.2781],[-71.927,18.64,846.6029],[-71.94,18.6501,723.8898],[-71.9486,18.654,1067.2037],[-71.9561,18.6548,1067.5596],[-71.9616,18.6586,1011.8074],[-71.971,18.6493,935.9054],[-71.9776,18.638,882.4561],[-71.989,18.6345,720.1064],[-72.0039,18.6267,151.8878],[-71.9956,18.6193,166.0571],[-71.9937,18.6205,172.5506],[-71.9862,18.6193,138.9217],[-71.9815,18.6213,316.6309],[-71.9776,18.6127,96.2346],[-71.9756,18.6127,109.9893],[-71.9709,18.6073,63.1193],[-71.9627,18.6073,29.5229],[-71.9504,18.5813,20.0],[-71.8758,18.5056,44.9188],[-71.875,18.4928,20.0],[-71.8808,18.4917,20.0],[-71.8807,18.4902,21.9058],[-71.9084,18.4861,346.6592],[-71.8992,18.459,616.6696],[-71.871,18.4481,350.9388],[-71.8596,18.4404,789.4458],[-71.838,18.4311,565.8186],[-71.8305,18.419,404.9717],[-71.8238,18.4004,536.2538],[-71.8117,18.3996,550.5508],[-71.7975,18.395,329.3357],[-71.7995,18.3923,385.7083],[-71.7853,18.3791,709.9917],[-71.6984,18.3467,798.8679],[-71.6927,18.3577,933.1194],[-71.685,18.3666,574.5626],[-71.6836,18.3773,166.1297],[-71.6768,18.3825,109.0165],[-71.6744,18.3918,55.2013],[-71.6611,18.4059,187.8685],[-71.6606,18.4203,109.226],[-71.6661,18.4319,-20.8622],[-71.6662,18.438,-37.0],[-71.6599,18.459,-37.0],[-71.6491,18.4763,-37.0],[-71.6412,18.4956,-37.0]]]]}
,"properties": {"GID_2": "DOM.10.3_1","GID_0": "DOM","country": "DominicanRepublic","GID_1": "DOM.10_1","province": "Independencia","NL_NAME_1": "NA","county": "Jimaní","VARNAME_2": "NA","NL_NAME_2": "NA","TYPE_2": "Municipio","ENGTYPE_2": "Municipality","CC_2": "NA","HASC_2": "DO.IN.JI","name": "Jimaní.county","area_km2": 536.4307,"hist_schema_id": "Elevation0-9000","hist_area_km2": {"-25": 104.1161,"0": 55.8845,"25": 50.8362,"50": 42.9073,"75": 42.8845,"100": 20.7718,"125": 14.3384,"150": 11.3619,"175": 9.6321,"200": 8.6864,"225": 8.1029,"250": 7.6406,"275": 7.2788,"300": 6.615,"325": 6.7559,"350": 5.8711,"375": 6.373,"400": 6.2527,"425": 6.3928,"450": 5.6695,"475": 6.7345,"500": 5.97,"525": 6.01,"550": 5.7888,"575": 6.3113,"600": 5.8689,"625": 4.7033,"650": 4.3613,"675": 4.2005,"700": 4.0198,"725": 3.7986,"750": 3.4969,"775": 3.7786,"800": 4.1004,"825": 4.4222,"850": 4.543,"875": 5.4491,"900": 6.0333,"925": 4.222,"950": 2.7135,"975": 2.4719,"1000": 1.8084,"1025": 2.1096,"1050": 1.3461,"1075": 1.0045,"1100": 0.5826,"1125": 0.6831,"1150": 0.663,"1175": 0.3215,"1200": 0.1205,"1225": 0.1607,"1250": 0.0603,"1275": 0.1005,"1300": 0.0804,"1325": 0.0201}}}