{"type": "Feature","bbox": [-61.0692,14.4997,-61.0009,14.5624],"geometry": {"type": "MultiPolygon","coordinates": [[[[-61.011,14.5083,214.5341],[-61.009,14.5113,264.0179],[-61.0009,14.5398,2.8552],[-61.0015,14.5435,2.835],[-61.004,14.5401,1.0654],[-61.009,14.5424,0.0],[-61.0137,14.5351,4.8012],[-61.0165,14.5349,3.0857],[-61.0187,14.5399,0.0],[-61.024,14.5396,0.0],[-61.0262,14.5357,1.7897],[-61.0288,14.5376,0.0],[-61.0315,14.5371,0.7199],[-61.0301,14.5412,0.0],[-61.0337,14.5429,0.0],[-61.0351,14.5407,2.7337],[-61.0365,14.5421,0.0],[-61.0424,14.5412,3.4985],[-61.0435,14.5471,13.5719],[-61.0396,14.5476,3.7163],[-61.0365,14.5501,0.0],[-61.0374,14.5568,0.0],[-61.0404,14.5571,0.0],[-61.0426,14.5535,1.621],[-61.0507,14.5513,4.5653],[-61.0482,14.5596,3.1249],[-61.0512,14.5588,2.1873],[-61.0512,14.5621,0.0],[-61.0526,14.5624,0.0],[-61.0535,14.5579,5.2255],[-61.0568,14.5568,0.0],[-61.0568,14.5549,0.0],[-61.0526,14.554,4.6846],[-61.0543,14.5513,1.0972],[-61.0607,14.551,0.0],[-61.0657,14.5404,4.3692],[-61.0692,14.5404,36.7367],[-61.0653,14.5249,370.3825],[-61.0587,14.508,328.1701],[-61.0546,14.5042,239.5613],[-61.0434,14.4997,215.9893],[-61.011,14.5083,214.5341]]],
[[[-61.016,14.5504,15.2515],[-61.0207,14.5501,4.5155],[-61.0229,14.5476,0.0],[-61.021,14.5463,0.0],[-61.0168,14.5465,0.0],[-61.016,14.5504,15.2515]]]]}
,"properties": {"GID_2": "MTQ.2.7_1","GID_0": "MTQ","country": "Martinique","GID_1": "MTQ.2_1","province": "LeMarin","NL_NAME_1": "NA","county": "LesTrois-Îlets","VARNAME_2": "NA","NL_NAME_2": "NA","TYPE_2": "Commune","ENGTYPE_2": "Commune","CC_2": "NA","HASC_2": "MQ.MA.TI","name": "Les_Trois-Îlets.county","area_km2": 29.08308,"hist_schema_id": "Elevation0-9000","hist_area_km2": {"0": 5.43865,"25": 4.74095,"50": 3.36593,"75": 2.46289,"100": 2.23718,"125": 2.01144,"150": 1.72412,"175": 1.23152,"200": 1.41628,"225": 1.16998,"250": 0.96472,"275": 1.06735,"300": 0.59525,"325": 0.26684,"350": 0.24631,"375": 0.14368}}}