{"type": "Feature","bbox": [-61.6835,15.9524,-61.614,16.0334],"geometry": {"type": "MultiPolygon","coordinates": [[[[-61.6556,16.0334,1133.5194],[-61.6585,16.0163,672.7504],[-61.6688,15.9982,434.6859],[-61.6628,15.9784,85.2095],[-61.6644,15.9753,82.0021],[-61.6709,15.9779,190.933],[-61.6835,15.9725,483.8082],[-61.6816,15.9603,123.4629],[-61.6754,15.9524,0.0],[-61.6699,15.9613,9.9009],[-61.6621,15.9643,19.8781],[-61.6615,15.9615,0.0],[-61.6582,15.9593,0.0],[-61.6549,15.9654,0.0],[-61.6518,15.966,0.0],[-61.6493,15.969,21.1055],[-61.644,15.966,0.0],[-61.6376,15.9676,23.6502],[-61.6335,15.9649,0.0],[-61.6321,15.9668,0.0],[-61.629,15.9663,0.0],[-61.6293,15.9693,5.3786],[-61.6265,15.9715,9.1128],[-61.6243,15.9701,0.0],[-61.619,15.9704,0.0],[-61.6176,15.9743,0.0],[-61.6199,15.9762,1.8685],[-61.6196,15.9779,8.8699],[-61.614,15.9815,2.8809],[-61.6143,15.9858,22.1024],[-61.6229,15.9924,196.3046],[-61.6282,16.0124,573.7109],[-61.6325,16.018,669.1048],[-61.6401,16.0253,785.5205],[-61.6556,16.0334,1133.5194]]]]}
,"properties": {"GID_2": "GLP.1.16_1","GID_0": "GLP","country": "Guadeloupe","GID_1": "GLP.1_1","province": "Basse-Terre","NL_NAME_1": "NA","county": "Trois-Rivières","VARNAME_2": "NA","NL_NAME_2": "NA","TYPE_2": "Chef-lieucanton","ENGTYPE_2": "Commune","CC_2": "35","HASC_2": "NA","name": "Trois-Rivières.county","area_km2": 32.20332,"hist_schema_id": "Elevation0-9000","hist_area_km2": {"0": 1.20267,"25": 1.32497,"50": 1.18227,"75": 1.50841,"100": 1.40647,"125": 1.61029,"150": 1.6918,"175": 1.67139,"200": 1.34526,"225": 1.30448,"250": 1.1618,"275": 1.24331,"300": 1.2433,"325": 1.05985,"350": 0.81527,"375": 0.71335,"400": 0.63182,"425": 0.61143,"450": 0.63181,"475": 0.6318,"500": 0.46876,"525": 0.28533,"550": 0.22418,"575": 0.24456,"600": 0.44837,"625": 0.59103,"650": 0.57064,"675": 1.20239,"700": 1.10049,"725": 0.67252,"750": 0.50948,"775": 0.65213,"800": 0.36682,"825": 0.3872,"850": 0.36682,"875": 0.32607,"900": 0.32607,"925": 0.24455,"950": 0.12227,"1000": 0.04076,"1025": 0.02038,"1075": 0.02038,"1100": 0.02038}}}