{"type":"Feature","properties":{"GID_3":"HTI.10.5.2_1","GID_0":"HTI","country":"Haiti","GID_1":"HTI.10_1","province":"Sud","NL_NAME_1":"NA","GID_2":"HTI.10.5_1","county":"Port-Salut","NL_NAME_2":"NA","city":"Port-Salut","VARNAME_3":"NA","NL_NAME_3":"NA","TYPE_3":"Commune","ENGTYPE_3":"Commune","CC_3":"NA","HASC_3":"NA","name":"Port-Salut.city"},
"geometry":{"type": "MultiPolygon","coordinates": [[[[-73.8804,18.0749,153.4896],[-73.8724,18.084,226.3097],[-73.8698,18.0916,225.6136],[-73.8612,18.0956,260.9695],[-73.8612,18.099,257.3178],[-73.8557,18.1029,126.6337],[-73.8527,18.1086,83.0573],[-73.854,18.1222,3.8395],[-73.8563,18.123,9.5203],[-73.8576,18.1258,7.349],[-73.8571,18.1303,11.4744],[-73.8638,18.1369,20.832],[-73.8621,18.1388,9.8661],[-73.8629,18.1402,9.8661],[-73.8683,18.1409,25.7056],[-73.8673,18.1484,19.88],[-73.8729,18.1525,16.7134],[-73.884,18.1344,133.2166],[-73.8947,18.1282,184.0753],[-73.8935,18.1238,189.908],[-73.8976,18.1203,183.2092],[-73.9046,18.1248,222.6812],[-73.9102,18.1396,273.7649],[-73.9021,18.1497,223.7166],[-73.8891,18.1547,69.3986],[-73.883,18.1601,25.8384],[-73.8802,18.1602,21.7044],[-73.8811,18.1639,24.7674],[-73.8836,18.1663,25.81],[-73.8944,18.1681,40.973],[-73.9014,18.1751,74.3164],[-73.9282,18.1924,232.25],[-73.9405,18.1953,162.748],[-73.9458,18.1886,182.7489],[-73.9488,18.1693,92.6105],[-73.9466,18.1621,55.1918],[-73.9488,18.1519,87.8924],[-73.9486,18.1394,76.1362],[-73.9469,18.133,15.9715],[-73.95,18.1317,2.8674],[-73.9432,18.1193,11.4951],[-73.9424,18.1146,2.1658],[-73.9444,18.1121,2.2014],[-73.9435,18.1079,3.5609],[-73.9389,18.1024,1.2878],[-73.939,18.0979,0.0],[-73.9337,18.0963,2.3849],[-73.9276,18.0915,2.4254],[-73.9262,18.0879,1.9747],[-73.9221,18.0848,0.0],[-73.9233,18.0824,0.0],[-73.9201,18.0818,8.6213],[-73.9182,18.079,14.5638],[-73.921,18.0735,2.7777],[-73.9176,18.064,0.5168],[-73.9129,18.0601,7.1388],[-73.9126,18.0557,6.019],[-73.9074,18.051,2.7046],[-73.9071,18.0476,0.0],[-73.9032,18.044,0.0],[-73.9043,18.0327,5.4551],[-73.8874,18.0249,2.7674],[-73.8862,18.0304,31.2086],[-73.8824,18.0351,54.0],[-73.8809,18.051,115.225],[-73.8774,18.0564,116.9609],[-73.8785,18.0619,131.3718],[-73.8819,18.0653,143.6728],[-73.8804,18.0749,153.4896]]]]}}