{"type":"Feature","properties":{"ISO3166-1-Alpha-3":"AIA","country":"Anguilla","fill":"#F0F","id":"5115","name":"East End"},
"geometry":{"type": "MultiPolygon","coordinates": [[[[-62.97289,18.26927,5.6187],[-62.97265,18.27586,0.0],[-62.984,18.27643,0.0],[-62.99452,18.2749,0.0],[-62.99998,18.26734,0.0],[-63.00755,18.26734,0.0],[-63.00739,18.27302,0.0],[-63.0135,18.27197,0.0],[-63.01352,18.26096,0.0],[-63.00317,18.26096,1.1874],[-62.9952,18.25619,24.9677],[-62.9964,18.2522,28.1713],[-63.00197,18.24384,13.6581],[-62.99441,18.24384,21.422],[-62.9948,18.23453,11.2503],[-62.99291,18.23688,14.4297],[-62.97289,18.26927,5.6187]]],
[[[-62.94736,18.28039,0.0],[-62.94495,18.2837,0.0],[-62.93201,18.28731,0.2497],[-62.92568,18.28972,0.0],[-62.93381,18.29454,3.0928],[-62.94767,18.29725,0.0],[-62.95068,18.29213,0.0],[-62.9582,18.28942,0.0],[-62.9561,18.2825,0.0],[-62.96001,18.27768,0.0],[-62.9567,18.27437,0.0],[-62.94736,18.28039,0.0]]]]}}