{"type": "Feature","bbox": [-63.0168,18.2257,-62.9803,18.2521],"geometry": {"type": "MultiPolygon","coordinates": [[[[-62.9902,18.2464,22.3597],[-62.9951,18.2465,8.8976],[-62.9956,18.2399,9.2837],[-62.9981,18.2344,5.1721],[-63.0034,18.23,6.1266],[-62.9917,18.23,2.855],[-62.9905,18.2257,1.6034],[-62.9853,18.2301,1.6053],[-62.9848,18.2371,6.4823],[-62.9809,18.2392,0.1736],[-62.9803,18.2443,0.0],[-62.9902,18.2464,22.3597]]],
[[[-63.0047,18.241,14.3286],[-62.9951,18.2465,8.8976],[-63.0127,18.2521,23.19],[-63.0168,18.2342,8.9186],[-63.0117,18.2361,19.8257],[-63.0047,18.241,14.3286]]]]}
,"properties": {"GID_1": "AIA.2_1","GID_0": "AIA","country": "Anguilla","state": "EastEnd","VARNAME_1": "NA","NL_NAME_1": "NA","TYPE_1": "District","ENGTYPE_1": "District","CC_1": "NA","HASC_1": "AI.EE","ISO_1": "NA","name": "EastEnd.state","area_km2": 4.832848,"hist_schema_id": "Elevation0-9000","hist_area_km2": {"0": 2.174803,"25": 2.637909,"50": 0.020136}}}