{"type": "Feature","bbox": [-84.1714,22.0532,-83.9116,22.4029],"geometry": {"type": "MultiPolygon","coordinates": [[[[-83.9726,22.0979,0.0],[-83.9735,22.0951,0.0],[-83.9713,22.091,0.0],[-83.9707,22.0935,0.0],[-83.9726,22.0979,0.0]]],
[[[-83.9321,22.1571,1.2444],[-83.9387,22.1736,12.0922],[-83.9699,22.2298,294.0302],[-83.971,22.237,274.7678],[-83.9625,22.2549,199.8955],[-83.9493,22.2709,243.2463],[-83.9356,22.2972,173.4824],[-83.9236,22.3117,138.592],[-83.9116,22.3325,155.4416],[-83.9274,22.3606,301.8529],[-83.9326,22.3787,186.0654],[-83.9414,22.3914,107.2846],[-83.9772,22.3947,77.8592],[-83.9985,22.4013,292.7844],[-84.0312,22.4029,93.975],[-84.1143,22.3266,135.426],[-84.1279,22.3114,86.1298],[-84.1447,22.2787,116.6387],[-84.1621,22.228,54.8634],[-84.1647,22.2088,26.5297],[-84.1713,22.1917,28.3526],[-84.1714,22.1488,45.6561],[-84.1501,22.1501,51.8153],[-84.13,22.1572,39.1259],[-84.1114,22.1559,17.0427],[-84.0751,22.1327,7.7869],[-84.0502,22.103,1.8442],[-84.0312,22.0943,4.8707],[-84.0136,22.0901,11.4926],[-83.9965,22.08,1.9092],[-83.9949,22.0618,0.0],[-83.9912,22.066,1.6612],[-83.9851,22.0688,1.1418],[-83.9707,22.0685,1.8851],[-83.9699,22.0663,0.8456],[-83.9724,22.0663,0.0],[-83.9721,22.064,0.0],[-83.9746,22.0621,0.0],[-83.9743,22.0582,0.6393],[-83.976,22.0574,0.4663],[-83.971,22.056,0.5004],[-83.9696,22.0532,0.0],[-83.9682,22.0674,0.0],[-83.9699,22.0835,0.0],[-83.9713,22.0849,0.0],[-83.9715,22.0821,1.0256],[-83.9735,22.0818,3.6778],[-83.9732,22.0921,0.0],[-83.9737,22.0932,1.0798],[-83.9746,22.0918,1.3827],[-83.9776,22.0924,1.5291],[-83.979,22.094,0.0],[-83.9785,22.0971,3.5434],[-83.9765,22.0946,0.0],[-83.9749,22.096,0.9379],[-83.9751,22.1004,1.1674],[-83.9735,22.1024,2.0731],[-83.9743,22.111,2.5106],[-83.9721,22.1199,1.3278],[-83.9538,22.1432,3.2603],[-83.9321,22.1571,1.2444]]]]}
,"properties": {"GID_2": "CUB.13.4_1","GID_0": "CUB","country": "Cuba","GID_1": "CUB.13_1","province": "PinardelRío","NL_NAME_1": "NA","county": "Guane","VARNAME_2": "NA","NL_NAME_2": "NA","TYPE_2": "Municipio","ENGTYPE_2": "Municipality","CC_2": "NA","HASC_2": "CU.PR.GU","name": "Guane.county","area_km2": 611.819,"hist_schema_id": "Elevation0-9000","hist_area_km2": {"0": 110.0768,"25": 89.8197,"50": 54.196,"75": 87.2231,"100": 72.5481,"125": 50.947,"150": 38.7811,"175": 27.3824,"200": 21.2431,"225": 13.3379,"250": 10.6301,"275": 9.728,"300": 8.9822,"325": 7.3738,"350": 4.6871,"375": 2.2158,"400": 1.0196,"425": 0.4117,"450": 0.3529,"475": 0.1961,"500": 0.2745,"525": 0.2549,"550": 0.1176,"575": 0.0196}}}