{"type":"Feature","properties":{"GID_2":"BLM.1.14_1","GID_0":"BLM","country":"Saint-Barthélemy","GID_1":"BLM.1_1","province":"AuVent","NL_NAME_1":"NA","county":"MorneCriquet","VARNAME_2":"NA","NL_NAME_2":"NA","TYPE_2":"Quartier","ENGTYPE_2":"Quarter","CC_2":"NA","HASC_2":"NA","name":"Morne_Criquet.county"},
"geometry":{"type": "MultiPolygon","coordinates": [[[[-62.8289,17.8988,47.3686],[-62.8229,17.9012,32.6645],[-62.8245,17.9068,5.9037],[-62.8271,17.9072,0.0],[-62.8275,17.9096,0.0],[-62.8337,17.9058,14.3048],[-62.8332,17.9035,10.6972],[-62.8365,17.9031,4.5321],[-62.8371,17.8981,12.3559],[-62.8364,17.8969,47.8291],[-62.8335,17.8999,51.5025],[-62.8289,17.8988,47.3686]]]]}}