{"type": "Feature","bbox": [-76.8176,20.5099,-76.3994,20.7333],"geometry": {"type": "MultiPolygon","coordinates": [[[[-76.5454,20.5242,40.2562],[-76.5281,20.5248,39.4303],[-76.5076,20.5182,42.6834],[-76.4741,20.5164,55.9022],[-76.4559,20.5099,52.2513],[-76.4436,20.5109,49.8711],[-76.4329,20.5182,46.7542],[-76.4197,20.5325,44.1034],[-76.4103,20.5508,47.1431],[-76.4063,20.5694,47.1633],[-76.3994,20.5862,46.3412],[-76.4234,20.5883,45.1798],[-76.4316,20.5921,44.2228],[-76.4677,20.6167,41.5539],[-76.4864,20.623,40.1524],[-76.5427,20.6241,34.7652],[-76.5502,20.6263,34.2535],[-76.5541,20.6331,35.6945],[-76.5541,20.6384,35.7375],[-76.547,20.6621,37.3748],[-76.5439,20.6818,34.5688],[-76.5465,20.6921,35.6302],[-76.5538,20.6985,36.1652],[-76.5628,20.6987,35.4199],[-76.5891,20.6905,38.9696],[-76.6012,20.6903,37.0076],[-76.6141,20.6949,39.6837],[-76.6206,20.6954,38.557],[-76.6438,20.691,35.3141],[-76.646,20.6924,35.656],[-76.6493,20.6992,38.8027],[-76.6545,20.7142,40.5632],[-76.6601,20.717,39.6609],[-76.6641,20.717,38.4394],[-76.6691,20.7149,36.7246],[-76.6721,20.711,36.0257],[-76.6793,20.71,37.8908],[-76.6885,20.7193,34.6596],[-76.7128,20.709,29.8396],[-76.7254,20.7003,28.6687],[-76.734,20.6911,27.8325],[-76.7436,20.668,22.4945],[-76.747,20.6668,23.3083],[-76.7545,20.6676,23.4884],[-76.7604,20.669,23.3341],[-76.767,20.673,22.9461],[-76.7769,20.6871,22.6842],[-76.7834,20.7056,27.2031],[-76.7894,20.7161,24.5512],[-76.8027,20.7286,27.9669],[-76.8116,20.7333,32.3573],[-76.8094,20.7232,29.2567],[-76.8111,20.6912,19.108],[-76.8176,20.675,16.4877],[-76.8155,20.6621,14.9992],[-76.8085,20.6559,16.1303],[-76.7605,20.6328,21.0392],[-76.7498,20.6136,20.2949],[-76.7458,20.590699999999998,21.2512],[-76.7373,20.5775,14.5312],[-76.7253,20.574,25.3724],[-76.7049,20.5739,22.0],[-76.6799,20.5814,23.7177],[-76.6352,20.5824,32.8614],[-76.6149,20.5893,32.986],[-76.6028,20.5893,26.5158],[-76.5948,20.5844,34.6116],[-76.5609,20.5389,37.7542],[-76.5454,20.5242,40.2562]]]]}
,"properties": {"GID_2": "CUB.5.5_1","GID_0": "CUB","country": "Cuba","GID_1": "CUB.5_1","province": "Granma","NL_NAME_1": "NA","county": "CautoCristo","VARNAME_2": "NA","NL_NAME_2": "NA","TYPE_2": "Municipio","ENGTYPE_2": "Municipality","CC_2": "NA","HASC_2": "CU.GR.CC","name": "Cauto_Cristo.county","area_km2": 480.4858,"hist_schema_id": "Elevation0-9000","hist_area_km2": {"0": 0.3176,"25": 340.4432,"50": 139.725}}}