{"type": "Feature","bbox": [-81.8246,22.5496,-81.5832,22.8225],"geometry": {"type": "MultiPolygon","coordinates": [[[[-81.6617,22.797,32.4024],[-81.7046,22.8134,39.9369],[-81.7314,22.8156,38.4933],[-81.7547,22.8225,47.8395],[-81.7749,22.8219,51.2049],[-81.8013,22.813,47.2801],[-81.8136,22.7849,26.3273],[-81.8139,22.7012,1.163],[-81.8246,22.6637,0.0],[-81.7993,22.6579,3.7651],[-81.7812,22.6496,1.4059],[-81.7724,22.6474,6.6904],[-81.7629,22.6421,5.0501],[-81.7554,22.6404,0.0],[-81.7443,22.6338,9.0304],[-81.7415,22.6304,0.0],[-81.7343,22.6288,8.4584],[-81.7285,22.6243,1.7263],[-81.721,22.6151,0.0],[-81.7104,22.6076,1.6392],[-81.706,22.6013,1.2204],[-81.6979,22.5957,5.6844],[-81.689,22.5921,8.9383],[-81.6799,22.5821,7.1967],[-81.6687,22.5763,3.4112],[-81.6585,22.5763,0.0],[-81.6557,22.5721,4.1459],[-81.649,22.5746,1.2396],[-81.6454,22.5688,7.083],[-81.6435,22.5599,8.972],[-81.6454,22.5496,10.6032],[-81.6353,22.5529,7.3273],[-81.617,22.5688,1.6733],[-81.5996,22.6032,1.8192],[-81.5842,22.6545,10.4881],[-81.5832,22.6663,8.1595],[-81.5855,22.6748,8.4698],[-81.5922,22.6824,7.4772],[-81.6428,22.7067,8.821],[-81.6501,22.7133,9.4684],[-81.6527,22.7201,15.5864],[-81.6528,22.7283,18.5331],[-81.6508,22.7481,20.5706],[-81.6445,22.7612,25.3092],[-81.6288,22.7685,27.2715],[-81.6261,22.775,23.6582],[-81.6265,22.7789,25.602],[-81.6303,22.782,25.8797],[-81.635,22.7829,25.2425],[-81.6592,22.7837,24.2907],[-81.6618,22.7872,27.0153],[-81.6617,22.797,32.4024]]]]}
,"properties": {"GID_2": "CUB.12.7_1","GID_0": "CUB","country": "Cuba","GID_1": "CUB.12_1","province": "Mayabeque","NL_NAME_1": "NA","county": "NuevaPaz","VARNAME_2": "NA","NL_NAME_2": "NA","TYPE_2": "Municipio","ENGTYPE_2": "Municipality","CC_2": "NA","HASC_2": "CU.LH.NP","name": "Nueva_Paz.county","area_km2": 446.3973,"hist_schema_id": "Elevation0-9000","hist_area_km2": {"0": 285.568,"25": 148.5166,"50": 12.3126}}}