{"type":"Feature","properties":{"GID_2":"HTI.7.3_1","GID_0":"HTI","country":"Haiti","GID_1":"HTI.7_1","province":"Nord","NL_NAME_1":"NA","county":"l'Acul-du-Nord","VARNAME_2":"NA","NL_NAME_2":"NA","TYPE_2":"Arrondissement","ENGTYPE_2":"District","CC_2":"NA","HASC_2":"HT.ND.AN","name":"l'Acul-du-Nord.county"},
"geometry":{"type": "MultiPolygon","coordinates": [[[[-72.3246,19.5699,834.3412],[-72.3225,19.5613,849.004],[-72.3191,19.5586,931.5298],[-72.3111,19.5597,765.7393],[-72.2879,19.5585,543.8374],[-72.2881,19.5616,531.3172],[-72.2856,19.5618,536.6105],[-72.2849,19.5646,518.9009],[-72.2781,19.566,497.983],[-72.2759,19.565,497.502],[-72.2757,19.5664,483.2694],[-72.2702,19.5653,479.1065],[-72.2715,19.5779,544.1512],[-72.2667,19.5785,597.7477],[-72.2636,19.5741,534.5922],[-72.2511,19.5704,562.8052],[-72.2473,19.572,653.0632],[-72.2422,19.5709,714.0332],[-72.2413,19.5731,745.6624],[-72.2293,19.5779,594.3092],[-72.217,19.5891,509.251],[-72.2044,19.5961,563.1168],[-72.207,19.6038,227.9539],[-72.1993,19.6069,164.881],[-72.1985,19.6098,129.8086],[-72.2003,19.6126,92.5183],[-72.189,19.621,57.6856],[-72.1888,19.6226,51.7831],[-72.1978,19.6238,56.2411],[-72.1951,19.6465,36.726],[-72.1887,19.6476,31.4325],[-72.1871,19.6544,26.7841],[-72.1874,19.6566,26.4478],[-72.1928,19.6577,27.1355],[-72.1932,19.6633,21.4525],[-72.1874,19.6771,16.8635],[-72.1885,19.6815,15.258],[-72.1866,19.686,13.949],[-72.1861,19.699,9.6123],[-72.1986,19.7034,7.538],[-72.1989,19.7099,6.4562],[-72.2072,19.7167,3.7077],[-72.2235,19.723,3.8372],[-72.2338,19.7183,3.0868],[-72.2359,19.7124,4.2171],[-72.239,19.7124,3.5321],[-72.2403,19.7095,4.1785],[-72.2443,19.7081,4.478],[-72.2521,19.7191,23.2007],[-72.2477,19.722,29.0706],[-72.2482,19.7249,43.158],[-72.2451,19.7288,117.7825],[-72.248,19.7296,124.6394],[-72.251,19.7399,668.7404],[-72.2615,19.7391,666.0646],[-72.2687,19.7411,658.2589],[-72.2672,19.745,483.3345],[-72.2642,19.7464,512.6379],[-72.2608,19.745,580.5049],[-72.2567,19.7474,444.8754],[-72.2576,19.7586,77.3888],[-72.2632,19.7635,20.2395],[-72.2674,19.7638,0.0],[-72.2707,19.7621,0.0],[-72.2704,19.7649,0.0],[-72.2751,19.7635,11.3794],[-72.2785,19.7671,0.0],[-72.2813,19.766,0.0],[-72.2849,19.7683,5.788],[-72.2865,19.7679,0.0],[-72.2876,19.7649,9.0577],[-72.2943,19.7657,0.0],[-72.2974,19.7626,17.7383],[-72.3024,19.761,4.812],[-72.3129,19.7649,22.6189],[-72.3149,19.7702,5.3236],[-72.3196,19.7696,0.0],[-72.3201,19.7671,14.3427],[-72.3143,19.7602,0.0],[-72.3118,19.7482,0.5103],[-72.3185,19.7493,0.0],[-72.3201,19.7457,12.6772],[-72.3179,19.7429,0.0],[-72.3104,19.7429,0.0],[-72.3087,19.7379,0.0],[-72.314,19.7365,11.9116],[-72.3126,19.7332,0.0],[-72.3129,19.7262,0.172],[-72.311,19.7218,0.0],[-72.3126,19.7176,0.0],[-72.3112,19.7093,0.1913],[-72.3182,19.7068,3.5158],[-72.3199,19.7087,1.3023],[-72.3238,19.709,0.0],[-72.3276,19.7129,0.7677],[-72.3326,19.7146,0.0],[-72.3343,19.721,0.0],[-72.3368,19.7224,0.0],[-72.3368,19.7317,0.0],[-72.3399,19.7426,0.0],[-72.3424,19.746,0.0],[-72.3418,19.7499,0.0],[-72.3396,19.7518,0.0],[-72.3313,19.7426,0.1767],[-72.33,19.7425,0.0],[-72.3299,19.7446,0.0],[-72.3321,19.7458,0.0],[-72.3315,19.7488,0.477],[-72.3293,19.749,0.5772],[-72.3282,19.744,0.4256],[-72.326,19.744,0.0],[-72.326,19.7474,0.0],[-72.3285,19.7515,0.0],[-72.3336,19.7546,0.8135],[-72.3388,19.7713,0.0],[-72.3429,19.7757,0.0],[-72.3515,19.7799,16.3116],[-72.354,19.7827,4.0783],[-72.3593,19.7807,59.2777],[-72.3594,19.7747,124.8885],[-72.3615,19.774,49.7738],[-72.3637,19.7756,7.8165],[-72.3637,19.7724,104.1748],[-72.3682,19.7696,186.865],[-72.3713,19.7604,203.8692],[-72.3759,19.7561,192.7768],[-72.3768,19.753,192.5587],[-72.3731,19.7452,364.0419],[-72.3739,19.7407,341.6512],[-72.3706,19.7373,377.5184],[-72.3709,19.7235,582.8229],[-72.3686,19.7199,526.3232],[-72.3636,19.7179,341.6058],[-72.3616,19.7124,374.1252],[-72.3542,19.709,133.581],[-72.3529,19.7036,201.9912],[-72.3473,19.6995,201.6651],[-72.3414,19.691,314.3323],[-72.3422,19.6855,248.532],[-72.3472,19.6823,254.3485],[-72.361,19.6659,339.8101],[-72.3589,19.6577,72.9738],[-72.3652,19.6545,68.9016],[-72.3707,19.6552,53.3162],[-72.3721,19.6516,59.5199],[-72.3774,19.6506,79.8189],[-72.3966,19.6308,695.7532],[-72.3971,19.6184,769.7873],[-72.3952,19.6168,805.5461],[-72.3958,19.6108,776.2722],[-72.4044,19.6095,785.9326],[-72.4026,19.6036,686.0476],[-72.4063,19.5985,783.757],[-72.4032,19.5943,601.1075],[-72.4063,19.5832,414.5389],[-72.4028,19.58,533.6074],[-72.4034,19.5772,534.2174],[-72.4118,19.5713,316.9162],[-72.4093,19.5708,365.669],[-72.4084,19.5676,338.6413],[-72.4039,19.5692,383.6911],[-72.4001,19.5639,374.271],[-72.3932,19.5621,420.2741],[-72.3902,19.566,427.691],[-72.3905,19.5729,665.0281],[-72.3812,19.5854,872.6995],[-72.3786,19.5853,815.0162],[-72.3774,19.5883,736.4026],[-72.3745,19.5901,834.2991],[-72.3652,19.5918,775.7844],[-72.3629,19.5878,792.7656],[-72.3591,19.5855,854.6483],[-72.3592,19.5817,806.0685],[-72.3619,19.5783,675.2247],[-72.3663,19.5764,566.8983],[-72.3647,19.575,556.0079],[-72.3666,19.566,505.3906],[-72.3649,19.5653,562.9202],[-72.3621,19.5672,662.0181],[-72.359,19.5726,700.6667],[-72.347,19.5737,677.6996],[-72.3348,19.5706,726.8177],[-72.3278,19.572,862.7229],[-72.3246,19.5699,834.3412]]]]}}