{"type":"Feature","properties":{"GID_1":"LCA.4_1","GID_0":"LCA","country":"SaintLucia","province":"Choiseul","VARNAME_1":"NA","NL_NAME_1":"NA","TYPE_1":"Quarter","ENGTYPE_1":"Quarter","CC_1":"NA","HASC_1":"LC.CH","ISO_1":"LC-03","name":"Choiseul.province"},
"geometry":{"type": "MultiPolygon","coordinates": [[[[-61.039,13.7618,0.0],[-61.0365,13.7628,38.8678],[-61.0316,13.7689,69.3396],[-61.03,13.7763,113.8551],[-61.0267,13.7813,104.737],[-61.0254,13.7904,166.9384],[-61.0165,13.8013,212.8269],[-61.0144,13.8106,328.8618],[-61.0098,13.817,364.804],[-61.0058,13.8301,420.7841],[-60.9988,13.8436,489.8563],[-61.004,13.842,593.3843],[-61.0289,13.8215,436.7167],[-61.044,13.8189,324.1134],[-61.0506,13.8136,251.2576],[-61.0594,13.811,217.3334],[-61.0644,13.8034,126.3173],[-61.0691,13.801,4.3571],[-61.0676,13.7987,3.7687],[-61.0696,13.7915,0.0],[-61.0682,13.7893,3.1431],[-61.0601,13.7846,7.1151],[-61.0571,13.7796,0.0],[-61.0546,13.7799,1.9617],[-61.0476,13.7674,15.7915],[-61.039,13.7618,0.0]]]]}}