{"type": "Feature","id": "5078","bbox": [-61.0681,13.75625,-60.98094,13.83577],"geometry": {"type": "Polygon","coordinates": [[[-60.98094,13.8308,386.0501],[-60.98158,13.83577,357.5715],[-60.99191,13.83013,433.656],[-61.02574,13.8176,462.1051],[-61.04956,13.80632,243.0201],[-61.0681,13.79218,36.4227],[-61.06493,13.78693,0.0],[-61.04817,13.76732,0.0],[-61.01892,13.75625,28.5951],[-61.01203,13.77087,116.0516],[-61.00113,13.79197,220.2088],[-60.98882,13.81939,333.9822],[-60.98566,13.82783,468.4504],[-60.98094,13.8308,386.0501]]]}
,"properties": {"ISO3166-1-Alpha-3": "LCA","country": "Saint Lucia","fill": "#F0F","name": "Choiseul","area_km2": 37.76337,"hist_schema_id": "Elevation0-9000","hist_area_km2": {"0": 0.98842,"25": 1.15317,"50": 3.31541,"75": 2.92411,"100": 2.8623,"125": 2.16213,"150": 2.73865,"175": 2.2856,"200": 2.59443,"225": 1.89432,"250": 2.30609,"275": 1.91486,"300": 1.68835,"325": 2.07952,"350": 1.503,"375": 1.7088699999999999,"400": 1.31768,"425": 0.8853,"450": 0.53529,"475": 0.39117,"500": 0.28823,"525": 0.12353,"550": 0.06176,"575": 0.02059,"600": 0.02059}}}