{"type":"Feature","properties":{"GID_2":"CUB.15.7_1","GID_0":"CUB","country":"Cuba","GID_1":"CUB.15_1","province":"SantiagodeCuba","NL_NAME_1":"NA","county":"SegundoFrente","VARNAME_2":"NA","NL_NAME_2":"NA","TYPE_2":"Municipio","ENGTYPE_2":"Municipality","CC_2":"NA","HASC_2":"CU.SC.SF","name":"Segundo_Frente.county"},
"geometry":{"type": "MultiPolygon","coordinates": [[[[-75.3394,20.4387,357.2075],[-75.3466,20.4589,260.162],[-75.3539,20.4632,295.1879],[-75.3635,20.4649,151.1963],[-75.367,20.4678,127.0327],[-75.3756,20.4839,191.2461],[-75.3816,20.4859,229.7763],[-75.4067,20.4853,195.1258],[-75.4077,20.4885,175.6172],[-75.4075,20.4921,170.0398],[-75.4008,20.506,213.5876],[-75.3911,20.5176,213.3464],[-75.3846,20.5212,255.4003],[-75.3675,20.5253,147.4689],[-75.3635,20.5283,185.0904],[-75.359,20.5354,381.9925],[-75.3594,20.5605,233.16309999999999],[-75.3637,20.581,118.9823],[-75.3672,20.5875,133.0956],[-75.371,20.5901,87.9567],[-75.3769,20.5933,118.9718],[-75.3832,20.5935,107.0644],[-75.4192,20.5892,315.9261],[-75.4488,20.5771,272.7629],[-75.4827,20.5764,497.6052],[-75.4954,20.5721,705.1096],[-75.5163,20.5327,562.3189],[-75.5221,20.5261,481.3853],[-75.5329,20.5213,331.9637],[-75.5624,20.5174,698.5624],[-75.5781,20.5125,373.3175],[-75.58,20.5086,331.9363],[-75.5787,20.5048,357.4302],[-75.5708,20.4966,316.9934],[-75.5688,20.4902,317.7621],[-75.5693,20.4831,400.9454],[-75.5724,20.478,398.2387],[-75.5785,20.473,327.9405],[-75.6321,20.4378,324.6036],[-75.6436,20.4377,210.84],[-75.668,20.4424,304.0102],[-75.6834,20.4307,200.865],[-75.6682,20.4276,275.9854],[-75.643,20.4138,165.3829],[-75.6416,20.4,190.5777],[-75.6312,20.3721,156.8144],[-75.6004,20.3433,269.1411],[-75.5905,20.3424,322.7742],[-75.555,20.3555,313.894],[-75.5405,20.357,321.2683],[-75.5156,20.3499,277.596],[-75.4803,20.3479,307.5247],[-75.4589,20.3366,448.2985],[-75.4142,20.3038,302.2066],[-75.4129,20.3163,232.4961],[-75.4152,20.3269,294.6302],[-75.427,20.3418,508.6763],[-75.4283,20.3456,594.8748],[-75.4247,20.3551,558.9492],[-75.4161,20.3652,483.0899],[-75.3976,20.3763,325.645],[-75.3924,20.3814,260.5829],[-75.3905,20.4003,472.2051],[-75.387,20.4112,401.108],[-75.3823,20.4139,457.1696],[-75.3746,20.414,353.3168],[-75.3524,20.4087,446.0779],[-75.3488,20.4143,405.2237],[-75.3462,20.4318,275.2531],[-75.3394,20.4387,357.2075]]]]}}