{"type": "Feature","id": "5104","bbox": [-62.82234,17.34985,-62.76942,17.41584],"geometry": {"type": "Polygon","coordinates": [[[-62.76942,17.387,40.204],[-62.81957,17.41584,15.3052],[-62.82234,17.4101,55.7566],[-62.81865,17.40174,109.1819],[-62.81865,17.39201,225.3705],[-62.818,17.38034,489.3513],[-62.81476,17.3745,781.2183],[-62.80827,17.37255,810.9689],[-62.80762,17.36671,883.9343],[-62.78751,17.34985,667.508],[-62.77518,17.36736,314.849],[-62.77648,17.3745,219.4335],[-62.76942,17.387,40.204]]]}
,"properties": {"ISO3166-1-Alpha-3": "KNA","country": "Saint Kitts and Nevis","fill": "#FF0","name": "Saint John Capesterre","area_km2": 21.08371,"hist_schema_id": "Elevation0-9000","hist_area_km2": {"25": 0.20231,"50": 1.23411,"75": 1.47694,"100": 1.33534,"125": 1.47699,"150": 0.97118,"175": 0.95096,"200": 0.82957,"225": 0.70817,"250": 0.64748,"275": 0.62725,"300": 0.66773,"325": 0.48562,"350": 0.48563,"375": 0.42492,"400": 0.30351,"425": 0.34399,"450": 0.36422,"475": 0.4047,"500": 0.32376,"525": 0.30352,"550": 0.32376,"575": 0.32376,"600": 0.42494,"625": 0.4047,"650": 0.36423,"675": 0.46542,"700": 0.46542,"725": 0.38447,"750": 0.38448,"775": 0.46543,"800": 0.36424,"825": 0.36424,"850": 0.34401,"875": 0.30354,"900": 0.36424,"925": 0.30353,"950": 0.12141,"975": 0.10118,"1000": 0.06071,"1025": 0.08094,"1050": 0.06071,"1075": 0.04047}}}