{"type":"Feature","properties":{"GID_1":"KNA.6_1","GID_0":"KNA","country":"SaintKittsandNevis","province":"SaintJohnCapisterre","VARNAME_1":"NA","NL_NAME_1":"NA","TYPE_1":"Parish","ENGTYPE_1":"Parish","CC_1":"NA","HASC_1":"KN.JC","ISO_1":"KN-06","name":"Saint_John_Capisterre.province"},
"geometry":{"type": "MultiPolygon","coordinates": [[[[-62.7651,17.3907,0.0],[-62.7701,17.3935,11.5341],[-62.7801,17.4046,0.0],[-62.7824,17.4037,25.3492],[-62.7893,17.4063,9.6938],[-62.7899,17.4079,0.0],[-62.7912,17.4068,27.0751],[-62.794,17.4099,6.3334],[-62.801,17.4068,24.7343],[-62.8046,17.4121,0.0],[-62.8177,17.4024,85.7457],[-62.8243,17.3843,300.4305],[-62.8167,17.3771,681.8583],[-62.8118,17.376,855.5552],[-62.8101,17.3717,779.1321],[-62.7941,17.3549,647.1991],[-62.7772,17.3749,245.7919],[-62.7756,17.3826,107.2887],[-62.7651,17.3907,0.0]]]]}}