{"type": "Feature","bbox": [-77.8086,20.5035,-77.5056,20.998],"geometry": {"type": "MultiPolygon","coordinates": [[[[-77.6312,20.5263,0.0],[-77.6321,20.528199999999998,0.2913],[-77.6351,20.5232,0.5799],[-77.6332,20.5199,0.3818],[-77.6387,20.516,0.4588],[-77.639,20.5121,0.714],[-77.6432,20.5076,0.3143],[-77.6424,20.5035,0.0],[-77.641,20.5065,0.5582],[-77.6363,20.5093,0.1512],[-77.6346,20.5137,0.0],[-77.631,20.5149,1.1599],[-77.6265,20.5132,0.0],[-77.6249,20.5143,0.0],[-77.6254,20.516,0.2369],[-77.6301,20.5182,0.398],[-77.6312,20.5263,0.0]]],
[[[-77.6965,20.6738,0.0],[-77.7018,20.6704,0.4476],[-77.7051,20.6712,0.7119],[-77.7082,20.6685,0.4596],[-77.7104,20.6688,0.4553],[-77.7096,20.671,0.0],[-77.7112,20.6688,0.4553],[-77.7104,20.6671,0.0],[-77.7021,20.6682,0.3671],[-77.6965,20.6738,0.0]]],
[[[-77.5908,20.9142,48.4658],[-77.6143,20.9237,66.6809],[-77.6288,20.9371,72.8128],[-77.637,20.942,75.6894],[-77.6481,20.9416,66.486],[-77.6536,20.935,80.1385],[-77.6551,20.9256,70.1983],[-77.6549,20.8961,47.89],[-77.6597,20.881,53.1492],[-77.6608,20.8721,52.2096],[-77.6595,20.8674,63.0968],[-77.6532,20.8634,55.1548],[-77.6553,20.8566,58.722],[-77.6583,20.8542,55.3832],[-77.6729,20.852,48.1322],[-77.7124,20.8547,52.0584],[-77.7417,20.8541,52.3297],[-77.755,20.851,43.2641],[-77.766,20.8429,39.6975],[-77.7896,20.8161,23.9137],[-77.8008,20.8,19.0678],[-77.8042,20.792,16.5422],[-77.8086,20.7536,12.7616],[-77.8084,20.706,0.0],[-77.8026,20.7062,0.2357],[-77.8026,20.7043,0.0],[-77.7935,20.7046,0.1631],[-77.7907,20.7015,0.0],[-77.7882,20.7021,0.5191],[-77.7904,20.7071,0.1007],[-77.7874,20.7038,0.5556],[-77.7793,20.7051,0.4709],[-77.7807,20.7026,0.7121],[-77.7835,20.7038,0.2801],[-77.7857,20.7018,1.663],[-77.7821,20.6974,0.2597],[-77.779,20.6999,0.3819],[-77.7771,20.6988,0.0],[-77.7774,20.7012,0.9909],[-77.7749,20.7007,0.3179],[-77.7751,20.704,0.7997],[-77.774,20.7043,0.7997],[-77.7732,20.6996,1.1449],[-77.7757,20.6993,0.0],[-77.7768,20.696,1.1375],[-77.7749,20.6935,0.0],[-77.7701,20.6921,0.8104],[-77.764,20.6924,0.8463],[-77.7626,20.6954,0.3301],[-77.7562,20.6926,0.4389],[-77.7543,20.6938,0.5002],[-77.7549,20.6971,1.2115],[-77.7532,20.6976,1.2115],[-77.7521,20.6963,0.0],[-77.7515,20.6976,0.415],[-77.7493,20.6985,0.5858],[-77.7504,20.6976,0.5858],[-77.7499,20.6938,0.5943],[-77.7465,20.6971,1.8111],[-77.7457,20.6949,1.1116],[-77.7487,20.6938,0.0],[-77.7485,20.6893,0.7627],[-77.7518,20.6901,0.4201],[-77.7521,20.6887,0.0],[-77.7462,20.6846,0.0],[-77.7435,20.6846,0.0],[-77.7421,20.6885,0.2336],[-77.7385,20.6876,1.3573],[-77.7251,20.6918,0.0],[-77.7254,20.694,0.0921],[-77.7221,20.6963,0.5117],[-77.719,20.6963,0.2238],[-77.7187,20.6976,1.0462],[-77.7176,20.6971,0.545],[-77.7187,20.6932,0.0],[-77.7124,20.6915,0.0],[-77.7112,20.6935,0.0],[-77.7076,20.694,0.6853],[-77.706,20.6907,0.0],[-77.6982,20.6871,0.7804],[-77.6954,20.6887,0.1693],[-77.6896,20.6865,0.0],[-77.6862,20.6874,0.1627],[-77.6846,20.6899,0.0],[-77.6799,20.6918,0.0],[-77.6804,20.6954,0.2518],[-77.6779,20.6915,0.0],[-77.6729,20.6924,0.2515],[-77.6726,20.6907,0.0],[-77.671,20.6907,0.4345],[-77.6693,20.6924,0.2143],[-77.669,20.6904,0.0],[-77.6624,20.6893,0.507],[-77.6612,20.6904,0.1975],[-77.6554,20.6865,0.0],[-77.6426,20.6863,0.0],[-77.6326,20.6882,0.0],[-77.6312,20.6901,0.5979],[-77.6301,20.689,0.5979],[-77.6218,20.6896,0.0],[-77.6185,20.6882,2.0003],[-77.6199,20.6824,0.0],[-77.6171,20.6835,0.0],[-77.6154,20.6768,0.0],[-77.6118,20.6762,0.9462],[-77.6132,20.6729,0.0],[-77.6151,20.6729,0.0],[-77.6146,20.6749,0.0],[-77.6162,20.6754,0.9115],[-77.6165,20.6724,0.0],[-77.6121,20.6712,0.0],[-77.6096,20.6743,0.0],[-77.6146,20.6818,0.854],[-77.6157,20.6876,2.1132],[-77.614,20.6904,0.4741],[-77.601,20.6929,1.0035],[-77.5926,20.6926,0.0],[-77.5879,20.6946,1.1164],[-77.5638,20.6938,0.7832],[-77.5632,20.696,0.4551],[-77.5621,20.6924,0.0],[-77.5496,20.6885,0.0],[-77.546,20.6887,0.0],[-77.5154,20.727,11.4857],[-77.5056,20.7669,17.7327],[-77.5076,20.7762,17.3052],[-77.5309,20.8205,24.4861],[-77.532,20.8799,37.7924],[-77.5297,20.89,45.8371],[-77.5078,20.9324,57.699],[-77.5058,20.982,71.9357],[-77.5321,20.9975,64.6223],[-77.5405,20.998,63.4176],[-77.5404,20.9933,60.8782],[-77.5308,20.9775,170.3667],[-77.5286,20.9704,82.9968],[-77.5287,20.9618,66.0614],[-77.5342,20.9529,56.4997],[-77.5388,20.9491,60.5587],[-77.5638,20.9393,47.7928],[-77.57,20.9328,39.3671],[-77.5665,20.911,49.1589],[-77.5689,20.906,66.6791],[-77.5774,20.9073,35.9857],[-77.5908,20.9142,48.4658]]]]}
,"properties": {"GID_2": "CUB.10.1_1","GID_0": "CUB","country": "Cuba","GID_1": "CUB.10_1","province": "LasTunas","NL_NAME_1": "NA","county": "Amancio","VARNAME_2": "NA","NL_NAME_2": "NA","TYPE_2": "Municipio","ENGTYPE_2": "Municipality","CC_2": "NA","HASC_2": "CU.LT.AM","name": "Amancio.county","area_km2": 652.8947,"hist_schema_id": "Elevation0-9000","hist_area_km2": {"0": 175.6034,"25": 296.0146,"50": 149.3343,"75": 30.7347,"100": 0.6138,"125": 0.2376,"150": 0.099,"175": 0.1188,"200": 0.1386}}}