{"type": "Feature","bbox": [-74.4807,18.3569,-74.2939,18.4521],"geometry": {"type": "MultiPolygon","coordinates": [[[[-74.3882,18.362,1037.5074],[-74.3703,18.3601,1009.3645],[-74.3655,18.3626,935.1296],[-74.3557,18.3601,969.2865],[-74.3431,18.3642,911.2742],[-74.34,18.3619,918.7224],[-74.335,18.3627,878.3137],[-74.3299,18.3608,900.2219],[-74.3245,18.3644,819.9409],[-74.3176,18.3641,894.7071],[-74.3086,18.3669,963.385],[-74.2961,18.3789,991.7126],[-74.2947,18.3854,856.1892],[-74.2961,18.3917,689.564],[-74.2939,18.3946,589.7242],[-74.2963,18.3959,593.7269],[-74.3018,18.4077,515.0184],[-74.3033,18.4114,473.9371],[-74.3024,18.4158,464.5932],[-74.3173,18.4165,254.4639],[-74.3212,18.4182,264.8152],[-74.3269,18.4156,305.5147],[-74.3325,18.4159,288.8581],[-74.3343,18.4186,291.2462],[-74.3442,18.4195,217.4897],[-74.351,18.4297,323.389],[-74.3619,18.4359,171.8054],[-74.3626,18.4398,224.501],[-74.3658,18.4416,170.9318],[-74.3659,18.444,221.0582],[-74.3696,18.4447,218.6226],[-74.3699,18.4468,217.4048],[-74.3811,18.4521,323.129],[-74.3901,18.4468,467.6122],[-74.3976,18.4387,285.7416],[-74.398,18.4367,220.8196],[-74.395,18.4316,212.5034],[-74.3957,18.428,195.032],[-74.3973,18.427,196.5968],[-74.4081,18.4364,242.2869],[-74.4093,18.4416,370.0017],[-74.411,18.4418,370.0017],[-74.4151,18.4389,400.7424],[-74.4182,18.4396,394.7328],[-74.4287,18.4363,316.1663],[-74.432,18.4385,133.1292],[-74.4353,18.4384,138.1873],[-74.4428,18.4297,139.5041],[-74.4411,18.4243,101.867],[-74.4467,18.4249,101.0488],[-74.4474,18.4215,54.1769],[-74.4501,18.4225,67.3905],[-74.4507,18.42,74.1159],[-74.4534,18.4208,141.214],[-74.4655,18.4183,34.21],[-74.474,18.4211,4.6059],[-74.4735,18.4199,0.0],[-74.476,18.4171,0.0],[-74.4804,18.4157,4.1786],[-74.4807,18.414,3.0285],[-74.4782,18.4132,0.0],[-74.4715,18.4145,0.0],[-74.4645,18.412,0.4442],[-74.4535,18.4027,1.2533],[-74.45,18.3969,0.0],[-74.449,18.391,0.0],[-74.4535,18.3762,0.0],[-74.4476,18.371,0.8517],[-74.4493,18.3583,7.9258],[-74.4411,18.3569,215.4872],[-74.4357,18.3608,266.5307],[-74.4367,18.3662,131.6006],[-74.4324,18.3633,263.4148],[-74.4323,18.3588,299.5354],[-74.4304,18.3597,362.7481],[-74.4231,18.3571,646.9196],[-74.4162,18.36,704.9871],[-74.4102,18.3606,721.4866],[-74.3997,18.3575,871.0269],[-74.3922,18.3593,912.8146],[-74.3882,18.362,1037.5074]]]]}
,"properties": {"GID_3": "HTI.2.1.3_1","GID_0": "HTI","country": "Haiti","GID_1": "HTI.2_1","province": "Grand'Anse","NL_NAME_1": "NA","GID_2": "HTI.2.1_1","county": "Ansed'Hainault","NL_NAME_2": "NA","city": "LesIrois","VARNAME_3": "NA","NL_NAME_3": "NA","TYPE_3": "Commune","ENGTYPE_3": "Commune","CC_3": "NA","HASC_3": "NA","name": "Les_Irois.city","area_km2": 127.26979,"hist_schema_id": "Elevation0-9000","hist_area_km2": {"0": 3.01768,"25": 3.5609,"50": 3.35966,"75": 2.15261,"100": 2.01181,"125": 1.40828,"150": 1.54908,"175": 4.10385,"200": 5.21026,"225": 6.65876,"250": 6.49782,"275": 7.50372,"300": 6.83991,"325": 6.98091,"350": 6.65895,"375": 6.01531,"400": 5.91478,"425": 4.88877,"450": 4.14451,"475": 4.08418,"500": 3.23915,"525": 3.3801,"550": 2.89723,"575": 2.31384,"600": 2.49494,"625": 2.39439,"650": 1.99196,"675": 2.05234,"700": 1.71027,"725": 1.69017,"750": 1.48896,"775": 1.52922,"800": 1.28778,"825": 1.24753,"850": 0.94572,"875": 0.72439,"900": 0.70427,"925": 0.70427,"950": 0.4628,"975": 0.48292,"1000": 0.20121,"1025": 0.12073,"1050": 0.16097,"1075": 0.10061,"1100": 0.20121,"1125": 0.16097,"1175": 0.02012}}}