{"type": "Feature","id": "5111","bbox": [-62.83161,17.29802,-62.75442,17.36671],"geometry": {"type": "Polygon","coordinates": [[[-62.78751,17.34985,667.508],[-62.80762,17.36671,883.9343],[-62.81476,17.35309,351.9407],[-62.8193,17.35309,291.623],[-62.82449,17.34141,78.3469],[-62.83161,17.33015,0.0],[-62.78873,17.30467,28.9227],[-62.77163,17.29802,42.3876],[-62.76934,17.30508,161.5657],[-62.7661,17.31352,342.6946],[-62.75832,17.31741,462.583],[-62.75442,17.33103,554.3778],[-62.77908,17.33557,561.8398],[-62.78037,17.34206,542.2757],[-62.78751,17.34985,667.508]]]}
,"properties": {"ISO3166-1-Alpha-3": "KNA","country": "Saint Kitts and Nevis","fill": "#F00","name": "Saint Thomas Middle Island","area_km2": 29.73213,"hist_schema_id": "Elevation0-9000","hist_area_km2": {"0": 3.11708,"25": 1.0525,"50": 1.47756,"75": 1.47755,"100": 1.57875,"125": 1.13345,"150": 1.19417,"175": 1.33583,"200": 0.97152,"225": 1.11319,"250": 0.99174,"275": 1.05245,"300": 0.95125,"325": 0.85005,"350": 0.72862,"375": 0.80957,"400": 0.80956,"425": 0.97146999999999994,"450": 0.91077,"475": 0.82981,"500": 0.82979,"525": 0.68812,"550": 0.64765,"575": 0.62741,"600": 0.5667,"625": 0.58693,"650": 0.38453,"675": 0.38454,"700": 0.42502,"725": 0.24286,"750": 0.22263,"775": 0.16191,"800": 0.14167,"825": 0.18216,"850": 0.14167,"875": 0.06072,"900": 0.02024,"925": 0.04047,"975": 0.02024}}}