{"type": "Feature","bbox": [-62.8425,17.3108,-62.7669,17.3717],"geometry": {"type": "MultiPolygon","coordinates": [[[[-62.7941,17.3549,647.1991],[-62.8101,17.3717,779.1321],[-62.8213,17.3627,541.2981],[-62.8266,17.3627,386.3372],[-62.8408,17.3492,53.6633],[-62.8425,17.3451,0.0],[-62.8257,17.3301,0.0],[-62.799,17.319,53.4622],[-62.7954,17.3157,4.8909],[-62.7943,17.3108,0.0],[-62.7891,17.3152,99.1089],[-62.7849,17.3229,295.5327],[-62.7758,17.3271,506.0983],[-62.7669,17.3363,800.1041],[-62.7863,17.3435,443.4756],[-62.788,17.3481,583.4222],[-62.7941,17.3549,647.1991]]]]}
,"properties": {"GID_1": "KNA.13_1","GID_0": "KNA","country": "SaintKittsandNevis","province": "SaintThomasMiddleIsland","VARNAME_1": "NA","NL_NAME_1": "NA","TYPE_1": "Parish","ENGTYPE_1": "Parish","CC_1": "NA","HASC_1": "KN.TM","ISO_1": "KN-13","name": "Saint_Thomas_Middle_Island.province","area_km2": 25.09568,"hist_schema_id": "Elevation0-9000","hist_area_km2": {"0": 0.68816,"25": 1.5382,"50": 1.3358,"75": 1.45722,"100": 1.39649,"125": 1.27504,"150": 1.17385,"175": 1.37623,"200": 0.93097,"225": 1.09288,"250": 0.91074,"275": 0.85001,"300": 0.80953,"325": 0.78929,"350": 0.60715,"375": 0.76905,"400": 0.80953,"425": 0.91072,"450": 0.66786,"475": 0.54642,"500": 0.64761,"525": 0.56665,"550": 0.54643,"575": 0.42499,"600": 0.40475,"625": 0.42498,"650": 0.3238,"675": 0.1619,"700": 0.24285,"725": 0.34402,"750": 0.18213,"775": 0.14166,"800": 0.16189,"825": 0.06071,"850": 0.16189,"875": 0.12141,"900": 0.02024,"925": 0.16189,"950": 0.04047,"975": 0.02024}}}