{"type":"Feature","properties":{"GID_2":"DOM.30.1_1","GID_0":"DOM","country":"DominicanRepublic","GID_1":"DOM.30_1","province":"Santiago","NL_NAME_1":"NA","county":"Janico","VARNAME_2":"NA","NL_NAME_2":"NA","TYPE_2":"Municipio","ENGTYPE_2":"Municipality","CC_2":"NA","HASC_2":"DO.ST.JA","name":"Janico.county"},
"geometry":{"type": "MultiPolygon","coordinates": [[[[-70.7182,19.2828,322.0],[-70.7343,19.2873,361.4104],[-70.7362,19.2924,395.2266],[-70.735,19.304,326.8487],[-70.7512,19.3092,321.0],[-70.7583,19.3192,276.0344],[-70.7571,19.3286,287.0881],[-70.7618,19.3318,312.0732],[-70.7625,19.3349,343.1954],[-70.7607,19.3365,371.2152],[-70.7524,19.337,320.4081],[-70.7509,19.3409,350.9064],[-70.7535,19.3449,340.0745],[-70.763,19.3509,354.2243],[-70.7644,19.3543,367.8622],[-70.7578,19.3646,314.8582],[-70.7558,19.3707,287.8508],[-70.7499,19.3747,274.0307],[-70.7492,19.3768,309.5961],[-70.7517,19.3821,278.3959],[-70.7585,19.3886,289.2886],[-70.7746,19.3947,214.8199],[-70.7936,19.3932,425.4873],[-70.797,19.3939,429.6534],[-70.7984,19.3961,450.5251],[-70.8026,19.3944,413.0575],[-70.8062,19.3895,434.7527],[-70.8137,19.3845,339.0716],[-70.8236,19.3743,379.3705],[-70.8375,19.3739,448.784],[-70.8414,19.3723,422.6704],[-70.843,19.3668,439.0832],[-70.8405,19.3619,420.9486],[-70.8373,19.3599,472.3659],[-70.8296,19.3592,430.197],[-70.8279,19.3544,442.1263],[-70.8296,19.3516,476.6461],[-70.8395,19.3471,440.294],[-70.8407,19.3346,508.5056],[-70.8488,19.3186,424.1946],[-70.8469,19.3074,543.214],[-70.854,19.301,595.2258],[-70.8578,19.2921,452.0437],[-70.8569,19.2888,437.0008],[-70.8505,19.2813,662.1613],[-70.8517,19.2683,680.9253],[-70.8426,19.2422,524.7687],[-70.8345,19.2318,781.5764],[-70.8343,19.2127,755.3304],[-70.8393,19.2087,911.4762],[-70.8414,19.2024,904.2462],[-70.8569,19.2044,797.3015],[-70.8662,19.1949,943.9695],[-70.8695,19.1806,993.1924],[-70.8702,19.1691,935.7637],[-70.8774,19.1633,1180.5986],[-70.8786,19.1603,1052.7053],[-70.87,19.1411,1117.4565],[-70.8704,19.1232,1262.906],[-70.8832,19.1105,1644.4977],[-70.8909,19.1081,1567.8842],[-70.9003,19.1022,1703.6666],[-70.9131,19.0863,1712.9231],[-70.902,19.0863,1607.7565],[-70.8932,19.0837,1626.1558],[-70.8768,19.0834,1698.0378],[-70.8733,19.0849,1664.8236],[-70.8722,19.0916,1673.002],[-70.8696,19.0941,1705.6852],[-70.8594,19.0919,1611.7479],[-70.8481,19.0939,1670.136],[-70.8413,19.0926,1631.0521],[-70.8303,19.1037,1392.3083],[-70.8085,19.1185,1386.4973],[-70.8012,19.1306,1115.183],[-70.7947,19.1333,1002.1354],[-70.7858,19.1309,985.5087],[-70.7749,19.1314,884.6647],[-70.7666,19.1379,829.7213],[-70.7591,19.1406,772.4293],[-70.7554,19.147,778.1611],[-70.7452,19.1482,732.2455],[-70.7305,19.1581,708.469],[-70.7167,19.162,725.18],[-70.7151,19.1647,795.833],[-70.7148,19.1775,715.1631],[-70.7098,19.1876,675.8422],[-70.7107,19.1905,651.3983],[-70.7146,19.1937,648.7194],[-70.7151,19.1968,632.0944],[-70.7099,19.2031,668.9111],[-70.7045,19.2022,701.2478],[-70.6985,19.1942,677.1987],[-70.6932,19.1908,653.4683],[-70.6905,19.1807,491.1428],[-70.6837,19.174,602.8516],[-70.6761,19.1761,493.5894],[-70.6647,19.1866,500.0657],[-70.6647,19.1894,475.7195],[-70.6728,19.1986,503.474],[-70.6715,19.2131,578.124],[-70.6734,19.2164,513.0117],[-70.6706,19.2257,645.3917],[-70.6735,19.2334,562.3804],[-70.6684,19.2403,513.9286],[-70.671,19.2446,353.7182],[-70.6766,19.2487,357.3407],[-70.6722,19.2581,392.8293],[-70.6858,19.265,322.0],[-70.6941,19.2664,335.6169],[-70.7006,19.2707,328.9722],[-70.7097,19.2723,329.4666],[-70.7182,19.2828,322.0]]]]}}