{"type":"Feature","properties":{"GID_1":"TTO.7_1","GID_0":"TTO","country":"TrinidadandTobago","province":"PointFortin","VARNAME_1":"NA","NL_NAME_1":"NA","TYPE_1":"Borough","ENGTYPE_1":"Borough","CC_1":"NA","HASC_1":"TT.PF","ISO_1":"TT-PTF","name":"Point_Fortin.province"},
"geometry":{"type": "MultiPolygon","coordinates": [[[[-61.7045,10.1637,8.2258],[-61.7035,10.1519,12.1085],[-61.7009,10.1502,13.7137],[-61.6982,10.1422,33.0804],[-61.6838,10.1431,27.1498],[-61.6624,10.1614,16.0801],[-61.6581,10.1613,11.1028],[-61.6559,10.1667,14.7162],[-61.6469,10.1699,9.5164],[-61.6431,10.1834,31.0414],[-61.6324,10.1957,10.9092],[-61.6308,10.2,9.0628],[-61.6366,10.2087,7.2549],[-61.637,10.2117,5.8277],[-61.641,10.209,0.0],[-61.6426,10.2096,0.0],[-61.6426,10.2071,4.6687],[-61.6463,10.2032,3.9827],[-61.6554,10.1987,0.0],[-61.6568,10.1962,7.5593],[-61.6738,10.1896,1.4343],[-61.686,10.1871,0.0],[-61.6885,10.1876,0.0],[-61.6937,10.1954,0.0],[-61.701,10.2104,0.0],[-61.7004,10.2124,0.0],[-61.7032,10.2115,0.0],[-61.6907,10.1882,0.0],[-61.6924,10.1882,0.0],[-61.6926,10.1857,0.0],[-61.6957,10.1882,0.0],[-61.6974,10.186,0.0],[-61.6951,10.1838,4.3639],[-61.6943,10.1799,2.7867],[-61.6979,10.1735,0.0],[-61.6968,10.1671,0.0],[-61.7045,10.1637,8.2258]]]]}}