{"type":"Feature","properties":{"ISO3166-1-Alpha-3":"TTO","country":"Trinidad and Tobago","fill":"#F0F","id":"60","name":"Point Fortin"},
"geometry":{"type": "Polygon","coordinates": [[[-61.69202,10.14238,16.74],[-61.68248,10.14321,27.1498],[-61.67111,10.14703,29.777],[-61.64982,10.1647,6.7818],[-61.64375,10.17307,13.2009],[-61.63972,10.17984,34.5999],[-61.63073,10.19225,17.596],[-61.62957,10.19757,16.1973],[-61.63225,10.20243,13.6857],[-61.63755,10.2078,7.366],[-61.63931,10.21007,6.0216],[-61.63931,10.21007,6.0216],[-61.66906,10.18403,10.9634],[-61.70738,10.16588,0.0],[-61.70414,10.1615,9.0057],[-61.69202,10.14238,16.74]]]}}