{"type": "Feature","bbox": [-61.8074,16.1806,-61.7231,16.2732],"geometry": {"type": "MultiPolygon","coordinates": [[[[-61.7364,16.1807,599.0792],[-61.7266,16.1891,621.9045],[-61.732,16.2016,536.8455],[-61.7309,16.215,627.6022],[-61.7253,16.2192,643.6042],[-61.7231,16.2293,683.7043],[-61.7386,16.2483,664.229],[-61.7544,16.2561,698.2576],[-61.7573,16.2624,684.3848],[-61.7565,16.2727,718.7546],[-61.774,16.2732,624.7621],[-61.8063,16.2682,5.3738],[-61.8074,16.2665,0.0],[-61.8057,16.264,5.5895],[-61.8065,16.2576,10.2786],[-61.8032,16.2515,9.6757],[-61.8021,16.2432,0.0],[-61.7971,16.2399,34.5303],[-61.7949,16.2354,0.0],[-61.7924,16.2349,9.6703],[-61.7849,16.2243,0.0],[-61.7851,16.2182,0.0],[-61.7824,16.214,54.4841],[-61.7826,16.209,8.6431],[-61.7857,16.2043,0.0],[-61.786,16.2005,0.0],[-61.7876,16.2001,0.0],[-61.7868,16.1963,21.8288],[-61.7879,16.1946,0.0],[-61.7843,16.189,39.385],[-61.7699,16.1812,170.5739],[-61.7628,16.1806,278.1052],[-61.7494,16.1851,717.7647],[-61.7364,16.1807,599.0792]]]]}
,"properties": {"GID_2": "GLP.1.11_1","GID_0": "GLP","country": "Guadeloupe","GID_1": "GLP.1_1","province": "Basse-Terre","NL_NAME_1": "NA","county": "Pointe-Noire","VARNAME_2": "NA","NL_NAME_2": "NA","TYPE_2": "Chef-lieucanton","ENGTYPE_2": "Commune","CC_2": "24","HASC_2": "NA","name": "Pointe-Noire.county","area_km2": 60.07507,"hist_schema_id": "Elevation0-9000","hist_area_km2": {"0": 0.99754,"25": 1.75073,"50": 2.0561,"75": 2.09683,"100": 2.15789,"125": 2.34117,"150": 2.28005,"175": 2.72794,"200": 2.54472,"225": 2.89084,"250": 2.42259,"275": 2.50398,"300": 2.07649,"325": 2.28007,"350": 2.36154,"375": 2.66684,"400": 2.40226,"425": 2.46326,"450": 2.21897,"475": 2.54474,"500": 2.46325,"525": 2.19862,"550": 2.05609,"575": 1.60821,"600": 1.64893,"625": 1.24171,"650": 1.16029,"675": 0.93637,"700": 0.48854,"725": 0.44782,"750": 0.02035,"775": 0.02035}}}