{"type": "Feature","bbox": [-72.2498,18.8387,-71.9967,19.0833],"geometry": {"type": "MultiPolygon","coordinates": [[[[-72.1397,18.8615,90.5408],[-72.1343,18.861,91.8179],[-72.1283,18.8562,95.8486],[-72.1264,18.8482,93.8815],[-72.1281,18.8438,97.0116],[-72.1269,18.843,94.3579],[-72.1172,18.8466,96.1428],[-72.1085,18.8437,97.756],[-72.1061,18.8393,98.6437],[-72.0992,18.8387,104.1506],[-72.096,18.8466,101.0524],[-72.0923,18.8475,100.7252],[-72.0863,18.8519,104.5448],[-72.0837,18.859,120.1968],[-72.0878,18.8614,105.7293],[-72.0956,18.861,106.0167],[-72.0958,18.8734,112.4818],[-72.1011,18.8758,161.9825],[-72.1004,18.878,147.8446],[-72.0961,18.8821,113.9352],[-72.0918,18.8833,124.7692],[-72.0885,18.8811,124.5252],[-72.0869,18.8832,116.2307],[-72.087,18.8929,115.3138],[-72.0749,18.9067,122.2417],[-72.0622,18.8989,174.2966],[-72.0569,18.9025,145.4161],[-72.0455,18.8972,281.7973],[-72.0424,18.8979,239.7384],[-72.0311,18.9055,170.5],[-72.0196,18.9066,170.5],[-72.0125,18.9117,173.2595],[-71.9967,18.9245,184.3959],[-71.9986,18.929,393.3525],[-71.997,18.9332,379.5523],[-71.9984,18.9364,417.9147],[-72.004,18.9355,454.6938],[-72.0082,18.9421,461.6666],[-72.0157,18.9434,516.2839],[-72.0212,18.9407,612.4504],[-72.0281,18.9436,642.863],[-72.0362,18.9414,635.9523],[-72.0417,18.9373,633.7181],[-72.0435,18.9321,660.4771],[-72.048,18.933,642.9512],[-72.0519,18.9382,689.9936],[-72.0603,18.9436,629.1316],[-72.0637,18.9506,610.0936],[-72.0642,18.9568,596.9858],[-72.0694,18.9602,609.1542],[-72.075,18.9605,608.9038],[-72.0802,18.973,685.4232],[-72.0925,18.977,703.9254],[-72.0965,18.9807,670.7521],[-72.098,18.9841,688.7493],[-72.0977,18.9919,678.7491],[-72.1018,19.0018,599.1503],[-72.1065,19.0072,560.0414],[-72.1049,19.008,558.1706],[-72.1054,19.0091,586.8455],[-72.1097,19.0086,587.0536],[-72.109,19.012,553.5449],[-72.1127,19.0131,576.7225],[-72.1149,19.0158,642.4085],[-72.1182,19.0149,583.735],[-72.1171,19.0178,627.713],[-72.1183,19.0265,612.0277],[-72.1231,19.0277,643.147],[-72.1315,19.0236,894.9055],[-72.137,19.0159,1086.965],[-72.1415,19.0225,1172.0515],[-72.1546,19.032,1322.3615],[-72.1622,19.0396,1335.5967],[-72.1665,19.0472,1311.7324],[-72.1723,19.0517,1188.9602],[-72.1765,19.0584,1162.5598],[-72.1905,19.072,1184.7537],[-72.1888,19.0776,1181.7156],[-72.1914,19.0806,1048.4554],[-72.2009,19.0781,1212.8884],[-72.2049,19.0809,1076.1165],[-72.2143,19.08,1145.9709],[-72.2217,19.0833,1139.1475],[-72.2218,19.0803,1161.0626],[-72.2274,19.0705,1417.6058],[-72.2297,19.0607,1455.3091],[-72.2325,19.0558,1261.7169],[-72.2401,19.0497,1089.7205],[-72.2414,19.0434,916.2032],[-72.2385,19.0367,933.16],[-72.2454,19.033,907.7934],[-72.2484,19.0291,940.8646],[-72.2479,19.0227,806.864],[-72.2445,19.0172,1003.5806],[-72.2445,19.0104,734.866],[-72.2378,19.002,478.0214],[-72.237,18.993,540.8298],[-72.241,18.985,568.8873],[-72.2382,18.9702,324.186],[-72.2367,18.9668,257.3436],[-72.2249,18.9563,236.8208],[-72.2268,18.9482,193.6035],[-72.2377,18.9379,437.8183],[-72.2375,18.9324,384.5754],[-72.2428,18.9244,222.4151],[-72.2439,18.9181,65.6906],[-72.2408,18.9165,66.1939],[-72.2498,18.9076,67.8734],[-72.2468,18.9053,113.7351],[-72.2408,18.9048,70.8807],[-72.2326,18.8984,79.677],[-72.2244,18.8976,74.4777],[-72.2235,18.8895,74.5958],[-72.2181,18.8915,76.2156],[-72.2139,18.8902,89.6842],[-72.213,18.8882,79.6815],[-72.1983,18.8879,82.7633],[-72.2008,18.8829,82.0987],[-72.2004,18.8795,81.1176],[-72.1958,18.8771,82.2611],[-72.1857,18.8766,81.2604],[-72.1843,18.8691,84.8143],[-72.179,18.8634,86.6643],[-72.1644,18.8632,85.0729],[-72.163,18.8522,85.7741],[-72.1571,18.8513,88.1355],[-72.1571,18.8462,88.698],[-72.155,18.8447,86.5502],[-72.1483,18.8473,89.7648],[-72.1446,18.8471,88.2367],[-72.1424,18.849,89.3208],[-72.1426,18.8553,93.9749],[-72.1397,18.8615,90.5408]]]]}
,"properties": {"GID_3": "HTI.1.4.1_1","GID_0": "HTI","country": "Haiti","GID_1": "HTI.1_1","province": "Centre","NL_NAME_1": "NA","GID_2": "HTI.1.4_1","county": "Mirebalais","NL_NAME_2": "NA","city": "Boucan-Carré","VARNAME_3": "NA","NL_NAME_3": "NA","TYPE_3": "Commune","ENGTYPE_3": "Commune","CC_3": "NA","HASC_3": "NA","name": "Boucan-Carré.city","area_km2": 355.9174,"hist_schema_id": "Elevation0-9000","hist_area_km2": {"75": 5.4363,"100": 19.1598,"125": 19.2586,"150": 21.4239,"175": 19.6172,"200": 17.1486,"225": 20.5369,"250": 20.6364,"275": 16.5848,"300": 13.9175,"325": 9.8864,"350": 8.3421,"375": 6.838,"400": 5.735,"425": 5.5745,"450": 5.2134,"475": 5.6746,"500": 4.8123,"525": 5.9953,"550": 6.6969,"575": 7.4991,"600": 8.0203,"625": 7.98,"650": 7.5988,"675": 5.8541,"700": 5.2124,"725": 4.8113,"750": 4.2099,"775": 4.0494,"800": 3.9291,"825": 3.5682,"850": 3.5882,"875": 3.3276,"900": 2.7863,"925": 2.9467,"950": 2.4054,"975": 2.7462,"1000": 2.4053,"1025": 1.9242,"1050": 1.6836,"1075": 1.6636,"1100": 1.884,"1125": 2.0442,"1150": 1.5432,"1175": 2.0642,"1200": 2.0442,"1225": 2.5051,"1250": 2.4049,"1275": 2.6053,"1300": 2.2646,"1325": 2.3447,"1350": 2.8858,"1375": 2.1243,"1400": 1.2425,"1425": 0.4208,"1450": 0.2004,"1475": 0.3607,"1500": 0.2405,"1550": 0.0401}}}