{"type": "Feature","bbox": [-72.3647,18.6946,-71.9382,19.0833],"geometry": {"type": "MultiPolygon","coordinates": [[[[-71.9952,18.7688,423.0936],[-71.9969,18.7717,348.0742],[-71.9949,18.78,212.3412],[-71.988,18.779,210.1402],[-71.9861,18.7764,234.9966],[-71.98,18.7751,243.0895],[-71.9688,18.7675,298.5813],[-71.9637,18.7663,335.0926],[-71.9612,18.7635,429.9089],[-71.9535,18.7618,299.3485],[-71.9449,18.7531,571.6743],[-71.9386,18.7528,527.8593],[-71.9382,18.7549,454.1124],[-71.9426,18.7601,289.0017],[-71.9438,18.7659,333.7402],[-71.9522,18.7761,458.8213],[-71.9607,18.7779,287.1648],[-71.9632,18.78,300.2025],[-71.9672,18.7897,235.2224],[-71.9697,18.7921,279.995],[-71.9687,18.7958,345.8125],[-71.9765,18.8129,739.729],[-71.9819,18.8126,848.3688],[-71.9956,18.826,1031.2909],[-72.0026,18.8278,795.6292],[-72.0248,18.8426,851.3212],[-72.0287,18.8519,1010.6151],[-72.0364,18.8606,804.501],[-72.0406,18.873,779.5941],[-72.0594,18.8915,378.1953],[-72.0647,18.893,257.8301],[-72.0654,18.8976,276.9807],[-72.065,18.9012,207.1097],[-72.0622,18.8989,174.2966],[-72.0569,18.9025,145.4161],[-72.0455,18.8972,281.7973],[-72.0311,18.9055,170.5],[-72.0196,18.9066,170.5],[-71.9967,18.9245,184.3959],[-71.9986,18.929,393.3525],[-71.997,18.9332,379.5523],[-71.9984,18.9364,417.9147],[-72.004,18.9355,454.6938],[-72.0082,18.9421,461.6666],[-72.0119,18.9431,487.4033],[-72.0157,18.9434,516.2839],[-72.0212,18.9407,612.4504],[-72.0281,18.9436,642.863],[-72.0362,18.9414,635.9523],[-72.0417,18.9373,633.7181],[-72.0435,18.9321,660.4771],[-72.048,18.933,642.9512],[-72.0519,18.9382,689.9936],[-72.0603,18.9436,629.1316],[-72.0637,18.9506,610.0936],[-72.0642,18.9568,596.9858],[-72.0694,18.9602,609.1542],[-72.075,18.9605,608.9038],[-72.0802,18.973,685.4232],[-72.0925,18.977,703.9254],[-72.0965,18.9807,670.7521],[-72.098,18.9841,688.7493],[-72.0977,18.9919,678.7491],[-72.1018,19.0018,599.1503],[-72.1065,19.0072,560.0414],[-72.1049,19.008,558.1706],[-72.1054,19.0091,586.8455],[-72.1097,19.0086,587.0536],[-72.109,19.012,553.5449],[-72.1127,19.0131,576.7225],[-72.1149,19.0158,642.4085],[-72.1182,19.0149,583.735],[-72.1171,19.0178,627.713],[-72.1183,19.0265,612.0277],[-72.1231,19.0277,643.147],[-72.1315,19.0236,894.9055],[-72.137,19.0159,1086.965],[-72.1415,19.0225,1172.0515],[-72.1546,19.032,1322.3615],[-72.1622,19.0396,1335.5967],[-72.1665,19.0472,1311.7324],[-72.1723,19.0517,1188.9602],[-72.1765,19.0584,1162.5598],[-72.1905,19.072,1184.7537],[-72.1888,19.0776,1181.7156],[-72.1914,19.0806,1048.4554],[-72.2009,19.0781,1212.8884],[-72.2049,19.0809,1076.1165],[-72.2143,19.08,1145.9709],[-72.2217,19.0833,1139.1475],[-72.2218,19.0803,1161.0626],[-72.2274,19.0705,1417.6058],[-72.2297,19.0607,1455.3091],[-72.2325,19.0558,1261.7169],[-72.2401,19.0497,1089.7205],[-72.2414,19.0434,916.2032],[-72.2385,19.0367,933.16],[-72.2454,19.033,907.7934],[-72.2484,19.0291,940.8646],[-72.2479,19.0227,806.864],[-72.2445,19.0172,1003.5806],[-72.2445,19.0104,734.866],[-72.2378,19.002,478.0214],[-72.237,18.993,540.8298],[-72.241,18.985,568.8873],[-72.2382,18.9702,324.186],[-72.2367,18.9668,257.3436],[-72.2249,18.9563,236.8208],[-72.2268,18.9482,193.6035],[-72.2377,18.9379,437.8183],[-72.2375,18.9324,384.5754],[-72.2428,18.9244,222.4151],[-72.2439,18.9181,65.6906],[-72.2408,18.9165,66.1939],[-72.2496,18.9089,78.4114],[-72.2436,18.8996,121.0932],[-72.2481,18.8807,307.7205],[-72.2468,18.8717,448.1373],[-72.2512,18.8602,592.0953],[-72.2568,18.8572,633.0061],[-72.2646,18.8619,702.2553],[-72.2788,18.86,963.3231],[-72.2892,18.8637,876.9762],[-72.3009,18.8637,840.4309],[-72.305,18.8636,774.7075],[-72.3109,18.8591,623.9383],[-72.3154,18.858,602.174],[-72.325,18.8627,635.063],[-72.3324,18.8631,649.452],[-72.3379,18.8664,704.9667],[-72.3415,18.8673,685.8732],[-72.3446,18.8661,735.8349],[-72.3562,18.8701,900.8309],[-72.3647,18.8658,1038.418],[-72.3618,18.8641,939.4151],[-72.3633,18.8589,854.9546],[-72.3603,18.8559,816.3459],[-72.3513,18.8513,810.3789],[-72.3357,18.8383,1057.2845],[-72.3336,18.8328,1103.3209],[-72.3243,18.8221,1001.5267],[-72.3232,18.8155,1053.8518],[-72.3194,18.8116,1132.9448],[-72.3139,18.8127,1064.4277],[-72.3092,18.8164,867.7892],[-72.3031,18.8181,778.615],[-72.2817,18.8165,564.5273],[-72.2789,18.8087,617.0153],[-72.2746,18.8074,550.9783],[-72.2724,18.804,580.2637],[-72.2744,18.7999,544.291],[-72.279,18.7974,626.4153],[-72.2621,18.7892,476.2366],[-72.2573,18.789,454.9962],[-72.2455,18.7805,460.4634],[-72.2372,18.7774,459.7525],[-72.229,18.778,374.8501],[-72.2258,18.7762,374.0027],[-72.225,18.7723,381.0915],[-72.2178,18.7737,333.0769],[-72.2101,18.7648,412.4374],[-72.2068,18.7579,552.2463],[-72.2031,18.7561,526.649],[-72.1998,18.7584,469.2744],[-72.1939,18.7514,592.3357],[-72.1971,18.7448,653.2438],[-72.2011,18.7417,769.2949],[-72.1973,18.7321,808.1223],[-72.1899,18.7238,738.9186],[-72.1666,18.7026,810.462],[-72.1472,18.6946,698.0359],[-72.1272,18.7063,814.2064],[-72.1229,18.7036,807.8064],[-72.1155,18.7035,831.8553],[-72.1098,18.7082,841.8869],[-72.0979,18.7114,819.4547],[-72.0917,18.7105,767.6292],[-72.0869,18.7136,826.2397],[-72.084,18.727,561.7138],[-72.0735,18.7366,403.4717],[-72.0681,18.7207,946.5314],[-72.0567,18.7187,1050.1487],[-72.0375,18.7209,962.9684],[-72.0352,18.7241,753.8481],[-72.0276,18.7268,582.7953],[-72.022,18.7266,482.4661],[-72.0171,18.7241,354.933],[-72.014,18.732,310.621],[-72.0094,18.7369,324.1698],[-72.0059,18.735,357.8578],[-72.0053,18.73,394.0737],[-71.9919,18.7343,450.757],[-71.9885,18.7376,585.0643],[-71.9778,18.734,661.5782],[-71.9711,18.7467,906.6699],[-71.9762,18.7467,760.8824],[-71.9774,18.7499,797.4715],[-71.9744,18.7511,918.9784],[-71.9747,18.7554,840.1442],[-71.9789,18.7573,724.2275],[-71.9801,18.7598,665.5178],[-71.9842,18.7602,665.4366],[-71.9952,18.7688,423.0936]]]]}
,"properties": {"GID_2": "HTI.1.4_1","GID_0": "HTI","country": "Haiti","GID_1": "HTI.1_1","province": "Centre","NL_NAME_1": "NA","county": "Mirebalais","VARNAME_2": "NA","NL_NAME_2": "NA","TYPE_2": "Arrondissement","ENGTYPE_2": "District","CC_2": "NA","HASC_2": "HT.CE.MB","name": "Mirebalais.county","area_km2": 855.4031,"hist_schema_id": "Elevation0-9000","hist_area_km2": {"75": 8.0443,"100": 36.3953,"125": 50.4603,"150": 63.7273,"175": 63.6514,"200": 63.3941,"225": 52.4926,"250": 43.4793,"275": 35.0322,"300": 31.0797,"325": 26.9282,"350": 23.4971,"375": 20.3869,"400": 18.742,"425": 18.0794,"450": 17.4973,"475": 15.851,"500": 13.1223,"525": 16.1515,"550": 17.6959,"575": 17.2337,"600": 16.4505,"625": 17.3342,"650": 16.411,"675": 13.5219,"700": 11.9568,"725": 10.9735,"750": 10.1512,"775": 9.4889,"800": 9.6092,"825": 9.4494,"850": 8.0641,"875": 6.4786,"900": 5.4755,"925": 5.3349,"950": 4.5728,"975": 4.3918,"1000": 3.7702,"1025": 3.2288,"1050": 2.8277,"1075": 2.5267,"1100": 2.4861,"1125": 2.5058,"1150": 1.6636,"1175": 2.1043,"1200": 2.0442,"1225": 2.5051,"1250": 2.4049,"1275": 2.6053,"1300": 2.2646,"1325": 2.3447,"1350": 2.8858,"1375": 2.1243,"1400": 1.2425,"1425": 0.4208,"1450": 0.2004,"1475": 0.3607,"1500": 0.2405,"1550": 0.0401}}}