{"type":"Feature","properties":{"GID_2":"CUB.12.8_1","GID_0":"CUB","country":"Cuba","GID_1":"CUB.12_1","province":"Mayabeque","NL_NAME_1":"NA","county":"Quivicán","VARNAME_2":"NA","NL_NAME_2":"NA","TYPE_2":"Municipio","ENGTYPE_2":"Municipality","CC_2":"NA","HASC_2":"CU.LH.QU","name":"Quivicán.county"},
"geometry":{"type": "MultiPolygon","coordinates": [[[[-82.4274,22.8876,78.5093],[-82.4526,22.843,41.4065],[-82.4602,22.8376,37.7972],[-82.4772,22.833,35.963],[-82.4426,22.7893,8.6763],[-82.4232,22.7533,12.9089],[-82.4223,22.7296,8.4272],[-82.4302,22.7068,1.1211],[-82.4287,22.6832,0.5788],[-82.4029,22.6854,0.0],[-82.3749,22.681,0.0],[-82.362799999999993,22.6998,1.4739],[-82.3592,22.7227,8.2104],[-82.35,22.7409,15.3925],[-82.3025,22.7843,32.1869],[-82.3011,22.8411,59.9694],[-82.3196,22.8519,65.3198],[-82.3421,22.8549,65.7829],[-82.3618,22.863,69.3372],[-82.3809,22.8724,69.7489],[-82.398,22.8845,74.4755],[-82.4168,22.8922,85.0445],[-82.4274,22.8876,78.5093]]]]}}