{"type":"Feature","properties":{"GID_2":"DOM.4.4_1","GID_0":"DOM","country":"DominicanRepublic","GID_1":"DOM.4_1","province":"Dajabón","NL_NAME_1":"NA","county":"Partido","VARNAME_2":"NA","NL_NAME_2":"NA","TYPE_2":"Distritomunicipal","ENGTYPE_2":"Municipaldistrict","CC_2":"NA","HASC_2":"DO.DA.PA","name":"Partido.county"},
"geometry":{"type": "MultiPolygon","coordinates": [[[[-71.5535,19.5191,140.9679],[-71.5556,19.5173,137.1743],[-71.5547,19.5115,149.5124],[-71.5588,19.5076,168.1642],[-71.562,19.5014,179.6865],[-71.5606,19.4918,186.8076],[-71.5915,19.4834,302.8732],[-71.5978,19.4761,330.2925],[-71.5981,19.4628,538.6502],[-71.5959,19.4604,622.156],[-71.5855,19.4588,551.3375],[-71.5823,19.4496,483.2838],[-71.5717,19.4439,398.5845],[-71.5431,19.4396,327.4835],[-71.5418,19.4364,404.1541],[-71.544,19.431,577.1468],[-71.5429,19.4275,499.1302],[-71.5298,19.4233,365.382],[-71.5115,19.4266,374.9255],[-71.5069,19.4294,323.7177],[-71.5041,19.4352,245.2253],[-71.4981,19.4379,214.5061],[-71.4964,19.4565,199.6889],[-71.4892,19.4648,169.5126],[-71.4839,19.4773,153.0537],[-71.4767,19.484,153.1806],[-71.4698,19.4849,158.6081],[-71.4655,19.4827,159.9485],[-71.4642,19.4704,170.3677],[-71.4628,19.4683,195.2747],[-71.4571,19.468,156.2711],[-71.4508,19.4708,138.8018],[-71.4496,19.4775,140.2408],[-71.4547,19.4848,161.7563],[-71.4541,19.4886,176.7314],[-71.4433,19.4982,143.5454],[-71.4319,19.5034,112.6928],[-71.4237,19.5052,104.15],[-71.4222,19.5145,100.8734],[-71.4174,19.5196,98.4525],[-71.4157,19.5265,97.1388],[-71.4233,19.5332,72.0119],[-71.4272,19.5403,78.1303],[-71.4425,19.542,87.7151],[-71.4438,19.5513,100.6636],[-71.4462,19.5543,101.3475],[-71.4559,19.5542,159.5672],[-71.4651,19.5581,145.5742],[-71.4749,19.5569,168.6732],[-71.4903,19.5646,178.7827],[-71.4962,19.5739,105.1631],[-71.5031,19.5754,151.3291],[-71.5024,19.5624,153.2039],[-71.499,19.5535,144.2628],[-71.4916,19.5469,187.8922],[-71.492,19.5421,176.9028],[-71.5041,19.5393,128.9512],[-71.5078,19.5415,100.0415],[-71.5158,19.5426,108.2717],[-71.5265,19.55,93.5557],[-71.5323,19.5498,101.8895],[-71.5344,19.5471,103.8536],[-71.5303,19.5426,109.2921],[-71.5313,19.5354,123.1967],[-71.5275,19.5258,142.7565],[-71.5125,19.522,150.3091],[-71.5056,19.5241,116.699],[-71.5033,19.5231,114.682],[-71.5035,19.5189,120.8936],[-71.5082,19.5124,125.2246],[-71.504,19.5055,132.4352],[-71.5041,19.5026,140.4778],[-71.5161,19.5021,147.1314],[-71.5236,19.5052,157.3102],[-71.5287,19.5102,180.6971],[-71.53,19.5169,164.8003],[-71.5319,19.5187,153.5674],[-71.5535,19.5191,140.9679]]]]}}