{"type": "Feature","bbox": [-77.4452,19.8468,-77.0413,20.0227],"geometry": {"type": "MultiPolygon","coordinates": [[[[-77.289,19.8985,0.0],[-77.2913,19.8968,0.0],[-77.2901,19.894,0.0],[-77.2885,19.8951,0.0],[-77.289,19.8985,0.0]]],
[[[-77.2729,19.8993,0.0],[-77.2754,19.8999,1.5676],[-77.2757,19.8974,0.0],[-77.2743,19.8971,0.0],[-77.2729,19.8993,0.0]]],
[[[-77.0919,20.0212,557.5956],[-77.0967,20.0227,322.7184],[-77.1429,20.0049,299.1264],[-77.1718,20.002,471.1423],[-77.1905,19.9956,528.7624],[-77.2367,19.9944,313.5513],[-77.2621,19.9871,181.4972],[-77.2944,19.9856,176.6836],[-77.338,19.9706,231.231],[-77.3539,19.9707,203.5401],[-77.3727,19.9773,189.2822],[-77.3908,19.9781,203.7445],[-77.4018,19.9764,172.9073],[-77.4287,19.9652,168.8861],[-77.4444,19.9345,218.4296],[-77.4452,19.8934,124.4597],[-77.4348,19.8585,0.0],[-77.4254,19.854,34.3393],[-77.4196,19.8471,0.0],[-77.396,19.8468,0.0],[-77.3743,19.8546,4.6395],[-77.3721,19.8546,9.9734],[-77.3718,19.8529,0.0],[-77.3674,19.8529,0.0],[-77.3549,19.8546,1.8136],[-77.3499,19.8538,5.3809],[-77.3437,19.856,1.4386],[-77.3401,19.8587,0.0],[-77.3385,19.8662,0.0],[-77.3365,19.8682,0.0],[-77.3304,19.8715,0.6425],[-77.3146,19.8762,1.1146],[-77.3074,19.8818,0.0],[-77.3104,19.8854,0.6167],[-77.3165,19.8857,0.0],[-77.3271,19.881,0.9316],[-77.331,19.8821,0.0],[-77.3324,19.8801,2.1434],[-77.3346,19.8801,3.341],[-77.3371,19.8824,0.0],[-77.3399,19.8818,1.7945],[-77.3399,19.8829,0.6329],[-77.3351,19.8846,0.5153],[-77.3351,19.8907,0.6334],[-77.3293,19.8915,0.3878],[-77.3288,19.8888,0.8174],[-77.3304,19.8893,0.3398],[-77.3324,19.8874,1.0544],[-77.3315,19.8846,0.376],[-77.3262,19.8868,0.0],[-77.3249,19.8943,0.4934],[-77.3232,19.8954,0.4817],[-77.3243,19.8999,0.4539],[-77.3196,19.9007,0.0],[-77.3204,19.9029,0.0],[-77.3146,19.9063,1.4731],[-77.3138,19.9104,0.7531],[-77.3043,19.9099,0.0],[-77.2993,19.9121,6.4276],[-77.2949,19.9101,0.0],[-77.2882,19.9132,1.2498],[-77.2849,19.9129,1.5711],[-77.2835,19.9107,2.9109],[-77.2776,19.9068,0.0],[-77.276,19.9076,1.7313],[-77.2743,19.9054,0.0],[-77.2688,19.9079,0.0],[-77.2679,19.9132,0.9263],[-77.2573,19.9124,6.9055],[-77.2565,19.9107,0.5694],[-77.2579,19.9076,1.584],[-77.2604,19.9051,1.9317],[-77.2626,19.9063,0.0],[-77.264,19.9049,0.0],[-77.2615,19.9021,0.8276],[-77.2546,19.903199999999998,0.0],[-77.2493,19.9015,0.0],[-77.2465,19.904,0.0],[-77.2432,19.9026,0.0],[-77.2393,19.9101,0.0],[-77.2376,19.9104,0.0],[-77.2343,19.9054,0.0],[-77.2318,19.9043,0.0],[-77.2301,19.9043,0.0],[-77.229,19.9065,0.6928],[-77.226,19.9054,0.0],[-77.2237,19.9065,0.0],[-77.2235,19.9099,0.0],[-77.2229,19.9068,0.0],[-77.219,19.9088,0.4069],[-77.2199,19.9037,0.0],[-77.2187,19.9024,0.0],[-77.2121,19.9021,0.0],[-77.2124,19.9043,0.5178],[-77.2151,19.9063,0.0],[-77.2143,19.9076,5.1476],[-77.214,19.906,0.0],[-77.2107,19.9051,0.0],[-77.2101,19.9026,0.0],[-77.1943,19.9043,0.0],[-77.1949,19.9065,0.0],[-77.2012,19.9088,0.0],[-77.201,19.9132,0.0],[-77.1979,19.916,1.3943],[-77.1918,19.9143,0.9974],[-77.1885,19.916,1.9637],[-77.1857,19.9143,0.0],[-77.1821,19.9157,3.1783],[-77.1776,19.9126,1.0293],[-77.1785,19.9093,0.2763],[-77.1876,19.9112,0.0],[-77.1876,19.9071,0.0],[-77.181,19.9057,0.0],[-77.1782,19.9027,0.0],[-77.1732,19.9026,0.8374],[-77.171,19.9007,0.0],[-77.1651,19.903199999999998,0.0],[-77.1568,19.9021,0.0],[-77.1501,19.904,2.026],[-77.1474,19.9026,5.1525],[-77.1471,19.8993,0.0],[-77.1413,19.8996,0.0],[-77.1332,19.8949,0.0],[-77.1243,19.8926,0.0],[-77.1179,19.8932,0.0],[-77.1143,19.8915,0.0],[-77.1146,19.8932,0.0],[-77.1085,19.894,4.0351],[-77.1076,19.8921,0.0],[-77.1038,19.8937,0.0],[-77.0921,19.8913,0.0],[-77.0893,19.8924,23.6421],[-77.0824,19.891,2.694],[-77.0815,19.8893,1.5801],[-77.0751,19.8871,14.0149],[-77.0685,19.8876,0.0],[-77.0657,19.8899,0.953],[-77.064,19.8879,0.0],[-77.0579,19.8874,2.4663],[-77.0524,19.8904,0.0],[-77.046,19.8896,0.0],[-77.0413,19.8913,0.0],[-77.0536,19.9107,497.4068],[-77.0557,19.9331,255.2315],[-77.0629,19.9535,263.1793],[-77.0656,20.0075,673.6451],[-77.08,20.0173,640.2206],[-77.0919,20.0212,557.5956]]]]}
,"properties": {"GID_2": "CUB.5.11_1","GID_0": "CUB","country": "Cuba","GID_1": "CUB.5_1","province": "Granma","NL_NAME_1": "NA","county": "Pilón","VARNAME_2": "NA","NL_NAME_2": "NA","TYPE_2": "Municipio","ENGTYPE_2": "Municipality","CC_2": "NA","HASC_2": "CU.GR.PI","name": "Pilón.county","area_km2": 460.5969,"hist_schema_id": "Elevation0-9000","hist_area_km2": {"0": 37.1418,"25": 30.6229,"50": 20.0953,"75": 15.9285,"100": 15.749,"125": 20.0561,"150": 14.4521,"175": 17.6792,"200": 28.4803,"225": 29.995,"250": 28.5203,"275": 28.9387,"300": 26.5867,"325": 23.5569,"350": 20.188,"375": 19.5894,"400": 16.7593,"425": 12.4748,"450": 9.8442,"475": 8.3295,"500": 6.9746,"525": 5.7988,"550": 4.7626,"575": 3.7661,"600": 3.4274,"625": 2.7497,"650": 2.3711,"675": 1.9128,"700": 1.0959,"725": 1.1756,"750": 0.7372,"775": 0.4981,"800": 0.2391,"825": 0.0797,"850": 0.0199}}}