{"type": "Feature","bbox": [-81.0051,22.6041,-80.7243,22.8734],"geometry": {"type": "MultiPolygon","coordinates": [[[[-80.7843,22.6041,57.0305],[-80.7961,22.6342,49.9557],[-80.796,22.6518,55.2811],[-80.7808,22.6778,62.5877],[-80.7385,22.7123,73.3257],[-80.7363,22.725,73.4649],[-80.7369,22.7857,60.2665],[-80.7243,22.8108,42.0617],[-80.7305,22.8187,39.8852],[-80.7445,22.8223,43.5305],[-80.7474,22.8255,39.7315],[-80.7571,22.8487,32.7178],[-80.7959,22.8506,35.9402],[-80.8236,22.8715,28.4281],[-80.8378,22.8734,27.4432],[-80.8779,22.8551,31.1919],[-80.9131,22.8254,35.4192],[-80.9362,22.7793,54.771],[-80.9368,22.6843,40.7162],[-80.9447,22.6784,37.7926],[-80.9753,22.6784,32.3653],[-80.9858,22.6757,31.1579],[-80.9942,22.6632,28.0878],[-80.9982,22.6404,29.2054],[-81.0051,22.6293,27.9076],[-81.005,22.6212,27.3106],[-80.9109,22.6213,41.9935],[-80.8668,22.6056,54.1121],[-80.7843,22.6041,57.0305]]]]}
,"properties": {"GID_2": "CUB.11.4_1","GID_0": "CUB","country": "Cuba","GID_1": "CUB.11_1","province": "Matanzas","NL_NAME_1": "NA","county": "Colón","VARNAME_2": "NA","NL_NAME_2": "NA","TYPE_2": "Municipio","ENGTYPE_2": "Municipality","CC_2": "NA","HASC_2": "CU.MA.CO","name": "Colón.county","area_km2": 528.7775,"hist_schema_id": "Elevation0-9000","hist_area_km2": {"25": 93.3864,"50": 310.6333,"75": 124.7579}}}