{"type":"Feature","properties":{"GID_2":"MTQ.1.1_1","GID_0":"MTQ","country":"Martinique","GID_1":"MTQ.1_1","province":"Fort-de-France","NL_NAME_1":"NA","county":"Fort-de-France","VARNAME_2":"NA","NL_NAME_2":"NA","TYPE_2":"Commune","ENGTYPE_2":"Commune","CC_2":"NA","HASC_2":"MQ.FF.FF","name":"Fort-de-France.county"},
"geometry":{"type": "MultiPolygon","coordinates": [[[[-61.0361,14.6051,0.0],[-61.0375,14.6446,136.0767],[-61.0591,14.6505,207.0806],[-61.0606,14.6516,200.0557],[-61.0618,14.66,240.3061],[-61.082,14.6697,450.6986],[-61.0856,14.6966,632.0422],[-61.0807,14.702,426.3588],[-61.0806,14.7067,410.2549],[-61.0873,14.7081,468.7357],[-61.1025,14.7042,638.7847],[-61.0913,14.6519,170.1637],[-61.0812,14.6376,162.0902],[-61.0909,14.5988,6.0661],[-61.0821,14.5996,0.0],[-61.0754,14.6021,12.3142],[-61.0754,14.6007,0.2135],[-61.0726,14.6007,0.0],[-61.074,14.599,0.0],[-61.0726,14.5985,0.0],[-61.0682,14.6012,0.6841],[-61.0657,14.5971,8.5225],[-61.0643,14.5976,0.0],[-61.0651,14.6004,15.4875],[-61.0632,14.601,0.7692],[-61.061,14.6001,0.0],[-61.0615,14.5957,0.0],[-61.0604,14.596,2.0585],[-61.061,14.594,0.0],[-61.0585,14.5924,0.0],[-61.0543,14.5974,1.823],[-61.049,14.5965,0.0],[-61.051,14.5915,0.0],[-61.0488,14.5896,0.0],[-61.0443,14.5951,2.4934],[-61.0399,14.5951,0.0],[-61.0368,14.5926,0.0],[-61.0401,14.6046,17.7793],[-61.0361,14.6051,0.0]]]]}}