{"type": "Feature","bbox": [-71.6412,18.4642,-71.4989,18.6544],"geometry": {"type": "MultiPolygon","coordinates": [[[[-71.4989,18.6255,1880.7358],[-71.5105,18.6308,2220.082],[-71.5128,18.638,2003.1772],[-71.5174,18.641,2185.6042],[-71.5284,18.6443,2113.1323],[-71.5436,18.6451,1867.2626],[-71.5672,18.6544,2034.5026],[-71.5697,18.6467,1605.4971],[-71.5829,18.6328,1131.7633],[-71.5817,18.6196,1239.3491],[-71.5856,18.6125,1370.2013],[-71.5834,18.6053,870.5874],[-71.5835,18.5933,698.0048],[-71.5912,18.5893,852.0483],[-71.5972,18.5833,654.6511],[-71.5988,18.5748,468.427],[-71.6036,18.568,498.7993],[-71.6075,18.5501,153.7824],[-71.6105,18.5437,76.1689],[-71.6143,18.537,17.4711],[-71.624,18.5271,-37.0],[-71.6412,18.4956,-37.0],[-71.6127,18.485,-37.0],[-71.5476,18.4642,-37.0],[-71.5439,18.4808,-37.0],[-71.5361,18.4961,1.1543],[-71.5352,18.5139,93.4067],[-71.5304,18.5191,163.5767],[-71.5284,18.5299,477.1093],[-71.519,18.5375,711.1237],[-71.5211,18.5418,753.7318],[-71.5288,18.544,677.8884],[-71.5321,18.5489,578.2887],[-71.538,18.5636,578.8892],[-71.5352,18.5761,922.722],[-71.529,18.5903,1353.011],[-71.5145,18.5974,1490.5764],[-71.5102,18.6012,1342.4258],[-71.5009,18.6187,1398.0027],[-71.4989,18.6255,1880.7358]]]]}
,"properties": {"GID_2": "DOM.2.2_1","GID_0": "DOM","country": "DominicanRepublic","GID_1": "DOM.2_1","province": "Bahoruco","NL_NAME_1": "NA","county": "LosRios","VARNAME_2": "NA","NL_NAME_2": "NA","TYPE_2": "Distritomunicipal","ENGTYPE_2": "Municipaldistrict","CC_2": "NA","HASC_2": "DO.BR.LR","name": "Los_Rios.county","area_km2": 158.8302,"hist_schema_id": "Elevation0-9000","hist_area_km2": {"-50": 0.0402,"-25": 41.4001,"0": 4.2421,"25": 3.9203,"50": 3.3172,"75": 3.2166,"100": 2.5934,"125": 1.6887,"150": 1.7891,"175": 1.4273,"200": 1.4474,"225": 1.3669,"250": 1.1659,"275": 1.2664,"300": 1.2061,"325": 1.3066,"350": 1.2864,"375": 1.4673,"400": 1.4472,"425": 1.3467,"450": 1.7688,"475": 2.0502,"500": 2.2511,"525": 2.0702,"550": 2.2109,"575": 2.5928,"600": 2.2712,"625": 2.1707,"650": 2.4521,"675": 2.251,"700": 2.6328,"725": 2.4118,"750": 1.7887,"775": 2.07,"800": 2.07,"825": 1.8288,"850": 1.6278,"875": 1.9693,"900": 1.3665,"925": 1.0449,"950": 1.1454,"975": 1.4066,"1000": 1.0448,"1025": 0.9846,"1050": 1.1252,"1075": 1.1654,"1100": 1.0649,"1125": 1.3261,"1150": 1.1654,"1175": 0.9243,"1200": 0.9645,"1225": 0.8439,"1250": 1.1654,"1275": 1.0047,"1300": 0.9846,"1325": 1.1252,"1350": 1.1051,"1375": 1.4065,"1400": 1.1252,"1425": 1.1252,"1450": 1.2056,"1475": 1.0247,"1500": 1.0248,"1525": 1.1252,"1550": 1.2458,"1575": 1.1051,"1600": 1.0046,"1625": 0.8037,"1650": 0.7233,"1675": 0.9443,"1700": 0.4822,"1725": 0.7032,"1750": 0.4621,"1775": 0.4621,"1800": 0.4822,"1825": 0.3817,"1850": 0.3616,"1875": 0.5023,"1900": 0.3214,"1925": 0.4219,"1950": 0.3616,"1975": 0.3616,"2000": 0.4018,"2025": 0.4018,"2050": 0.2612,"2075": 0.3817,"2100": 0.1205,"2125": 0.1607,"2150": 0.2612,"2175": 0.5625,"2200": 0.442,"2225": 0.2612,"2250": 0.0201}}}