{"type": "Feature","bbox": [-72.2657,19.0776,-72.0819,19.3005],"geometry": {"type": "MultiPolygon","coordinates": [[[[-72.0858,19.1749,268.4391],[-72.0859,19.1868,265.767],[-72.0838,19.1894,274.5067],[-72.0857,19.1952,272.7352],[-72.0819,19.1992,290.7682],[-72.0931,19.2251,300.2991],[-72.1029,19.2255,306.929],[-72.1088,19.2336,330.1498],[-72.1159,19.2351,352.2252],[-72.1199,19.2391,357.5098],[-72.1224,19.2475,360.1031],[-72.1243,19.2492,361.4275],[-72.1302,19.2511,380.1075],[-72.1365,19.2563,399.6555],[-72.1437,19.258,389.7289],[-72.1491,19.2564,376.3358],[-72.1548,19.2588,363.6209],[-72.1528,19.2686,361.1903],[-72.1586,19.2791,347.5684],[-72.1591,19.2827,349.4161],[-72.1658,19.2819,345.844],[-72.1724,19.2847,348.4516],[-72.183,19.2938,354.3043],[-72.1959,19.2991,355.2379],[-72.2033,19.3005,353.6219],[-72.2033,19.2984,352.5571],[-72.2179,19.2868,351.9695],[-72.2208,19.281,338.1042],[-72.2266,19.2748,333.7155],[-72.2311,19.275,338.4589],[-72.2383,19.2701,345.8694],[-72.242,19.2647,339.0041],[-72.2423,19.2617,328.3583],[-72.2391,19.2518,320.7842],[-72.2417,19.2321,292.456],[-72.2488,19.2314,300.7162],[-72.2562,19.2274,320.6881],[-72.2616,19.2186,328.2475],[-72.2657,19.216,351.4371],[-72.2575,19.2066,347.9509],[-72.2579,19.2023,347.4008],[-72.2633,19.1953,374.0767],[-72.2643,19.1916,410.2422],[-72.2609,19.1876,397.3813],[-72.2603,19.1766,399.2403],[-72.2544,19.1669,342.4552],[-72.255,19.161,399.022],[-72.2425,19.1561,537.8043],[-72.2312,19.1419,720.7504],[-72.2196,19.1309,502.7168],[-72.2208,19.1271,464.2905],[-72.2401,19.1171,609.8057],[-72.2393,19.1014,940.3778],[-72.2251,19.0861,1166.6614],[-72.2143,19.08,1145.9709],[-72.2049,19.0809,1076.1165],[-72.2009,19.0781,1212.8884],[-72.1914,19.0806,1048.4554],[-72.1888,19.0776,1181.7156],[-72.1894,19.0832,918.678],[-72.1879,19.0868,803.5618],[-72.1852,19.0885,745.4905],[-72.179,19.0855,749.1664],[-72.1758,19.088,754.1541],[-72.1686,19.1031,550.4803],[-72.1597,19.1048,412.3148],[-72.1509,19.1102,564.5573],[-72.1389,19.1024,628.7805],[-72.1354,19.1036,614.7808],[-72.1317,19.1115,450.696],[-72.1252,19.1187,397.3975],[-72.1251,19.1251,359.1917],[-72.1222,19.1328,328.3875],[-72.1186,19.137,341.04],[-72.1134,19.1379,306.0608],[-72.1068,19.1445,283.4355],[-72.1063,19.1525,297.4372],[-72.0953,19.1606,277.4805],[-72.0858,19.1749,268.4391]]]]}
,"properties": {"GID_3": "HTI.1.2.3_1","GID_0": "HTI","country": "Haiti","GID_1": "HTI.1_1","province": "Centre","NL_NAME_1": "NA","GID_2": "HTI.1.2_1","county": "Hinche","NL_NAME_2": "NA","city": "Maïssade","VARNAME_3": "NA","NL_NAME_3": "NA","TYPE_3": "Commune","ENGTYPE_3": "Commune","CC_3": "NA","HASC_3": "NA","name": "Maïssade.city","area_km2": 297.1201,"hist_schema_id": "Elevation0-9000","hist_area_km2": {"250": 7.3292,"275": 49.2587,"300": 73.8249,"325": 67.8339,"350": 38.8582,"375": 10.4339,"400": 6.0487,"425": 3.1648,"450": 2.604,"475": 2.4438,"500": 2.6442,"525": 2.2236,"550": 2.2437,"575": 2.3639,"600": 1.9432,"625": 2.1836,"650": 1.162,"675": 1.3423,"700": 1.6829,"725": 1.4825,"750": 1.5427,"775": 1.3423,"800": 1.2021,"825": 1.4425,"850": 1.4625,"875": 1.3423,"900": 1.5426,"925": 1.4826,"950": 1.3824,"975": 0.581,"1000": 0.6812,"1025": 0.4408,"1050": 0.3206,"1075": 0.3607,"1100": 0.2004,"1125": 0.2605,"1150": 0.1002,"1175": 0.2204,"1200": 0.0401,"1225": 0.0801,"1250": 0.02}}}