{"type":"Feature","properties":{"ISO3166-1-Alpha-3":"ATG","country":"Antigua and Barbuda","fill":"#F00","id":"5094","name":"Saint Peter"},
"geometry":{"type": "Polygon","coordinates": [[[-61.71483,17.09309,10.8954],[-61.72509,17.09984,0.0],[-61.72964,17.11416,0.0],[-61.72053,17.11612,0.0],[-61.7163,17.1188,0.0],[-61.71349,17.12254,0.0],[-61.70861,17.12783,0.0],[-61.72008,17.12637,1.0358],[-61.72985,17.128,0.0],[-61.73762,17.13296,0.0],[-61.74332,17.14151,0.0],[-61.75276,17.12889,4.7906],[-61.75544,17.12303,2.3183],[-61.75642,17.11416,4.3462],[-61.76196,17.10816,4.2421],[-61.75686,17.1,34.8503],[-61.75584,17.0898,32.7879],[-61.76707,17.08571,53.0989],[-61.77421,17.07143,35.8411],[-61.77421,17.0602,28.4007],[-61.7487,17.0602,24.98],[-61.73339,17.06428,29.3894],[-61.72829,17.08367,41.2438],[-61.71483,17.09309,10.8954]]]}}