{"type": "Feature","bbox": [-61.7945,17.0599,-61.7124,17.149],"geometry": {"type": "MultiPolygon","coordinates": [[[[-61.7916,17.081,65.2714],[-61.7941,17.0749,67.4005],[-61.7945,17.064,75.1859],[-61.7759,17.0625,29.9982],[-61.7672,17.0599,24.2632],[-61.7561,17.0645,19.5],[-61.7466,17.0643,28.425],[-61.7395,17.0864,12.3801],[-61.7349,17.0861,8.6734],[-61.7339,17.0885,4.7681],[-61.7329,17.0982,2.1632],[-61.7296,17.0996,0.959],[-61.7313,17.1032,19.8549],[-61.726,17.1063,0.8893],[-61.7287,17.1087,0.5248],[-61.7307,17.1085,3.962],[-61.7296,17.1107,1.4847],[-61.7429,17.1096,1.759],[-61.7462,17.1151,1.3692],[-61.729,17.1196,0.4439],[-61.7251,17.1238,6.5752],[-61.7187,17.1268,0.0],[-61.7182,17.1288,0.0],[-61.7204,17.1307,0.0],[-61.7238,17.1307,4.8478],[-61.724,17.1321,0.5514],[-61.7271,17.1313,2.4228],[-61.7279,17.1262,1.4772],[-61.7307,17.1246,7.8974],[-61.7329,17.126,0.8039],[-61.7371,17.1212,7.9655],[-61.741,17.1218,2.8425],[-61.7449,17.1201,4.8237],[-61.7462,17.1212,1.4625],[-61.7471,17.1151,1.3692],[-61.7504,17.114,1.3139],[-61.754,17.1235,2.3183],[-61.7474,17.1301,0.0],[-61.7457,17.1299,0.0],[-61.7457,17.1315,5.949],[-61.7482,17.134,4.7816],[-61.7479,17.1376,0.0],[-61.7513,17.1365,4.4094],[-61.7513,17.1329,1.4434],[-61.754,17.1296,1.6864],[-61.7562,17.1296,0.0],[-61.7568,17.1276,2.2296],[-61.761,17.1262,0.268],[-61.7649,17.1226,0.3292],[-61.7646,17.121,0.1965],[-61.7615,17.1218,0.3679],[-61.7604,17.1199,0.0],[-61.7607,17.1121,0.0],[-61.7701,17.1107,1.3485],[-61.7665,17.1146,5.9167],[-61.7701,17.1154,6.3214],[-61.7757,17.1113,0.2843],[-61.7844,17.1118,13.967],[-61.7842,17.098,12.799],[-61.7814,17.0962,21.8267],[-61.7811,17.0904,15.9383],[-61.7912,17.0876,24.4536],[-61.7916,17.081,65.2714]]],
[[[-61.7124,17.1121,0.0],[-61.7157,17.1099,9.8469],[-61.7182,17.1107,0.0],[-61.7185,17.109,5.836],[-61.7201,17.1101,3.37],[-61.7204,17.1082,10.7786],[-61.7246,17.1101,0.9347],[-61.7254,17.106,0.8893],[-61.7221,17.1076,4.1684],[-61.7165,17.1076,1.6934],[-61.7124,17.1121,0.0]]],
[[[-61.7301,17.1374,0.0],[-61.7318,17.1371,0.0],[-61.7318,17.1343,0.0],[-61.7296,17.1326,0.0],[-61.7285,17.1349,0.0],[-61.7304,17.1346,0.0],[-61.7301,17.1374,0.0]]],
[[[-61.7232,17.149,0.0],[-61.7246,17.1485,0.0],[-61.7243,17.1451,4.5065],[-61.7274,17.146,0.0],[-61.7262,17.144,4.2147],[-61.7276,17.1426,0.0],[-61.7257,17.1426,0.0],[-61.7249,17.1443,4.5065],[-61.7238,17.1432,0.0],[-61.7232,17.149,0.0]]]]}
,"properties": {"GID_1": "ATG.7_1","GID_0": "ATG","country": "AntiguaandBarbuda","state": "SaintPeter","VARNAME_1": "Parham","NL_NAME_1": "NA","TYPE_1": "Parish","ENGTYPE_1": "Parish","CC_1": "NA","HASC_1": "AG.PE","ISO_1": "AG-07","name": "SaintPeter.state","area_km2": 34.51254,"hist_schema_id": "Elevation0-9000","hist_area_km2": {"0": 9.21985,"25": 16.47652,"50": 7.94467,"75": 0.8715}}}