{"type": "Feature","id": "5109","bbox": [-62.73821,17.2986,-62.68116,17.3416],"geometry": {"type": "Polygon","coordinates": [[[-62.68116,17.2994,0.0],[-62.69546,17.33324,0.0],[-62.70356,17.3416,0.0],[-62.71161,17.33752,41.0218],[-62.72199,17.33752,224.9475],[-62.73172,17.33882,300.2887],[-62.73821,17.33038,242.6302],[-62.73431,17.31871,324.3492],[-62.72783,17.32065,132.7412],[-62.72328,17.31352,77.6024],[-62.70966,17.31092,32.0971],[-62.69928,17.30573,57.2031],[-62.6902,17.2986,38.7418],[-62.68116,17.2994,0.0]]]}
,"properties": {"ISO3166-1-Alpha-3": "KNA","country": "Saint Kitts and Nevis","fill": "#00F","name": "Saint Peter Basseterre","area_km2": 15.11971,"hist_schema_id": "Elevation0-9000","hist_area_km2": {"0": 5.7484,"25": 1.45735,"50": 0.99182,"75": 1.0323,"100": 1.07276,"125": 0.66793,"150": 0.64769,"175": 1.05248,"200": 0.62743,"225": 0.64767,"250": 0.46551,"275": 0.26311,"300": 0.30359,"325": 0.1012,"350": 0.04048}}}