{"type":"Feature","properties":{"GID_1":"KNA.11_1","GID_0":"KNA","country":"SaintKittsandNevis","province":"SaintPeterBasseterre","VARNAME_1":"NA","NL_NAME_1":"NA","TYPE_1":"Parish","ENGTYPE_1":"Parish","CC_1":"NA","HASC_1":"KN.PB","ISO_1":"KN-11","name":"Saint_Peter_Basseterre.province"},
"geometry":{"type": "MultiPolygon","coordinates": [[[[-62.6832,17.2947,1.1727],[-62.6835,17.2974,0.0],[-62.6851,17.2982,0.6502],[-62.6838,17.3024,0.0],[-62.689,17.3029,1.4123],[-62.6918,17.3057,0.5714],[-62.6904,17.3135,0.6585],[-62.699,17.3215,3.5714],[-62.7032,17.3324,0.0],[-62.7029,17.3351,0.0],[-62.7071,17.3371,8.9959],[-62.7088,17.3402,11.8081],[-62.7207,17.3358,248.3691],[-62.7393,17.337,305.6556],[-62.746,17.3389,329.9387],[-62.7544,17.3332,585.5204],[-62.7546,17.3256,766.5496],[-62.7496,17.3235,480.0629],[-62.7467,17.3169,355.9913],[-62.7412,17.317,217.1174],[-62.7391,17.3139,204.3405],[-62.7358,17.3154,259.9885],[-62.7252,17.3144,91.1395],[-62.7245,17.3099,61.7406],[-62.7141,17.3091,35.5823],[-62.714,17.3068,24.3611],[-62.7104,17.3036,19.773],[-62.7084,17.2989,17.7828],[-62.7031,17.301,26.6995],[-62.6973,17.2967,54.4657],[-62.6949,17.2929,46.6688],[-62.688,17.2918,1.8074],[-62.6832,17.2947,1.1727]]]]}}