{"type":"Feature","properties":{"GID_2":"MTQ.3.9_1","GID_0":"MTQ","country":"Martinique","GID_1":"MTQ.3_1","province":"LeTrinité","NL_NAME_1":"NA","county":"Sainte-Marie","VARNAME_2":"NA","NL_NAME_2":"NA","TYPE_2":"Commune","ENGTYPE_2":"Commune","CC_2":"NA","HASC_2":"MQ.TR.SM","name":"Sainte-Marie.county"},
"geometry":{"type": "MultiPolygon","coordinates": [[[[-60.9635,14.7738,0.0],[-60.9643,14.7721,5.5041],[-60.9626,14.7713,6.6134],[-60.9621,14.7726,13.2863],[-60.9635,14.7738,0.0]]],
[[[-61.0286,14.7337,266.7474],[-61.0255,14.734,249.217],[-60.9738,14.7635,3.0077],[-60.9749,14.7643,4.1559],[-60.974,14.7679,0.0],[-60.9779,14.7679,25.8339],[-60.9829,14.774,11.9076],[-60.9824,14.7754,11.9076],[-60.979,14.7754,0.0],[-60.9793,14.7776,1.5024],[-60.9815,14.779,0.0],[-60.9865,14.7771,24.034],[-60.9899,14.7804,6.9535],[-60.9915,14.7851,1.8288],[-60.9974,14.7874,2.8769],[-60.9985,14.794,0.0],[-61.0021,14.796,0.0],[-61.0046,14.7999,2.5082],[-61.0007,14.8085,0.0],[-61.0024,14.8099,0.0],[-61.0051,14.8082,24.7513],[-61.0071,14.809,2.9205],[-61.0057,14.8118,0.0],[-61.0101,14.8074,21.1833],[-61.0157,14.8081,1.8399],[-61.0424,14.7916,333.3668],[-61.0585,14.7406,484.7904],[-61.0286,14.7337,266.7474]]],
[[[-60.9879,14.7863,0.0],[-60.9874,14.7885,1.1793],[-60.9907,14.7882,0.0],[-60.9907,14.7871,0.0],[-60.9879,14.7863,0.0]]]]}}