{"type": "Feature","bbox": [-82.5253,22.9352,-82.0622,23.181],"geometry": {"type": "MultiPolygon","coordinates": [[[[-82.2082,23.0103,98.5266],[-82.2069,23.038,110.8956],[-82.2051,23.0416,115.8819],[-82.1992,23.0458,115.6372],[-82.179,23.0441,131.8158],[-82.1563,23.0482,114.4484],[-82.1455,23.0487,138.7268],[-82.1327,23.0454,196.6402],[-82.1238,23.0384,176.2393],[-82.1127,23.0265,201.2767],[-82.108,23.0239,212.659],[-82.1014,23.0252,200.6749],[-82.097,23.0341,204.9419],[-82.0945,23.051,114.6245],[-82.0882,23.0637,105.8072],[-82.0803,23.0718,111.3621],[-82.0695,23.0788,87.8241],[-82.0638,23.0874,55.8446],[-82.0622,23.1007,54.4865],[-82.0819,23.149,34.0976],[-82.0824,23.179,1.7725],[-82.0879,23.1793,1.1292],[-82.0976,23.1721,0.0],[-82.1057,23.1749,1.3369],[-82.1207,23.1726,1.4653],[-82.1296,23.174,0.3925],[-82.1368,23.1707,1.2349],[-82.1501,23.1701,3.1939],[-82.1715,23.1749,2.546],[-82.176,23.174,5.162],[-82.1765,23.1754,5.162],[-82.179,23.1746,4.3119],[-82.1963,23.1779,1.7117],[-82.1971,23.176,2.6924],[-82.1979,23.1785,3.3011],[-82.2032,23.179,1.9156],[-82.2051,23.181,0.0],[-82.2121,23.179,0.0],[-82.2121,23.1724,11.9267],[-82.2143,23.179,0.0],[-82.2293,23.1807,0.0],[-82.2401,23.1776,0.8288],[-82.2387,23.1749,3.9838],[-82.2407,23.1735,4.8994],[-82.2449,23.1779,0.3899],[-82.2515,23.1779,0.0],[-82.2604,23.1754,3.5656],[-82.274,23.1763,0.0],[-82.2893,23.1699,0.485],[-82.2918,23.1674,1.2647],[-82.2921,23.1635,3.8256],[-82.2937,23.1643,0.0],[-82.2943,23.1685,1.1444],[-82.2996,23.1707,0.0],[-82.3065,23.1707,0.0],[-82.3163,23.1674,0.5147],[-82.3246,23.1668,1.4976],[-82.3493,23.1571,0.0],[-82.3501,23.1549,2.1585],[-82.3576,23.1513,13.4037],[-82.3576,23.1499,5.609],[-82.3512,23.1468,5.8548],[-82.346,23.1413,0.0],[-82.3421,23.1415,0.0],[-82.3396,23.1399,0.0],[-82.3388,23.141,0.0],[-82.3318,23.1407,0.0],[-82.3313,23.1385,0.0],[-82.3288,23.1413,0.8092],[-82.3254,23.1407,1.2923],[-82.3301,23.1357,0.0],[-82.3285,23.1315,0.3826],[-82.3321,23.1315,0.0],[-82.3376,23.1349,0.8853],[-82.3371,23.1313,4.4929],[-82.3385,23.1296,2.6721],[-82.3374,23.1274,3.1042],[-82.3418,23.1235,0.0],[-82.3376,23.1168,0.0],[-82.3379,23.1129,2.0251],[-82.341,23.1132,4.8111],[-82.346,23.1212,2.3254],[-82.3443,23.1268,0.5342],[-82.3515,23.1226,0.0],[-82.3538,23.124,0.0],[-82.3574,23.1226,0.0],[-82.3574,23.1243,0.3373],[-82.3543,23.1262,2.3149],[-82.3476,23.1285,0.0],[-82.3449,23.1351,0.0],[-82.3476,23.141,0.0],[-82.3535,23.1451,0.5257],[-82.3585,23.1468,0.2037],[-82.3635,23.1421,3.6128999999999998],[-82.3726,23.1418,3.4002],[-82.3793,23.1451,4.7448],[-82.3913,23.1471,0.0],[-82.4074,23.1385,4.7022],[-82.4079,23.1329,2.3765],[-82.411,23.1321,1.2953],[-82.4112,23.1349,0.5525],[-82.4146,23.134,0.0],[-82.4357,23.1185,4.3525],[-82.4554,23.0996,0.0],[-82.4543,23.0957,0.0],[-82.4607,23.0965,1.7627],[-82.4621,23.0951,1.809],[-82.4613,23.0929,0.8092],[-82.4715,23.0937,0.4891],[-82.474,23.0918,2.5531],[-82.4793,23.0912,1.7014],[-82.4796,23.0899,3.1543],[-82.4807,23.0921,0.0],[-82.4874,23.094,0.0],[-82.4901,23.0904,3.0136],[-82.4912,23.0932,0.3947],[-82.4929,23.0935,2.1791],[-82.5035,23.0882,1.1807],[-82.504,23.0837,0.0],[-82.5021,23.0821,1.1615],[-82.5065,23.0801,2.5586],[-82.5082,23.0824,0.4921],[-82.506,23.0835,0.0],[-82.5101,23.0832,0.3396],[-82.5104,23.0812,0.5198],[-82.5168,23.0796,0.0],[-82.5253,23.0732,0.0],[-82.5251,23.0565,7.7343],[-82.5235,23.0536,15.4603],[-82.5163,23.0516,17.8213],[-82.4862,23.0533,31.5565],[-82.4831,23.0527,35.0828],[-82.4795,23.0469,43.648],[-82.4807,22.997,73.4917],[-82.4783,22.9844,79.8045],[-82.4747,22.9771,81.3269],[-82.4693,22.9718,69.9653],[-82.4618,22.9708,65.9538],[-82.4439,22.9758,63.7247],[-82.4349,22.9762,63.1634],[-82.4277,22.9739,61.1133],[-82.4235,22.9699,68.3855],[-82.4184,22.9608,74.5719],[-82.4105,22.9556,85.5703],[-82.3845,22.9451,161.044],[-82.3756,22.9385,134.3082],[-82.3678,22.9353,112.0954],[-82.3609,22.9352,122.1487],[-82.3542,22.9382,125.7919],[-82.3518,22.9435,133.7054],[-82.3536,22.9562,114.9199],[-82.3524,22.9589,101.604],[-82.3437,22.9608,104.3585],[-82.3053,22.9522,136.7745],[-82.2933,22.9412,168.9562],[-82.2876,22.9383,209.748],[-82.2673,22.936,206.7624],[-82.2366,22.9368,213.7986],[-82.2322,22.9395,185.9675],[-82.2308,22.9451,206.4609],[-82.2308,22.9625,139.2685],[-82.2022,22.9783,129.0461],[-82.1986,22.9845,124.83],[-82.2007,22.9945,112.5916],[-82.2061,23.0018,102.8825],[-82.2082,23.0103,98.5266]]]]}
,"properties": {"GID_1": "CUB.4_1","GID_0": "CUB","country": "Cuba","province": "CiudaddelaHabana","VARNAME_1": "NA","NL_NAME_1": "NA","TYPE_1": "Provincia","ENGTYPE_1": "Province","CC_1": "NA","HASC_1": "CU.CH","ISO_1": "NA","name": "Ciudaddela_Habana.province","area_km2": 820.0005,"hist_schema_id": "Elevation0-9000","hist_area_km2": {"0": 77.6008,"25": 167.889,"50": 187.8288,"75": 186.842,"100": 123.5615,"125": 40.1064,"150": 13.7624,"175": 11.2251,"200": 6.344,"225": 3.2013,"250": 1.1905,"275": 0.3122,"300": 0.1366}}}