{"type": "Feature","id": "1428","bbox": [-82.53874,22.94785,-82.0762,23.19424],"geometry": {"type": "Polygon","coordinates": [[[-82.10009,23.18765,0.0],[-82.12841,23.18106,0.0],[-82.1503,23.1789,0.0],[-82.21935,23.19424,0.0],[-82.25109,23.18211,0.0],[-82.32103,23.17145,0.0],[-82.3671,23.15302,0.0],[-82.40689,23.14745,0.0],[-82.42235,23.13886,0.0],[-82.45202,23.1175,0.0],[-82.46768,23.10855,0.0],[-82.4772,23.10517,0.0],[-82.48957,23.10383,0.0],[-82.49454,23.10065,0.0],[-82.50447,23.08649,0.4944],[-82.51,23.08332,0.3396],[-82.53209,23.07709,0.0],[-82.53874,23.07356,0.0],[-82.53873,23.07355,0.0],[-82.53441,23.06676,0.0],[-82.51721,23.05973,9.1102],[-82.50532,23.06544,9.6783],[-82.49989,23.06994,12.4248],[-82.493,23.07162,3.9773],[-82.48501,23.06955,16.5399],[-82.47499,23.05686,23.3826],[-82.47364,23.04771,44.938],[-82.48214,23.03601,34.3695],[-82.50204,23.02043,55.4716],[-82.50297,23.01826,55.4415],[-82.49971,23.01392,54.9137],[-82.49225,23.0088,57.7127],[-82.45553,22.99426,79.4596],[-82.453,22.99449,76.4551],[-82.4508,22.99555,75.4385],[-82.44729,22.99304,78.2403],[-82.44512,22.99061,78.1571],[-82.43592,22.95728,72.662],[-82.41969,22.96338,74.1693],[-82.41207,22.96547,72.8455],[-82.40502,22.96123,84.4939],[-82.39432,22.94899,135.2957],[-82.38879,22.94785,154.4004],[-82.38187,22.95061,147.7413],[-82.36869,22.96144,135.0329],[-82.36481,22.96842,107.0834],[-82.35582,22.97669,86.3478],[-82.31665,22.9733,105.0565],[-82.29089,22.9749,110.4278],[-82.28032,22.97056,118.3649],[-82.2704,22.96932,111.3303],[-82.25854,22.9694,118.6755],[-82.24983,22.97258,123.6731],[-82.24379,22.98025,115.5816],[-82.23614,22.99317,100.0785],[-82.20213,23.02813,111.0464],[-82.20126,23.0318,107.5212],[-82.2026,23.03655,113.1624],[-82.21102,23.05265,129.2422],[-82.21257,23.06133,90.6362],[-82.21221,23.06774,86.5822],[-82.20978,23.07619,54.9244],[-82.20903,23.08123,54.306399999999996],[-82.20927,23.08611,52.4648],[-82.21082,23.08991,43.4859],[-82.21144,23.09273,54.2025],[-82.21035,23.09415,53.6135],[-82.20462,23.09453,46.9933],[-82.19906,23.08898,62.2405],[-82.19193,23.0796,70.711],[-82.18854,23.07906,67.7028],[-82.18273,23.0827,85.6839],[-82.17622,23.08836,72.0895],[-82.17121,23.10086,54.0207],[-82.17012,23.10619,45.1449],[-82.16834,23.10947,43.1338],[-82.16488,23.11249,47.9249],[-82.16077,23.11381,59.4616],[-82.15188,23.10967,54.8499],[-82.14607,23.1059,34.2929],[-82.11098,23.06761,69.0124],[-82.10134,23.08402,76.7879],[-82.09997,23.10094,71.592],[-82.09883,23.10546,67.1036],[-82.09638,23.10828,57.0321],[-82.09095,23.11254,34.3813],[-82.09002,23.11683,38.9118],[-82.09276,23.1258,44.8508],[-82.0932,23.13143,35.5893],[-82.0908,23.13497,37.3825],[-82.08137,23.13538,41.8546],[-82.0762,23.13939,34.9785],[-82.09299,23.1589,84.4934],[-82.09857,23.16789,28.8598],[-82.09687,23.17791,0.0],[-82.10009,23.18765,0.0]]]}
,"properties": {"ISO3166-1-Alpha-3": "CUB","country": "Cuba","fill": "#FF0","name": "Ciudad de la Habana","area_km2": 703.3358,"hist_schema_id": "Elevation0-9000","hist_area_km2": {"0": 122.1268,"25": 159.8141,"50": 167.627,"75": 150.6939,"100": 90.8582,"125": 11.0834,"150": 1.1324}}}