{"type":"Feature","properties":{"GID_1":"PRI.34_1","GID_0":"PRI","country":"PuertoRico","province":"Hatillo","VARNAME_1":"NA","NL_NAME_1":"NA","TYPE_1":"Municipio","ENGTYPE_1":"Municipality","CC_1":"NA","HASC_1":"PR.HA","ISO_1":"-","name":"Hatillo.province"},
"geometry":{"type": "MultiPolygon","coordinates": [[[[-66.7654,18.4836,5.6991],[-66.7818,18.4918,2.2483],[-66.7954,18.4935,1.6402],[-66.8118,18.4901,4.4249],[-66.8243,18.4907,0.0],[-66.8274,18.4874,0.0],[-66.8368,18.4874,1.695],[-66.8386,18.4841,6.7591],[-66.8263,18.4576,26.7661],[-66.8236,18.4123,135.9974],[-66.8165,18.3924,143.4712],[-66.8105,18.3872,138.068],[-66.819,18.3533,268.7354],[-66.824,18.3432,300.6623],[-66.8261,18.3232,353.3005],[-66.7701,18.3208,330.541],[-66.7691,18.3737,234.9094],[-66.767,18.3918,253.9287],[-66.7698,18.4052,207.9615],[-66.7676,18.4157,164.9785],[-66.7677,18.4276,140.5113],[-66.7706,18.4371,90.2771],[-66.7683,18.4442,70.4894],[-66.7654,18.4836,5.6991]]]]}}