{"type": "Feature","bbox": [-72.7102,18.1707,-72.3621,18.4056],"geometry": {"type": "MultiPolygon","coordinates": [[[[-72.6382,18.1904,0.1304],[-72.6382,18.1901,0.1304],[-72.6378,18.1901,0.1304],[-72.638,18.1902,0.1304],[-72.6382,18.1904,0.1304]]],
[[[-72.6367,18.1936,8.7195],[-72.6362,18.1904,0.1192],[-72.6376,18.1899,0.1304],[-72.6332,18.1901,0.0],[-72.6301,18.1868,0.0],[-72.6224,18.1876,24.2653],[-72.6215,18.1846,1.3225],[-72.619,18.1829,0.0],[-72.6132,18.184,15.4367],[-72.6068,18.1821,6.4925],[-72.6035,18.1829,5.5153],[-72.5987,18.1782,0.0],[-72.5937,18.1771,14.636],[-72.5896,18.1779,0.0],[-72.5893,18.1799,7.2191],[-72.5871,18.1807,32.0381],[-72.5832,18.1799,2.3612],[-72.5793,18.1765,31.6162],[-72.579,18.1738,0.0],[-72.571,18.1754,0.0],[-72.5674,18.1707,4.0015],[-72.5526,18.1712,0.0],[-72.5429,18.1757,0.0],[-72.5407,18.1829,3.5647],[-72.5415,18.1915,0.0],[-72.5454,18.1929,13.2689],[-72.5468,18.1968,5.08],[-72.5521,18.1971,0.0],[-72.5535,18.1999,22.4336],[-72.5512,18.2082,0.0],[-72.5574,18.2224,13.032],[-72.5498,18.2307,2.1842],[-72.5368,18.2318,0.0],[-72.5274,18.2243,4.5609],[-72.5274,18.2226,0.0],[-72.5233,18.2201,12.1466],[-72.5207,18.2146,0.0],[-72.5182,18.2135,0.0],[-72.5079,18.2143,0.0],[-72.4946,18.2193,1.9034],[-72.4918,18.2232,15.7316],[-72.4879,18.2243,9.6403],[-72.4765,18.2188,0.9682],[-72.4751,18.2207,7.2271],[-72.4726,18.2199,0.0],[-72.4721,18.2218,0.0],[-72.4679,18.2235,0.0],[-72.4551,18.2213,0.0],[-72.4339,18.2272,6.3038],[-72.4359,18.244,123.7314],[-72.4436,18.2426,268.3791],[-72.4412,18.2541,316.754],[-72.4366,18.2562,383.3852],[-72.4427,18.2594,485.4862],[-72.4412,18.2666,653.8651],[-72.444,18.2694,685.9042],[-72.4445,18.2754,691.0652],[-72.4608,18.2773,711.3152],[-72.4696,18.2836,686.8296],[-72.4724,18.2899,708.3405],[-72.4656,18.2858,744.3154],[-72.4556,18.283,788.4814],[-72.4523,18.2853,827.7393],[-72.4296,18.2835,808.3823],[-72.4142,18.2871,827.9272],[-72.407,18.2951,903.2947],[-72.3929,18.2905,907.5261],[-72.3802,18.2961,942.9882],[-72.3828,18.3007,879.0242],[-72.3822,18.3025,902.9857],[-72.3728,18.3066,913.1017],[-72.3678,18.315,1081.5554],[-72.3689,18.3185,1282.7332],[-72.3738,18.3238,1262.6924],[-72.3728,18.3359,1466.7617],[-72.3656,18.3387,1640.7488],[-72.3621,18.3429,1616.0542],[-72.3647,18.3498,1855.5938],[-72.3639,18.3551,1818.9677],[-72.3669,18.3571,1574.0917],[-72.3697,18.3663,1439.5607],[-72.3671,18.378,1351.7725],[-72.3707,18.3813,1105.3505],[-72.3796,18.3791,933.7246],[-72.3834,18.38,814.3248],[-72.3838,18.3877,1021.1022],[-72.389,18.3915,1010.5517],[-72.394,18.3917,945.6548],[-72.3963,18.3861,980.2925],[-72.4044,18.3839,807.1675],[-72.4098,18.3787,885.3673],[-72.4271,18.3739,666.6077],[-72.4305,18.3763,705.8126],[-72.435,18.3732,670.2064],[-72.4363,18.3795,888.2103],[-72.4277,18.3949,1220.91],[-72.4221,18.3975,1186.7761],[-72.4235,18.401,1174.6516],[-72.4425,18.399,926.1665],[-72.4452,18.3965,806.0421],[-72.4825,18.4,510.0325],[-72.4984,18.4054,424.4632],[-72.5029,18.4056,634.5211],[-72.5073,18.3988,447.7383],[-72.52,18.3949,720.735],[-72.5223,18.3884,626.2538],[-72.5312,18.3824,550.2043],[-72.5346,18.3707,228.5667],[-72.5509,18.3651,579.0791],[-72.55,18.3587,720.0313],[-72.5536,18.354,646.254],[-72.5527,18.3518,588.2431],[-72.5559,18.3515,626.9849],[-72.5602,18.3546,674.4091],[-72.5636,18.3546,556.2894],[-72.5643,18.3469,320.8626],[-72.5799,18.3526,664.7606],[-72.587,18.352,821.6522],[-72.5962,18.3416,691.5601],[-72.5999,18.3334,664.2857],[-72.6014,18.3241,592.2047],[-72.6082,18.3228,468.2498],[-72.6115,18.3264,409.1129],[-72.6173,18.3387,628.3868],[-72.6223,18.3443,587.6639],[-72.6419,18.3455,477.9005],[-72.6419,18.3305,402.9261],[-72.6436,18.3279,356.5474],[-72.6511,18.3237,268.5196],[-72.6629,18.3253,324.1572],[-72.6653,18.3283,304.1996],[-72.6698,18.33,324.6075],[-72.6824,18.3253,454.0948],[-72.6834,18.322,466.5059],[-72.6929,18.3208,689.8388],[-72.6953,18.3188,711.697],[-72.6971,18.3114,792.467],[-72.6993,18.3086,837.5629],[-72.7034,18.3074,843.3815],[-72.7034,18.3003,706.0645],[-72.7102,18.2937,689.8567],[-72.7055,18.2892,593.2933],[-72.6988,18.2909,485.5896],[-72.6964,18.2896,461.2549],[-72.6906,18.2958,579.415],[-72.6802,18.2919,483.2148],[-72.6718,18.2935,527.912],[-72.6658,18.2973,380.5652],[-72.6628,18.2939,359.9038],[-72.6603,18.2936,336.6018],[-72.6602,18.2952,358.0643],[-72.6584,18.2955,332.5049],[-72.655,18.2946,328.8412],[-72.6542,18.2922,333.0246],[-72.6484,18.2981,234.2483],[-72.6453,18.2993,250.8512],[-72.6308,18.2965,165.9044],[-72.6303,18.2949,206.1348],[-72.6364,18.2855,363.5052],[-72.6531,18.2782,589.0017],[-72.6523,18.2767,658.625],[-72.6493,18.2774,559.0729],[-72.6482,18.2746,634.1296],[-72.6466,18.2755,611.3915],[-72.6419,18.2692,634.4814],[-72.6482,18.2671,699.7172],[-72.6502,18.2642,655.3213],[-72.6395,18.2595,584.9298],[-72.6459,18.2502,401.2313],[-72.6514,18.2454,345.008],[-72.6507,18.2382,281.2954],[-72.6532,18.2361,272.3916],[-72.6508,18.2307,196.2373],[-72.6475,18.2311,214.0474],[-72.6448,18.2258,154.3102],[-72.6426,18.2268,148.6092],[-72.6427,18.2254,152.226],[-72.6409,18.2254,201.3196],[-72.6422,18.2247,152.226],[-72.6404,18.2233,178.8648],[-72.6416,18.2158,112.2148],[-72.6397,18.2142,105.1028],[-72.6386,18.2074,67.6323],[-72.6398,18.2067,76.9533],[-72.6381,18.2038,95.6263],[-72.6389,18.1966,16.2756],[-72.6367,18.1936,8.7195]]]]}
,"properties": {"GID_3": "HTI.9.3.3_1","GID_0": "HTI","country": "Haiti","GID_1": "HTI.9_1","province": "Sud-Est","NL_NAME_1": "NA","GID_2": "HTI.9.3_1","county": "Jacmel","NL_NAME_2": "NA","city": "Jacmel","VARNAME_3": "NA","NL_NAME_3": "NA","TYPE_3": "Commune","ENGTYPE_3": "Commune","CC_3": "NA","HASC_3": "NA","name": "Jacmel.city","area_km2": 496.0527,"hist_schema_id": "Elevation0-9000","hist_area_km2": {"0": 6.8474,"25": 17.52,"50": 21.4052,"75": 11.9403,"100": 12.02,"125": 12.5029,"150": 13.4285,"175": 12.2201,"200": 14.7161,"225": 14.9371,"250": 15.0576,"275": 16.3053,"300": 16.486,"325": 16.7881,"350": 17.5128,"375": 18.8006,"400": 20.0294,"425": 21.499,"450": 24.7611,"475": 23.1097,"500": 18.8615,"525": 18.2173,"550": 16.526,"575": 15.1771,"600": 14.7947,"625": 13.4658,"650": 11.0098,"675": 8.7349,"700": 7.2052,"725": 5.454,"750": 5.2527,"775": 4.7898,"800": 3.6428,"825": 3.2402,"850": 2.6163,"875": 2.0528,"900": 1.7508,"925": 1.5495,"950": 1.489,"975": 0.8854,"1000": 1.308,"1025": 0.9457,"1050": 0.5836,"1075": 0.6842,"1100": 0.5836,"1125": 0.7647,"1150": 0.7647,"1175": 0.5031,"1200": 0.7244,"1225": 0.6439,"1250": 0.5836,"1275": 0.4226,"1300": 0.3421,"1325": 0.2214,"1350": 0.3019,"1375": 0.2415,"1400": 0.2214,"1425": 0.2415,"1450": 0.2415,"1475": 0.2415,"1500": 0.1208,"1525": 0.1207,"1550": 0.0402,"1575": 0.0604,"1600": 0.0604,"1625": 0.0604,"1650": 0.0604,"1675": 0.0402,"1700": 0.0201,"1725": 0.0201,"1750": 0.0201,"1775": 0.0201,"1800": 0.0402,"1825": 0.0402,"1850": 0.0604,"1875": 0.0201,"1900": 0.0201,"1925": 0.0604}}}