{"type":"Feature","properties":{"ISO3166-1-Alpha-3":"BRB","country":"Barbados","fill":"#F0F","id":"1990","name":"Saint Andrew"},
"geometry":{"type": "Polygon","coordinates": [[[-59.54581,13.2438,0.0],[-59.54979,13.24917,0.0],[-59.56896,13.28966,0.0],[-59.56897,13.28967,0.0],[-59.57067,13.28906,2.7646],[-59.57649,13.28885,106.7372],[-59.57788,13.28916,115.1774],[-59.57799,13.28927,115.1774],[-59.57819,13.28927,115.1774],[-59.57985,13.28782,137.0908],[-59.58044,13.28777,137.0908],[-59.58091,13.28782,137.0908],[-59.58124,13.28808,139.1255],[-59.5816,13.28813,139.1255],[-59.58212,13.28828,139.1255],[-59.58261,13.28854,139.1255],[-59.58406,13.28813,150.3144],[-59.58633,13.28684,177.0934],[-59.59059,13.28281,198.2136],[-59.59297,13.28188,188.4604],[-59.59447,13.28172,178.323],[-59.59504,13.28214,168.1882],[-59.5954,13.28224,157.3278],[-59.59566,13.28219,157.3278],[-59.596,13.28214,157.3278],[-59.59628,13.28214,157.3278],[-59.59705,13.28224,157.3278],[-59.59752,13.28219,149.3501],[-59.59793,13.28208,157.7638],[-59.59845,13.28193,157.7638],[-59.59894,13.28193,157.7638],[-59.59977,13.28219,155.1664],[-59.60047,13.28245,155.1664],[-59.60109,13.28276,155.1664],[-59.6014,13.28307,155.1664],[-59.60171,13.28317,145.2907],[-59.60196,13.28327,145.2907],[-59.60225,13.28317,145.2907],[-59.60258,13.28296,145.2907],[-59.60318,13.28276,145.2907],[-59.60413,13.27841,155.4617],[-59.60545,13.27583,159.6342],[-59.60605,13.24209,237.2134],[-59.60103,13.21635,255.2023],[-59.58912,13.21702,288.6369],[-59.58556,13.21573,259.6223],[-59.58098,13.20984,301.1435],[-59.57067,13.2333,82.6606],[-59.56755,13.23821,25.2776],[-59.56698,13.23837,25.2776],[-59.56657,13.23842,25.2776],[-59.5662,13.23837,24.8689],[-59.56595,13.23821,24.8689],[-59.56569,13.238,24.8689],[-59.56535,13.23749,24.8689],[-59.56507,13.23723,24.8689],[-59.56383,13.23666,17.5837],[-59.5608,13.23744,16.7894],[-59.54817,13.24327,28.8522],[-59.54584,13.24379,0.0],[-59.54581,13.2438,0.0]]]}}