{"type":"Feature","properties":{"GID_1":"BRB.2_1","GID_0":"BRB","country":"Barbados","province":"SaintAndrew","VARNAME_1":"NA","NL_NAME_1":"NA","TYPE_1":"Parish","ENGTYPE_1":"Parish","CC_1":"NA","HASC_1":"BB.AN","ISO_1":"BB-02","name":"Saint_Andrew.province"},
"geometry":{"type": "MultiPolygon","coordinates": [[[[-59.5977,13.2154,268.0773],[-59.575,13.2033,188.1265],[-59.5641,13.2182,131.4059],[-59.5412,13.2338,0.0],[-59.549,13.2457,0.0],[-59.5543,13.2501,7.4007],[-59.5576,13.2499,5.6259],[-59.5554,13.2526,0.0],[-59.5607,13.2587,15.3061],[-59.5607,13.266,0.0],[-59.5635,13.2665,3.856],[-59.5635,13.2688,0.0],[-59.566,13.2712,13.9199],[-59.5685,13.2801,2.1514],[-59.5674,13.2846,1.7679],[-59.5715,13.2899,2.7646],[-59.5724,13.2938,0.0],[-59.5946,13.263,230.6088],[-59.6006,13.2361,262.8816],[-59.5977,13.2154,268.0773]]]]}}