{"type": "Feature","bbox": [-66.465,18.2562,-66.3652,18.3779],"geometry": {"type": "MultiPolygon","coordinates": [[[[-66.4556,18.2576,195.3598],[-66.4376,18.2562,284.3066],[-66.4283,18.2606,594.077],[-66.4089,18.2635,675.9507],[-66.3988,18.2688,639.7987],[-66.3909,18.2736,605.9448],[-66.384,18.2903,436.5252],[-66.378,18.2942,268.2917],[-66.3734,18.3013,387.7948],[-66.3725,18.309,291.628],[-66.3652,18.3333,226.205],[-66.3713,18.3381,228.1425],[-66.3713,18.3404,210.5772],[-66.3773,18.3442,181.0452],[-66.3815,18.3423,136.6586],[-66.3861,18.3447,119.6032],[-66.3889,18.3532,115.226],[-66.389,18.3628,90.2788],[-66.3955,18.3718,84.3139],[-66.401,18.3637,76.1945],[-66.4149,18.3722,213.2003],[-66.4182,18.3779,202.236],[-66.4214,18.3779,205.7809],[-66.4288,18.3707,187.3774],[-66.4631,18.3715,263.2535],[-66.4648,18.3524,158.3063],[-66.4546,18.3329,242.4078],[-66.4541,18.3281,248.8304],[-66.4549,18.3,107.4671],[-66.4613,18.2995,80.9784],[-66.465,18.2833,114.7104],[-66.4603,18.2785,166.6753],[-66.4612,18.2766,142.2299],[-66.4579,18.2609,240.4747],[-66.4588,18.26,226.7375],[-66.4556,18.2576,195.3598]]]]}
,"properties": {"GID_1": "PRI.52_1","GID_0": "PRI","country": "PuertoRico","province": "Morovis","VARNAME_1": "NA","NL_NAME_1": "NA","TYPE_1": "Municipio","ENGTYPE_1": "Municipality","CC_1": "NA","HASC_1": "PR.MV","ISO_1": "-","name": "Morovis.province","area_km2": 101.10269,"hist_schema_id": "Elevation0-9000","hist_area_km2": {"75": 1.93231,"100": 3.48192,"125": 5.53456,"150": 14.48982,"175": 15.53692,"200": 10.48603,"225": 8.2322399999999991,"250": 7.80972,"275": 5.27381,"300": 4.00588,"325": 3.44235,"350": 2.51638,"375": 2.43589,"400": 2.29501,"425": 2.27489,"450": 2.27492,"475": 1.71127,"500": 1.81197,"525": 1.65092,"550": 1.22814,"575": 1.18788,"600": 0.6644,"625": 0.38254,"650": 0.32214,"675": 0.1208}}}