{"type":"Feature","properties":{"GID_2":"DOM.17.2_1","GID_0":"DOM","country":"DominicanRepublic","GID_1":"DOM.17_1","province":"MonteCristi","NL_NAME_1":"NA","county":"Guayubín","VARNAME_2":"NA","NL_NAME_2":"NA","TYPE_2":"Municipio","ENGTYPE_2":"Municipality","CC_2":"NA","HASC_2":"DO.MC.GU","name":"Guayubín.county"},
"geometry":{"type": "MultiPolygon","coordinates": [[[[-71.4157,19.5265,97.1388],[-71.4118,19.5277,96.63],[-71.4093,19.533,83.0566],[-71.4055,19.5364,84.8373],[-71.4033,19.5431,62.193],[-71.4044,19.5508,69.0436],[-71.3988,19.5545,74.1531],[-71.3889,19.5545,86.1369],[-71.3837,19.5498,96.6526],[-71.3736,19.5465,110.1806],[-71.3596,19.5491,128.8859],[-71.342,19.5458,156.7856],[-71.3363,19.5409,148.7779],[-71.3306,19.5387,176.388],[-71.3267,19.5409,170.4218],[-71.3218,19.5467,190.4574],[-71.32,19.5516,235.308],[-71.3217,19.5603,274.207],[-71.3191,19.5624,274.8187],[-71.3071,19.5593,270.2872],[-71.301,19.5524,205.0522],[-71.2862,19.548,300.4704],[-71.2812,19.543,314.603],[-71.2678,19.5363,331.8283],[-71.259,19.5292,266.6618],[-71.2471,19.5236,216.7554],[-71.2386,19.525,258.3571],[-71.2218,19.5178,256.8128],[-71.2125,19.5332,294.8216],[-71.2068,19.5385,266.1281],[-71.2027,19.5396,297.3559],[-71.1984,19.538,294.8672],[-71.1925,19.5288,160.2398],[-71.1784,19.5238,331.1549],[-71.1723,19.5419,182.7539],[-71.1648,19.5509,134.5529],[-71.1613,19.5647,107.6212],[-71.1648,19.5785,82.577],[-71.1695,19.5855,73.7944],[-71.1706,19.5956,64.4917],[-71.174,19.6017,59.3808],[-71.1784,19.6055,55.2318],[-71.1787,19.6085,53.9067],[-71.1738,19.6142,49.6878],[-71.1717,19.6204,48.9586],[-71.1605,19.6167,49.69],[-71.1521,19.6227,48.1937],[-71.1506,19.6352,50.1539],[-71.1521,19.6436,46.5671],[-71.1494,19.6527,48.3781],[-71.1575,19.6637,66.9234],[-71.1583,19.6731,89.1317],[-71.1572,19.6778,98.0241],[-71.1526,19.6815,100.5988],[-71.1497,19.6874,112.7113],[-71.1546,19.6956,144.1199],[-71.1549,19.6986,145.2521],[-71.1497,19.7066,166.1161],[-71.1458,19.7273,259.8171],[-71.1395,19.7399,437.0675],[-71.1334,19.7448,404.269],[-71.1225,19.745,586.9713],[-71.1207,19.7506,541.1084],[-71.1224,19.7546,437.4615],[-71.1259,19.7564,500.0226],[-71.157,19.7565,506.3673],[-71.1666,19.7592,478.0022],[-71.1802,19.7597,396.223],[-71.1935,19.7671,557.9104],[-71.2055,19.7714,340.8707],[-71.2162,19.7787,378.4567],[-71.221,19.7894,337.2231],[-71.2283,19.7915,285.5158],[-71.2287,19.7937,263.1815],[-71.2243,19.8007,119.1527],[-71.2372,19.8042,96.9197],[-71.2464,19.8216,34.7681],[-71.2485,19.8293,0.0],[-71.2596,19.8304,3.5428],[-71.2599,19.8329,0.0],[-71.2676,19.8316,3.8873],[-71.2729,19.8329,2.5035],[-71.2768,19.836,0.0],[-71.2804,19.834,0.0],[-71.2824,19.8351,3.7712],[-71.2815,19.8379,1.2582],[-71.2901,19.840699999999998,5.4607],[-71.2904,19.8421,1.8734],[-71.2888,19.8427,0.0],[-71.2907,19.8455,0.0],[-71.2974,19.8454,3.4543],[-71.3001,19.849,0.0],[-71.309,19.8482,3.8703],[-71.3118,19.8497,2.3063],[-71.3132,19.8463,2.5104],[-71.3159,19.8496,0.0],[-71.3179,19.8493,1.485],[-71.3165,19.8482,0.0],[-71.3176,19.8471,0.0],[-71.324,19.849,0.0],[-71.3251,19.8474,0.0],[-71.3285,19.8471,0.0],[-71.3299,19.8487,3.1771],[-71.3354,19.8482,4.785],[-71.3421,19.8504,1.3899],[-71.3468,19.8496,1.9188],[-71.3515,19.8526,0.7012],[-71.3653,19.8557,0.0],[-71.3564,19.8511,3.1946],[-71.3335,19.845,9.4625],[-71.3342,19.8396,37.2854],[-71.3432,19.8165,193.89],[-71.355,19.8079,204.775],[-71.362,19.8006,281.6009],[-71.3598,19.7946,239.8057],[-71.3549,19.7885,185.7392],[-71.3546,19.7811,216.9233],[-71.3624,19.7722,226.3528],[-71.3656,19.766,191.3466],[-71.3669,19.758,104.9455],[-71.3714,19.7491,73.9066],[-71.3705,19.7431,80.3812],[-71.3723,19.7389,73.5207],[-71.3806,19.7322,66.0111],[-71.3882,19.7147,55.2334],[-71.3979,19.708,42.5685],[-71.4032,19.702,31.0092],[-71.4124,19.6969,29.6797],[-71.4165,19.6912,28.085],[-71.4238,19.6906,24.6889],[-71.4219,19.6855,26.1946],[-71.4153,19.6797,28.1469],[-71.4128,19.6746,28.844],[-71.4075,19.6746,31.8676],[-71.4028,19.671,28.1985],[-71.396,19.6705,36.3649],[-71.3984,19.6765,30.9802],[-71.3966,19.679,29.2164],[-71.388,19.678,53.3863],[-71.3846,19.669,38.0974],[-71.3867,19.668,39.8237],[-71.39,19.6705,35.8125],[-71.393,19.6705,31.1896],[-71.3901,19.659,32.0049],[-71.3903,19.6488,49.7235],[-71.4015,19.6404,40.368],[-71.4254,19.6307,65.5667],[-71.4392,19.6207,83.9755],[-71.441,19.6039,93.2708],[-71.4459,19.5935,118.7504],[-71.4295,19.5824,83.2081],[-71.4287,19.5772,88.7225],[-71.4401,19.5674,105.863],[-71.4492,19.5659,109.517],[-71.4553,19.5613,137.1194],[-71.4559,19.5542,159.5672],[-71.4503,19.5552,139.922],[-71.4457,19.554,96.2275],[-71.4438,19.5513,100.6636],[-71.4425,19.542,87.7151],[-71.4272,19.5403,78.1303],[-71.4233,19.5332,72.0119],[-71.4157,19.5265,97.1388]]]]}}