{"type":"Feature","properties":{"GID_1":"PRI.22_1","GID_0":"PRI","country":"PuertoRico","province":"Coamo","VARNAME_1":"NA","NL_NAME_1":"NA","TYPE_1":"Municipio","ENGTYPE_1":"Municipality","CC_1":"NA","HASC_1":"PR.CO","ISO_1":"-","name":"Coamo.province"},
"geometry":{"type": "MultiPolygon","coordinates": [[[[-66.3147,18.1518,711.903],[-66.323,18.1571,678.4072],[-66.3221,18.1642,629.3993],[-66.3309,18.1685,649.408],[-66.3466,18.1675,743.9183],[-66.3512,18.1655,777.1639],[-66.3646,18.1698,824.5946],[-66.373,18.1755,838.8322],[-66.378,18.1726,821.782],[-66.3891,18.1721,849.3772],[-66.3919,18.1663,823.585],[-66.4011,18.1649,841.9665],[-66.4057,18.1658,771.9792],[-66.4099,18.1629,766.9445],[-66.421,18.1662,810.3778],[-66.4238,18.1719,851.6613],[-66.4358,18.1757,806.5039],[-66.4446,18.1766,979.1349],[-66.4288,18.1647,600.7795],[-66.4293,18.1566,386.3807],[-66.4195,18.1457,342.8093],[-66.4213,18.1361,325.7182],[-66.4245,18.1323,306.7234],[-66.4305,18.1151,613.9682],[-66.4216,18.0975,329.3025],[-66.429,18.0913,219.4103],[-66.4303,18.087,198.1747],[-66.4275,18.0717,122.6445],[-66.4316,18.0636,144.5396],[-66.4242,18.0526,86.5853],[-66.4269,18.0426,77.8017],[-66.395,18.0375,120.7653],[-66.3881,18.0404,95.7436],[-66.3715,18.0328,67.152],[-66.3563,18.0367,172.7304],[-66.3484,18.0267,146.8917],[-66.3405,18.0229,119.5377],[-66.3359,18.0229,112.2279],[-66.3313,18.0148,78.8351],[-66.3189,18.0297,136.562],[-66.3152,18.0297,180.8552],[-66.3124,18.0335,161.2935],[-66.3129,18.0435,193.3342],[-66.3097,18.0478,232.2975],[-66.3037,18.0507,256.3903],[-66.2977,18.0569,321.6105],[-66.2853,18.0594,399.5765],[-66.2789,18.0694,463.7668],[-66.2692,18.069,520.9316],[-66.2581,18.0747,585.078],[-66.26,18.0828,443.0985],[-66.2627,18.0857,349.1312],[-66.2692,18.0861,296.3705],[-66.2771,18.0957,339.2666],[-66.2951,18.1061,456.0459],[-66.3206,18.1261,680.3585],[-66.3128,18.1375,673.5453],[-66.3169,18.1399,702.8477],[-66.3147,18.1518,711.903]]]]}}