{"type": "Feature","bbox": [-61.1857,14.6774,-61.1273,14.7322],"geometry": {"type": "MultiPolygon","coordinates": [[[[-61.1498,14.6909,287.5509],[-61.154,14.6934,122.866],[-61.159,14.7022,292.7847],[-61.1558,14.7136,129.4195],[-61.1273,14.7209,476.1466],[-61.1478,14.7241,349.0418],[-61.1578,14.7322,312.033],[-61.1612,14.7293,262.9811],[-61.1666,14.7317,175.1934],[-61.175,14.7299,101.8701],[-61.1796,14.7306,8.4082],[-61.1857,14.7096,0.6399],[-61.1801,14.6968,0.0],[-61.1801,14.6926,0.0],[-61.1782,14.6918,0.0],[-61.1729,14.6821,0.0],[-61.1693,14.6774,12.23],[-61.1569,14.6876,189.2342],[-61.1498,14.6909,287.5509]]]]}
,"properties": {"GID_2": "MTQ.4.4_1","GID_0": "MTQ","country": "Martinique","GID_1": "MTQ.4_1","province": "Saint-Pierre","NL_NAME_1": "NA","county": "LeCarbet","VARNAME_2": "NA","NL_NAME_2": "NA","TYPE_2": "Commune","ENGTYPE_2": "Commune","CC_2": "NA","HASC_2": "MQ.SP.CA","name": "Le_Carbet.county","area_km2": 16.85705,"hist_schema_id": "Elevation0-9000","hist_area_km2": {"0": 0.7588,"25": 1.02538,"50": 1.39451,"75": 1.80467,"100": 1.70212,"125": 1.80468,"150": 1.66109,"175": 1.45604,"200": 1.04587,"225": 1.02536,"250": 0.92282,"275": 0.6152,"300": 0.49216,"325": 0.18456,"350": 0.18455,"375": 0.24607,"400": 0.16405,"425": 0.18456,"450": 0.12304,"475": 0.04101,"525": 0.02051}}}