{"type":"Feature","properties":{"GID_2":"GLP.1.10_1","GID_0":"GLP","country":"Guadeloupe","GID_1":"GLP.1_1","province":"Basse-Terre","NL_NAME_1":"NA","county":"Petit-Bourg","VARNAME_2":"NA","NL_NAME_2":"NA","TYPE_2":"Chef-lieucanton","ENGTYPE_2":"Commune","CC_2":"92","HASC_2":"NA","name":"Petit-Bourg.county"},
"geometry":{"type": "MultiPolygon","coordinates": [[[[-61.6484,16.213,109.4471],[-61.6657,16.2073,118.0613],[-61.6694,16.2012,159.1723],[-61.6911,16.2022,256.3875],[-61.7056,16.1917,425.9052],[-61.72,16.1918,551.3061],[-61.7266,16.1891,621.9045],[-61.7364,16.1807,599.0792],[-61.7309,16.1679,545.0213],[-61.7296,16.1542,699.9257],[-61.7252,16.1489,801.2277],[-61.7242,16.1352,1036.1564],[-61.7173,16.1334,964.0391],[-61.7114,16.118,861.5033],[-61.7011,16.1195,1069.599],[-61.6807,16.1149,1029.4512],[-61.6721,16.1089,1013.2924],[-61.6695,16.1026,1096.3838],[-61.6534,16.13,477.1147],[-61.6403,16.136,325.9272],[-61.631,16.1467,256.5092],[-61.6049,16.1596,54.6509],[-61.584,16.1616,8.303],[-61.5849,16.1688,2.4552],[-61.5835,16.1715,9.012],[-61.5793,16.1732,0.9498],[-61.5801,16.1785,0.0],[-61.5812,16.1799,3.4595],[-61.5863,16.1801,4.2229],[-61.586,16.1829,2.9221],[-61.5887,16.1854,8.0067],[-61.5904,16.1929,0.0],[-61.5885,16.1982,0.0],[-61.5832,16.204,25.9708],[-61.5876,16.2079,15.2132],[-61.586,16.2151,5.3548],[-61.5887,16.216,10.6609],[-61.589,16.2185,0.0],[-61.5832,16.2343,4.6203],[-61.5973,16.2349,14.4464],[-61.6182,16.2227,34.4814],[-61.6484,16.213,109.4471]]]]}}