{"type": "Feature","id": "5033","bbox": [-75.35261,22.85993,-74.83202,23.68598],"geometry": {"type": "Polygon","coordinates": [[[-74.85912,22.98029,12.7755],[-74.8546,22.98526,0.0],[-74.84911,22.99502,0.0],[-74.84484,23.00015,0.0],[-74.90966,23.06733,0.0],[-74.94636,23.09374,0.0],[-75.03161,23.12336,0.0],[-75.05997,23.14167,2.842],[-75.07689,23.1717,14.9915],[-75.08503,23.21988,0.0],[-75.08511,23.26406,6.5116],[-75.08772,23.28579,0.0],[-75.09557,23.29499,3.272],[-75.09406,23.30532,0.0],[-75.15323,23.4112,0.0],[-75.17073,23.4291,3.3418],[-75.18273,23.44644,0.0],[-75.19489,23.51411,0.0],[-75.20458,23.53335,0.0],[-75.2213,23.55606,0.0],[-75.23933,23.5751,0.0],[-75.25292,23.58295,0.0],[-75.31159,23.67235,0.0],[-75.31583,23.67748,0.0],[-75.3203,23.68163,0.0],[-75.32535,23.68452,0.0],[-75.33141,23.68598,0.0],[-75.33043,23.66767,19.1284],[-75.33458,23.65314,0.0],[-75.3424,23.64142,0.0],[-75.35261,23.63142,0.0],[-75.35261,23.62397,0.0],[-75.34032,23.6308,3.413],[-75.33235,23.64151,2.0489],[-75.32413,23.64867,2.1287],[-75.31159,23.64501,-0.1341],[-75.31786,23.64155,0.108],[-75.32201,23.63719,0.1873],[-75.33141,23.62397,0.3049],[-75.31045,23.63939,0.432],[-75.30476,23.62495,0.0],[-75.31159,23.57681,2.5681],[-75.30016,23.58047,0.0],[-75.29304,23.58544,0.0],[-75.28649,23.58763,0.0],[-75.27684,23.58295,0.0681],[-75.25634,23.53514,0.0],[-75.25007,23.49018,0.0],[-75.2425,23.47431,0.0],[-75.22224,23.45946,0.0],[-75.22688,23.44725,7.8792],[-75.22057,23.43976,7.6164],[-75.20836,23.43525,3.5859],[-75.19489,23.43211,4.5248],[-75.19689,23.41014,4.9769],[-75.15905,23.3806,0.0],[-75.16076,23.357,1.9898],[-75.15005,23.36616,0.5541],[-75.14647,23.37075,0.0],[-75.13166,23.35578,0.0],[-75.12035,23.33194,18.2177],[-75.11376,23.30508,9.6994],[-75.11295,23.28132,0.0],[-75.11832,23.26512,0.0],[-75.12743,23.24925,0.8627],[-75.13585,23.2298,0.0],[-75.13964,23.20283,0.1492],[-75.13219,23.18598,-0.0299],[-75.0751,23.12739,0.0],[-75.06847,23.11664,0.0],[-75.07868,23.11367,0.0],[-75.09484,23.11498,0.0],[-75.10611,23.1175,0.0],[-75.11522,23.12238,0.0],[-75.13427,23.13727,0.0],[-75.14647,23.14476,0.0],[-75.15831,23.14419,0.0],[-75.17028,23.14997,0.1061],[-75.18057,23.15986,-0.4102],[-75.18741,23.17145,-0.3625],[-75.17907,23.16861,0.0],[-75.15331,23.16523,0.0],[-75.16356,23.17902,0.0],[-75.19172,23.1918,0.0],[-75.20173,23.20624,0.0],[-75.20792,23.20624,0.0],[-75.21581,23.19823,0.0],[-75.22204,23.19009,0.0],[-75.22671,23.18122,0.0],[-75.22964,23.17145,0.0],[-75.21398,23.16547,0.0],[-75.14257,23.12368,0.0],[-75.12975,23.114,0.0],[-75.10489,23.09955,0.3891],[-74.99055,23.07856,8.406],[-74.97802,23.07294,14.1687],[-74.96764,23.06387,0.1537],[-74.93391,23.0257,0.0],[-74.92443,23.0117,0.0],[-74.91405,22.97085,0.0],[-74.88549,22.92381,1.8602],[-74.87898,22.89777,0.0],[-74.86905,22.90217,3.5095],[-74.86535,22.90453,3.6512],[-74.85806,22.87055,7.1305],[-74.85228,22.86359,12.1803],[-74.83996,22.85993,0.0],[-74.83397,22.86433,0.0],[-74.83202,22.87495,6.2452],[-74.8334,22.91413,0.0],[-74.83845,22.9444,0.0],[-74.84704,22.97012,0.0],[-74.85912,22.98029,12.7755]]]}
,"properties": {"ISO3166-1-Alpha-3": "BHS","country": "The Bahamas","fill": "#F0F","name": "Long Island","area_km2": 459.4428,"hist_schema_id": "Elevation0-9000","hist_area_km2": {"0": 396.7186,"25": 62.0615,"50": 0.6627}}}