{"type": "Feature","bbox": [-70.9736,18.3676,-70.8011,18.4653],"geometry": {"type": "MultiPolygon","coordinates": [[[[-70.8189,18.4585,104.8636],[-70.8307,18.4522,92.0324],[-70.8355,18.4517,93.4687],[-70.8738,18.4653,121.4273],[-70.8757,18.4621,117.0727],[-70.873,18.455,98.5879],[-70.8728,18.446,81.415],[-70.8702,18.4429,75.8422],[-70.8713,18.4409,75.1283],[-70.8842,18.446,85.9977],[-70.8956,18.446,96.629],[-70.8988,18.4431,109.2106],[-70.8979,18.438,85.3764],[-70.8994,18.4357,86.0641],[-70.9141,18.4345,125.6371],[-70.9168,18.4318,142.4967],[-70.9187,18.4242,139.1741],[-70.9383,18.416,199.4094],[-70.942,18.4168,186.9732],[-70.948,18.4237,208.7276],[-70.9557,18.4235,213.1729],[-70.9673,18.4069,324.5742],[-70.9734,18.395,479.9788],[-70.9736,18.3805,877.1925],[-70.9692,18.3701,1056.0931],[-70.9629,18.37,1098.5134],[-70.959,18.3676,1033.076],[-70.9484,18.3736,703.7589],[-70.9403,18.3814,416.6837],[-70.9342,18.384,303.3246],[-70.9171,18.3871,160.5486],[-70.9094,18.3867,133.4727],[-70.895,18.3816,81.3422],[-70.8848,18.3833,63.2804],[-70.8675,18.3785,34.0688],[-70.8554,18.3838,29.1374],[-70.8366,18.3837,22.2444],[-70.8267,18.3802,18.4454],[-70.8243,18.3762,13.6667],[-70.8203,18.3751,10.8838],[-70.8057,18.3812,7.6918],[-70.8015,18.3888,9.4051],[-70.8011,18.4096,30.4646],[-70.8057,18.4184,40.5683],[-70.816,18.4297,57.9237],[-70.8161,18.4379,69.4625],[-70.8135,18.4464,84.2624],[-70.8189,18.4585,104.8636]]]]}
,"properties": {"GID_2": "DOM.1.9_1","GID_0": "DOM","country": "DominicanRepublic","GID_1": "DOM.1_1","province": "Azua","NL_NAME_1": "NA","county": "SabanaYegua","VARNAME_2": "NA","NL_NAME_2": "NA","TYPE_2": "Distritomunicipal","ENGTYPE_2": "Municipaldistrict","CC_2": "NA","HASC_2": "DO.AZ.SY","name": "Sabana_Yegua.county","area_km2": 113.80146,"hist_schema_id": "Elevation0-9000","hist_area_km2": {"0": 2.05224,"25": 17.54357,"50": 24.18012,"75": 21.70403,"100": 15.14663,"125": 5.89415,"150": 4.62698,"175": 2.8567,"200": 2.67566,"225": 3.05788,"250": 2.47451,"275": 1.58936,"300": 1.18701,"325": 0.90535,"350": 0.70417,"375": 0.76453,"400": 0.34203,"425": 0.44263,"450": 0.42252,"475": 0.42252,"500": 0.22132,"525": 0.18108,"550": 0.16096,"575": 0.18108,"600": 0.24144,"625": 0.16096,"650": 0.22132,"675": 0.28169,"700": 0.22133,"725": 0.30181,"750": 0.24145,"775": 0.12072,"800": 0.26157,"825": 0.20121,"850": 0.18109,"875": 0.16097,"900": 0.10061,"925": 0.14085,"950": 0.20121,"975": 0.18109,"1000": 0.18109,"1025": 0.14085,"1050": 0.14085,"1075": 0.16097,"1100": 0.10061,"1125": 0.12073}}}