{"type": "Feature","bbox": [-71.9155,18.7635,-71.7155,18.9741],"geometry": {"type": "MultiPolygon","coordinates": [[[[-71.8048,18.7812,1153.3087],[-71.8004,18.7845,1078.2034],[-71.7947,18.7817,1140.6],[-71.7908,18.7781,1113.6938],[-71.7851,18.7657,1207.7103],[-71.7824,18.7635,1058.0065],[-71.7781,18.7664,1077.4556],[-71.7703,18.7653,993.3927],[-71.7677,18.7677,1180.2568],[-71.7599,18.765,1104.2096],[-71.7581,18.767,1172.8408],[-71.7592,18.77,1274.1803],[-71.7574,18.7724,1386.5255],[-71.7431,18.7738,1510.1975],[-71.7244,18.7718,1557.3145],[-71.7171,18.8084,1099.9644],[-71.7171,18.8298,831.4503],[-71.7155,18.8371,862.5917],[-71.7211,18.8457,699.5629],[-71.7211,18.8531,610.4576],[-71.7203,18.8791,375.1381],[-71.7172,18.883,366.2326],[-71.7184,18.885,361.9448],[-71.7219,18.8811,369.8377],[-71.7325,18.8822,406.9536],[-71.7313,18.8896,399.2825],[-71.7345,18.895,377.3714],[-71.7392,18.897,374.3947],[-71.7561,18.9101,361.701],[-71.7635,18.9109,367.6228],[-71.7785,18.9521,239.3019],[-71.777,18.9583,262.6803],[-71.7844,18.9602,271.9431],[-71.7864,18.9622,269.9765],[-71.7899,18.9567,236.2751],[-71.7919,18.9575,248.4989],[-71.7919,18.9602,254.7261],[-71.7993,18.9583,241.8412],[-71.7985,18.9614,246.178],[-71.804,18.9641,261.096],[-71.808,18.9629,249.3868],[-71.808,18.9668,247.5327],[-71.8099,18.9687,253.2153],[-71.8135,18.9668,251.9575],[-71.8221,18.9676,227.5765],[-71.8174,18.9722,264.2252],[-71.8182,18.9734,264.2252],[-71.8201,18.9714,252.2446],[-71.8229,18.9722,264.3806],[-71.8288,18.9668,213.9114],[-71.8323,18.9741,262.6247],[-71.835,18.9734,247.8968],[-71.8362,18.9701,202.6548],[-71.8395,18.9692,218.2953],[-71.8407,18.9662,205.9241],[-71.8456,18.9667,233.2547],[-71.8444,18.964,229.5687],[-71.8462,18.9621,204.4658],[-71.8499,18.9629,205.1599],[-71.8489,18.9606,199.4398],[-71.8508,18.9589,196.2047],[-71.8503,18.9613,194.9877],[-71.855,18.9667,239.7693],[-71.857,18.9667,243.9974],[-71.8558,18.9628,206.5956],[-71.8578,18.962,190.6073],[-71.8586,18.9582,218.37],[-71.857,18.9566,210.9104],[-71.857,18.9508,207.5987],[-71.8644,18.95,200.9941],[-71.8711,18.9527,212.9753],[-71.8719,18.9488,186.405],[-71.8762,18.9484,178.1381],[-71.8763,18.9455,175.0966],[-71.8797,18.9417,188.1651],[-71.8831,18.9426,172.8873],[-71.8861,18.9292,175.8811],[-71.8909,18.9171,179.2152],[-71.89,18.9122,172.7885],[-71.887,18.9107,172.583],[-71.8832,18.9131,172.5941],[-71.8854,18.9055,215.107],[-71.9058,18.8915,189.1613],[-71.9058,18.8878,173.0608],[-71.9144,18.8862,171.7475],[-71.9155,18.8798,171.0],[-71.9114,18.8804,171.5824],[-71.9057,18.8747,170.5],[-71.9019,18.8737,170.5],[-71.8906,18.8794,170.5],[-71.8927,18.8755,170.5],[-71.8886,18.8738,205.2852],[-71.8915,18.8708,209.0859],[-71.8991,18.8677,173.3806],[-71.9028,18.8639,173.3555],[-71.9034,18.8534,209.8405],[-71.8921,18.8333,279.357],[-71.8755,18.8238,343.7635],[-71.8738,18.8197,450.2354],[-71.8673,18.8143,677.5507],[-71.8688,18.8016,577.0825],[-71.8572,18.7849,915.4138],[-71.8485,18.7919,643.0736],[-71.8427,18.7931,533.3234],[-71.8377,18.7885,587.4613],[-71.8292,18.7909,838.5713],[-71.8206,18.7968,1006.2324],[-71.8176,18.7965,1020.3576],[-71.8164,18.7931,1032.6744],[-71.8201,18.788,973.0513],[-71.819,18.7851,997.7093],[-71.8143,18.7832,1179.9194],[-71.8113,18.7799,1197.2085],[-71.8048,18.7812,1153.3087]]]]}
,"properties": {"GID_3": "HTI.1.3.1_1","GID_0": "HTI","country": "Haiti","GID_1": "HTI.1_1","province": "Centre","NL_NAME_1": "NA","GID_2": "HTI.1.3_1","county": "Lascahobas","NL_NAME_2": "NA","city": "Belladère","VARNAME_3": "NA","NL_NAME_3": "NA","TYPE_3": "Commune","ENGTYPE_3": "Commune","CC_3": "NA","HASC_3": "NA","name": "Belladère.city","area_km2": 318.2039,"hist_schema_id": "Elevation0-9000","hist_area_km2": {"175": 11.0731,"200": 22.9282,"225": 30.5506,"250": 26.7789,"275": 22.1463,"300": 24.3942,"325": 23.3308,"350": 18.9171,"375": 16.8713,"400": 13.2408,"425": 8.2059,"450": 5.3974,"475": 3.6118,"500": 2.8696,"525": 2.3278,"550": 2.3278,"575": 2.6289,"600": 3.0503,"625": 2.8496,"650": 2.6289,"675": 3.0103,"700": 2.9702,"725": 2.8297,"750": 2.5688,"775": 2.4484,"800": 2.1273,"825": 2.3481,"850": 1.9868,"875": 2.308,"900": 2.6091,"925": 3.0907,"950": 3.5123,"975": 3.3718,"1000": 3.111,"1025": 4.0745,"1050": 3.4523,"1075": 4.3154,"1100": 3.5929,"1125": 2.2682,"1150": 2.0876,"1175": 1.6861,"1200": 1.6058,"1225": 1.4854,"1250": 1.646,"1275": 1.2044,"1300": 1.2646,"1325": 0.9033,"1350": 0.8632,"1375": 0.803,"1400": 0.5821,"1425": 0.4416,"1450": 0.3814,"1475": 0.3613,"1500": 0.4216,"1525": 0.2208,"1550": 0.1004,"1575": 0.0201}}}