{"type": "Feature","id": "5103","bbox": [-62.61255,17.13839,-62.53696,17.20295],"geometry": {"type": "Polygon","coordinates": [[[-62.53696,17.13839,0.0],[-62.53726,17.1529,0.0],[-62.53844,17.16193,0.0],[-62.5465,17.18378,0.0],[-62.56037,17.19672,0.0],[-62.57844,17.20254,9.5239],[-62.59923,17.20295,11.9494],[-62.61255,17.18913,30.9069],[-62.59549,17.17729,194.7214],[-62.57862,17.1455,533.2217],[-62.5624,17.15004,209.2617],[-62.54878,17.1455,67.8021],[-62.53696,17.13839,0.0]]]}
,"properties": {"ISO3166-1-Alpha-3": "KNA","country": "Saint Kitts and Nevis","fill": "#FF0","name": "Saint James Windward","area_km2": 32.53242,"hist_schema_id": "Elevation0-9000","hist_area_km2": {"0": 2.83601,"25": 4.0714,"50": 2.99791,"75": 2.45097,"100": 2.36999,"125": 2.14715,"150": 2.41049,"175": 1.55976,"200": 1.51926,"225": 1.25593,"250": 1.11413,"275": 1.03313,"300": 0.72927,"325": 0.62799,"350": 0.83059,"375": 0.42542,"400": 0.46594,"425": 0.54698,"450": 0.44569,"475": 0.32414,"500": 0.32414,"525": 0.40518,"550": 0.2431,"575": 0.18233,"600": 0.22284,"625": 0.10129,"650": 0.14181,"675": 0.08103,"700": 0.10129,"725": 0.08104,"750": 0.14181,"775": 0.14181,"800": 0.04052,"825": 0.04052,"850": 0.04052,"875": 0.04052,"900": 0.04052}}}