{"type":"Feature","properties":{"GID_1":"KNA.5_1","GID_0":"KNA","country":"SaintKittsandNevis","province":"SaintJamesWindward","VARNAME_1":"NA","NL_NAME_1":"NA","TYPE_1":"Parish","ENGTYPE_1":"Parish","CC_1":"NA","HASC_1":"KN.JW","ISO_1":"KN-05","name":"Saint_James_Windward.province"},
"geometry":{"type": "MultiPolygon","coordinates": [[[[-62.5396,17.1415,0.0],[-62.5393,17.1457,0.6008],[-62.5418,17.149,1.2481],[-62.5424,17.1535,15.5297],[-62.5415,17.1593,0.0],[-62.5443,17.1671,3.4854],[-62.5443,17.1787,0.0],[-62.5468,17.1835,6.261],[-62.5551,17.191,0.0],[-62.5549,17.1946,0.0],[-62.5676,17.1957,2.9033],[-62.5724,17.2029,0.0],[-62.5796,17.2076,0.3716],[-62.589,17.2062,3.674],[-62.5907,17.2079,0.9667],[-62.5999,17.2046,4.2314],[-62.6082,17.206,0.0],[-62.6126,17.2035,0.0],[-62.611,17.2004,1.8331],[-62.614,17.1968,13.2449],[-62.6004,17.1819,129.3915],[-62.5834,17.1534,818.4697],[-62.5644,17.1518,229.0386],[-62.5596,17.1489,192.8243],[-62.5513,17.1481,86.0874],[-62.5473,17.1444,53.6361],[-62.5436,17.1443,18.0079],[-62.5396,17.1415,0.0]]]]}}