{"type": "Feature","bbox": [-61.771,16.0345,-61.6635,16.1352],"geometry": {"type": "MultiPolygon","coordinates": [[[[-61.6841,16.0895,1314.8245],[-61.6781,16.0919,1254.8108],[-61.6683,16.0902,1053.7328],[-61.6635,16.0946,1216.9718],[-61.6721,16.1089,1013.2924],[-61.6807,16.1149,1029.4512],[-61.7011,16.1195,1069.599],[-61.7114,16.118,861.5033],[-61.7173,16.1334,964.0391],[-61.7242,16.1352,1036.1564],[-61.7314,16.1277,891.2272],[-61.7333,16.1142,533.2691],[-61.7491,16.107,412.0997],[-61.7699,16.0868,2.6969],[-61.7693,16.0846,0.0],[-61.7679,16.0846,6.0526],[-61.7679,16.0815,2.5176],[-61.7696,16.0799,1.3671],[-61.7687,16.0715,0.0],[-61.771,16.0618,0.0],[-61.7687,16.0554,0.0],[-61.7657,16.0524,24.8767],[-61.7651,16.049,8.9479],[-61.7618,16.0476,33.8741],[-61.7565,16.0399,0.0],[-61.7549,16.0401,6.5951],[-61.7543,16.0362,0.0],[-61.751,16.0345,11.647],[-61.7383,16.0406,181.2599],[-61.7306,16.0561,374.5671],[-61.7212,16.0665,547.4424],[-61.709,16.0734,901.463],[-61.6951,16.0766,1117.6638],[-61.6841,16.0895,1314.8245]]]]}
,"properties": {"GID_2": "GLP.1.18_1","GID_0": "GLP","country": "Guadeloupe","GID_1": "GLP.1_1","province": "Basse-Terre","NL_NAME_1": "NA","county": "Vieux-Habitants","VARNAME_2": "NA","NL_NAME_2": "NA","TYPE_2": "Chef-lieucanton","ENGTYPE_2": "Commune","CC_2": "36","HASC_2": "NA","name": "Vieux-Habitants.county","area_km2": 60.3214,"hist_schema_id": "Elevation0-9000","hist_area_km2": {"0": 1.69105,"25": 2.40415,"50": 2.01707,"75": 2.03741,"100": 1.5077,"125": 1.69108,"150": 1.58916,"175": 1.54843,"200": 1.24278,"225": 1.58911,"250": 1.36501,"275": 1.50759,"300": 1.36496,"325": 1.60942,"350": 1.71126,"375": 1.26306,"400": 1.5075,"425": 1.44637,"450": 1.46674,"475": 1.16118,"500": 1.38523,"525": 0.91669,"550": 1.22227,"575": 1.28336,"600": 0.95743,"625": 1.22223,"650": 1.12039,"675": 1.34445,"700": 1.22221,"725": 1.28334,"750": 1.38518,"775": 1.58888,"800": 1.16111,"825": 1.42592,"850": 1.20183,"875": 1.18147,"900": 1.05927,"925": 1.03891,"950": 0.93706,"975": 1.01853,"1000": 0.79446,"1025": 0.85558,"1050": 0.6315,"1075": 0.52965,"1100": 0.57041,"1125": 0.38707,"1150": 0.20371,"1175": 0.1426,"1200": 0.16297,"1225": 0.10186,"1250": 0.06111,"1275": 0.16297,"1300": 0.02037,"1325": 0.02037}}}