{"type":"Feature","properties":{"GID_2":"DOM.27.4_1","GID_0":"DOM","country":"DominicanRepublic","GID_1":"DOM.27_1","province":"SanPedrodeMacorís","NL_NAME_1":"NA","county":"Quisquella","VARNAME_2":"Quisqueya","NL_NAME_2":"NA","TYPE_2":"Distritomunicipal","ENGTYPE_2":"Municipaldistrict","CC_2":"NA","HASC_2":"DO.PM.QQ","name":"Quisquella.county"},
"geometry":{"type": "MultiPolygon","coordinates": [[[[-69.3745,18.5837,25.9881],[-69.3848,18.5835,19.8201],[-69.3965,18.5797,28.977],[-69.4128,18.5908,30.0555],[-69.4155,18.5955,21.7549],[-69.417,18.6041,10.028],[-69.4222,18.6089,20.0763],[-69.4257,18.6086,20.3724],[-69.4297,18.6054,17.4903],[-69.4333,18.6007,18.8677],[-69.435,18.5934,21.6942],[-69.4415,18.5896,22.2004],[-69.445,18.5923,24.147],[-69.4473,18.6003,21.4294],[-69.4634,18.6018,30.6869],[-69.4833,18.6125,36.8737],[-69.4914,18.6125,34.9318],[-69.4935,18.61,34.1441],[-69.493,18.5966,31.7519],[-69.4817,18.5707,25.3229],[-69.4814,18.5534,27.249],[-69.4788,18.5442,29.8053],[-69.4837,18.5342,28.8677],[-69.4835,18.5314,30.6158],[-69.4651,18.5205,33.889],[-69.4528,18.5064,41.0313],[-69.4379,18.5014,47.3723],[-69.4314,18.4901,36.9068],[-69.431,18.4825,39.9522],[-69.4241,18.48,29.1253],[-69.3972,18.4821,27.1885],[-69.3898,18.485,27.9539],[-69.3704,18.4853,26.2169],[-69.3308,18.4945,17.618],[-69.3328,18.5034,22.6117],[-69.3303,18.5139,44.1024],[-69.3322,18.5155,41.628],[-69.339,18.5168,39.4233],[-69.3412,18.519,43.1034],[-69.3444,18.5284,26.6649],[-69.3502,18.5369,25.1513],[-69.354,18.5461,26.2963],[-69.3613,18.5519,31.0429],[-69.3658,18.5659,21.6354],[-69.3736,18.5749,7.5999],[-69.3745,18.5837,25.9881]]]]}}