{"type":"Feature","properties":{"GID_2":"BLM.1.16_1","GID_0":"BLM","country":"Saint-Barthélemy","GID_1":"BLM.1_1","province":"AuVent","NL_NAME_1":"NA","county":"MorneRouge","VARNAME_2":"NA","NL_NAME_2":"NA","TYPE_2":"Quartier","ENGTYPE_2":"Quarter","CC_2":"NA","HASC_2":"NA","name":"Morne_Rouge.county"},
"geometry":{"type": "MultiPolygon","coordinates": [[[[-62.8238,17.8857,0.0],[-62.8185,17.8878,5.8686],[-62.8177,17.8857,13.8001],[-62.8157,17.886,13.8001],[-62.8134,17.8817,0.0],[-62.8103,17.8833,10.8286],[-62.8089,17.8916,0.0],[-62.8114,17.8943,13.4832],[-62.815,17.8914,163.1674],[-62.8241,17.8895,9.0673],[-62.8238,17.8857,0.0]]]]}}