{"type":"Feature","properties":{"GID_2":"CUB.16.2_1","GID_0":"CUB","country":"Cuba","GID_1":"CUB.16_1","province":"VillaClara","NL_NAME_1":"NA","county":"Camajuaní","VARNAME_2":"NA","NL_NAME_2":"NA","TYPE_2":"Municipio","ENGTYPE_2":"Municipality","CC_2":"NA","HASC_2":"CU.VC.CM","name":"Camajuaní.county"},
"geometry":{"type": "MultiPolygon","coordinates": [[[[-79.6004,22.6474,0.0],[-79.6021,22.6499,0.0],[-79.6062,22.651,3.5561],[-79.6132,22.6596,2.7132],[-79.616,22.6676,1.2806],[-79.6257,22.6846,1.6333],[-79.6276,22.6951,3.178],[-79.6635,22.6769,6.0397],[-79.7104,22.6331,18.5119],[-79.7615,22.5616,43.8924],[-79.8825,22.5043,67.7781],[-79.8967,22.4994,86.7061],[-79.9152,22.4786,83.7301],[-79.9207,22.4592,82.627],[-79.8663,22.4434,106.5845],[-79.8283,22.4255,92.1075],[-79.8228,22.4182,96.9621],[-79.8149,22.3957,84.5534],[-79.8108,22.3728,93.4871],[-79.7992,22.3546,114.4495],[-79.7738,22.3363,102.1804],[-79.7639,22.3321,120.2741],[-79.6784,22.3311,204.0361],[-79.6708,22.349,253.8535],[-79.6418,22.3876,141.11],[-79.6323,22.4056,196.1991],[-79.6312,22.4493,100.4591],[-79.6557,22.4952,50.6725],[-79.6654,22.5212,35.0153],[-79.6659,22.5308,31.0005],[-79.6565,22.5508,19.5326],[-79.6434,22.5668,12.5695],[-79.6296,22.593,5.969],[-79.6168,22.6091,3.1681],[-79.6004,22.6474,0.0]]]]}}