{"type":"Feature","properties":{"GID_2":"CUB.9.8_1","GID_0":"CUB","country":"Cuba","GID_1":"CUB.9_1","province":"LaHabana","NL_NAME_1":"NA","county":"SanAntoniodelosBaños","VARNAME_2":"NA","NL_NAME_2":"NA","TYPE_2":"Municipio","ENGTYPE_2":"Municipality","CC_2":"NA","HASC_2":"CU.LH.SA","name":"San_Antoniodelos_Baños.county"},
"geometry":{"type": "MultiPolygon","coordinates": [[[[-82.5268,22.8044,19.8376],[-82.5175,22.811,21.2714],[-82.4912,22.8231,29.2708],[-82.4772,22.833,35.963],[-82.4602,22.8376,37.7972],[-82.4526,22.843,41.4065],[-82.4274,22.8876,78.5093],[-82.48,22.9089,80.8805],[-82.4959,22.9036,71.0414],[-82.5181,22.9001,88.1372],[-82.5315,22.8933,84.5774],[-82.5582,22.8532,35.3562],[-82.5268,22.8044,19.8376]]]]}}