{"type":"Feature","properties":{"GID_2":"CUB.7.10_1","GID_0":"CUB","country":"Cuba","GID_1":"CUB.7_1","province":"Holguín","NL_NAME_1":"NA","county":"Mayarí","VARNAME_2":"NA","NL_NAME_2":"NA","TYPE_2":"Municipio","ENGTYPE_2":"Municipality","CC_2":"NA","HASC_2":"CU.HO.MA","name":"Mayarí.county"},
"geometry":{"type": "MultiPolygon","coordinates": [[[[-75.9156,20.7873,36.4773],[-75.925,20.7656,31.498],[-75.9312,20.7591,30.3805],[-75.9134,20.7229,26.2286],[-75.9002,20.7069,28.8849],[-75.8862,20.6809,32.0763],[-75.879,20.6752,27.884],[-75.8615,20.6711,23.8196],[-75.8412,20.661,17.8494],[-75.829,20.6406,44.932],[-75.827,20.6248,73.88],[-75.8287,20.5929,201.6247],[-75.8381,20.575,116.0505],[-75.8511,20.559,176.7955],[-75.8638,20.5342,258.6316],[-75.9175,20.4821,98.439],[-75.9175,20.479,107.0752],[-75.9128,20.4767,126.3507],[-75.9042,20.485,139.884],[-75.8949,20.4849,136.8964],[-75.8813,20.4747,228.9883],[-75.8764,20.4748,257.0316],[-75.8621,20.4799,266.3931],[-75.8541,20.4797,212.3556],[-75.8484,20.4769,329.8946],[-75.8401,20.4593,788.2112],[-75.8299,20.4435,547.7411],[-75.8226,20.4344,507.514],[-75.8173,20.4312,448.0303],[-75.7942,20.4291,326.4181],[-75.7784,20.4326,475.8698],[-75.7664,20.4371,477.8578],[-75.7372,20.4587,461.1984],[-75.73,20.4606,453.1053],[-75.7194,20.4598,424.7233],[-75.6863,20.4463,295.3698],[-75.6436,20.4377,210.84],[-75.6321,20.4378,324.6036],[-75.5724,20.478,398.2387],[-75.5693,20.4831,400.9454],[-75.5688,20.4902,317.7621],[-75.5708,20.4966,316.9934],[-75.5787,20.5048,357.4302],[-75.58,20.5086,331.9363],[-75.5781,20.5125,373.3175],[-75.5624,20.5174,698.5624],[-75.5329,20.5213,331.9637],[-75.5221,20.5261,481.3853],[-75.5163,20.5327,562.3189],[-75.4954,20.5721,705.1096],[-75.4827,20.5764,497.6052],[-75.4488,20.5771,272.7629],[-75.4163,20.5896,281.0264],[-75.4139,20.5932,259.6906],[-75.426,20.6102,143.7141],[-75.4514,20.6574,121.8051],[-75.4562,20.6739,32.3189],[-75.4691,20.6982,2.4311],[-75.4737,20.6982,4.802],[-75.4721,20.7029,4.8883],[-75.4662,20.7079,3.6026],[-75.4682,20.7162,0.6443],[-75.4726,20.7143,0.0],[-75.4743,20.7207,2.5596],[-75.4721,20.7226,0.0],[-75.4707,20.7276,0.0],[-75.4737,20.7315,0.6866],[-75.4785,20.7304,5.058],[-75.4788,20.7215,14.8764],[-75.4835,20.7185,3.1629],[-75.4863,20.7199,0.7088],[-75.4874,20.7188,0.0],[-75.4868,20.7113,2.3144],[-75.4832,20.7104,0.0],[-75.4812,20.7065,1.5284],[-75.4901,20.7079,0.0],[-75.4863,20.7038,1.7837],[-75.4829,20.7038,2.5593],[-75.4801,20.7001,2.9787],[-75.4818,20.6954,1.2637],[-75.4835,20.6935,1.0261],[-75.4876,20.6957,0.0],[-75.4901,20.6951,12.5576],[-75.4912,20.6929,15.97],[-75.4899,20.6913,0.0],[-75.4932,20.6885,4.3506],[-75.4968,20.6899,0.0],[-75.499,20.6876,0.0],[-75.4974,20.686,8.6451],[-75.4987,20.6843,6.1566],[-75.5029,20.686,0.0],[-75.5082,20.6838,5.2922],[-75.5179,20.6896,0.0],[-75.5232,20.6899,0.7065],[-75.5235,20.6915,0.0],[-75.5218,20.6921,0.0],[-75.524,20.6935,0.0],[-75.5307,20.6924,0.0],[-75.5326,20.6901,4.5937],[-75.5351,20.6907,5.6001],[-75.539,20.6943,1.8241],[-75.541,20.6996,1.2053],[-75.544,20.6999,12.1462],[-75.5454,20.7018,17.5363],[-75.5476,20.7096,0.0],[-75.5424,20.7121,0.0],[-75.546,20.7132,0.8515],[-75.5493,20.7121,0.0],[-75.5474,20.7151,0.0],[-75.5485,20.7162,0.0],[-75.556,20.7129,0.0],[-75.5565,20.7101,0.0],[-75.5537,20.7096,0.0],[-75.5532,20.7062,0.0],[-75.5551,20.7038,0.0],[-75.5585,20.7029,1.9477],[-75.5585,20.7015,4.0484],[-75.554,20.7012,1.9152],[-75.5493,20.6988,5.6134],[-75.549,20.6976,5.5074],[-75.5516,20.6976,1.3497],[-75.5532,20.699,0.4881],[-75.551,20.6965,6.5341],[-75.5626,20.7012,0.2842],[-75.5618,20.6988,0.0],[-75.5632,20.696,3.4406],[-75.5674,20.6904,6.7364],[-75.569,20.6907,2.1118],[-75.5713,20.6882,2.6707],[-75.5771,20.6907,0.0],[-75.5804,20.6904,4.1753],[-75.5807,20.6938,0.0],[-75.5854,20.696,0.0],[-75.5762,20.7065,0.0],[-75.5738,20.7065,0.0],[-75.5762,20.7074,0.0],[-75.5779,20.7113,4.1183],[-75.5771,20.7193,0.0],[-75.5735,20.7207,0.0],[-75.576,20.7226,0.7122],[-75.5757,20.724,2.065],[-75.566,20.7218,0.0],[-75.5649,20.7249,0.8009],[-75.5699,20.7246,4.4777],[-75.5704,20.726,3.7805],[-75.566,20.7293,1.9042],[-75.5607,20.7285,4.484],[-75.5587,20.7251,0.0],[-75.5565,20.7249,0.0],[-75.5576,20.7293,1.8431],[-75.5565,20.7337,0.0],[-75.5501,20.7365,0.0],[-75.549,20.739,4.9393],[-75.5404,20.7337,0.0],[-75.5393,20.7376,5.6754],[-75.5374,20.7382,0.0],[-75.5362,20.7363,0.0],[-75.531,20.7351,0.0],[-75.5276,20.7321,0.6043],[-75.5304,20.7401,0.8339],[-75.5285,20.7418,1.5758],[-75.529,20.7451,0.4739],[-75.5271,20.739,0.0],[-75.5243,20.739,3.7628],[-75.5224,20.7368,0.0],[-75.5218,20.7412,0.0],[-75.524,20.7463,0.4518],[-75.5212,20.746,0.8098],[-75.5215,20.7446,1.6527],[-75.5199,20.744,4.0475],[-75.5204,20.7351,0.0],[-75.5104,20.7382,0.0],[-75.5082,20.7276,0.0],[-75.5024,20.7313,2.8927],[-75.4946,20.7276,0.5728],[-75.4871,20.7271,27.8485],[-75.4849,20.724,8.9246],[-75.4801,20.7249,0.0],[-75.4807,20.731,0.0],[-75.4762,20.7329,0.0],[-75.474,20.7393,0.9087],[-75.4793,20.7443,2.1501],[-75.4815,20.7518,0.7817],[-75.4879,20.7551,3.5108],[-75.4896,20.7604,1.1937],[-75.4935,20.7643,3.0994],[-75.4976,20.7724,0.0],[-75.5082,20.7849,5.6543],[-75.5199,20.7921,0.0],[-75.5246,20.7921,0.0],[-75.5265,20.789,0.0],[-75.5293,20.7879,0.0],[-75.5312,20.784,0.8199],[-75.5304,20.7785,26.7484],[-75.5349,20.7721,0.0],[-75.5426,20.7715,8.0938],[-75.556,20.7768,5.9616],[-75.5771,20.7779,3.9211],[-75.5779,20.7729,0.0],[-75.5738,20.7735,1.0574],[-75.5679,20.7704,1.8787],[-75.5674,20.7676,22.2285],[-75.5696,20.7646,0.0],[-75.5674,20.7568,33.5893],[-75.5682,20.7521,7.351],[-75.5629,20.7535,3.3199],[-75.561,20.7496,0.0],[-75.5565,20.7499,0.7621],[-75.5568,20.7443,1.7568],[-75.5526,20.746,3.2927],[-75.5507,20.7426,6.6889],[-75.5537,20.7429,0.0],[-75.5535,20.7415,2.4226],[-75.5557,20.7407,0.0],[-75.5549,20.7379,2.9497],[-75.5587,20.7404,4.9351],[-75.5618,20.7374,0.0],[-75.5663,20.7363,1.7134],[-75.5671,20.7371,2.0118],[-75.5626,20.7399,1.7894],[-75.5612,20.7438,0.0],[-75.564,20.7443,0.0],[-75.5687,20.7418,3.7901],[-75.5679,20.7387,2.7064],[-75.5713,20.7346,0.5806],[-75.5685,20.7324,4.0425],[-75.5704,20.731,1.1985],[-75.5743,20.7313,1.1957],[-75.5824,20.7265,0.0],[-75.5826,20.7232,0.0],[-75.5804,20.721,1.4658],[-75.584,20.719,0.0],[-75.5876,20.7135,3.2626],[-75.5926,20.7162,1.5217],[-75.6001,20.715699999999998,0.0],[-75.6032,20.7185,2.714],[-75.6051,20.7121,0.0],[-75.6093,20.7101,2.181],[-75.6113,20.7132,0.8528],[-75.609,20.7185,2.3465],[-75.6113,20.721,0.9849],[-75.6151,20.7196,1.0],[-75.6174,20.7162,1.926],[-75.6201,20.7165,1.539],[-75.6146,20.7224,2.6719],[-75.6096,20.7235,1.8731],[-75.6104,20.7215,0.7561],[-75.609,20.7213,0.7561],[-75.6076,20.7237,0.0],[-75.6038,20.7257,3.9948],[-75.5949,20.7249,0.416],[-75.5865,20.729,0.0],[-75.5871,20.7315,0.0],[-75.5879,20.729,0.0],[-75.5915,20.7287,0.6006],[-75.5926,20.7271,2.87],[-75.5924,20.7299,2.3341],[-75.5946,20.7321,2.2025],[-75.5924,20.744,0.5524],[-75.5946,20.7457,2.3372],[-75.5957,20.751,0.0],[-75.5999,20.7582,0.0],[-75.5971,20.7638,0.0],[-75.6054,20.7674,0.0],[-75.6104,20.7676,0.0],[-75.6118,20.7743,0.0],[-75.619,20.7715,1.1989],[-75.6185,20.774,1.2615],[-75.6135,20.7765,1.2401],[-75.6154,20.7776,0.0],[-75.6185,20.776,0.0],[-75.6212,20.7715,1.4663],[-75.6249,20.7699,0.5366],[-75.6212,20.7674,2.5701],[-75.6176,20.7613,1.704],[-75.6224,20.7518,3.0426],[-75.621,20.7474,2.8009],[-75.6237,20.7446,1.0219],[-75.6235,20.7476,1.2749],[-75.626,20.7521,3.2919],[-75.6221,20.7546,0.4238],[-75.6218,20.7585,0.0],[-75.6201,20.7596,0.0],[-75.6221,20.7638,0.0],[-75.6415,20.749,0.498],[-75.6332,20.7574,0.5392],[-75.6318,20.7632,1.5417],[-75.6351,20.7632,1.0256],[-75.6387,20.7596,0.8555],[-75.6443,20.7607,0.0],[-75.6476,20.7588,0.5079],[-75.6554,20.7674,0.473],[-75.6574,20.7532,2.9053],[-75.6649,20.751,0.6054],[-75.6646,20.7499,0.0],[-75.6604,20.751,1.1479],[-75.6571,20.7499,2.0753],[-75.6588,20.7404,3.261],[-75.6762,20.7321,0.0],[-75.6732,20.7235,7.2528],[-75.6768,20.7196,2.0607],[-75.6826,20.7218,1.5085],[-75.6876,20.7263,1.5378],[-75.6899,20.7263,1.3808],[-75.6882,20.7207,21.2213],[-75.6899,20.7135,2.3961],[-75.6885,20.7085,11.307],[-75.691,20.6993,0.0],[-75.6943,20.6957,0.4233],[-75.7021,20.6954,2.7914],[-75.7051,20.6968,1.704],[-75.7068,20.689,1.8886],[-75.7101,20.6882,3.002],[-75.7246,20.6938,0.496],[-75.7312,20.701,0.0],[-75.7412,20.699,2.1507],[-75.749,20.7057,0.0],[-75.7518,20.7049,2.0929],[-75.7524,20.7018,2.7026],[-75.7568,20.7029,0.6758],[-75.7601,20.7068,0.569],[-75.7582,20.7104,0.6405],[-75.7624,20.709,0.4561],[-75.7643,20.7099,1.4513],[-75.766,20.7138,0.3096],[-75.7699,20.7138,0.4976],[-75.7688,20.7185,0.0],[-75.7715,20.7201,3.6903],[-75.7707,20.7224,0.0],[-75.7732,20.724,1.3342],[-75.7721,20.7257,0.6337],[-75.7749,20.729,0.0],[-75.7776,20.7296,1.5242],[-75.7771,20.7332,0.0],[-75.7832,20.7463,1.5093],[-75.7832,20.7532,2.5313],[-75.7754,20.7579,0.0],[-75.7746,20.7654,0.4509],[-75.7801,20.7646,7.5443],[-75.7821,20.7679,2.3079],[-75.7812,20.7738,0.4625],[-75.7826,20.776,2.0238],[-75.7815,20.7771,2.256],[-75.7749,20.7765,1.1077],[-75.7674,20.7738,0.3607],[-75.7712,20.7787,0.0],[-75.776,20.779,0.6746],[-75.774,20.784,0.7758],[-75.7746,20.7901,0.3814],[-75.7724,20.7924,1.1052],[-75.7732,20.794,0.3381],[-75.7757,20.7946,0.5466],[-75.7782,20.7921,0.5214],[-75.7793,20.7932,0.5214],[-75.7782,20.7954,0.4294],[-75.7737,20.7971,1.8011],[-75.7718,20.7943,0.3381],[-75.7654,20.7921,1.2667],[-75.7657,20.7935,1.2667],[-75.7696,20.7943,0.4182],[-75.7676,20.7968,0.3561],[-75.7679,20.8007,0.9051],[-75.7607,20.8085,0.0],[-75.7637,20.8118,1.8523],[-75.7618,20.814,0.0],[-75.7696,20.8182,3.2871],[-75.7712,20.8254,0.0],[-75.7765,20.8301,1.1637],[-75.776,20.8318,0.6863],[-75.7729,20.8321,0.4135],[-75.7732,20.8361,0.0],[-75.8285,20.8348,29.3037],[-75.8735,20.8092,19.46],[-75.8971,20.7901,42.5099],[-75.9156,20.7873,36.4773]]],
[[[-75.6263,20.7668,1.1791],[-75.6301,20.7665,1.3726],[-75.6307,20.7604,0.0],[-75.629,20.7607,0.3903],[-75.6265,20.7632,0.0],[-75.6263,20.7668,1.1791]]],
[[[-75.764,20.7715,5.5259],[-75.7657,20.7721,0.0],[-75.7663,20.7687,1.9142],[-75.7688,20.7676,0.0713],[-75.764,20.7668,0.0],[-75.7624,20.7707,0.0],[-75.764,20.7715,5.5259]]],
[[[-75.7643,20.7901,1.0817],[-75.7651,20.791,0.0],[-75.7679,20.7885,0.0],[-75.7663,20.7885,0.0],[-75.7643,20.7901,1.0817]]],
[[[-75.4999,20.6943,7.4453],[-75.4999,20.6968,3.1254],[-75.5013,20.6971,0.0],[-75.5062,20.6893,0.0],[-75.5007,20.6929,2.5478],[-75.4999,20.6943,7.4453]]],
[[[-75.4915,20.7146,5.5584],[-75.491,20.7188,0.0],[-75.4987,20.7088,3.4966],[-75.4962,20.7076,1.7645],[-75.4915,20.7146,5.5584]]],
[[[-75.5668,20.7182,0.0],[-75.5671,20.7201,0.0],[-75.5704,20.7193,0.0],[-75.5685,20.7168,0.0],[-75.5668,20.7182,0.0]]],
[[[-75.6232,20.7668,0.6003],[-75.6251,20.7668,0.6003],[-75.6246,20.7632,0.0],[-75.6229,20.7643,0.0],[-75.6232,20.7668,0.6003]]]]}}