{"type": "Feature","bbox": [-71.2117,18.2274,-71.0957,18.2994],"geometry": {"type": "MultiPolygon","coordinates": [[[[-71.2022,18.2528,13.1886],[-71.2003,18.2522,15.5532],[-71.1913,18.2561,6.3621],[-71.1739,18.2557,3.415],[-71.1654,18.2511,3.7435],[-71.1637,18.2429,3.1309],[-71.1614,18.2399,2.9802],[-71.143,18.2311,35.1483],[-71.1336,18.2282,67.0669],[-71.1213,18.2304,55.322],[-71.111,18.2277,42.8095],[-71.0957,18.2274,12.7404],[-71.1018,18.2418,2.6983],[-71.1051,18.2435,1.1641],[-71.1096,18.2599,0.737],[-71.1021,18.2807,0.8577],[-71.0979,18.284,0.0],[-71.112,18.2806,4.0603],[-71.1118,18.2718,1.3117],[-71.1151,18.2698,4.4536],[-71.1216,18.2701,3.6535],[-71.1359,18.2772,3.1508],[-71.1484,18.2912,5.6457],[-71.1546,18.2882,5.6726],[-71.1578,18.2893,5.7577],[-71.1612,18.2927,6.8085],[-71.157,18.2994,7.2891],[-71.1697,18.2936,9.2364],[-71.1787,18.2922,9.2634],[-71.1866,18.2879,7.8738],[-71.1918,18.2727,6.9439],[-71.1972,18.2658,11.7571],[-71.2089,18.2611,7.9663],[-71.2111,18.2588,6.726],[-71.2117,18.2535,8.2777],[-71.2022,18.2528,13.1886]]],
[[[-71.0976,18.2841,0.0],[-71.0979,18.284,0.0],[-71.0976,18.284,0.0],[-71.0976,18.2841,0.0]]]]}
,"properties": {"GID_2": "DOM.3.4_1","GID_0": "DOM","country": "DominicanRepublic","GID_1": "DOM.3_1","province": "Barahona","NL_NAME_1": "NA","county": "Fundación","VARNAME_2": "NA","NL_NAME_2": "NA","TYPE_2": "Distritomunicipal","ENGTYPE_2": "Municipaldistrict","CC_2": "NA","HASC_2": "DO.BH.FU","name": "Fundación.county","area_km2": 48.88658,"hist_schema_id": "Elevation0-9000","hist_area_km2": {"0": 40.65044,"25": 5.65851,"50": 2.53735,"75": 0.04028}}}