{"type":"Feature","properties":{"GID_2":"CUB.13.13_1","GID_0":"CUB","country":"Cuba","GID_1":"CUB.13_1","province":"PinardelRío","NL_NAME_1":"NA","county":"Sandino","VARNAME_2":"NA","NL_NAME_2":"NA","TYPE_2":"Municipio","ENGTYPE_2":"Municipality","CC_2":"NA","HASC_2":"CU.PR.SA","name":"Sandino.county"},
"geometry":{"type": "MultiPolygon","coordinates": [[[[-84.8882,21.8965,0.0],[-84.8896,21.8968,0.2948],[-84.8893,21.8932,0.0],[-84.8868,21.8946,0.0],[-84.8882,21.8965,0.0]]],
[[[-84.13,22.1572,39.1259],[-84.1501,22.1501,51.8153],[-84.2663,22.1473,12.3435],[-84.3044,22.1291,11.4854],[-84.347,22.0899,3.9614],[-84.3493,22.0899,1.503],[-84.3518,22.0871,0.5036],[-84.3451,22.0863,0.0],[-84.3412,22.0871,2.8851],[-84.3374,22.0843,0.0],[-84.3351,22.0868,0.0],[-84.3268,22.0868,0.1173],[-84.3196,22.0793,0.2553],[-84.321,22.071,2.6791],[-84.3151,22.0696,0.0],[-84.3146,22.0632,0.158],[-84.3157,22.0621,0.0],[-84.3143,22.0604,0.701],[-84.3154,22.0532,0.3006],[-84.3187,22.0485,0.2318],[-84.3213,22.0374,0.0],[-84.3168,22.0299,1.025],[-84.3165,22.0257,0.2601],[-84.3135,22.0271,1.0825],[-84.3071,22.0235,0.0],[-84.3015,22.024,1.0711],[-84.2974,22.0307,0.393],[-84.2901,22.034,0.2228],[-84.2882,22.0476,1.1446],[-84.2862,22.0485,1.1446],[-84.2851,22.0518,0.3425],[-84.2815,22.0537,0.0],[-84.2821,22.0674,0.4382],[-84.2799,22.0699,0.4631],[-84.2724,22.0685,0.0],[-84.2701,22.0688,4.1457],[-84.2682,22.0715,0.7424],[-84.2665,22.0707,1.4409],[-84.2685,22.0663,2.7206],[-84.2737,22.0615,1.9799],[-84.274,22.0518,0.629],[-84.2774,22.0449,1.8901],[-84.274,22.0393,0.377],[-84.2732,22.034,0.9512],[-84.2754,22.0307,0.3083],[-84.274,22.0271,0.0],[-84.2782,22.0238,0.0],[-84.2763,22.0171,1.1053],[-84.2779,22.0096,1.3027],[-84.2799,22.0088,0.0],[-84.2812,22.0115,0.6952],[-84.2871,22.0126,0.4942],[-84.2893,22.0154,0.3144],[-84.2974,22.0176,0.2542],[-84.3071,22.016,0.0],[-84.3093,22.0135,0.0],[-84.3101,22.0054,0.499],[-84.3149,22.0007,0.2264],[-84.3165,21.9938,0.8805],[-84.3218,21.9907,0.0],[-84.3276,21.9899,0.5517],[-84.3307,21.9926,0.0],[-84.3346,21.9932,0.4457],[-84.3357,21.9954,1.9542],[-84.3412,21.9949,0.6509],[-84.3435,21.9965,0.2863],[-84.3432,21.9988,0.0],[-84.3468,21.9999,0.6226],[-84.3512,22.0046,0.8212],[-84.3515,22.0085,0.0],[-84.3476,22.0135,0.0],[-84.3549,22.021,0.7556],[-84.3571,22.0274,0.5294],[-84.3615,22.0276,0.8884],[-84.3699,22.0315,1.2256],[-84.3774,22.0371,0.0],[-84.3826,22.0368,1.4922],[-84.3863,22.0388,0.0],[-84.3907,22.0368,2.1109],[-84.3976,22.0365,2.0772],[-84.4079,22.0268,2.6232],[-84.4118,22.026,0.0],[-84.4182,22.0213,0.4145],[-84.4226,22.0207,0.0],[-84.4251,22.0176,1.3982],[-84.4287,22.0182,0.0],[-84.4313,22.0135,1.389],[-84.4435,22.006,0.4047],[-84.4507,22.0074,0.0],[-84.4549,22.006,0.6353],[-84.4565,22.0085,1.7804],[-84.4626,22.0107,3.4442],[-84.4624,22.0146,3.249],[-84.4676,22.0199,2.0975],[-84.4707,22.0185,2.9904],[-84.4715,22.0146,2.4868],[-84.4735,22.0179,0.0],[-84.474,22.0149,0.8907],[-84.4779,22.0165,0.5111],[-84.4799,22.0149,0.2764],[-84.4863,22.0176,0.7579],[-84.4896,22.0221,0.3256],[-84.4901,22.0268,1.2078],[-84.4857,22.0313,0.0],[-84.4899,22.0318,0.3405],[-84.4843,22.0326,1.9002],[-84.4804,22.0351,1.5071],[-84.4818,22.0421,2.7814],[-84.4849,22.0426,2.4765],[-84.4854,22.0449,0.0],[-84.4918,22.0457,0.0],[-84.4974,22.0421,0.0],[-84.5096,22.0382,0.7598],[-84.5188,22.0401,0.6812],[-84.5215,22.0357,2.9996],[-84.5279,22.0324,0.6526],[-84.5301,22.0332,1.9943],[-84.5338,22.0276,0.6555],[-84.5418,22.026,0.0],[-84.546,22.0229,0.3782],[-84.5476,22.0207,0.1233],[-84.5446,22.0187,1.499],[-84.5485,22.0171,0.2013],[-84.5496,22.0196,0.0],[-84.5568,22.0163,1.2573],[-84.5612,22.0104,0.2653],[-84.5607,22.0085,0.5762],[-84.5676,22.0076,0.8582],[-84.5751,22.0007,1.3095],[-84.5804,22.0004,2.0749],[-84.5849,21.9943,0.0],[-84.606,21.9901,2.1143],[-84.6263,21.9785,2.0594],[-84.636,21.9746,2.1386],[-84.641,21.9754,2.5053],[-84.6485,21.9718,1.1343],[-84.6557,21.9721,0.0],[-84.666,21.9668,1.546],[-84.6999,21.9582,0.0],[-84.7063,21.9546,0.0],[-84.7082,21.951,0.0],[-84.7199,21.9493,0.0],[-84.7274,21.9438,0.0],[-84.7365,21.9401,3.0388],[-84.7421,21.9343,1.0985],[-84.7479,21.9324,0.0],[-84.7543,21.9271,0.0],[-84.7571,21.9274,0.0],[-84.764,21.9199,0.3274],[-84.7688,21.9193,0.0],[-84.7732,21.9162,0.309],[-84.7826,21.9162,0.0],[-84.7862,21.9112,0.7462],[-84.7913,21.9112,0.0],[-84.7976,21.9032,0.5959],[-84.8063,21.9032,0.5406],[-84.8071,21.9074,0.0],[-84.8076,21.9074,0.0],[-84.8087,21.9046,0.0],[-84.8138,21.9051,2.3914],[-84.8143,21.909,2.3658],[-84.8101,21.9188,0.0],[-84.8104,21.9218,0.0],[-84.8146,21.9229,0.2672],[-84.8215,21.9204,0.5869],[-84.8179,21.9232,0.63],[-84.8118,21.9249,0.0],[-84.8121,21.9271,0.0],[-84.8251,21.9332,0.0],[-84.8285,21.9329,0.4503],[-84.8315,21.9299,1.1177],[-84.8362,21.931,0.0],[-84.8393,21.9296,0.257],[-84.844,21.9324,0.0],[-84.8476,21.929,1.5663],[-84.8496,21.9299,0.6517],[-84.8521,21.9257,0.6646],[-84.8549,21.926,0.3491],[-84.8587,21.9201,0.0],[-84.861,21.9096,0.3801],[-84.856,21.9085,0.0],[-84.8562,21.9201,1.635],[-84.8538,21.9226,0.7763],[-84.8468,21.9238,2.2849],[-84.8449,21.9226,0.6462],[-84.8454,21.9179,0.0],[-84.8426,21.9171,0.0],[-84.841,21.9185,0.0],[-84.8415,21.9215,0.0],[-84.8368,21.9243,0.0],[-84.8362,21.9263,0.7022],[-84.8337,21.9265,0.0],[-84.8324,21.926,0.0],[-84.8332,21.921,0.0],[-84.829,21.9118,0.0],[-84.8274,21.9135,0.0],[-84.8238,21.9135,0.0],[-84.8199,21.9057,0.1742],[-84.821,21.9026,0.2775],[-84.829,21.8993,0.1072],[-84.8321,21.8996,0.0],[-84.8351,21.8915,0.2501],[-84.8412,21.8929,0.2473],[-84.8415,21.8968,0.0],[-84.8437,21.8996,0.0],[-84.8426,21.9049,0.4388],[-84.8451,21.9071,0.0],[-84.8463,21.9051,0.2774],[-84.8474,21.909,0.0],[-84.8507,21.9088,0.0],[-84.8526,21.9104,0.0],[-84.8518,21.9074,1.0654],[-84.8474,21.9051,0.2774],[-84.8476,21.9026,0.0],[-84.8443,21.9013,0.2399],[-84.8449,21.8985,0.0],[-84.8421,21.8949,0.0],[-84.8435,21.8913,0.177],[-84.8501,21.889,0.1191],[-84.8551,21.8913,0.0],[-84.8632,21.8863,0.2865],[-84.8676,21.8857,0.0],[-84.8749,21.8882,0.4625],[-84.8721,21.894,0.0],[-84.879,21.8929,0.0],[-84.8826,21.8885,0.7446],[-84.8887,21.8882,0.4649],[-84.8901,21.8915,0.0],[-84.8932,21.8924,0.0],[-84.8957,21.8899,0.5746],[-84.8999,21.8899,1.0543],[-84.9035,21.8957,0.0],[-84.9018,21.8976,0.0],[-84.909,21.9018,0.0],[-84.9088,21.9037,0.0],[-84.9115,21.906,0.2908],[-84.9163,21.9165,0.6135],[-84.9201,21.9188,0.0],[-84.9249,21.9182,0.0],[-84.9301,21.9143,0.0],[-84.9504,21.8738,1.3197],[-84.9524,21.8643,4.8587],[-84.9512,21.856,0.0],[-84.9457,21.849,0.0],[-84.9463,21.846,0.0],[-84.9399,21.8399,0.0],[-84.9343,21.8357,1.8504],[-84.9221,21.8324,3.2347],[-84.9171,21.8282,0.0],[-84.8757,21.8215,0.0],[-84.8624,21.8213,0.21],[-84.8187,21.8121,5.0183],[-84.7982,21.8118,0.0],[-84.7824,21.8199,1.1612],[-84.7618,21.8374,2.7916],[-84.7446,21.8621,3.3409],[-84.7365,21.8671,0.2218],[-84.731,21.874,6.3146],[-84.7171,21.8813,5.9218],[-84.6829,21.8943,0.4572],[-84.6804,21.8968,0.2483],[-84.6782,21.896,0.609],[-84.661,21.9024,6.3657],[-84.639,21.9079,0.0],[-84.6312,21.911,0.1339],[-84.6226,21.9171,5.6086],[-84.6157,21.9174,0.0],[-84.6104,21.9201,0.0],[-84.5904,21.924,0.0],[-84.5849,21.9268,1.0303],[-84.569,21.929,0.3838],[-84.5565,21.9332,0.0],[-84.5465,21.9326,2.4509],[-84.5454,21.9304,0.0],[-84.5296,21.9307,3.0997],[-84.4974,21.9282,0.0],[-84.4896,21.9243,0.3172],[-84.4876,21.9212,0.0],[-84.481,21.9196,0.6793],[-84.4696,21.9126,0.7788],[-84.4687,21.909,1.0407],[-84.4635,21.904,0.0],[-84.4638,21.9015,0.0],[-84.4607,21.8974,4.68],[-84.4549,21.879,2.5299],[-84.4568,21.8674,2.0059],[-84.4618,21.8601,1.0222],[-84.4679,21.8549,0.5347],[-84.4721,21.8487,1.2259],[-84.4771,21.844,2.2957],[-84.4801,21.8432,0.0],[-84.4907,21.8324,0.0],[-84.4943,21.8268,0.0],[-84.4949,21.8218,3.5263],[-84.4987,21.8143,0.0],[-84.5129,21.8037,2.2847],[-84.5168,21.7582,0.0],[-84.5129,21.7549,0.0],[-84.5071,21.7543,0.0],[-84.4999,21.7565,0.0],[-84.4918,21.7568,0.0],[-84.4732,21.7632,0.0],[-84.4535,21.7638,2.8168],[-84.444,21.7657,0.5566],[-84.4335,21.7699,0.0],[-84.4165,21.7832,0.0],[-84.3974,21.8013,6.9155],[-84.3668,21.8232,6.9344],[-84.3401,21.8474,13.8601],[-84.326,21.8574,14.2525],[-84.3238,21.8568,0.0],[-84.3213,21.8599,14.1814],[-84.316,21.8613,1.3884],[-84.2968,21.8771,17.6629],[-84.2601,21.8954,3.994],[-84.2299,21.8968,0.0],[-84.2218,21.9013,0.0],[-84.211,21.9046,1.7095],[-84.1818,21.9101,0.0],[-84.169,21.9157,0.0],[-84.1621,21.921,0.0],[-84.144,21.9265,0.0],[-84.1129,21.9276,0.0],[-84.1001,21.9307,6.944],[-84.0865,21.931,3.6728],[-84.0776,21.926,0.2584],[-84.0754,21.9265,0.679],[-84.0687,21.9232,0.0],[-84.0629,21.9226,2.4332],[-84.0596,21.9193,0.3742],[-84.0471,21.9146,5.4946],[-84.0346,21.9051,0.0],[-84.0321,21.9107,0.4933],[-84.0168,21.9179,2.254],[-84.014,21.9207,0.0],[-83.999,21.9413,0.942],[-83.9946,21.9557,0.0],[-84.0024,21.965699999999998,2.7973],[-84.0032,21.9718,0.0],[-84.0015,21.9771,1.3643],[-83.9943,21.9868,0.7076],[-83.9843,21.9971,1.7811],[-83.9785,21.9999,0.0],[-83.9746,22.0068,0.5524],[-83.9679,22.0129,0.4526],[-83.9679,22.0163,0.8337],[-83.9593,22.0301,0.0],[-83.9593,22.0351,0.8848],[-83.9618,22.041,1.2294],[-83.9657,22.0438,2.5426],[-83.9662,22.0482,1.7861],[-83.9679,22.0485,0.994],[-83.9671,22.0454,2.5426],[-83.969,22.0451,3.1318],[-83.969,22.0438,3.1318],[-83.9651,22.0415,2.5111],[-83.9654,22.0382,0.0],[-83.9629,22.0371,2.4306],[-83.9646,22.0338,0.5559],[-83.9632,22.0313,0.0],[-83.9657,22.029,0.0],[-83.9671,22.0243,1.7741],[-83.9657,22.0224,0.8819],[-83.9687,22.0179,1.9472],[-83.976,22.0182,1.2301],[-83.981,22.0213,1.084],[-83.9824,22.024,0.2314],[-83.9874,22.0271,0.0],[-83.996,22.0404,0.0],[-83.9971,22.0465,0.0],[-83.9949,22.0618,0.0],[-83.9965,22.08,1.9092],[-84.0136,22.0901,11.4926],[-84.0312,22.0943,4.8707],[-84.0502,22.103,1.8442],[-84.0751,22.1327,7.7869],[-84.1114,22.1559,17.0427],[-84.13,22.1572,39.1259]]],
[[[-84.484,22.0276,1.3724],[-84.4871,22.0279,0.0],[-84.4874,22.0274,0.0],[-84.4849,22.0263,1.4378],[-84.484,22.0276,1.3724]]]]}}