{"type":"Feature","properties":{"GID_2":"GLP.2.12_1","GID_0":"GLP","country":"Guadeloupe","GID_1":"GLP.2_1","province":"Pointe-à-Pitre","NL_NAME_1":"NA","county":"Saint-François","VARNAME_2":"NA","NL_NAME_2":"NA","TYPE_2":"Chef-lieucanton","ENGTYPE_2":"Commune","CC_2":"27","HASC_2":"NA","name":"Saint-François.county"},
"geometry":{"type": "MultiPolygon","coordinates": [[[[-61.336,16.286,31.7444],[-61.3249,16.2531,37.0559],[-61.325,16.2436,3.0784],[-61.3235,16.244,29.5605],[-61.3196,16.2399,0.0],[-61.3013,16.244,18.747],[-61.294,16.2432,0.3802],[-61.2899,16.246,5.3186],[-61.2851,16.2463,2.2159],[-61.284,16.2488,4.6593],[-61.2824,16.2482,0.0],[-61.2807,16.2504,1.2585],[-61.2693,16.2499,0.3053],[-61.2551,16.2565,2.748],[-61.2532,16.2551,0.0],[-61.2407,16.2551,1.1603],[-61.2388,16.2535,0.0],[-61.2299,16.2524,3.4659],[-61.2215,16.2535,0.8389],[-61.2043,16.2488,4.8037],[-61.1915,16.2499,1.7946],[-61.1824,16.2446,0.0],[-61.1793,16.2451,1.2962],[-61.1768,16.2412,0.2122],[-61.1712,16.2463,0.0],[-61.1732,16.2468,0.2033],[-61.176,16.2463,4.733],[-61.1757,16.2493,0.0],[-61.1771,16.2476,0.756],[-61.1813,16.2485,1.84],[-61.1849,16.2532,0.0],[-61.1882,16.2549,0.0],[-61.1946,16.2538,7.2408],[-61.1982,16.2576,3.4904],[-61.1985,16.2554,10.0143],[-61.201,16.254,5.1521],[-61.2074,16.2549,21.3551],[-61.2163,16.259,2.546],[-61.2199,16.2635,16.6612],[-61.2324,16.2665,22.2626],[-61.2385,16.2699,7.2925],[-61.2426,16.276,0.0],[-61.2449,16.2765,2.3092],[-61.2515,16.2912,0.0],[-61.2549,16.2949,0.0],[-61.2568,16.2949,2.1799],[-61.256,16.2974,1.1911],[-61.2593,16.304,0.9169],[-61.2624,16.3057,0.4524],[-61.2665,16.3046,16.3592],[-61.2665,16.3107,0.0],[-61.2724,16.3143,0.0],[-61.2751,16.3126,24.9059],[-61.2757,16.3151,14.5109],[-61.2779,16.3165,24.3423],[-61.2814,16.3033,46.3657],[-61.3057,16.3051,35.2674],[-61.3184,16.2995,30.3244],[-61.3225,16.2907,39.342],[-61.336,16.286,31.7444]]]]}}