{"type": "Feature","id": "1995","bbox": [-59.6542,13.27386,-59.57592,13.34455],"geometry": {"type": "Polygon","coordinates": [[[-59.57592,13.30439,0.0],[-59.58072,13.31452,0.0],[-59.59447,13.33478,0.0],[-59.61286,13.34455,0.0],[-59.63093,13.33796,0.0],[-59.64513,13.32372,0.0],[-59.65221,13.31061,0.0],[-59.6542,13.29511,0.0],[-59.65292,13.27386,0.0],[-59.65289,13.27387,0.0],[-59.64899,13.27469,0.0],[-59.63049,13.28679,53.7921],[-59.57682,13.30384,4.5987],[-59.57592,13.30439,0.0]]]}
,"properties": {"ISO3166-1-Alpha-3": "BRB","country": "Barbados","fill": "#F0F","name": "Saint Lucy","area_km2": 37.8401,"hist_schema_id": "Elevation0-9000","hist_area_km2": {"0": 10.76975,"25": 10.02717,"50": 11.61654,"75": 2.68236,"100": 1.96019,"125": 0.74282,"150": 0.04127}}}