{"type":"Feature","properties":{"GID_1":"BRB.7_1","GID_0":"BRB","country":"Barbados","province":"SaintLucy","VARNAME_1":"NA","NL_NAME_1":"NA","TYPE_1":"Parish","ENGTYPE_1":"Parish","CC_1":"NA","HASC_1":"BB.LU","ISO_1":"BB-07","name":"Saint_Lucy.province"},
"geometry":{"type": "MultiPolygon","coordinates": [[[[-59.6465,13.2732,4.6291],[-59.5746,13.2988,0.0],[-59.5737,13.301,0.0],[-59.5776,13.3043,4.5987],[-59.576,13.3068,2.2462],[-59.5821,13.3143,0.0],[-59.5868,13.3149,0.0],[-59.5937,13.3229,0.0],[-59.599,13.3257,0.0],[-59.599,13.3279,0.0],[-59.6015,13.3268,16.0196],[-59.6071,13.3326,0.0],[-59.609,13.3324,2.1528],[-59.6121,13.3349,5.5603],[-59.6176,13.3335,20.448],[-59.6201,13.3346,0.0],[-59.6232,13.3315,25.2444],[-59.6338,13.3287,23.6915],[-59.6374,13.3268,0.0],[-59.6387,13.3218,16.7378],[-59.6507,13.3065,26.3495],[-59.649,13.2915,0.0],[-59.6504,13.2843,11.803],[-59.6465,13.2732,4.6291]]]]}}