{"type":"Feature","properties":{"GID_1":"KNA.3_1","GID_0":"KNA","country":"SaintKittsandNevis","province":"SaintGeorgeBasseterre","VARNAME_1":"NA","NL_NAME_1":"NA","TYPE_1":"Parish","ENGTYPE_1":"Parish","CC_1":"NA","HASC_1":"KN.GB","ISO_1":"KN-03","name":"Saint_George_Basseterre.province"},
"geometry":{"type": "MultiPolygon","coordinates": [[[[-62.6832,17.2947,1.1727],[-62.688,17.2918,1.8074],[-62.6949,17.2929,46.6688],[-62.6973,17.2967,54.4657],[-62.7031,17.301,26.6995],[-62.7084,17.2989,17.7828],[-62.7104,17.3036,19.773],[-62.714,17.3068,24.3611],[-62.7141,17.3091,35.5823],[-62.7245,17.3099,61.7406],[-62.7252,17.3144,91.1395],[-62.7358,17.3154,259.9885],[-62.7391,17.3139,204.3405],[-62.7412,17.317,217.1174],[-62.7459,17.3165,355.9913],[-62.7486,17.3188,448.6205],[-62.7496,17.3235,480.0629],[-62.7546,17.3256,766.5496],[-62.752,17.319,422.2628],[-62.7499,17.3173,391.6753],[-62.7531,17.3124,322.2329],[-62.7465,17.2979,74.9407],[-62.7463,17.2924,12.1828],[-62.7438,17.2915,0.0],[-62.7443,17.2899,0.0],[-62.7404,17.289,4.1011],[-62.7363,17.2904,0.0],[-62.7346,17.2876,0.0],[-62.7299,17.2932,0.5971],[-62.7271,17.2935,0.0],[-62.7221,17.291,0.0],[-62.7199,17.2915,0.0],[-62.7201,17.2943,2.0503],[-62.711,17.2938,3.6587],[-62.7093,17.2929,1.2702],[-62.7107,17.2899,0.9641],[-62.7085,17.2887,1.9897],[-62.7104,17.2854,0.0],[-62.7074,17.2876,1.9897],[-62.7018,17.2818,0.0],[-62.6882,17.281,0.9218],[-62.6832,17.2751,0.0],[-62.6782,17.2751,0.3378],[-62.6738,17.2732,0.0],[-62.6646,17.2665,7.9553],[-62.6604,17.2607,45.3871],[-62.6601,17.2563,7.9874],[-62.6571,17.2504,3.8922],[-62.6601,17.2465,12.3043],[-62.6574,17.2393,0.2994],[-62.6593,17.2354,90.669],[-62.6651,17.2313,7.9012],[-62.6646,17.2276,2.4481],[-62.6604,17.2262,61.8326],[-62.661,17.2232,13.1386],[-62.6587,17.219,34.0676],[-62.6604,17.216,21.8196],[-62.6576,17.2126,0.0],[-62.6551,17.2121,14.7878],[-62.6515,17.2143,39.7606],[-62.6521,17.2235,34.7542],[-62.6501,17.2235,0.0],[-62.6482,17.2265,0.0],[-62.6454,17.2265,0.0],[-62.6415,17.2213,0.0],[-62.6399,17.226,1.5665],[-62.634,17.2299,0.7584],[-62.6321,17.2293,10.8458],[-62.631,17.226,0.0],[-62.6268,17.226,11.6407],[-62.6254,17.2296,0.0],[-62.6282,17.231,10.0725],[-62.6287,17.2337,4.4621],[-62.6207,17.2399,2.8756],[-62.624,17.2474,0.0],[-62.6257,17.2479,1.8847],[-62.6246,17.2501,0.0],[-62.6318,17.2521,0.0],[-62.636,17.2557,0.0],[-62.6387,17.2493,22.6045],[-62.6421,17.2499,3.3118],[-62.6449,17.2582,2.2634],[-62.6476,17.2582,9.8719],[-62.6512,17.2632,0.0],[-62.654,17.2618,9.3727],[-62.6562,17.2635,18.0996],[-62.656,17.2665,3.1802],[-62.6582,17.2699,0.0],[-62.6732,17.2776,1.2252],[-62.6776,17.2849,0.0],[-62.6801,17.2835,15.9366],[-62.6829,17.2854,3.3668],[-62.6832,17.2947,1.1727]]]]}}