{"type": "Feature","id": "5009","bbox": [-77.56188,24.98701,-77.26382,25.08405],"geometry": {"type": "Polygon","coordinates": [[[-77.47997,24.99136,0.2958],[-77.46679,24.98701,1.0517],[-77.45287,24.99461,2.553],[-77.4414,25.00654,2.4325],[-77.43562,25.01488,4.8368],[-77.40368,25.00214,3.3547],[-77.37951,25.00153,1.731],[-77.27473,25.04609,12.3852],[-77.26382,25.05809,0.0],[-77.30207,25.06611,2.1815],[-77.32608,25.07933,0.0],[-77.34,25.08381,1.8117],[-77.35562,25.08405,0.0],[-77.39806,25.07697,0.0],[-77.44083,25.07852,0.0],[-77.45604,25.07697,0.0],[-77.48986,25.06562,0.0],[-77.50451,25.0633,0.0],[-77.52717,25.05439,0.0],[-77.55101,25.03803,0.0],[-77.56188,25.01887,0.0],[-77.54548,25.0019,0.0],[-77.53295,25.00072,7.1024],[-77.51448,25.00117,2.0231],[-77.49511,24.99934,0.0],[-77.47997,24.99136,0.2958]]]}
,"properties": {"ISO3166-1-Alpha-3": "BHS","country": "The Bahamas","fill": "#F0F","name": "New Providence","area_km2": 193.4019,"hist_schema_id": "Elevation0-9000","hist_area_km2": {"0": 182.0115,"25": 11.3904}}}