{"type": "Feature","bbox": [-77.5732,24.974,-76.9671,25.2057],"geometry": {"type": "MultiPolygon","coordinates": [[[[-77.4349,24.974,0.0],[-77.4335,24.974,0.0],[-77.4329,24.9754,0.0],[-77.436,24.9754,0.0],[-77.4349,24.974,0.0]]],
[[[-77.4062,24.9754,0.0],[-77.4043,24.9754,0.0],[-77.4029,24.9771,0.0],[-77.4062,24.9765,0.0],[-77.4062,24.9754,0.0]]],
[[[-77.5682,25.0207,0.464],[-77.5668,25.0221,0.0],[-77.5732,25.0215,0.0],[-77.5718,25.0201,0.0],[-77.5682,25.0207,0.464]]],
[[[-77.3646,25.0885,1.006],[-77.3679,25.089,0.0],[-77.3688,25.0868,0.0],[-77.366,25.0862,0.3598],[-77.3662,25.0824,1.8448],[-77.3599,25.0812,1.1877],[-77.3607,25.0793,2.5858],[-77.3654,25.0812,0.7795],[-77.3712,25.0788,0.4819],[-77.381,25.0793,0.0],[-77.3832,25.0726,0.588],[-77.3876,25.0704,3.6447],[-77.3954,25.0718,4.9399],[-77.3974,25.0746,1.6062],[-77.4049,25.0785,2.0938],[-77.4115,25.0785,0.9227],[-77.414,25.076,5.5923],[-77.4151,25.0771,0.0],[-77.4296,25.0765,2.4332],[-77.4313,25.0785,3.8862],[-77.4299,25.0804,2.866],[-77.4315,25.0812,0.0],[-77.4365,25.0746,3.3412],[-77.4426,25.0738,0.0],[-77.4449,25.0701,6.5316],[-77.4526,25.0696,0.0],[-77.4565,25.066,7.9221],[-77.4651,25.0663,3.03],[-77.4829,25.0637,9.9022],[-77.4865,25.0646,0.0],[-77.4904,25.0624,2.9966],[-77.4957,25.0626,0.988],[-77.4971,25.0601,11.0014],[-77.5024,25.0574,0.0],[-77.4996,25.0543,9.0956],[-77.4996,25.0496,9.8664],[-77.5076,25.0454,2.3679],[-77.5115,25.0451,3.2454],[-77.5135,25.0393,3.4638],[-77.5226,25.0379,0.0],[-77.5235,25.0357,4.3522],[-77.5324,25.0296,5.3529],[-77.5387,25.0304,2.7302],[-77.5407,25.0329,0.0],[-77.546,25.0304,8.382],[-77.5537,25.0312,0.0],[-77.5546,25.029,0.0],[-77.5429,25.029,7.5683],[-77.5421,25.0232,5.0771],[-77.5449,25.0187,2.1349],[-77.5504,25.0182,3.6419],[-77.5543,25.0124,1.1317],[-77.5515,25.0082,0.0],[-77.5462,25.0049,0.0],[-77.5454,25.0018,0.0],[-77.544,25.0038,3.5824],[-77.5432,25.0021,0.0],[-77.5404,25.0032,2.9175],[-77.5368,25.0021,6.7345],[-77.5343,24.9996,0.8194],[-77.5021,25.0015,1.0418],[-77.4907,24.999,1.7425],[-77.4804,24.9926,1.0823],[-77.4765,24.9868,0.1994],[-77.4768,24.9832,0.0],[-77.4735,24.9807,0.0],[-77.4576,24.9804,0.0],[-77.4557,24.9785,0.0],[-77.4426,24.9779,0.0],[-77.4421,24.9807,0.0],[-77.4446,24.9826,0.0902],[-77.4435,24.9849,0.0482],[-77.4282,24.9832,0.0],[-77.4118,24.9888,3.4354],[-77.4104,24.9912,0.0215],[-77.4021,24.9915,0.1823],[-77.3982,24.9871,-0.0347],[-77.4024,24.9888,0.0],[-77.4068,24.9849,0.2762],[-77.404,24.9824,0.3387],[-77.3974,24.9821,0.5545],[-77.3976,24.9763,0.0],[-77.3935,24.9804,1.0255],[-77.3854,24.9815,0.0],[-77.3732,24.9896,0.7773],[-77.3649,24.9912,0.0],[-77.3565,24.9951,0.0],[-77.3487,25.0026,0.3818],[-77.3426,25.0043,0.0],[-77.3421,25.0057,1.0561],[-77.3332,25.0065,0.0],[-77.3265,25.004,0.0],[-77.3265,25.0062,0.3852],[-77.3218,25.0076,0.3208],[-77.3176,25.0046,0.0],[-77.3179,25.0071,0.079],[-77.314,25.006,0.0],[-77.311,25.0076,0.2625],[-77.3035,25.0151,0.066],[-77.2988,25.0157,2.5542],[-77.2929,25.0138,0.0],[-77.2937,25.0151,0.0],[-77.291,25.0168,0.0],[-77.2868,25.0171,1.9188],[-77.2871,25.0154,0.0],[-77.2768,25.0165,0.0],[-77.2704,25.0204,0.0],[-77.2688,25.0199,0.0],[-77.2688,25.0215,0.0],[-77.2668,25.0215,0.0],[-77.2646,25.0285,0.6128],[-77.2588,25.0304,0.0],[-77.2576,25.0332,0.5292],[-77.2588,25.0357,0.0],[-77.2549,25.0399,2.0366],[-77.2613,25.0421,0.0],[-77.2637,25.0451,8.5379],[-77.2671,25.0454,16.2954],[-77.2693,25.0474,8.2587],[-77.2693,25.0499,2.1948],[-77.2765,25.0493,5.9438],[-77.2879,25.0557,0.8044],[-77.2935,25.0568,6.4976],[-77.2937,25.0587,0.0],[-77.2996,25.0621,2.0868],[-77.3004,25.0674,0.0],[-77.3043,25.0654,9.8027],[-77.3054,25.0685,0.0],[-77.304,25.0696,0.0],[-77.3065,25.0707,6.0082],[-77.3068,25.0746,0.0],[-77.3121,25.074,2.896],[-77.3126,25.0757,0.0],[-77.3171,25.0757,0.3681],[-77.3238,25.0785,0.6113],[-77.3257,25.0776,0.0],[-77.3193,25.0765,0.7605],[-77.3193,25.0749,2.4723],[-77.3271,25.0751,5.8955],[-77.3343,25.0796,0.0],[-77.3393,25.079,0.6541],[-77.339,25.0826,0.0],[-77.3404,25.0796,0.6541],[-77.3551,25.0793,0.0],[-77.3562,25.0804,1.7208],[-77.3549,25.0812,0.0],[-77.3546,25.0862,0.0],[-77.3646,25.0885,1.006]]],
[[[-77.3254,25.0899,0.0],[-77.3296,25.0901,0.0],[-77.3279,25.0876,0.6297],[-77.331,25.0851,4.6676],[-77.3543,25.0879,0.0],[-77.3437,25.084,2.3143],[-77.3357,25.0838,3.0361],[-77.3324,25.081,0.0],[-77.331,25.0821,2.8869],[-77.3171,25.0779,0.3097],[-77.3104,25.0788,5.7021],[-77.2918,25.0765,0.0],[-77.2896,25.0793,0.0],[-77.2935,25.0868,0.0],[-77.3143,25.0846,7.402],[-77.3199,25.086,2.9057],[-77.3204,25.0876,0.0],[-77.3254,25.0899,0.0]]],
[[[-77.3776,25.0921,0.0],[-77.3804,25.0929,0.0],[-77.3743,25.0888,3.1303],[-77.3704,25.0896,0.0],[-77.3704,25.0901,0.0],[-77.3776,25.0921,0.0]]],
[[[-77.4051,25.0915,3.0399],[-77.4046,25.0929,0.0],[-77.4124,25.0918,0.0],[-77.4076,25.0896,0.0],[-77.4018,25.0899,0.0],[-77.4051,25.0915,3.0399]]],
[[[-77.2668,25.1001,1.3435],[-77.2685,25.1013,0.0],[-77.2715,25.099,0.0],[-77.2779,25.0979,1.617],[-77.2896,25.1001,0.0],[-77.2926,25.0982,0.5323],[-77.3007,25.0971,0.0],[-77.2882,25.0979,2.0554],[-77.2724,25.0963,0.0],[-77.2643,25.099,0.0],[-77.2654,25.101,0.0],[-77.2668,25.1001,1.3435]]],
[[[-77.2337,25.1054,0.0],[-77.2368,25.1065,0.0],[-77.2335,25.1043,0.0],[-77.2296,25.1046,0.0],[-77.2296,25.1054,0.0],[-77.2337,25.1054,0.0]]],
[[[-77.1888,25.1068,0.0],[-77.1888,25.1079,0.0],[-77.1943,25.1071,0.0],[-77.1974,25.1049,0.0],[-77.1921,25.1043,1.0414],[-77.1885,25.1057,0.0],[-77.1888,25.1068,0.0]]],
[[[-77.2737,25.0804,3.2738],[-77.2782,25.0804,0.6042],[-77.2787,25.0788,0.6042],[-77.2874,25.0799,1.3356],[-77.2876,25.0788,1.3356],[-77.2829,25.0765,0.0],[-77.2754,25.0782,2.2358],[-77.2676,25.0754,0.0],[-77.2674,25.0738,0.0],[-77.2629,25.0715,0.0],[-77.2613,25.0721,2.4873],[-77.2568,25.0696,0.0],[-77.254,25.0707,0.0],[-77.2621,25.0738,0.0],[-77.2688,25.079,0.0],[-77.2737,25.0804,3.2738]]],
[[[-77.266,25.0826,0.0],[-77.271,25.0829,0.0],[-77.2715,25.0815,0.0],[-77.2646,25.081,0.0],[-77.266,25.0826,0.0]]],
[[[-77.1971,25.0843,0.0],[-77.2054,25.0832,0.0],[-77.2074,25.0812,0.0],[-77.1999,25.0824,0.4341],[-77.1971,25.0843,0.0]]],
[[[-77.2521,25.0932,0.0],[-77.2549,25.0938,0.0],[-77.2507,25.091,0.0],[-77.2479,25.0912,0.0],[-77.2482,25.0924,0.0],[-77.2521,25.0932,0.0]]],
[[[-77.0001,24.9999,0.0],[-76.9999,24.9999,0.0],[-76.9999,25.0001,0.0],[-77.0001,25.0001,0.0],[-77.0001,24.9999,0.0]]],
[[[-77.084,25.1296,0.0],[-77.0846,25.131,0.0],[-77.0826,25.1332,0.0],[-77.0851,25.1324,0.0],[-77.086,25.1288,0.0],[-77.0893,25.1254,2.1298],[-77.0957,25.1226,3.2559],[-77.1004,25.1238,0.0],[-77.1015,25.1221,0.0],[-77.1071,25.1207,0.0],[-77.1068,25.1193,0.0],[-77.131,25.1149,0.0],[-77.1326,25.1129,3.7208],[-77.1432,25.1101,0.7263],[-77.146,25.1107,0.0],[-77.1568,25.1049,0.0],[-77.1685,25.101,0.0],[-77.1799,25.0932,8.1939],[-77.1815,25.0938,0.0],[-77.1854,25.0915,3.4651],[-77.1896,25.0924,0.0],[-77.1996,25.0879,3.0195],[-77.2035,25.0885,0.0],[-77.2035,25.0868,5.9618],[-77.2071,25.0879,0.0],[-77.2076,25.0868,4.6876],[-77.2087,25.0882,0.0],[-77.2112,25.0865,4.5713],[-77.2174,25.0871,0.0],[-77.2185,25.0899,4.0456],[-77.2168,25.0904,0.0],[-77.221,25.0899,3.8715],[-77.2243,25.0918,2.3159],[-77.2343,25.0879,3.4168],[-77.2438,25.0912,0.0],[-77.2454,25.0904,0.0],[-77.2349,25.086,1.0206],[-77.2262,25.0849,0.0],[-77.2104,25.084,3.589],[-77.2099,25.0851,3.589],[-77.1993,25.0846,0.0],[-77.1946,25.0862,2.7193],[-77.1921,25.086,3.5056],[-77.1776,25.0912,0.0],[-77.1649,25.101,0.0],[-77.1407,25.1101,0.0],[-77.0943,25.1207,0.0],[-77.0885,25.1243,2.1298],[-77.084,25.1296,0.0]]],
[[[-77.0404,25.1624,0.0],[-77.0413,25.1632,0.0],[-77.0521,25.1557,0.0],[-77.0696,25.151,1.5983],[-77.0726,25.1479,0.0],[-77.0679,25.1507,1.5983],[-77.0512,25.1546,1.5464],[-77.0404,25.1624,0.0]]],
[[[-77.0568,25.1712,0.0],[-77.0576,25.1707,0.0],[-77.0549,25.1715,0.0],[-77.0537,25.174,0.0],[-77.0546,25.174,0.0],[-77.0568,25.1712,0.0]]],
[[[-77.0024,25.1785,0.0],[-77.004,25.179,0.0],[-77.009,25.1771,0.0],[-77.0057,25.1771,0.0],[-77.0024,25.1785,0.0]]],
[[[-77.0387,25.1818,0.0],[-77.0415,25.1821,0.0],[-77.0512,25.1763,0.0],[-77.0446,25.1785,0.0],[-77.0387,25.1818,0.0]]],
[[[-76.9721,25.204,0.0],[-76.9729,25.2029,0.0],[-76.9671,25.2057,0.0],[-76.9707,25.2049,0.0],[-76.9721,25.204,0.0]]]]}
,"properties": {"GID_1": "BHS.21_1","GID_0": "BHS","country": "Bahamas","state": "NewProvidence","VARNAME_1": "NovaProvidência|NuevaProvidenc","NL_NAME_1": "NA","TYPE_1": "District","ENGTYPE_1": "District","CC_1": "NA","HASC_1": "BS.NW","ISO_1": "BS-NP","name": "NewProvidence.state","area_km2": 230.2928,"hist_schema_id": "Elevation0-9000","hist_area_km2": {"0": 217.7884,"25": 12.5044}}}