{"type": "Feature","id": "5096","bbox": [-61.81503,16.98924,-61.72623,17.06428],"geometry": {"type": "Polygon","coordinates": [[[-61.72623,17.03848,0.0],[-61.73339,17.06428,29.3894],[-61.7487,17.0602,24.98],[-61.77421,17.0602,28.4007],[-61.78441,17.06224,36.7436],[-61.80686,17.05612,69.9438],[-61.81503,17.04796,64.5594],[-61.80788,17.03469,170.8914],[-61.81095,17.02347,73.4334],[-61.80407,17.00731,0.0],[-61.7836,17.01691,0.0],[-61.77684,17.01854,0.0],[-61.76976,17.01097,9.8166],[-61.75353,16.99681,0.0],[-61.73713,16.98924,0.0],[-61.72964,17.00117,0.0],[-61.73436,17.02578,0.0],[-61.734,17.03486,0.0],[-61.72623,17.03848,0.0]]]}
,"properties": {"ISO3166-1-Alpha-3": "ATG","country": "Antigua and Barbuda","fill": "#00F","name": "Saint Paul","area_km2": 51.06577,"hist_schema_id": "Elevation0-9000","hist_area_km2": {"0": 12.61002,"25": 12.93339,"50": 9.97357,"75": 6.73026,"100": 2.87869,"125": 2.37188,"150": 1.56097,"175": 0.68927,"200": 0.58791,"225": 0.32437,"250": 0.24327,"275": 0.14191,"300": 0.02027}}}