{"type":"Feature","properties":{"GID_1":"ATG.6_1","GID_0":"ATG","country":"AntiguaandBarbuda","state":"SaintPaul","VARNAME_1":"Nelson'sDockyard","NL_NAME_1":"NA","TYPE_1":"Parish","ENGTYPE_1":"Parish","CC_1":"NA","HASC_1":"AG.PA","ISO_1":"AG-06","name":"SaintPaul.state"},
"geometry":{"type": "MultiPolygon","coordinates": [[[[-61.8177,17.05,91.606],[-61.8094,17.0362,151.2187],[-61.8121,17.0238,177.9674],[-61.809,17.0143,2.2978],[-61.8063,17.0146,3.6218],[-61.8051,17.0132,0.0],[-61.7996,17.0146,5.4926],[-61.7988,17.0118,0.0],[-61.791,17.0112,12.694],[-61.7846,17.006,0.0],[-61.7871,17.0115,4.5723],[-61.7846,17.0135,0.0],[-61.7832,17.0182,0.0],[-61.7801,17.0196,0.0],[-61.7807,17.021,3.3247],[-61.7765,17.0215,0.2149],[-61.7757,17.0199,0.0],[-61.7749,17.0212,0.2149],[-61.7696,17.0215,0.0],[-61.7679,17.0196,1.6218],[-61.7701,17.0179,0.9357],[-61.7696,17.0143,1.2943],[-61.7713,17.0149,0.0],[-61.7729,17.0118,11.2892],[-61.7793,17.0074,0.0],[-61.7785,17.0051,0.0],[-61.7749,17.0049,0.0],[-61.7743,17.0015,0.0],[-61.769,17.0001,0.0],[-61.7665,17.0037,1.6016],[-61.7624,17.0035,0.0],[-61.7629,17.006,2.4987],[-61.7601,17.0057,9.4283],[-61.7593,17.0026,2.2503],[-61.7618,17.0024,0.0],[-61.7604,16.999,0.0],[-61.7582,16.9999,5.4451],[-61.754,16.9971,6.8893],[-61.7513,16.999,43.6551],[-61.746,16.9976,0.0],[-61.739,17.0026,0.0],[-61.739,17.0046,0.0],[-61.7421,17.004,7.6386],[-61.7429,17.0057,1.0387],[-61.7388,17.0063,30.8566],[-61.7365,17.0012,0.0],[-61.7332,17.0026,0.0],[-61.7335,17.0079,13.9064],[-61.7388,17.0137,0.0],[-61.7374,17.016,0.0],[-61.7343,17.016,3.1194],[-61.7354,17.0135,0.0],[-61.7335,17.0107,0.0],[-61.7296,17.0185,0.0],[-61.7307,17.0212,0.0],[-61.7335,17.0226,11.5706],[-61.7335,17.0246,0.0],[-61.7357,17.024,1.2977],[-61.7363,17.026,0.0],[-61.7388,17.0265,2.2845],[-61.7396,17.0326,2.995],[-61.7424,17.034,0.5296],[-61.7415,17.0371,0.0],[-61.744,17.0396,2.1822],[-61.7431,17.0435,0.0],[-61.7465,17.0645,28.425],[-61.7561,17.0645,19.5],[-61.7672,17.0599,24.2632],[-61.7759,17.0625,29.9982],[-61.7989,17.0638,81.9151],[-61.8088,17.0553,50.4912],[-61.8177,17.05,91.606]]]]}}