{"type":"Feature","properties":{"GID_2":"CUB.13.12_1","GID_0":"CUB","country":"Cuba","GID_1":"CUB.13_1","province":"PinardelRío","NL_NAME_1":"NA","county":"SanLuis","VARNAME_2":"NA","NL_NAME_2":"NA","TYPE_2":"Municipio","ENGTYPE_2":"Municipality","CC_2":"NA","HASC_2":"CU.PR.SL","name":"San_Luis.county"},
"geometry":{"type": "MultiPolygon","coordinates": [[[[-83.6953,22.3691,40.3233],[-83.7172,22.3505,49.0843],[-83.7364,22.3394,25.9702],[-83.7568,22.3204,34.3158],[-83.7792,22.2814,19.8692],[-83.7819,22.2382,16.8735],[-83.7895,22.2148,1.5458],[-83.7894,22.1721,2.1094],[-83.7868,22.176,1.6033],[-83.7829,22.1754,2.8464],[-83.791,22.1679,0.3297],[-83.7893,22.166,0.0],[-83.7768,22.1637,0.0],[-83.7515,22.1657,0.5151],[-83.7454,22.1682,0.6796],[-83.7399,22.1685,0.0],[-83.7332,22.1746,0.1832],[-83.7271,22.1765,2.8206],[-83.7054,22.179,1.9633],[-83.6937,22.174,0.0],[-83.6854,22.1726,1.9415],[-83.6849,22.1799,0.0],[-83.689,22.1799,2.0452],[-83.6901,22.1818,8.3494],[-83.6843,22.1812,1.2932],[-83.6857,22.1857,5.6505],[-83.6843,22.189,4.3226],[-83.6751,22.1918,0.0],[-83.6701,22.1901,0.5745],[-83.6612,22.1837,0.9062],[-83.6621,22.1826,0.9062],[-83.6599,22.179,1.174],[-83.6607,22.1729,0.0],[-83.6621,22.1701,0.7597],[-83.6676,22.1676,0.339],[-83.6551,22.166,0.3824],[-83.6485,22.1707,1.3111],[-83.6429,22.1774,0.2482],[-83.6268,22.1815,0.0],[-83.6143,22.1982,3.4218],[-83.604,22.204,0.6967],[-83.6004,22.211,0.3553],[-83.5915,22.2188,0.2447],[-83.5874,22.226,3.2804],[-83.5788,22.2326,4.8137],[-83.5743,22.2335,0.4299],[-83.5746,22.2349,1.6077],[-83.5593,22.2321,2.7869],[-83.5554,22.2263,2.2115],[-83.5551,22.2207,1.0867],[-83.5499,22.2207,2.351],[-83.5474,22.2162,0.0],[-83.5582,22.2493,3.9601],[-83.5835,22.2966,11.5727],[-83.5908,22.3053,18.4771],[-83.6108,22.3169,26.623],[-83.632,22.3342,38.6732],[-83.6598,22.3515,28.8592],[-83.6953,22.3691,40.3233]]]]}}