{"type": "Feature","bbox": [-82.4425,23.0162,-82.3913,23.0812],"geometry": {"type": "MultiPolygon","coordinates": [[[[-82.3913,23.0363,51.5405],[-82.4008,23.0643,41.7917],[-82.4126,23.0812,51.146],[-82.4397,23.0679,31.3794],[-82.4425,23.05,43.2778],[-82.4405,23.0362,56.1417],[-82.4071,23.0162,63.8457],[-82.3949,23.0286,61.4758],[-82.3913,23.0363,51.5405]]]]}
,"properties": {"GID_2": "CUB.4.12_1","GID_0": "CUB","country": "Cuba","GID_1": "CUB.4_1","province": "CiudaddelaHabana","NL_NAME_1": "NA","county": "Playa","VARNAME_2": "NA","NL_NAME_2": "NA","TYPE_2": "Municipio","ENGTYPE_2": "Municipality","CC_2": "NA","HASC_2": "CU.CH.PL","name": "Playa.county","area_km2": 24.71882,"hist_schema_id": "Elevation0-9000","hist_area_km2": {"25": 1.17047,"50": 19.47028,"75": 4.07806}}}