{"type":"Feature","properties":{"GID_3":"HTI.9.3.2_1","GID_0":"HTI","country":"Haiti","GID_1":"HTI.9_1","province":"Sud-Est","NL_NAME_1":"NA","GID_2":"HTI.9.3_1","county":"Jacmel","NL_NAME_2":"NA","city":"CayesJacmel","VARNAME_3":"NA","NL_NAME_3":"NA","TYPE_3":"Commune","ENGTYPE_3":"Commune","CC_3":"NA","HASC_3":"NA","name":"Cayes_Jacmel.city"},
"geometry":{"type": "MultiPolygon","coordinates": [[[[-72.3968,18.2296,4.765],[-72.3951,18.2311,14.943],[-72.3977,18.237,41.9295],[-72.3996,18.253,142.638],[-72.4081,18.2614,360.9258],[-72.411,18.2627,460.3893],[-72.4264,18.2619,502.4595],[-72.4298,18.2603,559.7904],[-72.4411,18.2625,607.7511],[-72.4428,18.2606,569.1993],[-72.4366,18.2562,383.3852],[-72.4412,18.2541,316.754],[-72.4436,18.2426,268.3791],[-72.4359,18.244,123.7314],[-72.4346,18.2268,0.0],[-72.4231,18.2248,0.7813],[-72.3968,18.2296,4.765]]]]}}