{"type":"Feature","properties":{"GID_2":"CUB.7.12_1","GID_0":"CUB","country":"Cuba","GID_1":"CUB.7_1","province":"Holguín","NL_NAME_1":"NA","county":"RafaelFreyre","VARNAME_2":"NA","NL_NAME_2":"NA","TYPE_2":"Municipio","ENGTYPE_2":"Municipality","CC_2":"NA","HASC_2":"CU.HO.RF","name":"Rafael_Freyre.county"},
"geometry":{"type": "MultiPolygon","coordinates": [[[[-75.9199,20.9595,104.5948],[-75.8958,20.9679,135.2809],[-75.8847,20.9916,115.7393],[-75.8749,21.0304,44.9241],[-75.8751,21.0885,0.8999],[-75.8765,21.089,0.0],[-75.8801,21.0863,1.1523],[-75.8826,21.0868,0.2332],[-75.8849,21.090699999999998,11.7414],[-75.8846,21.0926,2.5765],[-75.881,21.0943,3.497],[-75.8829,21.0965,3.7139],[-75.8854,21.0929,2.5765],[-75.8885,21.0915,13.3126],[-75.8932,21.0943,1.5662],[-75.8921,21.0954,15.3268],[-75.8887,21.0926,4.1485],[-75.8857,21.0946,0.0],[-75.8851,21.0979,12.5614],[-75.8865,21.1001,19.5298],[-75.8887,21.1007,1.7206],[-75.8899,21.0993,6.4765],[-75.8907,21.1007,5.5294],[-75.879,21.1054,0.466],[-75.8812,21.1071,1.7662],[-75.8818,21.1101,1.2032],[-75.8874,21.1129,1.1556],[-75.8954,21.1107,1.3719],[-75.9001,21.1151,0.4529],[-75.9229,21.1143,0.5024],[-75.9346,21.1087,1.2569],[-75.9351,21.1068,2.6024],[-75.9335,21.1043,1.7511],[-75.9321,21.1046,1.7511],[-75.9321,21.1029,0.4321],[-75.9388,21.0951,8.4522],[-75.9401,21.0993,0.4288],[-75.9454,21.0976,1.9122],[-75.9624,21.0974,0.0],[-75.9632,21.0938,1.5353],[-75.9607,21.0938,4.0294],[-75.9585,21.0899,0.0],[-75.9604,21.0829,3.3785],[-75.954,21.0799,1.469],[-75.9463,21.0824,4.3283],[-75.946,21.0768,2.4396],[-75.949,21.0754,0.0],[-75.9476,21.071,0.0],[-75.9515,21.0732,2.4582],[-75.9526,21.0779,0.0],[-75.9576,21.0701,0.6182],[-75.9629,21.0693,2.5825],[-75.9576,21.0785,0.0],[-75.9604,21.0796,0.3025],[-75.9615,21.0768,6.4317],[-75.9621,21.0818,0.8776],[-75.9651,21.0788,4.7815],[-75.9638,21.0846,1.0674],[-75.9601,21.0888,0.0],[-75.9649,21.0929,2.5017],[-75.9737,21.0946,0.0],[-75.9826,21.094,0.0],[-75.9879,21.0921,0.0],[-75.9882,21.0904,5.2512],[-75.996,21.0888,0.0],[-75.9976,21.0915,0.6747],[-76.0079,21.0932,0.0],[-76.0079,21.091,0.0],[-76.0054,21.0896,3.436],[-76.0076,21.0885,4.9514],[-76.0076,21.0868,1.4349],[-76.0054,21.0851,3.4031],[-76.009,21.0826,0.0],[-76.0093,21.079,0.4658],[-76.0068,21.0754,0.0],[-76.0049,21.076,3.8262],[-76.0004,21.0735,0.0],[-75.9987,21.0699,3.1041],[-76.0007,21.0676,0.4039],[-76.0051,21.0693,0.8657],[-76.019,21.064,1.5087],[-76.0249,21.0665,1.5768],[-76.0293,21.0651,3.2238],[-76.0301,21.0663,0.0],[-76.0257,21.0701,0.0],[-76.0218,21.0699,0.8377],[-76.0196,21.0654,1.5087],[-76.0182,21.0663,1.5432],[-76.0171,21.071,2.443],[-76.019,21.0793,4.4252],[-76.0165,21.0846,2.604],[-76.0276,21.086,0.8721],[-76.0279,21.0826,3.2884],[-76.0335,21.0799,1.9992],[-76.0332,21.0782,0.0],[-76.0304,21.0771,3.7147],[-76.0354,21.0768,0.0],[-76.034,21.0743,0.0],[-76.0307,21.0738,1.6424],[-76.034,21.0679,2.388],[-76.034,21.0651,2.9977],[-76.036,21.0674,0.0],[-76.0371,21.0654,1.7443],[-76.0404,21.066,1.4544],[-76.0379,21.0699,0.5578],[-76.0418,21.0713,2.2336],[-76.046,21.0682,4.7246],[-76.0443,21.071,1.0425],[-76.046,21.0724,0.9751],[-76.0393,21.0738,2.6937],[-76.0387,21.0771,0.0],[-76.0418,21.0782,0.6191],[-76.0357,21.0796,0.667],[-76.034,21.0824,1.9362],[-76.031,21.0835,0.0],[-76.0301,21.0874,0.0],[-76.0318,21.0896,0.0],[-76.0507,21.0938,0.0],[-76.0651,21.1038,0.0],[-76.0762,21.1021,3.589],[-76.0882,21.1096,2.0254],[-76.1113,21.1132,0.9724],[-76.1143,21.1071,0.0],[-76.1118,21.1029,0.0],[-76.1099,21.1026,5.4375],[-76.109,21.0976,0.0],[-76.1062,21.0951,0.0],[-76.104,21.096,3.3042],[-76.1018,21.0935,3.6301],[-76.1057,21.0913,0.0],[-76.1065,21.0882,2.2016],[-76.1188,21.0874,0.0],[-76.1299,21.0921,0.3893],[-76.1349,21.0993,1.1024],[-76.1304,21.1021,0.0],[-76.1299,21.1045,0.0],[-76.1531,21.1052,75.4297],[-76.1667,21.0901,59.5566],[-76.1854,21.0626,17.2187],[-76.187,21.0145,31.4876],[-76.1267,20.9968,40.0],[-76.1121,20.9893,40.0],[-76.1022,20.975,130.3056],[-76.0976,20.9586,76.6605],[-76.0864,20.9394,93.425],[-76.0466,20.9184,304.1523],[-76.028,20.9125,170.0341],[-76.0112,20.9195,143.9165],[-75.9893,20.9382,130.5034],[-75.9702,20.9476,113.6792],[-75.9405,20.9569,118.7824],[-75.9199,20.9595,104.5948]]],
[[[-75.876,21.1032,0.0],[-75.8776,21.1032,0.0],[-75.8788,21.0985,0.0],[-75.8751,21.0943,0.0],[-75.876,21.0996,0.0],[-75.876,21.1032,0.0]]]]}}