{"type":"Feature","properties":{"GID_2":"CUB.14.8_1","GID_0":"CUB","country":"Cuba","GID_1":"CUB.14_1","province":"SanctiSpíritus","NL_NAME_1":"NA","county":"Yaguajay","VARNAME_2":"NA","NL_NAME_2":"NA","TYPE_2":"Municipio","ENGTYPE_2":"Municipality","CC_2":"NA","HASC_2":"CU.SS.YA","name":"Yaguajay.county"},
"geometry":{"type": "MultiPolygon","coordinates": [[[[-79.0601,22.1312,180.9369],[-79.0434,22.1558,152.9594],[-79.0161,22.2033,42.7783],[-78.9981,22.2242,33.0281],[-78.9864,22.2706,20.8099],[-78.9785,22.2831,18.2523],[-78.9558,22.3066,12.1092],[-78.9327,22.3408,5.6277],[-78.9292,22.355,7.3935],[-78.9288,22.3712,4.4354],[-78.9308,22.3899,3.244],[-78.9468,22.3929,0.0],[-78.9499,22.3888,0.6775],[-78.9532,22.3871,0.0],[-78.9699,22.3954,1.3747],[-78.9788,22.394,0.0],[-78.9796,22.3957,0.0],[-78.9826,22.3951,0.3386],[-78.9868,22.3985,0.145],[-78.9985,22.4004,1.519],[-79.0035,22.4001,0.7544],[-79.0065,22.3957,0.8649],[-79.0115,22.396,0.1593],[-79.0113,22.3926,0.8951],[-79.0157,22.3901,1.1411],[-79.0182,22.3918,1.1045],[-79.0179,22.3935,0.4713],[-79.0221,22.3951,0.6379],[-79.0229,22.3982,0.0],[-79.0326,22.401,0.1912],[-79.0382,22.3993,0.41],[-79.0401,22.3963,0.0],[-79.0376,22.3949,0.0],[-79.031,22.3976,0.9426],[-79.0279,22.3968,0.2284],[-79.0279,22.3954,1.26],[-79.0349,22.3932,0.0],[-79.0349,22.3899,1.0184],[-79.0396,22.3932,0.4486],[-79.0421,22.3915,0.6245],[-79.0457,22.3932,0.7789],[-79.0488,22.3915,0.1968],[-79.0493,22.3893,0.0],[-79.0462,22.3854,0.3746],[-79.0443,22.3871,1.8976],[-79.044,22.3849,0.4514],[-79.0454,22.384,0.3746],[-79.0501,22.384,0.4687],[-79.0549,22.3876,0.3658],[-79.0663,22.3846,0.4999],[-79.0685,22.3801,0.0],[-79.0665,22.3771,3.5422],[-79.0668,22.3743,0.8792],[-79.0732,22.3782,0.5845],[-79.0732,22.3821,0.0],[-79.0754,22.381,1.7384],[-79.0793,22.3818,1.0005],[-79.0807,22.3796,1.9063],[-79.0846,22.3799,1.487],[-79.086,22.3782,2.1624],[-79.0943,22.3799,6.3737],[-79.1007,22.3849,7.5018],[-79.1018,22.3874,3.854],[-79.0993,22.3893,1.8751],[-79.1024,22.3915,0.0],[-79.1054,22.3907,0.0],[-79.1051,22.3863,2.891],[-79.1085,22.386,2.7981],[-79.1149,22.3888,0.0],[-79.1137,22.3924,0.0],[-79.1182,22.3921,0.0],[-79.1235,22.3963,6.1057],[-79.1288,22.3946,5.9379],[-79.1304,22.3968,2.7673],[-79.1338,22.3949,2.5406],[-79.1335,22.3979,0.0],[-79.1379,22.3993,0.0],[-79.141,22.3974,0.0],[-79.1393,22.3937,1.7354],[-79.1404,22.384,0.0],[-79.1465,22.3788,1.5886],[-79.1576,22.3738,0.0],[-79.1696,22.3743,4.8579],[-79.1751,22.3779,2.4355],[-79.181,22.3776,5.8681],[-79.1826,22.3799,0.0],[-79.1893,22.3813,1.1428],[-79.1976,22.3776,4.9228],[-79.2018,22.3807,3.3916],[-79.2012,22.3826,0.4888],[-79.2038,22.3824,2.9735],[-79.211,22.389,0.1745],[-79.2201,22.3893,0.0],[-79.2285,22.3832,1.257],[-79.2296,22.3843,0.0],[-79.2324,22.3835,1.6923],[-79.2396,22.3871,0.0],[-79.2401,22.3849,0.0],[-79.2351,22.3835,0.0],[-79.236,22.381,1.0416],[-79.2387,22.3815,0.0],[-79.236,22.376,0.4224],[-79.2396,22.374,0.0],[-79.2499,22.3726,1.5815],[-79.2582,22.3799,0.5165],[-79.2637,22.3785,3.4859],[-79.2743,22.3813,4.4337],[-79.2749,22.3907,0.0],[-79.2765,22.3935,2.0286],[-79.2796,22.394,0.0],[-79.2812,22.3963,0.0],[-79.2926,22.3971,0.0],[-79.2962,22.399,0.0],[-79.3051,22.3976,1.581],[-79.3074,22.4007,0.0],[-79.3174,22.4037,11.4265],[-79.3199,22.4071,0.0],[-79.3246,22.4088,0.0],[-79.3288,22.4082,10.5757],[-79.3349,22.4135,6.1693],[-79.3451,22.416,1.1725],[-79.349,22.4151,9.6181],[-79.3587,22.4188,8.2747],[-79.3693,22.426,7.6727],[-79.3718,22.4349,0.0],[-79.376,22.4379,0.0],[-79.379,22.4479,6.0466],[-79.3818,22.4512,0.0],[-79.3904,22.454,0.0],[-79.396,22.4585,4.1805],[-79.4082,22.4621,0.8902],[-79.4088,22.4635,0.8902],[-79.4114,22.4614,7.4795],[-79.4148,22.457,3.71],[-79.4187,22.4471,5.6753],[-79.4182,22.4232,12.2271],[-79.4214,22.4152,18.1192],[-79.4348,22.4,80.5536],[-79.4347,22.3932,89.2505],[-79.4324,22.3859,82.9668],[-79.4197,22.3775,94.6788],[-79.4145,22.3646,98.8124],[-79.4101,22.344,121.2162],[-79.4029,22.3265,141.3905],[-79.3993,22.305,215.4806],[-79.3951,22.2965,238.3611],[-79.3871,22.2875,236.9003],[-79.3793,22.2832,221.3969],[-79.3592,22.2761,239.7373],[-79.357,22.2735,233.2878],[-79.357,22.2596,188.9853],[-79.363,22.2472,170.613],[-79.3627,22.2333,170.373],[-79.3589,22.2136,237.5793],[-79.3603,22.2065,195.6837],[-79.3671,22.2035,206.8883],[-79.3799,22.2042,162.0849],[-79.3848,22.207,161.3925],[-79.3843,22.1886,149.1681],[-79.363,22.1481,106.3823],[-79.308,22.1373,164.6777],[-79.2641,22.1378,241.542],[-79.2435,22.1446,204.0868],[-79.2313,22.1447,171.5878],[-79.123,22.0663,157.4953],[-79.1042,22.0643,137.6136],[-79.0699,22.0665,129.032],[-79.075,22.0859,201.0069],[-79.0741,22.1053,197.2945],[-79.0708,22.1148,182.5776],[-79.0601,22.1312,180.9369]]],
[[[-79.1465,22.401,0.0],[-79.1499,22.4013,4.2994],[-79.1501,22.3999,0.0],[-79.1479,22.399,0.0],[-79.1465,22.401,0.0]]],
[[[-79.0065,22.4024,0.0],[-79.0085,22.4029,0.0],[-79.0096,22.4004,0.0],[-79.0054,22.3993,0.3399],[-79.0035,22.4007,0.0],[-79.0065,22.4024,0.0]]],
[[[-79.1801,22.4107,0.0],[-79.1807,22.4112,0.0],[-79.1832,22.409,0.0],[-79.181,22.4085,0.0],[-79.1801,22.4107,0.0]]],
[[[-79.2565,22.3932,0.0],[-79.2576,22.3943,0.5285],[-79.2599,22.3924,0.8606],[-79.2585,22.391,0.0],[-79.2565,22.3932,0.0]]],
[[[-79.2562,22.4121,0.0],[-79.2607,22.4118,1.9842],[-79.2624,22.4082,0.0],[-79.2613,22.404,0.3204],[-79.2632,22.404,0.3204],[-79.2649,22.3993,1.2607],[-79.2665,22.3993,0.4752],[-79.2674,22.3968,0.6675],[-79.2721,22.3935,0.0],[-79.2712,22.3888,1.2519],[-79.2665,22.3838,1.2348],[-79.2637,22.3849,0.6125],[-79.2663,22.3899,0.4317],[-79.2657,22.3924,1.4115],[-79.2621,22.3921,1.5818],[-79.2643,22.396,1.1597],[-79.2632,22.3974,2.5184],[-79.2601,22.3963,0.0],[-79.2599,22.3996,1.7162],[-79.2543,22.4013,0.7129],[-79.2532,22.4051,1.7114],[-79.2579,22.404,0.4965],[-79.2601,22.4079,0.0],[-79.2557,22.411,0.8855],[-79.2562,22.4121,0.0]]],
[[[-79.2535,22.4201,2.0975],[-79.261,22.4207,0.0],[-79.2562,22.414,1.5791],[-79.254,22.4143,0.9306],[-79.2549,22.419,2.0975],[-79.2535,22.4201,2.0975]]],
[[[-79.2671,22.4257,0.0],[-79.2696,22.4254,0.0],[-79.2693,22.4232,1.2769],[-79.2651,22.4218,0.0],[-79.2646,22.4226,0.0],[-79.2671,22.4257,0.0]]],
[[[-79.1871,22.4132,5.2411],[-79.1879,22.4138,0.0],[-79.1899,22.411,1.7675],[-79.1854,22.4129,1.7257],[-79.1871,22.4132,5.2411]]],
[[[-79.1765,22.4179,8.6944],[-79.181,22.4185,3.1121],[-79.1815,22.4165,0.0],[-79.1749,22.4174,8.6944],[-79.1765,22.4179,8.6944]]],
[[[-79.201,22.4271,1.5716],[-79.2038,22.4282,2.4185],[-79.2063,22.4257,2.0789],[-79.2087,22.4188,2.193],[-79.2051,22.4193,0.0],[-79.2015,22.4221,1.3188],[-79.1913,22.4221,7.5467],[-79.1935,22.4251,10.2423],[-79.1976,22.4243,3.2783],[-79.1979,22.4268,4.0948],[-79.201,22.4271,1.5716]]],
[[[-79.2243,22.4363,3.9014],[-79.2346,22.4357,0.0],[-79.2451,22.4276,0.0],[-79.2487,22.4218,0.0],[-79.2407,22.4226,1.2082],[-79.2301,22.4265,0.0],[-79.229,22.4282,1.9028],[-79.231,22.4299,1.5179],[-79.229,22.4338,3.424],[-79.2232,22.4346,0.0],[-79.2243,22.4363,3.9014]]],
[[[-79.281,22.4596,0.3615],[-79.2826,22.4601,1.9584],[-79.2871,22.4546,2.1349],[-79.2937,22.4529,0.8321],[-79.2979,22.4496,0.0],[-79.301,22.4499,1.4066],[-79.3054,22.4468,1.1024],[-79.3101,22.4471,0.0],[-79.3107,22.444,0.0],[-79.3057,22.4438,0.4774],[-79.304,22.446,1.8679],[-79.3015,22.4463,1.8449],[-79.2987,22.4451,0.0],[-79.296,22.4485,0.0],[-79.2857,22.449,0.7768],[-79.2774,22.444,0.3564],[-79.2787,22.4396,1.4996],[-79.2746,22.4376,1.3492],[-79.2724,22.4385,0.0],[-79.2724,22.4435,0.0],[-79.2596,22.4468,0.0],[-79.2543,22.4499,1.866],[-79.2599,22.4565,0.0],[-79.2679,22.4585,0.3535],[-79.2779,22.4574,0.3913],[-79.281,22.4596,0.3615]]],
[[[-79.3432,22.4588,0.0],[-79.3437,22.4601,2.0238],[-79.3468,22.4596,2.3394],[-79.3435,22.4554,0.0],[-79.3432,22.4588,0.0]]],
[[[-79.3015,22.4685,0.0],[-79.301,22.4696,3.016],[-79.3099,22.4693,0.9929],[-79.3198,22.4624,0.0],[-79.3349,22.4601,1.47],[-79.339,22.4613,0.6769],[-79.341,22.459,5.5274],[-79.3382,22.456,3.0835],[-79.3343,22.4546,1.3048],[-79.3346,22.4524,2.6122],[-79.3271,22.4524,3.9924],[-79.3235,22.4576,1.5812],[-79.3187,22.4571,2.0841],[-79.3015,22.4685,0.0]]]]}}