{"type": "Feature","bbox": [-76.62,20.6116,-76.2784,20.8963],"geometry": {"type": "MultiPolygon","coordinates": [[[[-76.4606,20.6116,42.251],[-76.4577,20.6174,42.1047],[-76.4399,20.6282,42.6048],[-76.4209,20.644,43.8667],[-76.4053,20.6523,46.479],[-76.3923,20.6639,49.2645],[-76.3801,20.6828,52.6825],[-76.3616,20.7024,56.982],[-76.3532,20.7169,61.0907],[-76.3283,20.7417,72.2273],[-76.3199,20.7562,74.4136],[-76.3014,20.7758,81.6956],[-76.2931,20.7902,92.3822],[-76.2784,20.8045,90.3344],[-76.2969,20.8176,103.8928],[-76.313,20.8405,115.5286],[-76.3322,20.8572,104.5564],[-76.3863,20.882,155.6366],[-76.4126,20.8862,112.4872],[-76.4287,20.8963,110.7769],[-76.4298,20.8718,98.425],[-76.4357,20.8565,88.297],[-76.4382,20.84,82.4869],[-76.4514,20.8291,79.0],[-76.4627,20.8266,86.2786],[-76.4713,20.83,84.7229],[-76.4791,20.8434,99.0794],[-76.485,20.8618,133.9344],[-76.5013,20.8853,141.3002],[-76.5094,20.888,157.3723],[-76.5185,20.8814,223.4086],[-76.5286,20.8646,152.0191],[-76.5475,20.8437,114.7889],[-76.5767,20.7892,80.9405],[-76.5889,20.7864,76.4455],[-76.6098,20.7935,68.8011],[-76.618,20.7897,62.6743],[-76.62,20.7766,57.9034],[-76.618,20.7502,55.4578],[-76.6148,20.7459,53.7793],[-76.5967,20.7358,49.9629],[-76.5927,20.7281,46.4471],[-76.593,20.7168,44.6115],[-76.5996,20.7016,39.4571],[-76.6016,20.6904,37.0076],[-76.5826,20.6917,38.6936],[-76.5628,20.6987,35.4199],[-76.5538,20.6985,36.1652],[-76.5465,20.6921,35.6302],[-76.5439,20.6818,34.5688],[-76.5453,20.6706,34.6694],[-76.5541,20.6384,35.7375],[-76.5541,20.6331,35.6945],[-76.5502,20.6263,34.2535],[-76.5427,20.6241,34.7652],[-76.4864,20.623,40.1524],[-76.4739,20.6196,41.0778],[-76.4606,20.6116,42.251]]]]}
,"properties": {"GID_2": "CUB.7.4_1","GID_0": "CUB","country": "Cuba","GID_1": "CUB.7_1","province": "Holguín","NL_NAME_1": "NA","county": "Cacocum","VARNAME_2": "NA","NL_NAME_2": "NA","TYPE_2": "Municipio","ENGTYPE_2": "Municipality","CC_2": "NA","HASC_2": "CU.HO.CA","name": "Cacocum.county","area_km2": 647.6929,"hist_schema_id": "Elevation0-9000","hist_area_km2": {"25": 29.1814,"50": 293.8552,"75": 158.5801,"100": 99.3622,"125": 49.7145,"150": 11.9079,"175": 3.9031,"200": 1.149,"225": 0.0396}}}