{"type":"Feature","properties":{"GID_2":"CUB.16.3_1","GID_0":"CUB","country":"Cuba","GID_1":"CUB.16_1","province":"VillaClara","NL_NAME_1":"NA","county":"Cifuentes","VARNAME_2":"NA","NL_NAME_2":"NA","TYPE_2":"Municipio","ENGTYPE_2":"Municipality","CC_2":"NA","HASC_2":"CU.VC.CI","name":"Cifuentes.county"},
"geometry":{"type": "MultiPolygon","coordinates": [[[[-79.8967,22.4994,86.7061],[-79.909,22.5392,87.2805],[-79.9108,22.5929,75.6201],[-79.9175,22.6104,93.6654],[-79.9211,22.6314,106.7156],[-79.9308,22.6495,126.576],[-79.9503,22.67,63.1947],[-79.9633,22.689,69.0584],[-80.0425,22.6891,86.4492],[-80.0749,22.7025,54.1854],[-80.0827,22.7035,55.1571],[-80.1034,22.6945,47.2933],[-80.1271,22.6746,44.3682],[-80.1502,22.6652,64.9713],[-80.1385,22.6471,58.4166],[-80.1289,22.6208,50.4243],[-80.1277,22.5793,57.3114],[-80.1367,22.5676,68.1072],[-80.1753,22.5508,88.9539],[-80.154,22.5151,72.7651],[-80.1542,22.5037,69.0657],[-80.161,22.4875,58.621],[-80.1569,22.478,63.3919],[-80.1469,22.4763,72.6439],[-80.1076,22.4774,96.4608],[-80.0993,22.48,108.5066],[-80.0844,22.4904,137.5916],[-80.0767,22.4917,186.1261],[-80.0085,22.4694,100.0127],[-79.9776,22.4687,108.4731],[-79.9559,22.4621,110.1096],[-79.9207,22.4592,82.627],[-79.9152,22.4786,83.7301],[-79.8967,22.4994,86.7061]]]]}}