{"type": "Feature","bbox": [-80.937,22.1868,-80.6368,22.461],"geometry": {"type": "MultiPolygon","coordinates": [[[[-80.6368,22.3256,51.9455],[-80.6406,22.3383,46.2629],[-80.6612,22.3605,47.9935],[-80.6702,22.377,53.6848],[-80.6846,22.4371,53.7811],[-80.7023,22.4364,50.4142],[-80.7304,22.4437,40.0558],[-80.7537,22.4401,45.0877],[-80.767,22.4399,42.5528],[-80.7823,22.4435,40.2289],[-80.7979,22.4574,39.1034],[-80.802,22.4597,33.4812],[-80.8107,22.461,36.6808],[-80.8241,22.4605,34.8612],[-80.8358,22.4562,28.8398],[-80.8733,22.4318,18.5046],[-80.9019,22.4175,15.4477],[-80.9102,22.4112,13.3742],[-80.9178,22.4034,10.514],[-80.9214,22.3957,10.8075],[-80.9219,22.3756,9.796],[-80.9239,22.3655,9.5552],[-80.9259,22.3596,8.6406],[-80.9338,22.3477,12.9339],[-80.937,22.3367,6.0546],[-80.9349,22.3276,5.5599],[-80.9045,22.3281,9.5544],[-80.9006,22.3231,9.0545],[-80.9003,22.3087,6.4859],[-80.9129,22.2658,6.0527],[-80.9154,22.2519,5.7585],[-80.9149,22.2424,1.9724],[-80.9058,22.2237,1.9247],[-80.8954,22.2174,3.965],[-80.8842,22.1868,2.2715],[-80.803,22.2612,13.6561],[-80.7594,22.2736,28.1833],[-80.6819,22.3103,41.8115],[-80.6556,22.3147,45.7622],[-80.6368,22.3256,51.9455]]]]}
,"properties": {"GID_2": "CUB.3.2_1","GID_0": "CUB","country": "Cuba","GID_1": "CUB.3_1","province": "Cienfuegos","NL_NAME_1": "NA","county": "AguadadePasajeros","VARNAME_2": "NA","NL_NAME_2": "NA","TYPE_2": "Municipio","ENGTYPE_2": "Municipality","CC_2": "NA","HASC_2": "CU.CF.AP","name": "Aguadade_Pasajeros.county","area_km2": 527.629,"hist_schema_id": "Elevation0-9000","hist_area_km2": {"0": 104.4563,"25": 219.7784,"50": 203.3355,"75": 0.0588}}}