{"type": "Feature","bbox": [-63.0171,18.2455,-62.9683,18.2732],"geometry": {"type": "MultiPolygon","coordinates": [[[[-62.9849,18.2455,1.055],[-62.9858,18.2501,0.0],[-62.9754,18.2565,0.0],[-62.9684,18.2659,4.0489],[-62.9683,18.2732,10.3891],[-62.9798,18.2651,5.4115],[-63.0007,18.257,2.4519],[-63.0055,18.2603,7.2201],[-63.0114,18.2597,0.0],[-63.0171,18.2552,21.8012],[-63.0127,18.2521,23.19],[-62.9951,18.2465,8.8976],[-62.9849,18.2455,1.055]]]]}
,"properties": {"GID_1": "AIA.4_1","GID_0": "AIA","country": "Anguilla","state": "IslandHarbour","VARNAME_1": "NA","NL_NAME_1": "NA","TYPE_1": "District","ENGTYPE_1": "District","CC_1": "NA","HASC_1": "AI.IH","ISO_1": "NA","name": "IslandHarbour.state","area_km2": 6.100888,"hist_schema_id": "Elevation0-9000","hist_area_km2": {"0": 3.342367,"25": 2.718251,"50": 0.04027}}}