{"type":"Feature","properties":{"GID_2":"DOM.3.9_1","GID_0":"DOM","country":"DominicanRepublic","GID_1":"DOM.3_1","province":"Barahona","NL_NAME_1":"NA","county":"Polo","VARNAME_2":"NA","NL_NAME_2":"NA","TYPE_2":"Distritomunicipal","ENGTYPE_2":"Municipaldistrict","CC_2":"NA","HASC_2":"DO.BH.PO","name":"Polo.county"},
"geometry":{"type": "MultiPolygon","coordinates": [[[[-71.2922,18.2104,536.1673],[-71.292,18.1978,739.6296],[-71.2955,18.1809,1235.3213],[-71.2991,18.1714,1239.345],[-71.3055,18.1678,1131.3982],[-71.3091,18.1692,1049.1399],[-71.3149,18.1795,898.8019],[-71.3291,18.186,481.6506],[-71.3384,18.1829,440.557],[-71.3366,18.1755,488.056],[-71.3379,18.1728,432.5115],[-71.3424,18.1724,368.2727],[-71.3512,18.1746,428.7804],[-71.364,18.1674,620.2953],[-71.3674,18.1683,682.7828],[-71.3761,18.1751,753.5863],[-71.3891,18.1759,1229.0791],[-71.3962,18.1794,1159.3169],[-71.3995,18.1831,1049.5065],[-71.4024,18.1832,1076.4877],[-71.4086,18.1709,1083.2362],[-71.4184,18.1703,1309.4111],[-71.4144,18.1642,1203.584],[-71.4134,18.1519,1360.1108],[-71.4111,18.1453,1137.5563],[-71.4134,18.1343,1305.3513],[-71.4092,18.1306,1245.559],[-71.3896,18.1268,1083.8494],[-71.3676,18.1133,1195.5658],[-71.3679,18.1091,1146.0562],[-71.3792,18.1009,985.1266],[-71.3504,18.0895,882.5756],[-71.322,18.0632,883.5014],[-71.3106,18.0619,931.3161],[-71.3006,18.0572,894.8665],[-71.2922,18.0559,948.3757],[-71.2697,18.0354,1329.2777],[-71.2613,18.0337,1299.9132],[-71.254,18.0372,967.7842],[-71.2508,18.0437,1141.9863],[-71.2514,18.048,1177.5647],[-71.2561,18.0532,1168.7124],[-71.2553,18.0639,685.7917],[-71.2404,18.0679,454.2327],[-71.2353,18.0731,607.483],[-71.2309,18.0726,683.7053],[-71.2282,18.0678,595.7906],[-71.2237,18.0651,452.2979],[-71.2207,18.0657,521.6749],[-71.2187,18.0695,509.4439],[-71.2298,18.0846,885.275],[-71.2427,18.0948,893.4272],[-71.2399,18.1019,1064.265],[-71.2421,18.1123,1321.4236],[-71.2471,18.1171,1230.6746],[-71.2466,18.1204,1262.8822],[-71.2422,18.1209,1406.6591],[-71.2337,18.1157,1389.7173],[-71.2197,18.1141,1351.5469],[-71.2108,18.0963,966.313],[-71.2048,18.0929,701.3221],[-71.1963,18.0927,1049.2278],[-71.1924,18.0942,1179.4381],[-71.1881,18.1045,1209.8295],[-71.1925,18.1155,1438.5371],[-71.198,18.1139,1354.0416],[-71.2054,18.1199,1589.0684],[-71.218,18.1246,1416.3867],[-71.2243,18.1303,1365.5138],[-71.2298,18.1382,1144.401],[-71.241,18.1455,957.2098],[-71.2694,18.1539,1272.9688],[-71.2738,18.1679,1346.1769],[-71.2717,18.1763,1025.1254],[-71.2744,18.1853,945.2351],[-71.285,18.1971,865.2151],[-71.2873,18.2068,645.577],[-71.2922,18.2104,536.1673]]]]}}