{"type": "Feature","id": "5039","bbox": [-80.46841,23.49405,-78.84203,26.04487],"geometry": {"type": "MultiPolygon","coordinates": [[[[-79.51403,23.49567,0.0],[-79.5384,23.51024,0.0],[-79.53661,23.5065,0.0],[-79.51757,23.49405,14.4024],[-79.51403,23.49567,0.0]]],
[[[-79.55289,23.53376,5.2092],[-79.56334,23.5467,1.1114],[-79.58869,23.57136,5.0934],[-79.59435,23.57465,4.3088],[-79.55455,23.53315,0.0],[-79.55289,23.53376,5.2092]]],
[[[-79.68928,23.69566,0.0],[-79.69091,23.69286,0.0],[-79.68794,23.68875,0.0],[-79.68928,23.69566,0.0]]],
[[[-80.40661,23.70352,0.0],[-80.4049,23.70767,0.0],[-80.41519,23.70645,0.0],[-80.40852,23.70588,0.0],[-80.40713,23.70413,0.0],[-80.40718,23.70303,0.0],[-80.40852,23.70197,0.0],[-80.41202,23.70026,0.0],[-80.4086,23.69864,0.0],[-80.40661,23.70352,0.0]]],
[[[-79.74686,23.81794,0.0],[-79.75141,23.81729,0.0],[-79.74958,23.81582,0.0],[-79.74686,23.81794,0.0]]],
[[[-80.4617,23.95108,0.0],[-80.45962,23.95486,0.0],[-80.46369,23.95173,0.0],[-80.46841,23.94595,0.0],[-80.4617,23.95108,0.0]]],
[[[-80.36254,23.9842,0.0],[-80.36559,23.9866,0.0],[-80.36933,23.98204,0.0],[-80.36254,23.9842,0.0]]],
[[[-80.34789,23.98741,2.8024],[-80.35294,23.98908,0.0],[-80.3544,23.98391,0.0],[-80.34789,23.98741,2.8024]]],
[[[-80.28677,24.01317,0.0],[-80.29402,24.00922,0.0],[-80.28714,24.0076,0.0],[-80.28677,24.01317,0.0]]],
[[[-80.25361,24.01028,0.0],[-80.25597,24.01594,0.0],[-80.25788,24.00882,0.0],[-80.25361,24.01028,0.0]]],
[[[-80.18004,24.03156,0.0],[-80.182,24.03067,0.0],[-80.18098,24.0292,0.0],[-80.18082,24.02924,0.0],[-80.18045,24.02867,0.0],[-80.17919,24.02928,0.0],[-80.17951,24.03103,0.0],[-80.17996,24.03083,0.0],[-80.18004,24.03156,0.0]]],
[[[-79.15311,25.23656,0.0],[-79.15461,25.23656,0.0],[-79.15347,25.23469,0.0],[-79.15311,25.23656,0.0]]],
[[[-79.15071,25.27086,0.0],[-79.15327,25.2696,0.0],[-79.15038,25.26341,0.0],[-79.15071,25.27086,0.0]]],
[[[-79.15372,25.27912,0.0],[-79.15506,25.27831,0.0],[-79.15412,25.27704,0.0],[-79.15372,25.27912,0.0]]],
[[[-79.17097,25.31354,0.0],[-79.17337,25.31354,0.0],[-79.17097,25.31261,0.0],[-79.17097,25.31354,0.0]]],
[[[-79.16881,25.32193,0.0],[-79.16845,25.32307,0.0],[-79.16971,25.32254,0.0],[-79.16971,25.32193,0.0],[-79.16881,25.32193,0.0]]],
[[[-79.18985,25.37381,0.0],[-79.19221,25.37177,0.0],[-79.18843,25.36864,0.0],[-79.18985,25.37381,0.0]]],
[[[-79.19962,25.39798,0.0],[-79.2021,25.39981,0.0],[-79.20234,25.39676,0.0],[-79.19962,25.39545,0.0],[-79.19962,25.39798,0.0]]],
[[[-79.20832,25.4182,0.0223],[-79.20893,25.41975,0.1441],[-79.20971,25.41783,0.0223],[-79.20832,25.41665,-0.0095],[-79.20832,25.4182,0.0223]]],
[[[-79.21085,25.42365,0.0],[-79.21284,25.4228,0.0],[-79.21182,25.42129,0.0],[-79.2117,25.42133,0.0],[-79.21129,25.42076,0.0],[-79.21003,25.42137,0.0],[-79.21036,25.42316,0.0],[-79.21076,25.42296,0.0],[-79.21085,25.42365,0.0]]],
[[[-79.26126,25.52375,0.0],[-79.26187,25.52468,0.0],[-79.26126,25.51878,0.0],[-79.26126,25.52375,0.0]]],
[[[-79.26651,25.53783,2.3596],[-79.26871,25.53856,3.4838],[-79.26431,25.52879,0.0],[-79.26212,25.52806,0.0],[-79.26651,25.53783,2.3596]]],
[[[-79.27941,25.55166,10.6715],[-79.28844,25.56297,0.0],[-79.28893,25.55915,0.0],[-79.2799,25.5478,6.5076],[-79.27941,25.55166,10.6715]]],
[[[-79.2989,25.58173,2.2866],[-79.30643,25.58588,0.0],[-79.30313,25.58401,0.0],[-79.29735,25.57172,0.0],[-79.2989,25.58173,2.2866]]],
[[[-79.31176,25.60427,0.0],[-79.31371,25.60342,0.0],[-79.31265,25.60191,0.0],[-79.31257,25.60196,0.0],[-79.31216,25.60139,0.0],[-79.3109,25.602,0.0],[-79.31123,25.60375,0.0],[-79.31163,25.60354,0.0],[-79.31176,25.60427,0.0]]],
[[[-79.30496,25.68964,0.0],[-79.30606,25.69066,0.0],[-79.307,25.68911,0.0],[-79.30545,25.68871,0.0],[-79.30496,25.68964,0.0]]],
[[[-79.24608,25.76386,0.0],[-79.25007,25.77473,0.0],[-79.26106,25.77192,0.0],[-79.28034,25.75723,0.0],[-79.29381,25.73603,2.7997],[-79.30126,25.71686,0.0],[-79.30427,25.70234,0.0],[-79.30065,25.69794,6.0947],[-79.28917,25.69766,5.117],[-79.26183,25.69375,10.6691],[-79.25805,25.69904,10.5498],[-79.26814,25.7071,0.0],[-79.28331,25.7128,0.0],[-79.29385,25.72069,0.0],[-79.29157,25.73383,3.6692],[-79.28624,25.74152,2.9137],[-79.27904,25.74999,3.6117],[-79.26553,25.76162,0.0],[-79.26171,25.75666,0.0],[-79.26871,25.7416,0.905],[-79.26696,25.73249,4.125],[-79.25463,25.73603,5.197],[-79.24804,25.73896,3.4585],[-79.24592,25.73456,1.268],[-79.24323,25.74291,6.7921],[-79.24608,25.76386,0.0]]],
[[[-78.84203,25.95454,0.0],[-78.84329,25.95681,0.0],[-78.84406,25.95433,0.0],[-78.84268,25.9536,0.0],[-78.84203,25.95454,0.0]]],
[[[-78.8498,25.95917,0.0],[-78.85017,25.95702,0.0],[-78.8483,25.95669,0.0],[-78.8498,25.95917,0.0]]],
[[[-78.88504,25.97427,0.0],[-78.88703,25.97342,0.0],[-78.88598,25.97191,0.0],[-78.88589,25.97195,0.0],[-78.88549,25.97138,0.0],[-78.88423,25.97199,0.0],[-78.88451,25.97378,0.0],[-78.88496,25.97354,0.0],[-78.88504,25.97427,0.0]]],
[[[-79.12942,25.98029,0.0],[-79.13105,25.98184,0.0],[-79.13101,25.97903,0.0],[-79.12942,25.98029,0.0]]],
[[[-79.00927,26.02855,0.0],[-79.01089,26.03083,0.0],[-79.01016,26.02761,0.0],[-79.00927,26.02855,0.0]]],
[[[-79.08585,26.02977,1.8814],[-79.08861,26.03205,0.0],[-79.09415,26.03132,0.0],[-79.09244,26.02761,0.0],[-79.08585,26.02977,1.8814]]],
[[[-79.06241,26.04328,0.0],[-79.06416,26.04487,0.0],[-79.06562,26.0423,0.0],[-79.06501,26.04137,0.0],[-79.06241,26.04328,0.0]]]]}
,"properties": {"ISO3166-1-Alpha-3": "BHS","country": "The Bahamas","fill": "#F0F","name": "Bimini","area_km2": 24.23797,"hist_schema_id": "Elevation0-9000","hist_area_km2": {"0": 23.16543,"25": 1.07253}}}