{"type": "Feature","bbox": [-79.4493,21.9378,-79.1919,22.1481],"geometry": {"type": "MultiPolygon","coordinates": [[[[-79.4493,21.983,82.4013],[-79.3864,21.9815,60.7599],[-79.3218,21.952,43.4886],[-79.2907,21.949,63.2201],[-79.2603,21.9378,80.4294],[-79.2459,21.9511,77.3196],[-79.2213,21.9983,117.5569],[-79.2113,22.0261,106.3373],[-79.2115,22.0376,111.8038],[-79.2262,22.0727,167.3807],[-79.2262,22.0802,226.8425],[-79.2208,22.088,183.3031],[-79.1919,22.1151,152.9645],[-79.2313,22.1447,171.5878],[-79.2435,22.1446,204.0868],[-79.2641,22.1378,241.542],[-79.308,22.1373,164.6777],[-79.363,22.1481,106.3823],[-79.3701,22.128,88.3562],[-79.3895,22.1072,67.1482],[-79.4079,22.0811,89.8108],[-79.4262,22.047,88.4595],[-79.4349,22.0287,127.2191],[-79.4378,22.0076,102.3424],[-79.4493,21.983,82.4013]]]]}
,"properties": {"GID_2": "CUB.14.6_1","GID_0": "CUB","country": "Cuba","GID_1": "CUB.14_1","province": "SanctiSpíritus","NL_NAME_1": "NA","county": "Taguasco","VARNAME_2": "NA","NL_NAME_2": "NA","TYPE_2": "Municipio","ENGTYPE_2": "Municipality","CC_2": "NA","HASC_2": "CU.SS.TA","name": "Taguasco.county","area_km2": 405.948,"hist_schema_id": "Elevation0-9000","hist_area_km2": {"25": 2.3004,"50": 58.466,"75": 121.5278,"100": 82.0251,"125": 52.2269,"150": 47.2483,"175": 26.3225,"200": 10.6064,"225": 3.457,"250": 1.7677}}}