{"type":"Feature","properties":{"ISO3166-1-Alpha-3":"BRB","country":"Barbados","fill":"#00F","id":"1994","name":"Saint Joseph"},
"geometry":{"type": "Polygon","coordinates": [[[-59.51805,13.21751,0.0],[-59.51806,13.21752,0.0],[-59.53661,13.23139,0.0],[-59.54581,13.2438,0.0],[-59.54584,13.24379,0.0],[-59.54817,13.24327,28.8522],[-59.5608,13.23744,16.7894],[-59.56383,13.23666,17.5837],[-59.56507,13.23723,24.8689],[-59.56535,13.23749,24.8689],[-59.56569,13.238,24.8689],[-59.56595,13.23821,24.8689],[-59.5662,13.23837,24.8689],[-59.56657,13.23842,25.2776],[-59.56698,13.23837,25.2776],[-59.56755,13.23821,25.2776],[-59.57067,13.2333,82.6606],[-59.58098,13.20984,301.1435],[-59.56688,13.20121,239.6957],[-59.56548,13.19997,309.7455],[-59.56279,13.19682,313.9853],[-59.55429,13.18007,249.8615],[-59.54088,13.18245,266.6041],[-59.54021,13.1825,266.6041],[-59.53928,13.19816,320.6862],[-59.53905,13.19956,287.9124],[-59.53856,13.20142,252.0953],[-59.53768,13.20142,285.8053],[-59.53726,13.20147,285.8053],[-59.53683,13.20157,285.8053],[-59.52042,13.21651,0.0],[-59.51805,13.21751,0.0]]]}}