{"type": "Feature","bbox": [-59.575,13.167,-59.5088,13.2338],"geometry": {"type": "MultiPolygon","coordinates": [[[[-59.575,13.2033,188.1265],[-59.5573,13.1868,289.4357],[-59.553,13.167,221.3924],[-59.5088,13.2099,1.5748],[-59.5135,13.211,11.3939],[-59.5151,13.2129,4.6351],[-59.5226,13.214,0.0],[-59.5299,13.219,7.2128],[-59.5337,13.2235,19.9438],[-59.5324,13.2246,0.0],[-59.5385,13.2285,1.9326],[-59.5412,13.2338,0.0],[-59.5641,13.2182,131.4059],[-59.575,13.2033,188.1265]]]]}
,"properties": {"GID_1": "BRB.6_1","GID_0": "BRB","country": "Barbados","province": "SaintJoseph","VARNAME_1": "NA","NL_NAME_1": "NA","TYPE_1": "Parish","ENGTYPE_1": "Parish","CC_1": "NA","HASC_1": "BB.JS","ISO_1": "NA","name": "Saint_Joseph.province","area_km2": 24.00634,"hist_schema_id": "Elevation0-9000","hist_area_km2": {"0": 0.45409,"25": 0.82562,"50": 0.6605,"75": 1.03203,"100": 1.42422,"125": 1.96088,"150": 1.85769,"175": 1.85771,"200": 1.79579,"225": 2.02295,"250": 1.77526,"275": 3.26157,"300": 2.91059,"325": 2.14681,"350": 0.02064}}}