{"type":"Feature","properties":{"GID_1":"PRI.58_1","GID_0":"PRI","country":"PuertoRico","province":"Ponce","VARNAME_1":"NA","NL_NAME_1":"NA","TYPE_1":"Municipio","ENGTYPE_1":"Municipality","CC_1":"NA","HASC_1":"PR.PO","ISO_1":"-","name":"Ponce.province"},
"geometry":{"type": "MultiPolygon","coordinates": [[[[-66.5121,17.9026,0.7187],[-66.514,17.9029,0.4907],[-66.5246,17.896,0.0],[-66.5279,17.889,0.0],[-66.5276,17.8857,0.9655],[-66.5304,17.8843,0.0],[-66.5296,17.8826,0.0],[-66.5221,17.8899,0.9001],[-66.5157,17.8918,0.0],[-66.5096,17.8982,0.0],[-66.5101,17.9013,0.0],[-66.5121,17.9026,0.7187]]],
[[[-66.6796,17.9538,0.0],[-66.6818,17.954,0.0],[-66.6832,17.9515,0.0],[-66.6796,17.9515,0.0],[-66.6796,17.9538,0.0]]],
[[[-66.5554,17.9615,0.0],[-66.5526,17.9618,0.0],[-66.5521,17.9635,0.0],[-66.5585,17.9624,0.0],[-66.5554,17.9615,0.0]]],
[[[-66.6832,18.1308,810.3575],[-66.6943,18.1307,960.1069],[-66.6788,18.1036,663.3701],[-66.6782,18.0864,393.3773],[-66.6795,18.0716,205.8514],[-66.6872,18.0539,245.7876],[-66.6895,18.0401,143.7771],[-66.6894,18.03,115.0646],[-66.6865,18.0157,236.5578],[-66.6901,18.0038,206.2564],[-66.6878,17.999,218.1843],[-66.6868,17.9909,147.4642],[-66.6932,17.9837,126.2066],[-66.6983,17.9813,96.5425],[-66.6987,17.9771,14.5197],[-66.6949,17.9746,0.0],[-66.6918,17.9751,0.0],[-66.6849,17.9726,0.0],[-66.6796,17.9732,0.954],[-66.6751,17.9699,1.7955],[-66.6746,17.9671,0.3997],[-66.6712,17.966,0.0],[-66.6679,17.9668,0.0],[-66.6668,17.9688,1.2301],[-66.6624,17.9685,0.0],[-66.6643,17.971,0.4765],[-66.6624,17.9701,0.3569],[-66.6612,17.9724,1.5379],[-66.6496,17.9799,1.2453],[-66.6432,17.981,0.9841],[-66.6424,17.9796,0.0],[-66.6424,17.9813,1.642],[-66.6271,17.9826,1.9592],[-66.6174,17.9776,1.5549],[-66.6188,17.974,0.0],[-66.6162,17.9715,1.8808],[-66.621,17.9685,0.0],[-66.621,17.9665,0.0],[-66.619,17.9679,1.0081],[-66.6174,17.9665,0.0],[-66.6199,17.9624,0.7207],[-66.6132,17.9624,0.0],[-66.6126,17.9638,2.5183],[-66.6101,17.9635,0.0],[-66.6096,17.9662,1.6731],[-66.6068,17.9685,1.3816],[-66.601,17.9693,2.6107],[-66.599,17.9674,0.0],[-66.594,17.9713,2.2633],[-66.5865,17.9674,1.0234],[-66.5835,17.9607,0.0],[-66.5785,17.9615,0.0],[-66.5674,17.9671,1.6367],[-66.559,17.9676,0.813],[-66.5551,17.9715,3.2566],[-66.5493,17.9743,2.5895],[-66.5393,17.9737,0.0],[-66.5415,17.9904,8.9159],[-66.536,17.9924,7.7658],[-66.5305,18.001,10.2686],[-66.539,18.0258,26.578],[-66.5427,18.0324,41.5495],[-66.5372,18.0411,46.056],[-66.5452,18.0687,109.3524],[-66.5499,18.0796,186.3068],[-66.5554,18.0844,270.9693],[-66.549,18.0954,417.5725],[-66.5509,18.1025,482.4256],[-66.5556,18.1159,566.458],[-66.5616,18.1154,558.5202],[-66.5654,18.1301,588.3447],[-66.5632,18.1435,798.0821],[-66.5562,18.1469,974.0966],[-66.5526,18.1521,1192.4457],[-66.5591,18.1535,1159.6237],[-66.5674,18.1597,1229.8748],[-66.5749,18.1682,1301.8562],[-66.591,18.1719,1248.2573],[-66.5961,18.1714,1165.1309],[-66.6159,18.1589,853.2216],[-66.6298,18.1578,780.6771],[-66.6316,18.1507,782.9192],[-66.6394,18.1521,766.1718],[-66.6501,18.1591,804.1009],[-66.6704,18.1528,843.6676],[-66.6767,18.1303,755.5067],[-66.6808,18.1293,817.4504],[-66.6832,18.1308,810.3575]]]]}}