{"type":"Feature","properties":{"GID_2":"DOM.6.5_1","GID_0":"DOM","country":"DominicanRepublic","GID_1":"DOM.6_1","province":"Duarte","NL_NAME_1":"NA","county":"Pimentel","VARNAME_2":"NA","NL_NAME_2":"NA","TYPE_2":"Municipio","ENGTYPE_2":"Municipality","CC_2":"NA","HASC_2":"DO.DU.PI","name":"Pimentel.county"},
"geometry":{"type": "MultiPolygon","coordinates": [[[[-70.0856,19.2588,165.089],[-70.0924,19.2729,144.6518],[-70.1085,19.2736,135.6387],[-70.1198,19.276,194.6092],[-70.1338,19.2692,119.982],[-70.1407,19.2552,80.9816],[-70.1506,19.253,75.0213],[-70.1588,19.2438,82.5923],[-70.1651,19.2445,85.9169],[-70.1762,19.2393,68.9742],[-70.183,19.2237,58.783],[-70.1827,19.2156,58.5552],[-70.1785,19.2085,51.7966],[-70.1855,19.1901,39.8803],[-70.1815,19.1814,41.6073],[-70.1831,19.175,36.2386],[-70.1825,19.1681,36.959],[-70.1779,19.1636,36.0615],[-70.1772,19.1583,35.9201],[-70.1693,19.1572,32.01],[-70.1672,19.148,33.2548],[-70.1581,19.1482,32.8173],[-70.154,19.1454,33.8231],[-70.1525,19.1393,31.2982],[-70.1467,19.1384,33.0282],[-70.1451,19.1403,32.6584],[-70.1471,19.1462,31.5449],[-70.1465,19.1489,33.9819],[-70.1405,19.1522,30.7038],[-70.1326,19.1524,29.1388],[-70.1323,19.1563,31.2374],[-70.1301,19.1574,28.5923],[-70.1273,19.1556,30.6181],[-70.1251,19.1509,33.1356],[-70.1063,19.1522,32.9173],[-70.1038,19.1512,27.4508],[-70.1021,19.1476,25.1633],[-70.0969,19.145,39.2898],[-70.084,19.1469,30.1144],[-70.0779,19.1514,23.1714],[-70.0731,19.1436,27.6368],[-70.0719,19.145,31.8368],[-70.07,19.1518,26.944],[-70.0704,19.1624,29.1366],[-70.074,19.168,29.5121],[-70.0806,19.1711,37.5128],[-70.0828,19.1776,32.5498],[-70.0781,19.1862,41.2912],[-70.0709,19.1939,45.9938],[-70.0706,19.1988,56.1386],[-70.0866,19.2084,53.1653],[-70.0907,19.208,52.8605],[-70.0971,19.2031,47.6496],[-70.0999,19.203,46.5421],[-70.1028,19.2058,41.1776],[-70.1024,19.2134,52.5964],[-70.0962,19.228,66.514],[-70.0884,19.2376,85.4729],[-70.0901,19.2463,97.9014],[-70.0855,19.2517,111.2752],[-70.0856,19.2588,165.089]]]]}}