{"type": "Feature","bbox": [-84.1452,22.3325,-83.7815,22.7601],"geometry": {"type": "MultiPolygon","coordinates": [[[[-83.9274,22.3606,301.8529],[-83.9116,22.3325,155.4416],[-83.9025,22.3527,224.9055],[-83.8971,22.3598,201.4884],[-83.8821,22.3735,190.3712],[-83.8624,22.3846,276.9236],[-83.8131,22.431,209.7596],[-83.8041,22.4407,149.4177],[-83.797,22.4536,156.8387],[-83.7815,22.4717,236.6038],[-83.7985,22.4778,192.9226],[-83.8076,22.4907,262.8191],[-83.8166,22.5088,168.4144],[-83.8203,22.5299,252.9725],[-83.8277,22.5508,208.8727],[-83.825,22.5662,168.8447],[-83.7953,22.6065,398.2938],[-83.7927,22.6418,152.253],[-83.7856,22.6613,221.9269],[-83.7863,22.6991,32.6483],[-83.8032,22.744,1.7831],[-83.809,22.7426,1.044],[-83.8118,22.7457,0.0],[-83.8174,22.7479,0.7253],[-83.8254,22.741,1.432],[-83.8293,22.7426,0.6085],[-83.8346,22.7404,3.3238],[-83.8343,22.7443,1.3793],[-83.8365,22.746,0.8546],[-83.8407,22.7449,3.1944],[-83.8412,22.7465,0.6942],[-83.8449,22.7471,0.0],[-83.8465,22.749,0.0],[-83.8499,22.7488,0.0],[-83.8499,22.7474,0.7484],[-83.8551,22.7479,1.0534],[-83.8521,22.749,1.4269],[-83.8451,22.756,0.0],[-83.8451,22.7601,0.0],[-83.8515,22.7554,1.0969],[-83.8521,22.7515,1.0802],[-83.8562,22.7518,0.0],[-83.8568,22.7485,0.8149],[-83.8607,22.7504,0.8645],[-83.8651,22.7471,0.0],[-83.8796,22.7421,0.0],[-83.881,22.7324,0.9981],[-83.8782,22.7343,1.6173],[-83.8774,22.7335,1.4271],[-83.881,22.7288,0.4743],[-83.8821,22.7201,0.6605],[-83.8876,22.7107,0.9712],[-83.8935,22.7107,2.2039],[-83.8993,22.7243,0.0],[-83.9032,22.7285,2.1156],[-83.9074,22.7279,2.3208],[-83.9096,22.7237,2.2625],[-83.9121,22.7235,0.0],[-83.9121,22.7218,0.0],[-83.9096,22.7207,1.9113],[-83.909,22.7151,3.0004],[-83.9137,22.7187,1.8239],[-83.9146,22.7215,0.5968],[-83.9174,22.7201,1.3685],[-83.9201,22.721,0.0],[-83.9238,22.7182,2.7604],[-83.9243,22.7226,0.6645],[-83.9315,22.7218,1.7401],[-83.931,22.7193,1.0302],[-83.9335,22.7199,1.7689],[-83.9349,22.7182,0.7796],[-83.9335,22.7154,1.6971],[-83.934,22.7068,3.0261],[-83.9418,22.7007,0.9096],[-83.9426,22.6974,0.6335],[-83.9443,22.6971,0.6335],[-83.9443,22.6937,2.0314],[-83.9499,22.6896,1.9174],[-83.9521,22.6918,0.7586],[-83.9507,22.7007,0.0],[-83.9576,22.6993,0.7509],[-83.9687,22.6854,1.8545],[-83.9671,22.6813,0.0],[-83.9654,22.6832,0.7428],[-83.9649,22.6804,0.0],[-83.9624,22.6799,0.2123],[-83.9624,22.6785,1.0836],[-83.9646,22.6782,0.8456],[-83.9651,22.6801,0.0],[-83.9671,22.6793,0.5822],[-83.9679,22.6743,0.0],[-83.9685,22.6826,0.5637],[-83.9707,22.6846,0.2928],[-83.9749,22.6843,0.9534],[-83.9801,22.6793,0.0],[-83.9812,22.6754,0.0],[-83.9793,22.674,1.4772],[-83.979,22.671,0.677],[-83.9815,22.6693,0.8745],[-83.9846,22.6704,1.8864],[-83.9857,22.674,0.0],[-83.9899,22.6724,1.6934],[-83.9968,22.6779,0.0],[-83.9999,22.6774,0.4457],[-83.9996,22.6801,0.0],[-84.0076,22.6824,0.624],[-84.0085,22.6974,0.0],[-84.011,22.6996,0.0],[-84.011,22.7018,1.3213],[-84.0132,22.7013,2.8661],[-84.0146,22.7029,6.8731],[-84.0129,22.7035,0.0],[-84.0137,22.7068,0.0],[-84.0163,22.704,1.6389],[-84.0185,22.7051,4.2145],[-84.0185,22.7124,0.0],[-84.0221,22.715699999999998,0.0],[-84.0243,22.7138,0.0],[-84.0274,22.7143,0.0],[-84.031,22.7115,4.5916],[-84.0443,22.7082,0.5294],[-84.0457,22.7057,0.3382],[-84.0496,22.7043,0.0],[-84.056,22.6963,0.0],[-84.056,22.6901,0.7913],[-84.0593,22.6863,1.3567],[-84.0585,22.6815,0.0],[-84.0551,22.6835,0.0],[-84.054,22.6963,2.301],[-84.0435,22.7018,0.0],[-84.0429,22.7032,0.0],[-84.0443,22.7035,1.2735],[-84.043,22.7046,3.1488],[-84.0393,22.7021,1.6897],[-84.0393,22.704,4.375],[-84.0371,22.7054,2.5021],[-84.0357,22.7029,0.5016],[-84.0368,22.7004,0.9258],[-84.0351,22.6982,0.0],[-84.0293,22.701,4.3823],[-84.026,22.6999,1.1408],[-84.026,22.696,1.1359],[-84.0276,22.6946,0.0],[-84.0257,22.6932,0.5348],[-84.026,22.689,0.0],[-84.0229,22.689,2.8451],[-84.0176,22.6807,0.504],[-84.0146,22.6799,0.0],[-84.016,22.6768,0.0],[-84.0201,22.6751,1.8313],[-84.0204,22.6729,2.6293],[-84.0263,22.6738,0.0],[-84.0265,22.6712,1.2561],[-84.0293,22.6707,0.0],[-84.0296,22.6679,0.4953],[-84.0271,22.6665,0.0],[-84.0268,22.6643,0.9209],[-84.0296,22.6643,0.0],[-84.0301,22.6599,1.807],[-84.0354,22.6535,0.0],[-84.0346,22.6488,1.6318],[-84.0365,22.644,1.0072],[-84.0424,22.6413,1.6376],[-84.0454,22.6421,0.0],[-84.0451,22.6468,0.0],[-84.0476,22.6482,1.2818],[-84.049,22.653199999999998,0.0],[-84.0515,22.653199999999998,1.2814],[-84.0518,22.6554,1.912],[-84.0535,22.6557,0.5111],[-84.0549,22.6624,0.0],[-84.0579,22.6649,0.0],[-84.0585,22.6565,2.3096],[-84.0649,22.6529,1.6809],[-84.0657,22.6543,0.9987],[-84.0649,22.6554,0.9987],[-84.071,22.653199999999998,0.0],[-84.0679,22.6529,1.5359],[-84.0649,22.6493,1.0118],[-84.0679,22.6426,1.0221],[-84.0696,22.6435,0.8098],[-84.0721,22.6418,0.9797],[-84.074,22.6443,0.0],[-84.0754,22.6421,0.7552],[-84.0813,22.6407,0.5985],[-84.0824,22.6424,0.854],[-84.0799,22.6437,0.3989],[-84.0865,22.6463,1.7481],[-84.089,22.644,0.0],[-84.0882,22.6376,1.7978],[-84.0849,22.6382,1.7793],[-84.0821,22.6346,1.046],[-84.0826,22.6332,2.5918],[-84.0862,22.6326,0.8483],[-84.086,22.6301,2.8557],[-84.0882,22.6288,0.0],[-84.0843,22.6285,1.3992],[-84.0826,22.6254,0.0],[-84.0782,22.6243,1.9352],[-84.0779,22.6224,1.3787],[-84.0815,22.611,2.1346],[-84.086,22.6099,0.2317],[-84.0893,22.606,1.8308],[-84.0918,22.6057,0.8855],[-84.0954,22.6082,0.927],[-84.1026,22.6046,3.9331],[-84.1068,22.606,0.0],[-84.101,22.619,2.5495],[-84.1015,22.6224,0.0],[-84.111,22.6235,3.0828],[-84.1118,22.6224,0.0],[-84.109,22.6221,2.6253],[-84.1082,22.619,1.3493],[-84.1135,22.6174,1.0567],[-84.116,22.6176,2.3614],[-84.1168,22.6199,1.1623],[-84.1201,22.6182,2.3283],[-84.1229,22.6207,0.0],[-84.1279,22.6196,3.012],[-84.1335,22.6215,3.8006],[-84.1346,22.6196,2.1787],[-84.1318,22.6154,0.0],[-84.1304,22.6151,0.0],[-84.1299,22.6176,6.3575],[-84.1274,22.6176,3.3195],[-84.1235,22.6129,0.0],[-84.1154,22.611,0.4028],[-84.1149,22.6087,0.8927],[-84.1176,22.6082,0.263],[-84.119,22.6035,1.0806],[-84.1237,22.6032,0.0],[-84.124,22.5982,0.3626],[-84.1282,22.5993,0.2151],[-84.1307,22.6018,0.4666],[-84.1326,22.594,0.0],[-84.1312,22.5915,0.3806],[-84.129,22.5924,0.0],[-84.1279,22.5888,0.0],[-84.1304,22.5851,0.5762],[-84.1338,22.5843,0.0],[-84.1282,22.5815,0.0],[-84.1257,22.5757,0.4554],[-84.1276,22.5743,1.9362],[-84.1285,22.5701,1.6061],[-84.1387,22.5651,0.8928],[-84.1452,22.5561,3.7667],[-84.133,22.5392,29.4386],[-84.1024,22.4822,63.7404],[-84.0954,22.4762,49.7464],[-84.065,22.4608,68.8236],[-84.0312,22.4029,93.975],[-83.9985,22.4013,292.7844],[-83.9772,22.3947,77.8592],[-83.9414,22.3914,107.2846],[-83.9326,22.3787,186.0654],[-83.9274,22.3606,301.8529]]],
[[[-84.0421,22.6632,0.9118],[-84.0443,22.6621,0.0],[-84.044,22.6599,0.0],[-84.0429,22.661,0.6979],[-84.0421,22.6632,0.9118]]],
[[[-84.0054,22.726,0.0],[-84.0065,22.726,0.0],[-84.0062,22.7232,0.547],[-84.0046,22.7226,0.547],[-84.0038,22.7243,0.0],[-84.0054,22.726,0.0]]]]}
,"properties": {"GID_2": "CUB.13.8_1","GID_0": "CUB","country": "Cuba","GID_1": "CUB.13_1","province": "PinardelRío","NL_NAME_1": "NA","county": "MinasdeMatahambre","VARNAME_2": "NA","NL_NAME_2": "NA","TYPE_2": "Municipio","ENGTYPE_2": "Municipality","CC_2": "NA","HASC_2": "CU.PR.MM","name": "Minasde_Matahambre.county","area_km2": 1042.136,"hist_schema_id": "Elevation0-9000","hist_area_km2": {"0": 149.3729,"25": 156.42,"50": 98.9671,"75": 75.6208,"100": 98.4568,"125": 114.7234,"150": 85.6218,"175": 63.1987,"200": 50.4875,"225": 41.7319,"250": 35.1487,"275": 24.6464,"300": 16.2608,"325": 11.2846,"350": 7.9333,"375": 4.8385,"400": 3.4667,"425": 1.7626,"450": 1.0772,"475": 0.5091,"500": 0.2742,"525": 0.1762,"550": 0.0979,"575": 0.0587}}}