{"type": "Feature","bbox": [-72.3593,18.528,-72.2294,18.6306],"geometry": {"type": "MultiPolygon","coordinates": [[[[-72.2391,18.5434,121.6153],[-72.2294,18.5508,80.7568],[-72.233,18.5551,81.5633],[-72.2383,18.5682,67.7182],[-72.2428,18.5733,57.2441],[-72.2434,18.5778,55.1062],[-72.2489,18.5814,54.6986],[-72.2486,18.5869,47.4616],[-72.2536,18.5873,44.7157],[-72.2564,18.5935,38.834],[-72.2658,18.5969,34.2064],[-72.2682,18.596,33.5235],[-72.2737,18.5998,30.4859],[-72.2783,18.5981,27.156],[-72.2816,18.5991,28.2733],[-72.2892,18.5976,26.1525],[-72.2889,18.6012,26.4355],[-72.295,18.6034,21.9233],[-72.2959,18.6073,18.776],[-72.3003,18.6095,16.9347],[-72.3012,18.6058,14.7962],[-72.303,18.6047,13.3697],[-72.3068,18.6067,12.5872],[-72.3129,18.6043,11.5319],[-72.3161,18.6065,12.0795],[-72.3141,18.6081,13.4468],[-72.3152,18.6101,9.7597],[-72.3207,18.61,9.9384],[-72.3248,18.6136,7.458],[-72.3274,18.6117,7.3081],[-72.3283,18.6134,6.3311],[-72.3264,18.6136,7.458],[-72.3267,18.6159,6.5709],[-72.3351,18.6175,5.4146],[-72.3358,18.621,4.9427],[-72.3481,18.6247,1.4315],[-72.3591,18.6306,0.0],[-72.3593,18.6276,0.4711],[-72.3511,18.6228,1.368],[-72.3525,18.615,0.0],[-72.3496,18.614,0.5689],[-72.3452,18.6074,0.1417],[-72.3469,18.6013,0.4356],[-72.346,18.5977,0.0],[-72.3392,18.5937,0.0],[-72.3399,18.5843,0.2155],[-72.3428,18.5804,0.3675],[-72.3401,18.5786,1.0211],[-72.3393,18.575,0.1649],[-72.3426,18.5722,1.3074],[-72.3443,18.5729,2.0951],[-72.3437,18.5768,0.0],[-72.3463,18.5754,0.0],[-72.3476,18.5743,0.0],[-72.3476,18.571,1.5517],[-72.351,18.5698,1.3044],[-72.3534,18.5647,0.0],[-72.3467,18.5655,3.6039],[-72.3415,18.5632,5.7938],[-72.3388,18.5607,7.8292],[-72.3414,18.5565,12.2428],[-72.3343,18.5524,28.0761],[-72.3151,18.5524,61.4804],[-72.314,18.5494,71.3324],[-72.3107,18.5501,75.9773],[-72.3076,18.5487,104.9951],[-72.3059,18.5456,116.3266],[-72.3003,18.5426,135.3585],[-72.3,18.5407,142.8365],[-72.2936,18.5359,198.752],[-72.2932,18.5301,223.6317],[-72.2872,18.528,252.39],[-72.2886,18.5302,242.8011],[-72.2867,18.5419,166.8276],[-72.2747,18.5411,166.7415],[-72.2729,18.5429,163.3808],[-72.2674,18.5425,157.1741],[-72.2601,18.5361,236.5773],[-72.2627,18.5331,193.4938],[-72.2585,18.5288,179.0714],[-72.2493,18.5338,145.3177],[-72.2482,18.5323,136.2021],[-72.2434,18.5381,112.603],[-72.2387,18.5405,115.7163],[-72.2391,18.5434,121.6153]]]]}
,"properties": {"GID_3": "HTI.8.5.2_1","GID_0": "HTI","country": "Haiti","GID_1": "HTI.8_1","province": "Ouest","NL_NAME_1": "NA","GID_2": "HTI.8.5_1","county": "Port-au-Prince","NL_NAME_2": "NA","city": "Delmas","VARNAME_3": "NA","NL_NAME_3": "NA","TYPE_3": "Commune","ENGTYPE_3": "Commune","CC_3": "NA","HASC_3": "NA","name": "Delmas.city","area_km2": 74.88475,"hist_schema_id": "Elevation0-9000","hist_area_km2": {"0": 18.0659,"25": 17.60471,"50": 14.43027,"75": 10.23068,"100": 4.88438,"125": 3.9197,"150": 2.9147,"175": 1.46744,"200": 0.70357,"225": 0.62318,"250": 0.04021}}}