{"type": "Feature","bbox": [-61.1993,14.8187,-61.126,14.879],"geometry": {"type": "MultiPolygon","coordinates": [[[[-61.126,14.8746,0.0],[-61.1349,14.8751,41.0085],[-61.1387,14.8782,14.3419],[-61.1449,14.8771,1.1836],[-61.1474,14.879,0.0],[-61.1543,14.8771,0.0],[-61.1646,14.8779,0.0],[-61.176,14.8735,47.4698],[-61.1804,14.8754,2.143],[-61.1824,14.8701,93.0048],[-61.1851,14.8693,56.8459],[-61.1868,14.8704,18.3784],[-61.1874,14.8679,59.2127],[-61.1937,14.8674,0.0],[-61.1963,14.8638,0.0],[-61.1993,14.8632,71.75],[-61.1866,14.8224,579.978],[-61.1842,14.8204,791.056],[-61.1764,14.8191,940.8154],[-61.1663,14.8187,1248.6877],[-61.1584,14.8204,918.4318],[-61.126,14.8746,0.0]]]]}
,"properties": {"GID_2": "MTQ.3.8_1","GID_0": "MTQ","country": "Martinique","GID_1": "MTQ.3_1","province": "LeTrinité","NL_NAME_1": "NA","county": "Macouba","VARNAME_2": "NA","NL_NAME_2": "NA","TYPE_2": "Commune","ENGTYPE_2": "Commune","CC_2": "NA","HASC_2": "MQ.TR.MC","name": "Macouba.county","area_km2": 33.52807,"hist_schema_id": "Elevation0-9000","hist_area_km2": {"0": 0.20492,"25": 0.28689,"50": 0.69672,"75": 1.55739,"100": 1.63936,"125": 1.76234,"150": 1.39349,"175": 1.6804,"200": 1.63943,"225": 1.76241,"250": 1.49602,"275": 1.37307,"300": 1.29111,"325": 1.25013,"350": 1.27064,"375": 1.16817,"400": 1.00423,"425": 0.73781,"450": 1.16819,"475": 0.7993,"500": 0.73782,"525": 0.65584,"550": 0.81981,"575": 0.57387,"600": 0.61487,"625": 0.53288,"650": 0.61487,"675": 0.4714,"700": 0.49189,"725": 0.51239,"750": 0.34843,"775": 0.36893,"800": 0.34843,"825": 0.24596,"850": 0.22546,"875": 0.26645,"900": 0.38943,"925": 0.18447,"950": 0.16397,"975": 0.30745,"1000": 0.12298,"1025": 0.10248,"1050": 0.0205,"1075": 0.04099,"1100": 0.04099,"1125": 0.06149,"1150": 0.04099,"1175": 0.04099}}}