{"type": "Feature","bbox": [-71.9969,18.6834,-71.7244,18.7968],"geometry": {"type": "MultiPolygon","coordinates": [[[[-71.7839,18.6924,1894.5295],[-71.78,18.6955,1591.3165],[-71.78,18.7056,1347.0588],[-71.7781,18.7095,1300.0094],[-71.7699,18.7142,977.0358],[-71.7679,18.713,1052.7422],[-71.7322,18.7263,885.7847],[-71.7244,18.7718,1557.3145],[-71.7431,18.7738,1510.1975],[-71.7574,18.7724,1386.5255],[-71.7592,18.77,1274.1803],[-71.7581,18.767,1172.8408],[-71.7599,18.765,1104.2096],[-71.7677,18.7677,1180.2568],[-71.7703,18.7653,993.3927],[-71.7781,18.7664,1077.4556],[-71.7824,18.7635,1058.0065],[-71.7851,18.7657,1207.7103],[-71.7908,18.7781,1113.6938],[-71.7947,18.7817,1140.6],[-71.8004,18.7845,1078.2034],[-71.8048,18.7812,1153.3087],[-71.8113,18.7799,1197.2085],[-71.8143,18.7832,1179.9194],[-71.819,18.7851,997.7093],[-71.8201,18.788,973.0513],[-71.8164,18.7931,1032.6744],[-71.8176,18.7965,1020.3576],[-71.8206,18.7968,1006.2324],[-71.8292,18.7909,838.5713],[-71.8377,18.7885,587.4613],[-71.8427,18.7931,533.3234],[-71.8485,18.7919,643.0736],[-71.8572,18.7849,915.4138],[-71.8671,18.766,1035.1663],[-71.8821,18.767,910.164],[-71.8903,18.7705,866.1991],[-71.899,18.7761,915.8472],[-71.8974,18.7792,941.3165],[-71.8983,18.7805,939.9182],[-71.9023,18.7799,925.7922],[-71.9189,18.7837,889.5414],[-71.9237,18.7803,847.5071],[-71.9364,18.7795,723.7421],[-71.9377,18.7773,635.2352],[-71.9361,18.7739,544.9648],[-71.939,18.7724,480.0745],[-71.9439,18.775,502.5299],[-71.95,18.7729,477.9156],[-71.9438,18.7659,333.7402],[-71.9426,18.7601,289.0017],[-71.9382,18.7549,454.1124],[-71.9386,18.7528,527.8593],[-71.9449,18.7531,571.6743],[-71.9535,18.7618,299.3485],[-71.9612,18.7635,429.9089],[-71.9637,18.7663,335.0926],[-71.9688,18.7675,298.5813],[-71.98,18.7751,243.0895],[-71.9861,18.7764,234.9966],[-71.988,18.779,210.1402],[-71.9949,18.78,212.3412],[-71.9969,18.7717,348.0742],[-71.9925,18.7658,484.796],[-71.9842,18.7602,665.4366],[-71.9801,18.7598,665.5178],[-71.9789,18.7573,724.2275],[-71.9747,18.7554,840.1442],[-71.9744,18.7511,918.9784],[-71.9774,18.7499,797.4715],[-71.9762,18.7467,760.8824],[-71.9711,18.7467,906.6699],[-71.9609,18.7408,1032.9705],[-71.9424,18.7386,1068.4146],[-71.9259,18.7389,1021.3483],[-71.9234,18.7369,1148.1675],[-71.9209,18.7313,1251.8983],[-71.9161,18.7294,1288.8079],[-71.911,18.7296,1263.0381],[-71.9008,18.722,1294.4919],[-71.8935,18.7194,1349.077],[-71.8874,18.7197,1322.9879],[-71.8821,18.718,1355.673],[-71.8758,18.7193,1326.192],[-71.8533,18.7187,1235.7251],[-71.8418,18.7099,1504.7429],[-71.829,18.7045,1663.4355],[-71.8098,18.688,1770.5885],[-71.8042,18.6853,1750.2391],[-71.7962,18.6834,1883.832],[-71.7988,18.6889,1856.9044],[-71.7922,18.6955,1739.2874],[-71.7886,18.6924,1911.509],[-71.7839,18.6924,1894.5295]]]]}
,"properties": {"GID_3": "HTI.1.3.3_1","GID_0": "HTI","country": "Haiti","GID_1": "HTI.1_1","province": "Centre","NL_NAME_1": "NA","GID_2": "HTI.1.3_1","county": "Lascahobas","NL_NAME_2": "NA","city": "Savanette","VARNAME_3": "NA","NL_NAME_3": "NA","TYPE_3": "Commune","ENGTYPE_3": "Commune","CC_3": "NA","HASC_3": "NA","name": "Savanette.city","area_km2": 169.8756,"hist_schema_id": "Elevation0-9000","hist_area_km2": {"200": 0.0401,"225": 0.3011,"250": 0.3413,"275": 0.5019,"300": 1.1041,"325": 1.1042,"350": 1.2046,"375": 1.7466,"400": 2.2285,"425": 2.4092,"450": 2.5698,"475": 3.2725,"500": 4.2362,"525": 4.1359,"550": 3.7143,"575": 3.5737,"600": 3.7745,"625": 3.7143,"650": 3.6541,"675": 4.4572,"700": 3.8348,"725": 4.1561,"750": 4.1962,"775": 4.6178,"800": 4.4571,"825": 4.9592,"850": 4.6178,"875": 4.6579,"900": 4.9992,"925": 5.1799,"950": 5.0796,"975": 4.678,"1000": 4.7182,"1025": 4.9389,"1050": 4.6378,"1075": 3.7544,"1100": 3.3529,"1125": 3.8347,"1150": 4.2161,"1175": 3.8949,"1200": 3.4131,"1225": 3.5335,"1250": 3.4934,"1275": 1.9676,"1300": 1.5662,"1325": 1.0642,"1350": 1.024,"1375": 1.004,"1400": 0.9036,"1425": 0.9237,"1450": 0.9839,"1475": 0.8233,"1500": 1.004,"1525": 0.8835,"1550": 1.2248,"1575": 1.1846,"1600": 1.0241,"1625": 0.9638,"1650": 0.6828,"1675": 0.5623,"1700": 0.4418,"1725": 0.4619,"1750": 0.6828,"1775": 0.6226,"1800": 0.8435,"1825": 0.9038,"1850": 0.6226,"1875": 0.0803,"1900": 0.1004,"1925": 0.0201}}}