{"type":"Feature","properties":{"GID_1":"VGB.5_1","GID_0":"VGB","country":"BritishVirginIslands","province":"VirginGorda","VARNAME_1":"NA","NL_NAME_1":"NA","TYPE_1":"District","ENGTYPE_1":"District","CC_1":"NA","HASC_1":"NA","ISO_1":"NA","name":"Virgin_Gorda.province"},
"geometry":{"type": "MultiPolygon","coordinates": [[[[-64.4551,18.3993,0.0],[-64.459,18.399,0.0],[-64.4585,18.3954,0.0],[-64.4549,18.3979,0.0],[-64.4551,18.3993,0.0]]],
[[[-64.4549,18.4043,0.0],[-64.4568,18.4057,0.0],[-64.4576,18.4038,0.6849],[-64.4546,18.4018,0.0],[-64.4549,18.4043,0.0]]],
[[[-64.4504,18.421,0.0],[-64.4529,18.4207,0.0],[-64.4538,18.4129,0.0],[-64.4518,18.4129,0.0],[-64.4493,18.4162,0.0],[-64.4482,18.4201,0.0],[-64.4504,18.421,0.0]]],
[[[-64.4571,18.4846,0.0],[-64.461,18.4851,0.2458],[-64.4632,18.4788,0.1384],[-64.4604,18.4788,3.4605],[-64.4585,18.4807,8.3996],[-64.4504,18.4801,0.0],[-64.4501,18.4835,7.0136],[-64.4543,18.4826,1.7519],[-64.4571,18.4846,0.0]]],
[[[-64.396,18.5032,4.4657],[-64.3968,18.506,0.0],[-64.4018,18.5035,23.7418],[-64.406,18.5043,0.0],[-64.4082,18.5029,25.5487],[-64.4137,18.5029,4.7331],[-64.4165,18.5046,0.0],[-64.4151,18.5007,0.0],[-64.4107,18.4993,2.3763],[-64.411,18.4954,0.0],[-64.4151,18.4899,0.0],[-64.4135,18.4865,21.3486],[-64.416,18.4804,0.1297],[-64.4132,18.4765,12.6866],[-64.4154,18.4726,0.0],[-64.414,18.4693,42.0165],[-64.421,18.464,0.0],[-64.4249,18.464,48.1082],[-64.4279,18.4665,0.3491],[-64.4285,18.4638,21.6267],[-64.431,18.4632,13.5959],[-64.4301,18.4604,29.8431],[-64.4329,18.4593,10.9611],[-64.4365,18.4626,0.0],[-64.444,18.459,0.0],[-64.444,18.4576,0.0],[-64.4385,18.4546,9.7623],[-64.4379,18.451,0.0],[-64.4393,18.4457,0.0],[-64.4435,18.4432,0.0],[-64.4446,18.4318,2.1998],[-64.4471,18.4282,2.1933],[-64.4468,18.4257,2.0347],[-64.4401,18.4257,0.0],[-64.4351,18.4307,10.011],[-64.4282,18.4287,0.0],[-64.4226,18.4321,0.0],[-64.4243,18.4357,0.0],[-64.4276,18.4363,15.02],[-64.4293,18.4404,19.8323],[-64.4254,18.4593,46.3895],[-64.4132,18.4629,0.0],[-64.409,18.4685,4.2251],[-64.386,18.4671,0.0],[-64.3871,18.4729,0.0],[-64.3893,18.4732,3.9841],[-64.3893,18.4718,56.7192],[-64.3904,18.4743,52.5917],[-64.3901,18.4771,21.7866],[-64.3885,18.4779,12.8547],[-64.3893,18.4804,4.7871],[-64.3865,18.4851,0.0],[-64.3793,18.484,71.4795],[-64.3746,18.4807,18.3402],[-64.3696,18.4851,0.0],[-64.364,18.4832,0.0],[-64.361,18.4854,0.0],[-64.3562,18.4851,0.0],[-64.3546,18.4863,0.0],[-64.356,18.4896,19.4658],[-64.3535,18.4924,8.293],[-64.344,18.4946,20.7593],[-64.3399,18.4918,0.0],[-64.3321,18.496,9.1125],[-64.3274,18.4951,0.0],[-64.3262,18.4993,26.4553],[-64.3199,18.5038,0.0],[-64.3274,18.5035,2.8466],[-64.3288,18.5004,8.6946],[-64.3337,18.5024,0.0],[-64.3418,18.5015,6.9444],[-64.3499,18.4951,12.9884],[-64.3507,18.4968,0.0],[-64.3479,18.4993,2.1423],[-64.3476,18.5021,2.8353],[-64.3562,18.5026,0.0],[-64.3585,18.499,5.7012],[-64.3576,18.4918,25.2473],[-64.3643,18.4929,0.0],[-64.3699,18.4893,14.8395],[-64.3715,18.491,3.4424],[-64.3812,18.4899,7.6834],[-64.3824,18.4921,27.4235],[-64.3801,18.4946,23.1675],[-64.3804,18.4974,0.0],[-64.3838,18.499,0.0],[-64.391,18.4976,4.7327],[-64.3935,18.5024,0.0],[-64.396,18.5032,4.4657]]],
[[[-64.3587,18.4974,5.8568],[-64.3593,18.4996,0.0],[-64.3607,18.4996,0.0],[-64.3613,18.4951,0.0],[-64.3585,18.4957,2.9016],[-64.3587,18.4974,5.8568]]],
[[[-64.3718,18.5132,13.3229],[-64.3749,18.5138,0.0],[-64.3751,18.5115,1.7812],[-64.3704,18.5076,29.2442],[-64.3688,18.5024,1.3832],[-64.3624,18.5024,0.0],[-64.3593,18.504,0.149],[-64.3599,18.506,0.0],[-64.366,18.5068,12.7344],[-64.3685,18.5132,0.0],[-64.3718,18.5132,13.3229]]],
[[[-64.356,18.5115,1.5583],[-64.3576,18.5124,0.0],[-64.3607,18.5104,11.8233],[-64.3604,18.5082,0.0],[-64.3579,18.5076,0.0],[-64.356,18.5115,1.5583]]],
[[[-64.471,18.4835,4.1373],[-64.4713,18.4854,2.0473],[-64.4732,18.4854,6.1983],[-64.4743,18.4815,0.0],[-64.469,18.4824,0.0],[-64.471,18.4835,4.1373]]],
[[[-64.4554,18.4946,0.0],[-64.459,18.4951,8.4587],[-64.461,18.4932,0.0],[-64.4571,18.4899,0.0],[-64.4535,18.4932,0.0],[-64.4554,18.4946,0.0]]],
[[[-64.4335,18.5074,1.3645],[-64.4349,18.5085,1.3645],[-64.4365,18.5068,0.0],[-64.4349,18.5054,0.0],[-64.4335,18.5074,1.3645]]],
[[[-64.3899,18.5126,8.6485],[-64.3896,18.5157,0.0],[-64.394,18.5154,0.0],[-64.396,18.5121,10.6148],[-64.4001,18.5118,10.6169],[-64.4007,18.5104,0.0],[-64.3971,18.5065,0.0],[-64.3949,18.5068,0.0],[-64.3899,18.5126,8.6485]]],
[[[-64.3549,18.529,6.374],[-64.3596,18.5296,0.3283],[-64.3613,18.5274,0.0],[-64.361,18.524,4.6056],[-64.3565,18.5235,0.0],[-64.356,18.5263,0.3124],[-64.3535,18.5276,4.2226],[-64.3549,18.529,6.374]]]]}}