{"type":"Feature","properties":{"GID_2":"CUB.2.2_1","GID_0":"CUB","country":"Cuba","GID_1":"CUB.2_1","province":"CiegodeÁvila","NL_NAME_1":"NA","county":"Bolivia","VARNAME_2":"NA","NL_NAME_2":"NA","TYPE_2":"Municipio","ENGTYPE_2":"Municipality","CC_2":"NA","HASC_2":"CU.CA.BO","name":"Bolivia.county"},
"geometry":{"type": "MultiPolygon","coordinates": [[[[-78.0672,22.0561,5.1142],[-78.0901,22.0808,0.2878],[-78.0896,22.0826,0.0599],[-78.0918,22.0815,0.2037],[-78.099,22.086,0.0],[-78.1012,22.0846,0.2559],[-78.104,22.086,0.0],[-78.1085,22.0846,0.4241],[-78.1121,22.0857,0.0],[-78.1126,22.089,0.0],[-78.1162,22.0924,0.1012],[-78.1162,22.0949,0.0834],[-78.1121,22.0949,0.0],[-78.1085,22.0968,0.0],[-78.1079,22.0946,0.0],[-78.1057,22.0968,0.0],[-78.1043,22.0963,0.0],[-78.1043,22.0976,0.0],[-78.1204,22.0985,0.967],[-78.1282,22.1063,0.0],[-78.1338,22.1032,0.0],[-78.1293,22.101,0.0],[-78.1274,22.1018,0.0],[-78.1279,22.1029,0.0],[-78.1257,22.1029,0.0],[-78.1249,22.1001,0.0],[-78.1271,22.1001,0.0727],[-78.1276,22.0957,0.0],[-78.1329,22.0985,0.0],[-78.1365,22.0968,0.0],[-78.1374,22.0993,0.0],[-78.1468,22.1007,0.0],[-78.1501,22.106,0.8659],[-78.1465,22.109,0.0],[-78.151,22.1065,0.8659],[-78.1535,22.1074,0.0],[-78.1565,22.1157,0.0],[-78.159,22.1176,0.0],[-78.1574,22.1201,0.0],[-78.1596,22.1207,0.0],[-78.1601,22.1226,0.0],[-78.1599,22.1271,0.0606],[-78.1571,22.1279,0.0961],[-78.1701,22.1474,0.0],[-78.1757,22.1521,0.0],[-78.1782,22.151,0.0],[-78.181,22.1546,0.0],[-78.1843,22.1554,0.0],[-78.1957,22.1521,0.0],[-78.1976,22.1546,0.0],[-78.1999,22.1546,0.0],[-78.2018,22.1585,0.0],[-78.2004,22.1632,0.0],[-78.2057,22.1574,0.0],[-78.2065,22.1518,0.0],[-78.2026,22.1557,0.0],[-78.2018,22.153199999999998,0.0],[-78.1974,22.1501,0.0],[-78.1893,22.1535,0.0],[-78.1832,22.153199999999998,0.0],[-78.1821,22.1521,0.0],[-78.1832,22.1499,0.0],[-78.1818,22.1501,0.1572],[-78.1826,22.1482,0.0],[-78.1757,22.1493,0.0],[-78.1729,22.1432,0.0],[-78.1701,22.1437,0.0],[-78.1654,22.1346,0.0],[-78.1632,22.134,0.0],[-78.1635,22.1285,0.0923],[-78.1757,22.1268,0.0],[-78.1732,22.1246,0.0],[-78.1707,22.126,0.0],[-78.169,22.1232,0.0],[-78.1671,22.1249,0.0],[-78.1646,22.1243,0.0],[-78.1651,22.1185,0.0],[-78.1632,22.1188,0.0],[-78.1576,22.1143,0.0],[-78.1579,22.1085,3.8693],[-78.1588,22.111,0.7642],[-78.1743,22.1218,0.156],[-78.1785,22.1213,0.2766],[-78.181,22.1282,0.6668],[-78.1818,22.1268,1.0417],[-78.1801,22.1224,1.7506],[-78.1857,22.1193,0.7637],[-78.1924,22.121,0.7335],[-78.1943,22.1235,0.9092],[-78.1996,22.1213,0.7362],[-78.2118,22.1254,0.5809],[-78.2143,22.1249,0.31],[-78.2154,22.1226,0.4022],[-78.219,22.1246,-0.0715],[-78.2235,22.1224,0.0058],[-78.231,22.1238,0.5597],[-78.2351,22.131,0.0],[-78.244,22.131,0.6857],[-78.2446,22.1376,0.0],[-78.2507,22.1415,0.2659],[-78.2538,22.146,0.6549],[-78.2593,22.1479,0.5448],[-78.2626,22.1526,0.2035],[-78.2782,22.1585,0.0],[-78.2821,22.164,0.1191],[-78.2812,22.166,0.0],[-78.2857,22.1696,0.0],[-78.2904,22.1701,0.0],[-78.2913,22.169,0.0],[-78.2874,22.1688,0.1076],[-78.2876,22.1654,0.0],[-78.2838,22.1646,0.0],[-78.2846,22.1629,0.0],[-78.2868,22.1638,0.0],[-78.2868,22.1582,0.0],[-78.2801,22.1593,0.1987],[-78.2724,22.1546,0.0],[-78.2715,22.1526,0.0],[-78.2749,22.1521,0.0],[-78.2771,22.1537,0.419],[-78.2807,22.1521,0.4726],[-78.2818,22.1535,0.0665],[-78.2818,22.1521,0.0665],[-78.2846,22.1513,0.4238],[-78.2876,22.1537,0.1807],[-78.2887,22.1535,0.2112],[-78.2879,22.1521,0.2112],[-78.2901,22.1518,0.4097],[-78.2951,22.153199999999998,0.0],[-78.2985,22.1468,0.1165],[-78.3026,22.144,1.015],[-78.3051,22.1463,0.3849],[-78.306,22.1501,0.0],[-78.3004,22.1515,0.1358],[-78.3063,22.1546,0.0],[-78.3101,22.1654,0.0],[-78.3093,22.1726,0.7026],[-78.3029,22.1704,0.0],[-78.3051,22.1743,0.0],[-78.3115,22.1746,0.0],[-78.311,22.1654,0.0],[-78.3087,22.1579,0.0],[-78.3118,22.156,0.4967],[-78.3151,22.1574,0.3993],[-78.3185,22.1629,0.0],[-78.3193,22.1674,0.4053],[-78.3176,22.1732,0.1646],[-78.3201,22.1743,0.0],[-78.3199,22.1785,0.0],[-78.3385,22.1738,0.0636],[-78.3415,22.1771,0.3837],[-78.346,22.1876,0.258],[-78.3468,22.1979,0.0],[-78.3374,22.1985,0.0],[-78.3354,22.1963,0.0],[-78.3362,22.1932,0.0],[-78.3396,22.191,0.0],[-78.3349,22.1904,0.0],[-78.3321,22.1826,0.0],[-78.334,22.1779,0.0],[-78.3304,22.1813,0.0],[-78.3335,22.1926,0.0],[-78.3321,22.1968,0.0],[-78.3374,22.1993,0.0],[-78.3504,22.1996,0.705],[-78.3526,22.206,0.3431],[-78.349,22.2107,0.0],[-78.3512,22.2104,0.1246],[-78.356,22.2151,0.0],[-78.3643,22.2162,0.0972],[-78.3607,22.2198,0.2099],[-78.3651,22.2182,0.4848],[-78.3668,22.2199,0.2231],[-78.3668,22.2265,0.4652],[-78.3682,22.2282,0.0],[-78.3693,22.2282,0.0],[-78.371,22.2215,0.2642],[-78.3743,22.2232,0.0],[-78.3771,22.2282,0.9942],[-78.381,22.2279,0.0],[-78.3824,22.2324,0.0],[-78.3807,22.2324,0.0],[-78.379,22.229,0.0597],[-78.3782,22.231,0.0],[-78.3804,22.2349,0.0],[-78.3857,22.2343,0.3506],[-78.3868,22.2388,1.1136],[-78.381,22.2401,0.0],[-78.3887,22.2418,0.2754],[-78.391,22.246,0.1556],[-78.401,22.2546,0.1138],[-78.4015,22.2607,0.0],[-78.4026,22.261,0.0],[-78.4046,22.2593,0.0],[-78.4032,22.2582,0.0],[-78.404,22.2557,0.0],[-78.3962,22.2482,0.0],[-78.4013,22.2374,0.0],[-78.4026,22.2374,0.0],[-78.406,22.2432,0.4214],[-78.4035,22.246,0.0],[-78.4071,22.2463,0.0],[-78.4096,22.2396,0.2199],[-78.4115,22.241,0.7081],[-78.411,22.2432,0.0],[-78.4132,22.2424,0.2042],[-78.416,22.249,0.0],[-78.4154,22.254,0.0],[-78.4179,22.2546,0.0],[-78.4215,22.249,0.2308],[-78.424,22.2499,0.0],[-78.4232,22.2449,0.6038],[-78.4274,22.2429,0.0],[-78.424,22.2426,0.0],[-78.4235,22.2407,0.7179],[-78.427,22.2396,0.0],[-78.4349,22.2304,3.7192],[-78.4447,22.2136,3.4446],[-78.4524,22.1931,2.6311],[-78.483,22.1776,1.887],[-78.5087,22.1614,1.15],[-78.515,22.1549,2.8236],[-78.5414,22.1023,3.7825],[-78.5415,22.0604,6.0104],[-78.5349,22.0414,8.6752],[-78.535,22.0341,10.516],[-78.5538,22.0066,10.4979],[-78.5719,21.9873,14.7208],[-78.5801,21.9679,21.57],[-78.563,21.9694,19.7339],[-78.5353,21.9766,17.0175],[-78.3645,21.9763,18.4534],[-78.3584,21.9721,21.0072],[-78.3392,21.9371,21.5403],[-78.3291,21.9254,30.0926],[-78.3018,21.901,41.6406],[-78.286,21.8924,40.0017],[-78.2522,21.8671,31.8348],[-78.254,21.8862,29.6963],[-78.267,21.9073,26.1669],[-78.2716,21.9178,26.9782],[-78.2723,21.9249,25.5592],[-78.2705,21.932,25.8588],[-78.2654,21.9421,22.6608],[-78.2623,21.9451,22.5193],[-78.2385,21.9504,22.3294],[-78.2036,21.9505,15.5666],[-78.1925,21.9527,16.975],[-78.1773,21.957,11.5349],[-78.1647,21.9642,9.7027],[-78.123,22.0057,8.4367],[-78.111,22.012,5.76],[-78.1007,22.0136,5.7046],[-78.0943,22.0172,4.8471],[-78.0769,22.0389,8.5268],[-78.062,22.0444,2.3035],[-78.0612,22.0515,3.94],[-78.0672,22.0561,5.1142]]],
[[[-78.2343,22.1365,0.0],[-78.2365,22.1374,0.0],[-78.2385,22.1351,0.0],[-78.2312,22.1335,0.0],[-78.2312,22.1351,0.0],[-78.2343,22.1365,0.0]]],
[[[-78.2004,22.1463,0.0],[-78.2018,22.1471,0.0],[-78.2035,22.1454,0.0],[-78.2001,22.1432,0.0],[-78.2004,22.1463,0.0]]],
[[[-78.2232,22.1626,0.1723],[-78.2249,22.1632,0.166],[-78.2271,22.1604,0.0],[-78.2318,22.1599,1.8258],[-78.2318,22.1588,1.8258],[-78.2254,22.1596,0.0],[-78.2254,22.1557,0.0],[-78.2279,22.1518,0.0],[-78.2246,22.1529,0.0],[-78.2249,22.1585,0.0],[-78.2224,22.1607,0.0937],[-78.2232,22.1626,0.1723]]],
[[[-78.3599,22.2279,0.166],[-78.3651,22.2282,0.0],[-78.3654,22.226,0.0],[-78.3607,22.2237,0.0],[-78.359,22.221,0.0],[-78.359,22.2237,0.1665],[-78.361,22.226,0.1684],[-78.3587,22.2249,0.0],[-78.3579,22.2265,0.0],[-78.3599,22.2279,0.166]]],
[[[-78.3524,22.2463,0.3573],[-78.3541,22.2471,0.0],[-78.3632,22.2412,0.0],[-78.374,22.2396,0.0],[-78.3743,22.2385,0.0],[-78.3624,22.2404,0.0],[-78.3635,22.2368,0.0593],[-78.3654,22.236,0.0],[-78.3654,22.2335,0.0],[-78.3582,22.234,0.0902],[-78.3665,22.2301,0.0],[-78.3585,22.2318,0.0],[-78.356,22.2351,0.0937],[-78.3524,22.2357,0.0],[-78.3554,22.2374,0.0],[-78.3621,22.2363,0.0593],[-78.3571,22.2435,0.0],[-78.3526,22.2449,0.0],[-78.3524,22.2463,0.3573]]],
[[[-78.3415,22.2454,0.0],[-78.3415,22.2465,0.0],[-78.3432,22.2457,0.0],[-78.3446,22.2426,0.0],[-78.3426,22.2424,0.0],[-78.3415,22.2454,0.0]]],
[[[-78.3374,22.2521,0.1911],[-78.3374,22.2538,0.0],[-78.3401,22.2538,0.0],[-78.3482,22.2504,0.0],[-78.3457,22.2496,0.0],[-78.344,22.2512,0.0],[-78.3421,22.2504,0.0],[-78.3374,22.2521,0.1911]]],
[[[-78.4088,22.2629,0.0],[-78.4104,22.2637,-0.0732],[-78.4121,22.2576,0.0],[-78.4096,22.2563,0.229],[-78.4082,22.2521,0.0],[-78.4057,22.2501,0.0],[-78.4054,22.2482,0.0],[-78.4074,22.2488,0.0],[-78.4076,22.2474,0.0],[-78.4043,22.2468,0.0],[-78.4043,22.2496,0.0],[-78.4093,22.2576,0.7274],[-78.4088,22.2629,0.0]]],
[[[-78.4151,22.2593,0.0],[-78.4157,22.2607,0.0],[-78.4176,22.2604,0.0],[-78.4204,22.2576,0.0],[-78.4257,22.2574,0.0],[-78.4276,22.2554,0.0],[-78.4257,22.2549,0.1738],[-78.4262,22.2529,0.0],[-78.4238,22.2535,0.0],[-78.4185,22.2585,0.0],[-78.4154,22.256,0.0],[-78.4143,22.2571,0.2017],[-78.4151,22.2593,0.0]]],
[[[-78.4018,22.2646,0.1697],[-78.4032,22.2654,0.2765],[-78.4093,22.264,0.0],[-78.4021,22.2629,0.0],[-78.4018,22.2646,0.1697]]],
[[[-78.0893,22.0851,0.0],[-78.0896,22.089,0.0],[-78.0921,22.0924,0.0],[-78.0974,22.0954,0.0],[-78.0982,22.0924,0.0],[-78.096,22.0918,0.0],[-78.0965,22.0896,0.0],[-78.0932,22.0896,0.1333],[-78.0946,22.0868,0.0],[-78.0893,22.0851,0.0]]],
[[[-78.149,22.1235,0.4355],[-78.1513,22.124,0.0],[-78.1524,22.1199,0.0],[-78.1496,22.1193,0.1622],[-78.1471,22.1165,0.2274],[-78.1487,22.1151,0.0],[-78.1446,22.1154,0.0],[-78.1457,22.1137,0.0],[-78.1421,22.1132,0.0],[-78.1451,22.1101,0.0],[-78.1363,22.1115,0.0],[-78.1315,22.1065,0.0],[-78.1304,22.1096,0.0],[-78.1326,22.1093,0.0],[-78.1365,22.1135,0.0],[-78.1457,22.1165,0.2342],[-78.1476,22.119,0.0],[-78.1468,22.1218,0.0],[-78.149,22.1235,0.4355]]],
[[[-78.1829,22.1301,0.0],[-78.1857,22.1307,0.0],[-78.1854,22.1288,0.0],[-78.1835,22.1282,0.8966],[-78.1829,22.1301,0.0]]],
[[[-78.1943,22.1424,0.0],[-78.2015,22.1418,0.0],[-78.1979,22.1413,0.0],[-78.198,22.1382,0.2423],[-78.199,22.1363,0.4436],[-78.1999,22.1385,0.0],[-78.2021,22.1385,0.0],[-78.2024,22.1368,0.0],[-78.1996,22.1324,0.0],[-78.196,22.131,1.5507],[-78.1937,22.1262,0.0],[-78.1926,22.1285,0.0],[-78.1951,22.1407,0.0],[-78.1893,22.1374,0.0],[-78.1871,22.1385,0.0],[-78.1943,22.1424,0.0]]],
[[[-78.1854,22.1482,0.0],[-78.1871,22.1496,0.0],[-78.1882,22.1471,0.0],[-78.179,22.1379,0.0],[-78.1796,22.1335,0.0],[-78.1774,22.1321,0.0],[-78.1779,22.1288,0.0702],[-78.174,22.1282,0.0],[-78.1726,22.1307,0.0],[-78.1746,22.1354,0.0],[-78.176,22.1357,0.0],[-78.1754,22.1393,0.0],[-78.1782,22.1401,0.0],[-78.1762,22.1463,0.0],[-78.1787,22.1485,0.0],[-78.181,22.1471,0.0],[-78.1854,22.1482,0.0]]],
[[[-78.231,22.1724,0.0],[-78.2351,22.1729,0.0],[-78.2385,22.171,0.0],[-78.2401,22.1643,0.0],[-78.2365,22.1685,0.0],[-78.2335,22.1682,0.0],[-78.231,22.1724,0.0]]],
[[[-78.3254,22.1915,0.1018],[-78.326,22.1943,0.0],[-78.3274,22.1943,0.0],[-78.3268,22.1893,0.114],[-78.3229,22.184,0.0],[-78.3232,22.1813,0.0],[-78.3185,22.1787,0.0],[-78.3157,22.1735,0.0],[-78.3129,22.1729,0.0],[-78.3126,22.1754,0.0],[-78.3168,22.1804,0.1522],[-78.3207,22.1813,0.0],[-78.3254,22.1915,0.1018]]],
[[[-78.3093,22.2665,0.0],[-78.3129,22.2674,0.0],[-78.3185,22.2657,0.0],[-78.3282,22.2599,0.0],[-78.3307,22.2565,0.0],[-78.3354,22.2543,0.0],[-78.3315,22.2529,0.0],[-78.3335,22.251,0.0],[-78.3371,22.2507,0.0],[-78.3401,22.2471,0.0],[-78.3399,22.2363,0.0],[-78.3421,22.2351,0.0],[-78.3401,22.2321,0.0],[-78.3379,22.2307,0.0],[-78.3346,22.2313,0.0],[-78.3349,22.2285,0.0],[-78.3337,22.2285,0.0],[-78.3318,22.2296,0.0],[-78.3335,22.2329,0.0],[-78.3301,22.2324,0.0],[-78.3251,22.2301,0.0],[-78.3246,22.2282,0.0],[-78.3262,22.2235,0.5964],[-78.3296,22.2218,0.1915],[-78.3329,22.2226,0.0],[-78.3346,22.2193,0.2193],[-78.3388,22.219,0.0],[-78.3385,22.2179,0.0],[-78.3218,22.2237,0.0],[-78.3215,22.2271,0.0],[-78.3165,22.2357,0.0],[-78.316,22.2393,0.278],[-78.3179,22.2382,1.4476],[-78.318,22.2396,0.7219],[-78.316,22.2435,0.0],[-78.314,22.2412,0.0],[-78.3093,22.2518,0.0],[-78.299,22.261,0.0],[-78.299,22.2626,0.0],[-78.3054,22.2624,0.0],[-78.3043,22.266,0.0],[-78.3093,22.2665,0.0]]]]}}