{"type":"Feature","properties":{"GID_3":"HTI.6.3.1_1","GID_0":"HTI","country":"Haiti","GID_1":"HTI.6_1","province":"Nord-Ouest","NL_NAME_1":"NA","GID_2":"HTI.6.3_1","county":"Saint-LouisduNord","NL_NAME_2":"NA","city":"Anse-à-Foleur","VARNAME_3":"NA","NL_NAME_3":"NA","TYPE_3":"Commune","ENGTYPE_3":"Commune","CC_3":"NA","HASC_3":"NA","name":"Anse-à-Foleur.city"},
"geometry":{"type": "MultiPolygon","coordinates": [[[[-72.5953,19.8372,213.8945],[-72.5955,19.8398,256.1095],[-72.5893,19.8511,420.6334],[-72.5832,19.8517,557.5776],[-72.58,19.8497,529.5154],[-72.5809,19.8556,447.2277],[-72.583,19.858,499.2644],[-72.5833,19.8661,547.0535],[-72.5719,19.8743,258.3532],[-72.5683,19.8748,172.5853],[-72.567,19.8775,149.3506],[-72.5615,19.8774,65.3066],[-72.56,19.8815,0.0],[-72.5651,19.8818,36.5309],[-72.5663,19.8838,0.0],[-72.5729,19.8868,41.0723],[-72.574,19.8899,9.3931],[-72.5729,19.8924,0.0],[-72.5785,19.8946,4.1504],[-72.581,19.8976,0.0],[-72.5835,19.8954,34.6851],[-72.5837,19.8976,0.0],[-72.5874,19.8968,30.526],[-72.5924,19.899,0.0],[-72.5943,19.8954,12.4455],[-72.6015,19.896,0.0],[-72.6062,19.8924,2.3443],[-72.6185,19.8932,1.6018],[-72.6325,19.8982,3.9711],[-72.6359,19.9027,3.3567],[-72.6365,19.9078,0.7297],[-72.6408,19.9087,6.1345],[-72.6426,19.9063,7.8499],[-72.6466,19.9062,1.485],[-72.653,19.8899,232.8485],[-72.6665,19.877,433.2701],[-72.6617,19.8705,698.4045],[-72.6634,19.8669,507.3978],[-72.6693,19.8595,322.6733],[-72.6754,19.8556,251.3424],[-72.6787,19.8492,320.2849],[-72.6775,19.8442,449.7716],[-72.6791,19.8402,188.1512],[-72.6772,19.8327,314.5892],[-72.67,19.8321,459.7708],[-72.6609,19.8286,270.4749],[-72.6469,19.828,567.5637],[-72.6389,19.8293,626.2808],[-72.6379,19.8266,817.3359],[-72.6401,19.8212,599.7399],[-72.6391,19.8184,532.5632],[-72.6318,19.8168,623.8829],[-72.63,19.8116,567.002],[-72.6272,19.8135,668.5209],[-72.6233,19.8135,718.9414],[-72.6224,19.8154,734.5143],[-72.6193,19.8148,717.5501],[-72.615,19.8179,621.8728],[-72.6164,19.8243,327.4962],[-72.6135,19.834,161.5001],[-72.6041,19.8387,127.7246],[-72.5981,19.8373,247.2247],[-72.5944,19.8302,126.3439],[-72.5909,19.8314,164.9922],[-72.5932,19.8325,173.7443],[-72.5953,19.8372,213.8945]]]]}}