{"type":"Feature","properties":{"GID_3":"HTI.2.1.2_1","GID_0":"HTI","country":"Haiti","GID_1":"HTI.2_1","province":"Grand'Anse","NL_NAME_1":"NA","GID_2":"HTI.2.1_1","county":"Ansed'Hainault","NL_NAME_2":"NA","city":"DameMarie","VARNAME_3":"NA","NL_NAME_3":"NA","TYPE_3":"Commune","ENGTYPE_3":"Commune","CC_3":"NA","HASC_3":"NA","name":"Dame_Marie.city"},
"geometry":{"type": "MultiPolygon","coordinates": [[[[-74.3783,18.5104,421.0377],[-74.3748,18.5109,390.7431],[-74.3683,18.5181,272.66],[-74.3673,18.5214,187.047],[-74.3688,18.5224,198.9498],[-74.3683,18.5252,218.8415],[-74.3705,18.5256,265.9587],[-74.3733,18.5294,382.8079],[-74.3697,18.534,413.8712],[-74.3719,18.5363,464.4043],[-74.368,18.5384,483.58],[-74.3655,18.5449,440.0253],[-74.3612,18.5458,489.425],[-74.358,18.5435,399.7859],[-74.3537,18.5436,424.4387],[-74.3522,18.5463,468.5351],[-74.351,18.5448,418.8979],[-74.346,18.5454,390.4585],[-74.3383,18.5493,347.696],[-74.34,18.5444,299.1923],[-74.3357,18.5469,229.8456],[-74.3361,18.5481,248.7717],[-74.3288,18.5486,133.8442],[-74.3296,18.5513,167.5035],[-74.3328,18.5537,246.7879],[-74.3349,18.561,431.1125],[-74.3404,18.5641,335.7115],[-74.3358,18.572,324.3854],[-74.3379,18.5736,293.3897],[-74.3467,18.5727,470.1622],[-74.3498,18.5758,497.5327],[-74.3522,18.5825,366.2376],[-74.3584,18.5841,302.4273],[-74.3631,18.5888,158.0598],[-74.3722,18.5898,124.8102],[-74.3786,18.5976,77.2411],[-74.3815,18.6048,67.5237],[-74.3777,18.61,67.0519],[-74.3769,18.6156,52.0642],[-74.3709,18.6165,109.5396],[-74.3692,18.6201,47.2484],[-74.3742,18.6243,33.0896],[-74.382,18.6275,21.2497],[-74.3847,18.6338,28.7008],[-74.3882,18.6372,7.2122],[-74.3909,18.6336,9.2556],[-74.3951,18.6326,0.0],[-74.3951,18.6271,0.0],[-74.3988,18.6304,2.1762],[-74.4072,18.6298,0.0],[-74.4099,18.6235,24.0596],[-74.4174,18.6207,0.0],[-74.4182,18.6188,5.1549],[-74.421,18.6193,0.0],[-74.4262,18.6149,0.0],[-74.4249,18.6122,6.0578],[-74.4261,18.6063,7.0842],[-74.4293,18.6044,2.5749],[-74.4221,18.5944,0.0],[-74.4165,18.593,1.2011],[-74.415,18.5824,8.7283],[-74.4257,18.5577,1.1178],[-74.4313,18.5524,1.6555],[-74.4324,18.5493,2.0148],[-74.4357,18.5487,2.8335],[-74.4343,18.5419,0.0],[-74.4354,18.5382,2.2166],[-74.4371,18.539,0.0],[-74.4424,18.5365,0.0],[-74.4424,18.5349,3.5621],[-74.4457,18.5326,4.2642],[-74.4424,18.5154,1.117],[-74.451,18.5076,0.0],[-74.454,18.5026,1.7222],[-74.4595,18.4989,0.0],[-74.4583,18.4954,21.6916],[-74.4558,18.499,11.3655],[-74.4537,18.4983,38.5069],[-74.4519,18.5002,41.9667],[-74.4351,18.4969,143.0956],[-74.4281,18.4998,183.8784],[-74.4245,18.4984,177.0176],[-74.4202,18.5018,264.4879],[-74.4146,18.5014,191.8433],[-74.3943,18.4935,143.9017],[-74.3961,18.497,122.5519],[-74.3946,18.4993,209.7106],[-74.391,18.5004,256.7236],[-74.3783,18.5104,421.0377]]]]}}