{"type":"Feature","properties":{"GID_2":"DOM.12.3_1","GID_0":"DOM","country":"DominicanRepublic","GID_1":"DOM.12_1","province":"LaEstrelleta","NL_NAME_1":"NA","county":"ElLlano","VARNAME_2":"NA","NL_NAME_2":"NA","TYPE_2":"Municipio","ENGTYPE_2":"Municipality","CC_2":"NA","HASC_2":"DO.EP.EL","name":"El_Llano.county"},
"geometry":{"type": "MultiPolygon","coordinates": [[[[-71.7171,18.8189,730.3104],[-71.7171,18.8084,1099.9644],[-71.7268,18.7586,1586.1051],[-71.6971,18.7581,1693.1013],[-71.6646,18.7428,1494.9534],[-71.6539,18.7439,1497.3195],[-71.6421,18.7397,1339.2815],[-71.6423,18.7516,1457.3574],[-71.635,18.7608,1289.762],[-71.6366,18.763,1299.1133],[-71.6421,18.7651,1306.3429],[-71.6451,18.7723,1313.3306],[-71.6447,18.7755,1237.0055],[-71.6377,18.7831,1144.3171],[-71.6262,18.8015,520.2261],[-71.6225,18.8031,727.5015],[-71.613,18.8031,828.2446],[-71.612,18.8176,493.3721],[-71.6012,18.8253,469.4193],[-71.6014,18.8416,444.6024],[-71.609,18.849,501.236],[-71.6101,18.852,492.1976],[-71.6097,18.8606,454.4134],[-71.607,18.8683,432.0478],[-71.6074,18.8778,418.3778],[-71.6122,18.879,406.2492],[-71.6209,18.8722,419.9422],[-71.6311,18.8681,452.825],[-71.6395,18.8687,425.0765],[-71.6503,18.8738,420.8792],[-71.6567,18.873,400.4047],[-71.6572,18.8635,412.1972],[-71.6496,18.8571,422.0719],[-71.6488,18.8502,444.7191],[-71.6642,18.8393,472.5267],[-71.6679,18.8309,518.028],[-71.6743,18.8261,675.1128],[-71.6769,18.8181,726.3064],[-71.6952,18.818,801.6371],[-71.7008,18.8245,804.535],[-71.7037,18.8257,931.6312],[-71.7171,18.8189,730.3104]]]]}}