{"type": "Feature","bbox": [-80.5965,22.4673,-80.1277,22.7446],"geometry": {"type": "MultiPolygon","coordinates": [[[[-80.2563,22.5142,70.0602],[-80.2403,22.5188,60.8327],[-80.1753,22.5508,88.9539],[-80.1367,22.5676,68.1072],[-80.1277,22.5793,57.3114],[-80.1289,22.6208,50.4243],[-80.1385,22.6471,58.4166],[-80.1502,22.6652,64.9713],[-80.1687,22.6626,56.405],[-80.1851,22.6565,50.5676],[-80.2032,22.6557,44.5144],[-80.2631,22.6706,51.766],[-80.3136,22.695,49.7511],[-80.3405,22.6971,53.0047],[-80.3616,22.7036,53.9475],[-80.4403,22.7057,72.5491],[-80.4486,22.7129,79.7872],[-80.4624,22.7385,95.6509],[-80.475,22.7446,95.3676],[-80.5168,22.7434,90.8753],[-80.5591,22.7213,82.6162],[-80.5617,22.716,81.9093],[-80.574,22.7123,81.0501],[-80.5936,22.7091,74.2963],[-80.5965,22.7025,71.5329],[-80.5961,22.6955,74.1822],[-80.5836,22.68,81.0032],[-80.577,22.6607,79.233],[-80.5746,22.6174,82.3122],[-80.5576,22.5581,66.5197],[-80.5532,22.5248,55.7371],[-80.5458,22.4971,60.0195],[-80.5419,22.5067,63.4978],[-80.5346,22.5145,59.0001],[-80.5295,22.5168,63.2385],[-80.4959,22.5227,61.3619],[-80.4857,22.5288,70.3734],[-80.4692,22.5432,68.5703],[-80.46,22.5477,73.7139],[-80.4463,22.5494,73.5272],[-80.4345,22.5487,70.1068],[-80.4254,22.5438,71.9219],[-80.4181,22.536,60.1163],[-80.4103,22.5199,56.8843],[-80.4074,22.5176,56.4999],[-80.3943,22.5137,52.0154],[-80.3927,22.5107,53.5628],[-80.3946,22.4995,48.1198],[-80.4092,22.4825,42.7022],[-80.4091,22.4783,40.4008],[-80.4065,22.4731,35.1194],[-80.4011,22.4676,39.736],[-80.3952,22.4673,43.6757],[-80.386,22.4701,45.3988],[-80.3765,22.478,46.17],[-80.3681,22.4816,51.6479],[-80.3566,22.4821,53.0711],[-80.3335,22.4765,54.2311],[-80.3254,22.4761,54.4919],[-80.3183,22.48,59.6619],[-80.3148,22.4889,51.1688],[-80.3139,22.5063,56.0399],[-80.3094,22.5173,58.7213],[-80.2933,22.5364,68.5656],[-80.2878,22.5392,64.6446],[-80.2806,22.539,62.6151],[-80.2699,22.5327,61.3936],[-80.2563,22.5142,70.0602]]]]}
,"properties": {"GID_2": "CUB.16.13_1","GID_0": "CUB","country": "Cuba","GID_1": "CUB.16_1","province": "VillaClara","NL_NAME_1": "NA","county": "SantoDomingo","VARNAME_2": "NA","NL_NAME_2": "NA","TYPE_2": "Municipio","ENGTYPE_2": "Municipality","CC_2": "NA","HASC_2": "CU.VC.SD","name": "Santo_Domingo.county","area_km2": 877.9803,"hist_schema_id": "Elevation0-9000","hist_area_km2": {"25": 2.9752,"50": 297.1255,"75": 500.9443,"100": 76.7787,"125": 0.1566}}}