{"type": "Feature","id": "5012","bbox": [-78.4744,26.56387,-77.83462,26.77643],"geometry": {"type": "MultiPolygon","coordinates": [[[[-77.84708,26.59488,0.0197],[-77.84362,26.60073,0.342],[-77.83462,26.61054,-0.0647],[-77.83751,26.61351,0.0],[-77.84846,26.60554,0.0153],[-77.85383,26.60078,0.5975],[-77.85709,26.59785,1.1417],[-77.86449,26.59365,0.1649],[-77.86242,26.59663,1.3366],[-77.8531,26.607,0.9528],[-77.85757,26.61176,0.0],[-77.88781,26.60659,0.5846],[-77.89314,26.60261,0.0],[-77.8911,26.59406,0.0],[-77.88659,26.5856,0.0],[-77.87287,26.57054,0.0],[-77.87051,26.56672,0.0],[-77.8684,26.56387,0.0],[-77.86193,26.56411,1.6179],[-77.85558,26.57274,2.9367],[-77.85188,26.58332,0.3321],[-77.84716,26.59052,0.1403],[-77.84708,26.59488,0.0197]]],
[[[-77.92081,26.71695,0.5755],[-77.91808,26.73749,0.6533],[-77.91308,26.75788,0.2644],[-77.91539,26.77643,0.224],[-77.93114,26.77049,0.0],[-77.94005,26.75947,0.1103],[-77.94685,26.74657,0.0],[-77.95629,26.73542,0.0],[-77.97167,26.72956,0.0],[-78.03515,26.72858,0.203],[-78.05541,26.72602,0.0],[-78.08723,26.71312,0.5242],[-78.11895,26.70433,0.4786],[-78.16705,26.7104,0.6342],[-78.20264,26.69716,0.5733],[-78.22168,26.70029,0.1866],[-78.25293,26.71294,0.5806],[-78.27362,26.70358,0.5071],[-78.28708,26.68549,0.4583],[-78.31998,26.68653,0.5237],[-78.37096,26.69453,0.0],[-78.41706,26.70475,0.3743],[-78.43782,26.69982,0.3273],[-78.4744,26.71277,0.3215],[-78.44586,26.66122,2.9253],[-78.41118,26.59425,0.0],[-78.29339,26.6213,5.4398],[-78.23771,26.62133,0.9411],[-78.10033,26.64606,1.227],[-78.04076,26.65843,4.7676],[-77.97541,26.66177,4.9693],[-77.96255,26.65974,0.9587],[-77.9532,26.65485,0.8744],[-77.93627,26.64179,0.0],[-77.92907,26.63923,0.0],[-77.91055,26.64631,3.7846],[-77.90217,26.66242,0.555],[-77.90294,26.68159,0.4314],[-77.92081,26.71695,0.5755]]]]}
,"properties": {"ISO3166-1-Alpha-3": "BHS","country": "The Bahamas","fill": "#F0F","name": "East Grand Bahama","area_km2": 486.1275,"hist_schema_id": "Elevation0-9000","hist_area_km2": {"0": 486.0706,"25": 0.0569}}}