{"type":"Feature","properties":{"GID_1":"BHS.11_1","GID_0":"BHS","country":"Bahamas","state":"EastGrandBahama","VARNAME_1":"NA","NL_NAME_1":"NA","TYPE_1":"District","ENGTYPE_1":"District","CC_1":"NA","HASC_1":"BS.EB","ISO_1":"BS-EG","name":"EastGrandBahama.state"},
"geometry":{"type": "MultiPolygon","coordinates": [[[[-77.7763,26.4276,0.9388],[-77.7768,26.4299,0.263],[-77.7799,26.4301,0.3251],[-77.7832,26.4268,0.6416],[-77.7796,26.4229,0.0],[-77.7763,26.4276,0.9388]]],
[[[-77.7654,26.4368,0.3016],[-77.7596,26.439,0.3321],[-77.7593,26.4404,0.3321],[-77.7688,26.4379,0.8111],[-77.7696,26.4363,0.1984],[-77.7654,26.4368,0.3016]]],
[[[-77.7443,26.4968,0.0],[-77.7449,26.4976,0.2042],[-77.7485,26.4974,0.0],[-77.7468,26.4957,0.1984],[-77.7443,26.4968,0.0]]],
[[[-77.8051,26.5329,0.0],[-77.8049,26.536,0.0],[-77.806,26.536,0.0],[-77.8082,26.5307,0.3288],[-77.8063,26.5304,0.0],[-77.8051,26.5329,0.0]]],
[[[-77.8354,26.5443,0.3826],[-77.8362,26.5457,0.0],[-77.8376,26.5443,0.0],[-77.8376,26.5415,0.0],[-77.8362,26.5418,0.0],[-77.8354,26.5443,0.3826]]],
[[[-77.8221,26.5546,0.0],[-77.8246,26.5554,-0.0088],[-77.8293,26.5537,0.1025],[-77.8318,26.5504,0.5346],[-77.8329,26.5443,-0.1857],[-77.8326,26.5426,-0.0052],[-77.8274,26.5404,0.0],[-77.8251,26.5343,0.0],[-77.8199,26.536,0.3319],[-77.8182,26.5401,0.0],[-77.8193,26.5438,0.6217],[-77.8165,26.5465,0.4165],[-77.8224,26.5524,0.0],[-77.8221,26.5546,0.0]]],
[[[-77.8246,26.5932,0.0414],[-77.8243,26.5946,0.0678],[-77.826,26.5946,0.0],[-77.8282,26.590699999999998,0.1685],[-77.826,26.5899,0.0378],[-77.826,26.5882,0.0478],[-77.8282,26.5876,0.0],[-77.8271,26.5851,0.0],[-77.8296,26.5821,0.0],[-77.8285,26.5768,0.4254],[-77.8301,26.5721,0.2017],[-77.8285,26.5715,0.0],[-77.8288,26.5738,0.0351],[-77.8274,26.574,0.0351],[-77.8257,26.5713,0.0136],[-77.8279,26.5665,0.3054],[-77.8324,26.5649,0.2458],[-77.8307,26.5726,0.2017],[-77.8326,26.579,0.0],[-77.8349,26.5771,0.0406],[-77.8321,26.5746,0.0626],[-77.8326,26.5713,0.0436],[-77.8362,26.5749,0.0245],[-77.839,26.5735,-0.0018],[-77.8357,26.5801,-0.0167],[-77.8324,26.5824,0.0],[-77.8337,26.5838,0.0068],[-77.834,26.5821,0.0],[-77.8365,26.5824,0.0691],[-77.8326,26.5904,0.0],[-77.8307,26.5912,0.0],[-77.8326,26.5932,0.0542],[-77.8396,26.5818,0.0864],[-77.8429,26.5701,0.1063],[-77.8429,26.5665,0.0],[-77.8393,26.5682,0.0],[-77.8407,26.5621,-0.0984],[-77.8376,26.5599,0.0694],[-77.8401,26.5593,0.0038],[-77.8435,26.5543,0.14],[-77.8454,26.5551,0.14],[-77.8437,26.5574,0.862],[-77.8454,26.561,0.0],[-77.8443,26.5726,0.1384],[-77.8454,26.5729,0.1384],[-77.8529,26.5635,1.96],[-77.8538,26.5554,1.0002],[-77.8557,26.5582,0.0],[-77.8621,26.559,0.3132],[-77.8574,26.5563,0.9997],[-77.8565,26.5537,0.987],[-77.8621,26.5524,0.0],[-77.8624,26.5496,0.0],[-77.8568,26.5462,2.7135],[-77.8449,26.5338,0.72],[-77.8407,26.539,0.0],[-77.8424,26.5438,1.1579],[-77.841,26.5474,0.7577],[-77.836,26.549,0.4908],[-77.8324,26.5593,0.0],[-77.8249,26.5696,0.2033],[-77.8246,26.5721,0.0],[-77.8271,26.5749,0.0351],[-77.8271,26.5826,0.2903],[-77.8243,26.5882,0.3063],[-77.8257,26.5918,0.0338],[-77.8246,26.5932,0.0414]]],
[[[-77.8274,26.569,0.8062],[-77.8276,26.5707,0.0],[-77.8304,26.5699,0.7637],[-77.8299,26.5676,0.3248],[-77.8274,26.569,0.8062]]],
[[[-77.8126,26.5832,0.2744],[-77.8146,26.584,0.0],[-77.8149,26.5824,0.0181],[-77.8129,26.581,-1.2796],[-77.8165,26.5824,0.0181],[-77.8176,26.5793,-0.0207],[-77.814,26.5785,-0.6016],[-77.8138,26.5804,-2.0],[-77.8112,26.5807,-0.041],[-77.8129,26.576,0.0413],[-77.8121,26.5732,0.2996],[-77.8163,26.5682,0.2583],[-77.8196,26.5732,-0.504],[-77.8176,26.5754,-0.5],[-77.8143,26.5754,-0.062],[-77.8165,26.5765,-0.6212],[-77.8171,26.579,-0.0207],[-77.819,26.5793,0.0],[-77.821,26.5715,0.0321],[-77.819,26.5676,0.0947],[-77.8218,26.5682,0.558],[-77.821,26.5635,0.3621],[-77.826,26.5615,0.025],[-77.8276,26.5576,0.0],[-77.8257,26.5576,0.0611],[-77.826,26.5599,-0.3651],[-77.8246,26.5593,0.1585],[-77.8201,26.5621,0.2933],[-77.819,26.5654,0.6857],[-77.8135,26.5687,0.0],[-77.8115,26.5735,0.2996],[-77.8118,26.5768,0.0],[-77.8107,26.5782,0.6607],[-77.811,26.5824,0.1557],[-77.8126,26.5832,0.2744]]],
[[[-77.781,26.5751,0.2088],[-77.7829,26.576,0.0],[-77.7829,26.5726,0.2606],[-77.7818,26.5726,0.2606],[-77.781,26.5751,0.2088]]],
[[[-77.8171,26.5879,-0.4076],[-77.8165,26.5899,0.0572],[-77.8176,26.5901,0.144],[-77.8199,26.5857,0.2688],[-77.8179,26.5857,0.4063],[-77.8171,26.5879,-0.4076]]],
[[[-77.8112,26.5929,0.1613],[-77.8107,26.5946,0.122],[-77.814,26.5949,0.2637],[-77.814,26.5926,0.3477],[-77.8112,26.5929,0.1613]]],
[[[-77.8285,26.6243,0.0828],[-77.8274,26.6251,0.0828],[-77.8337,26.6232,0.0],[-77.8343,26.621,0.0272],[-77.8396,26.6168,0.0],[-77.8437,26.616,0.0],[-77.8487,26.6107,0.2434],[-77.8532,26.6096,0.1062],[-77.8812,26.606,0.266],[-77.8851,26.6063,2.1094],[-77.889,26.6087,0.1007],[-77.896,26.6079,0.9811],[-77.8863,26.5943,1.8059],[-77.8868,26.5893,0.0],[-77.8799,26.5785,0.0],[-77.8768,26.5793,1.3054],[-77.8701,26.5726,0.8519],[-77.8715,26.569,0.8978],[-77.864,26.5576,0.361],[-77.8618,26.5601,0.0],[-77.8551,26.5601,0.0],[-77.8574,26.5629,0.0],[-77.8463,26.5779,0.3768],[-77.8437,26.5846,0.1277],[-77.8499,26.5857,0.8783],[-77.8496,26.5843,0.0],[-77.8568,26.5815,0.4795],[-77.8587,26.5812,0.2044],[-77.8587,26.5824,0.2736],[-77.8549,26.5863,0.8903],[-77.8535,26.5865,0.092],[-77.8532,26.5851,0.0],[-77.8499,26.586,0.8783],[-77.8476,26.5885,0.0688],[-77.846,26.5865,0.0],[-77.8407,26.5874,0.0],[-77.8335,26.6035,0.3448],[-77.8271,26.6113,0.5402],[-77.8268,26.6176,0.0],[-77.829,26.6174,0.0488],[-77.8288,26.6146,0.0291],[-77.8324,26.6143,0.0],[-77.8324,26.6115,-0.0016],[-77.8304,26.6096,0.3648],[-77.8332,26.6113,-0.0647],[-77.8337,26.6138,0.0],[-77.8357,26.6129,0.074],[-77.836,26.6143,0.0],[-77.8396,26.6143,0.0],[-77.8401,26.6126,0.0],[-77.8379,26.6121,0.0],[-77.8401,26.6115,0.011],[-77.839,26.6093,-0.0177],[-77.8404,26.6087,0.0354],[-77.8404,26.6121,0.0],[-77.8424,26.6129,0.0695],[-77.8493,26.6007,-0.1324],[-77.8526,26.599,0.3178],[-77.8499,26.6018,0.106],[-77.8463,26.611,0.1686],[-77.8376,26.6171,0.0292],[-77.8349,26.6143,0.0],[-77.8354,26.6188,0.0415],[-77.8285,26.6243,0.0828]]],
[[[-77.8249,26.6007,0.2094],[-77.8251,26.6021,0.0],[-77.8279,26.6013,0.1506],[-77.8321,26.5949,0.0],[-77.8301,26.5949,0.0],[-77.8282,26.5974,0.1968],[-77.8279,26.5949,0.0],[-77.8262,26.5949,0.0],[-77.8249,26.6007,0.2094]]],
[[[-77.8296,26.6174,0.0488],[-77.8307,26.6185,0.0488],[-77.8326,26.6165,0.0],[-77.8318,26.6162,0.0],[-77.8296,26.6174,0.0488]]],
[[[-77.8229,26.6276,1.3411],[-77.8257,26.6285,0.3971],[-77.8265,26.6274,0.3971],[-77.8251,26.6243,0.0],[-77.8271,26.6218,0.0],[-77.8254,26.6188,0.0],[-77.8171,26.6254,0.0],[-77.8176,26.626,0.0],[-77.821,26.6246,0.7435],[-77.8229,26.6276,1.3411]]],
[[[-77.8157,26.5965,0.2347],[-77.816,26.5979,0.1207],[-77.8193,26.5974,0.0],[-77.8215,26.5957,0.1385],[-77.821,26.5935,0.0],[-77.8196,26.5929,0.1141],[-77.8157,26.5965,0.2347]]],
[[[-77.8324,26.6299,0.041],[-77.8354,26.6293,0.0],[-77.8349,26.6265,0.0],[-77.829,26.6282,0.072],[-77.8324,26.6299,0.041]]],
[[[-77.8412,26.6471,0.0],[-77.8457,26.6474,0.0],[-77.8476,26.641,-0.7546],[-77.849,26.6401,-0.2249],[-77.8496,26.6421,0.0],[-77.8538,26.6393,0.0],[-77.859,26.6326,0.0],[-77.8524,26.6343,0.036],[-77.8407,26.6329,0.0],[-77.8396,26.6365,0.0168],[-77.8424,26.6368,0.0024],[-77.8429,26.6388,0.0267],[-77.8443,26.6382,-1.0],[-77.8446,26.6351,-0.2548],[-77.8499,26.6357,-0.1071],[-77.8482,26.6388,-0.2249],[-77.8463,26.6357,-1.0],[-77.8471,26.6396,-0.5422],[-77.8432,26.6396,0.0267],[-77.8421,26.6421,0.1712],[-77.8404,26.6388,0.1323],[-77.8379,26.639,0.0],[-77.8412,26.6471,0.0]]],
[[[-77.8415,26.631,0.04],[-77.8532,26.6315,0.0314],[-77.8651,26.6271,0.0],[-77.869,26.624,0.0],[-77.8724,26.6257,0.0],[-77.8732,26.6218,0.3333],[-77.8829,26.6179,0.3076],[-77.8921,26.6168,0.4626],[-77.8996,26.6207,0.0],[-77.904,26.6207,0.0],[-77.9046,26.6171,0.7894],[-77.9037,26.6143,0.0],[-77.8987,26.6099,0.4855],[-77.8949,26.6087,0.9811],[-77.889,26.6099,0.5935],[-77.8799,26.6076,0.0],[-77.8737,26.6104,0.0],[-77.8535,26.6124,0.022],[-77.8382,26.6215,0.0],[-77.8365,26.6262,0.0],[-77.841,26.6285,-0.0282],[-77.8415,26.631,0.04]]],
[[[-77.8871,26.6249,0.3968],[-77.8863,26.6265,0.0],[-77.8901,26.624,0.3817],[-77.889,26.6232,0.0],[-77.8871,26.6249,0.3968]]],
[[[-77.9451,26.644,0.0],[-77.9476,26.6449,0.1453],[-77.949,26.6446,0.0],[-77.9421,26.6424,0.5636],[-77.9451,26.644,0.0]]],
[[[-77.8874,26.6849,1.558],[-77.8901,26.6854,1.0583],[-77.8879,26.6807,0.323],[-77.8863,26.6815,0.0],[-77.8874,26.6849,1.558]]],
[[[-78.1943,26.7079,0.269],[-78.1937,26.7099,0.3849],[-78.1993,26.7104,0.3269],[-78.2021,26.7054,0.0],[-78.2024,26.701,0.0455],[-78.2129,26.7024,0.0],[-78.214,26.7007,0.0],[-78.2168,26.7015,0.0903],[-78.2221,26.6999,1.0025],[-78.2251,26.7051,0.0],[-78.2271,26.7024,0.194],[-78.2318,26.709,0.0],[-78.2363,26.7082,0.1735],[-78.2401,26.7143,0.0],[-78.2429,26.7143,0.1684],[-78.2451,26.7129,0.0],[-78.2424,26.7076,0.647],[-78.2443,26.7054,0.5949],[-78.2438,26.7093,0.4795],[-78.2507,26.7118,0.0963],[-78.2521,26.711,0.0991],[-78.2535,26.7129,0.5806],[-78.2535,26.7143,0.2134],[-78.2515,26.7146,0.0],[-78.2521,26.7249,0.0],[-78.2535,26.7282,0.2318],[-78.2562,26.7296,0.0],[-78.2593,26.7268,0.0],[-78.2579,26.7163,0.0],[-78.2604,26.7171,0.0],[-78.2618,26.7149,0.3296],[-78.2685,26.7168,0.2681],[-78.2737,26.7115,0.0],[-78.2718,26.7085,0.1785],[-78.2763,26.7074,0.0],[-78.2785,26.7018,0.2106],[-78.2838,26.7015,0.0],[-78.2843,26.6988,0.0],[-78.2807,26.6951,0.4996],[-78.2821,26.6904,0.2055],[-78.2826,26.6935,0.1841],[-78.2851,26.6926,0.0614],[-78.2868,26.6868,0.4583],[-78.2824,26.6874,0.42],[-78.2896,26.6838,0.0],[-78.2918,26.6857,0.0],[-78.2915,26.689,0.0],[-78.294,26.6885,0.0786],[-78.294,26.6913,0.0],[-78.2965,26.6913,0.6299],[-78.294,26.6929,0.0],[-78.2946,26.6988,0.0],[-78.2962,26.6988,0.0],[-78.2979,26.696,0.0],[-78.3035,26.6963,0.102],[-78.3043,26.6896,0.1719],[-78.3076,26.6901,0.0584],[-78.3096,26.6882,0.0784],[-78.3087,26.6937,0.0684],[-78.3099,26.694,0.0],[-78.3154,26.6871,0.0],[-78.3174,26.6901,0.107],[-78.3215,26.6879,0.4048],[-78.3226,26.6887,0.4048],[-78.3187,26.6915,0.0],[-78.3185,26.6949,0.0],[-78.3204,26.6976,0.0],[-78.3232,26.6971,0.0],[-78.3221,26.6951,0.1122],[-78.3246,26.6935,0.3475],[-78.3282,26.6946,0.0],[-78.3299,26.6915,0.2418],[-78.3337,26.6926,0.2214],[-78.3346,26.6976,0.0],[-78.3329,26.6949,0.0],[-78.329,26.6974,0.0],[-78.3349,26.7018,0.2356],[-78.3393,26.6963,0.5749],[-78.3388,26.6932,0.0],[-78.3354,26.6924,0.0665],[-78.3399,26.6899,0.1048],[-78.3412,26.6926,0.0],[-78.3432,26.6901,0.2561],[-78.3482,26.6907,0.0],[-78.3521,26.6876,0.179],[-78.3526,26.6882,0.179],[-78.3521,26.6896,0.0],[-78.3568,26.6882,0.2095],[-78.3554,26.6904,0.0],[-78.3585,26.6921,0.0],[-78.3649,26.6901,0.3107],[-78.3737,26.6907,0.0],[-78.3763,26.6943,0.0],[-78.3779,26.6937,0.3479],[-78.3801,26.6954,0.1997],[-78.3799,26.6971,0.0],[-78.3835,26.6988,0.0],[-78.3871,26.7057,0.6409],[-78.3868,26.7096,0.0],[-78.391,26.7121,0.0],[-78.3926,26.7107,0.2338],[-78.3913,26.7101,0.0],[-78.389,26.7007,0.0667],[-78.3907,26.6968,0.4873],[-78.3954,26.6996,0.0437],[-78.4001,26.7001,0.4306],[-78.4065,26.7043,0.0],[-78.409,26.7035,0.2927],[-78.4074,26.7068,0.0],[-78.4101,26.7062,0.1475],[-78.4174,26.7243,0.0],[-78.4199,26.7218,0.1835],[-78.4226,26.7215,0.0],[-78.4221,26.7179,0.0],[-78.4199,26.7182,0.0],[-78.4196,26.7126,0.0],[-78.4235,26.7068,0.1419],[-78.4299,26.7038,0.0],[-78.4296,26.7021,0.0393],[-78.431,26.7038,0.0],[-78.4329,26.7021,0.0],[-78.4329,26.7035,0.0],[-78.4351,26.7038,0.046],[-78.4337,26.7074,0.0],[-78.4351,26.7082,0.042],[-78.436,26.7026,0.1663],[-78.4388,26.7018,0.3045],[-78.4371,26.7049,0.0],[-78.4379,26.709,0.0],[-78.4401,26.7096,0.048],[-78.4413,26.7124,0.0],[-78.4474,26.7126,0.0787],[-78.4526,26.7168,0.1432],[-78.4557,26.7163,0.1236],[-78.4566,26.7026,0.4925],[-78.4537,26.687,0.7494],[-78.4447,26.6586,1.3209],[-78.4384,26.6467,1.7695],[-78.4099,26.6085,5.6374],[-78.4013,26.601,0.8549],[-78.3904,26.604,0.5108],[-78.3874,26.6037,0.0],[-78.3846,26.6013,0.0],[-78.3735,26.6024,0.3436],[-78.3712,26.6043,0.6217],[-78.3543,26.6085,0.0],[-78.3432,26.609,1.3883],[-78.3171,26.6149,0.4224],[-78.2968,26.6168,0.0],[-78.2838,26.6212,1.1142],[-78.264,26.6215,0.0],[-78.2482,26.6165,0.3489],[-78.2307,26.6212,1.7381],[-78.2165,26.6193,0.0],[-78.2185,26.6221,0.0],[-78.226,26.6215,0.0],[-78.2288,26.6221,1.3334],[-78.2288,26.6249,1.6514],[-78.2265,26.6249,0.0],[-78.2262,26.6229,0.0],[-78.2237,26.6221,4.0814],[-78.2182,26.6235,0.0],[-78.2149,26.6193,0.0],[-78.216,26.6254,0.8878],[-78.1979,26.6293,1.0603],[-78.1915,26.6321,2.4013],[-78.1368,26.6415,0.0],[-78.1329,26.6437,0.0],[-78.1215,26.6449,0.2963],[-78.1162,26.644,0.7112],[-78.1143,26.6421,1.3416],[-78.1096,26.6424,0.9388],[-78.0976,26.6463,1.5525],[-78.0643,26.6518,0.0],[-78.0429,26.6501,0.0],[-78.0401,26.6529,0.0],[-78.0351,26.6546,0.8897],[-78.0212,26.6568,0.0],[-77.9982,26.6579,1.0099],[-77.9896,26.6557,0.6876],[-77.9804,26.6565,1.1515],[-77.979,26.6543,2.2345],[-77.9749,26.653199999999998,1.197],[-77.9737,26.6501,0.0],[-77.961,26.6487,0.0],[-77.9543,26.646,0.0],[-77.9593,26.6499,0.5946],[-77.9579,26.6501,0.0],[-77.9479,26.6482,0.9394],[-77.9379,26.6426,0.1428],[-77.9337,26.6429,0.0],[-77.9332,26.646,0.3617],[-77.9313,26.6471,1.9886],[-77.9238,26.6474,1.4358],[-77.894,26.6599,0.0708],[-77.8865,26.6682,0.0],[-77.8812,26.6718,0.0],[-77.8779,26.6721,0.2565],[-77.8765,26.6712,0.0],[-77.886,26.6665,0.0772],[-77.8951,26.6563,0.0],[-77.9068,26.6526,0.0],[-77.9182,26.6457,0.1893],[-77.9296,26.644,0.1083],[-77.9271,26.6399,0.2305],[-77.9187,26.6351,0.0],[-77.8996,26.6346,0.0],[-77.8901,26.6401,0.0],[-77.8746,26.6565,0.0],[-77.8704,26.6651,0.1403],[-77.8688,26.6649,0.0],[-77.8693,26.6607,0.0643],[-77.8668,26.6624,0.0],[-77.8662,26.666,0.0653],[-77.8632,26.6599,0.0903],[-77.8707,26.6582,0.0],[-77.8779,26.6515,0.1965],[-77.8854,26.6393,0.0],[-77.891,26.634,0.3995],[-77.8979,26.6318,1.7458],[-77.9085,26.6324,0.0],[-77.9104,26.631,0.4244],[-77.9118,26.6326,0.0287],[-77.9154,26.6329,0.1063],[-77.9151,26.6307,0.1614],[-77.9126,26.6296,0.1833],[-77.9168,26.6296,0.3783],[-77.9235,26.6354,0.0],[-77.9268,26.6354,1.2599],[-77.9318,26.6399,0.8536],[-77.9346,26.6382,0.0],[-77.9318,26.6385,1.2683],[-77.9307,26.6363,0.0],[-77.9215,26.631,1.6554],[-77.9204,26.6285,0.0],[-77.9068,26.619,0.0],[-77.904,26.6229,0.8562],[-77.8974,26.6224,2.6295],[-77.889,26.6276,3.9267],[-77.8796,26.6293,0.0],[-77.8768,26.6315,0.2176],[-77.8721,26.6299,0.0],[-77.8621,26.6338,1.8264],[-77.8485,26.6454,0.0],[-77.849,26.6485,0.0],[-77.8529,26.6465,0.0223],[-77.8543,26.649,0.0],[-77.8562,26.6487,0.2177],[-77.8604,26.6463,0.0],[-77.8676,26.6343,2.6218],[-77.8701,26.6349,0.0493],[-77.8629,26.6446,0.0],[-77.8624,26.6476,0.127],[-77.8571,26.6501,0.0],[-77.8585,26.651,0.0],[-77.8607,26.6493,0.1356],[-77.8618,26.6513,0.0485],[-77.8643,26.6513,0.2828],[-77.8665,26.6535,0.1714],[-77.8662,26.656,0.0],[-77.8607,26.6521,0.0234],[-77.856,26.6549,0.8668],[-77.8524,26.6521,0.0922],[-77.8543,26.6507,0.0],[-77.8538,26.6496,0.0],[-77.8501,26.6501,0.0],[-77.8493,26.6518,0.0],[-77.8535,26.6549,0.0],[-77.8601,26.6568,0.3125],[-77.866,26.6707,0.0],[-77.8749,26.6735,0.2238],[-77.8815,26.6735,0.2926],[-77.886,26.6768,0.0669],[-77.8887,26.6762,0.0556],[-77.8915,26.6804,0.0597],[-77.8954,26.6818,0.1382],[-77.8968,26.6893,0.0],[-77.8993,26.6915,0.2647],[-77.901,26.6896,0.2378],[-77.9024,26.6901,0.2268],[-77.9037,26.6963,0.1507],[-77.9029,26.6971,0.1694],[-77.901,26.6954,0.0],[-77.9004,26.7012,0.0],[-77.9024,26.7012,0.0],[-77.9024,26.7054,0.0],[-77.9032,26.6976,0.0466],[-77.9088,26.6982,0.1491],[-77.9051,26.699,0.0],[-77.9071,26.7035,0.0569],[-77.9043,26.7038,0.1462],[-77.9035,26.7054,0.1462],[-77.906,26.7118,0.2228],[-77.9032,26.731,0.3102],[-77.9046,26.7349,0.2353],[-77.9026,26.7382,0.0],[-77.9001,26.739,0.0],[-77.9015,26.7424,0.0],[-77.9054,26.7432,0.2258],[-77.9054,26.7476,0.0],[-77.9043,26.749,0.0801],[-77.899,26.7488,0.408],[-77.8985,26.7504,0.0],[-77.9007,26.7532,0.0],[-77.9049,26.7546,0.1939],[-77.9071,26.7474,0.0],[-77.9085,26.7482,0.0],[-77.9085,26.7524,0.0],[-77.911,26.7524,0.0],[-77.9121,26.7482,0.0],[-77.914,26.7474,0.0],[-77.9185,26.7488,0.1548],[-77.9176,26.7496,0.1548],[-77.9129,26.7485,0.0],[-77.9112,26.7535,0.0],[-77.9082,26.7532,0.0],[-77.9107,26.7585,0.0],[-77.9135,26.759,0.5577],[-77.9126,26.7635,0.3899],[-77.9168,26.7715,0.0],[-77.9112,26.7704,0.0],[-77.9062,26.7721,0.0],[-77.9099,26.776,0.0],[-77.9146,26.776,0.224],[-77.9165,26.7776,0.0763],[-77.9179,26.7774,0.0],[-77.9179,26.7746,0.0616],[-77.9204,26.7732,0.0],[-77.9199,26.771,0.0],[-77.9218,26.7696,0.0],[-77.9193,26.7671,0.3169],[-77.9163,26.7671,0.5744],[-77.9151,26.7649,0.4444],[-77.9224,26.7579,0.0],[-77.9212,26.7554,0.0],[-77.9185,26.7543,0.2741],[-77.9212,26.7496,0.1808],[-77.9229,26.7493,0.0704],[-77.9224,26.7463,0.0398],[-77.9249,26.7446,0.1267],[-77.9254,26.7479,0.0],[-77.9276,26.7493,0.0],[-77.9296,26.7488,0.0],[-77.9262,26.7446,0.1385],[-77.9332,26.7465,0.0],[-77.9321,26.7438,0.0],[-77.9368,26.7412,0.0],[-77.9365,26.7349,0.0],[-77.9415,26.7379,0.0],[-77.9415,26.7412,0.0],[-77.9382,26.7432,0.0],[-77.9432,26.7438,0.1525],[-77.941,26.7485,0.2269],[-77.9493,26.7446,0.0939],[-77.9529,26.7404,0.0],[-77.9499,26.7399,0.0536],[-77.9493,26.7418,0.2155],[-77.9463,26.7421,0.3825],[-77.9471,26.7379,0.0],[-77.944,26.7374,0.1982],[-77.946,26.7332,0.1461],[-77.944,26.7301,0.238],[-77.9479,26.7287,0.0441],[-77.9488,26.7268,0.2064],[-77.9515,26.7268,0.1939],[-77.9568,26.736,0.165],[-77.9599,26.7371,0.1105],[-77.9593,26.7396,0.0],[-77.9624,26.7382,0.1532],[-77.961,26.7354,0.1065],[-77.9618,26.7304,0.2056],[-77.9687,26.7313,0.0],[-77.9674,26.7287,0.1462],[-77.9704,26.7274,0.0],[-77.9713,26.7251,0.103],[-77.9737,26.726,0.0],[-77.9679,26.7221,0.2092],[-77.9685,26.7204,0.2395],[-77.9751,26.7232,0.0402],[-77.9835,26.7221,0.1043],[-77.9851,26.726,0.0],[-77.9893,26.7235,0.1785],[-77.9949,26.7251,0.1035],[-78.0001,26.7237,0.2833],[-78.0099,26.7332,0.1125],[-78.0121,26.7329,0.1564],[-78.0132,26.729,0.2111],[-78.0149,26.7282,0.1534],[-78.0171,26.7299,0.0],[-78.0226,26.7282,0.253],[-78.0243,26.7296,0.0],[-78.0318,26.7287,0.081],[-78.0315,26.7299,0.0],[-78.0351,26.7318,0.1859],[-78.0512,26.734,0.0],[-78.0563,26.7293,0.1019],[-78.0638,26.7293,0.0],[-78.0632,26.7265,0.1037],[-78.0668,26.7265,0.1332],[-78.0682,26.7229,0.2578],[-78.0829,26.7204,0.4948],[-78.091,26.7263,0.0],[-78.094,26.7254,0.4557],[-78.096,26.7221,0.0],[-78.0946,26.7174,0.0],[-78.0974,26.7154,0.0],[-78.0982,26.711,0.3944],[-78.0943,26.7115,0.2018],[-78.0926,26.7101,0.1931],[-78.1046,26.7071,0.0],[-78.1062,26.7038,0.1038],[-78.1074,26.7049,0.1198],[-78.1126,26.704,0.0],[-78.1149,26.6976,1.6099],[-78.1168,26.6974,0.0],[-78.1182,26.699,0.0],[-78.1201,26.6974,0.0927],[-78.1199,26.7007,0.0],[-78.1254,26.7021,0.181],[-78.1293,26.7096,0.3095],[-78.1329,26.7099,0.7121],[-78.134,26.7132,0.0],[-78.1396,26.7149,0.0],[-78.1415,26.7121,0.0],[-78.1454,26.7165,0.0],[-78.1471,26.716,0.0939],[-78.1471,26.714,0.4133],[-78.1499,26.716,0.0],[-78.1537,26.715699999999998,0.08],[-78.1524,26.7176,0.2181],[-78.1546,26.7176,0.1118],[-78.1571,26.7232,0.2212],[-78.1576,26.7299,0.0],[-78.1604,26.7318,0.0],[-78.1632,26.731,0.0],[-78.1626,26.7293,0.435],[-78.1612,26.7301,0.7721],[-78.1629,26.7251,0.0],[-78.1607,26.7201,0.0],[-78.1579,26.7201,0.0],[-78.1599,26.715699999999998,0.0],[-78.1585,26.7163,0.0],[-78.1574,26.714,0.0],[-78.1643,26.7129,0.0604],[-78.1665,26.7154,0.1682],[-78.181,26.7071,0.0],[-78.1813,26.7024,0.146],[-78.1829,26.7024,0.146],[-78.1832,26.7051,0.5187],[-78.1801,26.7118,0.0],[-78.1829,26.7149,0.0],[-78.1874,26.7151,0.0],[-78.1882,26.7101,0.1369],[-78.1854,26.7101,0.0714],[-78.1882,26.7068,0.0839],[-78.1868,26.7057,0.4784],[-78.189,26.7046,0.2744],[-78.1888,26.7029,0.4133],[-78.191,26.7038,0.1611],[-78.1924,26.7018,-0.1644],[-78.1954,26.7021,0.3487],[-78.1979,26.7074,0.5939],[-78.1963,26.7065,0.0],[-78.1943,26.7079,0.269]]],
[[[-78.2904,26.6918,0.1057],[-78.2907,26.6937,0.018],[-78.2921,26.6937,0.0],[-78.2918,26.6901,0.0],[-78.2904,26.6918,0.1057]]],
[[[-78.1279,26.7115,0.1201],[-78.1301,26.7121,0.0],[-78.1271,26.7085,0.0],[-78.1274,26.7068,0.0],[-78.1249,26.7076,0.5278],[-78.1226,26.704,0.0],[-78.1204,26.7049,0.1395],[-78.1232,26.7104,0.0],[-78.1279,26.7115,0.1201]]],
[[[-78.1918,26.7113,0.2444],[-78.1937,26.7113,0.0],[-78.1937,26.7099,0.3849],[-78.1901,26.7074,0.1258],[-78.1896,26.7107,0.0],[-78.1918,26.7113,0.2444]]],
[[[-78.1793,26.7188,0.0],[-78.1801,26.7201,0.0],[-78.1818,26.7196,0.2247],[-78.1801,26.7151,0.0],[-78.1785,26.7149,0.3221],[-78.1776,26.7107,0.0983],[-78.1751,26.7118,0.0],[-78.1729,26.716,0.0],[-78.1757,26.719,0.0],[-78.1771,26.7193,0.0],[-78.1782,26.7174,0.3117],[-78.1793,26.7188,0.0]]],
[[[-78.2426,26.7188,0.0],[-78.2454,26.7188,0.0],[-78.246,26.7165,0.1014],[-78.244,26.7163,0.4979],[-78.2446,26.7151,0.1684],[-78.2482,26.7149,0.0],[-78.2496,26.7171,0.0],[-78.251,26.7138,0.0],[-78.2424,26.7146,0.0],[-78.241,26.7174,0.0],[-78.2426,26.7188,0.0]]],
[[[-78.444,26.7179,0.0],[-78.4432,26.7207,0.0],[-78.4468,26.7168,0.0],[-78.4449,26.716,0.0],[-78.444,26.7179,0.0]]],
[[[-78.2932,26.7493,0.0],[-78.2946,26.7507,0.0],[-78.3043,26.7493,0.0],[-78.3051,26.7474,0.5044],[-78.3015,26.7424,0.8161],[-78.3024,26.7382,0.0],[-78.2985,26.7351,0.0],[-78.2993,26.7299,0.0],[-78.2901,26.7224,0.0],[-78.2851,26.7226,0.4267],[-78.2838,26.7199,0.0],[-78.2801,26.7199,0.0],[-78.2774,26.7146,0.0939],[-78.2701,26.715699999999998,0.0],[-78.2674,26.7213,0.0],[-78.2626,26.7226,0.0795],[-78.264,26.7254,0.1737],[-78.2679,26.726,0.0979],[-78.2657,26.7285,0.1294],[-78.2676,26.7299,0.4899],[-78.2671,26.7324,0.0],[-78.2701,26.7337,0.1319],[-78.2715,26.7379,0.5649],[-78.2757,26.739,0.0],[-78.2754,26.7418,0.0],[-78.279,26.7385,0.5049],[-78.2799,26.7424,0.2131],[-78.2832,26.7449,0.0],[-78.2868,26.7438,0.0],[-78.286,26.7412,0.2095],[-78.2824,26.7399,0.0995],[-78.2838,26.7382,0.0],[-78.2843,26.7404,0.0],[-78.2968,26.741,0.382],[-78.2874,26.7412,0.2095],[-78.2874,26.7438,0.0],[-78.2924,26.746,0.4833],[-78.2932,26.7493,0.0]]],
[[[-78.1146,26.7065,0.0],[-78.1188,26.7068,0.2141],[-78.1204,26.7015,0.0],[-78.1143,26.7049,0.0],[-78.1146,26.7065,0.0]]],
[[[-77.9432,26.7588,0.0],[-77.946,26.7593,0.084],[-77.9443,26.7546,0.1002],[-77.9424,26.7551,0.1346],[-77.944,26.7562,0.1318],[-77.9432,26.7588,0.0]]],
[[[-77.9221,26.7638,0.0501],[-77.9226,26.7651,0.0501],[-77.9274,26.7626,0.17],[-77.926,26.7593,0.0775],[-77.9318,26.7543,0.2065],[-77.9268,26.754,0.0244],[-77.9226,26.7596,0.0577],[-77.9221,26.7638,0.0501]]],
[[[-77.9326,26.7621,0.0],[-77.9349,26.7629,0.0729],[-77.9354,26.7607,0.344],[-77.9388,26.7615,0.0],[-77.9401,26.7599,0.1103],[-77.9354,26.7576,0.3766],[-77.9368,26.7599,0.0831],[-77.9313,26.761,0.0937],[-77.9326,26.7621,0.0]]],
[[[-77.9262,26.7657,0.0],[-77.9279,26.7665,0.0],[-77.9296,26.7635,0.0],[-77.9279,26.7632,0.0],[-77.9262,26.7657,0.0]]],
[[[-77.9143,26.784,0.1967],[-77.9163,26.7846,0.5516],[-77.9182,26.7829,0.1879],[-77.9135,26.781,0.1721],[-77.9143,26.784,0.1967]]],
[[[-78.1725,27.0325,0.0],[-78.1739,27.0333,0.2766],[-78.1767,27.0319,0.4552],[-78.1772,27.0283,0.0],[-78.1828,27.0231,0.2638],[-78.1797,27.0228,0.7221],[-78.1825,27.0194,1.7732],[-78.1856,27.0203,0.0],[-78.1922,27.0142,0.0],[-78.2161,27.0019,0.6509],[-78.2282,26.9893,0.0],[-78.2304,26.9829,0.0],[-78.2265,26.9846,1.2849],[-78.2251,26.989,0.2446],[-78.2207,26.9946,0.2499],[-78.2187,26.9946,0.0],[-78.2143,26.9912,0.0],[-78.2126,26.9863,0.0],[-78.2162,26.9546,0.4066],[-78.219,26.9474,0.0],[-78.221,26.9465,0.0],[-78.219,26.941,0.0],[-78.2162,26.9449,0.0],[-78.214,26.9538,1.0849],[-78.2096,26.9843,0.0],[-78.2035,27.0001,2.2367],[-78.1917,27.0053,0.0931],[-78.1797,27.0161,0.1258],[-78.1778,27.0106,0.5108],[-78.1761,27.0122,1.0291],[-78.1719,27.0097,0.3683],[-78.1706,27.0108,0.4864],[-78.1742,27.0156,0.0],[-78.1717,27.0306,0.0],[-78.1725,27.0325,0.0]]],
[[[-78.1736,27.0028,0.0],[-78.1736,27.005,0.0],[-78.1767,27.0081,0.1761],[-78.1778,27.0064,0.1107],[-78.1769,27.0039,0.0],[-78.1744,27.0019,0.0],[-78.1736,27.0028,0.0]]]]}}