{"type":"Feature","properties":{"GID_2":"CUB.12.3_1","GID_0":"CUB","country":"Cuba","GID_1":"CUB.12_1","province":"Mayabeque","NL_NAME_1":"NA","county":"Güines","VARNAME_2":"NA","NL_NAME_2":"NA","TYPE_2":"Municipio","ENGTYPE_2":"Municipality","CC_2":"NA","HASC_2":"CU.LH.GS","name":"Güines.county"},
"geometry":{"type": "MultiPolygon","coordinates": [[[[-82.007,22.6707,3.8544],[-81.9974,22.6843,1.3103],[-81.9687,22.7401,11.0335],[-81.9547,22.7577,14.1337],[-81.94,22.7864,33.3444],[-81.9405,22.7926,34.5931],[-81.951,22.8049,33.044],[-81.9578,22.8174,48.9518],[-81.9582,22.8252,52.3114],[-81.9424,22.841,64.7111],[-81.9254,22.85,79.3031],[-81.9079,22.8632,84.7892],[-81.9174,22.8799,113.3656],[-81.921,22.9009,159.1815],[-81.9311,22.9257,124.7363],[-81.9467,22.9346,100.7945],[-81.9634,22.9373,88.9669],[-81.9801,22.9345,83.484],[-81.9959,22.9258,80.8135],[-82.0197,22.8831,101.9023],[-82.0587,22.8541,55.7909],[-82.0574,22.7964,27.6573],[-82.0593,22.7818,23.6525],[-82.0825,22.7574,15.3757],[-82.1036,22.7449,10.8779],[-82.1142,22.735,7.7358],[-82.1247,22.7152,14.2667],[-82.1393,22.6704,0.0],[-82.1062,22.6596,0.9328],[-82.0982,22.6549,0.0],[-82.0818,22.6582,0.0],[-82.0713,22.6635,0.0],[-82.0565,22.6671,0.9823],[-82.0396,22.6662,0.0],[-82.0274,22.6676,1.3501],[-82.0157,22.6712,1.1173],[-82.007,22.6707,3.8544]]]]}}