{"type": "Feature","bbox": [-61.2641,15.871,-61.1949,15.9642],"geometry": {"type": "MultiPolygon","coordinates": [[[[-61.2243,15.9642,19.1485],[-61.245,15.9499,155.9361],[-61.2552,15.9462,146.5283],[-61.2609,15.9262,90.8212],[-61.2641,15.9244,82.3592],[-61.2521,15.9171,94.9323],[-61.2558,15.9005,139.9496],[-61.2498,15.8929,144.0128],[-61.2571,15.8812,114.3376],[-61.26,15.871,5.0106],[-61.249,15.8721,5.6322],[-61.2418,15.8746,2.8561],[-61.221,15.8893,1.8236],[-61.2174,15.8954,1.4187],[-61.2043,15.9007,0.0],[-61.2024,15.9029,0.0],[-61.2012,15.909,4.0223],[-61.1979,15.9149,1.2309],[-61.196,15.9224,0.0],[-61.1968,15.9265,10.816],[-61.1949,15.9296,0.0],[-61.1979,15.9396,1.2898],[-61.2001,15.9454,0.0],[-61.2054,15.9513,4.8515],[-61.2129,15.9565,2.164],[-61.2174,15.9571,22.432],[-61.2187,15.9624,0.0],[-61.2243,15.9642,19.1485]]]]}
,"properties": {"GID_2": "GLP.2.2_1","GID_0": "GLP","country": "Guadeloupe","GID_1": "GLP.2_1","province": "Pointe-à-Pitre","NL_NAME_1": "NA","county": "Capesterre-de-Marie-Galante","VARNAME_2": "NA","NL_NAME_2": "NA","TYPE_2": "Chef-lieucanton","ENGTYPE_2": "Commune","CC_2": "09","HASC_2": "NA","name": "Capesterre-de-Marie-Galante.county","area_km2": 46.99664,"hist_schema_id": "Elevation0-9000","hist_area_km2": {"0": 2.89538,"25": 1.6312,"50": 3.42555,"75": 2.01853,"100": 3.22144,"125": 11.6627,"150": 18.59464,"175": 2.9764,"200": 0.5708}}}