{"type": "Feature","bbox": [-73.7088,18.0554,-73.571,18.1426],"geometry": {"type": "MultiPolygon","coordinates": [[[[-73.7054,18.1094,1.9013],[-73.7077,18.1081,0.0],[-73.7088,18.1,0.0],[-73.7042,18.0974,0.0],[-73.7027,18.0944,0.0],[-73.7061,18.092,0.0],[-73.701,18.0882,0.0],[-73.6884,18.0836,0.0],[-73.6869,18.0816,0.0],[-73.6871,18.0765,0.0],[-73.6762,18.0657,4.5024],[-73.6764,18.061,0.6821],[-73.6747,18.0596,0.0],[-73.6656,18.0599,5.1273],[-73.6585,18.0571,2.1141],[-73.6508,18.0608,2.7152],[-73.6468,18.0587,0.0],[-73.6221,18.0585,1.4198],[-73.6212,18.0568,0.0],[-73.616,18.0554,0.0],[-73.6001,18.0554,0.0],[-73.5926,18.0576,1.2551],[-73.5868,18.0554,0.0],[-73.579,18.0576,0.0],[-73.5779,18.0599,0.4506],[-73.5749,18.0607,0.0],[-73.5713,18.0671,0.1165],[-73.571,18.0701,0.1146],[-73.574,18.0743,0.0],[-73.5774,18.076,0.0],[-73.579,18.0818,0.0],[-73.5826,18.0868,0.517],[-73.5882,18.0893,0.2096],[-73.5987,18.099,0.0],[-73.6043,18.1003,0.7883],[-73.609,18.0976,0.35],[-73.6114,18.0985,0.4985],[-73.6131,18.0955,0.5992],[-73.6224,18.0893,0.7875],[-73.6339,18.0834,0.0],[-73.6413,18.0824,0.1586],[-73.6626,18.0888,1.3896],[-73.6696,18.0985,4.3001],[-73.6718,18.0993,0.0],[-73.6765,18.096,2.0226],[-73.6801,18.1032,0.0],[-73.683,18.1004,0.2981],[-73.6865,18.1021,0.3976],[-73.6854,18.1054,13.1412],[-73.692,18.1069,5.7903],[-73.6942,18.1053,0.0],[-73.6937,18.1026,0.0],[-73.6965,18.1021,0.0],[-73.6988,18.1043,0.0],[-73.6996,18.1087,1.8143],[-73.7054,18.1094,1.9013]]],
[[[-73.6257,18.1426,0.0],[-73.6279,18.1426,0.0],[-73.6282,18.1407,3.6114],[-73.6237,18.1413,0.4991],[-73.6257,18.1426,0.0]]]]}
,"properties": {"GID_3": "HTI.10.2.3_1","GID_0": "HTI","country": "Haiti","GID_1": "HTI.10_1","province": "Sud","NL_NAME_1": "NA","GID_2": "HTI.10.2_1","county": "lesCayes","NL_NAME_2": "NA","city": "IleàVache","VARNAME_3": "NA","NL_NAME_3": "NA","TYPE_3": "Commune","ENGTYPE_3": "Commune","CC_3": "NA","HASC_3": "NA","name": "Ileà_Vache.city","area_km2": 47.18428,"hist_schema_id": "Elevation0-9000","hist_area_km2": {"0": 35.55447,"25": 10.74301,"50": 0.8465,"75": 0.04031}}}