{"type": "Feature","bbox": [-72.8409,19.8426,-72.7717,19.8997],"geometry": {"type": "MultiPolygon","coordinates": [[[[-72.8215,19.8997,25.0553],[-72.8288,19.8969,27.62],[-72.8279,19.8885,29.2425],[-72.8329,19.8866,34.6025],[-72.8353,19.8875,80.4239],[-72.84,19.882,47.728],[-72.8366,19.8785,34.1495],[-72.8357,19.8732,37.5068],[-72.8409,19.8633,41.4771],[-72.8267,19.8619,189.5825],[-72.8124,19.8583,454.1845],[-72.8021,19.8489,389.5385],[-72.798,19.8426,329.8997],[-72.7896,19.8548,624.4706],[-72.782,19.8606,875.6077],[-72.7717,19.8649,904.5798],[-72.7718,19.8692,800.5404],[-72.7876,19.8887,550.0585],[-72.7884,19.896,468.6346],[-72.7898,19.897,437.4511],[-72.8044,19.8973,247.7378],[-72.8071,19.8985,239.462],[-72.813,19.8973,161.4361],[-72.8155,19.8992,100.8089],[-72.8215,19.8997,25.0553]]]]}
,"properties": {"GID_3": "HTI.6.2.2_1","GID_0": "HTI","country": "Haiti","GID_1": "HTI.6_1","province": "Nord-Ouest","NL_NAME_1": "NA","GID_2": "HTI.6.2_1","county": "Port-de-Paix","NL_NAME_2": "NA","city": "Chansolme","VARNAME_3": "NA","NL_NAME_3": "NA","TYPE_3": "Commune","ENGTYPE_3": "Commune","CC_3": "NA","HASC_3": "NA","name": "Chansolme.city","area_km2": 26.59905,"hist_schema_id": "Elevation0-9000","hist_area_km2": {"25": 1.29595,"50": 0.85737,"75": 0.59817,"100": 0.45859,"125": 0.35889,"150": 0.79756,"175": 0.41871,"200": 0.89725,"225": 0.5184,"250": 0.67791,"275": 0.77762,"300": 0.47851,"325": 0.93713,"350": 0.49845,"375": 0.65798,"400": 0.95708,"425": 0.73777,"450": 0.89727,"475": 0.93715,"500": 1.03684,"525": 1.07673,"550": 0.85741,"575": 0.97704,"600": 0.81753,"625": 0.4985,"650": 0.73777,"675": 1.0967,"700": 0.57826,"725": 0.47856,"750": 0.77766,"775": 1.27616,"800": 1.19641,"825": 0.47857,"850": 0.39881,"875": 0.47858,"900": 0.07976}}}