{"type": "Feature","bbox": [-82.9547,22.6007,-82.6483,22.9014],"geometry": {"type": "MultiPolygon","coordinates": [[[[-82.6483,22.7878,17.6205],[-82.651,22.7968,24.531],[-82.6771,22.844,55.9632],[-82.7194,22.8469,76.2899],[-82.756,22.8642,102.0427],[-82.7794,22.8869,92.7444],[-82.8064,22.8996,70.2793],[-82.8204,22.9014,84.5445],[-82.8763,22.9007,35.646],[-82.9124,22.8899,80.4453],[-82.9007,22.8456,119.1044],[-82.9008,22.8346,127.7149],[-82.9031,22.8243,78.3387],[-82.9133,22.8079,74.6494],[-82.9496,22.7864,68.8635],[-82.9547,22.7763,50.8773],[-82.9543,22.7716,50.1844],[-82.8955,22.7253,28.2755],[-82.8801,22.7029,19.5429],[-82.8692,22.6561,12.7097],[-82.8656,22.6468,8.8502],[-82.851,22.6293,4.7797],[-82.8179,22.6007,1.1195],[-82.8118,22.6054,0.0],[-82.8099,22.6107,1.2451],[-82.7968,22.6171,2.7458],[-82.7954,22.6226,0.9736],[-82.7871,22.629,1.8638],[-82.7857,22.6432,0.0],[-82.7874,22.6488,2.5993],[-82.7851,22.6557,1.22],[-82.7793,22.6629,3.0314],[-82.7707,22.664,2.7588],[-82.7785,22.6724,5.1709],[-82.7807,22.6779,5.4667],[-82.7801,22.6857,6.108],[-82.7763,22.6935,1.5625],[-82.7704,22.6976,2.6745],[-82.766,22.6976,1.8081],[-82.7585,22.7032,1.4649],[-82.7493,22.7054,0.0],[-82.7335,22.7065,2.0506],[-82.7301,22.7043,0.0],[-82.7204,22.7046,1.6915],[-82.7118,22.701,0.9103],[-82.7076,22.701,1.6039],[-82.6919,22.7108,1.1868],[-82.6552,22.779,11.7169],[-82.6483,22.7878,17.6205]]]]}
,"properties": {"GID_2": "CUB.9.2_1","GID_0": "CUB","country": "Cuba","GID_1": "CUB.9_1","province": "LaHabana","NL_NAME_1": "NA","county": "Artemisa","VARNAME_2": "NA","NL_NAME_2": "NA","TYPE_2": "Municipio","ENGTYPE_2": "Municipality","CC_2": "NA","HASC_2": "CU.LH.AR","name": "Artemisa.county","area_km2": 578.1498,"hist_schema_id": "Elevation0-9000","hist_area_km2": {"0": 183.623,"25": 155.4663,"50": 96.9985,"75": 95.0975,"100": 31.2579,"125": 14.6126,"150": 1.0941}}}