{"type":"Feature","properties":{"GID_1":"CYM.6_1","GID_0":"CYM","country":"CaymanIslands","province":"NorthSide","VARNAME_1":"NA","NL_NAME_1":"NA","TYPE_1":"District","ENGTYPE_1":"District","CC_1":"NA","HASC_1":"KY.NS","ISO_1":"NA","name":"North_Side.province"},
"geometry":{"type": "MultiPolygon","coordinates": [[[[-81.2542,19.2762,3.386],[-81.2513,19.2754,0.0],[-81.2401,19.2857,4.1023],[-81.2337,19.2879,0.0],[-81.2288,19.2921,2.1933],[-81.2101,19.2965,2.9653],[-81.1974,19.2938,1.1974],[-81.1837,19.3001,3.1339],[-81.1745,19.3015,0.5535],[-81.17,19.3479,2.2244],[-81.1807,19.3476,0.0],[-81.1857,19.346,0.9695],[-81.209,19.3532,1.457],[-81.2179,19.3526,0.0],[-81.2271,19.3487,4.557],[-81.2329,19.3485,3.839],[-81.2501,19.3565,2.7942],[-81.2665,19.3701,1.2518],[-81.2715,19.3726,0.5426],[-81.2749,19.3665,2.1688],[-81.2749,19.3649,0.0],[-81.2735,19.3649,0.0],[-81.2718,19.3693,2.0335],[-81.2718,19.3643,0.0],[-81.2729,19.3629,1.9495],[-81.2763,19.364,0.6064],[-81.2743,19.3621,1.0679],[-81.2751,19.3582,1.4317],[-81.2787,19.3565,1.8714],[-81.2829,19.3574,0.0],[-81.2835,19.3554,0.0],[-81.2785,19.354,0.6104],[-81.2771,19.3557,2.196],[-81.2749,19.3543,0.0],[-81.2732,19.3604,0.0],[-81.2715,19.3618,0.0],[-81.2693,19.3607,0.2201],[-81.2676,19.3504,0.8646],[-81.2729,19.3443,0.2783],[-81.2676,19.3454,0.0],[-81.266,19.3474,0.5143],[-81.2635,19.3421,0.4845],[-81.2615,19.3468,2.227],[-81.2582,19.3457,1.5634],[-81.2585,19.3426,2.4083],[-81.2601,19.3421,0.0],[-81.259,19.3335,0.6172],[-81.2604,19.331,1.3605],[-81.2579,19.3268,0.4442],[-81.2629,19.3226,0.6356],[-81.2626,19.3257,0.3029],[-81.2696,19.3263,2.0743],[-81.2729,19.3307,0.0],[-81.2726,19.3268,1.6088],[-81.276,19.324,0.2814],[-81.2799,19.3218,2.4651],[-81.2829,19.3232,0.568],[-81.286,19.3218,2.9764],[-81.289,19.3238,1.3514],[-81.289,19.3254,1.3514],[-81.2851,19.3343,0.0],[-81.2896,19.3318,2.7599],[-81.2949,19.3326,0.3979],[-81.2951,19.3265,0.49],[-81.2935,19.3215,1.8687],[-81.2962,19.3115,1.5535],[-81.2988,19.3099,0.0],[-81.2962,19.3065,0.0],[-81.2937,19.3115,0.2029],[-81.2921,19.3099,0.5828],[-81.2907,19.311,0.6858],[-81.2921,19.3068,3.7364],[-81.2949,19.3037,2.6844],[-81.2993,19.3043,0.0],[-81.3018,19.3015,1.5061],[-81.3074,19.304,0.0],[-81.3093,19.3007,0.8629],[-81.3167,19.296,1.9688],[-81.3105,19.2718,1.4338],[-81.3068,19.2699,0.0],[-81.2896,19.2824,2.435],[-81.2719,19.2805,6.4345],[-81.2542,19.2762,3.386]]],
[[[-81.2613,19.3304,0.0732],[-81.2626,19.3304,1.5],[-81.2635,19.3271,0.0],[-81.2615,19.3279,0.4068],[-81.2613,19.3304,0.0732]]]]}}