{"type": "Feature","id": "5120","bbox": [-63.09724,18.21247,-63.07552,18.22597],"geometry": {"type": "Polygon","coordinates": [[[-63.07583,18.21627,0.0],[-63.07552,18.22051,0.0],[-63.0779,18.22597,0.0],[-63.08585,18.21772,0.0],[-63.09724,18.21247,0.0],[-63.07883,18.21477,0.0],[-63.07583,18.21627,0.0]]]}
,"properties": {"ISO3166-1-Alpha-3": "AIA","country": "Anguilla","fill": "#FF0","name": "Sandy Ground","area_km2": 1.1680874,"hist_schema_id": "Elevation0-9000","hist_area_km2": {"0": 1.1680874}}}