{"type": "Feature","id": "5035","bbox": [-74.38557,22.54145,-73.66617,23.10383],"geometry": {"type": "MultiPolygon","coordinates": [[[[-74.35473,22.5633,0.0],[-74.31753,22.60248,0.0],[-74.28893,22.64374,0.0],[-74.28376,22.67182,0.0],[-74.312,22.63833,0.0],[-74.34765,22.61294,0.0],[-74.3767,22.58438,0.0],[-74.38557,22.54145,0.0],[-74.35473,22.5633,0.0]]],
[[[-74.19371,22.76118,0.0],[-74.19636,22.7685,0.0],[-74.1975,22.78612,0.0],[-74.20055,22.79466,0.0],[-74.22851,22.81582,0.0],[-74.23835,22.81843,0.0],[-74.26008,22.82022,0.0],[-74.27009,22.82266,0.0],[-74.29845,22.83999,0.0],[-74.31041,22.84317,0.0],[-74.31688,22.84223,0.0],[-74.33357,22.83686,0.0],[-74.34455,22.83625,0.0],[-74.34586,22.83259,1.921],[-74.34659,22.82917,2.2885],[-74.34822,22.82587,0.0],[-74.35196,22.82266,0.0],[-74.28685,22.7333,0.0],[-74.27815,22.72842,0.6132],[-74.27798,22.71703,0.0],[-74.28376,22.69538,2.4401],[-74.27831,22.69318,2.723],[-74.26643,22.69855,5.0664],[-74.25447,22.70848,0.3501],[-74.24893,22.7202,3.2152],[-74.23257,22.70352,0.0],[-74.22228,22.69562,0.0],[-74.14843,22.6778,0.5887],[-74.12243,22.68521,0.0],[-74.10407,22.6883,0.0779],[-74.10497,22.67182,0.0],[-74.09459,22.66787,0.3651],[-74.09411,22.66568,0.2797],[-74.09069,22.65754,0.0],[-74.01622,22.7202,4.013],[-74.07592,22.74189,2.6416],[-74.09813,22.74689,0.0],[-74.09069,22.7333,3.5457],[-74.11164,22.73835,0.0],[-74.14753,22.74067,0.0],[-74.16706,22.74689,2.0622],[-74.17178,22.75825,0.0],[-74.1739,22.76118,0.0],[-74.17797,22.7617,0.0],[-74.19017,22.76024,0.0],[-74.19371,22.76118,0.0]]],
[[[-73.81697,23.10383,0.0],[-73.79735,23.0738,0.0],[-73.75524,23.07298,0.0],[-73.66617,23.08954,0.0],[-73.66617,23.09699,0.0],[-73.6857,23.10248,0.0],[-73.74185,23.09699,0.7021],[-73.81697,23.10383,0.0]]]]}
,"properties": {"ISO3166-1-Alpha-3": "BHS","country": "The Bahamas","fill": "#F0F","name": "Crooked Island and Long Cay","area_km2": 346.4744,"hist_schema_id": "Elevation0-9000","hist_area_km2": {"0": 330.3103,"25": 16.1055,"50": 0.0586}}}