{"type":"Feature","properties":{"GID_1":"BHS.10_1","GID_0":"BHS","country":"Bahamas","state":"CrookedIsland","VARNAME_1":"NA","NL_NAME_1":"NA","TYPE_1":"District","ENGTYPE_1":"District","CC_1":"NA","HASC_1":"BS.CK","ISO_1":"NA","name":"CrookedIsland.state"},
"geometry":{"type": "MultiPolygon","coordinates": [[[[-74.2329,22.4104,0.9216],[-74.236,22.4101,1.6198],[-74.2354,22.4068,0.0],[-74.2326,22.4085,0.3217],[-74.2329,22.4104,0.9216]]],
[[[-74.2296,22.4649,0.0],[-74.231,22.4654,0.713],[-74.2315,22.4638,0.713],[-74.2315,22.461,0.5255],[-74.2296,22.4599,0.2929],[-74.2301,22.4571,0.0],[-74.226,22.456,0.4594],[-74.2254,22.4601,0.0],[-74.2296,22.4649,0.0]]],
[[[-74.2507,22.4949,1.3659],[-74.2546,22.4951,1.4866],[-74.256,22.4921,0.0],[-74.246,22.4815,0.0],[-74.2438,22.4879,0.0],[-74.2485,22.4943,0.0],[-74.2507,22.4949,1.3659]]],
[[[-74.1937,22.6596,0.1791],[-74.1957,22.6601,0.0],[-74.1943,22.6568,0.0],[-74.2012,22.659,0.0],[-74.2018,22.6557,0.0],[-74.1988,22.6546,0.3362],[-74.1971,22.6518,0.0],[-74.1932,22.6535,0.3656],[-74.1882,22.6529,0.0],[-74.1862,22.6549,0.0],[-74.1868,22.6576,0.0],[-74.1904,22.6571,0.0],[-74.1937,22.6596,0.1791]]],
[[[-74.2865,22.5249,0.3793],[-74.2935,22.5257,0.0],[-74.2954,22.5246,0.7436],[-74.2951,22.5176,0.9267],[-74.2904,22.5151,0.0],[-74.2876,22.5154,0.0],[-74.2854,22.5196,0.0],[-74.2865,22.5249,0.3793]]],
[[[-74.2838,22.6665,0.5093],[-74.2879,22.6674,0.0],[-74.2971,22.6465,2.163],[-74.3054,22.6363,0.6596],[-74.3104,22.6265,0.4493],[-74.3168,22.6201,0.9521],[-74.3288,22.6115,1.3414],[-74.3454,22.6043,0.0],[-74.356,22.5974,0.0],[-74.3726,22.5804,0.6063],[-74.3799,22.5663,1.7406],[-74.3788,22.561,0.0],[-74.3818,22.5551,3.1527],[-74.3807,22.5421,1.1941],[-74.376,22.5401,0.0],[-74.3679,22.5443,0.5181],[-74.3637,22.5496,0.0],[-74.3607,22.5618,0.8099],[-74.3526,22.5743,3.131],[-74.3443,22.5785,0.0],[-74.3326,22.5918,0.0],[-74.324,22.5949,0.0],[-74.3238,22.5979,0.0],[-74.3168,22.6068,0.9078],[-74.3138,22.6143,0.5819],[-74.3054,22.6218,0.0],[-74.3007,22.6313,3.4888],[-74.2971,22.6321,0.0],[-74.2913,22.6485,0.3586],[-74.2815,22.6632,0.7568],[-74.2838,22.6665,0.5093]]],
[[[-74.2876,22.6715,0.0],[-74.2893,22.6721,0.0],[-74.2904,22.6688,0.0],[-74.2868,22.6704,0.0],[-74.2876,22.6715,0.0]]],
[[[-74.2776,22.6746,0.3621],[-74.279,22.6754,0.3621],[-74.2799,22.674,0.3464],[-74.2771,22.6724,0.0],[-74.2765,22.6738,0.0],[-74.2776,22.6746,0.3621]]],
[[[-74.284,22.6801,1.159],[-74.286,22.6807,0.0],[-74.2879,22.6782,0.4938],[-74.2882,22.6743,0.4598],[-74.2829,22.6754,0.0],[-74.284,22.6801,1.159]]],
[[[-74.3596,22.8468,0.0],[-74.361,22.8474,0.0],[-74.3613,22.846,0.2875],[-74.359,22.8443,0.0],[-74.3587,22.8449,0.0],[-74.3596,22.8468,0.0]]],
[[[-74.1993,22.6696,0.0],[-74.201,22.6704,0.0],[-74.1996,22.6665,0.088],[-74.2015,22.666,0.0],[-74.2007,22.6638,0.2826],[-74.2026,22.6615,0.0],[-74.2012,22.6607,0.0],[-74.1957,22.6632,0.0549],[-74.1993,22.6696,0.0]]],
[[[-74.2043,22.6776,0.0878],[-74.206,22.6779,0.0],[-74.2063,22.6757,0.0],[-74.201,22.6712,0.0],[-74.2007,22.6743,0.0],[-74.2043,22.6776,0.0878]]],
[[[-74.3171,22.8371,0.0],[-74.3201,22.8379,0.0],[-74.326,22.8343,0.0],[-74.3468,22.8335,1.921],[-74.3496,22.831,0.6678],[-74.3499,22.8285,0.5164],[-74.3451,22.8235,2.355],[-74.3404,22.809,1.9223],[-74.341,22.8029,3.292],[-74.3376,22.8001,0.0],[-74.3357,22.7926,0.0],[-74.3296,22.7813,0.0],[-74.319,22.7696,0.0],[-74.3035,22.7624,4.435],[-74.2868,22.7365,0.1348],[-74.2849,22.731,1.1264],[-74.284,22.7182,0.0],[-74.2896,22.6921,1.368],[-74.2882,22.6879,0.4536],[-74.2854,22.686,0.4674],[-74.2801,22.6865,0.0],[-74.2812,22.6885,0.0],[-74.2712,22.6879,0.0],[-74.2679,22.6896,0.0],[-74.2621,22.6968,0.0],[-74.2582,22.7057,0.6777],[-74.2529,22.7062,0.0788],[-74.251,22.7049,0.0],[-74.2507,22.7076,0.3074],[-74.2479,22.7074,0.5959],[-74.2476,22.7126,0.2541],[-74.2424,22.7143,0.1717],[-74.2401,22.7185,0.0],[-74.2435,22.7237,0.0],[-74.239,22.7182,0.0],[-74.2401,22.7146,0.2191],[-74.2438,22.7129,0.0],[-74.2438,22.7021,0.0],[-74.2457,22.6999,0.0],[-74.2457,22.6965,0.0],[-74.2421,22.6971,0.0692],[-74.2365,22.7021,0.2728],[-74.2376,22.709,0.0723],[-74.2343,22.709,0.1128],[-74.2329,22.7062,0.083],[-74.2304,22.7054,0.0],[-74.2282,22.7082,0.136],[-74.226,22.704,0.0],[-74.2265,22.7026,0.0601],[-74.2293,22.7029,0.0],[-74.2296,22.7013,0.0],[-74.2229,22.7018,0.0377],[-74.2221,22.6946,0.0],[-74.2235,22.6937,0.0],[-74.2229,22.691,0.0],[-74.2268,22.6921,0.0],[-74.2299,22.6893,0.2784],[-74.2254,22.6871,0.3192],[-74.224,22.6843,0.0],[-74.2204,22.6854,0.0674],[-74.2196,22.6929,0.0],[-74.2185,22.6957,0.0364],[-74.2157,22.696,0.0586],[-74.2168,22.6993,0.0],[-74.214,22.7018,0.0],[-74.2126,22.6935,0.0],[-74.2115,22.6937,0.0],[-74.2115,22.7001,0.0],[-74.2099,22.6993,0.0],[-74.209,22.6943,0.2172],[-74.204,22.6854,0.0],[-74.1899,22.6851,0.0],[-74.1896,22.6829,0.0],[-74.1882,22.6829,0.0],[-74.1849,22.6871,0.1706],[-74.1826,22.6854,0.2074],[-74.1857,22.6807,0.0],[-74.1896,22.679,0.0],[-74.1904,22.6804,0.0],[-74.1893,22.6821,0.0],[-74.1913,22.6821,0.0],[-74.1924,22.6785,0.0677],[-74.1896,22.6765,0.0],[-74.179,22.6824,0.154],[-74.1749,22.6793,0.0],[-74.1768,22.676,0.0],[-74.1765,22.6726,0.0],[-74.1754,22.6726,0.0644],[-74.171,22.6801,0.0],[-74.1693,22.6743,0.0],[-74.1771,22.6671,0.0],[-74.1735,22.6632,0.0],[-74.1693,22.6629,0.0],[-74.1654,22.6651,0.0],[-74.1663,22.6701,0.3245],[-74.1599,22.6685,0.0],[-74.1499,22.671,0.1166],[-74.1471,22.6749,0.0],[-74.1376,22.6787,0.0952],[-74.1338,22.6793,0.2059],[-74.1343,22.6774,0.0],[-74.1293,22.6774,0.0],[-74.121,22.6854,0.0],[-74.1113,22.6907,0.1199],[-74.1101,22.686,0.0914],[-74.1149,22.679,0.0],[-74.1035,22.6751,0.2388],[-74.104,22.6643,0.3899],[-74.106,22.6629,0.0],[-74.0982,22.6596,0.0654],[-74.0957,22.6621,0.5038],[-74.0871,22.6626,0.1097],[-74.0785,22.666,0.4587],[-74.0743,22.6738,0.4816],[-74.0612,22.6851,0.0],[-74.0499,22.6863,0.0],[-74.0418,22.7026,0.1224],[-74.0393,22.7029,0.0],[-74.0365,22.7076,0.2687],[-74.0321,22.7082,0.0],[-74.0249,22.7132,0.0],[-74.0185,22.7124,0.8346],[-74.016,22.7151,0.3003],[-74.0038,22.7182,1.0041],[-74.0038,22.7193,0.0],[-74.0265,22.7218,3.1033],[-74.031,22.7237,1.5061],[-74.0426,22.7243,0.0],[-74.0532,22.7299,1.5419],[-74.0635,22.7329,2.4409],[-74.0729,22.7426,0.0],[-74.086,22.7412,1.6811],[-74.0946,22.744,0.0],[-74.0987,22.7429,1.5782],[-74.1032,22.744,0.0],[-74.104,22.7412,3.7921],[-74.1026,22.7382,0.9994],[-74.1101,22.7288,1.4763],[-74.1129,22.7304,1.7074],[-74.1129,22.7335,0.4477],[-74.111,22.7343,0.0],[-74.1104,22.7374,0.0],[-74.1279,22.7379,0.6949],[-74.1318,22.7399,0.3481],[-74.1329,22.7385,0.0],[-74.1304,22.736,1.3397],[-74.131,22.7299,1.1805],[-74.1346,22.7274,0.0],[-74.1401,22.7276,1.4199],[-74.1532,22.7365,0.4147],[-74.1549,22.7404,0.0],[-74.1524,22.7429,2.053],[-74.1551,22.7457,0.0],[-74.156,22.7499,0.6945],[-74.1637,22.7499,0.9145],[-74.1651,22.7507,0.0],[-74.1649,22.7535,0.0],[-74.169,22.7507,0.6714],[-74.1712,22.7529,0.6692],[-74.171,22.7557,0.0],[-74.1746,22.7565,0.0],[-74.1757,22.7535,0.0],[-74.1743,22.7512,2.1106],[-74.1782,22.7485,1.3882],[-74.1874,22.7501,2.935],[-74.1924,22.7538,0.0],[-74.1999,22.7643,0.0],[-74.2004,22.7671,3.3186],[-74.1974,22.7696,1.3174],[-74.2162,22.7951,0.0],[-74.2232,22.7971,0.0],[-74.2215,22.8007,0.0],[-74.2301,22.8071,0.0],[-74.2337,22.8085,0.0],[-74.2426,22.8074,0.0],[-74.2571,22.8168,0.2784],[-74.2635,22.8143,0.4205],[-74.2657,22.816,0.0],[-74.2704,22.8157,0.0],[-74.2896,22.8254,1.4047],[-74.2976,22.8329,0.0],[-74.3032,22.8357,0.0],[-74.3171,22.8371,0.0]]],
[[[-74.0001,22.9999,0.0],[-73.9999,22.9999,0.0],[-73.9999,23.0001,0.0],[-74.0001,23.0001,0.0],[-74.0001,22.9999,0.0]]],
[[[-73.7454,23.0607,3.9531],[-73.746,23.059,0.6333],[-73.7446,23.059,0.6333],[-73.7404,23.064,0.0],[-73.7451,23.0626,1.6768],[-73.7454,23.0607,3.9531]]],
[[[-73.6029,23.0821,0.0],[-73.6051,23.0826,0.0],[-73.601,23.0782,0.0],[-73.6007,23.081,0.0],[-73.6029,23.0821,0.0]]],
[[[-73.7132,23.1029,0.0],[-73.7151,23.1035,0.0],[-73.7146,23.1013,1.3111],[-73.716,23.1001,3.1636],[-73.7271,23.0996,0.0],[-73.7329,23.0963,3.5163],[-73.7412,23.096,0.7021],[-73.7487,23.0987,2.2649],[-73.7649,23.0996,4.5846],[-73.7657,23.1007,0.0],[-73.7765,23.0987,1.205],[-73.7832,23.0999,1.2504],[-73.7896,23.0979,1.6077],[-73.7968,23.099,0.0],[-73.7996,23.0968,1.0291],[-73.8112,23.0963,0.0],[-73.8149,23.0932,0.0],[-73.8221,23.0915,0.6185],[-73.8224,23.0901,0.0],[-73.8037,23.0843,3.9054],[-73.8007,23.0812,0.0],[-73.7951,23.0799,0.8875],[-73.7887,23.0743,0.3272],[-73.7815,23.0713,0.0],[-73.7763,23.0665,0.0],[-73.7721,23.0674,1.1227],[-73.7632,23.0732,2.5259],[-73.754,23.0746,1.6285],[-73.7501,23.0701,0.9488],[-73.7499,23.0657,0.994],[-73.7368,23.0704,0.0],[-73.7332,23.0679,0.0],[-73.7276,23.0735,0.0],[-73.7115,23.0826,3.1175],[-73.6862,23.086,2.424],[-73.6679,23.084,1.2366],[-73.6635,23.0874,0.0],[-73.6746,23.0946,0.0],[-73.6782,23.0949,0.8703],[-73.6807,23.0932,4.9932],[-73.6882,23.0954,3.7755],[-73.6924,23.1007,0.0],[-73.6971,23.0976,1.6297],[-73.7132,23.1029,0.0]]],
[[[-73.6451,23.0893,0.0],[-73.649,23.0899,3.804],[-73.6532,23.0857,0.8499],[-73.6432,23.0829,0.3841],[-73.6363,23.0857,0.0],[-73.6387,23.0885,0.0],[-73.644,23.0879,2.7596],[-73.6451,23.0893,0.0]]]]}}