{"type": "Feature","bbox": [-81.4987,22.7955,-81.019,23.2671],"geometry": {"type": "MultiPolygon","coordinates": [[[[-81.0371,22.9961,0.9409],[-81.044,23.0023,0.9521],[-81.1105,23.0335,2.5963],[-81.114,23.0307,0.0],[-81.1149,23.0268,0.8625],[-81.1126,23.0265,2.3834],[-81.1124,23.0246,0.0],[-81.1149,23.0224,1.712],[-81.1201,23.0196,2.1618],[-81.1288,23.0182,2.167],[-81.1343,23.019,0.7819],[-81.1399,23.0226,1.0342],[-81.1446,23.0229,1.5757],[-81.1532,23.0271,0.0],[-81.1571,23.0254,3.076],[-81.1618,23.0263,1.7529],[-81.1676,23.0249,3.4508],[-81.1746,23.0265,4.1237],[-81.1885,23.0382,0.5669],[-81.1865,23.0465,0.4456],[-81.189,23.0471,0.0],[-81.1874,23.0432,0.6792],[-81.1893,23.0412,1.4545],[-81.1946,23.0446,0.5103],[-81.1899,23.0513,0.0],[-81.1926,23.0518,0.0],[-81.1926,23.0496,0.5784],[-81.1968,23.0468,2.1707],[-81.1988,23.051,0.0],[-81.2029,23.0513,1.9526],[-81.2021,23.0532,0.8162],[-81.2115,23.0596,1.7103],[-81.2249,23.0774,0.0],[-81.2312,23.0824,0.4144],[-81.2365,23.0901,1.0126],[-81.2401,23.0921,0.0],[-81.2521,23.1074,1.0096],[-81.2471,23.1121,0.3463],[-81.2357,23.116,0.0],[-81.2315,23.1212,0.5637],[-81.2385,23.116,0.827],[-81.2476,23.1135,0.3463],[-81.2543,23.1079,1.6717],[-81.2604,23.1096,0.0],[-81.2568,23.1196,0.0],[-81.2618,23.1104,1.5056],[-81.2629,23.1115,1.8516],[-81.2654,23.1104,2.6981],[-81.2671,23.1135,0.8879],[-81.281,23.1182,2.5014],[-81.279,23.1246,0.3832],[-81.2668,23.1271,0.0],[-81.2654,23.131,0.0],[-81.251,23.1335,0.0],[-81.2529,23.1346,0.5885],[-81.269,23.1313,0.269],[-81.2746,23.1315,0.6097],[-81.2771,23.1265,2.2222],[-81.2804,23.1271,1.8432],[-81.2776,23.129,0.0],[-81.276,23.1338,4.2931],[-81.2679,23.1396,0.0],[-81.2665,23.1426,1.9351],[-81.2588,23.1471,1.1426],[-81.2485,23.149,0.0],[-81.2451,23.1529,5.2115],[-81.2346,23.1551,0.0],[-81.2235,23.1651,0.0],[-81.2196,23.1657,0.8619],[-81.2046,23.1732,0.4662],[-81.1979,23.1732,0.4244],[-81.1974,23.1763,0.0],[-81.1924,23.1793,2.0985],[-81.1871,23.1793,1.4389],[-81.1929,23.1774,1.558],[-81.186,23.174,2.096],[-81.1857,23.1679,1.3296],[-81.1818,23.1696,1.5283],[-81.1768,23.1682,0.0],[-81.1704,23.1699,0.0],[-81.1707,23.1724,0.0],[-81.1735,23.1726,3.0746],[-81.1718,23.1754,0.0],[-81.1724,23.179,0.7843],[-81.1676,23.1807,1.4991],[-81.1682,23.1835,1.3434],[-81.1643,23.1849,0.0],[-81.164,23.1887,0.0],[-81.1593,23.1879,1.8604],[-81.1549,23.1907,2.2041],[-81.1468,23.1926,4.3586],[-81.1304,23.1918,1.153],[-81.129,23.1938,1.2064],[-81.1249,23.189,0.0],[-81.1204,23.1885,1.1448],[-81.1215,23.1935,3.0007],[-81.1268,23.1985,0.794],[-81.1335,23.2024,0.0],[-81.1432,23.2051,2.3169],[-81.1562,23.2032,4.3703],[-81.1571,23.2004,4.7114],[-81.1771,23.1899,5.3308],[-81.1963,23.1824,0.8827],[-81.1996,23.1793,0.0],[-81.2107,23.1746,5.3141],[-81.2168,23.1732,4.7257],[-81.2213,23.169,5.6852],[-81.2415,23.1607,0.0],[-81.2429,23.1585,4.4295],[-81.2538,23.153199999999998,2.8985],[-81.2643,23.1496,1.0619],[-81.2907,23.1349,2.0704],[-81.3043,23.1324,1.4563],[-81.321,23.1321,0.0],[-81.3337,23.1274,0.0],[-81.3515,23.1243,0.5305],[-81.3654,23.1182,0.775],[-81.3679,23.1138,2.4529],[-81.3654,23.111,0.6651],[-81.379,23.1129,0.3039],[-81.4118,23.0979,1.0863],[-81.4404,23.0888,0.0],[-81.4538,23.0882,1.4421],[-81.4679,23.096,0.0],[-81.4721,23.0957,0.0],[-81.4788,23.0896,1.8052],[-81.4821,23.074,0.0],[-81.494,23.0565,0.0],[-81.4954,23.0499,9.7745],[-81.4987,23.0471,0.0],[-81.4915,23.0324,25.96],[-81.4364,22.9628,86.087],[-81.4346,22.9548,83.3706],[-81.4366,22.9461,61.9502],[-81.4102,22.9468,68.1231],[-81.3613,22.9606,147.0241],[-81.3411,22.9633,122.9214],[-81.3002,22.9767,98.3669],[-81.2955,22.9745,85.2928],[-81.288,22.9635,74.6631],[-81.2766,22.9342,68.2165],[-81.2634,22.9238,69.5014],[-81.2556,22.9109,67.0715],[-81.2373,22.8916,59.7619],[-81.2296,22.8785,54.7363],[-81.2184,22.868,47.0],[-81.1644,22.8429,31.4772],[-81.1467,22.8387,29.8193],[-81.1291,22.831,24.0201],[-81.0927,22.8137,28.2319],[-81.0755,22.8015,22.0425],[-81.0573,22.7955,34.9317],[-81.0237,22.8244,17.4228],[-81.0196,22.8296,18.3088],[-81.019,22.8343,18.3923],[-81.0251,22.8421,16.5715],[-81.07,22.8825,15.6838],[-81.073,22.8864,15.3569],[-81.0737,22.8911,14.8721],[-81.0639,22.9019,13.1982],[-81.0333,22.9185,16.6276],[-81.034,22.9844,7.2875],[-81.0371,22.9961,0.9409]]],
[[[-81.1807,23.0621,0.0],[-81.1813,23.0629,0.0],[-81.186,23.0535,0.0],[-81.1862,23.0485,0.0],[-81.1835,23.0515,1.5597],[-81.184,23.0543,0.0],[-81.1807,23.0621,0.0]]],
[[[-81.1471,23.0637,2.5946],[-81.1501,23.0635,0.3974],[-81.1513,23.0618,0.4856],[-81.1515,23.0526,0.0],[-81.149,23.0565,4.2487],[-81.1471,23.0563,0.0],[-81.1446,23.0585,0.0],[-81.1471,23.0637,2.5946]]],
[[[-81.1185,23.1863,0.0],[-81.1188,23.1876,0.0],[-81.1246,23.1868,0.0],[-81.1224,23.1851,0.0],[-81.1185,23.1863,0.0]]],
[[[-81.1001,23.1668,0.0],[-81.104,23.1665,0.6841],[-81.104,23.1643,0.0],[-81.1018,23.1638,1.0334],[-81.1001,23.1668,0.0]]],
[[[-81.1118,23.1821,1.3383],[-81.1124,23.1835,1.3383],[-81.119,23.1824,0.0],[-81.1243,23.1804,2.1936],[-81.1251,23.1787,0.3866],[-81.1224,23.1768,0.0],[-81.1132,23.1765,0.0],[-81.1118,23.1821,1.3383]]],
[[[-81.1093,23.1815,0.0],[-81.1104,23.1821,0.0],[-81.1107,23.1796,0.0],[-81.1099,23.1796,0.0],[-81.1093,23.1815,0.0]]],
[[[-81.0879,23.2665,0.0],[-81.0907,23.2671,0.0],[-81.0912,23.2646,0.0],[-81.0882,23.2646,0.0],[-81.0879,23.2665,0.0]]],
[[[-81.1215,23.2454,1.021],[-81.126,23.2446,0.0],[-81.1221,23.2429,0.0],[-81.1212,23.241,0.0],[-81.1165,23.2432,0.0],[-81.1212,23.2443,0.0],[-81.1215,23.2454,1.021]]]]}
,"properties": {"GID_2": "CUB.11.2_1","GID_0": "CUB","country": "Cuba","GID_1": "CUB.11_1","province": "Matanzas","NL_NAME_1": "NA","county": "Cárdenas","VARNAME_2": "NA","NL_NAME_2": "NA","TYPE_2": "Municipio","ENGTYPE_2": "Municipality","CC_2": "NA","HASC_2": "CU.MA.CR","name": "Cárdenas.county","area_km2": 893.6629,"hist_schema_id": "Elevation0-9000","hist_area_km2": {"0": 250.5974,"25": 311.4993,"50": 134.6019,"75": 126.7256,"100": 54.5471,"125": 11.6901,"150": 2.3423,"175": 1.0931,"200": 0.488,"225": 0.0586,"250": 0.0195}}}