{"type": "Feature","bbox": [-74.4421,20.066,-74.1312,20.3188],"geometry": {"type": "MultiPolygon","coordinates": [[[[-74.4304,20.2168,155.0452],[-74.4418,20.1713,294.8327],[-74.4421,20.0699,3.9389],[-74.4274,20.0707,0.805],[-74.4054,20.0771,15.5234],[-74.3979,20.0751,0.0],[-74.3938,20.0776,4.7631],[-74.3796,20.0779,2.7081],[-74.3593,20.0815,1.8563],[-74.3501,20.0812,5.6781],[-74.3454,20.0776,0.5412],[-74.3412,20.0788,10.6045],[-74.3335,20.0776,2.4111],[-74.3301,20.081,4.8311],[-74.3226,20.0812,3.6285],[-74.3115,20.0804,0.0],[-74.3037,20.0735,3.9902],[-74.3012,20.0688,2.0908],[-74.2949,20.066,4.6628],[-74.2693,20.0685,0.0],[-74.2462,20.0796,0.0],[-74.2382,20.0901,0.0],[-74.2349,20.0924,0.0],[-74.2349,20.1101,0.0],[-74.2332,20.1157,0.0],[-74.2343,20.1179,3.1028],[-74.2265,20.1335,0.0],[-74.221,20.138,5.1368],[-74.2099,20.1407,8.8011],[-74.2001,20.1451,0.0],[-74.1851,20.156,11.2756],[-74.1668,20.1635,0.0],[-74.1485,20.1757,0.6896],[-74.1435,20.1804,0.0],[-74.1368,20.1918,0.0],[-74.1312,20.2121,0.0],[-74.1382,20.2376,0.0],[-74.1421,20.2435,5.2336],[-74.1426,20.2485,1.735],[-74.1454,20.2512,0.0],[-74.1454,20.2551,0.0],[-74.1482,20.2568,2.1221],[-74.1496,20.2604,0.0],[-74.1535,20.2613,1.0192],[-74.1643,20.2735,2.2604],[-74.1776,20.2832,3.698],[-74.1968,20.3035,0.0],[-74.2121,20.309,1.3445],[-74.2288,20.3188,0.0],[-74.2901,20.3096,0.0],[-74.3001,20.3007,0.0],[-74.3012,20.2965,31.1828],[-74.3074,20.2935,26.0671],[-74.3259,20.2943,3.2792],[-74.3374,20.2802,286.9873],[-74.3691,20.2506,458.9038],[-74.4002,20.2356,237.4356],[-74.4155,20.2241,161.5219],[-74.4304,20.2168,155.0452]]]]}
,"properties": {"GID_2": "CUB.6.6_1","GID_0": "CUB","country": "Cuba","GID_1": "CUB.6_1","province": "Guantánamo","NL_NAME_1": "NA","county": "Maisí","VARNAME_2": "NA","NL_NAME_2": "NA","TYPE_2": "Municipio","ENGTYPE_2": "Municipality","CC_2": "NA","HASC_2": "CU.GU.MA","name": "Maisí.county","area_km2": 624.8075,"hist_schema_id": "Elevation0-9000","hist_area_km2": {"0": 21.6654,"25": 32.4721,"50": 41.1455,"75": 19.5614,"100": 21.3723,"125": 23.3184,"150": 22.2264,"175": 32.2518,"200": 34.3042,"225": 35.2804,"250": 37.4705,"275": 41.4897,"300": 38.0275,"325": 36.0995,"350": 34.5279,"375": 29.7918,"400": 26.2509,"425": 25.7344,"450": 20.1627,"475": 15.3469,"500": 11.6249,"525": 10.0722,"550": 7.6638,"575": 4.8172,"600": 2.09,"625": 0.0398}}}