{"type": "Feature","id": "1387","bbox": [-72.67584,19.25831,-71.97888,19.87572],"geometry": {"type": "Polygon","coordinates": [[[-72.04791,19.71204,0.7564],[-72.05061,19.71328,0.2071],[-72.05378,19.71796,0.6612],[-72.05822,19.72264,0.5462],[-72.06631,19.7248,0.4692],[-72.10082,19.7248,1.1192],[-72.1105,19.72769,1.8858],[-72.12491,19.74144,0.2535],[-72.13183,19.74584,3.3628],[-72.13744,19.74722,2.6847],[-72.14086,19.74746,2.6189],[-72.18041,19.74087,0.7404],[-72.19677,19.7425,1.73],[-72.21373,19.7521,101.8139],[-72.20523,19.77619,189.5455],[-72.21866,19.78693,0.0],[-72.23839,19.78644,40.4137],[-72.24844,19.7766,0.0],[-72.25642,19.76187,158.9081],[-72.27465,19.75625,259.989],[-72.29507,19.75804,142.0318],[-72.30993,19.76569,0.0],[-72.31615,19.76569,18.0219],[-72.31225,19.75519,7.635],[-72.30993,19.7521,47.7506],[-72.30993,19.74584,14.7745],[-72.31139,19.74779,0.5103],[-72.31383,19.74453,64.9708],[-72.31591,19.7403,0.0],[-72.31615,19.73908,0.0],[-72.3129,19.73876,0.0],[-72.30639,19.73924,13.0278],[-72.30309,19.73908,55.0908],[-72.31615,19.7248,0.0],[-72.31241,19.71613,0.0],[-72.31615,19.71483,0.0],[-72.33385,19.71857,0.9226],[-72.33825,19.72297,1.1673],[-72.3509,19.7521,11.3354],[-72.33519,19.74787,0.1463],[-72.33043,19.74584,0.0],[-72.33043,19.7521,0.0],[-72.37873,19.79466,1.0049],[-72.38508,19.81045,42.3157],[-72.39757,19.80695,0.0],[-72.42593,19.81379,6.4388],[-72.45621,19.82486,0.0],[-72.47444,19.83405,0.0],[-72.48974,19.82465,8.6292],[-72.51757,19.83413,32.3775],[-72.54434,19.85126,50.7829],[-72.56517,19.87572,76.8018],[-72.56518,19.87572,76.8018],[-72.57324,19.87026,216.7895],[-72.58316,19.8562,492.4707],[-72.58957,19.84411,235.3375],[-72.59786,19.83801,247.2247],[-72.60903,19.82809,261.8172],[-72.62213,19.81724,642.4642],[-72.63269,19.81848,707.8474],[-72.64256,19.82442,719.0839],[-72.65858,19.82835,341.6171],[-72.67254,19.82479,194.7325],[-72.67584,19.8128,487.145],[-72.67558,19.80675,524.974],[-72.66372,19.78257,792.6154],[-72.64318,19.76732,916.105],[-72.64029,19.745,843.7527],[-72.61871,19.74779,705.0656],[-72.59786,19.73321,1017.2787],[-72.60727,19.69942,605.9911],[-72.59479,19.68226,405.4205],[-72.5706,19.67244,254.0869],[-72.55683,19.63265,583.1284],[-72.54035,19.59193,839.7499],[-72.51265,19.56609,714.0989],[-72.48239,19.54305,716.8209],[-72.44666,19.52899,916.4764],[-72.41663,19.53808,721.2497],[-72.41653,19.56397,468.2078],[-72.39663,19.56335,383.9438],[-72.37819,19.58005,774.9429],[-72.36103,19.58149,807.1266],[-72.34646,19.57446,701.485],[-72.32721,19.56516,818.1738],[-72.32238,19.50165,742.0218],[-72.2838,19.4678,841.443],[-72.24362,19.44915,855.9047],[-72.2268,19.41344,630.4665],[-72.23197,19.38574,471.6687],[-72.22721,19.35727,378.2774],[-72.21052,19.32885,352.699],[-72.20006,19.30192,354.3737],[-72.17055,19.2921,340.1191],[-72.14864,19.27138,366.6691],[-72.13947,19.25831,387.8353],[-72.12006,19.26007,333.4249],[-72.05092,19.30089,430.9639],[-71.97888,19.33577,472.8669],[-71.99552,19.38734,571.3218],[-72.04596,19.43576,186.3908],[-72.06461,19.44093,233.4567],[-72.08301,19.44569,237.2476],[-72.07309,19.46041,293.8358],[-72.06999,19.48692,375.7141],[-72.08704,19.51297,606.7472],[-72.09727,19.54253,319.8469],[-72.11074,19.56614,316.0312],[-72.11371,19.58966,347.9944],[-72.10978,19.60237,378.3991],[-72.1105,19.61612,132.4237],[-72.09838,19.62366,230.7945],[-72.08234,19.62686,93.5284],[-72.061,19.65653,21.104],[-72.05653,19.69508,0.1901],[-72.05273,19.70262,0.2167],[-72.04792,19.71203,0.7564],[-72.04791,19.71204,0.7564]]]}
,"properties": {"ISO3166-1-Alpha-3": "HTI","country": "Haiti","fill": "#00F","name": "Nord","area_km2": 2055.944,"hist_schema_id": "Elevation0-9000","hist_area_km2": {"0": 194.413,"25": 167.267,"50": 85.288,"75": 58.734,"100": 52.727,"125": 48.157,"150": 45.405,"175": 46.487,"200": 42.414,"225": 41.395,"250": 39.519,"275": 43.574,"300": 51.258,"325": 96.633,"350": 147.167,"375": 112.029,"400": 79.233,"425": 71.635,"450": 65.476,"475": 54.384,"500": 51.243,"525": 51.881,"550": 48.065,"575": 43.567,"600": 38.613,"625": 36.335,"650": 34.237,"675": 28.462,"700": 24.445,"725": 23.666,"750": 18.594,"775": 17.515,"800": 15.498,"825": 13.801,"850": 13.301,"875": 9.686,"900": 8.088,"925": 7.89,"950": 7.031,"975": 5.952,"1000": 5.452,"1025": 3.755,"1050": 2.596,"1075": 1.318,"1100": 0.898,"1125": 0.559,"1150": 0.219,"1175": 0.08}}}