{"type":"Feature","properties":{"GID_1":"HTI.7_1","GID_0":"HTI","country":"Haiti","province":"Nord","VARNAME_1":"NA","NL_NAME_1":"NA","TYPE_1":"Département","ENGTYPE_1":"Department","CC_1":"NA","HASC_1":"HT.ND","ISO_1":"HT-ND","name":"Nord.province"},
"geometry":{"type": "MultiPolygon","coordinates": [[[[-72.0529,19.2989,391.525],[-72.0483,19.3001,411.4941],[-72.0435,19.3041,410.5209],[-72.0339,19.3051,438.8523],[-72.0303,19.3075,431.4639],[-72.0221,19.3162,445.5929],[-72.0233,19.3194,436.6762],[-72.0221,19.3244,425.4149],[-72.0087,19.3273,415.2975],[-72.0038,19.3238,400.7189],[-71.9986,19.3259,413.4862],[-71.9919,19.3328,432.918],[-71.9871,19.3346,446.5331],[-71.9835,19.3329,447.0272],[-71.982,19.3348,454.7882],[-71.9775,19.3351,456.3143],[-71.9785,19.3404,471.5751],[-71.9717,19.3387,490.9459],[-71.9702,19.3432,501.2464],[-71.9745,19.3507,623.6329],[-71.9796,19.354,772.7279],[-71.9859,19.3611,630.2173],[-71.9857,19.3659,490.9715],[-71.9901,19.3661,482.5443],[-71.9889,19.3685,490.8516],[-71.995,19.3782,526.0518],[-71.9947,19.3802,521.1804],[-72.0076,19.3996,456.9421],[-72.0115,19.4009,435.3678],[-72.0201,19.4099,378.6301],[-72.0218,19.4101,378.6301],[-72.0228,19.4117,407.8441],[-72.0207,19.4142,376.4076],[-72.0228,19.4141,372.8169],[-72.0235,19.4173,437.0747],[-72.026,19.4166,331.7005],[-72.0312,19.4198,279.0467],[-72.034,19.4256,327.5863],[-72.0373,19.426,234.3849],[-72.0363,19.4284,338.6358],[-72.0377,19.4321,253.6578],[-72.0441,19.4322,205.8837],[-72.0466,19.4383,193.893],[-72.0507,19.4372,183.8882],[-72.0647,19.4452,187.0558],[-72.0685,19.4431,175.503],[-72.0692,19.4406,183.8136],[-72.0665,19.4401,161.3661],[-72.0644,19.437,168.1611],[-72.067,19.4346,165.7918],[-72.0728,19.4348,163.816],[-72.079,19.437,161.2496],[-72.0794,19.4432,182.0836],[-72.0822,19.4399,168.7139],[-72.0882,19.4461,141.9737],[-72.0918,19.4469,137.7569],[-72.0875,19.449,146.1057],[-72.0839,19.4554,166.6699],[-72.0801,19.4585,172.3726],[-72.0699,19.4554,214.5819],[-72.0706,19.4612,220.2299],[-72.067,19.4653,258.392],[-72.0662,19.4718,228.2487],[-72.0627,19.4721,279.3906],[-72.0643,19.4746,313.5883],[-72.0621,19.4776,333.7885],[-72.063,19.4801,336.1363],[-72.0698,19.4831,391.7458],[-72.0761,19.4884,425.5283],[-72.0829,19.4903,509.0734],[-72.0911,19.4974,596.1339],[-72.0932,19.5032,649.9415],[-72.0933,19.5098,712.335],[-72.095,19.5112,736.0084],[-72.0939,19.5152,676.4644],[-72.0996,19.5184,636.5298],[-72.1036,19.5238,577.0238],[-72.1026,19.5288,522.7958],[-72.0978,19.5315,499.5561],[-72.0968,19.5369,365.6573],[-72.098,19.5413,296.7083],[-72.0998,19.5433,291.6743],[-72.101,19.5427,290.6362],[-72.1013,19.5484,290.4839],[-72.1043,19.5493,299.1968],[-72.1028,19.5518,283.9971],[-72.1055,19.5537,267.2466],[-72.1081,19.5593,249.7404],[-72.1141,19.5587,133.9144],[-72.1117,19.5614,285.6388],[-72.111,19.5673,305.6376],[-72.1153,19.5752,308.8295],[-72.12,19.5748,277.2059],[-72.1184,19.5797,323.3293],[-72.1221,19.5855,345.2491],[-72.1211,19.5887,345.2474],[-72.1138,19.5915,368.9995],[-72.1123,19.5955,433.0631],[-72.1069,19.5997,417.3929],[-72.1057,19.6029,462.4823],[-72.1124,19.6106,264.0108],[-72.1115,19.6144,123.5664],[-72.1134,19.6186,72.6561],[-72.1083,19.6227,227.4693],[-72.1101,19.6344,399.4912],[-72.1061,19.6346,371.4688],[-72.0935,19.6261,310.3546],[-72.0789,19.6315,62.7976],[-72.0716,19.6308,53.1309],[-72.0656,19.6353,43.4502],[-72.0641,19.6447,33.3439],[-72.0672,19.6487,30.8039],[-72.0645,19.6515,26.7034],[-72.0665,19.6556,22.5146],[-72.0612,19.6627,15.9372],[-72.0587,19.6731,7.4221],[-72.0628,19.6853,1.4555],[-72.0565,19.696,0.0],[-72.0587,19.6979,0.0],[-72.0646,19.6965,0.7334],[-72.0646,19.6976,0.3266],[-72.0551,19.7038,1.1943],[-72.0468,19.7013,0.1308],[-72.0404,19.7018,0.0],[-72.0368,19.7051,0.3047],[-72.0354,19.7087,0.0],[-72.0371,19.7121,1.0285],[-72.0368,19.7166,0.8481],[-72.0396,19.721,0.2624],[-72.0374,19.7224,0.4622],[-72.0363,19.7264,0.0],[-72.0408,19.7338,0.0],[-72.0474,19.7376,0.0],[-72.0507,19.7371,0.0],[-72.0474,19.7313,0.0],[-72.0524,19.7276,0.3683],[-72.0565,19.7185,0.5169],[-72.0624,19.7176,0.0],[-72.0621,19.7115,0.1237],[-72.0674,19.7113,0.0],[-72.066,19.7093,0.1993],[-72.0624,19.709,0.3382],[-72.0624,19.7076,0.0],[-72.0676,19.7071,0.0],[-72.0676,19.704,0.2189],[-72.0706,19.7029,0.9081],[-72.0743,19.7043,0.0],[-72.0779,19.7035,0.773],[-72.076,19.7085,0.333],[-72.0799,19.7099,0.8648],[-72.0801,19.7121,1.1213],[-72.0782,19.714,0.5232],[-72.071,19.7118,0.0],[-72.064,19.7132,0.0],[-72.0632,19.7154,0.7895],[-72.0646,19.7195,0.3012],[-72.0576,19.722,0.0],[-72.0543,19.7288,0.1867],[-72.0557,19.7318,0.6115],[-72.0615,19.7308,0.4036],[-72.0645,19.7329,0.2504],[-72.0715,19.7326,0.0],[-72.0793,19.7304,0.4427],[-72.0799,19.729,0.0],[-72.0901,19.7285,0.0],[-72.0937,19.7265,0.7071],[-72.1135,19.7299,1.7341],[-72.1232,19.7377,1.5231],[-72.1265,19.7445,0.2944],[-72.1269,19.7504,0.2289],[-72.1296,19.7524,0.0],[-72.1523,19.7571,0.6394],[-72.1549,19.7557,0.4203],[-72.1518,19.7558,0.5611],[-72.151,19.7524,0.163],[-72.1451,19.7493,0.7783],[-72.1462,19.743,0.9014],[-72.1498,19.7435,0.7868],[-72.1521,19.746,0.161],[-72.1612,19.7476,0.0],[-72.166,19.746,0.4106],[-72.1725,19.7477,0.0],[-72.1754,19.746,0.1436],[-72.1729,19.7434,0.1352],[-72.1735,19.7418,0.3564],[-72.1932,19.7418,4.7086],[-72.2001,19.746,0.0],[-72.202,19.7507,2.5131],[-72.2001,19.756,1.1279],[-72.1929,19.7582,0.0],[-72.1954,19.7612,3.3505],[-72.1954,19.7637,4.6308],[-72.1907,19.7749,0.0],[-72.1914,19.7799,3.5913],[-72.1888,19.7826,28.2881],[-72.1899,19.7849,0.0],[-72.1999,19.7885,24.3062],[-72.204,19.7849,17.9416],[-72.2129,19.786,0.0],[-72.2154,19.784,0.0],[-72.2201,19.7855,0.0],[-72.2282,19.7829,12.1455],[-72.2385,19.7887,43.9582],[-72.2418,19.7887,12.2171],[-72.2424,19.7865,3.1745],[-72.2476,19.7887,1.5926],[-72.2485,19.786,0.0],[-72.2449,19.7849,0.0],[-72.2457,19.7829,0.0],[-72.2432,19.7835,3.0328],[-72.2462,19.7804,22.3202],[-72.2462,19.7771,2.4425],[-72.2438,19.7768,21.5282],[-72.2432,19.7746,22.7401],[-72.2465,19.7729,27.2529],[-72.2521,19.7765,0.0],[-72.2593,19.776,0.0],[-72.259,19.7604,34.8948],[-72.2643,19.7638,0.0],[-72.2707,19.7621,0.0],[-72.2704,19.7649,0.0],[-72.2751,19.7635,11.3794],[-72.2785,19.7671,0.0],[-72.2813,19.766,0.0],[-72.2849,19.7683,5.788],[-72.2865,19.7679,0.0],[-72.2876,19.7649,9.0577],[-72.2943,19.7657,0.0],[-72.2974,19.7626,17.7383],[-72.3024,19.761,4.812],[-72.3129,19.7649,22.6189],[-72.3149,19.7702,5.3236],[-72.3196,19.7696,0.0],[-72.3201,19.7671,14.3427],[-72.3143,19.7602,0.0],[-72.3118,19.7482,0.5103],[-72.3185,19.7493,0.0],[-72.3201,19.7457,12.6772],[-72.3179,19.7429,0.0],[-72.3104,19.7429,0.0],[-72.3087,19.7385,0.0],[-72.314,19.7365,11.9116],[-72.3126,19.7332,0.0],[-72.3129,19.7262,0.172],[-72.311,19.7218,0.0],[-72.3126,19.7154,0.0],[-72.311,19.7099,0.1913],[-72.3185,19.7068,4.7153],[-72.3199,19.7087,1.3023],[-72.3238,19.709,0.0],[-72.3276,19.7129,0.7677],[-72.3318,19.7138,0.0],[-72.3343,19.721,0.0],[-72.3371,19.7232,1.1673],[-72.3368,19.7317,0.0],[-72.3399,19.7426,0.0],[-72.3424,19.746,0.0],[-72.3418,19.7499,0.0],[-72.3396,19.7518,0.0],[-72.3379,19.7512,0.1603],[-72.3313,19.7426,0.1767],[-72.33,19.7425,0.0],[-72.3299,19.7446,0.0],[-72.3321,19.7458,0.0],[-72.3315,19.7488,0.477],[-72.3293,19.749,0.5772],[-72.3282,19.744,0.4256],[-72.326,19.744,0.0],[-72.3257,19.7465,0.631],[-72.3276,19.7507,0.0],[-72.3336,19.7546,0.8135],[-72.3388,19.7713,0.0],[-72.3429,19.7757,0.0],[-72.3518,19.7802,16.3116],[-72.3574,19.7876,0.0],[-72.3668,19.7912,0.5879],[-72.3763,19.7986,1.1694],[-72.3821,19.8072,0.0],[-72.3804,19.8168,1.5783],[-72.3854,19.816,4.6424],[-72.3883,19.8171,0.0],[-72.3868,19.8093,0.0],[-72.391,19.8054,1.3809],[-72.4081,19.8045,1.4084],[-72.4233,19.8141,2.3821],[-72.4231,19.817,1.2468],[-72.4295,19.8194,2.1812],[-72.4296,19.8218,1.7685],[-72.4235,19.826,0.0],[-72.4276,19.8296,9.6948],[-72.4337,19.8304,4.2467],[-72.4349,19.826,4.2972],[-72.4326,19.8238,15.2541],[-72.4332,19.8212,1.3198],[-72.4396,19.8177,1.3864],[-72.4449,19.8174,0.0],[-72.4578,19.8223,0.0],[-72.4604,19.8256,1.9099],[-72.4587,19.8268,0.0],[-72.4593,19.8285,6.4128],[-72.4702,19.8329,1.6156],[-72.471,19.8307,0.0],[-72.4676,19.8282,0.0],[-72.4679,19.8249,0.6671],[-72.4732,19.8218,4.2482],[-72.4804,19.8218,3.2629],[-72.4837,19.8274,5.1998],[-72.4882,19.8302,9.8943],[-72.4882,19.8329,0.0],[-72.4899,19.8343,0.0],[-72.4921,19.834,0.0],[-72.4918,19.8312,0.0],[-72.4935,19.8293,0.0],[-72.4932,19.8274,0.0],[-72.4901,19.826,13.1949],[-72.4904,19.8232,8.3878],[-72.492,19.8204,14.4036],[-72.4943,19.8201,45.5912],[-72.496,19.8229,0.0],[-72.5001,19.8246,45.5552],[-72.4985,19.836,0.0],[-72.5018,19.8376,0.0],[-72.504,19.836,4.8064],[-72.5074,19.8471,0.0],[-72.5115,19.8482,16.4472],[-72.5137,19.8404,36.8452],[-72.5182,19.8399,42.989],[-72.5212,19.8439,0.0],[-72.5218,19.8501,0.0],[-72.5277,19.8474,0.0],[-72.5321,19.8494,0.0],[-72.5387,19.8563,25.2057],[-72.5413,19.8629,0.0],[-72.544,19.8632,11.5892],[-72.5446,19.8649,0.0],[-72.5546,19.8701,9.8702],[-72.5554,19.8721,45.6434],[-72.5521,19.8754,0.0],[-72.5576,19.8796,11.8161],[-72.5613,19.8797,92.9188],[-72.5615,19.8774,65.3066],[-72.567,19.8775,149.3506],[-72.5683,19.8748,172.5853],[-72.5719,19.8743,258.3532],[-72.5833,19.8661,547.0535],[-72.583,19.858,499.2644],[-72.5809,19.8556,447.2277],[-72.58,19.8497,529.5154],[-72.5838,19.8517,557.5776],[-72.5893,19.8511,420.6334],[-72.5902,19.8497,345.7173],[-72.5955,19.8398,256.1095],[-72.5932,19.8325,173.7443],[-72.5909,19.8314,164.9922],[-72.5944,19.8302,126.3439],[-72.5981,19.8373,247.2247],[-72.6015,19.8382,186.5874],[-72.6041,19.8387,127.7246],[-72.6107,19.8361,138.8495],[-72.6135,19.834,161.5001],[-72.6159,19.8278,239.5038],[-72.615,19.8179,621.8728],[-72.6193,19.8148,717.5501],[-72.6224,19.8154,734.5143],[-72.6233,19.8135,718.9414],[-72.6272,19.8135,668.5209],[-72.63,19.8116,567.002],[-72.6318,19.8168,623.8829],[-72.6391,19.8184,532.5632],[-72.6401,19.8212,599.7399],[-72.6379,19.8266,817.3359],[-72.6389,19.8293,626.2808],[-72.6517,19.8279,579.6412],[-72.6609,19.8286,270.4749],[-72.67,19.8321,459.7708],[-72.6788,19.8328,327.3069],[-72.6846,19.8315,176.5371],[-72.6838,19.8262,213.7127],[-72.6772,19.8138,378.4539],[-72.678,19.8088,609.5681],[-72.6814,19.8037,793.076],[-72.6736,19.7786,536.6039],[-72.6683,19.7762,561.1294],[-72.6533,19.7766,951.537],[-72.6563,19.7856,941.6898],[-72.6432,19.7854,725.5643],[-72.6385,19.7779,717.8758],[-72.6374,19.7737,830.0851],[-72.6405,19.7716,1039.0142],[-72.6412,19.7678,1019.0398],[-72.6471,19.7643,803.7467],[-72.6482,19.7615,826.4982],[-72.6466,19.7452,1013.6395],[-72.6379,19.7444,914.255],[-72.6311,19.7416,647.7581],[-72.6288,19.7423,766.7925],[-72.6246,19.7481,758.0281],[-72.6257,19.7523,899.7123],[-72.6234,19.7569,876.6058],[-72.6143,19.7567,1061.6018],[-72.608,19.7502,1010.9774],[-72.5981,19.7241,979.1169],[-72.5977,19.7143,876.9529],[-72.5992,19.7144,810.996],[-72.6102,19.7004,645.9075],[-72.6117,19.7013,665.1011],[-72.6158,19.6975,643.6617],[-72.6149,19.6943,577.5561],[-72.6095,19.6914,648.933],[-72.5985,19.6816,517.066],[-72.5895,19.6797,457.6347],[-72.5831,19.6747,253.1515],[-72.5771,19.6751,262.5065],[-72.5738,19.6733,283.1454],[-72.5761,19.6572,657.5388],[-72.5718,19.6523,666.8375],[-72.5691,19.6338,823.2014],[-72.5651,19.6264,887.3674],[-72.5415,19.5987,1001.8698],[-72.5424,19.5887,894.9619],[-72.5359,19.5825,868.4775],[-72.5257,19.5781,925.1108],[-72.5213,19.5814,670.7755],[-72.5152,19.5818,621.8318],[-72.523,19.5741,905.8359],[-72.5211,19.5711,895.5985],[-72.5073,19.5621,713.8955],[-72.5005,19.5605,822.6432],[-72.4934,19.5556,798.0511],[-72.4881,19.5468,824.6028],[-72.4624,19.5263,899.8936],[-72.4553,19.5223,957.4344],[-72.4472,19.5213,991.9094],[-72.4419,19.5227,1014.9863],[-72.44,19.528,1032.0116],[-72.4332,19.5252,992.4704],[-72.4247,19.5297,963.8706],[-72.415,19.545,620.0725],[-72.4248,19.5588,618.8215],[-72.4231,19.5652,600.8245],[-72.4118,19.5713,316.9162],[-72.4093,19.5708,365.669],[-72.4084,19.5676,338.6413],[-72.4039,19.5692,383.6911],[-72.4001,19.5639,374.271],[-72.3932,19.5621,420.2741],[-72.3902,19.566,427.691],[-72.3913,19.5707,625.9139],[-72.39,19.5739,705.847],[-72.3812,19.5854,872.6995],[-72.3786,19.5853,815.0162],[-72.3774,19.5883,736.4026],[-72.3745,19.5901,834.2991],[-72.3652,19.5918,775.7844],[-72.3629,19.5878,792.7656],[-72.3591,19.5855,854.6483],[-72.3592,19.5817,806.0685],[-72.3619,19.5783,675.2247],[-72.3663,19.5764,566.8983],[-72.3647,19.575,556.0079],[-72.3666,19.566,505.3906],[-72.3649,19.5653,562.9202],[-72.359,19.5726,700.6667],[-72.347,19.5737,677.6996],[-72.3348,19.5706,726.8177],[-72.3278,19.572,862.7229],[-72.3246,19.5699,834.3412],[-72.3225,19.5613,849.004],[-72.3191,19.5586,931.5298],[-72.323,19.5542,844.6874],[-72.3232,19.5448,648.1724],[-72.3253,19.5433,638.8629],[-72.325,19.5394,574.3357],[-72.3312,19.5324,781.7664],[-72.328,19.5275,799.0345],[-72.3254,19.5265,703.8717],[-72.3221,19.5109,597.5599],[-72.3271,19.5104,685.5735],[-72.3316,19.5054,870.92],[-72.326,19.5004,905.6848],[-72.3254,19.4896,1017.6572],[-72.3187,19.4872,895.7003],[-72.3209,19.4856,878.1571],[-72.3222,19.4767,765.5353],[-72.3231,19.4773,774.4343],[-72.3272,19.4702,630.8562],[-72.3288,19.4629,590.4155],[-72.3204,19.4597,580.7158],[-72.3068,19.4654,594.3735],[-72.2882,19.4677,881.0596],[-72.2821,19.4672,866.6036],[-72.2756,19.4639,991.3008],[-72.2732,19.4697,963.5215],[-72.2654,19.4706,1051.5137],[-72.2607,19.4758,1033.7133],[-72.2495,19.4769,1029.4791],[-72.2536,19.4716,1023.441],[-72.257,19.456,929.222],[-72.2519,19.4534,815.5338],[-72.2501,19.4443,793.1672],[-72.2269,19.4331,682.2286],[-72.2297,19.4299,689.2186],[-72.2299,19.4261,733.4584],[-72.2229,19.4191,585.9904],[-72.2241,19.4177,625.8926],[-72.223,19.4155,533.7089],[-72.2311,19.4171,720.9031],[-72.2315,19.4072,734.946],[-72.2293,19.4,663.8788],[-72.2314,19.3915,629.4399],[-72.2288,19.3841,483.429],[-72.2405,19.3878,508.5589],[-72.2422,19.3875,508.5589],[-72.2426,19.3855,489.7761],[-72.2443,19.3864,495.7994],[-72.2486,19.3845,498.5009],[-72.2415,19.3746,433.7637],[-72.2364,19.373,418.8854],[-72.2323,19.369,406.6003],[-72.2303,19.3637,389.5883],[-72.2333,19.3583,389.2884],[-72.2277,19.3439,374.2362],[-72.2307,19.3433,375.5261],[-72.2243,19.3384,364.9454],[-72.2255,19.3276,363.7639],[-72.2231,19.3245,361.4841],[-72.2084,19.319,345.3045],[-72.206,19.3151,339.6081],[-72.2025,19.3137,337.1345],[-72.2007,19.3113,338.7697],[-72.2033,19.3005,353.6219],[-72.1949,19.2988,355.2379],[-72.183,19.2938,354.3043],[-72.1738,19.2855,347.6177],[-72.1658,19.2819,345.844],[-72.1591,19.2827,349.4161],[-72.1586,19.2791,347.5684],[-72.1528,19.2686,361.1903],[-72.1548,19.2588,363.6209],[-72.1491,19.2564,376.3358],[-72.1421,19.2579,385.0021],[-72.135,19.2549,397.8594],[-72.1246,19.2629,362.9298],[-72.1187,19.2652,349.1931],[-72.1131,19.2644,350.8877],[-72.1079,19.2664,341.5606],[-72.0946,19.2666,281.526],[-72.0939,19.2688,297.4085],[-72.0902,19.2698,293.5565],[-72.0853,19.2765,307.9588],[-72.0814,19.2775,315.7429],[-72.0806,19.2812,330.3818],[-72.0709,19.2852,357.7661],[-72.0699,19.2877,352.1866],[-72.0634,19.2904,361.491],[-72.0563,19.2976,381.4094],[-72.0529,19.2989,391.525]]],
[[[-72.376,19.8168,18.5063],[-72.3771,19.8174,0.0],[-72.3785,19.8154,0.0],[-72.3771,19.8129,0.0],[-72.374,19.8143,17.9741],[-72.3737,19.8163,0.0],[-72.376,19.8168,18.5063]]]]}}