{"type":"Feature","properties":{"GID_2":"CUB.13.14_1","GID_0":"CUB","country":"Cuba","GID_1":"CUB.13_1","province":"PinardelRío","NL_NAME_1":"NA","county":"Viñales","VARNAME_2":"NA","NL_NAME_2":"NA","TYPE_2":"Municipio","ENGTYPE_2":"Municipality","CC_2":"NA","HASC_2":"CU.PR.VI","name":"Viñales.county"},
"geometry":{"type": "MultiPolygon","coordinates": [[[[-83.6277,22.5411,60.7906],[-83.6182,22.5478,54.0641],[-83.5623,22.5647,56.1582],[-83.5897,22.5958,172.1785],[-83.5986,22.6104,213.5211],[-83.6249,22.6362,166.6887],[-83.6452,22.6734,197.7907],[-83.6456,22.6837,114.0207],[-83.6394,22.6986,78.8115],[-83.6369,22.7232,61.2034],[-83.6298,22.7458,38.2336],[-83.6306,22.7976,0.51],[-83.6324,22.7965,0.9783],[-83.6326,22.7921,1.513],[-83.6343,22.7907,1.9171],[-83.6385,22.791,0.0],[-83.6446,22.7862,1.2817],[-83.6501,22.7862,1.7915],[-83.6518,22.7843,2.4823],[-83.6565,22.7849,1.7717],[-83.6571,22.7829,1.6114],[-83.6593,22.784,0.0],[-83.6632,22.7832,1.8035],[-83.6687,22.7857,0.0],[-83.6724,22.7851,3.224],[-83.6738,22.7879,1.8638],[-83.6732,22.7915,1.4033],[-83.6665,22.7946,1.1376],[-83.6668,22.7968,1.4383],[-83.6712,22.7946,1.3016],[-83.6726,22.7971,0.0],[-83.6776,22.7985,0.0],[-83.6813,22.7938,1.1992],[-83.6821,22.7957,0.755],[-83.6907,22.7949,1.4561],[-83.6896,22.8004,2.193],[-83.6876,22.8012,0.7813],[-83.6907,22.8043,1.5283],[-83.6899,22.8082,4.2328],[-83.691,22.8088,0.0],[-83.6926,22.8085,1.7425],[-83.6915,22.806,0.0],[-83.6932,22.806,0.0],[-83.6907,22.8026,0.6174],[-83.6913,22.7993,2.193],[-83.6954,22.7965,0.8219],[-83.6957,22.7904,0.9042],[-83.6971,22.7904,0.9042],[-83.6971,22.7951,0.295],[-83.6988,22.7965,0.3529],[-83.7043,22.7932,0.7166],[-83.7015,22.7979,1.0589],[-83.6963,22.7974,0.3138],[-83.6935,22.801,0.0],[-83.704,22.8082,0.4914],[-83.7076,22.809,0.0],[-83.7123,22.8071,0.0],[-83.7129,22.8051,0.0],[-83.7112,22.8032,2.2223],[-83.7121,22.7968,0.0],[-83.7096,22.7943,1.5005],[-83.7126,22.7896,0.5981],[-83.7099,22.7868,1.4204],[-83.7099,22.7838,1.2352],[-83.7124,22.784,0.0],[-83.716,22.7796,2.1317],[-83.7235,22.7763,3.575],[-83.7285,22.7763,0.0],[-83.7312,22.7743,1.0849],[-83.7363,22.7754,1.8167],[-83.7526,22.7699,2.0379],[-83.7574,22.7713,0.3421],[-83.7576,22.7687,1.1818],[-83.7601,22.7665,1.3164],[-83.7618,22.7668,0.7122],[-83.764,22.764,1.8978],[-83.7707,22.7638,0.0],[-83.7718,22.7599,1.0734],[-83.7801,22.7563,1.7315],[-83.7874,22.7588,0.0],[-83.7929,22.7576,0.5095],[-83.7965,22.7526,0.5414],[-83.7996,22.7515,1.0278],[-83.8029,22.7454,1.7831],[-83.7863,22.6991,32.6483],[-83.7856,22.6613,221.9269],[-83.7927,22.6418,152.253],[-83.7953,22.6065,398.2938],[-83.825,22.5662,168.8447],[-83.8277,22.5508,208.8727],[-83.8203,22.5299,252.9725],[-83.8166,22.5088,168.4144],[-83.8076,22.4907,262.8191],[-83.7985,22.4778,192.9226],[-83.7815,22.4717,236.6038],[-83.7669,22.4621,141.9603],[-83.7494,22.4575,78.0027],[-83.7331,22.4482,66.8378],[-83.6842,22.4963,71.0232],[-83.6648,22.5296,83.0195],[-83.6444,22.5396,65.1825],[-83.6277,22.5411,60.7906]]],
[[[-83.6804,22.8088,0.0],[-83.681,22.8099,0.0],[-83.6818,22.8071,0.0],[-83.6804,22.8071,0.0],[-83.6804,22.8088,0.0]]],
[[[-83.6829,22.8104,0.0],[-83.681,22.8099,0.0],[-83.6804,22.8118,0.0],[-83.6826,22.8113,0.9311],[-83.6829,22.8104,0.0]]],
[[[-83.6562,22.8221,0.0],[-83.659,22.8229,1.9052],[-83.664,22.8204,0.0],[-83.6571,22.8201,0.0],[-83.6562,22.8221,0.0]]],
[[[-83.7551,22.7757,0.9778],[-83.7543,22.779,0.0],[-83.7585,22.7743,0.4339],[-83.7574,22.7718,0.3421],[-83.7557,22.7721,0.1004],[-83.7551,22.7757,0.9778]]],
[[[-83.7932,22.7846,0.0],[-83.7974,22.784,0.0],[-83.7985,22.7799,0.7496],[-83.7951,22.7813,1.0373],[-83.7932,22.7846,0.0]]],
[[[-83.7976,22.7913,0.0],[-83.7968,22.7943,0.4943],[-83.7985,22.7946,0.4943],[-83.7988,22.7932,0.0],[-83.7976,22.7913,0.0]]],
[[[-83.7743,22.8163,1.1005],[-83.7812,22.8168,2.3085],[-83.7921,22.8149,3.2873],[-83.7965,22.811,0.0],[-83.8037,22.8093,0.0],[-83.8074,22.8068,1.9822],[-83.8165,22.7946,3.2244],[-83.8235,22.7765,0.0],[-83.8199,22.7751,0.0],[-83.8182,22.7807,0.0],[-83.819,22.7826,0.8782],[-83.816,22.7838,4.4231],[-83.8146,22.7821,1.3082],[-83.8126,22.7846,0.5868],[-83.8087,22.7857,0.0],[-83.8085,22.7921,1.3303],[-83.8065,22.7932,0.0],[-83.8082,22.7965,0.8765],[-83.8051,22.7957,0.0],[-83.8051,22.7932,0.0],[-83.8026,22.7924,0.0],[-83.8049,22.7965,0.0],[-83.8096,22.7979,1.5057],[-83.8065,22.8037,0.0],[-83.8043,22.8043,0.3943],[-83.8001,22.8024,1.8509],[-83.799,22.801,0.5631],[-83.7999,22.7987,0.3459],[-83.7974,22.7976,1.2351],[-83.799,22.8049,1.2409],[-83.7915,22.8079,0.4704],[-83.7896,22.8021,0.4473],[-83.7946,22.801,0.3592],[-83.7951,22.799,1.5257],[-83.7899,22.7999,0.0],[-83.7885,22.7985,0.0],[-83.7887,22.8046,1.7977],[-83.786,22.8085,0.0],[-83.7832,22.8082,0.2584],[-83.781,22.7993,0.9291],[-83.7796,22.7987,0.0],[-83.7787,22.801,1.746],[-83.7793,22.7985,0.0],[-83.7763,22.7982,1.0559],[-83.7799,22.7946,0.867],[-83.7779,22.7946,3.695],[-83.7771,22.7921,2.5576],[-83.7743,22.7921,1.6695],[-83.7754,22.7893,0.1827],[-83.7721,22.7896,0.0],[-83.7696,22.7851,0.0],[-83.7682,22.7868,0.0],[-83.7718,22.7915,0.0],[-83.7704,22.7929,0.7795],[-83.7663,22.7924,1.8694],[-83.7643,22.7896,0.2282],[-83.7674,22.7899,0.0],[-83.7676,22.7882,0.0],[-83.7604,22.789,1.2034],[-83.7571,22.7815,4.8389],[-83.7576,22.7799,0.3048],[-83.7546,22.7801,0.0],[-83.7551,22.7874,0.0],[-83.7626,22.7921,0.9521],[-83.764,22.7946,1.513],[-83.7631,22.7971,1.0677],[-83.7668,22.7985,2.8159],[-83.7699,22.7951,1.8319],[-83.7715,22.7976,0.0],[-83.7726,22.7943,1.2806],[-83.774,22.7943,2.4811],[-83.7754,22.7982,0.6322],[-83.7754,22.7996,0.3511],[-83.7718,22.7982,0.0],[-83.7693,22.799,0.0],[-83.7651,22.8024,0.0],[-83.7668,22.8037,2.7962],[-83.7643,22.8068,1.5259],[-83.7618,22.8063,1.502],[-83.7613,22.8088,3.108],[-83.7582,22.8079,0.0],[-83.7576,22.809,0.0],[-83.7743,22.8163,1.1005]]],
[[[-83.7596,22.7993,2.2846],[-83.7626,22.7996,0.6386],[-83.7635,22.7979,1.0677],[-83.7588,22.7982,0.0],[-83.7596,22.7993,2.2846]]],
[[[-83.7501,22.806,0.9127],[-83.7524,22.8065,0.0],[-83.7501,22.8035,0.0],[-83.7438,22.8018,1.0271],[-83.7438,22.8035,3.8403],[-83.7501,22.806,0.9127]]],
[[[-83.6504,22.8235,2.9956],[-83.6526,22.8235,0.7218],[-83.6526,22.8204,0.0],[-83.6515,22.821,0.7009],[-83.6504,22.8235,2.9956]]],
[[[-83.6557,22.8385,1.2511],[-83.6604,22.8371,0.0],[-83.6604,22.8315,0.0],[-83.6513,22.8343,3.0069],[-83.6521,22.8371,0.0],[-83.6557,22.8385,1.2511]]]]}}