{"type":"Feature","properties":{"GID_1":"PRI.62_1","GID_0":"PRI","country":"PuertoRico","province":"SabanaGrande","VARNAME_1":"NA","NL_NAME_1":"NA","TYPE_1":"Municipio","ENGTYPE_1":"Municipality","CC_1":"NA","HASC_1":"PR.SB","ISO_1":"-","name":"Sabana_Grande.province"},
"geometry":{"type": "MultiPolygon","coordinates": [[[[-66.885,18.025,41.7197],[-66.8869,18.0322,63.5438],[-66.8999,18.0468,76.8758],[-66.9033,18.0621,176.1228],[-66.9098,18.0663,169.9106],[-66.9131,18.0748,244.0927],[-66.9141,18.0844,338.7961],[-66.9188,18.0901,374.6833],[-66.9175,18.102,449.6423],[-66.9241,18.1153,663.9635],[-66.9177,18.1201,634.4578],[-66.9168,18.1263,606.8867],[-66.9248,18.143,658.579],[-66.9263,18.151,755.1103],[-66.9378,18.1481,698.4786],[-66.9581,18.146,848.6804],[-66.9609,18.1459,793.8049],[-66.9642,18.1483,870.1937],[-66.9706,18.142,816.6407],[-66.978,18.1438,864.3975],[-66.9705,18.132,579.5869],[-66.9709,18.1282,618.757],[-66.9791,18.1214,516.6438],[-66.9813,18.1114,302.8535],[-66.9841,18.107,209.2954],[-66.9839,18.0884,134.9485],[-66.981,18.078,84.5239],[-66.9835,18.0526,82.406],[-66.9825,18.0412,31.1225],[-66.9603,18.0367,39.7323],[-66.9589,18.0324,22.7274],[-66.9533,18.0339,29.3625],[-66.9473,18.0335,30.8622],[-66.9362,18.0293,33.5496],[-66.9307,18.0308,39.4796],[-66.9108,18.0238,54.1845],[-66.9053,18.0267,50.9742],[-66.8951,18.0235,91.9742],[-66.885,18.025,41.7197]]]]}}