{"type": "Feature","bbox": [-61.039,13.7343,-60.9797,13.8355],"geometry": {"type": "MultiPolygon","coordinates": [[[[-61.039,13.7618,0.0],[-61.0371,13.7571,4.9799],[-61.0343,13.7579,10.4405],[-61.0326,13.7554,0.0],[-61.0249,13.7524,2.7034],[-61.0171,13.7526,13.1534],[-61.0163,13.7501,0.0],[-61.0099,13.7515,0.9986],[-61.0062,13.749,0.0],[-61.0051,13.7518,7.8723],[-60.9974,13.7513,1.9987],[-60.996,13.7499,0.0],[-60.9968,13.7468,0.0],[-60.9935,13.7449,9.9292],[-60.9938,13.7401,7.7118],[-60.9904,13.7388,18.1963],[-60.9896,13.7354,0.0],[-60.9863,13.7343,0.0],[-60.9804,13.7351,0.0],[-60.9797,13.7393,5.906],[-60.9832,13.7416,6.2729],[-60.9843,13.7446,23.8297],[-60.9823,13.7513,22.1716],[-60.9812,13.7837,153.4071],[-60.9854,13.7934,201.1297],[-60.9944,13.8047,331.028],[-60.9938,13.8143,378.5812],[-60.9982,13.8184,406.1467],[-60.9993,13.8228,413.0739],[-60.9993,13.8271,521.3091],[-60.9971,13.8321,528.0452],[-60.9988,13.8348,576.3629],[-61.0026,13.8355,584.5072],[-61.0058,13.8301,420.7841],[-61.0098,13.817,364.804],[-61.015,13.8093,243.153],[-61.0165,13.8013,212.8269],[-61.0254,13.7904,166.9384],[-61.0267,13.7813,104.737],[-61.03,13.7763,113.8551],[-61.0316,13.7689,69.3396],[-61.0365,13.7628,38.8678],[-61.039,13.7618,0.0]]]]}
,"properties": {"GID_1": "LCA.7_1","GID_0": "LCA","country": "SaintLucia","province": "Laborie","VARNAME_1": "NA","NL_NAME_1": "NA","TYPE_1": "Quarter","ENGTYPE_1": "Quarter","CC_1": "NA","HASC_1": "LC.LB","ISO_1": "LC-07","name": "Laborie.province","area_km2": 34.96535,"hist_schema_id": "Elevation0-9000","hist_area_km2": {"0": 1.68878,"25": 3.02735,"50": 2.96551,"75": 2.51239,"100": 2.42996,"125": 2.82117,"150": 3.43889,"175": 3.43882,"200": 2.98577,"225": 1.97674,"250": 1.87378,"275": 1.19426,"300": 1.0295,"325": 0.84417,"350": 0.35001,"375": 0.51472,"400": 0.49413,"425": 0.35,"450": 0.22647,"475": 0.24706,"500": 0.08235,"525": 0.1647,"550": 0.12353,"575": 0.04117,"600": 0.10294,"625": 0.04117}}}