{"type": "Feature","id": "5082","bbox": [-61.01892,13.73064,-60.96245,13.8308],"geometry": {"type": "Polygon","coordinates": [[[-60.96709,13.73064,2.2177],[-60.96245,13.74168,48.2826],[-60.9628,13.7554,46.9292],[-60.96386,13.77579,126.2874],[-60.97019,13.79091,222.0904],[-60.97687,13.81342,279.4163],[-60.98038,13.82643,427.5795],[-60.98094,13.8308,386.0501],[-60.98566,13.82783,468.4504],[-60.98882,13.81939,333.9822],[-61.00113,13.79197,220.2088],[-61.01203,13.77087,116.0516],[-61.01892,13.75625,28.5951],[-60.97338,13.739,22.2808],[-60.96709,13.73064,2.2177]]]}
,"properties": {"ISO3166-1-Alpha-3": "LCA","country": "Saint Lucia","fill": "#FF0","name": "Laborie","area_km2": 34.36875,"hist_schema_id": "Elevation0-9000","hist_area_km2": {"0": 1.13273,"25": 3.91298,"50": 3.33626,"75": 2.94489,"100": 2.40939,"125": 3.00653,"150": 3.45949,"175": 3.33588,"200": 2.42981,"225": 2.16205,"250": 1.70906,"275": 1.31779,"300": 1.05008,"325": 0.74122,"350": 0.3706,"375": 0.14412,"400": 0.22647,"425": 0.28823,"450": 0.26764,"475": 0.12353}}}