{"type": "Feature","bbox": [-77.1092,19.8846,-76.8039,20.2623],"geometry": {"type": "MultiPolygon","coordinates": [[[[-76.8141,20.2399,73.2515],[-76.8343,20.2467,56.4716],[-76.8549,20.2492,45.164],[-76.8672,20.2542,39.5893],[-76.8897,20.2575,33.6741],[-76.9015,20.2623,31.21],[-76.9094,20.2622,28.6492],[-76.9193,20.2556,27.6121],[-76.9588,20.2186,35.2896],[-76.9884,20.2043,40.0934],[-77.0056,20.1923,39.4882],[-77.024,20.1877,34.4816],[-77.0247,20.1732,37.5496],[-77.0372,20.149,48.5064],[-77.0417,20.1326,58.6021],[-77.0648,20.0894,92.432],[-77.1092,20.0638,127.2465],[-77.1064,20.0466,216.2811],[-77.0967,20.0227,322.7184],[-77.08,20.0173,640.2206],[-77.0656,20.0075,673.6451],[-77.0629,19.9535,263.1793],[-77.0557,19.9331,255.2315],[-77.0536,19.9107,497.4068],[-77.0411,19.8915,0.0],[-77.0379,19.8924,4.7647],[-77.0338,19.8893,0.0],[-77.0251,19.8926,13.4585],[-77.016,19.889,4.9716],[-77.0126,19.8868,0.0],[-77.0121,19.8846,0.0],[-77.0046,19.8865,0.0],[-76.9896,19.8857,5.0289],[-76.9921,19.8906,71.159],[-76.9911,19.8907,95.4538],[-76.9968,19.898,274.1442],[-77.01,19.9111,184.8817],[-77.0113,19.9155,280.0106],[-77.0067,19.9205,327.7755],[-76.9987,19.9218,425.6233],[-76.9471,19.9221,291.2639],[-76.917,19.9299,112.367],[-76.9084,19.937,202.4439],[-76.9011,19.9483,621.1383],[-76.8834,19.9907,1049.5223],[-76.8764,19.9984,1053.9723],[-76.8652,20.0023,949.5883],[-76.8518,20.003,888.9659],[-76.8434,20.0017,1377.7173],[-76.8317,19.9913,1633.827],[-76.8158,20.0295,1093.368],[-76.8052,20.0637,918.5374],[-76.8039,20.0775,709.6727],[-76.805,20.1791,309.5004],[-76.8132,20.2062,90.6131],[-76.8141,20.2399,73.2515]]]]}
,"properties": {"GID_2": "CUB.5.1_1","GID_0": "CUB","country": "Cuba","GID_1": "CUB.5_1","province": "Granma","NL_NAME_1": "NA","county": "BartoloméMasó","VARNAME_2": "NA","NL_NAME_2": "NA","TYPE_2": "Municipio","ENGTYPE_2": "Municipality","CC_2": "NA","HASC_2": "CU.GR.BM","name": "Bartolomé_Masó.county","area_km2": 839.4848,"hist_schema_id": "Elevation0-9000","hist_area_km2": {"0": 1.2959,"25": 25.4077,"50": 122.4215,"75": 64.948,"100": 42.9242,"125": 34.8856,"150": 30.5661,"175": 21.667,"200": 20.6321,"225": 20.2147,"250": 19.4382,"275": 21.9882,"300": 21.3117,"325": 20.4756,"350": 20.2766,"375": 19.9386,"400": 19.9589,"425": 18.2662,"450": 18.3854,"475": 18.3857,"500": 16.8722,"525": 17.2508,"550": 16.9118,"575": 14.7606,"600": 13.0078,"625": 13.2467,"650": 11.8923,"675": 10.956,"700": 10.7769,"725": 10.2193,"750": 8.9041,"775": 7.9478,"800": 8.8045,"825": 8.6851,"850": 8.1273,"875": 8.5858,"900": 7.4104,"925": 7.0122,"950": 7.0322,"975": 5.6577,"1000": 5.0999,"1025": 4.7414,"1050": 4.2434,"1075": 3.7056,"1100": 3.1677,"1125": 3.2473,"1150": 2.7692,"1175": 2.4504,"1200": 1.7333,"1225": 1.8129,"1250": 1.275,"1275": 1.2949,"1300": 1.275,"1325": 0.9363,"1350": 0.7769,"1375": 0.5578,"1400": 0.4383,"1425": 0.5976,"1450": 0.2988,"1475": 0.1992,"1500": 0.2192,"1525": 0.259,"1550": 0.1594,"1575": 0.1395,"1600": 0.1793,"1625": 0.1395,"1650": 0.1793,"1675": 0.0797,"1700": 0.0398,"1775": 0.0199}}}