{"type": "Feature","bbox": [-65.9885,17.9804,-65.8503,18.0612],"geometry": {"type": "MultiPolygon","coordinates": [[[[-65.8503,18.0112,0.0],[-65.8575,18.0168,184.1841],[-65.8644,18.0258,445.1512],[-65.881,18.0206,432.5383],[-65.8879,18.0302,348.029],[-65.8976,18.034,474.7631],[-65.9073,18.0359,307.7871],[-65.9119,18.0331,357.3508],[-65.9341,18.0369,441.5269],[-65.9521,18.0445,379.139],[-65.9581,18.0522,305.1645],[-65.9645,18.0541,405.3777],[-65.9724,18.0527,374.187],[-65.9779,18.0612,370.9049],[-65.9885,18.0589,474.8035],[-65.9858,18.0455,514.9974],[-65.9816,18.035,520.6454],[-65.9719,18.0245,379.2568],[-65.9632,18.0288,315.4014],[-65.9599,18.0283,288.7439],[-65.9526,18.0231,235.9205],[-65.9549,18.0178,312.296],[-65.9535,18.0068,453.9752],[-65.9433,17.9925,477.067],[-65.9258,17.9858,354.0933],[-65.9129,17.9848,247.5339],[-65.909,17.9804,0.0],[-65.8971,17.991,1.7497],[-65.8957,17.9901,0.0],[-65.8896,17.9921,25.6891],[-65.8846,17.9868,0.0],[-65.884,17.9901,2.5968],[-65.8804,17.9935,3.1074],[-65.8785,17.9985,2.0692],[-65.8704,18.0065,0.0],[-65.866,18.0057,0.0],[-65.8649,18.0071,16.7203],[-65.8568,18.0046,0.0],[-65.8503,18.0112,0.0]]]]}
,"properties": {"GID_1": "PRI.49_1","GID_0": "PRI","country": "PuertoRico","province": "Maunabo","VARNAME_1": "NA","NL_NAME_1": "NA","TYPE_1": "Municipio","ENGTYPE_1": "Municipality","CC_1": "NA","HASC_1": "PR.MB","ISO_1": "-","name": "Maunabo.province","area_km2": 55.00322,"hist_schema_id": "Elevation0-9000","hist_area_km2": {"0": 5.90823,"25": 7.84365,"50": 4.05283,"75": 3.44788,"100": 2.94376,"125": 3.00421,"150": 2.82273,"175": 2.58077,"200": 2.62109,"225": 2.33876,"250": 2.17747,"275": 2.27824,"300": 2.27824,"325": 2.11693,"350": 2.11693,"375": 1.71365,"400": 1.41126,"425": 1.29026,"450": 0.84674,"475": 0.42337,"500": 0.34272,"525": 0.3024,"550": 0.12096,"575": 0.02016}}}