{"type":"Feature","properties":{"ISO3166-1-Alpha-3":"HTI","country":"Haiti","fill":"#F00","id":"1389","name":"Sud-Est"},
"geometry":{"type": "Polygon","coordinates": [[[-72.40896,18.37779,885.3673],[-72.42803,18.38699,885.3193],[-72.45425,18.39934,781.2135],[-72.49027,18.40151,489.7476],[-72.52345,18.38673,670.1172],[-72.54815,18.35852,644.2455],[-72.55823,18.35118,626.7692],[-72.57032,18.35082,386.7374],[-72.59487,18.34079,741.0548],[-72.61802,18.33805,628.3868],[-72.6313,18.3365,442.7252],[-72.64264,18.32731,386.3021],[-72.66176,18.32493,289.4447],[-72.68119,18.32415,454.0948],[-72.69284,18.31464,739.9191],[-72.7038,18.30477,837.7597],[-72.72116,18.30715,892.4805],[-72.73687,18.31532,1189.5166],[-72.73956,18.30095,1181.6707],[-72.74504,18.2885,1056.6436],[-72.75723,18.27935,688.1219],[-72.76504,18.26529,386.1713],[-72.79811,18.27325,442.1888],[-72.83206,18.28421,515.6382],[-72.84896,18.27454,325.7324],[-72.86028,18.26297,375.4091],[-72.8818,18.27336,467.8998],[-72.89309,18.28906,775.9579],[-72.90787,18.28989,476.6095],[-72.92348,18.29093,441.5407],[-72.95009,18.28534,629.8033],[-72.9713,18.28261,347.5566],[-72.98332,18.30457,515.4967],[-72.99774,18.32276,518.0399],[-73.00169,18.2931,492.114],[-73.0145,18.26483,317.032],[-73.01443,18.24287,217.3264],[-73.01246,18.2209,88.2251],[-73.01006,18.20339,127.7958],[-73.00693,18.18597,0.3818],[-73.00804,18.18106,0.0],[-72.98534,18.17866,17.3289],[-72.9475,18.16909,17.9798],[-72.91218,18.15591,0.0],[-72.88589,18.14142,0.0],[-72.85888,18.15131,39.7254],[-72.8037,18.14614,2.8478],[-72.77603,18.16315,33.9971],[-72.76895,18.15827,11.3651],[-72.76301,18.15672,3.2599],[-72.74816,18.15571,19.4349],[-72.75011,18.16031,21.3923],[-72.753,18.17158,0.0],[-72.75499,18.17617,0.0],[-72.73087,18.17471,0.0],[-72.61327,18.185,15.4367],[-72.59797,18.18236,70.9568],[-72.57067,18.17231,0.0],[-72.55899,18.17255,27.6355],[-72.54955,18.18236,154.4517],[-72.5563,18.22085,0.0],[-72.55093,18.22476,0.0],[-72.53889,18.22045,0.0],[-72.51879,18.21035,0.0],[-72.4403,18.22394,0.0],[-72.29455,18.22578,9.6399],[-72.19054,18.22484,48.4957],[-72.11071,18.23762,110.2982],[-72.07177,18.23753,6.4695],[-72.0393,18.22565,0.0],[-72.00674,18.20946,6.8008],[-71.92809,18.18378,0.0],[-71.89297,18.16279,50.3749],[-71.86246,18.13654,0.0],[-71.79259,18.04987,0.0],[-71.77623,18.03925,0.0],[-71.76427,18.06949,142.7675],[-71.76065,18.0868,224.1185],[-71.76288,18.11585,215.5559],[-71.7622,18.13249,248.8753],[-71.76458,18.14367,287.557],[-71.77533,18.17233,368.0477],[-71.77683,18.18179,446.3334],[-71.77404,18.20147,598.6125],[-71.76613,18.22026,882.2241],[-71.72171,18.293,2185.1562],[-71.72111,18.29397,2046.6871],[-71.72205,18.29382,2030.8013],[-71.80954,18.2794,1441.6047],[-71.86127,18.31005,1282.9762],[-71.92865,18.31501,1536.7561],[-72.01273,18.31397,1540.4978],[-72.09919,18.33263,1700.3903],[-72.18608,18.34963,2089.1084],[-72.27127,18.34457,1975.1929],[-72.35405,18.34932,1878.2666],[-72.36785,18.36405,1436.8517],[-72.38002,18.37991,933.7246],[-72.40896,18.37779,885.3673]]]}}