{"type": "Feature","bbox": [-73.0156,18.0301,-71.7198,18.4056],"geometry": {"type": "MultiPolygon","coordinates": [[[[-71.7771,18.1739,376.1459],[-71.7791,18.1746,394.2064],[-71.7803,18.1785,402.0737],[-71.7803,18.1859,462.4755],[-71.7744,18.1945,514.6569],[-71.7689,18.1953,596.7658],[-71.765,18.1992,642.4297],[-71.767,18.2065,759.5483],[-71.7631,18.2139,855.5261],[-71.7623,18.2213,935.1931],[-71.7568,18.2233,1071.1394],[-71.7549,18.2272,1091.7754],[-71.7509,18.2279,1172.4452],[-71.7502,18.2338,1167.874],[-71.7521,18.2368,1234.7917],[-71.751,18.24,1268.2396],[-71.7198,18.2916,2275.3413],[-71.7395,18.2903,2043.4733],[-71.7504,18.2924,1805.0099],[-71.7568,18.2897,1822.7242],[-71.765,18.2888,1736.0916],[-71.7803,18.2829,1687.6083],[-71.7858,18.2836,1647.2087],[-71.7887,18.2866,1644.245],[-71.8062,18.2864,1247.2976],[-71.8102,18.2836,1224.6296],[-71.8151,18.2828,1178.7793],[-71.8199,18.2789,1150.6804],[-71.8284,18.2787,1152.5513],[-71.838,18.2827,1053.0345],[-71.8461,18.2755,953.2008],[-71.8554,18.2749,887.1064],[-71.8607,18.2774,798.864],[-71.8701,18.2732,722.7382],[-71.8679,18.282,795.6717],[-71.8702,18.2855,855.8857],[-71.8646,18.2935,993.9423],[-71.867,18.3055,1232.532],[-71.8634,18.3114,1233.3777],[-71.8639,18.315,1296.0118],[-71.862,18.3191,1424.6589],[-71.8716,18.3241,1610.6099],[-71.8836,18.3216,1675.7949],[-71.8938,18.3172,1686.0388],[-71.904,18.3179,1676.7477],[-71.9269,18.3114,1615.0164],[-71.9336,18.3069,1660.449],[-71.9526,18.3173,1796.6917],[-71.9661,18.3161,1913.1041],[-71.9742,18.3128,1839.7937],[-71.9858,18.3148,1811.4943],[-72.0022,18.3115,1555.293],[-72.0039,18.3178,1675.5206],[-72.0126,18.3169,1587.0013],[-72.0327,18.3196,1844.3323],[-72.0392,18.3275,1922.9287],[-72.0396,18.323,1896.3727],[-72.0418,18.3206,1909.8571],[-72.0457,18.3204,1830.2443],[-72.0482,18.325,1879.2764],[-72.0558,18.3264,1836.5472],[-72.0647,18.3199,1439.4017],[-72.0674,18.3202,1380.7856],[-72.0755,18.3244,1548.5406],[-72.084,18.3347,1666.4542],[-72.0902,18.3375,1786.3644],[-72.1061,18.3354,1872.4426],[-72.1158,18.3369,1904.549],[-72.1276,18.3364,1879.6881],[-72.1373,18.3393,1859.3376],[-72.1472,18.3456,1787.295],[-72.1598,18.3486,1928.2218],[-72.1793,18.3464,1926.375],[-72.1899,18.3532,1969.0972],[-72.2113,18.351,2011.8755],[-72.2181,18.3484,2118.3806],[-72.2282,18.3519,2209.4917],[-72.2449,18.3537,2182.7891],[-72.2573,18.3582,2175.9202],[-72.268,18.3569,2156.5312],[-72.2761,18.3536,2123.1321],[-72.2806,18.3543,2140.6064],[-72.2869,18.3438,1959.1758],[-72.2911,18.3414,1882.4419],[-72.3043,18.342,1853.3279],[-72.308,18.3401,1867.0588],[-72.3147,18.3399,1751.1104],[-72.3268,18.341,1646.0967],[-72.3395,18.348,1665.5133],[-72.3525,18.3488,1805.7375],[-72.363,18.3535,1899.0709],[-72.3647,18.3529,1913.8832],[-72.3639,18.3551,1818.9677],[-72.3669,18.3571,1574.0917],[-72.3697,18.3663,1439.5607],[-72.3671,18.378,1351.7725],[-72.3707,18.3813,1105.3505],[-72.3796,18.3791,933.7246],[-72.3834,18.38,814.3248],[-72.3838,18.3877,1021.1022],[-72.389,18.3915,1010.5517],[-72.394,18.3917,945.6548],[-72.3963,18.3861,980.2925],[-72.4044,18.3839,807.1675],[-72.4098,18.3787,885.3673],[-72.4271,18.3739,666.6077],[-72.4305,18.3763,705.8126],[-72.435,18.3732,670.2064],[-72.4363,18.3795,888.2103],[-72.4277,18.3949,1220.91],[-72.4221,18.3975,1186.7761],[-72.4235,18.401,1174.6516],[-72.4425,18.399,926.1665],[-72.4452,18.3965,806.0421],[-72.4825,18.4,510.0325],[-72.4984,18.4054,424.4632],[-72.5029,18.4056,634.5211],[-72.5073,18.3988,447.7383],[-72.52,18.3949,720.735],[-72.5223,18.3884,626.2538],[-72.5312,18.3824,550.2043],[-72.5346,18.3707,228.5667],[-72.5509,18.3651,579.0791],[-72.55,18.3587,720.0313],[-72.5536,18.354,646.254],[-72.5527,18.3518,588.2431],[-72.5559,18.3515,626.9849],[-72.5602,18.3546,674.4091],[-72.5636,18.3546,556.2894],[-72.5643,18.3469,320.8626],[-72.5799,18.3526,664.7606],[-72.587,18.352,821.6522],[-72.5962,18.3416,691.5601],[-72.5999,18.3334,664.2857],[-72.6014,18.3241,592.2047],[-72.6082,18.3228,468.2498],[-72.6115,18.3264,409.1129],[-72.6173,18.3387,628.3868],[-72.6223,18.3443,587.6639],[-72.6419,18.3455,477.9005],[-72.6419,18.3305,402.9261],[-72.6436,18.3279,356.5474],[-72.6511,18.3237,268.5196],[-72.6557,18.3234,334.6546],[-72.6629,18.3253,324.1572],[-72.6653,18.3283,304.1996],[-72.6698,18.33,324.6075],[-72.6824,18.3253,454.0948],[-72.6834,18.322,466.5059],[-72.6929,18.3208,689.8388],[-72.6953,18.3188,711.697],[-72.6971,18.3114,792.467],[-72.6993,18.3086,837.5629],[-72.7034,18.3074,843.3815],[-72.7034,18.3003,706.0645],[-72.7123,18.2952,750.4915],[-72.7164,18.3029,733.533],[-72.7247,18.3057,890.8835],[-72.7266,18.3108,949.2297],[-72.7378,18.3222,1119.3633],[-72.7437,18.3236,1074.8071],[-72.7403,18.3125,1178.3185],[-72.7415,18.3096,1221.1604],[-72.7401,18.3001,1164.1144],[-72.7416,18.2896,1117.5411],[-72.7436,18.2873,1064.6523],[-72.7496,18.2901,1077.3577],[-72.7536,18.2903,1043.2352],[-72.7558,18.2883,745.6382],[-72.763,18.2786,497.1144],[-72.7636,18.2757,403.013],[-72.7617,18.2749,576.306],[-72.7613,18.2685,376.7112],[-72.765,18.2669,402.2009],[-72.7947,18.2754,580.2025],[-72.8086,18.2867,676.7466],[-72.8223,18.287,386.7111],[-72.8275,18.2893,499.6213],[-72.8314,18.2822,461.8468],[-72.8414,18.283,529.636],[-72.8562,18.2811,549.2155],[-72.856,18.2735,484.707],[-72.8505,18.2609,373.6235],[-72.8534,18.2582,248.9865],[-72.8593,18.259,276.5054],[-72.8838,18.2764,460.923],[-72.8831,18.2813,428.915],[-72.8911,18.2824,446.3348],[-72.8962,18.2877,740.2732],[-72.8903,18.2923,758.5782],[-72.8897,18.295,736.0692],[-72.8996,18.2915,644.8463],[-72.9135,18.2907,373.7872],[-72.9197,18.2885,361.7497],[-72.9231,18.2898,319.2341],[-72.9295,18.2866,343.338],[-72.9327,18.2876,478.9536],[-72.9348,18.2927,599.7599],[-72.9406,18.2904,735.4565],[-72.9428,18.2943,644.8127],[-72.9529,18.2934,489.4239],[-72.9582,18.2783,338.6384],[-72.9605,18.2769,340.6854],[-72.9646,18.2773,338.543],[-72.9751,18.2877,367.3805],[-72.9775,18.2924,372.8524],[-72.9774,18.2985,379.7563],[-72.9827,18.3021,490.5253],[-72.9845,18.3087,526.056],[-72.9868,18.3107,593.2739],[-72.9868,18.3207,708.3911],[-72.9937,18.3269,648.89],[-72.9967,18.3239,578.9299],[-72.9949,18.3058,560.4194],[-72.998,18.2986,550.6681],[-73.0101,18.2879,409.3107],[-73.0129,18.2792,436.8794],[-73.0131,18.2667,330.4156],[-73.0156,18.261,249.4283],[-73.0134,18.2555,370.0698],[-73.009,18.2523,469.0417],[-73.012,18.2477,449.3692],[-73.0108,18.2426,334.4954],[-73.0088,18.2405,290.2419],[-73.01,18.231,126.3567],[-73.0131,18.2267,76.6246],[-73.0112,18.2226,61.186],[-73.0094,18.2236,77.0369],[-73.0099,18.2199,183.4833],[-73.0072,18.2184,160.7072],[-73.0085,18.2166,59.9161],[-73.0079,18.2121,43.529],[-73.0104,18.2087,108.2497],[-73.0011,18.2074,38.1555],[-73.0023,18.206,41.1991],[-73.0089,18.2068,21.4502],[-73.0091,18.2041,18.9647],[-73.0039,18.1993,13.9413],[-73.0102,18.1932,9.245],[-73.0041,18.1869,0.0],[-73.0035,18.1857,3.1363],[-73.0049,18.1854,0.0],[-73.0026,18.1846,0.0],[-72.9999,18.1785,0.0],[-72.9979,18.1787,0.0],[-72.9954,18.176,0.0],[-72.991,18.1746,0.0],[-72.9662,18.1704,0.0],[-72.9629,18.1668,0.0],[-72.9529,18.166,0.6672],[-72.9471,18.1674,10.1418],[-72.9443,18.1654,0.0],[-72.9357,18.166,2.5836],[-72.9332,18.1646,0.0],[-72.931,18.1671,8.4667],[-72.9279,18.1632,0.0],[-72.9091,18.1577,0.0],[-72.9076,18.1588,18.992],[-72.9065,18.156,3.3436],[-72.9026,18.1571,15.545],[-72.9026,18.1549,5.2407],[-72.8976,18.1518,0.0],[-72.8918,18.1499,0.0],[-72.8863,18.151,12.5977],[-72.8863,18.1487,0.0],[-72.8846,18.1482,0.0],[-72.8788,18.1476,0.0],[-72.8735,18.1493,31.5369],[-72.8729,18.1474,2.5069],[-72.8646,18.1443,0.6258],[-72.8532,18.1429,0.0],[-72.8487,18.1457,0.0],[-72.8482,18.1496,1.9073],[-72.8457,18.1507,15.0013],[-72.8365,18.1493,31.6341],[-72.8304,18.1457,25.5834],[-72.8238,18.144,43.9877],[-72.8226,18.1418,0.0],[-72.8163,18.1413,0.0],[-72.8057,18.1457,1.713],[-72.7929,18.144,3.1043],[-72.786,18.1465,0.0],[-72.7815,18.151,16.8978],[-72.7824,18.1582,6.859],[-72.781,18.1596,1.925],[-72.7763,18.1596,3.4163],[-72.7576,18.1535,0.0],[-72.7479,18.154,4.0194],[-72.7462,18.1571,0.0],[-72.7479,18.161,0.0],[-72.7521,18.1621,0.0],[-72.7565,18.169,0.0],[-72.7601,18.1715,0.0],[-72.7579,18.1776,0.7664],[-72.7512,18.1835,0.0],[-72.7426,18.181,7.97],[-72.7421,18.1787,0.0],[-72.7387,18.1776,0.0],[-72.7312,18.1787,0.0],[-72.7201,18.1743,0.0],[-72.7126,18.1746,1.2144],[-72.7082,18.176,0.0],[-72.7046,18.1804,0.0],[-72.701,18.1818,0.0],[-72.6987,18.1821,23.5422],[-72.6974,18.1799,0.0],[-72.6926,18.179,0.0],[-72.6793,18.1832,0.0],[-72.6776,18.1854,0.0],[-72.6735,18.1868,0.0],[-72.6615,18.1832,0.0],[-72.6554,18.1849,0.0],[-72.6535,18.1874,6.6225],[-72.6504,18.186,0.0],[-72.6457,18.1868,0.0],[-72.644,18.1893,11.6292],[-72.6396,18.1913,2.1517],[-72.6371,18.1896,0.1192],[-72.6332,18.1901,0.0],[-72.6301,18.1868,0.0],[-72.6224,18.1876,24.2653],[-72.6215,18.1846,1.3225],[-72.619,18.1829,0.0],[-72.6132,18.184,15.4367],[-72.6068,18.1821,6.4925],[-72.6035,18.1829,5.5153],[-72.5987,18.1782,0.0],[-72.5937,18.1771,14.636],[-72.5896,18.1779,0.0],[-72.5879,18.1807,32.0381],[-72.5832,18.1799,2.3612],[-72.5793,18.1765,31.6162],[-72.579,18.1738,0.0],[-72.571,18.1754,0.0],[-72.5674,18.1707,4.0015],[-72.5526,18.1712,0.0],[-72.5429,18.1757,0.0],[-72.5407,18.1829,3.5647],[-72.5407,18.1896,6.6927],[-72.5418,18.1918,0.0],[-72.5462,18.1938,0.0],[-72.5468,18.1968,5.08],[-72.5524,18.1974,0.0],[-72.5532,18.204,23.7561],[-72.5512,18.2082,0.0],[-72.5574,18.2224,13.032],[-72.5498,18.2307,2.1842],[-72.5432,18.2318,0.0],[-72.5343,18.2304,24.4371],[-72.5332,18.2279,3.8442],[-72.5274,18.2243,4.5609],[-72.5254,18.2207,1.5959],[-72.5235,18.2204,12.1466],[-72.5207,18.2146,0.0],[-72.5179,18.2135,0.0],[-72.5079,18.2143,0.0],[-72.4946,18.2193,1.9034],[-72.4918,18.2232,15.7316],[-72.4879,18.2243,9.6403],[-72.4765,18.2188,0.9682],[-72.4751,18.2207,7.2271],[-72.4726,18.2199,0.0],[-72.4721,18.2218,0.0],[-72.4679,18.2235,0.0],[-72.4551,18.2213,0.0],[-72.4346,18.2272,6.3038],[-72.4231,18.2248,0.7813],[-72.4099,18.2282,0.0],[-72.3935,18.2293,0.0],[-72.3788,18.234,9.4547],[-72.3718,18.234,8.421],[-72.3668,18.2321,6.3679],[-72.3604,18.2343,10.0697],[-72.3574,18.2307,0.9172],[-72.3515,18.234,21.9867],[-72.3493,18.2337,0.0],[-72.3474,18.231,0.0],[-72.3443,18.231,1.3268],[-72.3368,18.234,12.452],[-72.3349,18.2324,0.0],[-72.3282,18.2318,0.0],[-72.3268,18.2296,0.0],[-72.3149,18.2304,0.0],[-72.3057,18.2226,2.3013],[-72.3004,18.2213,0.0],[-72.2924,18.2226,0.6711],[-72.2915,18.2246,1.829],[-72.2862,18.2268,0.4633],[-72.2818,18.2254,0.0],[-72.2749,18.2282,3.7996],[-72.2704,18.2265,0.0],[-72.2632,18.2271,19.6674],[-72.2621,18.2257,0.0],[-72.2603,18.2281,23.1674],[-72.2496,18.2257,0.0],[-72.2454,18.2271,22.5516],[-72.2426,18.2232,0.0],[-72.2371,18.2235,10.9929],[-72.2351,18.2215,0.0],[-72.2262,18.2229,2.9021],[-72.2251,18.2215,0.0],[-72.2143,18.2199,0.0],[-72.2134,18.2224,74.6635],[-72.1981,18.2216,0.0],[-72.1924,18.2242,59.7722],[-72.1868,18.2243,66.551],[-72.1827,18.2268,16.4477],[-72.1736,18.2277,53.3409],[-72.1707,18.2265,0.0],[-72.1585,18.2316,22.0862],[-72.1449,18.2293,1.4559],[-72.1335,18.2318,0.0],[-72.1268,18.2289,42.9145],[-72.1268,18.2276,0.0],[-72.1207,18.2309,64.2405],[-72.1182,18.2301,0.0],[-72.0999,18.2354,0.0],[-72.0907,18.2351,0.0],[-72.089,18.2335,0.0],[-72.084,18.2382,7.477],[-72.0749,18.2357,2.7088],[-72.0682,18.236,3.4035],[-72.0671,18.2343,0.7811],[-72.0624,18.2365,0.0],[-72.0529,18.2371,29.8659],[-72.0482,18.2332,0.0],[-72.0401,18.2313,7.8744],[-72.0385,18.2243,0.0],[-72.0338,18.2193,5.8853],[-72.0343,18.2168,0.0],[-72.0156,18.209,5.7492],[-72.0096,18.2049,0.0],[-72.0035,18.2093,0.0],[-72.0018,18.2135,4.5542],[-71.9999,18.2135,0.0],[-71.994,18.2113,1.3105],[-71.9904,18.2068,16.5646],[-71.9904,18.2043,16.8228],[-71.984,18.2012,12.0013],[-71.9603,18.1953,0.0],[-71.9406,18.193,31.6279],[-71.9327,18.1897,0.0],[-71.9271,18.1894,7.5486],[-71.921,18.1857,27.5454],[-71.9124,18.1761,17.3998],[-71.9117,18.1702,2.2497],[-71.9021,18.1682,30.0461],[-71.8979,18.1654,2.6193],[-71.8932,18.1576,2.789],[-71.8843,18.156,3.0796],[-71.881,18.1496,0.0],[-71.8704,18.1465,0.0],[-71.8674,18.1418,0.0],[-71.8614,18.1385,3.6341],[-71.8607,18.1346,0.0],[-71.8507,18.1236,16.133],[-71.8501,18.1212,1.9532],[-71.8432,18.119,5.2183],[-71.8404,18.1154,0.0],[-71.829,18.1074,3.3489],[-71.8259,18.1025,0.0],[-71.8224,18.1012,12.9266],[-71.8179,18.0964,2.842],[-71.8181,18.0929,6.1935],[-71.8146,18.086,2.8335],[-71.8178,18.0794,0.0],[-71.8122,18.0731,0.0],[-71.8087,18.0721,2.4113],[-71.7974,18.061,2.024],[-71.7932,18.0597,3.2295],[-71.7818,18.049,0.0],[-71.7677,18.0421,1.804],[-71.7639,18.0387,0.0],[-71.7602,18.0317,0.0],[-71.7531,18.0301,0.0],[-71.7498,18.034,11.3416],[-71.7487,18.0425,18.4708],[-71.7377,18.0499,28.4943],[-71.7357,18.0554,36.2421],[-71.7357,18.0666,69.0859],[-71.733,18.0667,90.8962],[-71.731,18.0694,116.1104],[-71.7311,18.0779,125.1171],[-71.7271,18.0799,174.6169],[-71.7291,18.0892,183.6598],[-71.733,18.09,125.4079],[-71.7283,18.0947,193.2245],[-71.7283,18.0966,212.1049],[-71.7311,18.1013,207.56],[-71.737799999999993,18.1001,142.3474],[-71.7386,18.1047,221.4369],[-71.7433,18.1125,179.1848],[-71.7394,18.116,256.1555],[-71.7394,18.1218,221.588],[-71.737799999999993,18.1226,308.3831],[-71.7406,18.1253,255.8447],[-71.7406,18.1265,268.6008],[-71.737799999999993,18.1265,309.0444],[-71.7394,18.1319,286.9855],[-71.7359,18.132,358.3457],[-71.7386,18.1386,320.5053],[-71.7433,18.1385,246.0765],[-71.7414,18.1421,329.2711],[-71.7386,18.1413,317.626],[-71.7394,18.1487,324.9298],[-71.7414,18.1498,364.3284],[-71.7426,18.1487,306.86],[-71.7461,18.142,253.3367],[-71.7473,18.1479,207.0448],[-71.75,18.1479,212.0461],[-71.7508,18.1459,252.9958],[-71.75,18.1486,212.0461],[-71.7488,18.1498,238.6221],[-71.75,18.1525,316.2588],[-71.7536,18.1533,312.3954],[-71.7536,18.156,314.9992],[-71.7575,18.158,302.0529],[-71.7567,18.1599,307.867],[-71.7595,18.1599,309.2151],[-71.7614,18.1626,325.2499],[-71.7614,18.1653,332.7173],[-71.7583,18.1665,346.4493],[-71.7583,18.1692,353.1427],[-71.768,18.1677,296.0459],[-71.7744,18.17,325.0488],[-71.7763,18.1692,327.7769],[-71.7771,18.1739,376.1459]]],
[[[-73.0079,18.1863,0.0],[-73.0068,18.1857,0.3818],[-73.0052,18.1857,0.0],[-73.0088,18.1868,0.0],[-73.0079,18.1863,0.0]]]]}
,"properties": {"GID_1": "HTI.9_1","GID_0": "HTI","country": "Haiti","province": "Sud-Est","VARNAME_1": "NA","NL_NAME_1": "NA","TYPE_1": "Département","ENGTYPE_1": "Department","CC_1": "NA","HASC_1": "HT.SE","ISO_1": "HT-SE","name": "Sud-Est.province","area_km2": 2075.394,"hist_schema_id": "Elevation0-9000","hist_area_km2": {"0": 31.041,"25": 60.448,"50": 54.823,"75": 46.91,"100": 50.796,"125": 59.738,"150": 59.313,"175": 58.445,"200": 65.332,"225": 63.216,"250": 64.745,"275": 65.347,"300": 62.505,"325": 68.707,"350": 65.484,"375": 66.892,"400": 65.925,"425": 66.144,"450": 64.008,"475": 57.201,"500": 49.247,"525": 46.548,"550": 44.575,"575": 42.984,"600": 40.588,"625": 38.03,"650": 34.608,"675": 31.567,"700": 29.534,"725": 26.414,"750": 24.36,"775": 23.716,"800": 22.066,"825": 18.058,"850": 14.777,"875": 12.985,"900": 12.119,"925": 11.898,"950": 10.226,"975": 10.489,"1000": 11.475,"1025": 10.488,"1050": 10.227,"1075": 10.287,"1100": 10.368,"1125": 10.327,"1150": 9.925,"1175": 10.448,"1200": 9.804,"1225": 9.623,"1250": 8.898,"1275": 9.039,"1300": 7.911,"1325": 8.294,"1350": 8.173,"1375": 8.012,"1400": 7.971,"1425": 8.797,"1450": 9.038,"1475": 7.81,"1500": 8.414,"1525": 8.172,"1550": 6.582,"1575": 7.407,"1600": 6.924,"1625": 7.246,"1650": 7.125,"1675": 7.347,"1700": 7.045,"1725": 6.099,"1750": 5.897,"1775": 5.455,"1800": 5.595,"1825": 6.3,"1850": 6.4,"1875": 5.615,"1900": 5.696,"1925": 4.951,"1950": 3.401,"1975": 2.979,"2000": 3.099,"2025": 2.677,"2050": 2.798,"2075": 2.455,"2100": 2.757,"2125": 2.254,"2150": 2.073,"2175": 1.509,"2200": 1.208,"2225": 0.604,"2250": 0.382,"2275": 0.181,"2300": 0.02}}}