{"type":"Feature","properties":{"GID_2":"DOM.31.1_1","GID_0":"DOM","country":"DominicanRepublic","GID_1":"DOM.31_1","province":"SantoDomingo","NL_NAME_1":"NA","county":"BocaChica","VARNAME_2":"NA","NL_NAME_2":"NA","TYPE_2":"Municipio","ENGTYPE_2":"Municipality","CC_2":"NA","HASC_2":"DO.SD.BC","name":"Boca_Chica.county"},
"geometry":{"type": "MultiPolygon","coordinates": [[[[-69.6249,18.4415,3.2226],[-69.6279,18.4404,1.4744],[-69.629,18.4371,0.0],[-69.6212,18.4385,0.0],[-69.6176,18.4407,0.0],[-69.619,18.441,0.0],[-69.6237,18.4393,0.0],[-69.6249,18.4415,3.2226]]],
[[[-69.5075,18.4753,49.6933],[-69.5066,18.4772,48.3297],[-69.5549,18.478,33.3897],[-69.5682,18.4842,31.311],[-69.5792,18.4938,27.8541],[-69.597,18.5027,30.3312],[-69.6126,18.5083,19.8066],[-69.624,18.5097,21.4332],[-69.6417,18.5196,22.9408],[-69.6573,18.5233,23.7073],[-69.6598,18.5209,21.2962],[-69.6573,18.5115,18.6139],[-69.6595,18.5048,20.8965],[-69.6604,18.491,32.235],[-69.665,18.4894,28.1595],[-69.6935,18.4912,32.2703],[-69.6956,18.4869,39.1105],[-69.696,18.4709,25.3063],[-69.6992,18.459,11.7039],[-69.7025,18.454,2.9537],[-69.6907,18.4515,0.0],[-69.6824,18.4463,0.0],[-69.6815,18.4324,2.4355],[-69.6779,18.4215,0.0],[-69.6693,18.4101,0.0],[-69.6621,18.4065,0.0],[-69.6476,18.404,5.7024],[-69.6365,18.4001,0.0],[-69.631,18.4004,0.0],[-69.6274,18.404,1.5229],[-69.6265,18.4093,0.0],[-69.6329,18.4387,0.0],[-69.6301,18.4415,0.0],[-69.6279,18.441,0.0],[-69.6268,18.4435,0.0],[-69.6243,18.4437,0.0],[-69.6229,18.4474,8.474],[-69.6074,18.4465,0.0],[-69.601,18.4479,3.1739],[-69.5915,18.4463,4.3592],[-69.5771,18.4363,2.3093],[-69.5749,18.4365,4.6831],[-69.5743,18.4338,1.5692],[-69.5699,18.4313,6.648],[-69.5696,18.4287,0.0],[-69.5674,18.4285,0.0],[-69.5676,18.4263,0.0],[-69.5635,18.4212,0.0],[-69.5604,18.4204,2.7839],[-69.5485,18.4096,1.3593],[-69.536,18.4054,0.0],[-69.515,18.4035,0.0],[-69.5112,18.4283,46.4001],[-69.5114,18.443,50.1381],[-69.5141,18.4517,48.5174],[-69.5143,18.4647,49.4851],[-69.5131,18.4679,52.4943],[-69.5091,18.4704,51.1766],[-69.5075,18.4753,49.6933]]]]}}