{"type": "Feature","bbox": [-66.1179,18.1137,-65.9978,18.3126],"geometry": {"type": "MultiPolygon","coordinates": [[[[-66.1179,18.21,484.9489],[-66.1092,18.201,472.1955],[-66.1017,18.1828,350.724],[-66.105,18.1714,475.725],[-66.1026,18.1695,458.5729],[-66.0953,18.169,470.2688],[-66.0805,18.1523,715.1715],[-66.0657,18.1481,573.3798],[-66.0694,18.1423,570.9514],[-66.0689,18.1399,565.2568],[-66.0583,18.1161,871.5601],[-66.055,18.1137,833.356],[-66.0426,18.1142,661.7975],[-66.0352,18.1195,634.5377],[-66.0329,18.1295,604.425],[-66.0241,18.1357,556.293],[-66.0204,18.1438,565.4805],[-66.0232,18.1533,584.3451],[-66.0222,18.1653,385.2399],[-66.013,18.1824,265.9924],[-66.0038,18.1858,294.9579],[-65.9982,18.1924,289.8773],[-66.0001,18.1977,311.3792],[-65.9978,18.2072,67.2166],[-65.9996,18.2182,60.2409],[-66.0107,18.221,55.0969],[-66.0139,18.2253,62.3771],[-66.0084,18.2334,55.9848],[-66.0084,18.2377,53.0463],[-66.0149,18.2454,49.4544],[-66.0107,18.2501,61.8019],[-66.0144,18.2644,57.3549],[-66.007,18.2668,44.3958],[-66.0089,18.2721,48.3995],[-66.0079,18.2778,44.2525],[-66.0172,18.2811,41.4293],[-66.0301,18.2907,71.1878],[-66.0297,18.303,39.0],[-66.0218,18.305,39.0],[-66.0283,18.3102,150.7432],[-66.0343,18.3092,126.8882],[-66.0426,18.3126,227.9049],[-66.0473,18.3092,151.7148],[-66.0454,18.2992,86.0548],[-66.0473,18.2983,64.0194],[-66.0487,18.2978,62.3325],[-66.0528,18.303,75.3709],[-66.0662,18.303,84.7739],[-66.0768,18.2592,171.0002],[-66.0773,18.2496,101.2262],[-66.0851,18.2358,331.9881],[-66.1032,18.2162,463.6194],[-66.1179,18.21,484.9489]]]]}
,"properties": {"GID_1": "PRI.13_1","GID_0": "PRI","country": "PuertoRico","province": "Caguas","VARNAME_1": "NA","NL_NAME_1": "NA","TYPE_1": "Municipio","ENGTYPE_1": "Municipality","CC_1": "NA","HASC_1": "PR.CG","ISO_1": "-","name": "Caguas.province","area_km2": 152.8637,"hist_schema_id": "Elevation0-9000","hist_area_km2": {"50": 12.0608,"75": 24.0023,"100": 17.7004,"125": 10.8546,"150": 7.8948,"175": 6.6259,"200": 7.0894,"225": 5.5992,"250": 5.2569,"275": 7.3922,"300": 6.0225,"325": 5.8614,"350": 5.4788,"375": 4.331,"400": 4.2908,"425": 4.5326,"450": 4.0087,"475": 3.7671,"500": 2.216,"525": 1.5917,"550": 1.2492,"575": 1.2291,"600": 0.947,"625": 0.6649,"650": 0.6448,"675": 0.403,"700": 0.2217,"725": 0.1813,"750": 0.2418,"775": 0.1612,"800": 0.1008,"825": 0.1209,"850": 0.0806,"875": 0.0403}}}