{"type": "Feature","id": "5126","bbox": [-63.07272,18.22672,-63.04411,18.24578],"geometry": {"type": "Polygon","coordinates": [[[-63.04811,18.23544,39.1237],[-63.06116,18.24578,0.0],[-63.06778,18.23648,9.1484],[-63.07272,18.23135,10.4767],[-63.04697,18.22672,30.5931],[-63.04411,18.23227,53.6245],[-63.04811,18.23544,39.1237]]]}
,"properties": {"ISO3166-1-Alpha-3": "AIA","country": "Anguilla","fill": "#FF0","name": "The Valley","area_km2": 3.222,"hist_schema_id": "Elevation0-9000","hist_area_km2": {"0": 0.46315,"25": 1.510304,"50": 1.248546}}}