{"type": "Feature","bbox": [-63.0758,18.2052,-63.0505,18.2203],"geometry": {"type": "MultiPolygon","coordinates": [[[[-63.0516,18.2109,30.784],[-63.0505,18.2169,14.5742],[-63.0628,18.22,40.1398],[-63.0678,18.2203,0.0],[-63.0758,18.2128,0.0],[-63.0687,18.2112,45.9959],[-63.0693,18.2052,52.2612],[-63.0516,18.2109,30.784]]]]}
,"properties": {"GID_1": "AIA.13_1","GID_0": "AIA","country": "Anguilla","state": "TheValley","VARNAME_1": "NA","NL_NAME_1": "NA","TYPE_1": "District","ENGTYPE_1": "District","CC_1": "NA","HASC_1": "AI.TV","ISO_1": "NA","name": "TheValley.state","area_km2": 2.638328,"hist_schema_id": "Elevation0-9000","hist_area_km2": {"0": 0.161116,"25": 1.006989,"50": 1.309105,"75": 0.161118}}}