{"type": "Feature","bbox": [-70.453,19.2242,-70.2409,19.5568],"geometry": {"type": "MultiPolygon","coordinates": [[[[-70.352,19.3295,120.2406],[-70.3525,19.3314,126.5162],[-70.346,19.3364,127.0208],[-70.339,19.3297,120.7427],[-70.335,19.3299,122.2865],[-70.3282,19.3501,147.8511],[-70.3242,19.3561,158.9499],[-70.3281,19.3661,170.357],[-70.3233,19.3692,177.8918],[-70.3204,19.3737,182.0838],[-70.3192,19.3862,280.9132],[-70.3097,19.3917,430.724],[-70.3008,19.4052,479.9753],[-70.2941,19.4109,399.3403],[-70.2899,19.4187,375.3252],[-70.2792,19.4221,350.0185],[-70.2776,19.4322,340.1767],[-70.2745,19.4361,399.1686],[-70.2661,19.4402,410.9326],[-70.2599,19.4385,431.8427],[-70.2574,19.4399,400.1284],[-70.2577,19.4453,309.6053],[-70.2628,19.4486,319.6013],[-70.2668,19.4485,304.723],[-70.2752,19.4439,330.4819],[-70.2777,19.4452,334.8645],[-70.2796,19.4514,321.8124],[-70.2878,19.4493,338.0419],[-70.292,19.4502,331.4935],[-70.2924,19.4525,353.0116],[-70.2878,19.4581,365.3076],[-70.2871,19.4621,339.9431],[-70.2878,19.4662,323.5281],[-70.2926,19.4728,331.1596],[-70.2918,19.4758,347.218],[-70.2804,19.4827,344.3889],[-70.2699,19.4777,343.3626],[-70.2547,19.478,359.5254],[-70.2518,19.4813,382.15],[-70.2506,19.4879,389.5895],[-70.244,19.4966,462.9694],[-70.2471,19.5034,478.483],[-70.2409,19.5144,475.45],[-70.2557,19.5144,417.1752],[-70.2673,19.5223,304.8491],[-70.2844,19.5236,178.1274],[-70.2866,19.5259,196.7246],[-70.2879,19.5338,293.1915],[-70.2943,19.5491,210.5837],[-70.2992,19.5535,202.1187],[-70.3074,19.5568,170.1058],[-70.3165,19.5563,97.5066],[-70.3202,19.5488,135.6109],[-70.3341,19.5442,339.8654],[-70.3374,19.5328,581.8939],[-70.3381,19.5212,589.9205],[-70.3411,19.5121,626.2838],[-70.3466,19.5089,608.3033],[-70.3518,19.5116,607.8246],[-70.3543,19.5186,572.5518],[-70.3736,19.5283,569.8906],[-70.3895,19.5293,396.7805],[-70.3969,19.5324,308.9819],[-70.4047,19.5394,401.2474],[-70.4096,19.5496,302.3799],[-70.417,19.5438,216.4971],[-70.4159,19.5344,283.6016],[-70.4187,19.53,429.2705],[-70.4263,19.5252,396.6534],[-70.4275,19.5126,439.85],[-70.4373,19.4961,399.8346],[-70.4292,19.4788,422.6817],[-70.4242,19.4719,479.3976],[-70.4241,19.4667,488.6643],[-70.4262,19.4622,463.9225],[-70.4213,19.4522,599.7004],[-70.4208,19.4427,494.4135],[-70.4219,19.4386,502.3111],[-70.4295,19.4269,361.5576],[-70.4297,19.4193,312.5006],[-70.4282,19.4136,266.9828],[-70.4302,19.4061,246.4529],[-70.4411,19.3881,216.9094],[-70.4396,19.3782,179.6416],[-70.4454,19.3672,184.0552],[-70.4477,19.3658,185.847],[-70.4482,19.3583,165.3618],[-70.453,19.3497,156.4517],[-70.4505,19.3364,139.6239],[-70.4422,19.33,132.2168],[-70.4437,19.323,124.4465],[-70.4367,19.3154,117.903],[-70.4335,19.3092,114.0915],[-70.4358,19.3002,104.077],[-70.4349,19.295,101.7228],[-70.4219,19.2852,93.5998],[-70.4124,19.2833,91.4698],[-70.4093,19.28,88.0423],[-70.4091,19.265,81.2509],[-70.4112,19.2573,78.3309],[-70.4076,19.2531,75.6328],[-70.4074,19.2495,73.8622],[-70.4046,19.2449,71.1451],[-70.4063,19.2297,67.3644],[-70.4046,19.225,65.5993],[-70.3555,19.2242,62.9657],[-70.3559,19.2364,65.2831],[-70.3638,19.2415,67.8306],[-70.3674,19.2553,73.2923],[-70.3605,19.2698,77.1366],[-70.3428,19.2869,89.9439],[-70.3408,19.2906,97.6529],[-70.341,19.2966,96.3828],[-70.3459,19.3124,99.0297],[-70.344,19.322,113.7886],[-70.352,19.3295,120.2406]]]]}
,"properties": {"GID_1": "DOM.22_1","GID_0": "DOM","country": "DominicanRepublic","province": "Salcedo","VARNAME_1": "HermanasMirabal","NL_NAME_1": "NA","TYPE_1": "Provincia","ENGTYPE_1": "Province","CC_1": "NA","HASC_1": "DO.SC","ISO_1": "NA","name": "Salcedo.province","area_km2": 424.7776,"hist_schema_id": "Elevation0-9000","hist_area_km2": {"50": 0.0601,"75": 33.4669,"100": 30.9357,"125": 30.9883,"150": 35.8239,"175": 29.9588,"200": 20.676,"225": 14.8159,"250": 9.4164,"275": 7.2569,"300": 7.3967,"325": 10.0553,"350": 17.9317,"375": 21.2309,"400": 19.972,"425": 17.5332,"450": 15.4534,"475": 11.6346,"500": 8.8757,"525": 10.0546,"550": 8.5556,"575": 8.7354,"600": 7.3557,"625": 7.7155,"650": 8.4752,"675": 7.5157,"700": 7.356,"725": 7.1562,"750": 3.8578,"775": 2.6386,"800": 1.3793,"825": 0.4797,"850": 0.02}}}