{"type": "Feature","bbox": [-76.0885,20.3319,-75.8239,20.5902],"geometry": {"type": "MultiPolygon","coordinates": [[[[-76.0461,20.5901,104.246],[-76.0481,20.5883,102.1047],[-76.0481,20.5824,100.799],[-76.0461,20.5765,98.5513],[-76.0337,20.5569,97.1798],[-76.0336,20.5502,93.9833],[-76.0369,20.5466,90.9637],[-76.0656,20.5459,86.6738],[-76.0739,20.5429,82.1548],[-76.0885,20.5224,79.6881],[-76.0866,20.5165,78.0235],[-76.0793,20.5089,75.5],[-76.0761,20.4836,80.8991],[-76.0624,20.4628,81.4631],[-76.0597,20.447,81.1221],[-76.0348,20.4357,85.4998],[-76.0189,20.4243,87.8011],[-76.0038,20.4166,86.7473],[-75.9174,20.3385,112.3999],[-75.8929,20.3394,118.2773],[-75.8739,20.3329,143.4114],[-75.858,20.3319,237.1929],[-75.8359,20.3402,148.2642],[-75.8285,20.3459,228.9924],[-75.8246,20.3573,179.6274],[-75.8255,20.3901,398.7989],[-75.8429,20.4295,567.4404],[-75.8239,20.436,500.2951],[-75.8401,20.4593,788.2112],[-75.8484,20.4769,329.8946],[-75.8541,20.4797,212.3556],[-75.8621,20.4799,266.3931],[-75.8764,20.4748,257.0316],[-75.8813,20.4747,228.9883],[-75.8949,20.4849,136.8964],[-75.9042,20.485,139.884],[-75.9128,20.4767,126.3507],[-75.9146,20.4767,122.3777],[-75.9175,20.479,107.0752],[-75.9141,20.5032,95.8334],[-75.9142,20.5112,81.0799],[-75.9162,20.5156,79.5646],[-75.9218,20.5199,74.2864],[-75.9281,20.5222,76.4104],[-75.9545,20.5237,85.6138],[-75.9595,20.526,87.0069],[-75.9609,20.5333,86.2001],[-75.9584,20.5508,79.0807],[-75.9597,20.5549,84.7717],[-75.9663,20.5592,89.126],[-75.9943,20.5621,124.5521],[-76.0024,20.565,137.3332],[-76.0291,20.5862,110.388],[-76.0398,20.5902,107.4593],[-76.0461,20.5901,104.246]]]]}
,"properties": {"GID_2": "CUB.15.3_1","GID_0": "CUB","country": "Cuba","GID_1": "CUB.15_1","province": "SantiagodeCuba","NL_NAME_1": "NA","county": "Mella","VARNAME_2": "NA","NL_NAME_2": "NA","TYPE_2": "Municipio","ENGTYPE_2": "Municipality","CC_2": "NA","HASC_2": "CU.SC.ME","name": "Mella.county","area_km2": 412.0542,"hist_schema_id": "Elevation0-9000","hist_area_km2": {"50": 0.0397,"75": 64.6858,"100": 174.9176,"125": 56.2885,"150": 23.8069,"175": 10.0552,"200": 7.71,"225": 8.664,"250": 8.306,"275": 6.6367,"300": 6.12,"325": 4.3316,"350": 5.0669,"375": 3.7753,"400": 4.3714,"425": 4.272,"450": 3.9738,"475": 3.4372,"500": 3.9736,"525": 2.4835,"550": 1.947,"575": 1.5497,"600": 0.9934,"625": 1.0133,"650": 1.2516,"675": 0.755,"700": 0.5364,"725": 0.3576,"750": 0.5562,"775": 0.1788}}}