{"type":"Feature","properties":{"GID_1":"PRI.60_1","GID_0":"PRI","country":"PuertoRico","province":"Rincón","VARNAME_1":"NA","NL_NAME_1":"NA","TYPE_1":"Municipio","ENGTYPE_1":"Municipality","CC_1":"NA","HASC_1":"PR.RC","ISO_1":"NA","name":"Rincón.province"},
"geometry":{"type": "MultiPolygon","coordinates": [[[[-67.2396,18.3757,0.0],[-67.2446,18.3751,1.0367],[-67.2476,18.3713,11.5864],[-67.2485,18.3732,1.7661],[-67.2501,18.3732,1.7661],[-67.2682,18.3682,2.9968],[-67.2704,18.3665,2.4054],[-67.2718,18.361,2.4334],[-67.2693,18.3546,0.0],[-67.2618,18.3443,1.5076],[-67.2582,18.3435,1.2039],[-67.256,18.341,6.2765],[-67.2482,18.3207,0.0],[-67.2429,18.3143,3.0832],[-67.2363,18.3004,0.0],[-67.226,18.2964,0.0],[-67.2202,18.3059,79.739],[-67.2086,18.3066,142.598],[-67.2018,18.3105,197.1259],[-67.1939,18.3077,232.4721],[-67.1819,18.3117,330.7361],[-67.1879,18.3159,297.9416],[-67.1955,18.3306,188.0972],[-67.2104,18.3361,135.1938],[-67.2272,18.3487,42.6163],[-67.2259,18.3573,34.9504],[-67.2274,18.3607,32.0034],[-67.2396,18.3757,0.0]]]]}}