{"type":"Feature","properties":{"GID_3":"HTI.8.5.5_1","GID_0":"HTI","country":"Haiti","GID_1":"HTI.8_1","province":"Ouest","NL_NAME_1":"NA","GID_2":"HTI.8.5_1","county":"Port-au-Prince","NL_NAME_2":"NA","city":"Pétion-Ville","VARNAME_3":"NA","NL_NAME_3":"NA","TYPE_3":"Commune","ENGTYPE_3":"Commune","CC_3":"NA","HASC_3":"NA","name":"Pétion-Ville.city"},
"geometry":{"type": "MultiPolygon","coordinates": [[[[-72.1943,18.4968,198.0475],[-72.2074,18.5103,152.8221],[-72.2104,18.5216,128.5663],[-72.2201,18.5344,101.4326],[-72.2294,18.5508,80.7568],[-72.2394,18.5441,104.876],[-72.2387,18.5405,115.7163],[-72.2434,18.5381,112.603],[-72.2482,18.5323,136.2021],[-72.2493,18.5338,145.3177],[-72.2585,18.5288,179.0714],[-72.2627,18.5331,193.4938],[-72.2601,18.5361,236.5773],[-72.2674,18.5425,157.1741],[-72.2729,18.5429,163.3808],[-72.2747,18.5411,166.7415],[-72.2867,18.5419,166.8276],[-72.2886,18.5302,242.8011],[-72.2872,18.528,252.39],[-72.2936,18.5303,223.6317],[-72.3004,18.5304,217.0783],[-72.3024,18.532,201.0907],[-72.3026,18.5288,226.6155],[-72.3062,18.5293,257.7756],[-72.3077,18.5269,262.1409],[-72.3093,18.5271,221.6585],[-72.3081,18.5186,373.6409],[-72.3146,18.5054,918.5215],[-72.339,18.4984,959.8406],[-72.353,18.4976,913.1501],[-72.3512,18.4915,602.5751],[-72.365,18.4884,503.0995],[-72.3641,18.4809,699.1873],[-72.3673,18.478,803.9564],[-72.3651,18.4709,895.5779],[-72.3712,18.4661,1079.8611],[-72.3748,18.4667,1124.363],[-72.3744,18.4641,1154.491],[-72.3621,18.4571,1375.001],[-72.3558,18.4598,1399.0334],[-72.3495,18.4562,1566.6487],[-72.3463,18.4586,1584.1553],[-72.3423,18.4584,1578.421],[-72.336,18.4526,1653.2141],[-72.3208,18.4448,1711.321],[-72.3158,18.447,1623.1946],[-72.3102,18.446,1570.1729],[-72.3039,18.4568,1334.1372],[-72.3019,18.4646,1076.9769],[-72.2993,18.4659,1049.6809],[-72.2974,18.4635,1200.7401],[-72.2946,18.4635,1157.4594],[-72.2952,18.4678,1238.5814],[-72.2977,18.4702,1205.8687],[-72.2964,18.4756,1106.0123],[-72.301,18.4782,1110.1537],[-72.3005,18.4816,1114.3938],[-72.2953,18.4838,1055.7744],[-72.292,18.4832,1076.8774],[-72.2882,18.481,1013.1934],[-72.2918,18.4767,1129.1641],[-72.2878,18.4734,1217.3916],[-72.2826,18.4606,1186.7532],[-72.2668,18.458,1091.7573],[-72.2622,18.46,1162.3901],[-72.2583,18.4571,1079.8667],[-72.2475,18.46,1029.4227],[-72.2444,18.4641,1223.158],[-72.2365,18.4679,1257.0781],[-72.2361,18.4608,1169.2195],[-72.2302,18.4581,1051.5557],[-72.2294,18.455,1020.5018],[-72.2261,18.4535,937.7159],[-72.2246,18.4505,879.94],[-72.2263,18.4479,810.3817],[-72.2305,18.4489,1004.8231],[-72.2306,18.4424,837.4465],[-72.2283,18.4434,814.6425],[-72.2268,18.4423,840.1837],[-72.2188,18.4297,996.2104],[-72.2129,18.4282,880.3269],[-72.2118,18.4202,680.7979],[-72.2066,18.425,893.0045],[-72.2045,18.4249,871.3467],[-72.2019,18.4216,816.1779],[-72.1987,18.4224,709.5982],[-72.1922,18.4195,550.3911],[-72.1822,18.4194,447.3837],[-72.1782,18.4176,444.0676],[-72.177,18.4211,462.7037],[-72.1724,18.424,435.3661],[-72.1727,18.4294,441.6948],[-72.1649,18.4297,427.2964],[-72.1667,18.4336,407.3013],[-72.1709,18.432,435.9906],[-72.1738,18.4351,399.2213],[-72.1786,18.43,399.4015],[-72.1795,18.4346,366.3231],[-72.1789,18.4365,372.6778],[-72.1737,18.4389,389.0767],[-72.1763,18.4428,378.8316],[-72.1754,18.4462,353.2731],[-72.172,18.4462,388.4833],[-72.1703,18.4481,381.2874],[-72.1612,18.4505,365.8191],[-72.1596,18.4522,378.2389],[-72.1589,18.4599,317.948],[-72.1607,18.4649,308.5334],[-72.1593,18.4687,290.6485],[-72.1642,18.4697,288.662],[-72.1682,18.4686,368.9878],[-72.1688,18.4709,306.9005],[-72.1661,18.4719,275.3092],[-72.166,18.4735,364.7493],[-72.1711,18.4745,278.7098],[-72.1687,18.4767,263.4382],[-72.1735,18.4822,289.4678],[-72.1746,18.4824,260.8508],[-72.1752,18.48,289.3225],[-72.1776,18.4803,302.2468],[-72.1756,18.4833,260.8508],[-72.178,18.4849,249.356],[-72.1796,18.4852,242.8692],[-72.1827,18.4798,253.6516],[-72.1851,18.4816,310.9762],[-72.1837,18.4833,247.0912],[-72.1876,18.4832,246.6672],[-72.1886,18.4891,314.8369],[-72.1943,18.4968,198.0475]]]]}}