{"type":"Feature","properties":{"GID_1":"TTO.6_1","GID_0":"TTO","country":"TrinidadandTobago","province":"Penal-Debe","VARNAME_1":"Penal","NL_NAME_1":"NA","TYPE_1":"Region","ENGTYPE_1":"Region","CC_1":"NA","HASC_1":"TT.PD","ISO_1":"TT-PED","name":"Penal-Debe.province"},
"geometry":{"type": "MultiPolygon","coordinates": [[[[-61.3815,10.0707,19.5355],[-61.3825,10.181,20.2692],[-61.3847,10.1854,20.0613],[-61.383,10.187,16.8932],[-61.3772,10.187,15.6479],[-61.375,10.1891,14.3121],[-61.3777,10.1918,14.3967],[-61.374,10.1945,14.3256],[-61.3749,10.2085,17.2429],[-61.3771,10.2128,29.473],[-61.3765,10.2161,43.2852],[-61.3712,10.2203,47.9894],[-61.3722,10.2268,48.3554],[-61.3866,10.236,45.8569],[-61.3983,10.2469,51.2974],[-61.4052,10.2485,51.149],[-61.41,10.2453,34.0538],[-61.425,10.2497,39.3996],[-61.434,10.2546,22.6458],[-61.4448,10.2651,19.3381],[-61.4474,10.2605,15.8501],[-61.457,10.2611,9.7958],[-61.4645,10.2596,21.4218],[-61.4741,10.2548,6.8144],[-61.4811,10.2532,29.9515],[-61.4875,10.2478,24.0398],[-61.5046,10.2455,0.0],[-61.5213,10.2368,11.2504],[-61.5218,10.234,4.7978],[-61.5191,10.2313,14.5862],[-61.5015,10.2242,9.4477],[-61.5004,10.2214,5.5811],[-61.5025,10.2193,1.6571],[-61.5015,10.2161,0.4737],[-61.4908,10.209,0.6605],[-61.4791,10.2079,1.1504],[-61.469,10.2046,1.586],[-61.4679,10.2025,1.3854],[-61.4717,10.1938,1.5865],[-61.4754,10.1782,4.7455],[-61.4734,10.1691,10.1643],[-61.4691,10.1685,17.9316],[-61.4675,10.1663,12.1547],[-61.4734,10.1589,13.4956],[-61.4713,10.1432,14.7023],[-61.4778,10.1352,28.4545],[-61.4841,10.1336,25.3418],[-61.4932,10.1282,17.2884],[-61.506,10.1273,22.3961],[-61.5082,10.1235,35.542],[-61.5082,10.1148,45.5805],[-61.5141,10.1106,50.6749],[-61.51,10.1056,30.0225],[-61.5076,10.0966,60.7119],[-61.5034,10.0966,56.9186],[-61.5023,10.0949,58.9237],[-61.505,10.0932,50.2426],[-61.5094,10.0814,75.6646],[-61.5058,10.0716,0.0],[-61.5015,10.0713,13.8316],[-61.4982,10.0671,8.1808],[-61.486,10.0688,27.1591],[-61.479,10.0679,0.0],[-61.4604,10.0707,10.5509],[-61.4535,10.0737,0.0],[-61.446,10.0718,0.0],[-61.4326,10.0732,24.0165],[-61.4307,10.0715,0.0],[-61.4251,10.0745,23.5428],[-61.4104,10.0768,0.0],[-61.4068,10.0757,6.4443],[-61.4054,10.0735,0.0],[-61.3999,10.0743,14.3007],[-61.3963,10.0721,5.3311],[-61.3885,10.0726,36.4727],[-61.3851,10.069,4.2983],[-61.3815,10.0707,19.5355]]]]}}