{"type":"Feature","properties":{"ISO3166-1-Alpha-3":"TTO","country":"Trinidad and Tobago","fill":"#F0F","id":"59","name":"Penal-Debe"},
"geometry":{"type": "Polygon","coordinates": [[[-61.37909,10.07283,40.6412],[-61.37909,10.07287,40.6412],[-61.37284,10.21741,48.0329],[-61.38067,10.22775,42.848],[-61.39165,10.23767,40.7818],[-61.44149,10.25906,17.0528],[-61.48888,10.24801,25.1924],[-61.48991,10.2493,19.1183],[-61.49527,10.24502,21.9186],[-61.50658,10.24067,12.1066],[-61.51781,10.24026,0.0],[-61.52078,10.24014,0.0],[-61.51645,10.23354,16.1616],[-61.48919,10.20987,0.9824],[-61.47668,10.20212,0.8179],[-61.47157,10.19287,3.1317],[-61.4688,10.18574,1.5371],[-61.46924,10.16853,17.9316],[-61.4733,10.15023,18.7587],[-61.47797,10.14057,19.6357],[-61.49048,10.12605,19.7647],[-61.49557,10.11757,26.4166],[-61.49919,10.10667,43.4948],[-61.50415,10.06953,0.0],[-61.50414,10.06953,0.0],[-61.50308,10.06932,0.0],[-61.41747,10.07616,21.9853],[-61.37909,10.07283,40.6412]]]}}