{"type":"Feature","properties":{"GID_1":"HTI.1_1","GID_0":"HTI","country":"Haiti","province":"Centre","VARNAME_1":"PlateauCentral","NL_NAME_1":"NA","TYPE_1":"Département","ENGTYPE_1":"Department","CC_1":"NA","HASC_1":"HT.CE","ISO_1":"HT-CE","name":"Centre.province"},
"geometry":{"type": "MultiPolygon","coordinates": [[[[-71.7922,18.6955,1739.2874],[-71.7886,18.6924,1911.509],[-71.7839,18.6924,1894.5295],[-71.78,18.6955,1591.3165],[-71.78,18.7056,1347.0588],[-71.7781,18.7095,1300.0094],[-71.7699,18.7142,977.0358],[-71.7679,18.713,1052.7422],[-71.7322,18.7263,885.7847],[-71.7171,18.8084,1099.9644],[-71.7171,18.8298,831.4503],[-71.7155,18.8371,862.5917],[-71.7211,18.8457,699.5629],[-71.7211,18.8531,610.4576],[-71.7203,18.8791,375.1381],[-71.7172,18.883,366.2326],[-71.7184,18.885,361.9448],[-71.7219,18.8811,369.8377],[-71.7325,18.8822,406.9536],[-71.7313,18.8896,399.2825],[-71.7345,18.895,377.3714],[-71.7392,18.897,374.3947],[-71.7561,18.9101,361.701],[-71.7635,18.9109,367.6228],[-71.7785,18.9521,239.3019],[-71.777,18.9583,262.6803],[-71.7844,18.9602,271.9431],[-71.7864,18.9622,269.9765],[-71.7899,18.9567,236.2751],[-71.7919,18.9575,248.4989],[-71.7919,18.9602,254.7261],[-71.7993,18.9583,241.8412],[-71.7985,18.9614,246.178],[-71.804,18.9641,261.096],[-71.808,18.9629,249.3868],[-71.808,18.9668,247.5327],[-71.8099,18.9687,253.2153],[-71.8135,18.9668,251.9575],[-71.8221,18.9676,227.5765],[-71.8174,18.9722,264.2252],[-71.8182,18.9734,264.2252],[-71.8201,18.9714,252.2446],[-71.8229,18.9722,264.3806],[-71.8288,18.9668,213.9114],[-71.8323,18.9741,262.6247],[-71.835,18.9734,247.8968],[-71.8362,18.9701,202.6548],[-71.8395,18.9692,218.2953],[-71.8407,18.9662,205.9241],[-71.8456,18.9667,233.2547],[-71.8444,18.964,229.5687],[-71.8462,18.9621,204.4658],[-71.8499,18.9629,205.1599],[-71.8489,18.9606,199.4398],[-71.8508,18.9589,196.2047],[-71.8503,18.9613,194.9877],[-71.855,18.9667,239.7693],[-71.857,18.9667,243.9974],[-71.8558,18.9628,206.5956],[-71.8578,18.962,190.6073],[-71.8586,18.9582,218.37],[-71.857,18.9566,210.9104],[-71.857,18.9508,207.5987],[-71.8644,18.95,200.9941],[-71.8711,18.9527,212.9753],[-71.8728,18.948,178.176],[-71.8751,18.9489,194.3381],[-71.8763,18.9455,175.0966],[-71.8785,18.9461,180.0129],[-71.879,18.9568,191.2406],[-71.8748,18.9582,198.9924],[-71.8746,18.9601,177.8601],[-71.8711,18.9612,223.863],[-71.8699,18.964,210.7482],[-71.8719,18.9752,191.1901],[-71.8624,18.9788,183.2799],[-71.8584,18.9765,191.4097],[-71.8568,18.9771,183.7723],[-71.8563,18.9804,190.6715],[-71.8511,18.9815,214.0644],[-71.8523,18.9862,187.4012],[-71.8476,18.9908,186.0538],[-71.8484,18.9967,211.314],[-71.841,18.9947,198.4731],[-71.839,18.9999,192.5749],[-71.835,19.0008,190.3582],[-71.8345,19.0034,189.4854],[-71.8305,19.0041,205.6499],[-71.829,18.9955,198.937],[-71.8261,18.9935,220.7814],[-71.8192,18.9969,199.2217],[-71.8144,18.996,202.0725],[-71.8062,18.9983,207.0258],[-71.8046,18.9993,197.4815],[-71.8054,19.0015,198.8915],[-71.8021,19.0022,207.5432],[-71.8006,19.0034,212.6158],[-71.801,19.0051,204.1623],[-71.7991,19.0051,204.1495],[-71.7962,18.9996,204.0595],[-71.7984,18.9961,217.172],[-71.7917,18.9929,209.739],[-71.7891,18.9932,237.3568],[-71.7868,18.9968,224.3146],[-71.7833,18.9976,274.5871],[-71.7825,19.0014,247.2298],[-71.7872,19.0049,226.3392],[-71.7865,19.0115,214.5217],[-71.7806,19.0162,215.6335],[-71.7771,19.0143,214.029],[-71.7712,19.0174,265.8652],[-71.7731,19.0201,249.0798],[-71.7771,19.0201,238.3809],[-71.7786,19.0221,216.4323],[-71.7705,19.0317,218.7586],[-71.768,19.0318,218.7515],[-71.7647,19.0262,227.2834],[-71.7611,19.0273,220.6021],[-71.7607,19.0303,223.1982],[-71.7571,19.0314,229.6227],[-71.7563,19.0341,245.8717],[-71.7598,19.0388,227.442],[-71.7544,19.0435,232.9489],[-71.7495,19.0473,235.0326],[-71.7405,19.0433,247.3139],[-71.7377,19.0478,233.985],[-71.7363,19.047,235.9737],[-71.7342,19.0499,231.6421],[-71.7233,19.0536,253.6674],[-71.7255,19.0556,257.2882],[-71.7184,19.0586,262.3953],[-71.7167,19.06,236.7494],[-71.7172,19.0632,240.5569],[-71.716,19.0642,249.5565],[-71.714,19.063,261.6102],[-71.712,19.065,263.1613],[-71.712,19.0677,261.1582],[-71.7168,19.0688,243.7747],[-71.7162,19.0711,265.3097],[-71.7112,19.0706,253.1959],[-71.7101,19.0672,244.1496],[-71.7018,19.0731,249.465],[-71.6971,19.079,276.5656],[-71.6987,19.0809,281.6179],[-71.7046,19.0809,277.1666],[-71.7081,19.0828,264.6302],[-71.7074,19.0891,261.0519],[-71.7054,19.0902,272.038],[-71.698,19.0891,255.5255],[-71.6932,19.0922,328.35],[-71.6925,19.0949,427.0104],[-71.6952,19.1003,281.7697],[-71.6999,19.1015,277.4875],[-71.7027,19.1042,265.5879],[-71.7012,19.1074,268.1301],[-71.697,19.1086,265.6226],[-71.6849,19.103,306.5446],[-71.6823,19.1076,323.6047],[-71.6799,19.107,308.8308],[-71.6772,19.1117,336.0482],[-71.6792,19.1136,367.8613],[-71.673,19.1128,331.8584],[-71.6706,19.1174,347.2122],[-71.6631,19.1129,340.5969],[-71.6557,19.1173,347.4854],[-71.6543,19.1155,346.3958],[-71.6512,19.1227,364.8056],[-71.6501,19.1203,361.102],[-71.6502,19.1238,372.9956],[-71.647,19.1257,379.6385],[-71.6443,19.1304,365.562],[-71.6455,19.1311,384.7665],[-71.6435,19.1331,394.3794],[-71.6443,19.1358,391.2811],[-71.6416,19.1397,396.0655],[-71.6502,19.1444,485.9445],[-71.6502,19.1463,539.5546],[-71.6529,19.1482,544.6925],[-71.649,19.1471,612.3937],[-71.6416,19.1498,553.9355],[-71.6416,19.151,450.239],[-71.6376,19.1498,347.3647],[-71.6361,19.1518,490.382],[-71.6433,19.1582,554.0358],[-71.6396,19.1591,358.0893],[-71.6416,19.1603,517.8572],[-71.6416,19.1623,458.8525],[-71.6396,19.1611,384.9204],[-71.6388,19.1623,356.2324],[-71.6396,19.1669,481.0183],[-71.6416,19.1669,495.9631],[-71.6413,19.1682,577.3107],[-71.6361,19.1667,541.2592],[-71.6365,19.1688,599.2025],[-71.6337,19.1689,578.0894],[-71.6377,19.1731,570.6044],[-71.6322,19.1716,427.8871],[-71.6322,19.1743,422.4384],[-71.6302,19.1732,404.9749],[-71.6295,19.1743,367.7639],[-71.635,19.1778,478.8871],[-71.635,19.1798,519.1777],[-71.6436,19.1817,641.9295],[-71.6397,19.1825,708.8434],[-71.6408,19.1856,786.5544],[-71.6342,19.1836,574.5321],[-71.6314,19.1883,565.46],[-71.6314,19.1872,565.46],[-71.6283,19.1872,478.9933],[-71.6275,19.1883,478.9933],[-71.6267,19.1864,532.5118],[-71.6236,19.1872,394.0704],[-71.6248,19.1872,394.0704],[-71.6248,19.1891,372.8935],[-71.6228,19.1911,468.8945],[-71.6256,19.1918,391.8892],[-71.6267,19.1949,445.174],[-71.6295,19.193,391.5001],[-71.635,19.1976,444.0972],[-71.633,19.1984,415.1483],[-71.633,19.2004,423.6587],[-71.635,19.2011,456.4371],[-71.6342,19.205,490.7033],[-71.633,19.205,471.3174],[-71.6342,19.207,496.9348],[-71.6315,19.2078,458.4204],[-71.6315,19.2097,505.5612],[-71.6236,19.2117,399.9577],[-71.6236,19.2097,448.1711],[-71.6209,19.2078,466.3336],[-71.6201,19.2117,389.5439],[-71.6189,19.2105,389.5439],[-71.6181,19.2117,448.1386],[-71.6221,19.2136,438.174],[-71.6229,19.2124,433.5198],[-71.6229,19.2144,439.4734],[-71.6295,19.2124,418.7154],[-71.6248,19.2163,450.8611],[-71.6303,19.2218,453.093],[-71.6331,19.2291,419.0742],[-71.6323,19.2303,419.0742],[-71.635,19.2291,399.3464],[-71.635,19.2311,408.5609],[-71.637,19.2291,448.166],[-71.6351,19.2329,408.8178],[-71.6362,19.235,422.6342],[-71.6378,19.2338,444.4206],[-71.6378,19.235,444.4206],[-71.6398,19.2338,440.3174],[-71.6409,19.2349,440.3174],[-71.6417,19.233,415.1351],[-71.6456,19.2349,405.8403],[-71.6472,19.2338,405.8403],[-71.6606,19.2349,445.5286],[-71.6613,19.2337,487.947],[-71.6653,19.2396,434.9917],[-71.6672,19.2376,447.6111],[-71.668,19.2403,443.9886],[-71.6739,19.2403,424.2395],[-71.6747,19.2368,427.7964],[-71.6774,19.2415,440.0875],[-71.6821,19.2415,438.3289],[-71.6794,19.243,456.3392],[-71.6821,19.2442,469.6034],[-71.6868,19.243,457.7571],[-71.6888,19.2469,464.1407],[-71.6935,19.245,467.2346],[-71.6943,19.2488,501.4559],[-71.6975,19.2496,491.0956],[-71.7049,19.257,484.9562],[-71.703,19.2617,536.0748],[-71.7049,19.2648,535.5625],[-71.7085,19.2655,500.547],[-71.7132,19.2721,570.5851],[-71.7151,19.271,565.8232],[-71.721,19.2721,507.7831],[-71.7191,19.2756,546.0088],[-71.7199,19.2803,533.4589],[-71.7218,19.2822,571.1141],[-71.7246,19.2814,522.6943],[-71.7246,19.2776,490.8728],[-71.7265,19.2768,513.1166],[-71.7273,19.2721,526.6542],[-71.7285,19.2721,504.0906],[-71.7273,19.2663,556.2704],[-71.7352,19.2729,551.0553],[-71.736,19.2834,598.9302],[-71.7367,19.2814,572.6389],[-71.7454,19.2787,546.472],[-71.7446,19.2814,559.6759],[-71.7479,19.2833,587.9888],[-71.7592,19.2754,580.3648],[-71.7648,19.2763,583.7099],[-71.7698,19.2723,639.2096],[-71.7722,19.2674,752.8939],[-71.7761,19.2671,806.4848],[-71.7735,19.2611,808.3886],[-71.7747,19.2593,804.1079],[-71.7843,19.2618,766.2311],[-71.7986,19.2605,731.3513],[-71.8092,19.2647,807.5363],[-71.8284,19.2641,584.6179],[-71.8463,19.2664,702.4207],[-71.8539,19.2698,957.3691],[-71.8656,19.2798,969.5914],[-71.8725,19.2758,965.2281],[-71.8794,19.2746,963.3491],[-71.8876,19.2767,940.9161],[-71.893,19.2747,935.8046],[-71.9007,19.2754,837.0989],[-71.9028,19.2842,657.2479],[-71.9072,19.2885,515.5082],[-71.9092,19.2886,518.0138],[-71.9095,19.2908,575.7132],[-71.9069,19.294,612.5784],[-71.9139,19.3007,615.5914],[-71.914,19.3055,722.9209],[-71.9418,19.3081,806.946],[-71.9602,19.3127,551.2947],[-71.9789,19.3311,488.7573],[-71.9871,19.3346,446.5331],[-71.9919,19.3328,432.918],[-71.9986,19.3259,413.4862],[-72.0038,19.3238,400.7189],[-72.0087,19.3273,415.2975],[-72.0221,19.3244,425.4149],[-72.0233,19.3194,436.6762],[-72.0221,19.3162,445.5929],[-72.0303,19.3075,431.4639],[-72.0339,19.3051,438.8523],[-72.0435,19.3041,410.5209],[-72.0483,19.3001,411.4941],[-72.0563,19.2976,381.4094],[-72.0634,19.2904,361.491],[-72.0699,19.2877,352.1866],[-72.0709,19.2852,357.7661],[-72.0806,19.2812,330.3818],[-72.0814,19.2775,315.7429],[-72.0853,19.2765,307.9588],[-72.0902,19.2698,293.5565],[-72.0939,19.2688,297.4085],[-72.0946,19.2666,281.526],[-72.1079,19.2664,341.5606],[-72.1131,19.2644,350.8877],[-72.1187,19.2652,349.1931],[-72.1246,19.2629,362.9298],[-72.135,19.2549,397.8594],[-72.1421,19.2579,385.0021],[-72.1491,19.2564,376.3358],[-72.1548,19.2588,363.6209],[-72.1528,19.2686,361.1903],[-72.1586,19.2791,347.5684],[-72.1591,19.2827,349.4161],[-72.1658,19.2819,345.844],[-72.1738,19.2855,347.6177],[-72.183,19.2938,354.3043],[-72.1949,19.2988,355.2379],[-72.2033,19.3005,353.6219],[-72.2033,19.2984,352.5571],[-72.2179,19.2868,351.9695],[-72.2208,19.281,338.1042],[-72.2266,19.2748,333.7155],[-72.2311,19.275,338.4589],[-72.2383,19.2701,345.8694],[-72.242,19.2647,339.0041],[-72.2423,19.2617,328.3583],[-72.2391,19.2518,320.7842],[-72.2417,19.2321,292.456],[-72.2488,19.2314,300.7162],[-72.2562,19.2274,320.6881],[-72.2616,19.2186,328.2475],[-72.2657,19.216,351.4371],[-72.2575,19.2066,347.9509],[-72.2579,19.2023,347.4008],[-72.2633,19.1953,374.0767],[-72.2643,19.1916,410.2422],[-72.2609,19.1876,397.3813],[-72.2603,19.1766,399.2403],[-72.2544,19.1669,342.4552],[-72.255,19.161,399.022],[-72.2425,19.1561,537.8043],[-72.2312,19.1419,720.7504],[-72.2196,19.1309,502.7168],[-72.2208,19.1271,464.2905],[-72.2394,19.1179,609.8057],[-72.2406,19.1156,656.2697],[-72.2385,19.0998,1058.5968],[-72.2217,19.0833,1139.1475],[-72.2218,19.0803,1161.0626],[-72.2267,19.0725,1381.7606],[-72.2288,19.0627,1516.3022],[-72.2325,19.0558,1261.7169],[-72.2401,19.0497,1089.7205],[-72.2414,19.0434,916.2032],[-72.2385,19.0367,933.16],[-72.2454,19.033,907.7934],[-72.2485,19.0268,804.2748],[-72.2445,19.0172,1003.5806],[-72.2445,19.0104,734.866],[-72.2378,19.002,478.0214],[-72.237,18.993,540.8298],[-72.241,18.985,568.8873],[-72.2382,18.9702,324.186],[-72.2367,18.9668,257.3436],[-72.2249,18.9563,236.8208],[-72.2268,18.9482,193.6035],[-72.2377,18.9379,437.8183],[-72.2375,18.9324,384.5754],[-72.2428,18.9244,222.4151],[-72.2439,18.9181,65.6906],[-72.2408,18.9165,66.1939],[-72.2496,18.9089,78.4114],[-72.2436,18.8996,121.0932],[-72.2481,18.8807,307.7205],[-72.2468,18.8717,448.1373],[-72.2512,18.8602,592.0953],[-72.2568,18.8572,633.0061],[-72.2646,18.8619,702.2553],[-72.2788,18.86,963.3231],[-72.2892,18.8637,876.9762],[-72.305,18.8636,774.7075],[-72.3109,18.8591,623.9383],[-72.3154,18.858,602.174],[-72.325,18.8627,635.063],[-72.3324,18.8631,649.452],[-72.3379,18.8664,704.9667],[-72.3415,18.8673,685.8732],[-72.3446,18.8661,735.8349],[-72.3562,18.8701,900.8309],[-72.3647,18.8658,1038.418],[-72.3618,18.8641,939.4151],[-72.3633,18.8589,854.9546],[-72.3603,18.8559,816.3459],[-72.3513,18.8513,810.3789],[-72.3357,18.8383,1057.2845],[-72.3336,18.8328,1103.3209],[-72.3243,18.8221,1001.5267],[-72.3232,18.8155,1053.8518],[-72.3194,18.8116,1132.9448],[-72.3139,18.8127,1064.4277],[-72.3092,18.8164,867.7892],[-72.3031,18.8181,778.615],[-72.2817,18.8165,564.5273],[-72.2789,18.8087,617.0153],[-72.2746,18.8074,550.9783],[-72.2724,18.804,580.2637],[-72.2744,18.7999,544.291],[-72.279,18.7974,626.4153],[-72.2621,18.7892,476.2366],[-72.2573,18.789,454.9962],[-72.2455,18.7805,460.4634],[-72.2372,18.7774,459.7525],[-72.229,18.778,374.8501],[-72.2258,18.7762,374.0027],[-72.225,18.7723,381.0915],[-72.2178,18.7737,333.0769],[-72.2101,18.7648,412.4374],[-72.2068,18.7579,552.2463],[-72.2031,18.7561,526.649],[-72.1998,18.7584,469.2744],[-72.1939,18.7514,592.3357],[-72.1971,18.7448,653.2438],[-72.2011,18.7417,769.2949],[-72.1973,18.7321,808.1223],[-72.1899,18.7238,738.9186],[-72.1666,18.7026,810.462],[-72.1472,18.6946,698.0359],[-72.1272,18.7063,814.2064],[-72.1229,18.7036,807.8064],[-72.1155,18.7035,831.8553],[-72.1098,18.7082,841.8869],[-72.0979,18.7114,819.4547],[-72.0917,18.7105,767.6292],[-72.0869,18.7136,826.2397],[-72.084,18.727,561.7138],[-72.0735,18.7366,403.4717],[-72.0681,18.7207,946.5314],[-72.0567,18.7187,1050.1487],[-72.0442,18.7192,1141.0264],[-72.0375,18.7209,962.9684],[-72.0352,18.7241,753.8481],[-72.0276,18.7268,582.7953],[-72.022,18.7266,482.4661],[-72.0171,18.7241,354.933],[-72.014,18.732,310.621],[-72.0094,18.7369,324.1698],[-72.0059,18.735,357.8578],[-72.0053,18.73,394.0737],[-71.9919,18.7343,450.757],[-71.9885,18.7376,585.0643],[-71.9778,18.734,661.5782],[-71.9711,18.7467,906.6699],[-71.9609,18.7408,1032.9705],[-71.9424,18.7386,1068.4146],[-71.9259,18.7389,1021.3483],[-71.9234,18.7369,1148.1675],[-71.9209,18.7313,1251.8983],[-71.9161,18.7294,1288.8079],[-71.911,18.7296,1263.0381],[-71.9008,18.722,1294.4919],[-71.8935,18.7194,1349.077],[-71.8874,18.7197,1322.9879],[-71.8821,18.718,1355.673],[-71.8758,18.7193,1326.192],[-71.8533,18.7187,1235.7251],[-71.8418,18.7099,1504.7429],[-71.829,18.7045,1663.4355],[-71.8098,18.688,1770.5885],[-71.8042,18.6853,1750.2391],[-71.7962,18.6834,1883.832],[-71.7988,18.6889,1856.9044],[-71.7922,18.6955,1739.2874]],
[[-71.763,19.0331,242.0757],[-71.7639,19.0347,260.4456],[-71.7634,19.0351,260.4456],[-71.7618,19.0315,223.8013],[-71.763,19.0331,242.0757]]]]}}