{"type": "Feature","id": "1385","bbox": [-72.36519,18.68068,-71.63911,19.33577],"geometry": {"type": "Polygon","coordinates": [[[-71.83765,19.27712,971.8695],[-71.86044,19.28125,871.134],[-71.88762,19.28487,756.7588],[-71.90623,19.29975,598.649],[-71.94328,19.31577,685.9257],[-71.97888,19.33577,472.8669],[-72.05092,19.30089,430.9639],[-72.12006,19.26007,333.4249],[-72.13947,19.25831,387.8353],[-72.14864,19.27138,366.6691],[-72.17055,19.2921,340.1191],[-72.20006,19.30192,354.3737],[-72.24587,19.24089,290.6174],[-72.25158,19.16849,346.5984],[-72.22471,19.14307,568.9405],[-72.23406,19.12178,631.5],[-72.23189,19.09749,1013.0066],[-72.22512,19.06788,1459.3286],[-72.23889,19.01708,882.0895],[-72.23279,18.96706,211.6],[-72.22993,18.94055,258.571],[-72.24367,18.90805,81.6572],[-72.24745,18.87714,344.4274],[-72.27096,18.86443,685.3119],[-72.3184,18.8697,584.3431],[-72.36519,18.86701,1038.418],[-72.33907,18.83384,978.8494],[-72.30625,18.8142,942.6628],[-72.27215,18.80604,559.862],[-72.24233,18.7865,433.1646],[-72.18213,18.73002,740.1128],[-72.10588,18.70506,729.2904],[-72.02668,18.72955,460.2198],[-71.94622,18.74351,992.7454],[-71.91212,18.73224,1061.8513],[-71.87853,18.72067,1238.2874],[-71.83667,18.71028,1545.0609],[-71.79884,18.68889,1856.9044],[-71.79212,18.68108,1889.3298],[-71.79178,18.68068,1889.3298],[-71.7849,18.68473,1921.9368],[-71.75807,18.70051,1467.1947],[-71.74407,18.71144,1209.3809],[-71.73208,18.73007,921.2137],[-71.72526,18.74697,1466.0874],[-71.72035,18.76544,1605.4927],[-71.71885,18.78423,1300.8701],[-71.72691,18.82353,649.7928],[-71.72794,18.86407,441.4634],[-71.73347,18.88257,406.9536],[-71.74091,18.89161,468.9247],[-71.76381,18.91151,367.6228],[-71.77295,18.92171,388.6826],[-71.78711,18.95003,247.0129],[-71.79626,18.95706,233.8054],[-71.81967,18.95781,255.2988],[-71.84452,18.94975,296.9926],[-71.86246,18.94709,181.215],[-71.8654,18.96442,229.2596],[-71.84814,18.97548,220.7168],[-71.79683,18.98861,292.6694],[-71.7837,18.99631,225.8665],[-71.74035,19.04189,273.1936],[-71.71042,19.08165,257.7193],[-71.69528,19.09455,317.4946],[-71.66138,19.11759,352.9886],[-71.64877,19.13529,405.2067],[-71.64366,19.15248,490.5139],[-71.63911,19.21211,493.1798],[-71.65173,19.21792,548.2614],[-71.71652,19.24777,506.4769],[-71.74952,19.27971,554.7025],[-71.74998,19.27965,554.7025],[-71.78391,19.27546,801.9163],[-71.81925,19.27836,669.4975],[-71.83765,19.27712,971.8695]]]}
,"properties": {"ISO3166-1-Alpha-3": "HTI","country": "Haiti","fill": "#FF0","name": "Centre","area_km2": 3489.709,"hist_schema_id": "Elevation0-9000","hist_area_km2": {"75": 7.402,"100": 36.315,"125": 50.42,"150": 63.687,"175": 128.183,"200": 150.653,"225": 202.614,"250": 254.075,"275": 296.661,"300": 300.415,"325": 236.716,"350": 166.795,"375": 107.594,"400": 84.795,"425": 74.306,"450": 73.829,"475": 72.68,"500": 70.337,"525": 70.762,"550": 74.448,"575": 73.567,"600": 76.01,"625": 71.044,"650": 65.394,"675": 61.506,"700": 56.615,"725": 54.271,"750": 53.327,"775": 46.999,"800": 38.849,"825": 34.203,"850": 30.215,"875": 27.911,"900": 26.169,"925": 24.888,"950": 24.149,"975": 20.539,"1000": 17.894,"1025": 17.396,"1050": 14.909,"1075": 14.226,"1100": 11.637,"1125": 10.593,"1150": 9.851,"1175": 9.911,"1200": 8.467,"1225": 8.607,"1250": 8.005,"1275": 6.299,"1300": 5.457,"1325": 4.834,"1350": 5.094,"1375": 4.433,"1400": 3.17,"1425": 2.489,"1450": 1.927,"1475": 1.586,"1500": 1.686,"1525": 1.205,"1550": 1.385,"1575": 1.345,"1600": 1.225,"1625": 1.124,"1650": 0.763,"1675": 0.703,"1700": 0.402,"1725": 0.542,"1750": 0.663,"1775": 0.422,"1800": 0.623,"1825": 0.482,"1850": 0.522,"1875": 0.341,"1900": 0.623,"1925": 0.382,"1950": 0.141}}}