{"type": "Feature","bbox": [-61.1527,14.7996,-61.0964,14.8334],"geometry": {"type": "MultiPolygon","coordinates": [[[[-61.1527,14.8089,755.6166],[-61.1493,14.8005,724.0634],[-61.1469,14.7996,678.1294],[-61.1062,14.8107,183.0533],[-61.1005,14.8143,173.4543],[-61.098,14.8189,184.2574],[-61.0964,14.8334,70.7112],[-61.1268,14.825,366.6163],[-61.1386,14.8109,584.1768],[-61.1419,14.8093,597.8563],[-61.1527,14.8089,755.6166]]]]}
,"properties": {"GID_2": "MTQ.3.3_1","GID_0": "MTQ","country": "Martinique","GID_1": "MTQ.3_1","province": "LeTrinité","NL_NAME_1": "NA","county": "L'Ajoupa-Bouillon","VARNAME_2": "NA","NL_NAME_2": "NA","TYPE_2": "Commune","ENGTYPE_2": "Commune","CC_2": "NA","HASC_2": "MQ.TR.AB","name": "L'Ajoupa-Bouillon.county","area_km2": 10.207653,"hist_schema_id": "Elevation0-9000","hist_area_km2": {"75": 0.102479,"100": 0.204962,"125": 0.368936,"150": 0.430426,"175": 0.532915,"200": 0.696894,"225": 0.696895,"250": 0.737897,"275": 0.614914,"300": 0.55342,"325": 0.614918,"350": 0.7174,"375": 0.471441,"400": 0.512435,"425": 0.286969,"450": 0.327962,"475": 0.266472,"500": 0.225478,"525": 0.061493,"550": 0.225479,"575": 0.20498,"600": 0.061495,"625": 0.245978,"650": 0.163986,"675": 0.184485,"700": 0.286979,"725": 0.184485,"750": 0.102492,"775": 0.081993,"800": 0.040996}}}