{"type": "Feature","bbox": [-82.5251,23.0516,-82.3796,23.146],"geometry": {"type": "MultiPolygon","coordinates": [[[[-82.3951,23.146,0.6046],[-82.4076,23.1382,0.6766],[-82.4079,23.1329,2.3765],[-82.411,23.1321,1.2953],[-82.4112,23.1349,0.5525],[-82.4146,23.134,0.0],[-82.4357,23.1185,4.3525],[-82.4554,23.0996,0.0],[-82.4543,23.0957,0.0],[-82.4607,23.0965,1.7627],[-82.4621,23.0951,1.809],[-82.4613,23.0929,0.8092],[-82.4715,23.0937,0.4891],[-82.474,23.0918,2.5531],[-82.4793,23.0912,1.7014],[-82.4796,23.0899,3.1543],[-82.4807,23.0921,0.0],[-82.4874,23.094,0.0],[-82.4901,23.0904,3.0136],[-82.4912,23.0932,0.3947],[-82.4929,23.0935,2.1791],[-82.5035,23.0882,1.1807],[-82.504,23.0837,0.0],[-82.5021,23.0821,1.1615],[-82.5065,23.0801,2.5586],[-82.5082,23.0824,0.4921],[-82.506,23.0835,0.0],[-82.5101,23.0832,0.3396],[-82.5104,23.0812,0.5198],[-82.5168,23.0796,0.0],[-82.5243,23.0743,0.9119],[-82.5251,23.0565,7.7343],[-82.5235,23.0536,15.4603],[-82.5163,23.0516,17.8213],[-82.4836,23.0528,35.0828],[-82.4804,23.0557,29.5731],[-82.4397,23.0679,31.3794],[-82.4126,23.0812,51.146],[-82.4043,23.0914,53.4244],[-82.3952,23.0967,31.7543],[-82.388,23.1059,38.9533],[-82.3796,23.111,28.3326],[-82.3839,23.1295,38.0321],[-82.3951,23.146,0.6046]]]]}
,"properties": {"GID_2": "CUB.4.13_1","GID_0": "CUB","country": "Cuba","GID_1": "CUB.4_1","province": "CiudaddelaHabana","NL_NAME_1": "NA","county": "PlazadelaRevolución","VARNAME_2": "NA","NL_NAME_2": "NA","TYPE_2": "Municipio","ENGTYPE_2": "Municipality","CC_2": "NA","HASC_2": "CU.CH.PR","name": "Plazadela_Revolución.county","area_km2": 64.24478,"hist_schema_id": "Elevation0-9000","hist_area_km2": {"0": 22.76056,"25": 31.73267,"50": 9.18594,"75": 0.56561}}}