{"type":"Feature","properties":{"GID_3":"HTI.6.2.1_1","GID_0":"HTI","country":"Haiti","GID_1":"HTI.6_1","province":"Nord-Ouest","NL_NAME_1":"NA","GID_2":"HTI.6.2_1","county":"Port-de-Paix","NL_NAME_2":"NA","city":"BassinBleu","VARNAME_3":"NA","NL_NAME_3":"NA","TYPE_3":"Commune","ENGTYPE_3":"Commune","CC_3":"NA","HASC_3":"NA","name":"Bassin_Bleu.city"},
"geometry":{"type": "MultiPolygon","coordinates": [[[[-72.8598,19.7125,587.3123],[-72.8466,19.7132,723.3065],[-72.8402,19.7162,568.8964],[-72.8377,19.7209,573.7312],[-72.8384,19.7298,661.1903],[-72.8353,19.7319,651.236],[-72.8284,19.7314,484.8317],[-72.8244,19.7344,501.9804],[-72.8186,19.7346,396.8427],[-72.8122,19.7379,258.5208],[-72.8109,19.7394,232.5569],[-72.8116,19.7456,211.2473],[-72.8104,19.7519,198.8596],[-72.8069,19.7569,187.3241],[-72.7972,19.7643,129.5922],[-72.784,19.7714,176.1304],[-72.7754,19.7808,382.7886],[-72.7652,19.7883,467.476],[-72.7592,19.7885,372.4062],[-72.7568,19.7858,338.6726],[-72.7485,19.7829,290.1839],[-72.7426,19.7835,261.3853],[-72.7394,19.786,309.6814],[-72.7393,19.7907,308.7031],[-72.7339,19.7939,288.2426],[-72.7289,19.7994,367.0851],[-72.7277,19.8057,428.3],[-72.7246,19.8095,463.3267],[-72.7302,19.8123,417.2722],[-72.7311,19.8207,641.3186],[-72.734,19.8281,757.1291],[-72.7385,19.8325,635.0168],[-72.7382,19.837,792.2201],[-72.7349,19.8405,761.2365],[-72.7363,19.8434,859.0902],[-72.7324,19.8461,801.4077],[-72.7352,19.8484,813.3201],[-72.7355,19.8512,795.4675],[-72.7373,19.8499,836.9619],[-72.7453,19.8539,852.4663],[-72.7482,19.8609,820.3832],[-72.7473,19.8659,745.5645],[-72.7542,19.8656,956.695],[-72.7549,19.8634,1070.2577],[-72.7586,19.8649,1031.1926],[-72.7631,19.8638,944.1198],[-72.7674,19.8658,908.579],[-72.7717,19.8649,904.5798],[-72.7745,19.8607,957.1539],[-72.7765,19.8428,450.3394],[-72.7799,19.8395,412.3537],[-72.78,19.8333,315.1937],[-72.7835,19.8307,298.2068],[-72.7927,19.8293,263.1377],[-72.8011,19.8247,147.9313],[-72.8067,19.8235,86.4832],[-72.8175,19.8175,82.7321],[-72.829,19.8182,74.8395],[-72.8317,19.8206,91.3271],[-72.8368,19.8212,69.6769],[-72.8439,19.8199,79.3873],[-72.8485,19.8296,67.8273],[-72.8457,19.8331,66.7646],[-72.8405,19.8327,60.4245],[-72.8343,19.8375,58.5252],[-72.8343,19.8422,81.0804],[-72.8773,19.8457,168.9201],[-72.885,19.8475,143.872],[-72.8846,19.841,187.7054],[-72.886,19.8376,162.4564],[-72.9288,19.8107,226.5383],[-72.929,19.807,267.7654],[-72.9233,19.797,335.3112],[-72.924,19.7926,358.0573],[-72.932,19.7872,292.7314],[-72.935,19.7869,263.6858],[-72.9407,19.79,241.489],[-72.9389,19.7851,307.726],[-72.9276,19.7815,286.2186],[-72.9232,19.7763,334.8843],[-72.9221,19.7704,412.5945],[-72.9232,19.7672,428.0974],[-72.9262,19.7666,438.3354],[-72.9271,19.7498,512.1801],[-72.9237,19.7361,593.0432],[-72.9252,19.7315,597.3304],[-72.9249,19.7176,586.8705],[-72.8971,19.7139,531.1642],[-72.8949,19.7103,673.4958],[-72.89,19.7094,819.2671],[-72.8774,19.709,628.9814],[-72.8598,19.7125,587.3123]]]]}}