{"type":"Feature","properties":{"GID_2":"GLP.2.14_1","GID_0":"GLP","country":"Guadeloupe","GID_1":"GLP.2_1","province":"Pointe-à-Pitre","NL_NAME_1":"NA","county":"Sainte-Anne","VARNAME_2":"NA","NL_NAME_2":"NA","TYPE_2":"Chef-lieucanton","ENGTYPE_2":"Commune","CC_2":"98","HASC_2":"NA","name":"Sainte-Anne.county"},
"geometry":{"type": "MultiPolygon","coordinates": [[[[-61.4194,16.2101,2.2967],[-61.4176,16.2118,1.7653],[-61.4162,16.2104,0.0],[-61.4087,16.2115,0.0],[-61.4049,16.2149,0.0],[-61.4051,16.2165,0.0],[-61.3988,16.2199,18.7688],[-61.3943,16.2171,3.0357],[-61.3937,16.2215,0.0],[-61.3901,16.224,4.5423],[-61.379,16.2224,0.0],[-61.3771,16.2254,0.0],[-61.3724,16.2276,2.0385],[-61.3715,16.2318,3.3523],[-61.3638,16.2346,5.0079],[-61.354,16.2349,0.0],[-61.3432,16.2399,5.8615],[-61.3387,16.2396,1.3055],[-61.3387,16.2421,14.5058],[-61.3237,16.241,0.0],[-61.325,16.2436,3.0784],[-61.3249,16.2531,37.0559],[-61.3379,16.2891,36.6319],[-61.3597,16.2887,35.9293],[-61.3617,16.2916,31.9218],[-61.3597,16.2983,17.9803],[-61.3654,16.3008,28.0436],[-61.3777,16.2931,35.1463],[-61.4232,16.2794,78.1261],[-61.4374,16.2802,105.6779],[-61.4442,16.279,85.3263],[-61.4458,16.2759,85.646],[-61.4458,16.2623,68.7161],[-61.4552,16.258,54.0741],[-61.4335,16.241,85.8883],[-61.4194,16.2101,2.2967]]]]}}