{"type": "Feature","bbox": [-66.0951,17.9521,-66.0198,18.0407],"geometry": {"type": "MultiPolygon","coordinates": [[[[-66.0198,17.9782,4.2743],[-66.0264,17.993,48.834],[-66.0356,17.9982,215.0283],[-66.0393,18.0035,149.9901],[-66.0471,18.0092,142.3021],[-66.0416,18.0173,193.3239],[-66.0439,18.0297,347.1235],[-66.0481,18.0355,561.2664],[-66.0578,18.0407,603.4359],[-66.0757,18.0374,602.7552],[-66.0822,18.0326,622.2406],[-66.0845,18.0283,633.9271],[-66.0951,18.0221,688.1129],[-66.0716,17.9939,200.8677],[-66.0725,17.9786,20.1005],[-66.0702,17.9662,1.6619],[-66.0679,17.966,5.216],[-66.0643,17.9604,0.0],[-66.0543,17.9585,4.7368],[-66.0493,17.9554,0.6736],[-66.0479,17.9521,2.9481],[-66.0462,17.9554,0.0],[-66.0429,17.956,0.0],[-66.0401,17.9618,0.0],[-66.0368,17.9626,1.628],[-66.0349,17.9615,0.0],[-66.031,17.9693,7.9889],[-66.0238,17.9765,11.2059],[-66.0198,17.9782,4.2743]]]]}
,"properties": {"GID_1": "PRI.8_1","GID_0": "PRI","country": "PuertoRico","province": "Arroyo","VARNAME_1": "NA","NL_NAME_1": "NA","TYPE_1": "Municipio","ENGTYPE_1": "Municipality","CC_1": "NA","HASC_1": "PR.AR","ISO_1": "-","name": "Arroyo.province","area_km2": 39.76473,"hist_schema_id": "Elevation0-9000","hist_area_km2": {"0": 8.14786,"25": 7.44148,"50": 3.06511,"75": 1.99629,"100": 1.71393,"125": 1.77439,"150": 1.51225,"175": 1.33078,"200": 1.08879,"225": 0.92748,"250": 1.08878,"275": 0.80648,"300": 0.68551,"325": 0.92744,"350": 0.86696,"375": 0.66534,"400": 0.70566,"425": 0.60485,"450": 0.84679,"475": 0.52419,"500": 0.50403,"525": 0.40323,"550": 0.34275,"575": 0.82661,"600": 0.44355,"625": 0.30242,"650": 0.18145,"675": 0.02016,"750": 0.02016}}}