{"type":"Feature","properties":{"GID_2":"MTQ.2.10_1","GID_0":"MTQ","country":"Martinique","GID_1":"MTQ.2_1","province":"LeMarin","NL_NAME_1":"NA","county":"Saint-Esprit","VARNAME_2":"NA","NL_NAME_2":"NA","TYPE_2":"Commune","ENGTYPE_2":"Commune","CC_2":"NA","HASC_2":"MQ.MA.SE","name":"Saint-Esprit.county"},
"geometry":{"type": "MultiPolygon","coordinates": [[[[-60.9562,14.5509,25.2204],[-60.9162,14.5293,221.0603],[-60.8954,14.5411,207.7904],[-60.895,14.5588,238.2094],[-60.9102,14.5805,178.2418],[-60.914,14.5811,112.251],[-60.9219,14.5761,57.178],[-60.9246,14.5762,49.8647],[-60.9332,14.5862,49.1372],[-60.9454,14.5659,112.3458],[-60.9478,14.5593,39.2446],[-60.955,14.557,79.8483],[-60.9562,14.5509,25.2204]]]]}}