{"type": "Feature","bbox": [-75.7836,20.0006,-75.3624,20.4305],"geometry": {"type": "MultiPolygon","coordinates": [[[[-75.4142,20.3038,302.2066],[-75.4589,20.3366,448.2985],[-75.4803,20.3479,307.5247],[-75.5156,20.3499,277.596],[-75.5405,20.357,321.2683],[-75.555,20.3555,313.894],[-75.5905,20.3424,322.7742],[-75.6004,20.3433,269.1411],[-75.6312,20.3721,156.8144],[-75.6416,20.4,190.5777],[-75.643,20.4138,165.3829],[-75.6682,20.4276,275.9854],[-75.6825,20.4305,248.7609],[-75.726,20.3994,336.6206],[-75.7452,20.3641,330.8892],[-75.745,20.349,340.7947],[-75.7359,20.3247,341.6659],[-75.7218,20.2991,343.7261],[-75.7207,20.2877,305.9342],[-75.7352,20.2582,245.5977],[-75.7397,20.2417,204.1284],[-75.7608,20.2012,191.1184],[-75.7652,20.1847,152.4335],[-75.7836,20.1531,177.1912],[-75.7026,20.153,188.6592],[-75.6621,20.1436,281.4051],[-75.6507,20.1284,243.9268],[-75.6416,20.1018,450.2242],[-75.6382,20.0808,323.5189],[-75.6283,20.0586,501.3094],[-75.5994,20.0543,499.4231],[-75.5824,20.0487,744.9963],[-75.5448,20.0462,230.3459],[-75.5243,20.0366,296.0957],[-75.4902,20.0111,425.0917],[-75.4899,20.0122,438.0549],[-75.4739,20.0052,255.5533],[-75.4343,20.0006,158.8382],[-75.4168,20.001,106.8029],[-75.4254,20.0086,98.3859],[-75.4331,20.0218,120.8578],[-75.4364,20.0336,189.93],[-75.4388,20.0486,202.1005],[-75.4398,20.0792,172.7267],[-75.445,20.0933,139.7489],[-75.4435,20.0983,120.082],[-75.4377,20.1005,118.9916],[-75.432,20.0982,138.2444],[-75.426,20.0929,221.6493],[-75.4139,20.0739,107.1183],[-75.4105,20.0722,125.789],[-75.4049,20.0725,108.9713],[-75.4019,20.08,112.3873],[-75.4003,20.0941,207.8076],[-75.3958,20.106,222.4048],[-75.3896,20.1105,77.0],[-75.3661,20.1169,80.047],[-75.3624,20.1214,90.3256],[-75.3625,20.1264,77.0],[-75.366,20.1319,78.0303],[-75.3729,20.136,156.2344],[-75.3742,20.1401,199.1926],[-75.3732,20.142,221.6837],[-75.3749,20.1443,265.0925],[-75.4104,20.1677,222.5822],[-75.4192,20.1765,140.2321],[-75.4243,20.187,144.2939],[-75.4343,20.2279,200.5879],[-75.435,20.2364,206.1335],[-75.4345,20.2409,221.515],[-75.432,20.2438,218.9213],[-75.4137,20.247,233.7137],[-75.41,20.2488,255.4901],[-75.407,20.2556,261.6627],[-75.408,20.2583,252.5075],[-75.4249,20.2663,285.8057],[-75.4278,20.2742,264.66],[-75.4261,20.2837,230.7743],[-75.4228,20.2911,272.0945],[-75.4142,20.3038,302.2066]]]]}
,"properties": {"GID_2": "CUB.15.8_1","GID_0": "CUB","country": "Cuba","GID_1": "CUB.15_1","province": "SantiagodeCuba","NL_NAME_1": "NA","county": "Songo-LaMaya","VARNAME_2": "NA","NL_NAME_2": "NA","TYPE_2": "Municipio","ENGTYPE_2": "Municipality","CC_2": "NA","HASC_2": "CU.SC.LM","name": "Songo-La_Maya.county","area_km2": 1140.3057,"hist_schema_id": "Elevation0-9000","hist_area_km2": {"75": 13.6568,"100": 23.0325,"125": 58.4753,"150": 104.3232,"175": 122.5716,"200": 122.2044,"225": 119.7272,"250": 106.684,"275": 90.4132,"300": 94.6616,"325": 88.4714,"350": 47.3391,"375": 32.9559,"400": 23.4299,"425": 16.6481,"450": 12.67,"475": 11.577,"500": 8.9907,"525": 8.9115,"550": 9.0704,"575": 8.4357,"600": 5.9304,"625": 3.3625,"650": 2.6054,"675": 1.6511,"700": 1.3929,"725": 0.9747,"750": 0.1194,"775": 0.0199}}}