{"type": "Feature","bbox": [-61.5171,10.5406,-61.3455,10.8132],"geometry": {"type": "MultiPolygon","coordinates": [[[[-61.4155,10.5643,3.7208],[-61.4215,10.6036,0.6045],[-61.4257,10.6176,3.0991],[-61.4283,10.6343,6.749],[-61.4282,10.6397,9.2347],[-61.4191,10.6531,30.0198],[-61.4201,10.6564,48.9413],[-61.4244,10.6601,110.7718],[-61.4217,10.6639,171.2357],[-61.4265,10.6725,321.4464],[-61.4265,10.6789,571.2477],[-61.4297,10.6833,601.519],[-61.4286,10.6907,672.9585],[-61.4329,10.7004,495.398],[-61.4307,10.7052,365.9769],[-61.4328,10.71,289.7644],[-61.4312,10.7154,396.1183],[-61.4334,10.7181,473.7416],[-61.4339,10.7224,480.3704],[-61.4398,10.7304,635.149],[-61.4301,10.7347,467.9606],[-61.4221,10.7421,636.6699],[-61.4151,10.7431,672.1455],[-61.3888,10.7318,770.6858],[-61.3797,10.736,486.8329],[-61.3749,10.7414,541.8779],[-61.3668,10.7392,473.9409],[-61.3593,10.7343,377.0674],[-61.3593,10.7802,130.9398],[-61.3524,10.7861,54.8557],[-61.3529,10.7893,29.2545],[-61.3502,10.7914,52.7285],[-61.346,10.8004,27.6632],[-61.3455,10.8071,0.0],[-61.3515,10.8121,0.0],[-61.3587,10.8132,23.8649],[-61.3613,10.8115,50.6669],[-61.3657,10.8121,0.0],[-61.3651,10.8018,8.1586],[-61.3685,10.8001,11.6138],[-61.3743,10.7921,0.0],[-61.3818,10.7893,0.0],[-61.3926,10.7879,7.2749],[-61.394,10.786,0.0],[-61.3915,10.7821,5.2245],[-61.3932,10.7807,2.4164],[-61.4026,10.7796,0.0],[-61.4065,10.781,8.6958],[-61.4085,10.7854,27.7572],[-61.4146,10.7846,15.4782],[-61.4149,10.7829,123.5189],[-61.4201,10.7796,29.4084],[-61.4196,10.7757,20.3476],[-61.4265,10.7732,16.0028],[-61.4276,10.7685,0.0],[-61.4243,10.7629,21.7891],[-61.4296,10.759,0.0],[-61.4376,10.759,0.0],[-61.4424,10.7618,5.7692],[-61.4426,10.764,8.4582],[-61.4399,10.7657,0.0],[-61.4437,10.7679,102.4982],[-61.4435,10.7715,65.624],[-61.441,10.7732,0.0],[-61.4421,10.7763,1.3105],[-61.4479,10.7749,0.0],[-61.4507,10.7724,39.2892],[-61.451,10.7676,91.1149],[-61.4526,10.7668,0.0],[-61.4526,10.7635,126.3204],[-61.4546,10.7626,59.3429],[-61.4604,10.7632,103.8186],[-61.4624,10.7665,41.1362],[-61.4615,10.7749,8.327],[-61.4651,10.7746,17.8895],[-61.4685,10.7765,11.7045],[-61.474,10.7757,11.4713],[-61.4738,10.7771,0.0],[-61.476,10.7782,2.8449],[-61.4768,10.7757,0.0],[-61.4751,10.7751,94.6067],[-61.4751,10.7735,119.8452],[-61.4768,10.7712,0.0],[-61.4724,10.7676,7.065],[-61.4721,10.7646,5.7048],[-61.4762,10.7585,48.2046],[-61.4799,10.7571,0.0],[-61.4807,10.7551,52.9299],[-61.4821,10.7557,0.0],[-61.4815,10.7546,52.9299],[-61.4882,10.7537,68.7729],[-61.4901,10.7601,0.0],[-61.4924,10.7607,3.8284],[-61.4926,10.7629,4.5896],[-61.494,10.7618,21.5399],[-61.4929,10.7599,77.7965],[-61.4943,10.7596,77.7965],[-61.494,10.7571,125.2379],[-61.4968,10.7568,17.9422],[-61.4972,10.7205,183.6171],[-61.4956,10.7056,435.6454],[-61.5015,10.7008,407.1968],[-61.5085,10.6869,125.499],[-61.5166,10.6831,156.4287],[-61.5171,10.6765,61.7976],[-61.5086,10.6713,43.8364],[-61.5053,10.6713,39.3925],[-61.5011,10.675,140.1806],[-61.4989,10.6739,129.2689],[-61.4984,10.6664,68.9469],[-61.4942,10.6594,157.214],[-61.4942,10.6567,151.9812],[-61.499,10.6524,64.0514],[-61.499,10.6481,9.9852],[-61.4942,10.6395,2.8392],[-61.5029,10.6379,0.0],[-61.5035,10.6274,0.0],[-61.5007,10.6224,6.5278],[-61.4951,10.6218,0.0],[-61.4888,10.6165,0.0],[-61.4882,10.6088,5.9067],[-61.486,10.6054,3.6342],[-61.4843,10.606,3.2541],[-61.4854,10.6049,3.6342],[-61.4846,10.6015,1.0301],[-61.4771,10.5893,0.0],[-61.4754,10.5776,4.1227],[-61.469,10.5662,0.0],[-61.4699,10.561,1.984],[-61.4676,10.5582,2.1746],[-61.4646,10.544,3.0793],[-61.4624,10.5435,0.0],[-61.464,10.5406,0.0],[-61.4583,10.5408,11.3018],[-61.4475,10.5623,14.0333],[-61.4384,10.5655,8.8581],[-61.4155,10.5643,3.7208]]]]}
,"properties": {"GID_1": "TTO.11_1","GID_0": "TTO","country": "TrinidadandTobago","province": "SanJuan-Laventille","VARNAME_1": "Laventille","NL_NAME_1": "NA","TYPE_1": "Region","ENGTYPE_1": "Region","CC_1": "NA","HASC_1": "TT.SL","ISO_1": "TT-SJL","name": "San_Juan-Laventille.province","area_km2": 215.3666,"hist_schema_id": "Elevation0-9000","hist_area_km2": {"0": 61.7469,"25": 22.2743,"50": 11.2495,"75": 13.7076,"100": 13.124,"125": 10.7284,"150": 10.3742,"175": 8.6037,"200": 7.7495,"225": 6.937,"250": 5.9371,"275": 4.958,"300": 5.1038,"325": 4.458,"350": 3.9373,"375": 3.5415,"400": 3.7706,"425": 2.7706,"450": 2.7706,"475": 2.5831,"500": 2.0624,"525": 1.1874,"550": 1.4582,"575": 1.0416,"600": 0.8333,"625": 0.5833,"650": 0.4583,"675": 0.25,"700": 0.2916,"725": 0.1042,"750": 0.1875,"775": 0.2083,"800": 0.1875,"825": 0.0833,"850": 0.0417,"875": 0.0417,"900": 0.0208}}}