{"type":"Feature","properties":{"ISO3166-1-Alpha-3":"TTO","country":"Trinidad and Tobago","fill":"#00F","id":"56","name":"San Juan-Laventille"},
"geometry":{"type": "Polygon","coordinates": [[[-61.34723,10.73568,397.4985],[-61.34119,10.73754,160.372],[-61.33486,10.74503,122.3295],[-61.33374,10.75619,86.1217],[-61.34188,10.77273,109.7796],[-61.3494,10.79774,15.4774],[-61.35261,10.8041,15.141],[-61.36657,10.80296,0.0],[-61.37291,10.79751,0.0],[-61.39184,10.77562,51.3307],[-61.40005,10.76826,39.0159],[-61.40193,10.76887,19.069],[-61.42121,10.76826,166.4733],[-61.42365,10.76594,74.6416],[-61.42756,10.76118,0.0],[-61.43342,10.75654,91.5798],[-61.44172,10.75458,4.4791],[-61.43423,10.76203,0.0],[-61.437,10.76586,0.0],[-61.43936,10.76801,0.0],[-61.44103,10.77066,0.0],[-61.44172,10.7757,1.3105],[-61.44787,10.7757,0.0],[-61.44758,10.76537,169.409],[-61.44787,10.76203,67.6118],[-61.45531,10.76203,166.2135],[-61.46044,10.77436,8.327],[-61.46557,10.77025,73.211],[-61.47322,10.76024,140.1181],[-61.48575,10.75458,0.0],[-61.49009,10.75462,50.4345],[-61.4897,10.75051,177.4722],[-61.488,10.72963,165.1878],[-61.49368,10.70648,400.2931],[-61.51141,10.67583,47.6582],[-61.49717,10.66839,47.822],[-61.49324,10.66095,156.372],[-61.49162,10.65661,151.4277],[-61.4957,10.63568,2.154],[-61.49571,10.63564,2.154],[-61.48888,10.63105,0.0],[-61.49625,10.6249,8.0318],[-61.47228,10.59488,3.7301],[-61.46215,10.55817,0.0],[-61.46223,10.53812,11.5911],[-61.46221,10.53812,11.5911],[-61.46061,10.53812,7.7634],[-61.44102,10.56499,9.4024],[-61.40976,10.56628,4.3549],[-61.42175,10.64261,11.879],[-61.42141,10.66751,185.1975],[-61.42854,10.71144,242.4214],[-61.42645,10.7288,286.2398],[-61.42087,10.73878,488.395],[-61.41232,10.74131,820.0404],[-61.38563,10.73754,453.5737],[-61.37922,10.73816,395.0206],[-61.37186,10.74017,445.4602],[-61.36457,10.73976,395.808],[-61.34723,10.73568,397.4985]]]}}