{"type": "Feature","id": "1987","bbox": [-68.94287,18.10786,-68.3286,18.97987],"geometry": {"type": "MultiPolygon","coordinates": [[[[-68.71076,18.17536,0.0],[-68.72232,18.17927,22.1703],[-68.73717,18.18952,0.0],[-68.75455,18.19766,0.0],[-68.77208,18.20087,0.0],[-68.78694,18.19668,0.0],[-68.77819,18.17202,2.1205],[-68.76207,18.14517,0.0],[-68.73705,18.1236,0.0],[-68.70189,18.11469,0.0],[-68.68489,18.11689,3.4021],[-68.65392,18.12629,7.2969],[-68.6361,18.12836,1.9618],[-68.61929,18.12515,0.0],[-68.58703,18.11107,0.0],[-68.57185,18.10786,0.0],[-68.57018,18.11571,2.7885],[-68.5775,18.13373,13.9616],[-68.58869,18.15339,1.8758],[-68.59878,18.16621,0.0],[-68.61238,18.1708,0.0],[-68.66405,18.16934,0.0],[-68.71076,18.17536,0.0]]],
[[[-68.44249,18.38475,0.0],[-68.44433,18.4195,0.0],[-68.44127,18.42902,4.5867],[-68.43468,18.43578,10.4734],[-68.42805,18.44123,0.0],[-68.33406,18.5773,6.5507],[-68.3286,18.61652,2.1431],[-68.35619,18.65656,0.0],[-68.4134,18.6896,0.0],[-68.45857,18.73102,0.0],[-68.465,18.73501,0.0],[-68.47728,18.74022,0.0],[-68.5205,18.76887,1.4389],[-68.5808,18.81257,4.6252],[-68.62352,18.86188,0.0],[-68.73974,18.96442,0.0],[-68.74999,18.96809,0.0],[-68.76781,18.96947,0.0],[-68.77697,18.97435,0.0],[-68.78512,18.97987,0.0],[-68.80383,18.95683,26.3371],[-68.83241,18.93569,52.6794],[-68.83174,18.92218,72.6063],[-68.83745,18.91125,132.0852],[-68.84517,18.86926,208.1611],[-68.81804,18.82004,213.1056],[-68.83871,18.7634,242.4216],[-68.8899,18.7248,127.7069],[-68.91659,18.72074,104.5175],[-68.93886,18.70811,115.8102],[-68.94287,18.6864,95.9251],[-68.9353,18.66568,109.4388],[-68.91871,18.62974,85.1956],[-68.89933,18.59644,80.827],[-68.87414,18.57473,32.8542],[-68.8531,18.54982,27.3895],[-68.85202,18.51864,60.0734],[-68.86558,18.48972,41.7512],[-68.88328,18.44428,40.8654],[-68.90114,18.40368,5.7787],[-68.90115,18.40366,5.7787],[-68.88097,18.39549,11.7162],[-68.8496,18.37482,0.0],[-68.82014,18.34247,5.5471],[-68.78685,18.2954,11.0826],[-68.76252,18.24698,6.484],[-68.76024,18.21035,0.0],[-68.74299,18.20454,0.0],[-68.65844,18.21092,0.0],[-68.64708,18.21483,14.3506],[-68.64151,18.22517,6.2034],[-68.62609,18.28335,0.0],[-68.61832,18.30146,4.8689],[-68.60603,18.31708,0.0],[-68.59752,18.33662,0.0],[-68.60285,18.35566,0.0],[-68.60546,18.37173,0.0],[-68.58894,18.38227,24.6205],[-68.57453,18.37816,28.3476],[-68.5349,18.35334,15.497],[-68.51659,18.34748,22.2889],[-68.49283,18.34748,67.5101],[-68.47216,18.34984,75.8641],[-68.45568,18.35786,87.9975],[-68.44433,18.37482,0.0],[-68.44249,18.38475,0.0]]]]}
,"properties": {"ISO3166-1-Alpha-3": "DOM","country": "Dominican Republic","fill": "#FF0","name": "La Altagracia","area_km2": 3200.311,"hist_schema_id": "Elevation0-9000","hist_area_km2": {"0": 469.974,"25": 452.786,"50": 612.667,"75": 826.479,"100": 353.645,"125": 137.276,"150": 94.139,"175": 61.623,"200": 40.978,"225": 31.902,"250": 25.637,"275": 20.738,"300": 16.743,"325": 14.895,"350": 9.756,"375": 8.291,"400": 6.745,"425": 4.657,"450": 3.573,"475": 2.469,"500": 1.646,"525": 1.164,"550": 0.883,"575": 0.542,"600": 0.582,"625": 0.241,"650": 0.08,"675": 0.161,"700": 0.04}}}