{"type":"Feature","properties":{"GID_1":"DOM.11_1","GID_0":"DOM","country":"DominicanRepublic","province":"LaAltagracia","VARNAME_1":"NA","NL_NAME_1":"NA","TYPE_1":"Provincia","ENGTYPE_1":"Province","CC_1":"NA","HASC_1":"DO.AL","ISO_1":"DO-11","name":"La_Altagracia.province"},
"geometry":{"type": "MultiPolygon","coordinates": [[[[-68.6343,18.1974,3.5659],[-68.6371,18.1974,0.0],[-68.6399,18.1935,0.658],[-68.6376,18.1935,0.6362],[-68.6374,18.1954,4.2307],[-68.6343,18.1974,3.5659]]],
[[[-68.9231,18.6686,69.8531],[-68.9259,18.6643,65.7841],[-68.9122,18.6567,94.1908],[-68.9108,18.6514,63.4971],[-68.9006,18.6413,83.1063],[-68.9013,18.6161,50.7004],[-68.8887,18.613,44.1535],[-68.8801,18.5957,43.111],[-68.873,18.5912,44.497],[-68.8678,18.5828,50.6451],[-68.8594,18.5758,28.2737],[-68.8494,18.5711,60.8306],[-68.8424,18.5577,72.8168],[-68.8426,18.5495,45.7112],[-68.8447,18.5418,15.451],[-68.8391,18.5203,62.2488],[-68.847,18.5164,61.3183],[-68.8535,18.5041,47.0777],[-68.8553,18.4968,7.5037],[-68.8652,18.4907,24.6805],[-68.8646,18.4811,43.7461],[-68.8746,18.4752,49.2273],[-68.8742,18.4704,25.0418],[-68.8686,18.4669,63.834],[-68.8675,18.4643,65.9259],[-68.8717,18.4602,59.1005],[-68.8803,18.4581,63.1917],[-68.8796,18.4534,33.8803],[-68.884,18.4362,10.9727],[-68.8825,18.4246,66.7298],[-68.8848,18.4207,61.7162],[-68.8923,18.416,50.4419],[-68.8936,18.4062,12.2937],[-68.8983,18.3982,0.0],[-68.8854,18.3932,0.8556],[-68.8788,18.3882,0.0],[-68.8743,18.3876,2.1883],[-68.8665,18.3826,1.4116],[-68.8579,18.381,3.5717],[-68.8437,18.374,2.6302],[-68.8407,18.3704,5.4346],[-68.8432,18.3707,0.0],[-68.841,18.3662,1.9954],[-68.8437,18.3646,0.0],[-68.8385,18.3593,5.2451],[-68.8365,18.3518,0.0],[-68.814,18.336,4.9719],[-68.8015,18.309,2.4893],[-68.7929,18.3001,1.2551],[-68.7835,18.2865,0.0],[-68.7665,18.2468,0.9416],[-68.7549,18.2326,3.3001],[-68.7518,18.2185,4.4829],[-68.7524,18.2124,0.0],[-68.751,18.2107,5.2733],[-68.754,18.2021,1.6264],[-68.7504,18.2032,0.0],[-68.7485,18.2065,1.2751999999999999],[-68.741,18.2074,0.9064],[-68.7412,18.2099,0.5806],[-68.7471,18.2113,5.1949],[-68.7487,18.2176,4.1311],[-68.7471,18.2218,0.7023],[-68.7446,18.2226,0.6046],[-68.739,18.2229,0.3234],[-68.7324,18.2201,0.2219],[-68.7301,18.2168,0.0],[-68.731,18.2118,0.3149],[-68.7293,18.2135,0.9596],[-68.7282,18.2121,0.9596],[-68.729,18.2099,0.4476],[-68.7337,18.2076,2.7203],[-68.7404,18.2088,0.5806],[-68.7415,18.2051,0.3662],[-68.7382,18.2032,0.0],[-68.7335,18.204,0.4635],[-68.7288,18.2096,0.4476],[-68.7232,18.2088,0.9686],[-68.7213,18.2132,0.0],[-68.7193,18.2135,0.0],[-68.7118,18.2126,0.3907],[-68.706,18.2093,1.0042],[-68.6896,18.2096,0.0],[-68.6832,18.2115,0.0],[-68.6787,18.2154,0.0],[-68.664,18.2151,0.0],[-68.6607,18.2174,1.0454],[-68.6507,18.2146,0.4151],[-68.6504,18.2124,0.0],[-68.6474,18.2099,0.0],[-68.6421,18.2101,0.811],[-68.6429,18.2162,4.2888],[-68.6401,18.215699999999998,0.0],[-68.6407,18.2268,0.0],[-68.6438,18.2276,3.2563],[-68.6413,18.2299,3.3087],[-68.6407,18.2501,0.0],[-68.6421,18.2521,24.7724],[-68.6401,18.2521,0.0],[-68.6401,18.2535,0.0],[-68.6418,18.2557,24.4826],[-68.6374,18.2585,0.0],[-68.6385,18.2624,0.6761],[-68.6365,18.264,0.0],[-68.6329,18.2796,0.0],[-68.6274,18.291,3.0167],[-68.6157,18.3024,2.7557],[-68.6035,18.3257,0.0],[-68.6015,18.3324,0.0],[-68.601,18.3368,1.2005],[-68.6029,18.3426,3.729],[-68.6079,18.3501,1.3602],[-68.6157,18.3568,25.5346],[-68.6137,18.3582,0.0],[-68.6157,18.3635,8.6596],[-68.6151,18.3674,8.9247],[-68.6121,18.3701,0.0],[-68.6115,18.3732,1.7391],[-68.6096,18.3732,0.0],[-68.6076,18.3762,1.934],[-68.6043,18.3776,1.1931],[-68.6043,18.3801,4.7879],[-68.6021,18.3785,0.0],[-68.5976,18.3807,5.7088],[-68.5937,18.3807,14.5448],[-68.5901,18.3765,0.0],[-68.5751,18.3668,0.0],[-68.5668,18.3651,2.4575],[-68.5593,18.3587,0.0],[-68.5501,18.3549,1.2901],[-68.5096,18.3451,0.0],[-68.4896,18.3371,6.6373],[-68.4857,18.3371,8.7044],[-68.4762,18.3418,0.0],[-68.4674,18.3432,6.5012],[-68.4621,18.3468,0.0],[-68.4504,18.3615,33.6153],[-68.4479,18.3893,8.3708],[-68.449,18.4096,9.7957],[-68.444,18.4263,4.2567],[-68.4393,18.4313,1.4382],[-68.434,18.434,6.4064],[-68.434,18.4365,10.4734],[-68.4296,18.439,2.5696],[-68.4282,18.4426,7.0454],[-68.4249,18.4435,0.0],[-68.4226,18.4501,0.4258],[-68.4168,18.4513,0.3631],[-68.4137,18.456,4.6505],[-68.4112,18.4551,0.0],[-68.4013,18.4635,0.3018],[-68.4013,18.4685,2.127],[-68.3957,18.4771,0.0],[-68.3951,18.481,3.0281],[-68.3965,18.4813,3.6951],[-68.3918,18.4849,0.0],[-68.3913,18.4962,0.9373],[-68.3871,18.4976,1.3124],[-68.3846,18.4962,0.4356],[-68.3799,18.4982,2.6919],[-68.3765,18.5035,0.6418],[-68.3737,18.5037,0.0],[-68.3746,18.5057,3.825],[-68.3732,18.5099,5.099],[-68.3712,18.5096,2.1149],[-68.3712,18.5132,5.3242],[-68.3685,18.5176,1.9793],[-68.3643,18.5204,0.0],[-68.3626,18.5293,4.3623],[-68.3535,18.5415,6.029],[-68.3487,18.5449,0.0],[-68.3435,18.5579,7.3288],[-68.3401,18.5615,0.0],[-68.3415,18.5632,2.6547],[-68.339,18.5637,0.0],[-68.339,18.5657,8.8313],[-68.3365,18.5654,0.0],[-68.3315,18.5718,0.0],[-68.3276,18.5849,3.1595],[-68.3251,18.5885,0.0],[-68.3265,18.5904,1.6403],[-68.3254,18.5943,0.0],[-68.3301,18.5926,0.0],[-68.3307,18.596,1.2856],[-68.326,18.5971,1.9057],[-68.3246,18.5954,0.0],[-68.3249,18.6015,1.0526],[-68.3229,18.6049,0.0],[-68.3238,18.6076,0.0],[-68.3226,18.6087,0.0],[-68.3254,18.6118,0.3947],[-68.3288,18.6124,0.6092],[-68.3282,18.6146,1.119],[-68.3251,18.6151,0.0],[-68.3251,18.6182,0.0],[-68.3437,18.6424,2.4829],[-68.3507,18.6451,6.2585],[-68.3546,18.649,0.5242],[-68.3607,18.6501,3.9543],[-68.3674,18.6574,0.0],[-68.376,18.661,6.5466],[-68.3793,18.6651,3.9981],[-68.3807,18.6651,1.295],[-68.3838,18.6601,6.867],[-68.3899,18.661,5.5313],[-68.3957,18.6649,1.1272],[-68.4037,18.6732,1.38],[-68.411,18.6771,4.7733],[-68.4126,18.6835,0.0],[-68.4185,18.6907,0.0],[-68.4313,18.6965,9.8793],[-68.4335,18.6996,5.4153],[-68.4376,18.7004,8.9593],[-68.4424,18.7065,6.5757],[-68.4415,18.7099,1.0086],[-68.4426,18.7115,4.6304],[-68.4468,18.7135,5.4393],[-68.4551,18.7215,6.2069],[-68.4654,18.7343,0.0],[-68.4757,18.7354,2.0455],[-68.4857,18.7404,3.6643],[-68.4907,18.7463,0.0],[-68.4993,18.7512,5.275],[-68.5182,18.7679,2.7192],[-68.5174,18.7693,0.0],[-68.5218,18.7724,0.0],[-68.5207,18.7757,0.9776],[-68.5276,18.7796,0.0],[-68.5301,18.7768,0.0],[-68.5307,18.7729,3.6358],[-68.5357,18.7726,1.8696],[-68.5424,18.779,0.866],[-68.5488,18.7813,3.7698],[-68.5515,18.7857,0.0],[-68.5626,18.7932,1.5953],[-68.5629,18.7954,0.0],[-68.5682,18.7993,2.1077],[-68.5707,18.804,0.0],[-68.5768,18.8079,2.3427],[-68.5774,18.8104,5.2189],[-68.5876,18.8201,0.0],[-68.5968,18.8268,2.7246],[-68.6035,18.829,1.9082],[-68.6082,18.8385,3.7571],[-68.6171,18.8412,5.3001],[-68.6196,18.8449,1.879],[-68.6221,18.8435,7.2483],[-68.6254,18.8454,10.4433],[-68.626,18.8468,10.0036],[-68.6246,18.8474,11.7037],[-68.6215,18.8454,0.0],[-68.6232,18.8512,0.6917],[-68.6418,18.871,5.399],[-68.6426,18.874,1.8773],[-68.6479,18.8768,3.9551],[-68.6507,18.8838,0.8536],[-68.6549,18.886,1.7968],[-68.6649,18.8974,0.0],[-68.6699,18.8982,1.598],[-68.6807,18.9099,3.3309],[-68.686,18.9126,0.0],[-68.6993,18.9293,1.7915],[-68.7104,18.9338,0.0],[-68.714,18.9387,3.2172],[-68.7288,18.9471,0.0],[-68.7465,18.9601,7.337],[-68.7507,18.9599,4.3016],[-68.7538,18.9626,0.0],[-68.7585,18.9621,0.0],[-68.7671,18.9657,1.2362],[-68.7751,18.9743,0.0],[-68.7764,18.9743,0.0],[-68.7784,18.9673,6.1094],[-68.7851,18.971,0.5435],[-68.7878,18.9701,1.9822],[-68.7885,18.9673,0.3347],[-68.7864,18.9625,5.1266],[-68.788,18.9592,4.6576],[-68.7919,18.9582,18.6412],[-68.8011,18.9601,25.9203],[-68.8073,18.9523,25.9142],[-68.8186,18.9445,36.8214],[-68.8211,18.94,40.8373],[-68.8187,18.9329,44.407],[-68.8192,18.923,50.4055],[-68.8387,18.9113,132.0852],[-68.8424,18.9055,168.1],[-68.8417,18.8994,143.3891],[-68.8338,18.8987,165.6095],[-68.8311,18.896,238.7628],[-68.8301,18.8871,327.5094],[-68.8251,18.8832,184.0321],[-68.8265,18.8734,339.7693],[-68.808,18.840699999999998,497.3151],[-68.8135,18.8328,364.8372],[-68.8121,18.826,346.787],[-68.8043,18.8114,468.8618],[-68.8046,18.8055,496.0377],[-68.811,18.7981,553.2327],[-68.8207,18.7972,216.681],[-68.8267,18.7946,385.1977],[-68.8391,18.7844,183.0097],[-68.8502,18.78,256.056],[-68.8492,18.7726,353.1815],[-68.8572,18.7618,303.1846],[-68.8528,18.7515,235.5583],[-68.8654,18.7338,184.8067],[-68.8717,18.7281,172.6932],[-68.8824,18.7248,193.0394],[-68.8915,18.7327,311.4288],[-68.9218,18.7267,114.7341],[-68.9277,18.7195,93.7212],[-68.9309,18.7125,82.9296],[-68.9305,18.7104,83.4189],[-68.926,18.7062,115.735],[-68.9256,18.6997,86.4898],[-68.9311,18.6936,95.0431],[-68.9342,18.6869,83.884],[-68.9319,18.6828,85.0895],[-68.9212,18.6752,107.4246],[-68.9231,18.6686,69.8531]]],
[[[-68.7671,18.1985,6.0824],[-68.7768,18.1954,8.5295],[-68.7826,18.1901,3.4488],[-68.7846,18.1851,0.0],[-68.7826,18.1774,4.5122],[-68.7849,18.1732,4.8369],[-68.7829,18.1732,9.1297],[-68.7765,18.166,1.5529],[-68.7726,18.1646,8.5126],[-68.7618,18.1526,4.4909],[-68.7618,18.1499,1.023],[-68.7562,18.1454,0.0],[-68.7543,18.1401,0.1022],[-68.7576,18.1382,0.0],[-68.7568,18.1365,0.0],[-68.7515,18.1363,2.8245],[-68.7368,18.1296,0.7703],[-68.7318,18.1293,3.0036],[-68.7251,18.1257,3.5171],[-68.7138,18.1235,0.8302],[-68.701,18.1168,0.0],[-68.6893,18.114,1.5638],[-68.6835,18.116,2.208],[-68.6818,18.1146,0.0],[-68.6749,18.1218,0.0],[-68.6618,18.1254,0.0],[-68.6551,18.1243,1.3029],[-68.6515,18.1276,7.968],[-68.6449,18.1301,1.2987],[-68.6185,18.1257,2.8313],[-68.6126,18.1221,2.442],[-68.5979,18.1185,0.7727],[-68.5893,18.1185,2.0268],[-68.5868,18.114,3.1095],[-68.5829,18.1132,1.7125],[-68.5832,18.1149,2.5613],[-68.5818,18.1151,2.5613],[-68.5813,18.1113,0.3935],[-68.5788,18.1099,0.5307],[-68.5726,18.1115,1.9154],[-68.5704,18.1149,0.5523],[-68.569,18.1185,0.0],[-68.5699,18.1268,1.971],[-68.5751,18.1382,0.5358],[-68.5849,18.1501,2.7326],[-68.6004,18.1612,4.6517],[-68.6093,18.1632,12.2282],[-68.6243,18.1582,23.8658],[-68.6318,18.1612,4.6844],[-68.6507,18.1588,11.4203],[-68.6532,18.1618,15.3135],[-68.6574,18.1635,11.0988],[-68.6687,18.1651,6.2561],[-68.674,18.174,0.0],[-68.6854,18.1743,3.494],[-68.6896,18.1765,5.2071],[-68.691,18.1743,2.2775],[-68.6874,18.1729,1.0387],[-68.6879,18.1712,1.7202],[-68.7074,18.1718,11.1616],[-68.7279,18.1843,5.1868],[-68.7368,18.186,11.2267],[-68.7432,18.1893,0.0],[-68.746,18.1887,14.9114],[-68.7554,18.1932,2.8266],[-68.7624,18.1935,12.6719],[-68.7671,18.1985,6.0824]]]]}}