{"type":"Feature","properties":{"GID_2":"GLP.2.13_1","GID_0":"GLP","country":"Guadeloupe","GID_1":"GLP.2_1","province":"Pointe-à-Pitre","NL_NAME_1":"NA","county":"Saint-Louis","VARNAME_2":"NA","NL_NAME_2":"NA","TYPE_2":"Chef-lieucanton","ENGTYPE_2":"Commune","CC_2":"28","HASC_2":"NA","name":"Saint-Louis.county"},
"geometry":{"type": "MultiPolygon","coordinates": [[[[-61.2243,15.9642,19.1485],[-61.2226,15.9682,0.0],[-61.2268,15.9676,22.3269],[-61.2271,15.9699,0.0],[-61.2301,15.9724,0.0],[-61.229,15.9771,0.0],[-61.2315,15.9768,83.1947],[-61.2299,15.981,0.0],[-61.2326,15.9824,37.3328],[-61.2324,15.9854,57.1843],[-61.239,15.9863,41.9862],[-61.2393,15.9888,0.0],[-61.2426,15.9871,13.7387],[-61.2418,15.9913,25.6007],[-61.2471,15.9907,26.2156],[-61.2471,15.9937,0.0],[-61.2487,15.9915,35.19],[-61.2499,15.9935,6.6209],[-61.2521,15.9926,11.879],[-61.261,16.0001,24.4194],[-61.2668,16.0032,16.3499],[-61.2732,16.0043,7.7337],[-61.2735,16.0063,0.0],[-61.2751,16.0049,27.879],[-61.276,16.0082,0.0],[-61.2782,16.0049,27.5757],[-61.2815,16.0037,23.1073],[-61.2907,16.004,0.0],[-61.2912,16.0021,4.9102],[-61.2976,15.9974,0.0],[-61.3013,15.9888,0.0],[-61.3043,15.9882,0.0],[-61.304,15.9871,0.0],[-61.3063,15.9876,0.0],[-61.306,15.9824,0.0],[-61.3082,15.9782,6.3353],[-61.3187,15.976,4.6816],[-61.3187,15.9557,6.0927],[-61.3229,15.9496,3.7857],[-61.3195,15.9493,3.1202],[-61.3101,15.9389,3.717],[-61.2966,15.9341,18.8946],[-61.2821,15.9339,64.7621],[-61.2744,15.9268,70.1355],[-61.2641,15.9244,82.3592],[-61.2609,15.9262,90.8212],[-61.2552,15.9462,146.5283],[-61.245,15.9499,155.9361],[-61.2243,15.9642,19.1485]]]]}}