{"type": "Feature","bbox": [-81.4199,19.3267,-81.361,19.3968],"geometry": {"type": "MultiPolygon","coordinates": [[[[-81.3685,19.3268,2.8968],[-81.366,19.3326,3.9178],[-81.3654,19.3299,0.0],[-81.364,19.3301,0.0],[-81.3613,19.3388,0.0],[-81.3613,19.3446,0.0],[-81.3799,19.3735,3.2687],[-81.3812,19.3785,0.9839],[-81.3793,19.3821,0.9379],[-81.376,19.3829,1.2385],[-81.361,19.3804,0.0],[-81.3643,19.3874,0.0],[-81.3804,19.3957,0.0],[-81.3885,19.3968,3.8332],[-81.4157,19.3851,0.6756],[-81.4199,19.3765,0.0],[-81.4196,19.3713,2.0003],[-81.4037,19.3701,0.0],[-81.3913,19.3624,5.3767],[-81.3865,19.3557,4.9581],[-81.3868,19.3535,0.7353],[-81.3832,19.3485,2.5069],[-81.3815,19.3421,5.4456],[-81.3829,19.3267,2.7793],[-81.3685,19.3268,2.8968]]]]}
,"properties": {"GID_1": "CYM.7_1","GID_0": "CYM","country": "CaymanIslands","province": "WestBay","VARNAME_1": "NA","NL_NAME_1": "NA","TYPE_1": "District","ENGTYPE_1": "District","CC_1": "NA","HASC_1": "KY.WB","ISO_1": "NA","name": "West_Bay.province","area_km2": 21.26262,"hist_schema_id": "Elevation0-9000","hist_area_km2": {"0": 21.26262}}}