{"type": "Feature","bbox": [-74.4812,18.3569,-74.2939,18.6372],"geometry": {"type": "MultiPolygon","coordinates": [[[[-74.3886,18.3613,952.5826],[-74.3878,18.3628,962.6186],[-74.3825,18.3605,1039.3646],[-74.3703,18.3601,1009.3645],[-74.3655,18.3626,935.1296],[-74.3557,18.3601,969.2865],[-74.3431,18.3642,911.2742],[-74.34,18.3619,918.7224],[-74.335,18.3627,878.3137],[-74.3299,18.3608,900.2219],[-74.3245,18.3644,819.9409],[-74.3176,18.3641,894.7071],[-74.3086,18.3669,963.385],[-74.2961,18.3789,991.7126],[-74.2947,18.3854,856.1892],[-74.2961,18.3917,689.564],[-74.2939,18.3946,589.7242],[-74.2963,18.3959,593.7269],[-74.3018,18.4077,515.0184],[-74.3033,18.4114,473.9371],[-74.3024,18.4158,464.5932],[-74.3173,18.4165,254.4639],[-74.3212,18.4182,264.8152],[-74.3269,18.4156,305.5147],[-74.3325,18.4159,288.8581],[-74.3343,18.4186,291.2462],[-74.3307,18.4254,417.4818],[-74.3275,18.4277,544.4644],[-74.314,18.4286,641.4857],[-74.3151,18.4388,430.281],[-74.308,18.4459,283.7252],[-74.3074,18.4538,564.0913],[-74.3044,18.4585,458.3141],[-74.3052,18.4597,433.5391],[-74.3109,18.4615,309.636],[-74.3241,18.4599,189.1626],[-74.327,18.4625,132.7615],[-74.3343,18.4593,146.4266],[-74.3427,18.4654,348.2338],[-74.3459,18.4633,370.1311],[-74.3511,18.4654,391.0186],[-74.3586,18.4634,440.1903],[-74.3593,18.4703,348.5181],[-74.3562,18.4782,340.9145],[-74.3638,18.4844,287.9164],[-74.3702,18.4864,216.777],[-74.3722,18.4887,206.2351],[-74.3689,18.4907,210.5759],[-74.3732,18.4963,218.6787],[-74.3735,18.5008,205.8373],[-74.3682,18.5057,214.5504],[-74.3748,18.5109,390.7431],[-74.3694,18.5159,298.5309],[-74.3673,18.5214,187.047],[-74.3688,18.5224,198.9498],[-74.3683,18.5252,218.8415],[-74.3705,18.5256,265.9587],[-74.3733,18.5294,382.8079],[-74.3697,18.534,413.8712],[-74.3719,18.5363,464.4043],[-74.3709,18.5379,464.7444],[-74.368,18.5384,483.58],[-74.3662,18.5439,455.5941],[-74.3639,18.5457,475.0775],[-74.3537,18.5436,424.4387],[-74.3522,18.5463,468.5351],[-74.351,18.5448,418.8979],[-74.346,18.5454,390.4585],[-74.3383,18.5493,347.696],[-74.34,18.5444,299.1923],[-74.3357,18.5469,229.8456],[-74.3361,18.5481,248.7717],[-74.3288,18.5486,133.8442],[-74.3296,18.5513,167.5035],[-74.3328,18.5537,246.7879],[-74.3349,18.561,431.1125],[-74.3404,18.5641,335.7115],[-74.3358,18.572,324.3854],[-74.3379,18.5736,293.3897],[-74.3467,18.5727,470.1622],[-74.3498,18.5758,497.5327],[-74.3522,18.5825,366.2376],[-74.3584,18.5841,302.4273],[-74.3631,18.5888,158.0598],[-74.3722,18.5898,124.8102],[-74.3786,18.5976,77.2411],[-74.3815,18.6048,67.5237],[-74.3777,18.61,67.0519],[-74.3769,18.6156,52.0642],[-74.3709,18.6165,109.5396],[-74.3692,18.6201,47.2484],[-74.3742,18.6243,33.0896],[-74.382,18.6275,21.2497],[-74.3847,18.6338,28.7008],[-74.3882,18.6372,7.2122],[-74.3909,18.6336,9.2556],[-74.3951,18.6326,0.0],[-74.3951,18.6271,0.0],[-74.3988,18.6304,2.1762],[-74.4072,18.6298,0.0],[-74.4099,18.6235,24.0596],[-74.4174,18.6207,0.0],[-74.4182,18.6188,5.1549],[-74.421,18.6193,0.0],[-74.4262,18.6149,0.0],[-74.4249,18.6122,6.0578],[-74.4261,18.6063,7.0842],[-74.4293,18.6044,2.5749],[-74.4221,18.5944,0.0],[-74.4165,18.593,1.2011],[-74.415,18.5824,8.7283],[-74.4257,18.5577,1.1178],[-74.4313,18.5524,1.6555],[-74.4324,18.5493,2.0148],[-74.4357,18.5487,2.8335],[-74.4343,18.5419,0.0],[-74.4354,18.5382,2.2166],[-74.4371,18.539,0.0],[-74.4424,18.5365,0.0],[-74.4424,18.5349,3.5621],[-74.4457,18.5326,4.2642],[-74.4424,18.5154,1.117],[-74.451,18.5076,0.0],[-74.454,18.5026,1.7222],[-74.4582,18.5007,0.0],[-74.4595,18.4989,0.0],[-74.4585,18.4951,0.0],[-74.4628,18.4907,0.0],[-74.4601,18.4907,31.4367],[-74.4529,18.486,1.4233],[-74.454,18.4829,13.8292],[-74.4527,18.4799,17.4398],[-74.4546,18.476,3.6011],[-74.4529,18.4749,2.6677],[-74.4532,18.4712,2.2459],[-74.4618,18.4651,14.7457],[-74.4596,18.4632,3.9234],[-74.4599,18.4613,3.7245],[-74.4654,18.459,0.0],[-74.4651,18.4532,3.0997],[-74.4682,18.4496,11.1644],[-74.4709,18.4495,0.0],[-74.4693,18.4468,13.8515],[-74.4718,18.4457,0.0],[-74.4696,18.445,5.1196],[-74.4701,18.4421,19.5771],[-74.4715,18.4407,0.9272],[-74.4749,18.441,0.0],[-74.4729,18.4349,0.0],[-74.4812,18.4287,0.0],[-74.4804,18.4271,16.6362],[-74.4751,18.4268,0.0],[-74.4737,18.4235,0.0],[-74.4751,18.4221,0.0],[-74.4735,18.421,4.6059],[-74.476,18.4171,0.0],[-74.4799,18.4162,4.1786],[-74.4807,18.414,3.0285],[-74.476,18.4129,0.0],[-74.4715,18.4145,0.0],[-74.4645,18.412,0.4442],[-74.4535,18.4027,1.2533],[-74.4491,18.3951,0.0],[-74.449,18.391,0.0],[-74.4535,18.3765,0.0],[-74.4476,18.371,0.8517],[-74.4493,18.3583,7.9258],[-74.4411,18.3569,215.4872],[-74.4357,18.3608,266.5307],[-74.4367,18.3662,131.6006],[-74.4324,18.3633,263.4148],[-74.4323,18.3588,299.5354],[-74.4304,18.3597,362.7481],[-74.4231,18.3571,646.9196],[-74.4162,18.36,704.9871],[-74.4102,18.3606,721.4866],[-74.3997,18.3575,871.0269],[-74.3886,18.3613,952.5826]]]]}
,"properties": {"GID_2": "HTI.2.1_1","GID_0": "HTI","country": "Haiti","GID_1": "HTI.2_1","province": "Grand'Anse","NL_NAME_1": "NA","county": "Ansed'Hainault","VARNAME_2": "NA","NL_NAME_2": "NA","TYPE_2": "Arrondissement","ENGTYPE_2": "District","CC_2": "NA","HASC_2": "HT.GR.AH","name": "Ansed'Hainault.county","area_km2": 326.6142,"hist_schema_id": "Elevation0-9000","hist_area_km2": {"0": 12.2044,"25": 20.7886,"50": 22.2947,"75": 17.0282,"100": 16.1647,"125": 13.8135,"150": 14.8194,"175": 13.5139,"200": 15.1231,"225": 14.5609,"250": 15.2845,"275": 14.8026,"300": 13.8977,"325": 13.1542,"350": 13.2946,"375": 11.7662,"400": 11.5652,"425": 9.7752,"450": 8.6085,"475": 7.8845,"500": 6.3759,"525": 6.4363,"550": 4.928,"575": 3.8619,"600": 3.1785,"625": 2.7563,"650": 2.4142,"675": 2.2132,"700": 1.8511,"725": 1.7304,"750": 1.489,"775": 1.5292,"800": 1.2878,"825": 1.2475,"850": 0.9457,"875": 0.7043,"900": 0.6841,"925": 0.7043,"950": 0.4628,"975": 0.503,"1000": 0.2012,"1025": 0.1207,"1050": 0.161,"1075": 0.1006,"1100": 0.2012,"1125": 0.161,"1175": 0.0201}}}