{"type":"Feature","properties":{"GID_2":"HTI.2.3_1","GID_0":"HTI","country":"Haiti","GID_1":"HTI.2_1","province":"Grand'Anse","NL_NAME_1":"NA","county":"Jérémie","VARNAME_2":"NA","NL_NAME_2":"NA","TYPE_2":"Arrondissement","ENGTYPE_2":"District","CC_2":"NA","HASC_2":"HT.GR.JR","name":"Jérémie.county"},
"geometry":{"type": "MultiPolygon","coordinates": [[[[-74.2171,18.402,881.7188],[-74.215,18.4039,811.1697],[-74.2064,18.398,596.8766],[-74.1964,18.3977,707.1957],[-74.1811,18.3919,958.6603],[-74.1757,18.3938,1175.2821],[-74.1716,18.3929,1219.3491],[-74.1554,18.3956,1078.1721],[-74.1317,18.401,1455.3884],[-74.1241,18.3963,1693.2192],[-74.1182,18.3967,1733.7159],[-74.1065,18.4034,1810.1443],[-74.1079,18.416,1603.4713],[-74.1157,18.4263,1409.5566],[-74.1155,18.43,1260.6248],[-74.1197,18.4345,1222.2517],[-74.1129,18.4379,1381.5715],[-74.108,18.4466,1262.1909],[-74.1014,18.4509,985.3245],[-74.0976,18.4568,827.736],[-74.0971,18.4639,773.684],[-74.1005,18.4706,772.9089],[-74.0998,18.476,628.8904],[-74.1021,18.48,691.2667],[-74.0949,18.4917,530.5556],[-74.0961,18.4981,653.0675],[-74.089,18.4979,586.7231],[-74.0874,18.4992,393.0764],[-74.0846,18.5078,475.0874],[-74.0754,18.5231,386.0332],[-74.0771,18.5253,427.9198],[-74.0864,18.5218,448.07],[-74.0902,18.5281,450.9338],[-74.0896,18.5305,389.8093],[-74.0865,18.5315,392.09],[-74.0843,18.5364,351.7455],[-74.0888,18.5448,317.1352],[-74.0873,18.5515,189.8993],[-74.0903,18.5565,158.9613],[-74.0895,18.5592,188.2393],[-74.0703,18.5767,277.7688],[-74.0732,18.5865,115.0938],[-74.072,18.598,77.3563],[-74.0783,18.6163,1.5072],[-74.0854,18.6202,1.2248],[-74.0884,18.6261,4.2912],[-74.1093,18.6368,17.7236],[-74.1118,18.6404,3.8764],[-74.1104,18.6471,0.0],[-74.1188,18.6518,5.4759],[-74.1193,18.6546,0.0],[-74.1274,18.6543,13.4738],[-74.1296,18.6588,0.0],[-74.1404,18.664,0.0],[-74.146,18.6604,25.8658],[-74.1549,18.6668,1.8069],[-74.1712,18.6704,12.3733],[-74.176,18.6694,11.5],[-74.1882,18.6718,9.397],[-74.1954,18.676,0.0],[-74.2101,18.676,0.0],[-74.2332,18.6724,0.0],[-74.2388,18.67,7.279],[-74.2435,18.6701,4.9762],[-74.2479,18.6657,0.0],[-74.249,18.6663,3.617],[-74.2482,18.669,0.0],[-74.2501,18.6701,1.0329],[-74.2588,18.671,1.5358],[-74.2635,18.669,0.0],[-74.2629,18.6671,12.14],[-74.2646,18.6657,0.0],[-74.2635,18.664,0.0],[-74.269,18.6604,27.7995],[-74.2701,18.6557,30.6152],[-74.2757,18.6551,0.0],[-74.2751,18.6522,33.8345],[-74.279,18.6479,7.5242],[-74.2876,18.6521,0.0],[-74.2882,18.6568,0.0],[-74.2907,18.6599,16.5325],[-74.2971,18.6621,0.0],[-74.3075,18.6593,0.0],[-74.3054,18.6528,42.9738],[-74.3093,18.6495,1.378],[-74.3107,18.6497,25.8956],[-74.3121,18.6535,0.0],[-74.3146,18.6543,0.0],[-74.3296,18.6554,14.3596],[-74.3369,18.6485,24.0939],[-74.3437,18.6512,0.0],[-74.3443,18.6474,4.4694],[-74.3463,18.6474,0.8291],[-74.3469,18.649,0.0],[-74.3496,18.6482,2.3291],[-74.3528,18.6429,17.6574],[-74.3603,18.6393,16.3607],[-74.3636,18.6404,19.0911],[-74.3674,18.636,17.0901],[-74.3698,18.6371,0.0],[-74.3763,18.6358,25.5929],[-74.3828,18.6401,21.935],[-74.3838,18.6429,0.0],[-74.3865,18.6437,0.6473],[-74.3889,18.6425,0.0],[-74.3901,18.639,1.4456],[-74.3847,18.6338,28.7008],[-74.382,18.6275,21.2497],[-74.3742,18.6243,33.0896],[-74.3692,18.6201,47.2484],[-74.3709,18.6165,109.5396],[-74.3769,18.6156,52.0642],[-74.3777,18.61,67.0519],[-74.3815,18.6048,67.5237],[-74.3786,18.5976,77.2411],[-74.3722,18.5898,124.8102],[-74.3631,18.5888,158.0598],[-74.3584,18.5841,302.4273],[-74.3522,18.5825,366.2376],[-74.3498,18.5758,497.5327],[-74.3467,18.5727,470.1622],[-74.3379,18.5736,293.3897],[-74.3358,18.572,324.3854],[-74.3404,18.5641,335.7115],[-74.3349,18.561,431.1125],[-74.3328,18.5537,246.7879],[-74.3296,18.5513,167.5035],[-74.3288,18.5486,133.8442],[-74.3361,18.5481,248.7717],[-74.3357,18.5469,229.8456],[-74.34,18.5444,299.1923],[-74.3383,18.5493,347.696],[-74.346,18.5454,390.4585],[-74.351,18.5448,418.8979],[-74.3522,18.5463,468.5351],[-74.3537,18.5436,424.4387],[-74.3639,18.5457,475.0775],[-74.3662,18.5439,455.5941],[-74.368,18.5384,483.58],[-74.3709,18.5379,464.7444],[-74.3719,18.5363,464.4043],[-74.3697,18.534,413.8712],[-74.3733,18.5294,382.8079],[-74.3705,18.5256,265.9587],[-74.3683,18.5252,218.8415],[-74.3688,18.5224,198.9498],[-74.3673,18.5214,187.047],[-74.3694,18.5159,298.5309],[-74.3748,18.5109,390.7431],[-74.3682,18.5057,214.5504],[-74.3735,18.5008,205.8373],[-74.3732,18.4963,218.6787],[-74.3689,18.4907,210.5759],[-74.3722,18.4887,206.2351],[-74.3702,18.4864,216.777],[-74.3638,18.4844,287.9164],[-74.3562,18.4782,340.9145],[-74.3593,18.4703,348.5181],[-74.3586,18.4634,440.1903],[-74.3511,18.4654,391.0186],[-74.3459,18.4633,370.1311],[-74.3427,18.4654,348.2338],[-74.3343,18.4593,146.4266],[-74.327,18.4625,132.7615],[-74.3241,18.4599,189.1626],[-74.3109,18.4615,309.636],[-74.3044,18.4585,458.3141],[-74.3074,18.4538,564.0913],[-74.308,18.4459,283.7252],[-74.3151,18.4388,430.281],[-74.314,18.4286,641.4857],[-74.3275,18.4277,544.4644],[-74.3307,18.4254,417.4818],[-74.3343,18.4186,291.2462],[-74.3325,18.4159,288.8581],[-74.3269,18.4156,305.5147],[-74.3212,18.4182,264.8152],[-74.3173,18.4165,254.4639],[-74.3024,18.4158,464.5932],[-74.3033,18.4114,473.9371],[-74.2963,18.3959,593.7269],[-74.2866,18.39,434.1345],[-74.277,18.3813,471.5026],[-74.265,18.3813,398.9703],[-74.2603,18.3764,483.5142],[-74.2502,18.3747,624.7682],[-74.2355,18.3768,765.8966],[-74.2305,18.3799,1013.6072],[-74.2229,18.3799,924.8289],[-74.2208,18.3834,990.9964],[-74.2232,18.3882,835.1764],[-74.2174,18.3919,727.7714],[-74.2171,18.402,881.7188]]]]}}