{"type":"Feature","properties":{"GID_3":"HTI.10.3.2_1","GID_0":"HTI","country":"Haiti","GID_1":"HTI.10_1","province":"Sud","NL_NAME_1":"NA","GID_2":"HTI.10.3_1","county":"lesChardonnières","NL_NAME_2":"NA","city":"LesAnglais","VARNAME_3":"NA","NL_NAME_3":"NA","TYPE_3":"Commune","ENGTYPE_3":"Commune","CC_3":"NA","HASC_3":"NA","name":"Les_Anglais.city"},
"geometry":{"type": "MultiPolygon","coordinates": [[[[-74.2118,18.2979,0.0],[-74.2079,18.2968,0.0],[-74.1917,18.2977,11.8781],[-74.1932,18.2998,8.0823],[-74.1738,18.3072,512.784],[-74.1717,18.3041,419.2803],[-74.1474,18.3019,367.3546],[-74.1355,18.3027,377.0156],[-74.1346,18.3098,682.9712],[-74.1248,18.3162,596.2908],[-74.1314,18.3232,467.014],[-74.132,18.327,365.4751],[-74.1452,18.3287,193.1524],[-74.1477,18.3312,168.5974],[-74.1435,18.3419,250.0618],[-74.1247,18.351,225.5569],[-74.1175,18.351,285.2361],[-74.1147,18.3526,323.6294],[-74.111,18.3686,809.0225],[-74.107,18.3754,1244.8337],[-74.1065,18.4034,1810.1443],[-74.1182,18.3967,1733.7159],[-74.1241,18.3963,1693.2192],[-74.1317,18.401,1455.3884],[-74.1554,18.3956,1078.1721],[-74.1716,18.3929,1219.3491],[-74.1757,18.3938,1175.2821],[-74.1811,18.3919,958.6603],[-74.1964,18.3977,707.1957],[-74.2064,18.398,596.8766],[-74.215,18.4039,811.1697],[-74.2171,18.402,881.7188],[-74.2174,18.3919,727.7714],[-74.2232,18.3882,835.1764],[-74.2208,18.3834,990.9964],[-74.2229,18.3799,924.8289],[-74.2305,18.3799,1013.6072],[-74.2355,18.3768,765.8966],[-74.244,18.3751,825.306],[-74.2317,18.365,522.9834],[-74.2309,18.3629,524.2701],[-74.2279,18.362,547.2336],[-74.2297,18.3554,384.8899],[-74.2217,18.3367,123.6945],[-74.2338,18.331,65.9545],[-74.2529,18.3103,0.0],[-74.226,18.31,0.4547],[-74.2215,18.306,4.1487],[-74.2196,18.3018,1.8172],[-74.2118,18.2979,0.0]]]]}}