{"type":"Feature","properties":{"GID_2":"CUB.5.4_1","GID_0":"CUB","country":"Cuba","GID_1":"CUB.5_1","province":"Granma","NL_NAME_1":"NA","county":"Campechuela","VARNAME_2":"NA","NL_NAME_2":"NA","TYPE_2":"Municipio","ENGTYPE_2":"Municipality","CC_2":"NA","HASC_2":"CU.GR.CA","name":"Campechuela.county"},
"geometry":{"type": "MultiPolygon","coordinates": [[[[-77.1092,20.0638,127.2465],[-77.1204,20.0835,76.0369],[-77.1771,20.1101,49.7212],[-77.1852,20.1176,32.9231],[-77.1995,20.1448,23.6794],[-77.2007,20.1509,22.4079],[-77.1933,20.1666,17.4673],[-77.1789,20.1842,13.9721],[-77.1739,20.195,18.0441],[-77.1744,20.2013,14.8119],[-77.1912,20.2253,5.5691],[-77.2044,20.2385,4.2059],[-77.2127,20.2446,3.5798],[-77.2384,20.257,5.0661],[-77.2448,20.2627,1.8639],[-77.2576,20.2607,0.0],[-77.2613,20.2543,0.5333],[-77.2704,20.2485,0.5859],[-77.2724,20.244,0.0],[-77.2763,20.2412,1.581],[-77.2957,20.2368,5.0403],[-77.3146,20.2296,0.0],[-77.3238,20.224,0.0],[-77.3262,20.2282,0.0],[-77.3262,20.2232,2.464],[-77.3304,20.2215,2.809],[-77.3365,20.2215,1.5789],[-77.3724,20.2107,0.0],[-77.3749,20.2113,0.0],[-77.3838,20.2076,1.8503],[-77.3978,20.1979,0.0],[-77.3635,20.1687,3.9477],[-77.3352,20.1561,14.3001],[-77.3273,20.1484,18.1171],[-77.3262,20.137,23.7444],[-77.3341,20.1164,38.8283],[-77.3325,20.1008,48.4782],[-77.3139,20.067,97.6663],[-77.2861,20.0474,96.7445],[-77.274,20.0249,174.1211],[-77.275,20.0177,246.6587],[-77.2824,20.0032,350.8232],[-77.2944,19.9856,176.6836],[-77.2621,19.9871,181.4972],[-77.2367,19.9944,313.5513],[-77.1905,19.9956,528.7624],[-77.1718,20.002,471.1423],[-77.1429,20.0049,299.1264],[-77.0967,20.0227,322.7184],[-77.1064,20.0466,216.2811],[-77.1092,20.0638,127.2465]]]]}}