{"type":"Feature","properties":{"GID_2":"DOM.28.2_1","GID_0":"DOM","country":"DominicanRepublic","GID_1":"DOM.28_1","province":"SánchezRamírez","NL_NAME_1":"NA","county":"Cotuí","VARNAME_2":"NA","NL_NAME_2":"NA","TYPE_2":"Municipio","ENGTYPE_2":"Municipality","CC_2":"NA","HASC_2":"DO.SZ.CO","name":"Cotuí.county"},
"geometry":{"type": "MultiPolygon","coordinates": [[[[-70.3741,19.0595,281.5261],[-70.3728,19.0544,346.2228],[-70.3744,19.0513,400.6943],[-70.3892,19.0467,261.9825],[-70.3907,19.0444,218.6046],[-70.387,19.0398,214.5292],[-70.365,19.0256,205.927],[-70.3644,19.0191,172.9912],[-70.3661,19.0127,161.0523],[-70.3629,19.0048,148.9328],[-70.3631,18.9976,139.6828],[-70.359,18.9937,158.2522],[-70.3464,18.9878,245.3057],[-70.3312,18.9871,147.3252],[-70.3265,18.9851,122.8612],[-70.323,18.98,154.0652],[-70.325,18.9704,126.8533],[-70.3164,18.9563,117.6534],[-70.3135,18.9538,110.5035],[-70.3058,18.9522,109.9022],[-70.302,18.9475,103.7023],[-70.2965,18.9461,108.048],[-70.2883,18.9305,96.1104],[-70.2833,18.9279,96.667],[-70.268,18.9273,90.3846],[-70.2584,18.9234,89.7567],[-70.2517,18.9234,117.5001],[-70.2497,18.919,148.0597],[-70.2511,18.9114,113.3013],[-70.2485,18.9065,101.506],[-70.2303,18.8932,124.4246],[-70.2267,18.882,130.1258],[-70.22,18.8772,136.8145],[-70.2172,18.872,186.9778],[-70.2246,18.8546,288.162],[-70.2247,18.8455,439.4622],[-70.2217,18.8427,335.5612],[-70.2116,18.8524,266.9498],[-70.2032,18.8659,347.972],[-70.2,18.8676,429.9715],[-70.191,18.8683,396.8768],[-70.1866,18.8721,437.0434],[-70.1771,18.8662,409.9396],[-70.1721,18.867,436.984],[-70.1639,18.8651,348.5715],[-70.1523,18.8722,363.8743],[-70.1429,18.8697,399.9387],[-70.1369,18.865,276.8176],[-70.1281,18.8668,321.5565],[-70.1159,18.8645,410.3175],[-70.1121,18.8658,342.9775],[-70.1089,18.8718,306.8372],[-70.1088,18.8815,314.3304],[-70.1113,18.8846,311.098],[-70.1103,18.8866,292.4863],[-70.1058,18.8843,274.7579],[-70.101,18.8868,265.6462],[-70.0971,18.887,222.7761],[-70.0907,18.8819,235.2866],[-70.0873,18.8814,234.4874],[-70.0834,18.8829,252.1564],[-70.0772,18.8885,236.0463],[-70.0739,18.8893,238.3271],[-70.0698,18.8867,220.0377],[-70.0629,18.8771,200.4814],[-70.0567,18.8754,174.2427],[-70.0461,18.8791,147.8099],[-70.0407,18.8865,175.3519],[-70.0366,18.8892,212.757],[-70.0317,18.8889,228.1589],[-70.0239,18.8845,210.9613],[-70.0225,18.8863,159.8255],[-70.0221,18.8941,219.1957],[-70.0191,18.9005,159.8364],[-70.0111,18.9081,233.1571],[-70.0017,18.9365,290.7837],[-70.0023,18.9427,386.5325],[-70.0053,18.9483,467.5347],[-70.0133,18.958,523.7935],[-70.0136,18.9703,347.8601],[-70.0114,18.9795,330.8324],[-70.0192,18.9947,343.1668],[-70.0206,19.0083,246.8258],[-70.0341,19.0217,134.545],[-70.0422,19.027,124.7924],[-70.0453,19.0323,109.1307],[-70.0454,19.0367,107.3283],[-70.038,19.0431,107.5136],[-70.035,19.0523,120.5996],[-70.0427,19.0601,119.8848],[-70.0444,19.0703,131.7759],[-70.0548,19.0801,95.0051],[-70.0816,19.0682,46.331],[-70.0871,19.0678,45.2369],[-70.1008,19.0728,60.3701],[-70.1168,19.0742,49.0363],[-70.1195,19.0977,47.1511],[-70.1339,19.0926,34.0535],[-70.1355,19.0856,38.8072],[-70.1469,19.0806,39.7723],[-70.1555,19.081,41.3349],[-70.1642,19.0754,40.5821],[-70.1658,19.0693,44.1512],[-70.169,19.0669,46.4545],[-70.1804,19.0681,47.3206],[-70.1832,19.0667,47.8233],[-70.1841,19.0605,49.1428],[-70.194,19.0543,51.5914],[-70.1944,19.0506,53.1382],[-70.1923,19.0455,63.9637],[-70.1936,19.0432,71.3731],[-70.1988,19.0423,52.3384],[-70.1981,19.0303,86.5],[-70.2011,19.0238,86.5],[-70.2043,19.0209,86.5],[-70.2105,19.0189,86.5],[-70.2136,19.0129,86.5],[-70.2165,19.0128,86.5],[-70.2225,19.0194,97.0966],[-70.2274,19.0224,88.8603],[-70.2298,19.0221,86.5],[-70.2313,18.9981,86.5],[-70.2376,18.9876,86.5],[-70.2459,18.9857,86.5],[-70.2545,18.9766,95.8959],[-70.268,18.9886,374.218],[-70.2747,19.001,366.2878],[-70.2731,19.0055,275.8124],[-70.2636,19.0111,238.9705],[-70.2634,19.0184,330.4831],[-70.267,19.0288,326.7835],[-70.2739,19.034,274.3567],[-70.2771,19.0395,134.2503],[-70.278,19.0517,95.948],[-70.2889,19.0595,83.9669],[-70.3006,19.0757,69.9358],[-70.305,19.0773,70.8055],[-70.3077,19.0702,76.2637],[-70.3069,19.0656,74.4469],[-70.3023,19.0596,78.3972],[-70.3028,19.0554,81.6968],[-70.3101,19.0546,84.3517],[-70.3177,19.0572,92.7769],[-70.3226,19.0571,97.4257],[-70.3389,19.0424,225.7481],[-70.3423,19.0411,191.2502],[-70.3517,19.043,252.9916],[-70.3607,19.0385,338.1138],[-70.3669,19.0436,356.4379],[-70.3659,19.0463,334.2765],[-70.3582,19.0474,167.0865],[-70.3531,19.0506,148.5909],[-70.3494,19.0644,92.5899],[-70.3499,19.071,94.4286],[-70.3527,19.0763,86.0645],[-70.3683,19.0616,171.1434],[-70.3741,19.0595,281.5261]]]]}}