{"type": "Feature","bbox": [-68.9342,18.4665,-68.3226,18.8576],"geometry": {"type": "MultiPolygon","coordinates": [[[[-68.9259,18.6643,65.7841],[-68.9122,18.6567,94.1908],[-68.9108,18.6514,63.4971],[-68.9006,18.6413,83.1063],[-68.9013,18.6161,50.7004],[-68.8887,18.613,44.1535],[-68.8801,18.5957,43.111],[-68.873,18.5912,44.497],[-68.8678,18.5828,50.6451],[-68.8594,18.5758,28.2737],[-68.8487,18.5702,61.4643],[-68.8424,18.5577,72.8168],[-68.8426,18.5495,45.7112],[-68.8447,18.5418,15.451],[-68.8391,18.5203,62.2488],[-68.8188,18.5014,81.2709],[-68.8136,18.4986,78.501],[-68.7797,18.4992,73.4948],[-68.7715,18.5133,71.5761],[-68.7705,18.5279,70.1056],[-68.762,18.5315,67.8274],[-68.7364,18.5323,67.6275],[-68.718,18.5402,69.6251],[-68.7023,18.5373,66.5378],[-68.6718,18.5372,72.2871],[-68.6629,18.5393,71.5816],[-68.6568,18.5319,68.6419],[-68.6429,18.5248,76.0358],[-68.6288,18.5153,76.338],[-68.6038,18.5047,79.66],[-68.6022,18.5014,76.0402],[-68.6044,18.4932,64.9666],[-68.6019,18.4896,64.4387],[-68.5841,18.4852,73.3033],[-68.576,18.4816,72.9332],[-68.565,18.4853,71.3773],[-68.5551,18.4862,72.6529],[-68.543,18.4907,87.3475],[-68.5367,18.4887,86.6755],[-68.5239,18.4882,91.4568],[-68.5168,18.4858,92.5401],[-68.4875,18.4822,95.0092],[-68.4801,18.4798,90.1562],[-68.4637,18.4793,55.2528],[-68.4364,18.4712,16.5811],[-68.4102,18.4705,14.1514],[-68.401,18.4665,2.5533],[-68.3993,18.4724,8.2387],[-68.3957,18.4771,0.0],[-68.3951,18.481,3.0281],[-68.3965,18.4813,3.6951],[-68.3918,18.4849,0.0],[-68.3921,18.4951,0.9319],[-68.3887,18.4976,1.4329],[-68.3846,18.4962,0.4356],[-68.3799,18.4982,2.6919],[-68.3765,18.5035,0.6418],[-68.3737,18.5037,0.0],[-68.3746,18.5057,3.825],[-68.3732,18.5099,5.099],[-68.3712,18.5096,2.1149],[-68.3712,18.5132,5.3242],[-68.3685,18.5176,1.9793],[-68.3643,18.5204,0.0],[-68.3626,18.5293,4.3623],[-68.3535,18.5415,6.029],[-68.3487,18.5449,0.0],[-68.3435,18.5579,7.3288],[-68.3401,18.5615,0.0],[-68.3415,18.5632,2.6547],[-68.339,18.5637,0.0],[-68.339,18.5657,8.8313],[-68.3365,18.5654,0.0],[-68.3315,18.5718,0.0],[-68.3276,18.5849,3.1595],[-68.3251,18.5885,0.0],[-68.3265,18.5904,1.6403],[-68.3254,18.5943,0.0],[-68.3301,18.5926,0.0],[-68.3307,18.596,1.2856],[-68.326,18.5971,1.9057],[-68.3246,18.5954,0.0],[-68.3249,18.6015,1.0526],[-68.3229,18.6049,0.0],[-68.3238,18.6076,0.0],[-68.3226,18.6087,0.0],[-68.3254,18.6118,0.3947],[-68.3288,18.6124,0.6092],[-68.3282,18.6146,1.119],[-68.3251,18.6151,0.0],[-68.3251,18.6182,0.0],[-68.3437,18.6424,2.4829],[-68.3507,18.6451,6.2585],[-68.3546,18.649,0.5242],[-68.3607,18.6501,3.9543],[-68.3674,18.6574,0.0],[-68.376,18.661,6.5466],[-68.3793,18.6651,3.9981],[-68.3807,18.6651,1.295],[-68.3838,18.6601,6.867],[-68.3899,18.661,5.5313],[-68.3957,18.6649,1.1272],[-68.4037,18.6732,1.38],[-68.411,18.6771,4.7733],[-68.4126,18.6835,0.0],[-68.4185,18.6907,0.0],[-68.4313,18.6965,9.8793],[-68.4335,18.6996,5.4153],[-68.4376,18.7004,8.9593],[-68.4424,18.7065,6.5757],[-68.4415,18.7099,1.0086],[-68.4426,18.7115,4.6304],[-68.4468,18.7135,5.4393],[-68.4551,18.7215,6.2069],[-68.4654,18.7343,0.0],[-68.4757,18.7354,2.0455],[-68.4857,18.7404,3.6643],[-68.4907,18.7463,0.0],[-68.496,18.7488,1.5213],[-68.5113,18.7612,7.0399],[-68.5182,18.7679,2.7192],[-68.5174,18.7693,0.0],[-68.5218,18.7724,0.0],[-68.5204,18.7754,10.2093],[-68.5265,18.7793,0.0],[-68.5301,18.7768,0.0],[-68.5307,18.7729,3.6358],[-68.5357,18.7726,1.8696],[-68.5424,18.779,0.866],[-68.5488,18.7813,3.7698],[-68.5515,18.7857,0.0],[-68.5626,18.7932,1.5953],[-68.5629,18.7954,0.0],[-68.5682,18.7993,2.1077],[-68.5707,18.804,0.0],[-68.5768,18.8079,2.3427],[-68.5774,18.8104,5.2189],[-68.5876,18.8201,0.0],[-68.5968,18.8268,2.7246],[-68.6035,18.829,1.9082],[-68.6082,18.8385,3.7571],[-68.6171,18.8412,5.3001],[-68.6196,18.8449,1.879],[-68.6221,18.8435,7.2483],[-68.6254,18.8454,10.4433],[-68.6249,18.8474,7.0426],[-68.6224,18.8454,0.0],[-68.6212,18.8468,2.9791],[-68.6288,18.8576,0.0],[-68.6337,18.8499,6.9467],[-68.6316,18.8403,1.5849],[-68.6366,18.8329,0.8181],[-68.6374,18.8289,1.6741],[-68.6369,18.8199,0.8801],[-68.6314,18.8112,0.7148],[-68.6315,18.8036,1.0585],[-68.6381,18.7945,30.5087],[-68.6462,18.792,13.3506],[-68.6569,18.7959,4.1879],[-68.6653,18.783,43.7939],[-68.6707,18.7827,28.4994],[-68.6781,18.7849,24.0305],[-68.6872,18.7784,49.5942],[-68.7036,18.7853,90.5668],[-68.7107,18.7853,80.1892],[-68.7202,18.7782,93.0228],[-68.728,18.7756,142.4375],[-68.7391,18.7676,141.9791],[-68.7451,18.7609,193.3432],[-68.7485,18.7616,211.3866],[-68.7527,18.7653,217.1738],[-68.7563,18.7726,338.6396],[-68.756,18.7787,426.118],[-68.7534,18.7853,430.3484],[-68.7528,18.8019,216.9814],[-68.7448,18.8148,300.5112],[-68.7499,18.825,250.3791],[-68.7606,18.8338,90.9506],[-68.7647,18.8325,84.6933],[-68.7661,18.8236,86.4755],[-68.77,18.8224,104.7413],[-68.7823,18.8252,339.0156],[-68.7895,18.8243,328.2201],[-68.7952,18.8277,181.9259],[-68.8135,18.8328,364.8372],[-68.8121,18.826,346.787],[-68.8043,18.8114,468.8618],[-68.8046,18.8055,496.0377],[-68.811,18.7981,553.2327],[-68.8207,18.7972,216.681],[-68.8267,18.7946,385.1977],[-68.8391,18.7844,183.0097],[-68.8502,18.78,256.056],[-68.8492,18.7726,353.1815],[-68.8572,18.7618,303.1846],[-68.8528,18.7515,235.5583],[-68.8551,18.7466,344.0411],[-68.8669,18.7323,178.0256],[-68.8717,18.7281,172.6932],[-68.8803,18.7246,152.2124],[-68.8844,18.7255,233.9422],[-68.8886,18.7314,250.4122],[-68.8915,18.7327,311.4288],[-68.9201,18.7275,107.7221],[-68.9277,18.7195,93.7212],[-68.9309,18.7115,85.4366],[-68.926,18.7062,115.735],[-68.9256,18.6997,86.4898],[-68.9311,18.6936,95.0431],[-68.9342,18.6869,83.884],[-68.9319,18.6828,85.0895],[-68.924,18.6782,130.7324],[-68.921,18.6747,118.1204],[-68.9259,18.6643,65.7841]]]]}
,"properties": {"GID_2": "DOM.11.2_1","GID_0": "DOM","country": "DominicanRepublic","GID_1": "DOM.11_1","province": "LaAltagracia","NL_NAME_1": "NA","county": "SalvaleóndeHigüey","VARNAME_2": "NA","NL_NAME_2": "NA","TYPE_2": "Municipio","ENGTYPE_2": "Municipality","CC_2": "NA","HASC_2": "DO.AL.SH","name": "Salvaleónde_Higüey.county","area_km2": 1665.042,"hist_schema_id": "Elevation0-9000","hist_area_km2": {"0": 225.453,"25": 232.141,"50": 184.565,"75": 419.218,"100": 205.02,"125": 112.302,"150": 82.903,"175": 53.777,"200": 35.199,"225": 27.247,"250": 21.183,"275": 16.083,"300": 13.352,"325": 10.621,"350": 7.087,"375": 5.702,"400": 4.497,"425": 2.751,"450": 2.108,"475": 1.245,"500": 0.823,"525": 0.321,"550": 0.422,"575": 0.241,"600": 0.341,"625": 0.161,"650": 0.08,"675": 0.161,"700": 0.04}}}