{"type": "Feature","id": "5147","bbox": [-63.25133,17.61469,-63.2237,17.64692],"geometry": {"type": "Polygon","coordinates": [[[-63.23843,17.64692,172.96],[-63.24893,17.64037,158.3337],[-63.25133,17.62377,225.4926],[-63.23839,17.61469,11.5949],[-63.22948,17.61823,14.9884],[-63.2237,17.62922,310.339],[-63.2303,17.64232,274.0759],[-63.23843,17.64692,172.96]]]}
,"properties": {"ISO3166-1-Alpha-3": "NLD","country": "Netherlands","fill": "#F0F","name": "Saba","area_km2": 7.132833,"hist_schema_id": "Elevation0-9000","hist_area_km2": {"25": 0.080832,"50": 0.101039,"75": 0.141454,"100": 0.141453,"125": 0.101038,"150": 0.141447,"175": 0.121244,"200": 0.262687,"225": 0.343507,"250": 0.282897,"275": 0.323301,"300": 0.46475,"325": 0.505149,"350": 0.303094,"375": 0.404124,"400": 0.52536,"425": 0.444533,"450": 0.262682,"475": 0.363707,"500": 0.323298,"525": 0.222269,"550": 0.161645,"575": 0.24247,"600": 0.181853,"625": 0.161647,"650": 0.040411999999999997,"675": 0.10103,"700": 0.020205,"725": 0.080823999999999993,"750": 0.080823,"775": 0.040411999999999997,"800": 0.060617,"825": 0.101029}}}