{"type":"Feature","properties":{"GID_1":"GRD.1_1","GID_0":"GRD","country":"Grenada","province":"Carriacou","VARNAME_1":"NA","NL_NAME_1":"NA","TYPE_1":"Dependency","ENGTYPE_1":"Dependency","CC_1":"NA","HASC_1":"GD.CA","ISO_1":"NA","name":"Carriacou.province"},
"geometry":{"type": "MultiPolygon","coordinates": [[[[-61.4885,12.4107,8.0709],[-61.4904,12.4113,8.0709],[-61.4938,12.4068,7.2907],[-61.4912,12.4035,0.0],[-61.4863,12.4015,0.0],[-61.4849,12.4065,0.9409],[-61.4885,12.4107,8.0709]]],
[[[-61.479,12.4187,3.1599],[-61.4796,12.4199,1.636],[-61.4799,12.4132,34.2085],[-61.4815,12.4115,0.0],[-61.474,12.4115,0.0],[-61.4746,12.4174,0.5923],[-61.4768,12.4154,12.3756],[-61.479,12.4187,3.1599]]],
[[[-61.4712,12.4332,1.6657],[-61.4762,12.4315,0.0],[-61.4743,12.4321,2.5408],[-61.4732,12.4313,4.4447],[-61.474,12.4296,13.6633],[-61.4712,12.4282,0.0],[-61.469,12.4321,1.5395],[-61.4712,12.4332,1.6657]]],
[[[-61.4799,12.4349,0.0],[-61.4813,12.4365,0.9627],[-61.4821,12.4338,1.0002],[-61.4801,12.4326,0.0],[-61.4799,12.4349,0.0]]],
[[[-61.491,12.4882,1.6537],[-61.494,12.4876,14.5682],[-61.4946,12.4849,1.0329],[-61.4921,12.4849,0.0],[-61.491,12.4882,1.6537]]],
[[[-61.4368,12.529,0.0],[-61.4382,12.5304,1.3748],[-61.4407,12.524,38.4078],[-61.4474,12.5212,0.0],[-61.4474,12.5182,7.7304],[-61.4499,12.5168,19.4695],[-61.4504,12.5088,11.6238],[-61.4487,12.5043,28.0743],[-61.4501,12.5007,12.3221],[-61.4549,12.4968,3.5231],[-61.454,12.4901,0.0],[-61.4551,12.4865,13.2523],[-61.4596,12.484,0.0],[-61.4601,12.4818,1.4106],[-61.4676,12.4788,0.0],[-61.4774,12.4793,0.0],[-61.4776,12.4751,4.6961],[-61.4824,12.4718,7.5996],[-61.4926,12.4724,2.6869],[-61.496,12.474,6.6767],[-61.4957,12.4785,9.6387],[-61.4974,12.4782,0.0],[-61.4971,12.476,0.0],[-61.499,12.4749,0.0],[-61.4968,12.4724,3.6455],[-61.4985,12.4679,7.7041],[-61.4943,12.464,0.0],[-61.4901,12.4657,5.3481],[-61.4932,12.4635,0.768],[-61.4918,12.4624,1.0599],[-61.4863,12.4643,1.7157],[-61.4832,12.4568,3.2751],[-61.4849,12.4535,26.3434],[-61.491,12.4535,24.2145],[-61.4976,12.4471,0.0],[-61.4968,12.4418,0.0],[-61.4987,12.4401,6.1866],[-61.4976,12.4379,9.5548],[-61.4993,12.4354,0.0],[-61.4951,12.4365,1.3233],[-61.4957,12.4421,6.173],[-61.4876,12.4485,1.1715],[-61.4804,12.4488,9.3017],[-61.4701,12.4454,0.0],[-61.464,12.454,13.3073],[-61.4549,12.4585,0.9861],[-61.4524,12.4585,5.8893],[-61.4512,12.456,24.7458],[-61.4482,12.4551,0.0],[-61.4424,12.4582,5.9374],[-61.4388,12.4551,0.0],[-61.4365,12.4574,19.9797],[-61.4296,12.4585,2.4327],[-61.4301,12.464,0.0],[-61.4321,12.466,0.0],[-61.4326,12.4785,0.0],[-61.4287,12.486,5.6242],[-61.4226,12.4868,0.0],[-61.4246,12.4882,1.1181],[-61.4251,12.4926,24.8251],[-61.4229,12.4987,1.4154],[-61.4207,12.499,13.5578],[-61.4199,12.501,0.0],[-61.4296,12.5096,3.8247],[-61.4304,12.5204,0.0],[-61.4282,12.524,0.0],[-61.4301,12.5254,1.2274],[-61.4337,12.5243,7.8783],[-61.4374,12.5271,6.5292],[-61.4368,12.529,0.0]]],
[[[-61.3999,12.5093,0.0],[-61.4024,12.5099,0.0],[-61.4029,12.5079,2.3104],[-61.401,12.5051,0.0],[-61.3999,12.5057,0.0],[-61.3999,12.5093,0.0]]],
[[[-61.3821,12.5263,5.6984],[-61.3871,12.526,1.77],[-61.3926,12.5193,3.7117],[-61.3949,12.5193,3.832],[-61.3937,12.5171,21.0993],[-61.3904,12.5157,6.2126],[-61.3882,12.5115,0.0],[-61.3854,12.5121,39.0668],[-61.3832,12.5107,5.0661],[-61.3785,12.5132,0.0],[-61.3782,12.5201,3.396],[-61.3821,12.5263,5.6984]]],
[[[-61.3843,12.5396,4.8848],[-61.3879,12.5393,5.7628],[-61.3871,12.5362,14.7207],[-61.3793,12.5332,0.0],[-61.381,12.5388,2.2791],[-61.3843,12.5396,4.8848]]]]}}