{"type": "Feature","id": "5069","bbox": [-61.49625,12.44038,-61.38386,12.52973],"geometry": {"type": "MultiPolygon","coordinates": [[[[-61.38386,12.52021,122.7907],[-61.39859,12.51781,0.0],[-61.39704,12.51276,0.0],[-61.39269,12.50959,0.0],[-61.38801,12.50837,0.0],[-61.38386,12.52021,122.7907]]],
[[[-61.42333,12.49518,0.0],[-61.42162,12.51337,0.0],[-61.42805,12.52973,0.0],[-61.44347,12.51655,97.6884],[-61.45434,12.49282,0.0],[-61.46727,12.47557,4.5949],[-61.48888,12.482,0.0],[-61.49478,12.47232,8.4815],[-61.49625,12.46833,81.7739],[-61.48575,12.46882,25.8635],[-61.48266,12.46833,41.7715],[-61.48607,12.46223,2.0426],[-61.49279,12.44648,16.5858],[-61.49625,12.44038,2.4874],[-61.47924,12.44672,0.0],[-61.46255,12.45515,6.7184],[-61.44567,12.45978,41.1631],[-61.42805,12.45466,0.0],[-61.4274,12.47541,0.0],[-61.42333,12.49518,0.0]]]]}
,"properties": {"ISO3166-1-Alpha-3": "GRD","country": "Grenada","fill": "#F0F","name": "Carriacou and Petite Martinique","area_km2": 35.48173,"hist_schema_id": "Elevation0-9000","hist_area_km2": {"0": 10.93013,"25": 7.28687,"50": 4.59572,"75": 3.35361,"100": 2.85676,"125": 2.008,"150": 1.84236,"175": 1.22135,"200": 0.68313,"225": 0.45541,"250": 0.1656,"275": 0.0621,"300": 0.0207}}}