{"type":"Feature","properties":{"GID_1":"PRI.31_1","GID_0":"PRI","country":"PuertoRico","province":"Guayanilla","VARNAME_1":"NA","NL_NAME_1":"NA","TYPE_1":"Municipio","ENGTYPE_1":"Municipality","CC_1":"NA","HASC_1":"PR.GL","ISO_1":"-","name":"Guayanilla.province"},
"geometry":{"type": "MultiPolygon","coordinates": [[[[-66.7977,18.1336,1061.8914],[-66.7962,18.1213,854.632],[-66.8105,18.1135,785.1299],[-66.8067,18.0954,658.7943],[-66.8025,18.0911,510.0459],[-66.8175,18.0691,381.8021],[-66.8183,18.0576,108.6237],[-66.8243,18.0466,204.6897],[-66.8181,18.0294,173.982],[-66.8296,18.0188,144.6541],[-66.8309,18.0102,160.1396],[-66.8267,18.0079,155.8038],[-66.8262,17.9998,115.5656],[-66.8308,17.9988,130.8127],[-66.8353,17.9882,45.7767],[-66.8365,17.9658,70.839],[-66.8529,17.9543,7.8009],[-66.8529,17.9532,0.0],[-66.8457,17.9526,2.6636],[-66.8454,17.9499,0.0],[-66.836,17.9496,0.0],[-66.8296,17.9535,0.0],[-66.8268,17.9532,0.0],[-66.8262,17.9549,3.1561],[-66.8229,17.9535,0.0],[-66.821,17.9554,0.0],[-66.8179,17.9549,0.0],[-66.8168,17.9587,0.0],[-66.8099,17.9624,12.661],[-66.8082,17.9654,0.0],[-66.7962,17.9693,2.4117],[-66.7926,17.969,1.8337],[-66.7868,17.9726,0.0],[-66.7832,17.9796,13.3382],[-66.7832,17.9849,23.3881],[-66.7846,17.9862,1.7454],[-66.7865,17.986,0.0],[-66.7932,17.9776,1.6167],[-66.8065,17.976,0.0],[-66.8065,17.9835,0.0],[-66.8024,17.9837,0.0],[-66.7999,17.981,1.8699],[-66.796,17.9837,0.0],[-66.799,17.9912,0.0],[-66.7979,17.994,2.7764],[-66.7904,17.9924,0.0],[-66.7879,17.9951,0.0],[-66.7846,17.9951,0.0],[-66.781,17.9999,2.8797],[-66.7746,18.0012,0.0],[-66.7701,18.006,1.6237],[-66.7668,18.006,0.5485],[-66.7671,18.0038,0.0],[-66.7657,18.0051,0.0],[-66.7637,18.0043,25.3991],[-66.7637,17.9993,0.0],[-66.7551,18.0012,5.9838],[-66.7547,17.999,2.7731],[-66.7483,18.011,91.7445],[-66.7345,18.0139,103.9714],[-66.7331,18.0173,112.0446],[-66.742,18.0306,156.8334],[-66.7361,18.0425,219.692],[-66.7389,18.0473,216.5535],[-66.7467,18.0448,157.5377],[-66.7556,18.0562,186.5225],[-66.7651,18.039,86.2471],[-66.7665,18.0399,86.2471],[-66.7689,18.0552,92.2128],[-66.7691,18.0709,183.071],[-66.7663,18.0748,240.54],[-66.7659,18.0795,332.6385],[-66.7697,18.0867,527.7837],[-66.7647,18.1005,697.9468],[-66.7657,18.1063,799.0941],[-66.7611,18.112,916.2972],[-66.7649,18.1225,959.3213],[-66.7686,18.1272,988.1974],[-66.7691,18.1348,1037.004],[-66.7853,18.1371,1067.4209],[-66.789,18.1342,1020.0281],[-66.7977,18.1336,1061.8914]]]]}}