{"type":"Feature","properties":{"ISO3166-1-Alpha-3":"BHS","country":"The Bahamas","fill":"#F0F","id":"5038","name":"Inagua"},
"geometry":{"type": "MultiPolygon","coordinates": [[[[-73.03393,21.15673,0.0],[-73.02554,21.18456,1.3508],[-73.00573,21.29145,0.0],[-73.00463,21.31444,0.0],[-73.0122,21.33202,1.036],[-73.03376,21.3404,0.0],[-73.05305,21.32929,0.0],[-73.06819,21.30988,1.2693],[-73.11738,21.2367,1.6417],[-73.13773,21.19767,0.0],[-73.16096,21.16986,0.6584],[-73.21102,21.15807,1.3277],[-73.23308,21.14796,0.0],[-73.25515,21.13506,7.4061],[-73.31794,21.15407,0.0],[-73.34383,21.16541,0.0],[-73.36388,21.19025,3.9438],[-73.37979,21.2082,2.4458],[-73.38622,21.22899,2.3787],[-73.38988,21.2333,1.7043],[-73.39818,21.22484,0.0],[-73.41291,21.20515,0.5309],[-73.42321,21.1979,2.2144],[-73.43334,21.19326,0.0],[-73.44359,21.19294,0.0],[-73.47277,21.19269,0.0],[-73.49263,21.18209,0.0],[-73.5146,21.18687,0.0],[-73.5237,21.16827,2.2461],[-73.54579,21.14974,0.0],[-73.55289,21.1302,3.5816],[-73.5841,21.12134,0.4617],[-73.59586,21.11264,0.0],[-73.61309,21.1069,0.5],[-73.63344,21.0997,0.0],[-73.66783,21.11522,0.0],[-73.66786,21.105,0.0],[-73.65693,21.09398,0.0],[-73.64517,21.08053,0.0],[-73.64707,21.06156,0.0],[-73.65334,21.03989,1.5821],[-73.67009,21.02979,0.0],[-73.69991,21.02687,0.0],[-73.70321,21.01977,0.0],[-73.69996,21.01433,6.492],[-73.68226,20.98578,0.0],[-73.68143,20.96324,0.5603],[-73.67897,20.94599,0.0],[-73.67614,20.93516,0.0],[-73.66336,20.92108,0.4298],[-73.65161,20.91378,1.1867],[-73.64511,20.9124,0.0],[-73.64145,20.92033,0.7838],[-73.63562,20.92926,1.9114],[-73.63142,20.93668,2.4214],[-73.61522,20.94457,2.2763],[-73.60082,20.94652,0.0],[-73.53681,20.94124,0.0],[-73.49261,20.92446,4.3237],[-73.43342,20.93765,0.8678],[-73.39896,20.93576,1.5925],[-73.34692,20.96383,1.7002],[-73.32543,20.96134,0.0],[-73.31066,20.95051,5.523],[-73.31729,20.94505,0.0],[-73.31729,20.93765,0.0],[-73.31045,20.93765,0.0],[-73.29109,20.95059,0.0],[-73.28161,20.95506,0.0],[-73.26891,20.95873,0.0],[-73.22556,20.95246,0.0],[-73.15119,20.98212,0.0],[-73.12982,20.99366,0.0],[-73.09759,21.0814,0.0],[-73.03393,21.15673,0.0]]],
[[[-73.04372,21.42607,0.0],[-73.03366,21.43589,0.0],[-72.99957,21.45171,0.0],[-72.98823,21.45409,0.0],[-72.97077,21.46943,2.8578],[-72.93343,21.47345,0.0],[-72.91465,21.48506,0.0],[-72.91044,21.50485,0.0],[-72.91975,21.5148,0.0],[-72.93957,21.52306,1.6574],[-72.95946,21.53313,1.5332],[-72.97003,21.54189,2.9807],[-72.98217,21.55655,0.0],[-72.99153,21.562,0.0],[-73.00656,21.55208,0.0],[-73.02404,21.53217,5.0144],[-73.04282,21.5214,4.401],[-73.06618,21.51415,0.3372],[-73.07623,21.5068,0.0],[-73.07243,21.48634,0.0],[-73.05931,21.46704,0.8364],[-73.05217,21.4478,3.4117],[-73.05495,21.43544,0.0],[-73.05305,21.4249,0.0],[-73.04372,21.42607,0.0]]]]}}