{"type": "Feature","bbox": [-73.7026,20.9121,-72.9129,21.5607],"geometry": {"type": "MultiPolygon","coordinates": [[[[-73.3085,20.9668,0.3566],[-73.3124,20.9665,0.0927],[-73.3132,20.9646,0.1825],[-73.3096,20.9651,0.2647],[-73.3054,20.9632,0.0],[-73.3085,20.9668,0.3566]]],
[[[-73.0165,21.3371,0.0],[-73.026,21.3382,0.3284],[-73.0321,21.3368,1.6511],[-73.0437,21.3307,1.168],[-73.0565,21.3271,0.0],[-73.0571,21.324,0.0],[-73.0668,21.3213,0.6426],[-73.0693,21.3154,3.4822],[-73.0685,21.3093,1.2693],[-73.0718,21.3032,0.0],[-73.0726,21.2979,0.4051],[-73.0793,21.2913,0.9569],[-73.0801,21.2857,0.0],[-73.0857,21.2818,2.4316],[-73.0926,21.2632,0.4097],[-73.099,21.2574,0.0],[-73.1001,21.2538,0.7544],[-73.1065,21.2504,0.0],[-73.1132,21.2435,2.3295],[-73.116,21.2429,0.0],[-73.1174,21.2379,1.397],[-73.1218,21.2365,0.4544],[-73.1243,21.2232,0.865],[-73.1263,21.2215,0.0],[-73.1274,21.2143,0.0],[-73.1312,21.2085,0.0],[-73.1382,21.1876,0.7384],[-73.1487,21.1757,1.603],[-73.1601,21.1718,0.0],[-73.1624,21.1682,1.1918],[-73.1724,21.1646,0.0],[-73.1724,21.1632,3.6797],[-73.1926,21.1626,0.0],[-73.1982,21.1601,3.7361],[-73.2126,21.1585,0.3598],[-73.2246,21.1521,0.0],[-73.2357,21.1432,5.5652],[-73.246,21.1437,1.4655],[-73.2626,21.1351,6.1416],[-73.271,21.1354,7.6362],[-73.2824,21.1413,0.2401],[-73.2865,21.1415,0.2585],[-73.2901,21.1396,4.6723],[-73.3037,21.1449,1.0645],[-73.3085,21.1449,5.7657],[-73.3313,21.1576,0.0],[-73.3412,21.161,0.7663],[-73.3421,21.1632,0.0],[-73.3507,21.1688,0.0],[-73.3532,21.1735,0.0],[-73.3579,21.1776,0.7269],[-73.3646,21.1924,0.0],[-73.3726,21.204,0.5753],[-73.3746,21.2143,0.0],[-73.3799,21.2243,0.0],[-73.3851,21.2326,0.0],[-73.3907,21.236,0.0],[-73.3974,21.2293,0.0],[-73.3996,21.2188,1.0125],[-73.404,21.2143,0.0],[-73.4051,21.2107,0.0],[-73.4126,21.2035,2.4116],[-73.4251,21.1996,0.0],[-73.4282,21.1951,0.2306],[-73.4276,21.1926,0.5835],[-73.4315,21.1907,1.4704],[-73.4374,21.1893,1.5185],[-73.4499,21.1913,0.0],[-73.4557,21.1896,2.0447],[-73.4732,21.1899,0.0],[-73.4976,21.1813,2.1237],[-73.5176,21.1863,0.4698],[-73.5182,21.1771,0.0],[-73.5268,21.1688,0.0],[-73.5279,21.1643,0.6915],[-73.5326,21.1612,0.0],[-73.5324,21.1585,0.3414],[-73.5454,21.1518,0.0],[-73.5454,21.1474,0.0],[-73.5426,21.1457,0.7599],[-73.5451,21.1363,0.0],[-73.5515,21.1307,0.6989],[-73.5679,21.1271,0.0],[-73.5685,21.1218,1.031],[-73.5735,21.1168,1.0633],[-73.5779,21.1162,0.1278],[-73.586,21.1215,0.4911],[-73.5907,21.1174,0.0],[-73.5918,21.1126,1.9161],[-73.5951,21.1101,1.698],[-73.6035,21.1082,1.7851],[-73.6115,21.1099,1.1024],[-73.619,21.1093,0.0],[-73.621,21.1046,0.49],[-73.6279,21.0987,0.5],[-73.6446,21.1001,1.8853],[-73.6679,21.1126,0.3577],[-73.6651,21.0963,0.7969],[-73.6601,21.0963,0.3628],[-73.6521,21.0935,0.0],[-73.6471,21.0885,2.4607],[-73.6443,21.0826,0.686],[-73.6451,21.0713,1.4797],[-73.644,21.0668,0.0],[-73.6479,21.0468,2.6387],[-73.6562,21.0371,0.4976],[-73.6665,21.0296,0.0],[-73.6704,21.0279,2.3251],[-73.6971,21.0263,0.0],[-73.7001,21.0246,0.7974],[-73.7026,21.0176,0.0],[-73.701,21.0118,1.3276],[-73.696,21.006,0.0],[-73.6913,21.0035,0.643],[-73.6818,20.9871,0.0],[-73.679,20.9735,0.0],[-73.6815,20.9624,0.5603],[-73.6787,20.9551,0.0],[-73.6782,20.9413,0.0],[-73.6743,20.9321,4.5083],[-73.6643,20.9215,0.0],[-73.654,20.9149,0.0],[-73.6462,20.9121,0.9095],[-73.6429,20.9151,0.0],[-73.6326,20.9346,1.3587],[-73.626,20.9418,0.4149],[-73.6235,20.9432,0.4967],[-73.6185,20.9421,0.8499],[-73.6099,20.944,0.4026],[-73.6021,20.9474,1.5908],[-73.596,20.9476,1.0212],[-73.5846,20.944,1.327],[-73.5771,20.9476,1.6565],[-73.5663,20.9468,0.0],[-73.5629,20.9479,0.7316],[-73.5368,20.9443,0.7113],[-73.5182,20.9374,0.6476],[-73.5143,20.9326,0.3274],[-73.5082,20.9315,0.0],[-73.4999,20.9226,0.0],[-73.4915,20.9224,2.012],[-73.4715,20.9315,0.0],[-73.4593,20.9321,1.4929],[-73.456,20.9343,0.3613],[-73.4496,20.9326,0.0],[-73.4376,20.9371,0.6214],[-73.4287,20.9349,0.6976],[-73.4279,20.9321,0.1374],[-73.4124,20.9315,0.0],[-73.4029,20.9349,1.2731],[-73.391,20.9335,0.0],[-73.3832,20.936,0.0],[-73.3749,20.9451,0.0],[-73.369,20.9479,0.0],[-73.3649,20.9529,0.7231],[-73.3524,20.9624,1.4939],[-73.3407,20.965699999999998,0.6772],[-73.3335,20.966,0.6076],[-73.3146,20.961,0.0],[-73.3138,20.9671,0.3656],[-73.3082,20.9682,0.0],[-73.3051,20.9726,0.2767],[-73.3012,20.9737,0.0],[-73.2943,20.9715,0.0],[-73.2921,20.9679,0.0],[-73.3032,20.9618,3.468],[-73.3115,20.964,0.0],[-73.3126,20.9607,0.0621],[-73.3157,20.9585,0.4698],[-73.3149,20.9546,0.2336],[-73.3187,20.9521,0.0],[-73.3182,20.9451,0.0],[-73.3132,20.9457,0.0],[-73.3007,20.9579,2.6758],[-73.2849,20.9676,2.222],[-73.2771,20.9674,1.2022],[-73.266,20.9632,0.0],[-73.2579,20.9585,0.7893],[-73.2538,20.9524,0.2243],[-73.2513,20.9521,0.0],[-73.2432,20.9535,0.0],[-73.2363,20.9582,1.7694],[-73.2321,20.9574,1.1103],[-73.2315,20.9535,0.0],[-73.2285,20.9532,0.0],[-73.2276,20.9557,0.0],[-73.2218,20.9604,0.8062],[-73.2082,20.9646,0.0],[-73.2021,20.964,0.5497],[-73.1849,20.9696,0.9424],[-73.1771,20.9687,0.0],[-73.1757,20.965699999999998,1.5485],[-73.1696,20.9671,2.3926],[-73.1665,20.9646,0.0],[-73.1626,20.9643,0.7881],[-73.1582,20.9682,2.2427],[-73.1526,20.9876,6.2188],[-73.1499,20.9912,5.8435],[-73.1451,21.0054,0.0],[-73.1424,21.0082,0.79],[-73.1387,21.0193,1.7324],[-73.1249,21.0263,0.0],[-73.1101,21.0571,1.8188],[-73.1065,21.0599,1.8608],[-73.1015,21.0788,2.2929],[-73.0857,21.1063,0.6745],[-73.0801,21.1071,1.679],[-73.0796,21.1049,0.0],[-73.0785,21.1051,0.0],[-73.0754,21.1121,1.0932],[-73.0665,21.1232,0.9514],[-73.0515,21.1321,1.1017],[-73.0462,21.1407,4.8359],[-73.041,21.1454,0.0],[-73.0401,21.1488,1.5784],[-73.0371,21.1513,1.548],[-73.0362,21.1565,0.9105],[-73.0282,21.1754,0.0],[-73.0179,21.196,0.0],[-73.0154,21.2107,0.0],[-73.0165,21.2176,0.8657],[-73.0151,21.2268,0.0],[-73.0135,21.2276,0.0],[-73.0146,21.2399,1.0868],[-73.0085,21.2738,0.0],[-73.0088,21.279,0.0],[-73.011,21.2824,9.1023],[-73.0113,21.2971,1.9413],[-73.0079,21.2985,0.0],[-73.0104,21.3107,4.2745],[-73.0085,21.3265,0.0],[-73.0093,21.3338,0.0],[-73.0113,21.3343,0.0],[-73.0143,21.3312,1.1378],[-73.0168,21.3343,0.0],[-73.0149,21.3371,0.0],[-73.0165,21.3371,0.0]]],
[[[-73.5876,21.1326,0.0],[-73.5912,21.1332,0.5348],[-73.5918,21.1321,0.5348],[-73.5871,21.1257,0.0],[-73.5837,21.1315,0.0],[-73.5876,21.1326,0.0]]],
[[[-73.0001,21.0001,0.0],[-73.0001,20.9999,0.0],[-72.9999,20.9999,0.0],[-72.9999,21.0001,0.0],[-73.0001,21.0001,0.0]]],
[[[-72.9951,21.5604,1.4001999999999999],[-72.9971,21.5607,0.0],[-72.9996,21.5571,0.0],[-73.0024,21.5568,0.0],[-73.0038,21.5518,1.0453],[-73.0146,21.5418,2.6858],[-73.0354,21.5271,0.0],[-73.059,21.5163,3.2154],[-73.069,21.5135,2.8037],[-73.0768,21.5079,0.3723],[-73.0732,21.4876,2.3565],[-73.0563,21.461,3.6926],[-73.0529,21.4518,4.6916],[-73.0529,21.4324,3.0054],[-73.0518,21.4307,2.6044],[-73.054,21.4265,0.0],[-73.0535,21.4235,0.0],[-73.0512,21.4235,0.0],[-73.0493,21.426,3.1584],[-73.046,21.4251,0.0],[-73.0404,21.429,0.0],[-73.0287,21.4393,0.8334],[-73.0276,21.4426,3.7286],[-73.0229,21.4454,0.5931],[-73.0046,21.4518,0.0],[-72.9987,21.4524,3.2831],[-72.9935,21.4501,0.0],[-72.9893,21.4521,0.0],[-72.9863,21.4585,0.744],[-72.9835,21.4579,0.3461],[-72.9779,21.4626,0.0],[-72.9765,21.466,3.2498],[-72.9729,21.4671,1.5845],[-72.9715,21.4693,2.8578],[-72.964,21.4699,0.0],[-72.9638,21.4726,1.9742],[-72.9629,21.4713,0.0],[-72.9607,21.4724,2.2936],[-72.9535,21.4715,0.0],[-72.9474,21.4737,0.0],[-72.9429,21.4721,2.0372],[-72.9399,21.4737,0.8374],[-72.9365,21.4724,0.5197],[-72.9287,21.4796,0.8529],[-72.9243,21.4813,0.897],[-72.9207,21.4863,0.4818],[-72.9185,21.4854,0.0],[-72.9168,21.489,0.0],[-72.9174,21.4924,4.0179],[-72.9143,21.4976,0.7498],[-72.9129,21.5074,0.0],[-72.9251,21.5171,0.0],[-72.9229,21.5199,0.0],[-72.9279,21.5182,2.1041],[-72.9282,21.5215,0.0],[-72.9304,21.5199,1.8417],[-72.9362,21.5235,0.5398],[-72.9401,21.5232,2.6699],[-72.9415,21.5251,1.211],[-72.944,21.524,1.8525],[-72.9437,21.5265,0.0],[-72.9471,21.5249,2.0238],[-72.9501,21.5279,1.238],[-72.9518,21.5274,1.238],[-72.9624,21.5349,1.0036],[-72.9626,21.5374,0.0],[-72.9674,21.5393,2.9567],[-72.9676,21.5418,0.0],[-72.9707,21.5418,3.5256],[-72.9732,21.5454,1.3967],[-72.9743,21.5449,1.3967],[-72.9746,21.5476,0.0],[-72.9779,21.5513,0.0],[-72.981,21.5496,3.3652],[-72.9815,21.5513,0.0],[-72.984,21.5518,4.2124],[-72.9832,21.5551,0.0],[-72.9868,21.5546,1.65],[-72.9899,21.5593,0.0],[-72.9951,21.5604,1.4001999999999999]]]]}
,"properties": {"GID_1": "BHS.16_1","GID_0": "BHS","country": "Bahamas","state": "Inagua","VARNAME_1": "Inague","NL_NAME_1": "NA","TYPE_1": "District","ENGTYPE_1": "District","CC_1": "NA","HASC_1": "BS.IN","ISO_1": "NA","name": "Inagua.state","area_km2": 1684.368,"hist_schema_id": "Elevation0-9000","hist_area_km2": {"0": 1671.991,"25": 12.378}}}