{"type": "Feature","id": "5113","bbox": [-62.86734,17.88198,-62.79166,17.92914],"geometry": {"type": "Polygon","coordinates": [[[-62.83886,17.88198,28.9939],[-62.82384,17.88325,0.0],[-62.81013,17.89228,15.4653],[-62.79894,17.90449,3.0932],[-62.79166,17.91547,0.0],[-62.85741,17.92503,0.0],[-62.86612,17.92914,0.0],[-62.86734,17.9204,113.322],[-62.86132,17.90542,0.0],[-62.85094,17.89045,0.0],[-62.83886,17.88198,28.9939]]]}
,"properties": {"ISO3166-1-Alpha-3": "BLM","country": "Saint Barthelemy","fill": "#F0F","name": "Saint Barthélemy","area_km2": 24.59365,"hist_schema_id": "Elevation0-9000","hist_area_km2": {"0": 11.23733,"25": 3.00616,"50": 2.52196,"75": 2.62282,"100": 1.91669,"125": 1.6746,"150": 0.88774,"175": 0.46406,"200": 0.16141,"225": 0.0807,"275": 0.02018}}}