{"type": "Feature","id": "1436","bbox": [-61.455329999999996,15.38935,-61.31736,15.49446],"geometry": {"type": "Polygon","coordinates": [[[-61.38446,15.47779,687.9261],[-61.38927,15.47986,713.0981],[-61.39286,15.4821,848.1819],[-61.40568,15.49446,895.7449],[-61.42384,15.49208,760.5737],[-61.43066,15.4889,630.8687],[-61.43208,15.48714,634.1084],[-61.43307,15.48549,544.1354],[-61.43916,15.47952,475.23],[-61.45531,15.46634,68.1611],[-61.455329999999996,15.46633,68.1611],[-61.45425,15.46483,31.638],[-61.44978,15.45466,0.0],[-61.44787,15.44514,54.8804],[-61.4442,15.43684,0.0],[-61.42121,15.41474,165.8265],[-61.41808,15.40595,105.9394],[-61.41601,15.39014,39.979],[-61.41599,15.39015,39.979],[-61.40488,15.39361,307.0304],[-61.39255,15.39392,366.5644],[-61.37547,15.38994,462.4593],[-61.37113,15.38935,360.8446],[-61.36803,15.38973,376.3963],[-61.33457,15.40495,420.8801],[-61.31736,15.44487,581.8203],[-61.32287,15.45833,357.0346],[-61.33811,15.47024,533.9237],[-61.34398,15.47337,632.0093],[-61.34785,15.47497,512.1217],[-61.35088,15.47528,503.3686],[-61.35405,15.47593,523.342],[-61.3577,15.47714,578.5779],[-61.36811,15.48159,658.4208],[-61.36935,15.48185,689.7761],[-61.37043,15.48164,689.7761],[-61.37454,15.47962,828.382],[-61.37857,15.47838,812.2996],[-61.38446,15.47779,687.9261]]]}
,"properties": {"ISO3166-1-Alpha-3": "DMA","country": "Dominica","fill": "#00F","name": "Saint Joseph","area_km2": 115.38657,"hist_schema_id": "Elevation0-9000","hist_area_km2": {"0": 1.06275,"25": 1.47155,"50": 1.96205,"75": 2.45256,"100": 2.41169,"125": 2.47304,"150": 2.5752,"175": 2.96353,"200": 2.7796,"225": 3.74014,"250": 5.02776,"275": 6.86715,"300": 8.93135,"325": 7.56185,"350": 7.2758,"375": 5.74296,"400": 6.51952,"425": 6.11076,"450": 5.23183,"475": 4.02593,"500": 4.20975,"525": 3.65791,"550": 2.77921,"575": 2.59519,"600": 1.53259,"625": 1.90038,"650": 2.34989,"675": 2.06383,"700": 1.57337,"725": 1.55295,"750": 1.45077,"775": 1.06253,"800": 0.59257,"825": 0.34736,"850": 0.16347,"875": 0.1839,"900": 0.04086,"925": 0.0613,"950": 0.02043,"975": 0.04086,"1000": 0.02043}}}