{"type":"Feature","properties":{"GID_1":"DMA.5_1","GID_0":"DMA","country":"Dominica","province":"SaintJoseph","VARNAME_1":"NA","NL_NAME_1":"NA","TYPE_1":"Parish","ENGTYPE_1":"Parish","CC_1":"NA","HASC_1":"DM.JH","ISO_1":"DM-06","name":"Saint_Joseph.province"},
"geometry":{"type": "MultiPolygon","coordinates": [[[[-61.4002,15.5018,1323.3303],[-61.4094,15.5012,1025.8953],[-61.419,15.4983,958.8942],[-61.4321,15.4809,608.9881],[-61.4408,15.4765,495.8124],[-61.4548,15.4618,0.0],[-61.4499,15.4582,10.5771],[-61.4465,15.4526,10.6952],[-61.4501,15.4468,30.7176],[-61.4501,15.4432,7.6365],[-61.4371,15.4346,3.9974],[-61.4357,15.4271,1.0827],[-61.4271,15.4154,0.0],[-61.4274,15.3974,0.0],[-61.4246,15.3954,9.2001],[-61.4246,15.3926,15.0341],[-61.4207,15.3898,0.0],[-61.4028,15.4007,210.5653],[-61.3841,15.4009,477.8978],[-61.3692,15.3954,525.3496],[-61.3639,15.3958,432.3564],[-61.3427,15.4072,311.8726],[-61.329,15.4118,548.9343],[-61.3259,15.4265,476.1242],[-61.3215,15.4292,466.8636],[-61.3162,15.4365,474.6861],[-61.3158,15.4643,439.6623],[-61.3422,15.4829,637.2502],[-61.3534,15.4837,567.7798],[-61.3635,15.4889,606.5732],[-61.3667,15.4887,655.6346],[-61.3742,15.4836,884.3254],[-61.3789,15.4835,983.1898],[-61.3852,15.4869,913.8951],[-61.4002,15.5018,1323.3303]]]]}}