{"type": "Feature","bbox": [-71.6958,19.3276,-71.4956,19.5243],"geometry": {"type": "MultiPolygon","coordinates": [[[[-71.6902,19.4895,83.4893],[-71.6892,19.4868,82.5429],[-71.6919,19.4821,79.1981],[-71.6912,19.4794,92.4428],[-71.6884,19.4794,90.2914],[-71.6865,19.4774,95.1766],[-71.6884,19.4716,96.2772],[-71.6845,19.4716,113.0468],[-71.6853,19.4669,101.4124],[-71.6825,19.4654,120.3009],[-71.6845,19.4634,114.8033],[-71.679,19.4561,125.3356],[-71.677,19.4561,133.7289],[-71.6778,19.4502,123.6314],[-71.6758,19.4502,138.3896],[-71.6758,19.4483,139.3432],[-71.6778,19.4475,121.4044],[-71.679,19.4436,128.1169],[-71.677,19.4382,157.5527],[-71.6805,19.4374,134.8447],[-71.6797,19.4362,139.0548],[-71.6844,19.4269,191.513],[-71.6864,19.4269,158.5874],[-71.6883,19.4214,171.9103],[-71.6883,19.4187,190.0623],[-71.6864,19.4195,177.4369],[-71.6871,19.4121,194.5507],[-71.6956,19.4006,210.9765],[-71.6946,19.3989,229.7805],[-71.6958,19.3969,245.1579],[-71.6938,19.3954,298.3892],[-71.6946,19.3942,298.3892],[-71.691,19.3849,384.0377],[-71.691,19.3795,390.8279],[-71.6883,19.3775,640.874],[-71.6883,19.3756,614.8397],[-71.691,19.3736,353.7291],[-71.691,19.369,405.0835],[-71.689,19.3674,463.8082],[-71.6917,19.3644,558.7714],[-71.6839,19.362,700.3961],[-71.6388,19.3615,296.7055],[-71.6348,19.3627,420.441],[-71.6323,19.3692,369.9916],[-71.6245,19.3677,390.4516],[-71.618,19.3724,468.4348],[-71.6125,19.3722,415.9543],[-71.6076,19.3686,505.1268],[-71.6061,19.3612,608.4386],[-71.601,19.3519,601.3085],[-71.5906,19.3452,720.0313],[-71.5825,19.33,746.2051],[-71.5781,19.3276,767.799],[-71.5688,19.333,963.1429],[-71.5538,19.3302,797.1591],[-71.5428,19.3355,1030.4062],[-71.5318,19.3343,929.5044],[-71.5328,19.3441,961.8959],[-71.5305,19.349,733.9132],[-71.5175,19.3575,412.5369],[-71.5058,19.3597,360.1295],[-71.5035,19.3637,325.8602],[-71.5038,19.367,351.8872],[-71.5157,19.3785,333.9604],[-71.5174,19.3828,325.4742],[-71.5136,19.3876,307.7635],[-71.4956,19.3994,283.9935],[-71.4956,19.402,278.3192],[-71.5003,19.4104,252.6014],[-71.5074,19.4118,281.858],[-71.5223,19.4088,352.8204],[-71.5325,19.4122,348.8802],[-71.5356,19.4164,429.9685],[-71.5344,19.4238,363.5538],[-71.5436,19.4285,499.1302],[-71.5418,19.4364,404.1541],[-71.5426,19.4392,327.4835],[-71.5717,19.4439,398.5845],[-71.5823,19.4496,483.2838],[-71.5855,19.4588,551.3375],[-71.5959,19.4604,622.156],[-71.5981,19.4628,538.6502],[-71.5978,19.4761,330.2925],[-71.5915,19.4834,302.8732],[-71.5606,19.4918,186.8076],[-71.5618,19.502,179.6865],[-71.5545,19.512,149.5124],[-71.5556,19.5173,137.1743],[-71.5535,19.5191,140.9679],[-71.5556,19.5236,147.2062],[-71.5622,19.5243,133.0263],[-71.5723,19.5168,128.0725],[-71.5956,19.5158,155.679],[-71.6005,19.5107,214.0628],[-71.6014,19.5006,215.0348],[-71.6041,19.4948,233.2859],[-71.6087,19.4914,236.6342],[-71.6224,19.4911,301.4315],[-71.6308,19.4888,251.2601],[-71.6419,19.4914,186.4339],[-71.6507,19.4893,152.61],[-71.6647,19.4995,112.0259],[-71.6727,19.4951,93.6013],[-71.681,19.4939,72.0406],[-71.6902,19.4895,83.4893]]]]}
,"properties": {"GID_2": "DOM.4.3_1","GID_0": "DOM","country": "DominicanRepublic","GID_1": "DOM.4_1","province": "Dajabón","NL_NAME_1": "NA","county": "LomadeCabrera","VARNAME_2": "NA","NL_NAME_2": "NA","TYPE_2": "Municipio","ENGTYPE_2": "Municipality","CC_2": "NA","HASC_2": "DO.DA.LC","name": "Lomade_Cabrera.county","area_km2": 249.515,"hist_schema_id": "Elevation0-9000","hist_area_km2": {"75": 1.0593,"100": 4.8172,"125": 8.4752,"150": 15.0325,"175": 16.6726,"200": 19.8531,"225": 20.9537,"250": 16.0361,"275": 13.8378,"300": 16.3782,"325": 22.6572,"350": 22.8383,"375": 14.4596,"400": 7.3796,"425": 6.1999,"450": 5.04,"475": 4.22,"500": 3.16,"525": 2.8401,"550": 3.08,"575": 2.8002,"600": 2.5402,"625": 1.7602,"650": 0.9601,"675": 0.9601,"700": 0.8801,"725": 0.9801,"750": 0.7201,"775": 0.6201,"800": 0.8202,"825": 0.7002,"850": 0.8202,"875": 0.7802,"900": 0.8202,"925": 0.9203,"950": 0.9403,"975": 0.8602,"1000": 0.9203,"1025": 0.9403,"1050": 0.8602,"1075": 0.6402,"1100": 0.4801,"1125": 0.5402,"1150": 0.4601,"1175": 0.3001,"1200": 0.2401,"1225": 0.14,"1250": 0.06,"1275": 0.04,"1300": 0.02}}}