{"type":"Feature","properties":{"ISO3166-1-Alpha-3":"BHS","country":"The Bahamas","fill":"#FF0","id":"5022","name":"South Andros"},
"geometry":{"type": "MultiPolygon","coordinates": [[[[-77.72086,23.67516,0.1104],[-77.71496,23.6811,0.0293],[-77.7115,23.68688,0.0705],[-77.71732,23.69184,0.0],[-77.73046,23.69001,0.0151],[-77.73123,23.68407,0.0298],[-77.72765,23.6811,0.1801],[-77.7355,23.67882,0.0],[-77.72964,23.67593,0.1484],[-77.72639,23.67312,0.0],[-77.72086,23.67516,0.1104]]],
[[[-77.81554,23.76158,0.0939],[-77.83113,23.76724,0.0],[-77.83467,23.76097,0.1202],[-77.8258,23.7558,0.206],[-77.82112,23.75536,0.1124],[-77.81554,23.76158,0.0939]]],
[[[-77.16666,24.04064,6.1253],[-77.17125,24.0456,2.0457],[-77.18269,24.04377,0.0],[-77.18952,24.04096,0.0],[-77.18509,24.03901,0.0],[-77.17801,24.03197,0.0],[-77.17207,24.0301,0.0],[-77.16666,24.04064,6.1253]]],
[[[-77.53917,24.03392,9.7844],[-77.53799,24.0454,3.9007],[-77.53917,24.05414,0.6495],[-77.5443,24.07526,1.2652],[-77.54621,24.1083,0.0],[-77.54947,24.12592,0.0],[-77.55663,24.14106,0.0],[-77.56933,24.15526,0.0],[-77.58047,24.17316,0.0],[-77.5926,24.19823,3.2044],[-77.60753,24.21825,0.0],[-77.62735,24.2211,0.0],[-77.63915,24.20649,0.0],[-77.64273,24.18281,0.0],[-77.64387,24.15754,0.0],[-77.64786,24.13788,0.0],[-77.6577,24.12348,0.0],[-77.67854,24.10175,0.1087],[-77.70958,24.04369,0.0],[-77.72545,24.03067,0.0],[-77.74405,24.03547,0.0],[-77.78158,24.00832,-0.1911],[-77.82258,23.98021,-0.1014],[-77.82877,23.96918,0.0],[-77.82746,23.94392,0.0],[-77.81286,23.87665,0.0],[-77.80679,23.86469,0.0],[-77.7987,23.85668,0.0998],[-77.78588,23.85371,0.245],[-77.77424,23.85676,0.0517],[-77.76207,23.86156,0.0491],[-77.74779,23.86416,-0.0101],[-77.69481,23.86469,0.1802],[-77.6752,23.87051,0.2968],[-77.66088,23.88467,-0.5762],[-77.6656,23.86347,0.1087],[-77.69884,23.84512,0.0],[-77.76456,23.82319,0.0359],[-77.74429,23.81639,0.0],[-77.7202,23.78482,-0.0224],[-77.69628,23.78221,0.3185],[-77.69921,23.78563,0.0549],[-77.70311,23.7884,0.4447],[-77.64476,23.82319,0.0612],[-77.62857,23.83027,0.4248],[-77.61164,23.84414,2.6152],[-77.59406,23.85346,0.6727],[-77.57616,23.84711,0.8043],[-77.57616,23.83584,0.0577],[-77.5913,23.8249,0.0],[-77.64501,23.80146,0.0],[-77.65892,23.79206,-0.016],[-77.66906,23.77924,0.0],[-77.67516,23.76114,0.0],[-77.72769,23.77774,0.0426],[-77.74909,23.77827,0.017],[-77.74405,23.76114,0.2089],[-77.77819,23.74681,0.0],[-77.71459,23.74872,0.3008],[-77.68493,23.74144,0.1538],[-77.66832,23.72016,0.0],[-77.66088,23.72016,0.847],[-77.65144,23.73314,0.1092],[-77.65111,23.74193,0.0771],[-77.66832,23.76114,0.3264],[-77.64297,23.75487,1.0487],[-77.62121,23.74006,1.0608],[-77.59732,23.73062,1.0624],[-77.56591,23.74067,0.5417],[-77.5598,23.74771,0.5733],[-77.5526,23.76024,0.3845],[-77.54695,23.77497,2.5093],[-77.54548,23.7884,4.5009],[-77.55134,23.80313,0.3229],[-77.56945,23.81684,0.2116],[-77.57274,23.82941,0.0],[-77.54792,23.82225,1.1155],[-77.53458,23.82856,0.6253],[-77.51749,23.86416,5.4871],[-77.52261,23.88101,7.8056],[-77.51651,23.91885,0.5436],[-77.52497,23.93305,0.7504],[-77.54503,23.93659,0.758],[-77.56574,23.92796,-4.5],[-77.6007,23.9051,0.3057],[-77.59708,23.93037,0.068],[-77.57754,23.93781,0.3797],[-77.55578,23.9383,0.6484],[-77.54548,23.94269,0.4488],[-77.54223,23.94562,1.1876],[-77.53523,23.95059,5.2933],[-77.52819,23.95856,9.4415],[-77.52497,23.97036,3.2958],[-77.52819,23.97989,0.0],[-77.54223,23.99885,9.0969],[-77.54548,24.00438,8.1352],[-77.5443,24.01472,12.6754],[-77.53917,24.03392,9.7844]]]]}}