{"type":"Feature","properties":{"GID_1":"BHS.29_1","GID_0":"BHS","country":"Bahamas","state":"SouthAndros","VARNAME_1":"NA","NL_NAME_1":"NA","TYPE_1":"District","ENGTYPE_1":"District","CC_1":"NA","HASC_1":"BS.SN","ISO_1":"NA","name":"SouthAndros.state"},
"geometry":{"type": "MultiPolygon","coordinates": [[[[-77.6801,23.6421,0.0],[-77.6807,23.6443,0.0],[-77.6829,23.6446,0.0],[-77.6868,23.6424,0.1976],[-77.6862,23.639,1.2282],[-77.6813,23.641,0.5407],[-77.6801,23.6421,0.0]]],
[[[-77.6768,23.6501,0.3247],[-77.6807,23.6507,0.1158],[-77.6762,23.6485,0.1443],[-77.6732,23.6446,0.2355],[-77.6707,23.6451,0.2588],[-77.671,23.6496,0.4607],[-77.6768,23.6501,0.3247]]],
[[[-77.6537,23.6504,0.0],[-77.6551,23.6521,0.0],[-77.664,23.651,0.1308],[-77.6612,23.6479,0.0],[-77.659,23.6485,0.0],[-77.6604,23.6504,0.5941],[-77.6562,23.6488,0.6412],[-77.6537,23.6504,0.0]]],
[[[-77.6893,23.6638,0.0],[-77.6926,23.6643,0.0],[-77.6932,23.6615,0.0],[-77.6901,23.6621,0.4767],[-77.691,23.6599,0.0],[-77.6888,23.6607,0.1429],[-77.6888,23.6588,0.0389],[-77.686,23.6582,0.038],[-77.6865,23.6568,0.3792],[-77.6976,23.6524,0.0],[-77.7043,23.6521,0.0],[-77.7049,23.6485,0.0],[-77.7018,23.6501,1.464],[-77.6971,23.6499,0.4113],[-77.694,23.6468,0.0],[-77.6932,23.6493,0.9521],[-77.6896,23.651,0.248],[-77.689,23.6543,0.207],[-77.6815,23.6565,0.075],[-77.6785,23.6549,0.0],[-77.679,23.6579,0.0898],[-77.6846,23.6582,0.0839],[-77.6857,23.6615,0.121],[-77.6893,23.6638,0.0]]],
[[[-77.671,23.6576,0.1639],[-77.6738,23.6588,0.0],[-77.6721,23.6549,0.0],[-77.6704,23.6549,0.0],[-77.671,23.6576,0.1639]]],
[[[-77.6663,23.6599,0.0],[-77.6682,23.661,0.0],[-77.6663,23.6576,0.0],[-77.664,23.659,0.0],[-77.6651,23.6601,0.0],[-77.6663,23.6599,0.0]]],
[[[-77.6801,23.6829,0.0],[-77.6796,23.6851,0.2521],[-77.6813,23.6854,0.2688],[-77.6821,23.6829,0.2906],[-77.6801,23.6829,0.0]]],
[[[-77.6915,23.686,0.2635],[-77.6924,23.6882,0.4458],[-77.6957,23.6876,0.0],[-77.6937,23.684,0.0],[-77.6921,23.684,0.3644],[-77.6915,23.686,0.2635]]],
[[[-77.7057,23.6743,0.0],[-77.7076,23.6754,0.0807],[-77.7071,23.6743,0.0],[-77.7107,23.6707,0.0],[-77.7079,23.6715,0.0479],[-77.7068,23.6704,0.0],[-77.7057,23.6726,0.1196],[-77.7071,23.674,0.0],[-77.7057,23.6743,0.0]]],
[[[-77.7024,23.6762,0.3396],[-77.7051,23.6782,0.1074],[-77.7065,23.6757,0.0757],[-77.7029,23.6749,0.0],[-77.7024,23.6762,0.3396]]],
[[[-77.7035,23.679,0.0],[-77.7051,23.6787,0.1074],[-77.7018,23.6776,0.8678],[-77.7024,23.679,0.0],[-77.7035,23.679,0.0]]],
[[[-77.7099,23.6787,0.0427],[-77.7124,23.6793,0.0],[-77.7112,23.6774,0.0427],[-77.7087,23.6779,0.0],[-77.7099,23.6787,0.0427]]],
[[[-77.6618,23.6932,0.0],[-77.6624,23.6946,0.0],[-77.6676,23.6949,0.0],[-77.6674,23.6921,0.0],[-77.6635,23.6893,0.3567],[-77.6618,23.6901,0.0],[-77.6618,23.6932,0.0]]],
[[[-77.6926,23.6957,0.0796],[-77.6965,23.6968,0.1207],[-77.6974,23.6949,0.0],[-77.6921,23.6924,0.0436],[-77.691,23.6951,0.0],[-77.6926,23.6957,0.0796]]],
[[[-77.664,23.7015,0.0],[-77.6654,23.7038,0.0],[-77.669,23.7015,0.0],[-77.6676,23.6974,0.0597],[-77.6621,23.6979,0.0],[-77.664,23.7015,0.0]]],
[[[-77.6849,23.701,0.0],[-77.686,23.7032,-0.0138],[-77.6879,23.7013,-0.1344],[-77.6885,23.7029,0.0731],[-77.6907,23.7032,0.1401],[-77.6893,23.6999,0.0],[-77.6862,23.6996,0.1847],[-77.6849,23.701,0.0]]],
[[[-77.7565,23.6018,1.1166],[-77.759,23.6026,0.0],[-77.7574,23.5985,0.0],[-77.7543,23.5971,0.4916],[-77.7535,23.6001,1.6721],[-77.7565,23.6018,1.1166]]],
[[[-77.7374,23.6732,-0.0449],[-77.7396,23.6751,0.0019],[-77.7415,23.6721,0.0645],[-77.746,23.6732,0.1784],[-77.7471,23.6715,0.0],[-77.7399,23.6693,0.1691],[-77.7293,23.6696,0.3198],[-77.7307,23.6715,0.3629],[-77.734,23.6712,0.1495],[-77.7374,23.6732,-0.0449]]],
[[[-77.7438,23.6754,0.283],[-77.749,23.6765,0.2036],[-77.7507,23.6751,0.2905],[-77.7487,23.6732,0.0],[-77.746,23.6738,0.944],[-77.7446,23.6732,0.0],[-77.7426,23.6738,0.283],[-77.7438,23.6754,0.283]]],
[[[-77.7571,23.6821,0.5434],[-77.7585,23.6843,0.0],[-77.761,23.6813,0.4807],[-77.7613,23.6754,0.0],[-77.7562,23.6726,0.1464],[-77.7507,23.6732,0.0],[-77.7562,23.6765,0.2337],[-77.7571,23.6821,0.5434]]],
[[[-77.7818,23.6146,0.0],[-77.7843,23.6162,0.0],[-77.7838,23.6138,0.0],[-77.7799,23.6132,0.0],[-77.7799,23.6138,0.0],[-77.7818,23.6146,0.0]]],
[[[-77.7774,23.6887,0.0],[-77.7768,23.6904,0.0],[-77.779,23.6907,0.0],[-77.7799,23.6843,0.0],[-77.7779,23.6851,0.0],[-77.7774,23.6887,0.0]]],
[[[-77.7796,23.6974,0.0],[-77.7818,23.6979,0.0],[-77.7796,23.6918,0.0],[-77.7779,23.6913,0.0],[-77.7776,23.6951,0.7162],[-77.7796,23.6974,0.0]]],
[[[-77.8132,23.729,0.1289],[-77.8154,23.7301,0.0],[-77.8104,23.7199,0.0],[-77.8076,23.7254,0.0944],[-77.8132,23.729,0.1289]]],
[[[-77.7532,23.6838,0.3783],[-77.7529,23.6857,0.1149],[-77.7546,23.6868,0.1149],[-77.7554,23.6838,0.0],[-77.7532,23.6838,0.3783]]],
[[[-77.729,23.6929,0.1195],[-77.731,23.6951,0.0631],[-77.7385,23.6918,0.0],[-77.7393,23.6896,0.0754],[-77.7415,23.689,0.0],[-77.7396,23.6868,0.0416],[-77.7401,23.684,0.1304],[-77.7343,23.6849,0.0],[-77.7335,23.6865,0.0227],[-77.7349,23.6882,0.0187],[-77.7324,23.6879,0.0623],[-77.729,23.6929,0.1195]]],
[[[-77.7538,23.694,0.063],[-77.7571,23.6951,0.0],[-77.7582,23.694,0.0],[-77.7546,23.6876,0.0811],[-77.749,23.6913,0.1004],[-77.7538,23.694,0.063]]],
[[[-77.7379,23.7129,0.2096],[-77.7382,23.716,0.0],[-77.7407,23.7138,0.0],[-77.7449,23.7138,0.0],[-77.7374,23.711,0.0],[-77.7365,23.7121,0.2096],[-77.7379,23.7129,0.2096]]],
[[[-77.8524,23.7388,0.1766],[-77.8535,23.7418,0.1494],[-77.856,23.741,0.0],[-77.8532,23.7351,0.0],[-77.851,23.7346,0.1236],[-77.8496,23.7363,0.2956],[-77.8524,23.7388,0.1766]]],
[[[-77.8068,23.7449,0.3003],[-77.8093,23.7463,0.0286],[-77.8126,23.7435,0.0908],[-77.8057,23.7385,0.2318],[-77.7993,23.7307,0.1901],[-77.7982,23.7368,0.5503],[-77.8068,23.7449,0.3003]]],
[[[-77.8854,23.7574,0.4061],[-77.8868,23.7588,0.0],[-77.8876,23.7588,0.0],[-77.8863,23.7557,0.2411],[-77.8854,23.7574,0.4061]]],
[[[-77.8276,23.7643,0.2135],[-77.8304,23.7657,0.0],[-77.8318,23.764,0.1923],[-77.8354,23.7638,0.0],[-77.8346,23.7607,0.1202],[-77.8296,23.7554,0.0],[-77.8226,23.756,0.1383],[-77.8196,23.7543,0.1425],[-77.8126,23.7565,0.2231],[-77.8146,23.7604,0.2546],[-77.8276,23.7643,0.2135]]],
[[[-77.6971,23.6865,0.0],[-77.6965,23.6882,0.0],[-77.6982,23.6893,0.0],[-77.7004,23.6882,0.3934],[-77.6993,23.6863,0.0],[-77.6971,23.6865,0.0]]],
[[[-77.7185,23.7201,0.0463],[-77.719,23.7221,0.0],[-77.7218,23.7218,0.0],[-77.7196,23.7199,0.0463],[-77.7213,23.7188,0.0],[-77.721,23.7149,0.0],[-77.719,23.715699999999998,0.1573],[-77.7174,23.7135,0.0],[-77.7151,23.7143,0.0607],[-77.716,23.7113,0.0],[-77.7149,23.7096,0.031],[-77.7165,23.7062,0.0],[-77.7199,23.7088,0.0],[-77.7229,23.7082,0.0],[-77.7229,23.7054,0.0],[-77.7185,23.7043,0.095],[-77.7187,23.7001,0.0901],[-77.7213,23.6988,0.0],[-77.7224,23.694,0.0],[-77.7187,23.6938,0.1055],[-77.7171,23.6907,0.0],[-77.7229,23.6907,0.0],[-77.7246,23.689,0.0],[-77.7268,23.691,0.0],[-77.7307,23.6899,0.0151],[-77.7304,23.6879,0.0],[-77.7329,23.6854,0.0],[-77.7288,23.6804,0.0],[-77.7262,23.6796,0.0],[-77.7296,23.6779,0.1302],[-77.736,23.6787,0.0974],[-77.7351,23.6743,0.0258],[-77.7332,23.6732,0.0534],[-77.7293,23.6746,0.1262],[-77.7229,23.6726,0.0611],[-77.719,23.6757,0.0893],[-77.7185,23.6787,0.1102],[-77.7157,23.6785,0.0],[-77.7143,23.6821,0.029],[-77.7107,23.6843,0.0617],[-77.7104,23.6887,0.0449],[-77.7129,23.6907,0.0215],[-77.7129,23.6926,0.0409],[-77.7104,23.6985,0.1233],[-77.7076,23.6979,0.0738],[-77.7115,23.6935,0.0419],[-77.7093,23.6885,1.0583],[-77.7099,23.6804,0.0045],[-77.7035,23.6807,0.0688],[-77.701,23.6854,0.0],[-77.7012,23.6874,0.3934],[-77.7054,23.6904,0.1185],[-77.7029,23.6951,0.0791],[-77.7051,23.6988,0.0],[-77.7057,23.7071,0.0],[-77.7104,23.7085,0.2571],[-77.7185,23.7201,0.0463]]],
[[[-77.704,23.7138,0.0],[-77.7076,23.7146,0.0],[-77.7068,23.7118,0.0],[-77.7051,23.7124,0.5852],[-77.7032,23.7107,0.9354],[-77.7032,23.7088,0.3051],[-77.6985,23.7099,0.0],[-77.7007,23.7121,0.0],[-77.7026,23.7118,0.9354],[-77.704,23.7138,0.0]]],
[[[-77.7038,23.7226,0.3026],[-77.7063,23.7235,0.2812],[-77.7093,23.7218,0.3086],[-77.7071,23.7199,0.0],[-77.7001,23.7199,0.0],[-77.7018,23.7226,0.1097],[-77.7038,23.7226,0.3026]]],
[[[-77.661,23.7082,0.0387],[-77.6632,23.7093,0.0975],[-77.6635,23.7065,0.1991],[-77.6607,23.7062,0.0439],[-77.6574,23.701,0.0677],[-77.6551,23.701,0.0],[-77.6549,23.7043,0.0],[-77.661,23.7082,0.0387]]],
[[[-77.6837,23.7057,0.17],[-77.6843,23.7074,0.0],[-77.6871,23.7065,0.0],[-77.6868,23.7054,0.0],[-77.6837,23.7057,0.17]]],
[[[-77.6771,23.7235,0.1012],[-77.679,23.7246,0.0759],[-77.6804,23.7229,0.0],[-77.676,23.7182,0.0],[-77.6749,23.711,0.0],[-77.671,23.7049,0.001],[-77.6676,23.7046,0.048],[-77.6646,23.7093,0.1497],[-77.6651,23.7124,0.0],[-77.6721,23.7151,0.0345],[-77.6749,23.7218,0.4354],[-77.6771,23.7235,0.1012]]],
[[[-77.6593,23.7907,-0.016],[-77.6615,23.7924,0.0],[-77.6682,23.7907,0.0],[-77.6693,23.7879,-0.026],[-77.6743,23.7862,0.0091],[-77.676,23.7832,0.13],[-77.6693,23.7826,0.0211],[-77.6646,23.7796,0.0262],[-77.661,23.7796,0.0739],[-77.6593,23.781,0.0],[-77.6593,23.7907,-0.016]]],
[[[-77.7363,23.7799,0.0],[-77.7374,23.7818,-0.016],[-77.7432,23.7813,0.0307],[-77.7404,23.7785,0.0],[-77.7349,23.7771,0.0101],[-77.7376,23.7765,0.0284],[-77.7385,23.7771,0.0],[-77.739,23.7751,0.0],[-77.7349,23.7729,0.0363],[-77.7337,23.7701,-0.0094],[-77.7365,23.7687,-0.0161],[-77.7385,23.7721,0.0],[-77.7418,23.7713,0.0725],[-77.7451,23.7588,0.0],[-77.7357,23.7593,0.0435],[-77.7349,23.7582,0.0127],[-77.7499,23.7526,0.0],[-77.7615,23.7529,0.0305],[-77.7693,23.7568,0.0848],[-77.7712,23.756,0.0983],[-77.7715,23.7524,0.0],[-77.7737,23.7504,0.115],[-77.7718,23.7613,0.1231],[-77.7787,23.7638,0.0],[-77.7807,23.7679,0.1092],[-77.7932,23.7679,0.1692],[-77.791,23.7657,0.0929],[-77.7904,23.7601,0.0],[-77.7818,23.7538,0.1476],[-77.781,23.7485,0.0],[-77.7799,23.7474,0.0],[-77.7746,23.7479,0.0],[-77.774,23.7432,0.0],[-77.7715,23.7424,0.3091],[-77.7712,23.739,0.9728],[-77.7668,23.7401,0.3832],[-77.766,23.7363,0.0],[-77.7604,23.739,0.2869],[-77.7543,23.7351,0.0],[-77.7457,23.7374,-0.1837],[-77.729,23.736,0.2134],[-77.7235,23.7374,0.0541],[-77.7185,23.734,0.0442],[-77.7085,23.7326,0.0],[-77.6954,23.7343,0.6111],[-77.6849,23.731,0.0658],[-77.6804,23.7332,-0.0023],[-77.6787,23.7301,0.0],[-77.6762,23.7304,0.0],[-77.6743,23.7276,0.1443],[-77.6626,23.724,0.06],[-77.6671,23.7235,0.0153],[-77.6729,23.7251,0.0],[-77.671,23.7218,0.0],[-77.6674,23.7204,0.0],[-77.6671,23.7179,0.0],[-77.6629,23.7135,0.056],[-77.6629,23.711,0.2181],[-77.6599,23.711,0.1762],[-77.6576,23.7082,0.0793],[-77.6518,23.7068,0.1186],[-77.6504,23.7026,0.0251],[-77.6476,23.7038,-0.0007],[-77.6474,23.7054,-0.0007],[-77.644,23.7043,0.0369],[-77.6401,23.7057,0.1444],[-77.6396,23.7079,0.0427],[-77.6415,23.7085,0.0567],[-77.6404,23.7101,0.0725],[-77.6365,23.7074,0.0197],[-77.6387,23.7046,0.1249],[-77.6404,23.6968,0.0],[-77.6374,23.6965,0.0],[-77.6349,23.7015,0.0621],[-77.6304,23.7035,0.0],[-77.6318,23.7076,1.1444],[-77.6374,23.7138,0.0],[-77.639,23.7201,0.0],[-77.6432,23.7226,0.0717],[-77.6421,23.7243,0.1395],[-77.6435,23.7257,0.0],[-77.6432,23.7329,0.0],[-77.6401,23.7354,0.0564],[-77.6379,23.7271,0.1015],[-77.639,23.7235,0.1112],[-77.6374,23.7221,0.2014],[-77.6343,23.7224,0.1337],[-77.6349,23.7307,0.0679],[-77.6329,23.7307,0.4054],[-77.6299,23.7276,0.0421],[-77.6304,23.7313,0.0],[-77.6343,23.7351,-0.0091],[-77.6338,23.7388,0.0681],[-77.6368,23.7412,0.0],[-77.6504,23.7407,0.0771],[-77.6554,23.7426,0.0],[-77.6571,23.7515,0.7759],[-77.6562,23.7588,0.6442],[-77.6588,23.7649,0.0979],[-77.6599,23.7624,0.0],[-77.6657,23.7638,0.0],[-77.6693,23.7607,0.0],[-77.6821,23.7596,-0.0016],[-77.6871,23.7685,0.1339],[-77.6871,23.7713,0.0],[-77.689,23.7721,0.0],[-77.6946,23.7701,0.0608],[-77.6943,23.7726,0.0],[-77.7012,23.7682,0.0366],[-77.711,23.7649,0.0188],[-77.7112,23.7632,0.0],[-77.7093,23.7632,0.0],[-77.6979,23.7676,0.0872],[-77.6979,23.7626,0.0],[-77.701,23.7596,-0.0051],[-77.701,23.7571,0.0448],[-77.7035,23.7565,0.7373],[-77.7051,23.7588,0.3067],[-77.7004,23.761,0.0],[-77.7038,23.7629,0.0444],[-77.7121,23.7615,0.2283],[-77.7151,23.7671,0.0],[-77.719,23.7668,-0.0012],[-77.7193,23.7693,-0.0268],[-77.7165,23.771,0.0],[-77.7165,23.7726,0.0247],[-77.7243,23.7749,0.0022],[-77.7243,23.7799,0.0345],[-77.7285,23.781,0.0],[-77.7337,23.7787,0.0356],[-77.7363,23.7799,0.0]]],
[[[-77.6832,23.8238,0.454],[-77.6871,23.826,0.0],[-77.6899,23.8229,0.1941],[-77.7015,23.8193,0.0],[-77.7207,23.8201,0.0272],[-77.7346,23.8235,0.2843],[-77.7351,23.8218,0.0565],[-77.7329,23.8213,0.1596],[-77.7307,23.8174,0.2747],[-77.726,23.8165,-0.0171],[-77.7254,23.814,0.0142],[-77.7268,23.8132,0.0],[-77.7237,23.8121,-0.1222],[-77.7229,23.8101,0.0626],[-77.7274,23.8118,-0.0156],[-77.7374,23.8121,0.0],[-77.7382,23.8088,0.0],[-77.741,23.8068,0.0577],[-77.739,23.8121,0.0],[-77.7443,23.8137,0.0311],[-77.7468,23.8168,0.0342],[-77.7513,23.8149,0.045],[-77.7504,23.809,-0.0558],[-77.7546,23.811,0.0408],[-77.7549,23.8149,0.0197],[-77.7582,23.8135,0.0033],[-77.7601,23.811,-0.0081],[-77.7599,23.8085,0.0017],[-77.7635,23.8043,0.0],[-77.7596,23.8018,0.0],[-77.7518,23.801,-0.0325],[-77.7496,23.7993,-0.0105],[-77.7496,23.7971,0.0501],[-77.7468,23.7957,0.0],[-77.7412,23.7988,-0.0009],[-77.7399,23.7971,-0.006],[-77.7332,23.7974,0.0057],[-77.7288,23.7932,0.0],[-77.7251,23.7929,0.0],[-77.7213,23.7965,-0.001],[-77.719,23.7965,0.0],[-77.7224,23.7879,0.0],[-77.7254,23.7868,0.0402],[-77.7279,23.7824,0.0376],[-77.7249,23.7813,0.0],[-77.7213,23.7832,0.0],[-77.7196,23.7821,0.006],[-77.7132,23.7849,0.0],[-77.7138,23.7804,0.0],[-77.7101,23.781,0.0213],[-77.714,23.7768,0.0],[-77.7068,23.7738,-0.046],[-77.7049,23.7685,0.0],[-77.7024,23.7685,0.0305],[-77.6976,23.7735,-0.0127],[-77.6929,23.7757,0.0603],[-77.6888,23.7726,0.0],[-77.6865,23.776,0.0],[-77.6829,23.774,0.0343],[-77.681,23.7774,0.0046],[-77.6787,23.774,-0.0843],[-77.6749,23.7729,0.0],[-77.6771,23.7721,0.0042],[-77.6801,23.7735,0.0355],[-77.6804,23.7718,-0.0037],[-77.6782,23.771,0.0405],[-77.6779,23.7687,0.0],[-77.6749,23.7679,0.0],[-77.6743,23.764,0.0094],[-77.6715,23.7643,0.0],[-77.6676,23.7685,0.0666],[-77.669,23.7696,0.0653],[-77.6707,23.7676,0.0021],[-77.6724,23.7743,0.0],[-77.6707,23.7765,0.1799],[-77.6721,23.7787,0.0532],[-77.679,23.778199999999998,-0.0217],[-77.6799,23.7801,0.0508],[-77.6818,23.7796,-0.0171],[-77.6815,23.7821,0.0],[-77.684,23.7846,0.0475],[-77.6913,23.7871,0.0],[-77.699,23.7871,0.0256],[-77.6896,23.7907,0.2872],[-77.6818,23.7874,0.5193],[-77.6746,23.7865,0.0091],[-77.6721,23.7874,0.0],[-77.6721,23.7904,0.0],[-77.6654,23.7915,-0.0103],[-77.6637,23.7932,0.0],[-77.6537,23.7926,0.0],[-77.6518,23.7974,0.0],[-77.6518,23.8035,0.0],[-77.6546,23.8104,0.2851],[-77.6524,23.8137,-0.024],[-77.6562,23.8176,0.711],[-77.6707,23.8168,0.1851],[-77.6768,23.8199,0.0],[-77.6813,23.8126,0.0118],[-77.6885,23.811,0.0153],[-77.6921,23.8121,-0.0094],[-77.6924,23.8143,-0.0705],[-77.6885,23.8176,-0.0408],[-77.6824,23.8201,0.0],[-77.6813,23.8226,0.0],[-77.6832,23.8238,0.454]]],
[[[-77.7004,23.8246,-0.0183],[-77.7018,23.8257,-0.0323],[-77.7046,23.8226,0.0046],[-77.701,23.8221,0.0],[-77.7004,23.8246,-0.0183]]],
[[[-77.7176,23.8251,0.0913],[-77.7215,23.8246,0.0],[-77.7168,23.8229,0.0],[-77.716,23.8251,0.0913],[-77.7176,23.8251,0.0913]]],
[[[-77.706,23.8249,-0.0338],[-77.7038,23.8263,0.0368],[-77.7065,23.8257,0.0],[-77.7096,23.8238,0.0195],[-77.7079,23.8235,0.0296],[-77.706,23.8249,-0.0338]]],
[[[-77.6976,23.8271,0.02],[-77.7004,23.8288,0.0],[-77.7029,23.826,-0.0323],[-77.7001,23.8274,0.1884],[-77.6999,23.8257,-0.0851],[-77.6979,23.8254,0.0],[-77.6976,23.8271,0.02]]],
[[[-77.7151,23.8296,0.0],[-77.716,23.8315,0.0336],[-77.7224,23.8299,0.0],[-77.7215,23.8285,0.0],[-77.7151,23.8296,0.0]]],
[[[-77.6982,23.8385,-0.0407],[-77.706,23.8388,0.0],[-77.7087,23.8368,0.0451],[-77.7068,23.8351,0.0],[-77.7012,23.8354,-0.0413],[-77.696,23.8307,0.0],[-77.6921,23.8315,0.0206],[-77.6943,23.8363,-0.0565],[-77.6982,23.8385,-0.0407]]],
[[[-77.7674,23.7607,0.067],[-77.7704,23.7618,0.3911],[-77.7707,23.759,0.3716],[-77.7654,23.7576,0.0172],[-77.7643,23.7557,0.053],[-77.7607,23.7576,0.0],[-77.7615,23.759,0.0],[-77.7674,23.7607,0.067]]],
[[[-77.7476,23.7799,-0.0334],[-77.7526,23.7804,0.0235],[-77.7526,23.7793,0.0235],[-77.7496,23.7774,0.017],[-77.7471,23.778199999999998,0.0638],[-77.7476,23.7799,-0.0334]]],
[[[-77.7279,23.7899,0.0],[-77.7276,23.7921,0.0],[-77.7293,23.7907,0.0],[-77.7387,23.7918,0.0072],[-77.739,23.7904,0.0],[-77.7365,23.7893,0.0],[-77.741,23.7885,0.1431],[-77.7424,23.7851,0.0],[-77.7376,23.7854,0.0],[-77.7337,23.7876,0.0157],[-77.7307,23.7868,0.0],[-77.7279,23.7899,0.0]]],
[[[-77.7524,23.7924,0.0],[-77.7546,23.794,0.0],[-77.7571,23.7929,0.0],[-77.7518,23.7874,0.0675],[-77.7468,23.7874,0.0],[-77.7449,23.789,0.0219],[-77.7546,23.7918,0.0474],[-77.7524,23.7924,0.0]]],
[[[-77.769,23.7901,0.0],[-77.7704,23.7918,0.0],[-77.771,23.7893,0.0],[-77.7751,23.7893,0.0],[-77.7821,23.7918,0.0],[-77.7832,23.7899,0.1091],[-77.7865,23.7896,0.0215],[-77.7885,23.786,0.0],[-77.7843,23.784,0.0552],[-77.7776,23.7843,0.0765],[-77.7785,23.7821,0.0],[-77.7765,23.7813,0.0],[-77.7749,23.7771,0.0378],[-77.7824,23.7743,0.0442],[-77.7901,23.774,0.0],[-77.7904,23.7726,0.0],[-77.7799,23.7726,0.0181],[-77.7768,23.7713,0.0543],[-77.7749,23.7629,0.0],[-77.7696,23.7646,0.0399],[-77.7621,23.7621,-0.0318],[-77.7568,23.7649,-0.0031],[-77.7543,23.7615,0.0],[-77.7465,23.7615,0.0341],[-77.7476,23.7674,-0.0171],[-77.7446,23.7696,0.0],[-77.7529,23.769,0.0276],[-77.7571,23.7704,0.0026],[-77.7585,23.7726,0.0492],[-77.7551,23.7721,0.0133],[-77.7551,23.7754,-0.004],[-77.7582,23.7771,0.0],[-77.7618,23.7765,0.0244],[-77.7588,23.7787,0.0],[-77.7554,23.7776,0.0402],[-77.754,23.7793,0.0229],[-77.7549,23.7826,0.0913],[-77.7485,23.7832,0.0],[-77.7487,23.7846,0.0],[-77.7568,23.7835,0.0931],[-77.759,23.7871,0.0],[-77.7674,23.7874,0.0],[-77.769,23.7901,0.0]]],
[[[-77.811,23.7904,0.2049],[-77.8135,23.7921,0.0],[-77.8207,23.7879,0.2142],[-77.8201,23.7776,0.1484],[-77.814,23.7804,0.0],[-77.8093,23.7804,0.0],[-77.8071,23.7843,0.1268],[-77.8037,23.7857,0.0],[-77.811,23.7904,0.2049]]],
[[[-77.8049,23.8068,0.0789],[-77.809,23.8082,0.1253],[-77.8129,23.8051,0.2365],[-77.8176,23.8046,0.0672],[-77.8204,23.8004,0.2337],[-77.8193,23.7974,0.2042],[-77.8101,23.7979,0.0799],[-77.8057,23.796,0.0757],[-77.7999,23.7985,0.0329],[-77.7979,23.7974,0.0605],[-77.799,23.7943,0.0682],[-77.7974,23.7929,0.0593],[-77.7982,23.7893,0.0],[-77.7951,23.7888,0.183],[-77.7899,23.7965,0.2163],[-77.7943,23.7985,0.1924],[-77.7962,23.8015,0.1536],[-77.8012,23.8015,0.1149],[-77.8049,23.8068,0.0789]]],
[[[-77.7785,23.8018,0.0],[-77.7807,23.8032,0.0226],[-77.7874,23.8001,0.5215],[-77.7832,23.7979,0.0724],[-77.7785,23.8018,0.0]]],
[[[-77.7515,23.7954,0.1222],[-77.754,23.796,0.0],[-77.751,23.7932,0.0],[-77.7499,23.7949,0.0],[-77.7515,23.7954,0.1222]]],
[[[-77.7576,23.7996,0.0373],[-77.7618,23.8007,0.0],[-77.766,23.7982,0.0573],[-77.761,23.7968,0.0],[-77.7621,23.799,0.0982],[-77.7576,23.7996,0.0373]]],
[[[-77.7604,23.8232,0.0],[-77.7601,23.8249,0.0],[-77.7618,23.8254,0.0],[-77.7618,23.8229,0.0],[-77.7604,23.8232,0.0]]],
[[[-77.7474,23.831,0.0461],[-77.7538,23.8321,0.0],[-77.7593,23.8279,0.0],[-77.7588,23.8207,0.0298],[-77.754,23.8221,0.0921],[-77.7482,23.8282,0.0075],[-77.7454,23.8288,0.2558],[-77.7451,23.8301,0.2558],[-77.7474,23.831,0.0461]]],
[[[-77.7751,23.8057,0.0472],[-77.7757,23.8071,0.0],[-77.7787,23.8071,0.0],[-77.7815,23.8049,0.0495],[-77.7768,23.804,0.0806],[-77.7751,23.8057,0.0472]]],
[[[-77.7743,23.8257,0.0441],[-77.7746,23.8276,0.0615],[-77.7729,23.8288,0.0],[-77.7785,23.8254,0.0687],[-77.7787,23.821,0.1441],[-77.7835,23.8149,0.043],[-77.7915,23.8132,0.0925],[-77.8001,23.8146,0.1209],[-77.801,23.8126,0.092],[-77.7979,23.8076,0.008],[-77.7893,23.8054,0.0],[-77.7807,23.8115,0.1028],[-77.7704,23.8124,0.0486],[-77.7685,23.8104,0.054],[-77.7715,23.8046,0.0],[-77.7665,23.806,0.0285],[-77.7646,23.8093,0.0173],[-77.7624,23.8099,0.0112],[-77.7615,23.8143,0.0617],[-77.7588,23.8165,0.1225],[-77.7646,23.8232,0.0359],[-77.766,23.8224,0.0],[-77.7651,23.8179,0.236],[-77.7707,23.8174,0.0349],[-77.7696,23.8226,0.0137],[-77.774,23.8238,-0.043],[-77.7743,23.8257,0.0441]]],
[[[-77.771,23.8263,0.0347],[-77.7729,23.8271,0.0619],[-77.7688,23.8235,0.0],[-77.7654,23.8243,0.2094],[-77.7657,23.8251,0.2094],[-77.771,23.8263,0.0347]]],
[[[-77.7532,23.8365,0.3442],[-77.764,23.8374,0.0],[-77.7768,23.8326,0.0654],[-77.7818,23.834,0.0],[-77.7854,23.8329,0.0],[-77.7876,23.8346,0.026],[-77.7924,23.829,0.033],[-77.7985,23.8299,0.0],[-77.8029,23.8229,0.0467],[-77.784,23.8215,0.0356],[-77.7815,23.8276,0.0729],[-77.7824,23.8301,0.0378],[-77.7799,23.8296,0.0254],[-77.774,23.8326,0.0588],[-77.7676,23.8332,-0.0188],[-77.7643,23.8299,0.0],[-77.7624,23.8299,0.0],[-77.7532,23.8365,0.3442]]],
[[[-77.3524,23.6126,0.2274],[-77.3535,23.6143,0.0],[-77.3543,23.614,0.1522],[-77.3529,23.6113,0.0],[-77.3524,23.6126,0.2274]]],
[[[-77.3613,23.6329,0.5098],[-77.3601,23.6329,0.5098],[-77.3604,23.6354,0.4729],[-77.3618,23.6351,0.4729],[-77.3613,23.6329,0.5098]]],
[[[-77.3646,23.6471,0.0],[-77.3665,23.649,0.0],[-77.3657,23.6454,0.0],[-77.3643,23.6454,0.0],[-77.3646,23.6471,0.0]]],
[[[-77.3757,23.6787,0.0],[-77.3785,23.6799,0.0],[-77.3774,23.6774,0.0],[-77.3751,23.6774,0.0],[-77.3757,23.6787,0.0]]],
[[[-77.6504,23.6601,0.1298],[-77.6529,23.6621,0.0],[-77.6543,23.659,0.2343],[-77.651,23.6582,0.3223],[-77.6485,23.6551,0.0],[-77.644,23.6612,0.1072],[-77.6468,23.6615,0.0815],[-77.649,23.6593,0.0156],[-77.6504,23.6601,0.1298]]],
[[[-77.6421,23.6635,0.1591],[-77.6435,23.6649,0.0],[-77.6446,23.6643,0.0525],[-77.6432,23.6621,0.1591],[-77.6421,23.6635,0.1591]]],
[[[-77.629,23.669,0.0],[-77.6288,23.671,0.0],[-77.6312,23.671,0.0],[-77.631,23.6685,0.0],[-77.629,23.669,0.0]]],
[[[-77.6418,23.674,0.0522],[-77.6449,23.6746,0.1573],[-77.6426,23.6726,0.0332],[-77.6438,23.6701,0.0],[-77.6421,23.6685,0.0],[-77.6326,23.6688,0.4357],[-77.6318,23.6701,0.4357],[-77.6321,23.6718,0.3108],[-77.6346,23.6724,0.0],[-77.6399,23.6712,0.1741],[-77.6396,23.6729,0.0],[-77.6418,23.674,0.0522]]],
[[[-77.6438,23.676,0.3018],[-77.6435,23.6776,0.0],[-77.6465,23.6776,0.0],[-77.6449,23.6754,0.1573],[-77.6438,23.676,0.3018]]],
[[[-77.6501,23.6768,0.0],[-77.6487,23.6768,0.0],[-77.649,23.679,0.0],[-77.6537,23.6785,0.0],[-77.6529,23.6771,0.0],[-77.6501,23.6768,0.0]]],
[[[-77.6135,23.6793,0.8061],[-77.6124,23.6815,0.0],[-77.614,23.6821,0.0],[-77.6179,23.6782,0.0],[-77.6151,23.6762,0.0],[-77.6135,23.6793,0.8061]]],
[[[-77.6132,23.684,0.0],[-77.6137,23.6829,0.0],[-77.611,23.681,0.0],[-77.6104,23.684,0.0],[-77.6132,23.684,0.0]]],
[[[-77.6096,23.686,0.0],[-77.6101,23.6879,0.0],[-77.6118,23.6854,0.0],[-77.6107,23.6849,0.0],[-77.6096,23.686,0.0]]],
[[[-77.6174,23.6954,0.5615],[-77.6199,23.6965,0.1538],[-77.6237,23.6957,0.0327],[-77.6196,23.6907,0.033],[-77.6199,23.6885,0.0],[-77.6157,23.691,0.1101],[-77.6182,23.6918,0.4026],[-77.6151,23.6938,2.0284],[-77.6174,23.6954,0.5615]]],
[[[-77.624,23.6932,0.1747],[-77.624,23.6951,0.1375],[-77.6263,23.6957,0.0],[-77.6329,23.6901,0.0],[-77.6301,23.6913,0.1462],[-77.6276,23.6901,0.0],[-77.626,23.6935,0.1452],[-77.624,23.6932,0.1747]]],
[[[-77.6032,23.7001,0.0],[-77.6015,23.701,0.0],[-77.6024,23.7035,0.0],[-77.6043,23.7032,0.6388],[-77.6032,23.7001,0.0]]],
[[[-77.6457,23.7429,-0.0563],[-77.6432,23.7426,0.0],[-77.6429,23.7435,0.0],[-77.6474,23.7438,0.0],[-77.6457,23.7429,-0.0563]]],
[[[-77.5771,23.8371,0.0],[-77.5807,23.8376,0.0],[-77.5837,23.8318,0.4725],[-77.589,23.8288,0.0],[-77.5885,23.8238,0.0],[-77.5912,23.8235,0.053],[-77.5946,23.826,0.0],[-77.5979,23.8207,0.0],[-77.6068,23.8168,0.0],[-77.6049,23.8154,0.0],[-77.5979,23.8171,1.3381],[-77.6007,23.8163,0.0],[-77.601,23.8146,0.0],[-77.5971,23.8107,0.0],[-77.6015,23.8129,0.0],[-77.5985,23.8104,0.0],[-77.5985,23.8085,0.0145],[-77.6049,23.8096,0.0],[-77.6068,23.8063,0.0558],[-77.609,23.8096,0.0961],[-77.6071,23.8099,0.0204],[-77.606,23.8124,0.0379],[-77.6087,23.8135,0.0242],[-77.6113,23.811,0.0521],[-77.6113,23.8063,0.0],[-77.6174,23.8037,-0.0037],[-77.6193,23.8085,0.2671],[-77.6299,23.8096,0.006],[-77.6379,23.7996,0.0],[-77.6426,23.7965,0.0049],[-77.6482,23.796,0.0],[-77.6493,23.7926,0.0],[-77.6482,23.791,0.0],[-77.6551,23.7885,0.0692],[-77.6562,23.7849,0.0],[-77.6515,23.7851,-0.0085],[-77.6546,23.7821,0.0],[-77.6546,23.778199999999998,0.0159],[-77.6562,23.778199999999998,0.0],[-77.6582,23.7813,0.0],[-77.6579,23.7768,0.1398],[-77.664,23.7765,0.0039],[-77.661,23.7735,0.1084],[-77.6582,23.7735,0.0],[-77.6554,23.7713,0.0883],[-77.6565,23.7615,0.0698],[-77.6551,23.7596,0.025],[-77.6549,23.7493,0.0481],[-77.6487,23.7468,0.0],[-77.6449,23.7474,0.197],[-77.6387,23.7443,0.0723],[-77.6382,23.7457,0.054],[-77.6415,23.749,0.0],[-77.6415,23.7512,0.0269],[-77.6396,23.7512,0.1642],[-77.6365,23.7463,0.2641],[-77.6293,23.7424,0.1307],[-77.629,23.7374,0.2833],[-77.6254,23.7326,0.0],[-77.6271,23.7318,0.0654],[-77.6268,23.7276,0.3816],[-77.6296,23.724,0.0],[-77.6299,23.7201,0.1605],[-77.6268,23.7176,0.1395],[-77.6288,23.7162,0.121],[-77.6271,23.7118,0.0],[-77.6235,23.7088,0.0],[-77.6207,23.7085,0.0],[-77.621,23.7101,0.0],[-77.6179,23.7104,0.0],[-77.616,23.7129,0.0612],[-77.6096,23.7126,0.0],[-77.6118,23.7201,0.0],[-77.6174,23.7237,0.5353],[-77.6207,23.731,0.1791],[-77.6165,23.726,0.2663],[-77.614,23.7274,0.1466],[-77.6157,23.7307,0.2318],[-77.6113,23.7301,0.05],[-77.609,23.7276,0.0779],[-77.6085,23.726,0.2178],[-77.6107,23.7265,0.052],[-77.611,23.7254,0.0],[-77.6093,23.7218,0.0],[-77.6074,23.7213,0.029],[-77.6074,23.714,0.0],[-77.6032,23.716,0.1686],[-77.5999,23.7154,0.0],[-77.6021,23.7193,0.0],[-77.6051,23.7199,0.1094],[-77.6054,23.7221,0.3582],[-77.6035,23.7237,0.0],[-77.6076,23.7276,0.1794],[-77.6082,23.7307,0.0],[-77.6107,23.7315,0.101],[-77.6107,23.734,0.0071],[-77.6079,23.7343,0.2338],[-77.6071,23.736,0.1534],[-77.6007,23.7349,0.0],[-77.6032,23.7299,0.0604],[-77.5999,23.7288,0.3637],[-77.599,23.7254,0.1109],[-77.6007,23.7229,0.0],[-77.599,23.719,0.0401],[-77.5946,23.7201,0.0393],[-77.5782,23.7185,0.0],[-77.5699,23.7235,0.0],[-77.5587,23.7332,0.0],[-77.5501,23.7454,0.0],[-77.5429,23.7632,0.0],[-77.5338,23.779,0.0],[-77.5296,23.7938,0.0],[-77.5312,23.794,0.0],[-77.5332,23.791,0.1241],[-77.5354,23.7913,0.7972],[-77.5415,23.7996,0.8746],[-77.544,23.7999,3.3262],[-77.5518,23.8037,0.3229],[-77.5546,23.8082,0.122],[-77.5696,23.8174,0.0],[-77.5754,23.8246,0.0],[-77.5735,23.8326,0.0],[-77.5771,23.8371,0.0]]],
[[[-77.5524,23.8101,0.281],[-77.554,23.8118,0.1908],[-77.556,23.8113,0.0902],[-77.5443,23.8007,0.0553],[-77.5421,23.801,0.0],[-77.546,23.8046,0.3884],[-77.5471,23.8085,0.3328],[-77.5524,23.8101,0.281]]],
[[[-77.5035,23.8463,0.0],[-77.5046,23.8474,0.0],[-77.5101,23.8451,0.0],[-77.5104,23.841,0.0731],[-77.5137,23.8349,0.3209],[-77.5124,23.8265,0.0749],[-77.509,23.8271,0.945],[-77.5068,23.8312,0.0],[-77.5082,23.8351,0.5212],[-77.5107,23.836,1.1453],[-77.5046,23.8385,0.0],[-77.5049,23.8443,0.4669],[-77.5035,23.8463,0.0]]],
[[[-77.3807,23.6871,0.0],[-77.3826,23.6901,0.0],[-77.3815,23.6849,0.0],[-77.3801,23.6854,0.0],[-77.3807,23.6871,0.0]]],
[[[-77.4176,23.7579,0.0],[-77.4201,23.7601,0.0],[-77.4182,23.7551,0.0],[-77.4165,23.7546,0.0],[-77.4163,23.756,0.0],[-77.4176,23.7579,0.0]]],
[[[-77.4193,23.7629,0.0],[-77.4212,23.766,0.0],[-77.421,23.7618,0.0],[-77.4199,23.7613,0.0],[-77.4193,23.7629,0.0]]],
[[[-77.489,23.9018,1.3912],[-77.4915,23.9029,1.3984],[-77.4951,23.9013,1.2779],[-77.4999,23.9015,0.0],[-77.5021,23.8988,0.0],[-77.5015,23.8976,0.0],[-77.4962,23.8985,0.0],[-77.4924,23.901,0.8386],[-77.4879,23.8982,0.0],[-77.4851,23.8996,0.0],[-77.489,23.9018,1.3912]]],
[[[-77.0832,23.9532,0.0],[-77.0818,23.9543,0.0],[-77.0862,23.9515,0.0],[-77.0854,23.9513,0.0],[-77.0832,23.9532,0.0]]],
[[[-77.099,23.9557,0.0],[-77.0968,23.9565,0.0],[-77.1043,23.9549,1.1357],[-77.1065,23.9526,0.0],[-77.1051,23.9521,0.0],[-77.099,23.9557,0.0]]],
[[[-76.9999,23.9999,0.0],[-76.9999,24.0001,0.0],[-77.0001,24.0001,0.0],[-77.0001,23.9999,0.0],[-76.9999,23.9999,0.0]]],
[[[-77.1657,24.0462,0.0],[-77.1726,24.0471,0.0],[-77.1837,24.0435,0.0],[-77.1843,24.0421,0.0],[-77.1818,24.041,4.04],[-77.1765,24.0338,4.5128],[-77.1674,24.0321,4.1539],[-77.1615,24.0371,0.0],[-77.1618,24.0396,0.0],[-77.1651,24.0421,0.0],[-77.1657,24.0462,0.0]]],
[[[-76.9335,24.1176,0.7427],[-76.931,24.1188,0.0],[-76.9401,24.1182,0.0],[-76.9385,24.1168,0.0],[-76.9335,24.1176,0.7427]]],
[[[-76.9032,24.1201,0.0],[-76.9024,24.121,0.0],[-76.906,24.1213,0.0],[-76.9054,24.1196,0.0],[-76.9032,24.1201,0.0]]],
[[[-76.894,24.1207,0.0],[-76.8938,24.1221,0.0],[-76.9004,24.1213,0.0],[-76.8971,24.1201,0.0],[-76.894,24.1207,0.0]]],
[[[-76.889,24.1221,0.0],[-76.8868,24.1221,0.0],[-76.8863,24.1232,0.0],[-76.889,24.1232,0.0],[-76.889,24.1221,0.0]]],
[[[-77.716,23.8351,0.0],[-77.7143,23.8357,0.2896],[-77.7143,23.8376,0.0],[-77.7171,23.8371,0.0],[-77.716,23.8351,0.0]]],
[[[-77.7074,23.8401,0.0],[-77.7096,23.8418,0.1013],[-77.7107,23.8412,0.0],[-77.7096,23.8396,0.1528],[-77.7074,23.8401,0.0]]],
[[[-77.7146,23.8613,0.0357],[-77.7135,23.8635,0.0],[-77.7182,23.8621,0.0043],[-77.7179,23.861,0.0262],[-77.7146,23.8613,0.0357]]],
[[[-77.691,24.0929,0.0],[-77.6907,24.0985,0.0],[-77.6943,24.0982,0.0],[-77.6954,24.0926,0.0],[-77.701,24.0851,0.2424],[-77.7043,24.0724,0.0122],[-77.7085,24.0665,0.0],[-77.7049,24.0613,0.0597],[-77.7015,24.0646,0.2778],[-77.6951,24.079,0.0116],[-77.6879,24.0829,0.0],[-77.691,24.0929,0.0]]],
[[[-77.669,23.8471,-0.0139],[-77.6699,23.8496,0.0036],[-77.6738,23.8487,-0.0577],[-77.671,23.8463,-0.0193],[-77.669,23.8471,-0.0139]]],
[[[-77.5976,24.2104,1.9658],[-77.5996,24.2118,0.0],[-77.6046,24.2088,0.8725],[-77.6046,24.2068,0.2498],[-77.6012,24.2068,0.1698],[-77.6007,24.2046,1.0086],[-77.6051,24.2062,0.0],[-77.609,24.204,0.1787],[-77.6068,24.2076,0.2861],[-77.6076,24.2093,0.0],[-77.6115,24.2054,0.8067],[-77.6137,24.2065,0.0],[-77.6149,24.2029,0.2664],[-77.6226,24.1963,0.1259],[-77.6254,24.1885,0.0],[-77.6243,24.1832,0.9349],[-77.6268,24.1751,3.1455],[-77.6299,24.1715,1.6095],[-77.6312,24.1654,2.9476],[-77.6354,24.1657,0.0],[-77.6354,24.1579,0.0],[-77.6329,24.1546,0.3266],[-77.6351,24.1565,0.0],[-77.6376,24.1476,0.69],[-77.6468,24.1335,0.7365],[-77.6607,24.119,0.0],[-77.6629,24.1199,0.2158],[-77.6682,24.1179,0.0],[-77.6774,24.1126,0.0],[-77.6787,24.1051,0.1577],[-77.6776,24.1013,0.1087],[-77.6865,24.0896,0.1224],[-77.6849,24.0779,0.1365],[-77.6896,24.0699,0.0],[-77.6882,24.0682,0.2156],[-77.6899,24.0682,0.0557],[-77.6915,24.0654,0.0122],[-77.6951,24.0651,-0.0166],[-77.6999,24.0593,0.0],[-77.7015,24.0471,0.0],[-77.7035,24.0471,0.0],[-77.7049,24.0432,0.0409],[-77.6974,24.0357,0.0],[-77.7076,24.0421,0.0],[-77.7082,24.0393,0.0634],[-77.7112,24.0368,0.0042],[-77.7118,24.0313,0.0],[-77.7154,24.0285,1.0604],[-77.7207,24.0279,0.0564],[-77.7335,24.0293,0.0],[-77.7374,24.0318,0.0368],[-77.7435,24.0299,-0.0842],[-77.7429,24.0335,0.0386],[-77.7454,24.0351,0.0],[-77.7543,24.034,0.0],[-77.7562,24.0315,0.098],[-77.764,24.0301,0.0],[-77.7643,24.0285,-0.0153],[-77.7671,24.0279,0.0461],[-77.7682,24.0187,-0.2127],[-77.7696,24.0218,0.0],[-77.7726,24.0207,-0.0359],[-77.771,24.0243,0.0],[-77.7721,24.0257,0.0],[-77.7754,24.0232,-0.064],[-77.7826,24.0215,0.0142],[-77.786,24.0182,0.0],[-77.7901,24.0124,0.0],[-77.7915,24.0068,-0.0376],[-77.7943,24.0065,0.0],[-77.7951,23.9988,0.0],[-77.7965,23.9979,0.0],[-77.796,23.9968,0.0],[-77.7899,23.9976,-0.1258],[-77.789,23.9957,0.0],[-77.7965,23.9926,0.0],[-77.8004,23.9926,0.0],[-77.8001,23.9888,0.0],[-77.7971,23.9904,0.0],[-77.7935,23.989,0.0],[-77.794,23.9904,0.0],[-77.7929,23.9904,0.0],[-77.791,23.9888,0.0101],[-77.7979,23.989,0.0],[-77.7974,23.9874,0.0],[-77.799,23.986,0.0],[-77.7999,23.9871,0.0],[-77.7988,23.9882,0.0],[-77.8037,23.9882,-0.0148],[-77.8087,23.986,0.0265],[-77.8099,23.9874,-0.0118],[-77.8087,23.9904,0.1836],[-77.8135,23.9907,0.0],[-77.8143,23.994,0.0],[-77.8168,23.9929,0.0074],[-77.816,23.996,-0.0121],[-77.8196,23.9974,0.0],[-77.8224,23.996,-0.0183],[-77.8251,23.989,0.0],[-77.8213,23.9901,0.0],[-77.8193,23.9899,-0.0026],[-77.8196,23.9888,-0.0026],[-77.8276,23.9879,-0.0081],[-77.834,23.9901,-0.0001],[-77.8362,23.9874,0.0377],[-77.8407,23.986,0.0703],[-77.8368,23.9799,0.0859],[-77.8238,23.9762,0.0741],[-77.8213,23.9735,0.0628],[-77.8201,23.9688,0.0561],[-77.8143,23.9662,0.0915],[-77.8115,23.9668,0.0],[-77.8107,23.9715,0.2563],[-77.8068,23.9751,-0.0051],[-77.8096,23.971,0.0045],[-77.8079,23.9674,0.0066],[-77.8087,23.9635,0.0],[-77.8182,23.9535,0.0175],[-77.8196,23.9488,0.045],[-77.8176,23.9476,0.0846],[-77.8221,23.944,0.0],[-77.8224,23.9415,0.0938],[-77.8126,23.9368,0.0],[-77.8071,23.9371,0.0578],[-77.8015,23.9351,0.0],[-77.7968,23.9396,-0.0505],[-77.7974,23.9454,0.0413],[-77.7937,23.9513,-0.0111],[-77.7868,23.9571,0.0858],[-77.7843,23.9562,0.0254],[-77.7843,23.9549,0.0049],[-77.7896,23.9532,-0.0295],[-77.7932,23.9496,-0.0543],[-77.796,23.9443,-0.1523],[-77.7949,23.9387,-0.0943],[-77.8029,23.9324,0.0],[-77.8068,23.9338,0.0],[-77.8143,23.9324,0.0394],[-77.8174,23.9296,0.0],[-77.8165,23.926,0.0922],[-77.8213,23.9235,0.0639],[-77.8218,23.921,0.0],[-77.8176,23.9179,0.0566],[-77.8112,23.9165,0.0338],[-77.8063,23.9124,0.0889],[-77.7985,23.9104,0.0],[-77.7957,23.9107,0.1729],[-77.7915,23.9149,0.1094],[-77.781,23.9138,0.0074],[-77.7787,23.9151,-0.0263],[-77.7796,23.9126,0.0006],[-77.7776,23.9121,0.0006],[-77.769,23.9138,0.0106],[-77.7721,23.9118,0.0],[-77.7685,23.9099,0.0181],[-77.7718,23.911,0.0],[-77.7768,23.904,0.0942],[-77.7901,23.9076,0.0533],[-77.7996,23.9043,0.0485],[-77.8021,23.9013,0.0783],[-77.8015,23.8996,0.0633],[-77.7943,23.8996,0.0825],[-77.7851,23.9029,0.0294],[-77.779,23.9029,0.0575],[-77.7757,23.9007,0.0537],[-77.7663,23.9024,0.0152],[-77.7782,23.896,0.007],[-77.7849,23.8974,0.0],[-77.7935,23.8893,0.0913],[-77.7999,23.8904,0.0943],[-77.8012,23.8874,0.0756],[-77.7999,23.8838,0.0771],[-77.8037,23.8835,0.1802],[-77.8035,23.8824,0.1802],[-77.7962,23.8799,0.0],[-77.7932,23.8801,0.0],[-77.7926,23.8821,0.0067],[-77.7637,23.8818,0.0],[-77.7637,23.879,0.0],[-77.7618,23.8782,0.0],[-77.7604,23.8738,0.0267],[-77.7554,23.8682,0.0],[-77.7518,23.8676,-0.0402],[-77.749,23.8649,0.0],[-77.746,23.8662,0.0068],[-77.7424,23.8626,-0.0416],[-77.7429,23.8607,0.0],[-77.7399,23.8576,0.0331],[-77.7401,23.856,-0.031],[-77.7332,23.8532,0.0],[-77.7251,23.8568,0.086],[-77.724,23.8599,0.0209],[-77.7199,23.8613,0.0262],[-77.7185,23.8651,-0.0611],[-77.709,23.8635,0.0],[-77.7057,23.8662,0.0049],[-77.7032,23.8626,-0.0008],[-77.6993,23.8632,-0.0963],[-77.694,23.8604,0.0],[-77.6862,23.861,-0.1545],[-77.6824,23.8596,0.0163],[-77.6829,23.8571,0.0],[-77.6951,23.8554,0.0866],[-77.7038,23.8607,0.0],[-77.709,23.859,0.0],[-77.7107,23.8607,0.0279],[-77.7099,23.8624,0.1214],[-77.7118,23.8626,0.0],[-77.7129,23.8604,0.0348],[-77.7213,23.859,0.0],[-77.7262,23.8557,0.0487],[-77.7271,23.8535,0.0583],[-77.7354,23.8518,-0.0175],[-77.7379,23.8538,0.0087],[-77.7438,23.8543,0.0166],[-77.7479,23.8587,0.1338],[-77.7507,23.8563,0.0403],[-77.7518,23.8613,0.0584],[-77.7565,23.8604,0.0358],[-77.756,23.8626,0.0],[-77.7579,23.8626,0.0],[-77.759,23.866,0.0675],[-77.7532,23.8643,0.048],[-77.7524,23.8657,0.0056],[-77.7593,23.8685,0.0309],[-77.7618,23.8751,-0.0195],[-77.7649,23.8782,0.0236],[-77.7699,23.8793,0.0],[-77.7715,23.8782,0.0],[-77.7693,23.876,0.0557],[-77.7726,23.8768,0.0308],[-77.7774,23.8749,0.0056],[-77.7838,23.8751,0.0343],[-77.7879,23.8721,0.0496],[-77.7943,23.8735,-0.0162],[-77.7971,23.8721,0.0793],[-77.7971,23.876,0.0466],[-77.8029,23.8776,0.0],[-77.8068,23.8749,0.0],[-77.8063,23.871,0.0477],[-77.8104,23.8707,0.0],[-77.8124,23.8682,0.0484],[-77.8071,23.8657,0.0193],[-77.8063,23.8607,0.0561],[-77.804,23.8613,0.0731],[-77.8029,23.8571,0.0649],[-77.804,23.8551,0.1203],[-77.8018,23.854,0.0578],[-77.7985,23.8571,0.1068],[-77.7943,23.8571,0.2273],[-77.7932,23.8546,0.0693],[-77.7882,23.8574,0.0837],[-77.7871,23.8563,0.0794],[-77.7921,23.8532,0.1355],[-77.796,23.8549,0.0278],[-77.7993,23.854,0.0],[-77.8001,23.8474,0.1306],[-77.791,23.8479,0.0947],[-77.7885,23.8449,-0.3238],[-77.7968,23.846,0.0],[-77.801,23.8449,0.1256],[-77.8049,23.8465,0.1078],[-77.8043,23.8415,0.0754],[-77.8018,23.839,0.1877],[-77.7965,23.8376,0.037],[-77.7926,23.8399,0.0559],[-77.791,23.8376,0.0411],[-77.789,23.8393,0.0825],[-77.7862,23.8382,0.0],[-77.779,23.8404,0.0845],[-77.7774,23.8388,0.0126],[-77.7607,23.8424,0.3474],[-77.7412,23.841,-0.034],[-77.7326,23.8446,0.0633],[-77.7312,23.8479,0.0513],[-77.726,23.8482,0.0],[-77.7232,23.8518,0.0],[-77.7204,23.8513,0.0154],[-77.7126,23.8538,0.0591],[-77.7082,23.8518,0.0],[-77.696,23.8535,0.0],[-77.6946,23.8513,0.0237],[-77.7015,23.8493,0.0],[-77.7029,23.8471,-0.0081],[-77.691,23.8429,0.0],[-77.6901,23.8501,0.0],[-77.6749,23.8487,0.0],[-77.6635,23.8526,0.0],[-77.661,23.8546,-0.006],[-77.6601,23.8587,0.0],[-77.6549,23.8626,0.0847],[-77.654,23.866,0.0],[-77.6487,23.8704,-0.0043],[-77.6476,23.8732,0.0],[-77.6449,23.8743,-0.0182],[-77.6535,23.8643,-0.0598],[-77.6532,23.8607,0.0272],[-77.656,23.8596,-0.0579],[-77.6601,23.8532,0.0096],[-77.666,23.8504,0.6459],[-77.6685,23.846,0.2018],[-77.6718,23.8457,-0.0193],[-77.6768,23.8482,0.1199],[-77.6835,23.8476,0.0],[-77.6862,23.840699999999998,0.0],[-77.6932,23.8371,0.0],[-77.6924,23.8332,-0.0113],[-77.686,23.8288,0.1403],[-77.6721,23.8257,-0.1646],[-77.6646,23.8188,0.2156],[-77.661,23.8199,-0.0488],[-77.6537,23.8176,0.7811],[-77.651,23.8137,0.1624],[-77.6513,23.8051,0.0],[-77.6496,23.8051,0.0846],[-77.6476,23.8021,0.0987],[-77.6443,23.8015,0.0],[-77.644,23.8037,0.1034],[-77.6268,23.8135,0.0],[-77.6221,23.8121,0.1419],[-77.6132,23.8126,0.0658],[-77.611,23.819,0.0353],[-77.6049,23.821,0.1471],[-77.6029,23.8268,0.0635],[-77.6049,23.8288,0.0473],[-77.599,23.8296,0.0],[-77.5957,23.8282,0.0],[-77.5915,23.8307,0.0513],[-77.5901,23.834,0.2088],[-77.5851,23.8338,0.1103],[-77.5826,23.841,0.1549],[-77.5774,23.8424,0.4037],[-77.5726,23.8379,0.1915],[-77.5718,23.8329,0.0],[-77.5665,23.8276,0.0],[-77.566,23.8299,0.3426],[-77.569,23.8349,0.0],[-77.5663,23.8354,0.0],[-77.564,23.8329,0.0],[-77.561,23.8332,0.0],[-77.5612,23.831,0.058],[-77.5649,23.8276,0.0],[-77.5635,23.8263,0.1686],[-77.5646,23.8224,0.1428],[-77.5635,23.8215,0.33],[-77.5651,23.8185,0.0962],[-77.5596,23.8149,0.0],[-77.5532,23.8143,0.3177],[-77.5449,23.8093,0.3914],[-77.5371,23.7943,1.3061],[-77.5346,23.7932,0.0],[-77.531,23.7954,0.0],[-77.5271,23.8096,0.5092],[-77.5237,23.8132,0.0],[-77.5246,23.8163,5.0394],[-77.5212,23.8213,0.4724],[-77.5212,23.8274,0.435],[-77.5188,23.8288,0.288],[-77.5196,23.834,0.4423],[-77.5154,23.8401,0.0],[-77.5137,23.8474,1.0822],[-77.5118,23.8482,0.0],[-77.5115,23.8532,0.1901],[-77.5143,23.8613,1.7311],[-77.514,23.8796,0.0],[-77.5088,23.8888,0.421],[-77.5079,23.8946,0.0],[-77.5043,23.899,0.0],[-77.509,23.9043,1.4616],[-77.5104,23.9112,0.8419],[-77.5135,23.9121,0.0],[-77.5174,23.9171,2.1893],[-77.5215,23.9513,0.0],[-77.5254,23.9626,6.6738],[-77.5243,23.9668,0.0],[-77.5282,23.9732,0.9498],[-77.5268,23.9893,2.6207],[-77.5346,23.9929,0.8512],[-77.5335,23.9932,0.8512],[-77.5296,23.9921,1.0144],[-77.524,23.9954,0.0],[-77.5265,24.0063,2.8373],[-77.5221,24.009,0.0],[-77.5257,24.0093,1.2129],[-77.5282,24.0126,0.4363],[-77.5324,24.0332,0.0],[-77.541,24.0585,1.9925],[-77.541,24.0643,0.0],[-77.5432,24.069,7.4027],[-77.5454,24.0865,1.5617],[-77.5479,24.0937,2.8662],[-77.5462,24.1021,0.0],[-77.5501,24.1063,0.0],[-77.5518,24.1121,0.0],[-77.5557,24.116,1.568],[-77.5601,24.1282,0.5358],[-77.5682,24.1346,0.0],[-77.5724,24.1449,0.2896],[-77.5751,24.1474,0.0],[-77.5818,24.164,0.0],[-77.584,24.1757,0.0],[-77.5899,24.189,0.0],[-77.5899,24.2018,0.0],[-77.5915,24.2065,0.0],[-77.5976,24.2104,1.9658]]],
[[[-77.6843,24.1007,0.1853],[-77.6843,24.1024,0.0],[-77.6857,24.1032,0.0],[-77.6862,24.101,0.0],[-77.6843,24.1007,0.1853]]],
[[[-77.6515,24.1399,0.0],[-77.6513,24.1415,0.0],[-77.6532,24.1418,0.1976],[-77.654,24.1385,0.0],[-77.6535,24.1382,0.0],[-77.6515,24.1399,0.0]]],
[[[-77.5287,24.0849,0.7736],[-77.5296,24.0865,0.0],[-77.5304,24.0865,0.0],[-77.5299,24.0832,0.0],[-77.5287,24.0849,0.7736]]],
[[[-77.5374,24.101,0.3832],[-77.5382,24.1021,0.0],[-77.5399,24.1018,0.0],[-77.5379,24.0987,0.0],[-77.5374,24.101,0.3832]]],
[[[-77.5393,24.1063,1.7065],[-77.5399,24.1082,0.0],[-77.5413,24.106,0.7675],[-77.5401,24.1035,0.0],[-77.5387,24.1038,0.0],[-77.5393,24.1063,1.7065]]],
[[[-77.6021,24.2226,0.0],[-77.6046,24.2226,0.0],[-77.6065,24.2193,0.0],[-77.6046,24.2207,2.8162],[-77.6032,24.2176,2.3458],[-77.6001,24.2176,0.0],[-77.5993,24.219,0.0],[-77.6021,24.2226,0.0]]],
[[[-77.7996,23.8346,0.0389],[-77.799,23.8376,0.0672],[-77.8037,23.8374,0.0524],[-77.8029,23.8332,0.1013],[-77.8057,23.8293,0.1959],[-77.804,23.8268,0.1565],[-77.8012,23.8282,0.1162],[-77.8021,23.8312,0.0],[-77.7996,23.8346,0.0389]]],
[[[-77.7946,23.8965,0.0573],[-77.7971,23.8974,0.0],[-77.7982,23.8949,0.0],[-77.7954,23.8907,0.0998],[-77.7932,23.8915,0.0422],[-77.7946,23.8932,0.1083],[-77.7915,23.8954,0.034],[-77.7946,23.8965,0.0573]]],
[[[-77.7787,23.8985,0.0],[-77.7782,23.8999,0.0],[-77.7818,23.8996,0.0],[-77.7799,23.8985,0.0],[-77.7787,23.8985,0.0]]],
[[[-77.7857,23.911,0.041],[-77.7918,23.9115,0.0621],[-77.7937,23.9099,0.0129],[-77.7776,23.906,0.0095],[-77.7743,23.9099,0.0231],[-77.7746,23.9112,0.051],[-77.7768,23.9099,0.0062],[-77.7857,23.911,0.041]]],
[[[-77.7276,23.8393,0.0007],[-77.7293,23.8412,0.0196],[-77.7351,23.8382,0.0514],[-77.7443,23.8382,0.0],[-77.746,23.8368,0.0],[-77.7438,23.8346,0.0208],[-77.7365,23.8326,0.0],[-77.726,23.8324,0.0274],[-77.7249,23.8338,0.0],[-77.7296,23.8363,0.0138],[-77.7276,23.8393,0.0007]]],
[[[-77.7237,23.8426,0.0204],[-77.726,23.8435,0.0699],[-77.7276,23.8421,0.0],[-77.7235,23.8385,0.0],[-77.7201,23.8396,-0.0011],[-77.721,23.8418,0.0205],[-77.7237,23.8426,0.0204]]],
[[[-77.7213,23.8435,0.0],[-77.7213,23.8451,0.0299],[-77.724,23.8446,-0.0192],[-77.7237,23.8438,-0.0192],[-77.7213,23.8435,0.0]]],
[[[-77.7521,24.0407,0.0],[-77.754,24.0415,0.0],[-77.7613,24.0365,0.1114],[-77.7649,24.0368,0.0405],[-77.7657,24.0354,0.0],[-77.7599,24.0335,0.0],[-77.7574,24.0354,0.0],[-77.7543,24.0346,0.0],[-77.7487,24.0362,0.1865],[-77.7465,24.0351,0.0],[-77.7432,24.0376,0.7038],[-77.7446,24.0399,0.0],[-77.7521,24.0407,0.0]]]]}}