{"type": "Feature","bbox": [-72.1221,19.2593,-71.6758,19.7357],"geometry": {"type": "MultiPolygon","coordinates": [[[[-71.9418,19.3081,806.946],[-71.914,19.3055,722.9209],[-71.9139,19.3007,615.5914],[-71.9069,19.294,612.5784],[-71.9095,19.2908,575.7132],[-71.9092,19.2886,518.0138],[-71.9072,19.2885,515.5082],[-71.9028,19.2842,657.2479],[-71.9007,19.2754,837.0989],[-71.893,19.2747,935.8046],[-71.8876,19.2767,940.9161],[-71.8794,19.2746,963.3491],[-71.8725,19.2758,965.2281],[-71.8656,19.2798,969.5914],[-71.8539,19.2698,957.3691],[-71.8463,19.2664,702.4207],[-71.8284,19.2641,584.6179],[-71.8092,19.2647,807.5363],[-71.7986,19.2605,731.3513],[-71.7843,19.2618,766.2311],[-71.7747,19.2593,804.1079],[-71.7735,19.2611,808.3886],[-71.7761,19.2671,806.4848],[-71.7722,19.2674,752.8939],[-71.7698,19.2723,639.2096],[-71.7648,19.2763,583.7099],[-71.7592,19.2754,580.3648],[-71.7479,19.2833,587.9888],[-71.752,19.2841,585.0573],[-71.752,19.2868,595.7151],[-71.7501,19.2868,623.5698],[-71.7501,19.2934,589.4402],[-71.7529,19.2954,586.8492],[-71.7576,19.2954,578.4927],[-71.7576,19.2973,570.1053],[-71.7561,19.2976,571.3362],[-71.7568,19.3008,570.1798],[-71.7529,19.302,590.7498],[-71.7529,19.3047,602.9501],[-71.7568,19.3055,592.9157],[-71.7556,19.3074,596.7775],[-71.7588,19.3074,592.5428],[-71.7595,19.3094,596.0159],[-71.7595,19.3074,592.5428],[-71.7615,19.3074,585.251],[-71.7595,19.3113,599.3118],[-71.7615,19.3121,602.1639],[-71.7623,19.316,598.5897],[-71.7635,19.316,592.8947],[-71.7643,19.3206,614.1545],[-71.767,19.3222,601.1274],[-71.7651,19.3241,615.0394],[-71.767,19.3253,606.5391],[-71.7709,19.3241,602.444],[-71.7709,19.3268,609.6526],[-71.7737,19.3268,608.8408],[-71.7737,19.3307,613.555],[-71.7764,19.3334,616.0488],[-71.7804,19.3334,605.6722],[-71.7831,19.3354,606.8884],[-71.769,19.3428,713.3352],[-71.7494,19.344,801.9247],[-71.7466,19.3546,695.2416],[-71.744,19.3563,779.0333],[-71.7375,19.3581,787.4423],[-71.735,19.3607,830.9827],[-71.7316,19.3606,786.956],[-71.7244,19.3666,823.5289],[-71.7182,19.3628,850.5303],[-71.7169,19.3684,843.6118],[-71.7153,19.3675,840.3613],[-71.7145,19.3728,943.5835],[-71.7126,19.3736,832.2413],[-71.7118,19.3767,743.5149],[-71.7004,19.3689,566.3098],[-71.6984,19.3643,570.0355],[-71.6918,19.3643,558.7714],[-71.689,19.3674,463.8082],[-71.691,19.369,405.0835],[-71.691,19.3736,353.7291],[-71.6883,19.3756,614.8397],[-71.6883,19.3775,640.874],[-71.691,19.3795,390.8279],[-71.691,19.3849,384.0377],[-71.6946,19.3942,298.3892],[-71.6938,19.3954,298.3892],[-71.6958,19.3969,245.1579],[-71.6946,19.3989,229.7805],[-71.6956,19.4006,210.9765],[-71.6871,19.4121,194.5507],[-71.6864,19.4195,177.4369],[-71.6883,19.4187,190.0623],[-71.6883,19.4214,171.9103],[-71.6864,19.4269,158.5874],[-71.6844,19.4269,191.513],[-71.6797,19.4362,139.0548],[-71.6805,19.4374,134.8447],[-71.677,19.4382,157.5527],[-71.679,19.4436,128.1169],[-71.6778,19.4475,121.4044],[-71.6758,19.4483,139.3432],[-71.6758,19.4502,138.3896],[-71.6778,19.4502,123.6314],[-71.677,19.4561,133.7289],[-71.679,19.4561,125.3356],[-71.6845,19.4634,114.8033],[-71.6825,19.4654,120.3009],[-71.6853,19.4669,101.4124],[-71.6845,19.4716,113.0468],[-71.6884,19.4716,96.2772],[-71.6865,19.4774,95.1766],[-71.6884,19.4794,90.2914],[-71.6912,19.4794,92.4428],[-71.6919,19.482,79.5963],[-71.6892,19.4868,82.5429],[-71.6919,19.4938,64.1415],[-71.6885,19.4969,80.3253],[-71.6893,19.4996,53.5222],[-71.6854,19.5074,57.4629],[-71.6865,19.5128,47.449],[-71.6854,19.5147,52.3314],[-71.6866,19.5182,67.6],[-71.6901,19.5147,48.1503],[-71.6932,19.5167,56.4089],[-71.696,19.5155,54.634],[-71.6979,19.5174,51.1926],[-71.6979,19.5248,53.5995],[-71.7007,19.5248,51.4347],[-71.7015,19.5275,49.7969],[-71.7007,19.538,45.4622],[-71.7027,19.5388,43.7484],[-71.7042,19.5361,47.8042],[-71.7074,19.5353,46.781],[-71.7101,19.5361,41.9367],[-71.7109,19.538,39.37],[-71.7109,19.5555,31.8473],[-71.7129,19.5567,32.1486],[-71.7176,19.566,26.7986],[-71.742,19.5881,18.9076],[-71.744,19.6354,8.4379],[-71.7324,19.6463,5.2429],[-71.7311,19.6519,4.1423],[-71.7327,19.662,3.9356],[-71.7341,19.6659,2.0],[-71.7366,19.6666,8.7498],[-71.7366,19.6686,25.0631],[-71.7421,19.6686,22.1626],[-71.7433,19.6705,19.1191],[-71.7453,19.6705,19.3523],[-71.7516,19.6798,17.7193],[-71.7555,19.6806,3.4261],[-71.7527,19.6833,6.563],[-71.7547,19.6861,2.5297],[-71.7528,19.6899,11.7546],[-71.7555,19.6892,2.7483],[-71.7547,19.6907,2.3133],[-71.7583,19.6907,2.3542],[-71.7583,19.6919,2.3542],[-71.7536,19.6947,29.3035],[-71.7536,19.6965,24.4476],[-71.7555,19.6954,23.2941],[-71.7575,19.6965,7.2806],[-71.7575,19.6985,6.6592],[-71.7602,19.6965,3.8782],[-71.7602,19.6993,2.3048],[-71.7583,19.7,4.1814],[-71.7613,19.7049,1.7551],[-71.811,19.7132,0.0],[-71.8363,19.7146,0.7937],[-71.844,19.7124,0.0],[-71.8446,19.711,0.6459],[-71.8421,19.7082,3.7503],[-71.8429,19.7049,4.7505],[-71.8399,19.701,3.8087],[-71.8426,19.6979,8.8669],[-71.8407,19.6907,5.5985],[-71.8415,19.6876,3.168],[-71.8394,19.6871,6.3158],[-71.8365,19.689,8.2968],[-71.8349,19.6865,0.0],[-71.8317,19.688,3.0927],[-71.8288,19.6835,0.0],[-71.8261,19.684,6.0573],[-71.823,19.6808,0.0],[-71.822,19.6821,7.8926],[-71.8199,19.6812,0.0],[-71.8187,19.684,6.161],[-71.8104,19.6746,0.0],[-71.811,19.6711,0.9255],[-71.8157,19.6731,0.4815],[-71.8185,19.6726,0.0],[-71.8107,19.6688,0.6426],[-71.8121,19.6671,0.6724],[-71.8191,19.6693,0.0],[-71.8201,19.6679,3.763],[-71.8203,19.6662,1.3883],[-71.8182,19.6663,1.3616],[-71.8187,19.6646,0.0],[-71.8168,19.6632,0.0],[-71.8196,19.6615,2.0674],[-71.8196,19.659,2.0039],[-71.8157,19.6588,2.6709],[-71.8189,19.6555,0.0],[-71.8163,19.6516,0.0],[-71.8226,19.648,0.7142],[-71.8251,19.6499,1.7964],[-71.8225,19.6523,0.7639],[-71.8254,19.6536,3.4684],[-71.8251,19.6565,2.4735],[-71.8277,19.6588,1.2026],[-71.8259,19.6622,0.0],[-71.8384,19.6688,0.0],[-71.8415,19.6727,0.0],[-71.8409,19.6756,0.0],[-71.8468,19.6693,0.7118],[-71.8545,19.6688,0.0],[-71.8587,19.6712,0.3438],[-71.8616,19.6685,4.7292],[-71.8618,19.6699,2.3593],[-71.8643,19.6701,1.4573],[-71.8662,19.666,1.0088],[-71.8732,19.6649,1.0268],[-71.8765,19.661,0.7838],[-71.8788,19.6607,0.1852],[-71.884,19.664,0.0],[-71.884,19.6674,0.0],[-71.8882,19.669,0.0],[-71.8887,19.6724,0.0],[-71.8956,19.6687,2.4761],[-71.8968,19.6696,2.3207],[-71.8909,19.6769,0.8546],[-71.886,19.6771,0.0],[-71.8874,19.6818,4.4459],[-71.891,19.6821,0.0],[-71.8943,19.6782,5.8517],[-71.8971,19.6804,1.9762],[-71.9021,19.6799,1.2422],[-71.901,19.6821,0.0],[-71.9025,19.6824,0.0],[-71.9035,19.6865,0.0],[-71.8965,19.6851,0.967],[-71.896,19.6826,0.5076],[-71.8929,19.6871,7.0439],[-71.889,19.6843,0.8971],[-71.8838,19.6857,7.4353],[-71.8835,19.6826,1.4802],[-71.8815,19.684,3.0608],[-71.8785,19.6832,0.0],[-71.8757,19.6793,0.5747],[-71.8716,19.6805,0.0],[-71.872,19.6842,5.7169],[-71.8668,19.6851,0.0],[-71.8672,19.6879,0.5485],[-71.8624,19.691,8.2026],[-71.8587,19.6901,0.0],[-71.8571,19.6924,13.2072],[-71.854,19.6896,0.8282],[-71.8514,19.691,4.4125],[-71.8485,19.6948,0.0],[-71.8485,19.7013,0.6548],[-71.846,19.7025,2.3483],[-71.8457,19.7076,1.5983],[-71.8487,19.7149,0.0],[-71.8512,19.7165,0.0],[-71.8585,19.7176,0.0],[-71.8676,19.7161,1.0346],[-71.8785,19.7199,1.1647],[-71.8907,19.7196,1.2202],[-71.9074,19.7263,0.9337],[-71.929,19.7269,3.2082],[-71.9379,19.7301,1.9952],[-71.9435,19.7296,0.7303],[-71.9478,19.7269,0.2936],[-71.9615,19.7346,0.2458],[-71.9676,19.7357,0.0],[-71.9818,19.7326,0.9159],[-71.9871,19.7337,0.748],[-71.9896,19.7315,0.2721],[-71.9861,19.7318,0.3707],[-71.9846,19.7293,0.6632],[-71.9901,19.7301,0.862],[-71.9924,19.726,0.0],[-71.9901,19.7049,0.4172],[-71.9929,19.6985,0.6134],[-71.9962,19.6985,0.7793],[-72.0001,19.7007,0.9155],[-72.004,19.7062,0.0],[-72.0071,19.7065,0.5765],[-72.0074,19.7015,1.4338],[-72.0096,19.6996,2.2539],[-72.0165,19.6988,0.0],[-72.0193,19.6968,0.5038],[-72.0357,19.701,0.0],[-72.0415,19.7001,0.4137],[-72.0385,19.6979,0.0],[-72.0399,19.6926,0.2831],[-72.0428,19.6937,0.273],[-72.0518,19.6897,0.2705],[-72.0537,19.6906,0.6973],[-72.0526,19.6932,0.0],[-72.0568,19.6957,0.0],[-72.0591,19.6932,0.6697],[-72.0628,19.6853,1.4555],[-72.0587,19.6731,7.4221],[-72.0612,19.6627,15.9372],[-72.0665,19.6556,22.5146],[-72.0645,19.6515,26.7034],[-72.0672,19.6487,30.8039],[-72.0641,19.6427,34.782],[-72.0656,19.6401,39.3212],[-72.0648,19.6374,39.4728],[-72.0672,19.634,43.4502],[-72.0716,19.6308,53.1309],[-72.0789,19.6315,62.7976],[-72.0935,19.6261,310.3546],[-72.1061,19.6346,371.4688],[-72.1101,19.6344,399.4912],[-72.1083,19.6227,227.4693],[-72.1134,19.6186,72.6561],[-72.1115,19.6144,123.5664],[-72.1124,19.6106,264.0108],[-72.1057,19.6029,462.4823],[-72.1069,19.5997,417.3929],[-72.1123,19.5955,433.0631],[-72.1138,19.5915,368.9995],[-72.1211,19.5887,345.2474],[-72.1221,19.5855,345.2491],[-72.1184,19.5797,323.3293],[-72.12,19.5748,277.2059],[-72.1153,19.5752,308.8295],[-72.112,19.5703,317.4648],[-72.1117,19.5614,285.6388],[-72.1141,19.5587,133.9144],[-72.1081,19.5593,249.7404],[-72.1055,19.5537,267.2466],[-72.1028,19.5518,283.9971],[-72.1043,19.5493,299.1968],[-72.1013,19.5484,290.4839],[-72.101,19.5427,290.6362],[-72.0998,19.5433,291.6743],[-72.098,19.5413,296.7083],[-72.0968,19.5369,365.6573],[-72.0978,19.5315,499.5561],[-72.1026,19.5288,522.7958],[-72.1036,19.5238,577.0238],[-72.0996,19.5184,636.5298],[-72.0939,19.5152,676.4644],[-72.095,19.5112,736.0084],[-72.0933,19.5098,712.335],[-72.0932,19.5032,649.9415],[-72.0911,19.4974,596.1339],[-72.0829,19.4903,509.0734],[-72.0761,19.4884,425.5283],[-72.0698,19.4831,391.7458],[-72.063,19.4801,336.1363],[-72.0621,19.4776,333.7885],[-72.0643,19.4746,313.5883],[-72.0627,19.4721,279.3906],[-72.0662,19.4718,228.2487],[-72.067,19.4653,258.392],[-72.0706,19.4612,220.2299],[-72.0699,19.4554,214.5819],[-72.0801,19.4585,172.3726],[-72.0839,19.4554,166.6699],[-72.0875,19.449,146.1057],[-72.0918,19.4469,137.7569],[-72.0882,19.4461,141.9737],[-72.0822,19.4399,168.7139],[-72.0794,19.4432,182.0836],[-72.079,19.437,161.2496],[-72.0728,19.4348,163.816],[-72.067,19.4346,165.7918],[-72.0644,19.437,168.1611],[-72.0665,19.4401,161.3661],[-72.0692,19.4406,183.8136],[-72.0685,19.4431,175.503],[-72.0647,19.4452,187.0558],[-72.0507,19.4372,183.8882],[-72.0466,19.4383,193.893],[-72.0441,19.4322,205.8837],[-72.0377,19.4321,253.6578],[-72.0363,19.4284,338.6358],[-72.0373,19.426,234.3849],[-72.034,19.4256,327.5863],[-72.0312,19.4198,279.0467],[-72.026,19.4166,331.7005],[-72.0235,19.4173,437.0747],[-72.0228,19.4141,372.8169],[-72.0207,19.4142,376.4076],[-72.0228,19.4117,407.8441],[-72.0218,19.4101,378.6301],[-72.0201,19.4099,378.6301],[-72.0115,19.4009,435.3678],[-72.0076,19.3996,456.9421],[-71.9947,19.3802,521.1804],[-71.995,19.3782,526.0518],[-71.9889,19.3685,490.8516],[-71.9901,19.3661,482.5443],[-71.9857,19.3659,490.9715],[-71.9859,19.3611,630.2173],[-71.9796,19.354,772.7279],[-71.9745,19.3507,623.6329],[-71.9715,19.3455,531.9912],[-71.9702,19.3432,501.2464],[-71.9711,19.3389,471.5276],[-71.9785,19.3404,471.5751],[-71.9775,19.3351,456.3143],[-71.982,19.3348,454.7882],[-71.9822,19.3332,457.8858],[-71.9602,19.3127,551.2947],[-71.9418,19.3081,806.946]]],
[[[-71.8543,19.6826,0.9142],[-71.8557,19.6832,0.0],[-71.8571,19.6804,0.0],[-71.856,19.6799,0.0],[-71.8543,19.6826,0.9142]]],
[[[-72.0482,19.6965,0.0],[-72.0499,19.6963,0.0],[-72.0504,19.694,0.3652],[-72.0485,19.694,0.0],[-72.0482,19.6965,0.0]]]]}
,"properties": {"GID_1": "HTI.5_1","GID_0": "HTI","country": "Haiti","province": "Nord-Est","VARNAME_1": "NA","NL_NAME_1": "NA","TYPE_1": "Département","ENGTYPE_1": "Department","CC_1": "NA","HASC_1": "HT.NE","ISO_1": "NA","name": "Nord-Est.province","area_km2": 1648.48,"hist_schema_id": "Elevation0-9000","hist_area_km2": {"0": 192.83,"25": 204.665,"50": 122.956,"75": 104.512,"100": 81.748,"125": 60.233,"150": 43.11,"175": 34.758,"200": 30.402,"225": 22.227,"250": 16.33,"275": 14.97,"300": 15.929,"325": 18.685,"350": 23.221,"375": 20.324,"400": 21.245,"425": 26.744,"450": 28.044,"475": 25.906,"500": 26.467,"525": 26.87,"550": 28.972,"575": 30.516,"600": 40.64,"625": 60.902,"650": 60.841,"675": 46.702,"700": 38.523,"725": 32.124,"750": 26.424,"775": 22.103,"800": 20.303,"825": 17.302,"850": 14.742,"875": 11.322,"900": 9.981,"925": 7.481,"950": 5.441,"975": 3.62,"1000": 2.48,"1025": 2.3,"1050": 1.34,"1075": 0.88,"1100": 0.62,"1125": 0.46,"1150": 0.24,"1175": 0.04}}}