{"type": "Feature","bbox": [-70.4767,19.0595,-70.3135,19.1809],"geometry": {"type": "MultiPolygon","coordinates": [[[[-70.4685,19.0952,651.4824],[-70.4644,19.0938,675.868],[-70.4444,19.1043,286.2937],[-70.4407,19.1111,249.364],[-70.4347,19.1161,219.7663],[-70.4339,19.1217,167.8646],[-70.426,19.1247,234.6915],[-70.413,19.1154,255.3913],[-70.4072,19.1078,167.0298],[-70.401,19.1036,134.5369],[-70.4031,19.0937,133.9029],[-70.401,19.0871,147.6461],[-70.3849,19.0717,210.5579],[-70.3773,19.0618,264.0335],[-70.3741,19.0595,281.5261],[-70.3699,19.0608,207.7639],[-70.3573,19.0708,89.0975],[-70.3527,19.0763,86.0645],[-70.342,19.0824,79.1713],[-70.3399,19.0884,75.3471],[-70.3354,19.0928,76.1134],[-70.3312,19.1026,61.318],[-70.3242,19.1106,54.0946],[-70.3312,19.1205,54.7965],[-70.3252,19.1363,52.4381],[-70.3135,19.1463,49.3328],[-70.3198,19.1476,50.5252],[-70.3292,19.1461,52.3744],[-70.3416,19.1522,53.7698],[-70.3474,19.1582,50.4997],[-70.3547,19.1576,53.8962],[-70.3611,19.1649,52.5041],[-70.3702,19.165,56.5285],[-70.381,19.1629,62.2238],[-70.3865,19.1704,56.7678],[-70.4053,19.1809,59.1878],[-70.4075,19.1803,58.9876],[-70.413,19.1742,59.1324],[-70.4415,19.1706,62.1929],[-70.4532,19.159,80.1564],[-70.4564,19.143,111.1243],[-70.4537,19.1343,191.7196],[-70.454,19.1218,196.1713],[-70.4575,19.1206,178.746],[-70.4641,19.1231,187.8602],[-70.4688,19.1226,373.7171],[-70.4767,19.1092,550.0858],[-70.474,19.101,589.5804],[-70.4685,19.0952,651.4824]]]]}
,"properties": {"GID_2": "DOM.14.4_1","GID_0": "DOM","country": "DominicanRepublic","GID_1": "DOM.14_1","province": "LaVega","NL_NAME_1": "NA","county": "JimaAbajo","VARNAME_2": "NA","NL_NAME_2": "NA","TYPE_2": "Distritomunicipal","ENGTYPE_2": "Municipaldistrict","CC_2": "NA","HASC_2": "DO.VE.JA","name": "Jima_Abajo.county","area_km2": 117.00616,"hist_schema_id": "Elevation0-9000","hist_area_km2": {"50": 37.37447,"75": 41.80691,"100": 9.19575,"125": 6.2708,"150": 4.84822,"175": 4.12707,"200": 2.96507,"225": 2.22382,"250": 1.30229,"275": 0.52091,"300": 0.26045,"325": 0.16027,"350": 0.2404,"375": 0.16027,"400": 0.32054,"425": 0.42072,"450": 0.34057,"475": 0.2404,"500": 0.1803,"525": 0.22037,"550": 0.28048,"575": 0.42072,"600": 0.44076,"625": 0.58099,"650": 0.92158,"675": 0.66113,"700": 0.5209}}}