{"type":"Feature","properties":{"GID_3":"HTI.7.3.3_1","GID_0":"HTI","country":"Haiti","GID_1":"HTI.7_1","province":"Nord","NL_NAME_1":"NA","GID_2":"HTI.7.3_1","county":"l'Acul-du-Nord","NL_NAME_2":"NA","city":"PlaineduNord","VARNAME_3":"NA","NL_NAME_3":"NA","TYPE_3":"Commune","ENGTYPE_3":"Commune","CC_3":"NA","HASC_3":"NA","name":"Plainedu_Nord.city"},
"geometry":{"type": "MultiPolygon","coordinates": [[[[-72.2755,19.5838,447.3033],[-72.2728,19.5826,436.7076],[-72.2715,19.5779,544.1512],[-72.2667,19.5785,597.7477],[-72.2636,19.5741,534.5922],[-72.2511,19.5704,562.8052],[-72.2412,19.5761,711.0545],[-72.2406,19.5805,597.2838],[-72.236,19.5838,631.6357],[-72.2309,19.6025,654.0671],[-72.2342,19.6061,471.3255],[-72.2331,19.607,486.4385],[-72.2372,19.607,433.7541],[-72.2462,19.6146,129.4714],[-72.2475,19.6202,73.3576],[-72.2456,19.6215,68.5919],[-72.2504,19.6342,33.3734],[-72.2498,19.6393,29.289],[-72.2449,19.6424,25.3868],[-72.2454,19.6507,18.5377],[-72.2427,19.6515,18.9095],[-72.2436,19.6543,16.8955],[-72.24,19.6591,14.3628],[-72.2404,19.6609,13.0165],[-72.2333,19.6692,8.7651],[-72.2327,19.6849,7.3631],[-72.2404,19.6909,7.2163],[-72.2426,19.6963,6.8873],[-72.2409,19.7043,4.1337],[-72.2369,19.7089,3.9846],[-72.2364,19.712,4.0471],[-72.239,19.7124,3.5321],[-72.2403,19.7095,4.1785],[-72.2443,19.7081,4.478],[-72.2521,19.7191,23.2007],[-72.2477,19.722,29.0706],[-72.2482,19.7249,43.158],[-72.2451,19.7288,117.7825],[-72.248,19.7296,124.6394],[-72.251,19.7399,668.7404],[-72.2615,19.7391,666.0646],[-72.2687,19.7411,658.2589],[-72.2672,19.745,483.3345],[-72.2642,19.7464,512.6379],[-72.2608,19.745,580.5049],[-72.2567,19.7474,444.8754],[-72.2576,19.7586,77.3888],[-72.2621,19.7629,0.0],[-72.2674,19.7638,0.0],[-72.2707,19.7621,0.0],[-72.2704,19.7649,0.0],[-72.2751,19.7635,11.3794],[-72.2785,19.7671,0.0],[-72.2813,19.766,0.0],[-72.2849,19.7683,5.788],[-72.2865,19.7679,0.0],[-72.2876,19.7649,9.0577],[-72.2943,19.7657,0.0],[-72.2974,19.7626,17.7383],[-72.3024,19.761,4.812],[-72.3129,19.7649,22.6189],[-72.3149,19.7702,5.3236],[-72.3187,19.7701,0.0],[-72.3201,19.7671,14.3427],[-72.3143,19.7602,0.0],[-72.3118,19.7482,0.5103],[-72.3185,19.7493,0.0],[-72.3201,19.7457,12.6772],[-72.3179,19.7429,0.0],[-72.3104,19.7429,0.0],[-72.3087,19.7385,0.0],[-72.314,19.7365,11.9116],[-72.3126,19.7332,0.0],[-72.3129,19.7262,0.172],[-72.311,19.7218,0.0],[-72.3121,19.7191,0.1972],[-72.3101,19.7195,0.4665],[-72.3103,19.7166,0.5762],[-72.3036,19.7112,0.5248],[-72.3036,19.7068,0.3654],[-72.3012,19.7072,0.8848],[-72.2987,19.7017,1.5996],[-72.294,19.6963,5.6601],[-72.2887,19.6962,2.2945],[-72.2855,19.699,4.4393],[-72.2834,19.6945,4.8869],[-72.2798,19.6932,6.1128],[-72.2786,19.6898,6.7899],[-72.2854,19.6737,13.8069],[-72.2858,19.6625,19.0786],[-72.2888,19.6552,24.8836],[-72.2966,19.6506,34.09],[-72.2951,19.6485,34.9034],[-72.2976,19.6454,42.4005],[-72.296,19.6443,42.4005],[-72.2891,19.6465,34.5445],[-72.2848,19.6503,31.7066],[-72.2756,19.6497,24.2265],[-72.2765,19.6479,26.0998],[-72.2745,19.6486,27.5544],[-72.2731,19.6469,27.2975],[-72.2733,19.642,29.9168],[-72.2781,19.6377,31.2094],[-72.2769,19.6345,35.8443],[-72.2777,19.6305,38.8165],[-72.2737,19.6259,39.9767],[-72.2719,19.613,58.7853],[-72.2752,19.5995,113.365],[-72.2744,19.5923,270.2517],[-72.2791,19.5875,423.2328],[-72.2755,19.5838,447.3033]]]]}}