{"type":"Feature","properties":{"GID_2":"CUB.14.2_1","GID_0":"CUB","country":"Cuba","GID_1":"CUB.14_1","province":"SanctiSpíritus","NL_NAME_1":"NA","county":"Fomento","VARNAME_2":"NA","NL_NAME_2":"NA","TYPE_2":"Municipio","ENGTYPE_2":"Municipality","CC_2":"NA","HASC_2":"CU.SS.FO","name":"Fomento.county"},
"geometry":{"type": "MultiPolygon","coordinates": [[[[-79.6663,22.1394,185.8273],[-79.6795,22.1303,175.2323],[-79.7019,22.1282,152.8157],[-79.7101,22.1334,161.0967],[-79.7255,22.1606,137.7349],[-79.7322,22.1675,137.6482],[-79.7478,22.1691,144.9417],[-79.7627,22.1665,121.2459],[-79.7716,22.1622,128.5809],[-79.7798,22.1533,110.2711],[-79.7845,22.139,156.6543],[-79.7825,22.1285,141.5572],[-79.7751,22.1182,135.3644],[-79.7592,22.104,99.7492],[-79.7488,22.0791,99.9935],[-79.7409,22.0754,107.9799],[-79.7303,22.0732,108.5643],[-79.7243,22.068,148.1032],[-79.7213,22.0577,138.6638],[-79.7219,22.04,111.956],[-79.7303,22.0269,117.5122],[-79.7455,22.0087,163.4417],[-79.7524,21.9947,318.4206],[-79.7561,21.9808,181.6491],[-79.764,21.9701,134.4839],[-79.7806,21.9569,190.3417],[-79.8027,21.9453,98.9827],[-79.8199,21.9489,135.6913],[-79.8438,21.9636,259.5073],[-79.844,21.9534,237.6767],[-79.8168,21.9426,79.3566],[-79.7922,21.9391,45.1873],[-79.7665,21.9291,126.0355],[-79.745,21.8913,100.1123],[-79.7317,21.8752,139.5732],[-79.7039,21.8226,175.0682],[-79.6682,21.8418,255.6068],[-79.6112,21.8528,497.7399],[-79.602,21.8591,620.333],[-79.5926,21.8768,481.9222],[-79.591,21.8887,619.5739],[-79.5921,21.9039,713.2327],[-79.5996,21.9241,459.8473],[-79.6016,21.9563,258.0034],[-79.6451,21.9684,431.3477],[-79.6515,21.9744,409.9269],[-79.6608,21.9926,293.8705],[-79.6615,22.0236,173.63],[-79.6535,22.0526,186.3278],[-79.6556,22.1336,190.777],[-79.6663,22.1394,185.8273]]]]}}