{"type":"Feature","properties":{"GID_1":"PRI.24_1","GID_0":"PRI","country":"PuertoRico","province":"Corozal","VARNAME_1":"NA","NL_NAME_1":"NA","TYPE_1":"Municipio","ENGTYPE_1":"Municipality","CC_1":"NA","HASC_1":"PR.CZ","ISO_1":"-","name":"Corozal.province"},
"geometry":{"type": "MultiPolygon","coordinates": [[[[-66.3131,18.2491,505.8556],[-66.2937,18.2606,473.3086],[-66.2873,18.273,586.8499],[-66.2851,18.304,410.8514],[-66.2778,18.3308,132.2563],[-66.2885,18.3531,187.0977],[-66.3042,18.3674,132.7565],[-66.3079,18.365,153.3486],[-66.3126,18.3645,137.3305],[-66.3186,18.3673,150.6548],[-66.3381,18.3682,70.6114],[-66.3413,18.362,195.7731],[-66.3408,18.3577,162.1207],[-66.344,18.3577,126.7327],[-66.3501,18.361,127.4488],[-66.3551,18.3605,86.0721],[-66.3547,18.3548,147.4352],[-66.3486,18.3505,153.9601],[-66.3574,18.3438,238.9066],[-66.3587,18.3305,228.5818],[-66.3652,18.3333,226.205],[-66.3725,18.309,291.628],[-66.373,18.3023,356.3039],[-66.378,18.2942,268.2917],[-66.3775,18.2861,356.9692],[-66.3826,18.2794,312.4694],[-66.383,18.2751,298.3292],[-66.377,18.2737,481.1382],[-66.3719,18.2694,598.0178],[-66.3622,18.2571,705.5356],[-66.358,18.2466,745.8651],[-66.351,18.2414,716.7795],[-66.3404,18.2385,740.7565],[-66.327,18.2443,708.2617],[-66.3261,18.2477,649.7531],[-66.3131,18.2491,505.8556]]]]}}