{"type": "Feature","bbox": [-80.1107,19.6551,-79.7232,19.7571],"geometry": {"type": "MultiPolygon","coordinates": [[[[-79.9746,19.7135,2.5703],[-79.9857,19.7121,0.0],[-80.0043,19.7043,1.5771],[-80.024,19.7007,0.8966],[-80.0396,19.701,0.0],[-80.0618,19.6954,2.3957],[-80.0668,19.6929,1.753],[-80.0696,19.6871,1.1023],[-80.0738,19.6838,2.7642],[-80.0865,19.6801,0.0],[-80.0937,19.6751,4.7042],[-80.1004,19.6729,1.4538],[-80.1051,19.6665,0.7999],[-80.1101,19.6629,2.1436],[-80.1107,19.659,1.9332],[-80.1054,19.6571,2.9195],[-80.0949,19.6593,2.0347],[-80.0849,19.6579,0.4766],[-80.0793,19.6551,0.0],[-80.0704,19.6568,0.0],[-80.0671,19.6596,0.0],[-80.0515,19.6651,0.0],[-80.0307,19.6793,0.0],[-80.0121,19.6885,0.0],[-79.9846,19.6946,0.0],[-79.9654,19.6957,0.0],[-79.9593,19.699,0.0],[-79.9601,19.7007,0.0],[-79.9632,19.6979,0.0],[-79.9685,19.6971,2.0147],[-79.9626,19.7004,0.0],[-79.9615,19.7071,0.0],[-79.9687,19.7118,0.0],[-79.9746,19.7135,2.5703]]],
[[[-79.7382,19.7571,0.0],[-79.7462,19.7568,0.489],[-79.759,19.7532,2.2868],[-79.7737,19.741,0.0],[-79.7882,19.7346,0.0],[-79.8115,19.7304,0.5978],[-79.821,19.7254,0.7363],[-79.8304,19.7168,2.7224],[-79.8435,19.7088,0.0],[-79.8712,19.7007,0.0],[-79.8849,19.6913,0.0],[-79.8913,19.6887,0.8175],[-79.8946,19.6832,0.0],[-79.8868,19.6807,0.0],[-79.8546,19.6876,0.0],[-79.849,19.691,0.0],[-79.8468,19.6904,0.0],[-79.8463,19.6926,1.4278],[-79.8432,19.6938,1.8623],[-79.8385,19.6932,0.0],[-79.8271,19.6971,0.3582],[-79.8063,19.7079,0.0],[-79.7546,19.7201,0.0],[-79.7354,19.7337,0.0],[-79.7271,19.7418,6.1754],[-79.7232,19.7488,0.0],[-79.7237,19.7526,0.0],[-79.7321,19.754,0.0],[-79.7382,19.7571,0.0]]]]}
,"properties": {"GID_1": "CYM.8_1","GID_0": "CYM","country": "CaymanIslands","province": "SisterIslands","VARNAME_1": "NA","NL_NAME_1": "NA","TYPE_1": "District","ENGTYPE_1": "District","CC_1": "NA","HASC_1": "KY.SI","ISO_1": "NA","name": "Sister_Islands.province","area_km2": 78.04664,"hist_schema_id": "Elevation0-9000","hist_area_km2": {"0": 51.80199,"25": 21.43534,"50": 4.80931}}}