{"type":"Feature","properties":{"GID_1":"PRI.71_1","GID_0":"PRI","country":"PuertoRico","province":"TrujilloAlto","VARNAME_1":"NA","NL_NAME_1":"NA","TYPE_1":"Municipio","ENGTYPE_1":"Municipality","CC_1":"NA","HASC_1":"PR.TJ","ISO_1":"-","name":"Trujillo_Alto.province"},
"geometry":{"type": "MultiPolygon","coordinates": [[[[-66.0218,18.305,39.0],[-66.0167,18.3088,39.0],[-66.0066,18.3045,134.6711],[-65.9978,18.3059,119.4051],[-65.9862,18.3112,208.9591],[-65.9681,18.3102,69.5617],[-65.9635,18.3007,189.0451],[-65.9529,18.2945,270.9673],[-65.9422,18.2935,239.6264],[-65.939,18.3087,216.4562],[-65.9418,18.3121,150.0154],[-65.9566,18.3183,269.9457],[-65.9672,18.3302,219.9805],[-65.9755,18.3526,116.6783],[-65.9894,18.366,47.0491],[-65.9917,18.3769,27.0528],[-65.9991,18.3803,65.7295],[-66.0079,18.3788,91.4534],[-66.0251,18.3798,69.8834],[-66.0357,18.3683,52.1158],[-66.0334,18.3564,72.1295],[-66.0371,18.3459,152.5854],[-66.0339,18.335,159.8662],[-66.0366,18.3235,123.2412],[-66.0352,18.3197,111.415],[-66.0413,18.3121,231.4078],[-66.0343,18.3092,126.8882],[-66.0283,18.3102,150.7432],[-66.0218,18.305,39.0]]]]}}