{"type": "Feature","bbox": [-61.6507,15.8396,-61.614,15.871],"geometry": {"type": "MultiPolygon","coordinates": [[[[-61.6349,15.871,3.5494],[-61.6371,15.8704,0.0],[-61.6382,15.8657,17.5128],[-61.6413,15.8627,0.0],[-61.644,15.8607,0.0],[-61.6471,15.8615,0.0],[-61.6465,15.8571,19.8326],[-61.6507,15.8471,53.3676],[-61.6335,15.8396,0.0],[-61.6268,15.8435,9.9533],[-61.6257,15.8474,1.6164],[-61.6218,15.8515,0.0],[-61.6215,15.8546,4.4257],[-61.6199,15.8554,10.5637],[-61.619,15.8513,0.0],[-61.6179,15.8513,0.0],[-61.614,15.8557,4.7481],[-61.6165,15.8582,11.2229],[-61.6243,15.859,1.5998],[-61.6246,15.8624,19.541],[-61.6226,15.8657,2.878],[-61.6293,15.8665,38.7479],[-61.6312,15.8682,3.6968],[-61.6346,15.8676,12.5252],[-61.6349,15.871,3.5494]]]]}
,"properties": {"GID_2": "GLP.1.14_1","GID_0": "GLP","country": "Guadeloupe","GID_1": "GLP.1_1","province": "Basse-Terre","NL_NAME_1": "NA","county": "Terre-De-Bas","VARNAME_2": "NA","NL_NAME_2": "NA","TYPE_2": "Chef-lieucanton","ENGTYPE_2": "Commune","CC_2": "34","HASC_2": "NA","name": "Terre-De-Bas.county","area_km2": 7.158884,"hist_schema_id": "Elevation0-9000","hist_area_km2": {"0": 0.632271,"25": 1.223742,"50": 1.182956,"75": 0.775039,"100": 0.754635,"125": 0.611873,"150": 0.387517,"175": 0.448703,"200": 0.305933,"225": 0.367118,"250": 0.36712,"275": 0.101976}}}