{"type": "Feature","bbox": [-72.43,19.7071,-72.3538,19.8171],"geometry": {"type": "MultiPolygon","coordinates": [[[[-72.4202,19.74,56.1043],[-72.4235,19.74,145.3185],[-72.423,19.7336,137.1109],[-72.4293,19.7296,136.035],[-72.43,19.724,240.6095],[-72.4176,19.7145,72.3384],[-72.4109,19.7132,29.7174],[-72.4092,19.7078,31.8068],[-72.3926,19.7071,24.7492],[-72.3982,19.7128,20.3491],[-72.3973,19.7155,25.6805],[-72.3942,19.7155,22.1631],[-72.3925,19.718,24.7193],[-72.3892,19.7166,20.1964],[-72.3872,19.7228,39.7414],[-72.3836,19.7254,171.4742],[-72.3709,19.7235,582.8229],[-72.3706,19.7373,377.5184],[-72.3739,19.7407,341.6512],[-72.3731,19.7452,364.0419],[-72.3768,19.753,192.5587],[-72.3759,19.7561,192.7768],[-72.3713,19.7604,203.8692],[-72.3682,19.7696,186.865],[-72.3637,19.7724,104.1748],[-72.3637,19.7756,7.8165],[-72.3615,19.774,49.7738],[-72.3594,19.7747,124.8885],[-72.3593,19.7807,59.2777],[-72.3538,19.7829,4.0783],[-72.3574,19.7876,0.0],[-72.3711,19.794,0.0],[-72.3788,19.8015,2.1466],[-72.3821,19.8072,0.0],[-72.3804,19.8168,1.5783],[-72.3854,19.816,4.6424],[-72.3883,19.8171,0.0],[-72.3868,19.8093,0.0],[-72.3904,19.8057,0.5341],[-72.3957,19.8042,1.203],[-72.4081,19.8045,1.4084],[-72.4168,19.809,0.0],[-72.4185,19.8083,4.7012],[-72.4184,19.8038,6.6185],[-72.4166,19.8006,2.1266],[-72.4195,19.7994,108.0686],[-72.4221,19.795,151.363],[-72.4181,19.7894,246.808],[-72.4143,19.7782,286.5107],[-72.4064,19.7743,164.3084],[-72.4037,19.7694,7.1233],[-72.4179,19.7664,87.8514],[-72.4186,19.7573,110.9366],[-72.4243,19.7484,140.7938],[-72.4235,19.7445,130.5415],[-72.4164,19.7436,27.0343],[-72.4162,19.7415,27.1507],[-72.4202,19.74,56.1043]]],
[[[-72.376,19.8171,0.0],[-72.3785,19.8154,0.0],[-72.3771,19.8129,0.0],[-72.374,19.8143,17.9741],[-72.3737,19.8163,0.0],[-72.376,19.8171,0.0]]]]}
,"properties": {"GID_3": "HTI.7.5.1_1","GID_0": "HTI","country": "Haiti","GID_1": "HTI.7_1","province": "Nord","NL_NAME_1": "NA","GID_2": "HTI.7.5_1","county": "leLimbé","NL_NAME_2": "NA","city": "BasLimbé","VARNAME_3": "NA","NL_NAME_3": "NA","TYPE_3": "Commune","ENGTYPE_3": "Commune","CC_3": "NA","HASC_3": "NA","name": "Bas_Limbé.city","area_km2": 52.81738,"hist_schema_id": "Elevation0-9000","hist_area_km2": {"0": 23.14356,"25": 14.20894,"50": 3.63174,"75": 2.31476,"100": 1.91562,"125": 1.57643,"150": 1.59636,"175": 0.93783,"200": 0.69837,"225": 0.79815,"250": 0.45898,"275": 0.29933,"300": 0.45898,"325": 0.17961,"350": 0.21952,"375": 0.09979,"400": 0.07983,"425": 0.09979,"450": 0.03991,"475": 0.01996,"500": 0.01996,"525": 0.01996}}}