{"type": "Feature","bbox": [-66.3773,18.3305,-66.2998,18.4865],"geometry": {"type": "MultiPolygon","coordinates": [[[[-66.3186,18.3673,150.6548],[-66.3191,18.3716,184.1339],[-66.3145,18.3802,120.3903],[-66.3038,18.384,95.6685],[-66.3039,18.4112,62.161],[-66.2998,18.4231,63.6894],[-66.3021,18.4288,44.8991],[-66.3021,18.4341,54.3113],[-66.3086,18.4336,47.4701],[-66.3175,18.4502,50.7345],[-66.3149,18.4746,3.9528],[-66.3165,18.4765,1.4357],[-66.321,18.4757,1.6582],[-66.3215,18.4796,1.886],[-66.3251,18.4776,7.9775],[-66.3276,18.4815,5.71],[-66.3332,18.4826,2.4884],[-66.3399,18.4865,1.4082],[-66.3388,18.4821,0.0],[-66.3399,18.4813,4.6663],[-66.3437,18.481,0.6846],[-66.3496,18.4835,5.2628],[-66.3485,18.4487,8.5086],[-66.3508,18.443,30.9022],[-66.3503,18.4268,44.6862],[-66.3586,18.421,101.0001],[-66.3627,18.3953,140.2694],[-66.3645,18.3886,167.1938],[-66.3696,18.3814,165.3472],[-66.3732,18.3695,196.8936],[-66.3727,18.3581,207.2562],[-66.376,18.3547,218.5177],[-66.3773,18.3442,181.0452],[-66.3713,18.3404,210.5772],[-66.3713,18.3381,228.1425],[-66.3652,18.3333,226.205],[-66.3587,18.3305,228.5818],[-66.3574,18.3438,238.9066],[-66.3486,18.3505,153.9601],[-66.3547,18.3548,147.4352],[-66.3547,18.361,122.2941],[-66.3501,18.361,127.4488],[-66.344,18.3577,126.7327],[-66.3408,18.3577,162.1207],[-66.3413,18.362,195.7731],[-66.3381,18.3682,70.6114],[-66.3186,18.3673,150.6548]]]]}
,"properties": {"GID_1": "PRI.73_1","GID_0": "PRI","country": "PuertoRico","province": "VegaAlta","VARNAME_1": "NA","NL_NAME_1": "NA","TYPE_1": "Municipio","ENGTYPE_1": "Municipality","CC_1": "NA","HASC_1": "PR.VA","ISO_1": "-","name": "Vega_Alta.province","area_km2": 71.7983,"hist_schema_id": "Elevation0-9000","hist_area_km2": {"0": 9.49239,"25": 9.77531,"50": 11.24467,"75": 8.16723,"100": 5.85447,"125": 7.40392,"150": 7.54519,"175": 5.89561,"200": 3.01842,"225": 2.11307,"250": 1.0465,"275": 0.2415}}}