{"type":"Feature","properties":{"GID_2":"CUB.6.3_1","GID_0":"CUB","country":"Cuba","GID_1":"CUB.6_1","province":"Guantánamo","NL_NAME_1":"NA","county":"ElSalvador","VARNAME_2":"NA","NL_NAME_2":"NA","TYPE_2":"Municipio","ENGTYPE_2":"Municipality","CC_2":"NA","HASC_2":"CU.GU.ES","name":"El_Salvador.county"},
"geometry":{"type": "MultiPolygon","coordinates": [[[[-75.2502,20.2032,83.4402],[-75.2176,20.2726,479.4546],[-75.233,20.3057,773.1175],[-75.2349,20.3835,213.0304],[-75.2504,20.4187,224.7551],[-75.2448,20.4335,167.4668],[-75.2439,20.4408,336.1202],[-75.2503,20.4414,202.7831],[-75.2623,20.4342,96.766],[-75.2667,20.4339,140.4524],[-75.2726,20.437,167.6794],[-75.2818,20.4479,264.1416],[-75.2889,20.4631,158.9339],[-75.2961,20.4668,134.3352],[-75.3026,20.4668,193.9968],[-75.3109,20.4617,255.4014],[-75.3207,20.4486,329.4393],[-75.3407,20.438,357.2075],[-75.3462,20.4318,275.2531],[-75.3488,20.4143,405.2237],[-75.3524,20.4087,446.0779],[-75.3746,20.414,353.3168],[-75.3823,20.4139,457.1696],[-75.387,20.4112,401.108],[-75.3905,20.4003,472.2051],[-75.3924,20.3814,260.5829],[-75.3976,20.3763,325.645],[-75.4161,20.3652,483.0899],[-75.4247,20.3551,558.9492],[-75.4283,20.3456,594.8748],[-75.427,20.3418,508.6763],[-75.4152,20.3269,294.6302],[-75.4129,20.3163,232.4961],[-75.4134,20.3054,302.2066],[-75.4228,20.2911,272.0945],[-75.4261,20.2837,230.7743],[-75.4278,20.2742,264.66],[-75.4249,20.2663,285.8057],[-75.408,20.2583,252.5075],[-75.407,20.2556,261.6627],[-75.41,20.2488,255.4901],[-75.4137,20.247,233.7137],[-75.432,20.2438,218.9213],[-75.4345,20.2409,221.515],[-75.4343,20.2279,200.5879],[-75.4274,20.1992,188.1338],[-75.4146,20.2094,172.3988],[-75.3764,20.2269,137.6819],[-75.3654,20.2248,120.4149],[-75.3537,20.207,276.7358],[-75.3492,20.2048,157.4479],[-75.2938,20.219,110.5123],[-75.2857,20.2178,112.3371],[-75.2502,20.2032,83.4402]]]]}}