{"type":"Feature","properties":{"GID_2":"CUB.3.7_1","GID_0":"CUB","country":"Cuba","GID_1":"CUB.3_1","province":"Cienfuegos","NL_NAME_1":"NA","county":"Palmira","VARNAME_2":"NA","NL_NAME_2":"NA","TYPE_2":"Municipio","ENGTYPE_2":"Municipality","CC_2":"NA","HASC_2":"CU.CF.PA","name":"Palmira.county"},
"geometry":{"type": "MultiPolygon","coordinates": [[[[-80.3121,22.1491,63.6948],[-80.301,22.1786,75.8844],[-80.3308,22.2331,41.098],[-80.3404,22.2592,46.9063],[-80.3416,22.2788,65.2502],[-80.4085,22.2918,54.7723],[-80.4119,22.3007,68.2831],[-80.4127,22.3331,53.2083],[-80.42,22.353,45.6759],[-80.4228,22.394,54.7611],[-80.4306,22.4017,51.8878],[-80.4726,22.4236,24.9596],[-80.4839,22.4092,28.0137],[-80.5191,22.3759,18.2951],[-80.5252,22.3623,15.2084],[-80.5249,22.3436,26.7174],[-80.5211,22.3353,35.28],[-80.4803,22.3117,37.929],[-80.476,22.3067,41.8435],[-80.4764,22.3018,40.3553],[-80.4807,22.2965,37.7948],[-80.5041,22.2834,31.8934],[-80.5141,22.2707,42.7157],[-80.5137,22.2647,40.9758],[-80.5047,22.2408,47.3652],[-80.493,22.2224,25.93],[-80.4778,22.2311,16.5836],[-80.4635,22.2305,13.542],[-80.4202,22.202,40.9632],[-80.3922,22.189,24.1899],[-80.3766,22.1778,18.312],[-80.3486,22.1647,34.6219],[-80.333,22.1535,68.5688],[-80.3121,22.1491,63.6948]]]]}}