{"type": "Feature","bbox": [-80.750416633197517,20.434637762494077,-70.692677375384989,27.263006903119049],"geometry": {"type": "Polygon","coordinates": [[[-70.780629035541267,20.805060125775356,0.0],[-70.692677375384989,21.475897528119106,0.0],[-73.303639289447489,23.736944891400356,0.0],[-74.99944007069746,25.378851629681577,0.0],[-76.883656379291267,26.966986395306549,0.0],[-78.068043586322517,27.263006903119049,0.0],[-79.252369758197489,27.236151434369077,0.0],[-79.33311926991621,26.1864077820253,0.0],[-79.721791144916267,24.790472723431606,0.0],[-80.750416633197517,23.872015692181634,0.0],[-78.729847785541239,23.229132391400356,0.0],[-74.100941535541267,20.694220282025327,0.0],[-72.35594641835371,20.473822332806577,0.0],[-71.27324378163496,20.434637762494077,0.0],[-70.780629035541267,20.805060125775356,0.0]],
[[-77.547047492572517,23.776190496869049,1.2661],[-77.778370734759989,23.7480532898378,0.1147],[-77.820179816791267,23.899908758587827,0.0],[-77.973072883197545,24.214667059369134,0.255],[-78.15294348866621,24.448431707806549,0.2692],[-78.443104621478767,24.625677801556606,0.0],[-78.255116340228739,24.807684637494049,0.5752],[-78.20854651600996,25.201361395306549,0.3796],[-77.976979133197545,25.1396548523378,0.0],[-77.769337531635017,24.730353094525327,0.0],[-77.745594855853767,24.578741766400327,0.0],[-77.599964973041267,24.206549383587856,2.5699],[-77.528309699603739,23.981085516400356,0.0],[-77.547047492572517,23.776190496869049,1.2661]],
[[-78.38841712147871,26.635321356244077,1.7751],[-78.758656379291239,26.502325750775356,0.0],[-78.96519934804121,26.672369696087856,3.1284],[-78.711842414447517,26.587652899212827,0.0],[-78.539357062885045,26.740362860150356,0.0],[-77.956471320697545,26.736639715619106,0.0],[-77.906910773822489,26.688299871869134,0.2562],[-78.38841712147871,26.635321356244077,1.7751]]]}
,"properties": {"featurecla": "Island group","name": "BAHAMA ISLANDS","namealt": null,"region": "North America","subregion": "West Indies","min_label": 4.7,"max_label": 7.0,"scalerank": 3,"area_km2": 356378.15,"hist_schema_id": "Elevation0-9000","hist_area_km2": {"0": 355909.42,"25": 458.73,"50": 9.98}}}