{"type": "Feature","bbox": [-84.88359534413496,19.828985907025356,-74.159779426166267,23.1799380554628],"geometry": {"type": "Polygon","coordinates": [[[-79.651905891010017,22.760016180462856,3.2092],[-79.789723273822545,22.8033511414003,0.0],[-80.093800422259989,22.939764715619106,0.0],[-80.357045051166267,22.946844793744106,2.6717],[-80.594532844135045,23.071356512494077,0.0],[-81.08330237538496,23.099859930462827,0.0],[-81.383534308978739,23.111151434369106,0.3883],[-81.840199348041267,23.159002996869077,0.0],[-82.26195227772871,23.1799380554628,0.0],[-82.553028937884989,23.058233953900356,0.0],[-82.825489875384989,23.032721258587827,0.0],[-83.2144669261663,23.000067449994134,0.0],[-83.4977921214788,22.8686587585878,0.0],[-83.89769446522871,22.721380926556606,0.8197],[-84.291981574603767,22.487494207806549,0.0],[-84.409840461322489,22.288397528119077,0.0],[-84.864735480853739,21.9331118835878,0.0],[-84.88359534413496,21.824774481244049,5.179],[-84.500355598041239,21.767096258587827,9.5718],[-84.203480598041267,21.953680731244106,17.1144],[-84.0040177074163,21.965582586712856,2.7973],[-83.995106574603767,22.069464422650356,1.3348],[-83.902760383197489,22.200628973431549,7.1048],[-83.473255988666267,22.211371160931606,0.3216],[-83.292225715228739,22.245001532025327,0.0],[-83.108631965228739,22.417975164837827,0.0],[-82.944081183978767,22.547796942181577,0.2653],[-82.77531897694746,22.705267645306606,1.7798],[-82.474659797260017,22.716009832806577,1.6397],[-82.034413215228739,22.6838443054628,2.1726],[-81.680043098041239,22.640875555462827,1.6054],[-81.65855872304121,22.479803778119106,1.8533],[-81.851857062885045,22.426092840619077,1.0176],[-82.098805305072489,22.426092840619077,0.9245],[-82.120289680072517,22.383124090619106,1.4172],[-81.926991340228767,22.2757632507753,1.5771],[-81.733693000385045,22.200628973431549,0.5142],[-81.583363410541267,22.222113348431577,2.2834],[-81.357899543353739,22.125433660931606,1.1316],[-80.971302863666267,22.039557196087827,0.0],[-80.659901496478739,22.050299383587884,0.0],[-80.4451798167913,22.050299383587884,32.7772],[-80.38072669179121,21.996588446087856,13.8515],[-80.080067512103739,21.824774481244049,24.4427],[-79.7149552074163,21.706671453900356,8.7088],[-79.435780402728767,21.631537176556606,3.5287],[-79.169361945697545,21.5529849304628,6.5671],[-78.9947403636663,21.5952212585878,0.0],[-78.780812141010017,21.653021551556549,6.1214],[-78.684132453510045,21.599310614056634,1.2056],[-78.576771613666239,21.416754461712856,1.2535],[-78.533802863666267,21.191290594525327,0.0],[-78.426442023822545,20.987250067181549,0.0],[-78.211659308978767,20.858343817181577,1.1832],[-78.065724250384989,20.712836004681606,0.0],[-77.778614875385045,20.701971746869106,0.9128],[-77.57292639882246,20.699225164837856,0.0],[-77.234486457416239,20.686590887494077,5.2079],[-77.137867805072489,20.579230047650356,2.1792],[-77.127125617572517,20.342962957806549,9.4937],[-77.33116614491621,20.2141177429628,36.543],[-77.49223792225996,20.117499090619049,2.5495],[-77.642567512103739,19.967108465619049,5.3254],[-77.692677375385017,19.828985907025356,0.0],[-77.533497687885017,19.846136785931606,16.294],[-77.243946906635017,19.897894598431577,0.0],[-76.935414191791239,19.897894598431577,0.0],[-76.626332160541239,19.946783758587884,0.0],[-76.328175422260045,19.9713198914003,1.1926],[-75.980275031635045,19.953619696087856,0.0],[-75.67625891835371,19.944281317181606,3.8564],[-75.38805091054121,19.904486395306577,402.7671],[-75.051686164447545,19.917731024212827,0.4502],[-74.558216926166267,20.054877020306577,3.4919],[-74.225209113666267,20.136847235150384,11.9601],[-74.159779426166267,20.274603582806577,0.0],[-74.293873664447517,20.3021304382753,26.2883],[-74.547352668353767,20.411200262494106,19.7642],[-74.735768195697489,20.579718328900356,0.9941],[-74.95927893788496,20.6884829773378,0.0],[-75.182118293353767,20.710333563275327,0.0],[-75.26817786366621,20.724554754681577,0.0],[-75.508351203509989,20.7878482117128,0.0],[-75.620228644916267,20.952460028119049,9.8387],[-75.636036750384989,21.077582098431549,0.0],[-75.821949836322517,21.138006903119106,0.0],[-76.155323859759989,21.179754949994106,0.0],[-76.3876846996038,21.285528875775356,0.0],[-76.709523078510017,21.363959051556549,0.0],[-77.044361945697517,21.5660464539003,3.4461],[-77.315968391010017,21.758124090619049,0.0],[-77.569813605853739,21.781805731244077,0.0],[-77.813465949603739,21.877630926556577,0.0],[-78.012745734760045,22.0263736023378,0.0],[-78.381153937885045,22.227240301556577,0.0],[-78.708241340228767,22.388067938275356,0.0],[-78.928212043353739,22.3756167664003,4.8027],[-79.2388809886663,22.377630926556549,0.0],[-79.4097794261663,22.423285223431634,12.1913],[-79.651905891010017,22.760016180462856,3.2092]]]}
,"properties": {"featurecla": "Island","name": "CUBA","namealt": null,"region": "North America","subregion": "West Indies","min_label": 5.3,"max_label": 9.0,"scalerank": 4,"area_km2": 107643.6,"hist_schema_id": "Elevation0-9000","hist_area_km2": {"0": 25971.29,"25": 20055.81,"50": 14607.51,"75": 11890.78,"100": 8686.04,"125": 5140.54,"150": 3604.15,"175": 2915.03,"200": 2130.79,"225": 1536.08,"250": 1231.25,"275": 999.49,"300": 863.72,"325": 762.05,"350": 650.07,"375": 606.8,"400": 548.8,"425": 501.05,"450": 453.45,"475": 410.96,"500": 367.87,"525": 345.27,"550": 324.72,"575": 300.83,"600": 284.05,"625": 269.1,"650": 255.33,"675": 223.34,"700": 209.57,"725": 197.73,"750": 180.31,"775": 158.14,"800": 134.41,"825": 113.99,"850": 94.6,"875": 82.08,"900": 66.72,"925": 54.87,"950": 49.04,"975": 44.52,"1000": 37.99,"1025": 33.49,"1050": 28.16,"1075": 23.89,"1100": 21.57,"1125": 20.27,"1150": 17.57,"1175": 16.25,"1200": 15.34,"1225": 15.2,"1250": 11.83,"1275": 12.13,"1300": 10.44,"1325": 8.59,"1350": 7.47,"1375": 6.53,"1400": 5.9,"1425": 4.94,"1450": 4.16,"1475": 3.73,"1500": 3.43,"1525": 2.91,"1550": 2.05,"1575": 1.83,"1600": 1.61,"1625": 1.16,"1650": 0.86}}}