{"type": "Feature","bbox": [-78.96519934804121,26.502325750775356,-77.906910773822489,26.740362860150356],"geometry": {"type": "Polygon","coordinates": [[[-78.38841712147871,26.635321356244077,1.7751],[-77.906910773822489,26.688299871869134,0.2562],[-77.956471320697545,26.736639715619106,0.0],[-78.539357062885045,26.740362860150356,0.0],[-78.711842414447517,26.587652899212827,0.0],[-78.96519934804121,26.672369696087856,3.1284],[-78.758656379291239,26.502325750775356,0.0],[-78.38841712147871,26.635321356244077,1.7751]]]}
,"properties": {"featurecla": "Island","name": "Grand Bahama","namealt": null,"region": "North America","subregion": "West Indies","min_label": 5.4,"max_label": 10.0,"scalerank": 5,"area_km2": 987.3508,"hist_schema_id": "Elevation0-9000","hist_area_km2": {"0": 987.199,"25": 0.1517}}}