{"type":"Feature","properties":{"featurecla":"Island group","name":"GREATER ANTILLES","namealt":null,"region":"North America","subregion":"West Indies","min_label":4.0,"max_label":7.0,"scalerank":3},
"geometry":{"type": "Polygon","coordinates": [[[-65.184803840228739,18.047186590619049,0.0],[-65.14769446522871,18.811102606244077,0.0],[-70.477406379291239,20.156927801556577,0.0],[-72.442311164447517,20.210760809369134,0.0],[-74.159779426166267,20.466498114056577,0.0],[-77.076649543353739,22.053534246869106,0.0],[-78.784962531634989,22.971991278119077,0.0],[-80.78709876210371,23.486273504681549,0.0],[-82.9362686839788,23.284247137494106,0.0],[-84.718068000384989,22.494391180462827,0.0],[-85.195668098041239,21.888251043744106,0.0],[-85.067067023822545,21.575934149212856,0.0],[-83.505299445697517,21.287420965619077,0.0],[-82.2670792308538,20.614508367962827,0.0],[-81.594166633197545,18.945624090619049,0.0],[-78.444813605853767,17.788214422650356,0.0],[-76.964405891009989,17.411383367962827,0.0],[-75.93803870350996,17.522528387494106,0.0],[-73.572804328510017,17.626715399212827,0.0],[-71.957753058978767,17.330633856244106,0.0],[-71.09642493397871,17.303717352337827,0.0],[-70.3965958324163,17.841986395306577,0.0],[-69.1314591136663,17.922796942181634,0.0],[-67.516468879291267,17.572821356244049,0.0],[-66.332081672259989,17.438299871869106,0.0],[-65.52458655507246,17.681952215619077,0.0],[-65.184803840228739,18.047186590619049,0.0]],
[[-65.78636634022871,18.124579168744106,3.1634],[-65.9393204417913,17.971747137494049,0.0],[-66.201649543353767,17.920111395306606,0.0],[-66.670765754291267,17.979681707806577,65.6775],[-67.180653449603739,17.930670477337827,0.0],[-67.173878547259989,18.177313543744106,1.302],[-67.242787238666267,18.303839422650327,0.0],[-67.13829505116621,18.512762762494049,0.0],[-65.96642005116621,18.459662176556577,0.0],[-65.652577277728739,18.375982977337884,0.0],[-65.665699836322517,18.209662176556634,3.1615],[-65.78636634022871,18.124579168744106,3.1634]],
[[-72.027760383197545,19.700812078900356,0.0],[-71.747364875385017,19.698065496869134,21.5751],[-71.6657608714788,19.875677801556577,0.0],[-71.282643195697517,19.842962957806577,0.0],[-71.001088019916239,19.938849188275356,0.0],[-70.71019446522871,19.803900457806606,5.9503],[-70.397999641010017,19.745733953900356,3.3237],[-70.116566535541267,19.623541571087827,1.8371],[-69.879383918353739,19.602850653119077,0.0],[-69.8211563792913,19.354132391400327,0.0],[-69.5195206371038,19.332953192181577,0.0],[-69.232228156635017,19.329169012494106,20.8985],[-69.231984016010045,19.189886785931577,158.6703],[-69.5591934886663,19.209967352337856,0.0],[-69.473500129291239,19.109625555462856,0.0],[-69.258107062885045,18.999457098431577,65.3816],[-68.96391760975996,19.031317449994106,0.0],[-68.588185187884989,18.819647528119049,5.9486],[-68.3563126292913,18.657782293744106,0.0],[-68.472340461322517,18.351019598431549,77.4311],[-68.694020148822545,18.205877996869049,0.0],[-68.977101203509989,18.433905340619077,53.958],[-69.418019172260017,18.398565985150356,0.0],[-69.894276496478767,18.4868228210878,45.3268],[-70.133961555072545,18.270453192181577,23.4441],[-70.503834601947489,18.195257879681606,7.4981],[-70.5998429027288,18.398565985150356,0.0],[-70.772511359760017,18.349066473431606,63.6944],[-70.97740637929121,18.281439520306577,83.4525],[-71.191944953510017,17.942999578900356,0.0],[-71.5070694652288,17.614813543744077,0.0],[-71.640553351947517,17.887091375775327,28.3588],[-71.922779914447545,18.151678778119134,0.0],[-72.222645637103739,18.257513739056606,937.0887],[-72.6575821605413,18.179388739056577,0.0],[-73.022633430072545,18.179388739056577,0.0],[-73.422108527728767,18.239813543744049,0.0],[-73.7379044261663,18.191961981244077,0.0],[-73.873402473041267,18.0273501648378,20.2217],[-74.004200812884989,18.169317938275356,0.0],[-74.349537726947489,18.290899969525356,0.0],[-74.4545792308538,18.478949285931606,0.0],[-74.340382453509989,18.654547430462856,0.0],[-73.911610480853739,18.574347235150384,0.0],[-73.286427375385045,18.485235907025327,0.0],[-72.885243293353739,18.4388491882753,0.0],[-72.6204727855413,18.555121160931577,0.0],[-72.3890274730413,18.590033270306577,0.0],[-72.382374641009989,18.708563543744077,32.0558],[-72.726307746478767,18.967840887494134,9.3496],[-72.803517219134989,19.2331607117128,0.0],[-72.723622199603739,19.384649969525327,0.0],[-73.01207434804121,19.597540594525356,0.0],[-73.284413215228767,19.626898504681606,0.0],[-73.463551398822489,19.693365789837856,0.0],[-73.2713516917913,19.856817938275356,149.3921],[-72.784535285541239,19.941534735150384,64.6876],[-72.493458625385045,19.819769598431549,45.5912],[-72.027760383197545,19.700812078900356,0.0]],
[[-79.651905891010017,22.760016180462856,3.2092],[-79.4097794261663,22.423285223431634,12.1913],[-79.2388809886663,22.377630926556549,0.0],[-78.928212043353739,22.3756167664003,4.8027],[-78.708241340228767,22.388067938275356,0.0],[-78.381153937885045,22.227240301556577,0.0],[-78.012745734760045,22.0263736023378,0.0],[-77.813465949603739,21.877630926556577,0.0],[-77.569813605853739,21.781805731244077,0.0],[-77.315968391010017,21.758124090619049,0.0],[-77.044361945697517,21.5660464539003,3.4461],[-76.709523078510017,21.363959051556549,0.0],[-76.3876846996038,21.285528875775356,0.0],[-76.155323859759989,21.179754949994106,0.0],[-75.821949836322517,21.138006903119106,0.0],[-75.636036750384989,21.077582098431549,0.0],[-75.620228644916267,20.952460028119049,9.8387],[-75.508351203509989,20.7878482117128,0.0],[-75.26817786366621,20.724554754681577,0.0],[-75.182118293353767,20.710333563275327,0.0],[-74.95927893788496,20.6884829773378,0.0],[-74.735768195697489,20.579718328900356,0.9941],[-74.547352668353767,20.411200262494106,19.7642],[-74.293873664447517,20.3021304382753,26.2883],[-74.159779426166267,20.274603582806577,0.0],[-74.225209113666267,20.136847235150384,11.9601],[-74.558216926166267,20.054877020306577,3.4919],[-75.051686164447545,19.917731024212827,0.4502],[-75.38805091054121,19.904486395306577,402.7671],[-75.67625891835371,19.944281317181606,3.8564],[-75.980275031635045,19.953619696087856,0.0],[-76.328175422260045,19.9713198914003,1.1926],[-76.626332160541239,19.946783758587884,0.0],[-76.935414191791239,19.897894598431577,0.0],[-77.243946906635017,19.897894598431577,0.0],[-77.533497687885017,19.846136785931606,16.294],[-77.692677375385017,19.828985907025356,0.0],[-77.642567512103739,19.967108465619049,5.3254],[-77.49223792225996,20.117499090619049,2.5495],[-77.33116614491621,20.2141177429628,36.543],[-77.127125617572517,20.342962957806549,9.4937],[-77.137867805072489,20.579230047650356,2.1792],[-77.234486457416239,20.686590887494077,5.2079],[-77.57292639882246,20.699225164837856,0.0],[-77.778614875385045,20.701971746869106,0.9128],[-78.065724250384989,20.712836004681606,0.0],[-78.211659308978767,20.858343817181577,1.1832],[-78.426442023822545,20.987250067181549,0.0],[-78.533802863666267,21.191290594525327,0.0],[-78.576771613666239,21.416754461712856,1.2535],[-78.684132453510045,21.599310614056634,1.2056],[-78.780812141010017,21.653021551556549,6.1214],[-78.9947403636663,21.5952212585878,0.0],[-79.169361945697545,21.5529849304628,6.5671],[-79.435780402728767,21.631537176556606,3.5287],[-79.7149552074163,21.706671453900356,8.7088],[-80.080067512103739,21.824774481244049,24.4427],[-80.38072669179121,21.996588446087856,13.8515],[-80.4451798167913,22.050299383587884,32.7772],[-80.659901496478739,22.050299383587884,0.0],[-80.971302863666267,22.039557196087827,0.0],[-81.357899543353739,22.125433660931606,1.1316],[-81.583363410541267,22.222113348431577,2.2834],[-81.733693000385045,22.200628973431549,0.5142],[-81.926991340228767,22.2757632507753,1.5771],[-82.120289680072517,22.383124090619106,1.4172],[-82.098805305072489,22.426092840619077,0.9245],[-81.851857062885045,22.426092840619077,1.0176],[-81.65855872304121,22.479803778119106,1.8533],[-81.680043098041239,22.640875555462827,1.6054],[-82.034413215228739,22.6838443054628,2.1726],[-82.474659797260017,22.716009832806577,1.6397],[-82.77531897694746,22.705267645306606,1.7798],[-82.944081183978767,22.547796942181577,0.2653],[-83.108631965228739,22.417975164837827,0.0],[-83.292225715228739,22.245001532025327,0.0],[-83.473255988666267,22.211371160931606,0.3216],[-83.902760383197489,22.200628973431549,7.1048],[-83.995106574603767,22.069464422650356,1.3348],[-84.0040177074163,21.965582586712856,2.7973],[-84.203480598041267,21.953680731244106,17.1144],[-84.500355598041239,21.767096258587827,9.5718],[-84.88359534413496,21.824774481244049,5.179],[-84.864735480853739,21.9331118835878,0.0],[-84.409840461322489,22.288397528119077,0.0],[-84.291981574603767,22.487494207806549,0.0],[-83.89769446522871,22.721380926556606,0.8197],[-83.4977921214788,22.8686587585878,0.0],[-83.2144669261663,23.000067449994134,0.0],[-82.825489875384989,23.032721258587827,0.0],[-82.553028937884989,23.058233953900356,0.0],[-82.26195227772871,23.1799380554628,0.0],[-81.840199348041267,23.159002996869077,0.0],[-81.383534308978739,23.111151434369106,0.3883],[-81.08330237538496,23.099859930462827,0.0],[-80.594532844135045,23.071356512494077,0.0],[-80.357045051166267,22.946844793744106,2.6717],[-80.093800422259989,22.939764715619106,0.0],[-79.789723273822545,22.8033511414003,0.0],[-79.651905891010017,22.760016180462856,3.2092]],
[[-77.017384406635045,17.8620669617128,1.0608],[-77.23485266835371,17.729620672650327,0.0],[-77.716420051166267,17.846014715619106,0.0],[-77.990528937885045,18.081061102337827,0.0],[-78.335499641009989,18.216437078900384,0.0],[-78.3460587230413,18.332831121869077,0.0],[-77.9174698558538,18.507513739056549,0.0],[-77.040150519916267,18.414618231244049,66.7844],[-76.318043586322517,18.110480047650384,0.0],[-76.2154434886663,17.9361636414003,0.0],[-76.579213019916239,17.8695132507753,0.0],[-77.017384406635045,17.8620669617128,1.0608]]]}}