{"type":"Feature","properties":{"featurecla":"Island","name":"HISPANIOLA","namealt":null,"region":"North America","subregion":"West Indies","min_label":5.3,"max_label":9.0,"scalerank":4},
"geometry":{"type": "Polygon","coordinates": [[[-72.027760383197545,19.700812078900356,0.0],[-72.493458625385045,19.819769598431549,45.5912],[-72.784535285541239,19.941534735150384,64.6876],[-73.2713516917913,19.856817938275356,149.3921],[-73.463551398822489,19.693365789837856,0.0],[-73.284413215228767,19.626898504681606,0.0],[-73.01207434804121,19.597540594525356,0.0],[-72.723622199603739,19.384649969525327,0.0],[-72.803517219134989,19.2331607117128,0.0],[-72.726307746478767,18.967840887494134,9.3496],[-72.382374641009989,18.708563543744077,32.0558],[-72.3890274730413,18.590033270306577,0.0],[-72.6204727855413,18.555121160931577,0.0],[-72.885243293353739,18.4388491882753,0.0],[-73.286427375385045,18.485235907025327,0.0],[-73.911610480853739,18.574347235150384,0.0],[-74.340382453509989,18.654547430462856,0.0],[-74.4545792308538,18.478949285931606,0.0],[-74.349537726947489,18.290899969525356,0.0],[-74.004200812884989,18.169317938275356,0.0],[-73.873402473041267,18.0273501648378,20.2217],[-73.7379044261663,18.191961981244077,0.0],[-73.422108527728767,18.239813543744049,0.0],[-73.022633430072545,18.179388739056577,0.0],[-72.6575821605413,18.179388739056577,0.0],[-72.222645637103739,18.257513739056606,937.0887],[-71.922779914447545,18.151678778119134,0.0],[-71.640553351947517,17.887091375775327,28.3588],[-71.5070694652288,17.614813543744077,0.0],[-71.191944953510017,17.942999578900356,0.0],[-70.97740637929121,18.281439520306577,83.4525],[-70.772511359760017,18.349066473431606,63.6944],[-70.5998429027288,18.398565985150356,0.0],[-70.503834601947489,18.195257879681606,7.4981],[-70.133961555072545,18.270453192181577,23.4441],[-69.894276496478767,18.4868228210878,45.3268],[-69.418019172260017,18.398565985150356,0.0],[-68.977101203509989,18.433905340619077,53.958],[-68.694020148822545,18.205877996869049,0.0],[-68.472340461322517,18.351019598431549,77.4311],[-68.3563126292913,18.657782293744106,0.0],[-68.588185187884989,18.819647528119049,5.9486],[-68.96391760975996,19.031317449994106,0.0],[-69.258107062885045,18.999457098431577,65.3816],[-69.473500129291239,19.109625555462856,0.0],[-69.5591934886663,19.209967352337856,0.0],[-69.231984016010045,19.189886785931577,158.6703],[-69.232228156635017,19.329169012494106,20.8985],[-69.5195206371038,19.332953192181577,0.0],[-69.8211563792913,19.354132391400327,0.0],[-69.879383918353739,19.602850653119077,0.0],[-70.116566535541267,19.623541571087827,1.8371],[-70.397999641010017,19.745733953900356,3.3237],[-70.71019446522871,19.803900457806606,5.9503],[-71.001088019916239,19.938849188275356,0.0],[-71.282643195697517,19.842962957806577,0.0],[-71.6657608714788,19.875677801556577,0.0],[-71.747364875385017,19.698065496869134,21.5751],[-72.027760383197545,19.700812078900356,0.0]]]}}