{"type": "Feature","bbox": [-78.3460587230413,17.729620672650327,-76.2154434886663,18.507513739056549],"geometry": {"type": "Polygon","coordinates": [[[-77.017384406635045,17.8620669617128,1.0608],[-76.579213019916239,17.8695132507753,0.0],[-76.2154434886663,17.9361636414003,0.0],[-76.318043586322517,18.110480047650384,0.0],[-77.040150519916267,18.414618231244049,66.7844],[-77.9174698558538,18.507513739056549,0.0],[-78.3460587230413,18.332831121869077,0.0],[-78.335499641009989,18.216437078900384,0.0],[-77.990528937885045,18.081061102337827,0.0],[-77.716420051166267,17.846014715619106,0.0],[-77.23485266835371,17.729620672650327,0.0],[-77.017384406635045,17.8620669617128,1.0608]]]}
,"properties": {"featurecla": "Island","name": "Jamaica","namealt": null,"region": "North America","subregion": "West Indies","min_label": 5.3,"max_label": 9.0,"scalerank": 4,"area_km2": 11433.815,"hist_schema_id": "Elevation0-9000","hist_area_km2": {"0": 1854.587,"25": 644.903,"50": 429.669,"75": 337.24,"100": 397.369,"125": 392.942,"150": 366.863,"175": 368.459,"200": 379.43,"225": 361.07,"250": 323.639,"275": 310.49,"300": 297.269,"325": 292.578,"350": 296.159,"375": 299.884,"400": 301.805,"425": 300.175,"450": 290.715,"475": 277.676,"500": 272.294,"525": 271.096,"550": 265.86,"575": 235.204,"600": 219.025,"625": 210.934,"650": 196.293,"675": 182.327,"700": 167.325,"725": 140.165,"750": 113.661,"775": 90.924,"800": 76.516,"825": 62.328,"850": 56.36,"875": 49.33,"900": 38.107,"925": 29.303,"950": 19.692,"975": 15.239,"1000": 14.432,"1025": 13.082,"1050": 13.848,"1075": 11.893,"1100": 11.993,"1125": 10.945,"1150": 10.179,"1175": 8.486,"1200": 7.962,"1225": 7.297,"1250": 7.135,"1275": 6.047,"1300": 6.873,"1325": 5.14,"1350": 5.019,"1375": 5.019,"1400": 4.273,"1425": 4.233,"1450": 3.407,"1475": 3.568,"1500": 3.165,"1525": 2.963,"1550": 2.882,"1575": 2.58,"1600": 2.58,"1625": 2.258,"1650": 1.996,"1675": 1.532,"1700": 1.895,"1725": 1.713,"1750": 1.613,"1775": 1.552,"1800": 1.068,"1825": 1.471,"1850": 1.31,"1875": 1.129,"1900": 1.068,"1925": 1.129,"1950": 0.786,"1975": 0.625,"2000": 0.564,"2025": 0.403,"2050": 0.443,"2075": 0.302,"2100": 0.202,"2125": 0.262,"2150": 0.161,"2175": 0.222,"2200": 0.101}}}