{"type": "Feature","bbox": [-69.579746160129872,10.67047760624412,-63.903106894861,18.826361395306577],"geometry": {"type": "MultiPolygon","coordinates": [[[[-63.903106894861,10.675319082861861,0.0],[-63.926163192559954,10.673978546501004,0.0],[-63.907948371478739,10.67047760624412,0.0],[-63.903106894861,10.675319082861861,0.0]]],
[[[-65.034485003794572,18.474919867688357,0.0],[-65.043528368959471,18.275729741667703,0.0],[-64.770008918353767,18.187079168744049,0.0],[-64.421803351947517,18.376532293744106,0.0],[-64.168019172259989,18.651922918744077,0.0],[-64.196949836322545,18.826361395306577,0.0],[-64.421803351947517,18.826361395306577,0.0],[-64.63347327382246,18.522040106244077,0.0],[-65.034485003794572,18.474919867688357,0.0]]],
[[[-66.615145411441063,11.025018902082678,0.0],[-69.579746160129872,12.038471409362074,0.0],[-69.188771125385045,11.660528875775313,0.0],[-67.8658341136663,11.307745672650299,0.0],[-66.615145411441063,11.025018902082678,0.0]]]]}
,"properties": {"featurecla": "Island group","name": "LESSER ANTILLES","namealt": null,"region": "North America","subregion": "West Indies","min_label": 4.0,"max_label": 7.0,"scalerank": 3,"area_km2": 7857.45,"hist_schema_id": "Elevation0-9000","hist_area_km2": {"0": 7642.126,"25": 45.894,"50": 31.85,"75": 25.371,"100": 21.408,"125": 16.78,"150": 13.561,"175": 12.575,"200": 10.643,"225": 9.396,"250": 6.659,"275": 5.573,"300": 4.306,"325": 3.36,"350": 2.897,"375": 2.092,"400": 1.167,"425": 0.744,"450": 0.543,"475": 0.342,"500": 0.161}}}