{"type": "Feature","bbox": [-67.242787238666267,17.920111395306606,-65.652577277728739,18.512762762494049],"geometry": {"type": "Polygon","coordinates": [[[-65.78636634022871,18.124579168744106,3.1634],[-65.665699836322517,18.209662176556634,3.1615],[-65.652577277728739,18.375982977337884,0.0],[-65.96642005116621,18.459662176556577,0.0],[-67.13829505116621,18.512762762494049,0.0],[-67.242787238666267,18.303839422650327,0.0],[-67.173878547259989,18.177313543744106,1.302],[-67.180653449603739,17.930670477337827,0.0],[-66.670765754291267,17.979681707806577,65.6775],[-66.201649543353767,17.920111395306606,0.0],[-65.9393204417913,17.971747137494049,0.0],[-65.78636634022871,18.124579168744106,3.1634]]]}
,"properties": {"featurecla": "Island","name": "Puerto Rico","namealt": null,"region": "North America","subregion": "West Indies","min_label": 5.3,"max_label": 9.0,"scalerank": 4,"area_km2": 8884.78,"hist_schema_id": "Elevation0-9000","hist_area_km2": {"0": 1264.246,"25": 730.302,"50": 523.496,"75": 548.786,"100": 475.12,"125": 450.619,"150": 411.237,"175": 377.187,"200": 354.599,"225": 318.882,"250": 278.988,"275": 262.097,"300": 254.375,"325": 230.525,"350": 205.437,"375": 183.294,"400": 167.417,"425": 165.866,"450": 150.701,"475": 133.381,"500": 120.874,"525": 114.994,"550": 113.345,"575": 117.436,"600": 114.639,"625": 110.13,"650": 97.198,"675": 85.05,"700": 75.421,"725": 67.041,"750": 63.314,"775": 56.061,"800": 49.797,"825": 42.202,"850": 34.487,"875": 29.753,"900": 23.085,"925": 18.069,"950": 14.685,"975": 11.563,"1000": 8.199,"1025": 6.447,"1050": 5.218,"1075": 3.948,"1100": 3.787,"1125": 2.78,"1150": 2.518,"1175": 2.196,"1200": 1.732,"1225": 1.027,"1250": 0.504,"1275": 0.463,"1300": 0.262}}}