{"type":"Feature","properties":{"featurecla":"Island","name":"Trinidad","namealt":null,"region":"North America","subregion":"West Indies","min_label":5.3,"max_label":9.0,"scalerank":4},
"geometry":{"type": "Polygon","coordinates": [[[-61.253163215228795,10.084784246869077,7.5884],[-61.041737433978795,10.136786199994106,0.0],[-60.990406867572517,10.300482489056549,0.0],[-61.038258430072517,10.654791571087827,23.3218],[-60.904652473041267,10.829413153119077,0.0],[-61.65019690663496,10.689032293744077,203.3484],[-61.472462531634989,10.596014715619134,5.1942],[-61.462330695697489,10.28339264530662,24.4823],[-61.806080695697517,10.13403961796287,18.0404],[-61.553639289447517,10.075018621869134,57.4511],[-61.253163215228795,10.084784246869077,7.5884]]]}}