{"type": "Feature","bbox": [-65.1097305980413,18.275729741667703,-65.034485003794572,18.474919867688357],"geometry": {"type": "Polygon","coordinates": [[[-65.043528368959471,18.275729741667703,0.0],[-65.034485003794572,18.474919867688357,0.0],[-65.083302375385045,18.469183660931549,0.0],[-65.1097305980413,18.297186590619106,0.0],[-65.043528368959471,18.275729741667703,0.0]]]}
,"properties": {"featurecla": "Island group","name": "Virgin Is.","namealt": null,"region": "North America","subregion": "West Indies","min_label": 5.3,"max_label": 9.0,"scalerank": 4,"area_km2": 126.94537,"hist_schema_id": "Elevation0-9000","hist_area_km2": {"0": 125.9593,"25": 0.50309,"50": 0.42261,"75": 0.06037}}}