{"type": "Feature","bbox": [-62.8394,17.8963,-62.8363,17.8995],"geometry": {"type": "MultiPolygon","coordinates": [[[[-62.8367,17.8995,3.6164],[-62.8374,17.8995,3.6164],[-62.8394,17.8972,36.6552],[-62.8363,17.8963,47.8291],[-62.8367,17.8995,3.6164]]]]}
,"properties": {"GID_2": "BLM.2.4_1","GID_0": "BLM","country": "Saint-Barthélemy","GID_1": "BLM.2_1","province": "SousleVent","NL_NAME_1": "NA","county": "Carénage","VARNAME_2": "NA","NL_NAME_2": "NA","TYPE_2": "Quartier","ENGTYPE_2": "Quarter","CC_2": "NA","HASC_2": "NA","name": "Carénage.county","area_km2": 0.08070455,"hist_schema_id": "Elevation0-9000","hist_area_km2": {"0": 0.06052827,"25": 0.02017628}}}