{"type":"Feature","properties":{"GID_2":"CUB.3.8_1","GID_0":"CUB","country":"Cuba","GID_1":"CUB.3_1","province":"Cienfuegos","NL_NAME_1":"NA","county":"Rodas","VARNAME_2":"NA","NL_NAME_2":"NA","TYPE_2":"Municipio","ENGTYPE_2":"Municipality","CC_2":"NA","HASC_2":"CU.CF.RO","name":"Rodas.county"},
"geometry":{"type": "MultiPolygon","coordinates": [[[[-80.5826,22.1814,20.636],[-80.5675,22.1846,29.34],[-80.5501,22.1924,4.4258],[-80.5313,22.2018,24.1939],[-80.5142,22.214,24.168],[-80.493,22.2224,25.93],[-80.5047,22.2408,47.3652],[-80.5137,22.2647,40.9758],[-80.5141,22.2707,42.7157],[-80.5041,22.2834,31.8934],[-80.4807,22.2965,37.7948],[-80.4764,22.3018,40.3553],[-80.476,22.3067,41.8435],[-80.4803,22.3117,37.929],[-80.5211,22.3353,35.28],[-80.5249,22.3436,26.7174],[-80.5252,22.3623,15.2084],[-80.5191,22.3759,18.2951],[-80.4839,22.4092,28.0137],[-80.4726,22.4236,24.9596],[-80.4661,22.438,30.0844],[-80.4581,22.4738,50.6194],[-80.4777,22.5028,54.4351],[-80.496,22.5227,61.3619],[-80.5295,22.5168,63.2385],[-80.5346,22.5145,59.0001],[-80.5419,22.5067,63.4978],[-80.5458,22.4971,60.0195],[-80.5467,22.481,61.8112],[-80.5533,22.4676,61.7531],[-80.5688,22.452,63.5406],[-80.5857,22.4432,51.7834],[-80.6846,22.4371,53.7811],[-80.6702,22.377,53.6848],[-80.6612,22.3605,47.9935],[-80.6406,22.3383,46.2629],[-80.6368,22.3256,51.9455],[-80.6224,22.3058,42.6929],[-80.5953,22.2554,30.0408],[-80.5922,22.2201,23.7064],[-80.5853,22.2028,32.0526],[-80.5826,22.1814,20.636]]]]}}