{"type":"Feature","properties":{"GID_2":"CUB.6.8_1","GID_0":"CUB","country":"Cuba","GID_1":"CUB.6_1","province":"Guantánamo","NL_NAME_1":"NA","county":"NicetoPérez","VARNAME_2":"NA","NL_NAME_2":"NA","TYPE_2":"Municipio","ENGTYPE_2":"Municipality","CC_2":"NA","HASC_2":"CU.GU.NP","name":"Niceto_Pérez.county"},
"geometry":{"type": "MultiPolygon","coordinates": [[[[-75.2337,20.0365,11.3175],[-75.242,20.0561,28.1515],[-75.2634,20.0866,22.549],[-75.2666,20.0975,37.391],[-75.2656,20.1112,61.5402],[-75.2589,20.1285,61.15],[-75.258,20.164,156.8716],[-75.251,20.1833,68.8206],[-75.2502,20.2032,83.4402],[-75.2857,20.2178,112.3371],[-75.2938,20.219,110.5123],[-75.3492,20.2048,157.4479],[-75.3537,20.207,276.7358],[-75.3654,20.2248,120.4149],[-75.3764,20.2269,137.6819],[-75.4146,20.2094,172.3988],[-75.4274,20.1992,188.1338],[-75.4243,20.187,144.2939],[-75.4192,20.1765,140.2321],[-75.4104,20.1677,222.5822],[-75.3749,20.1443,265.0925],[-75.3732,20.142,221.6837],[-75.3742,20.1401,199.1926],[-75.3729,20.136,156.2344],[-75.366,20.1319,78.0303],[-75.3625,20.1264,77.0],[-75.3624,20.1214,90.3256],[-75.3661,20.1169,80.047],[-75.3896,20.1105,77.0],[-75.3958,20.106,222.4048],[-75.4003,20.0941,207.8076],[-75.4019,20.08,112.3873],[-75.4049,20.0725,108.9713],[-75.4105,20.0722,125.789],[-75.4139,20.0739,107.1183],[-75.426,20.0929,221.6493],[-75.432,20.0982,138.2444],[-75.4377,20.1005,118.9916],[-75.4435,20.0983,120.082],[-75.445,20.0933,139.7489],[-75.4398,20.0792,172.7267],[-75.4388,20.0486,202.1005],[-75.4331,20.0218,120.8578],[-75.4254,20.0086,98.3859],[-75.3673,19.9587,117.5876],[-75.3474,19.9401,49.058],[-75.3318,19.9216,31.3158],[-75.3234,19.9436,132.6523],[-75.2994,19.9882,17.2621],[-75.2824,19.9981,23.7582],[-75.2598,20.001,14.0518],[-75.2353,20.0093,8.1774],[-75.2309,20.0194,7.7682],[-75.2337,20.0365,11.3175]]]]}}