{"type":"Feature","properties":{"GID_2":"CUB.4.10_1","GID_0":"CUB","country":"Cuba","GID_1":"CUB.4_1","province":"CiudaddelaHabana","NL_NAME_1":"NA","county":"LaLisa","VARNAME_2":"NA","NL_NAME_2":"NA","TYPE_2":"Municipio","ENGTYPE_2":"Municipality","CC_2":"NA","HASC_2":"CU.CH.LL","name":"La_Lisa.county"},
"geometry":{"type": "MultiPolygon","coordinates": [[[[-82.4071,23.0162,63.8457],[-82.4405,23.0362,56.1417],[-82.4425,23.05,43.2778],[-82.4397,23.0679,31.3794],[-82.4804,23.0557,29.5731],[-82.4836,23.0528,35.0828],[-82.4795,23.0469,43.648],[-82.4807,22.997,73.4917],[-82.4783,22.9844,79.8045],[-82.4747,22.9771,81.3269],[-82.4693,22.9718,69.9653],[-82.4618,22.9708,65.9538],[-82.4411,22.9759,63.3976],[-82.4391,22.9945,73.9408],[-82.4269,23.0047,71.49],[-82.4071,23.0162,63.8457]]]]}}