{"type": "Feature","bbox": [-70.2438,18.6594,-69.9135,18.8722],"geometry": {"type": "MultiPolygon","coordinates": [[[[-70.2393,18.8255,364.1355],[-70.2398,18.8135,408.9435],[-70.2438,18.8071,630.1477],[-70.2274,18.7916,490.9439],[-70.2145,18.7763,412.1058],[-70.2115,18.7668,686.5292],[-70.206,18.7639,738.6407],[-70.1916,18.7627,706.6005],[-70.1768,18.7541,708.9878],[-70.1704,18.7484,797.1182],[-70.1599,18.7349,836.4852],[-70.1602,18.7225,796.6237],[-70.1481,18.7265,553.6955],[-70.1358,18.7259,542.3074],[-70.116,18.7026,446.264],[-70.0981,18.6949,518.1688],[-70.0918,18.6851,545.5878],[-70.0855,18.6819,442.1867],[-70.0759,18.6837,442.7371],[-70.0622,18.6834,221.3015],[-70.0343,18.6643,371.7949],[-70.0276,18.6614,290.9929],[-70.0127,18.6594,176.3038],[-70.0074,18.6659,71.2828],[-69.9968,18.6669,70.2251],[-69.9782,18.6724,96.2494],[-69.9739,18.6761,64.1967],[-69.9705,18.6826,48.8375],[-69.9605,18.6838,43.1072],[-69.9548,18.6902,56.1175],[-69.9491,18.6923,60.0401],[-69.9465,18.6971,52.3159],[-69.9537,18.7058,22.6529],[-69.9541,18.7096,23.5054],[-69.9525,18.7114,33.9807],[-69.9493,18.7114,30.3516],[-69.9456,18.7072,27.7165],[-69.9408,18.7075,27.1543],[-69.9378,18.7034,25.5941],[-69.9285,18.7001,23.9622],[-69.9229,18.7003,23.6179],[-69.9191,18.7041,27.0545],[-69.9207,18.7093,24.5915],[-69.9164,18.7134,23.3973],[-69.9208,18.7216,28.9437],[-69.914,18.7297,35.2815],[-69.9135,18.7331,61.844],[-69.9194,18.7413,72.1773],[-69.9313,18.7525,45.962],[-69.9359,18.7548,30.1456],[-69.9401,18.7633,29.9764],[-69.945,18.7668,30.5642],[-69.9447,18.7747,34.1885],[-69.9379,18.7765,33.2297],[-69.9366,18.7784,37.7021],[-69.9373,18.781,41.1641],[-69.9418,18.7838,34.0107],[-69.9428,18.7942,42.146],[-69.9449,18.7952,38.6924],[-69.9516,18.7932,37.9209],[-69.9544,18.7957,33.9661],[-69.9533,18.8007,40.4607],[-69.943,18.8029,49.1244],[-69.9437,18.8105,58.5074],[-69.9402,18.8199,80.5363],[-69.9503,18.8239,55.4795],[-69.9515,18.8373,84.8473],[-69.9541,18.8411,114.6142],[-69.9573,18.8427,100.0834],[-69.9634,18.8421,81.677],[-69.9706,18.8482,71.255],[-69.9747,18.845,96.215],[-69.9826,18.8423,99.9246],[-69.9912,18.8342,135.543],[-70.0011,18.8213,104.9755],[-70.0021,18.8111,141.1559],[-70.0054,18.8056,146.0391],[-70.0196,18.8064,112.4868],[-70.0302,18.8023,132.6233],[-70.0417,18.8018,227.4156],[-70.0487,18.7996,251.9589],[-70.0574,18.8016,255.4977],[-70.0672,18.7977,269.7506],[-70.0734,18.8003,310.152],[-70.08,18.8076,137.8586],[-70.0903,18.8107,136.2715],[-70.1101,18.8111,194.1686],[-70.1185,18.8151,137.3492],[-70.1225,18.8206,186.7007],[-70.1312,18.827,154.1416],[-70.1312,18.834,333.1817],[-70.1347,18.8382,174.7534],[-70.1335,18.8453,243.1383],[-70.1436,18.8559,200.8815],[-70.1523,18.8722,363.8743],[-70.1639,18.8651,348.5715],[-70.1721,18.867,436.984],[-70.1777,18.8664,409.9396],[-70.186,18.8722,378.7718],[-70.191,18.8683,396.8768],[-70.202,18.8667,405.6659],[-70.2171,18.8458,282.8887],[-70.2217,18.8427,335.5612],[-70.2247,18.8455,439.4622],[-70.2267,18.8451,443.6884],[-70.2381,18.8381,543.2244],[-70.2395,18.8348,438.4946],[-70.2393,18.8255,364.1355]]]]}
,"properties": {"GID_2": "DOM.18.5_1","GID_0": "DOM","country": "DominicanRepublic","GID_1": "DOM.18_1","province": "MontePlata","NL_NAME_1": "NA","county": "Yamasá","VARNAME_2": "NA","NL_NAME_2": "NA","TYPE_2": "Municipio","ENGTYPE_2": "Municipality","CC_2": "NA","HASC_2": "DO.MP.YA","name": "Yamasá.county","area_km2": 441.2338,"hist_schema_id": "Elevation0-9000","hist_area_km2": {"25": 28.3502,"50": 48.2028,"75": 52.0003,"100": 40.8585,"125": 32.466,"150": 28.3081,"175": 28.1038,"200": 24.9105,"225": 28.7035,"250": 26.4349,"275": 22.4002,"300": 17.3219,"325": 12.4045,"350": 9.8356,"375": 7.8687,"400": 6.3231,"425": 5.1591,"450": 4.2559,"475": 3.2122,"500": 3.0717,"525": 2.5097,"550": 1.4254,"575": 1.064,"600": 0.9034,"625": 0.7428,"650": 0.6424,"675": 0.9436,"700": 0.5621,"725": 0.6023,"750": 0.4819,"775": 0.522,"800": 0.2409,"825": 0.2209,"850": 0.1205,"875": 0.0402,"900": 0.0201}}}