{"type":"Feature","properties":{"GID_2":"GLP.1.13_1","GID_0":"GLP","country":"Guadeloupe","GID_1":"GLP.1_1","province":"Basse-Terre","NL_NAME_1":"NA","county":"Sainte-Rose","VARNAME_2":"NA","NL_NAME_2":"NA","TYPE_2":"Chef-lieucanton","ENGTYPE_2":"Commune","CC_2":"99","HASC_2":"NA","name":"Sainte-Rose.county"},
"geometry":{"type": "MultiPolygon","coordinates": [[[[-61.7578,16.2823,621.9842],[-61.7565,16.2727,718.7546],[-61.7573,16.2624,684.3848],[-61.7544,16.2561,698.2576],[-61.7386,16.2483,664.229],[-61.7231,16.2293,683.7043],[-61.709,16.2262,376.1583],[-61.6858,16.2361,77.5382],[-61.6724,16.2528,24.4295],[-61.6737,16.2631,11.8139],[-61.6659,16.2866,3.9087],[-61.6554,16.2957,2.4171],[-61.6301,16.2987,18.1314],[-61.6198,16.2953,4.579],[-61.6054,16.2974,4.4289],[-61.6021,16.2993,6.4627],[-61.6012,16.3029,2.5541],[-61.6043,16.3046,3.0984],[-61.6093,16.3046,3.2047],[-61.6243,16.3013,2.5944],[-61.6285,16.3046,1.5464],[-61.6329,16.3043,5.3799],[-61.6379,16.3099,1.7661],[-61.6435,16.3093,2.1709],[-61.6446,16.3132,3.5266],[-61.6407,16.316,0.0],[-61.6496,16.3201,2.1369],[-61.6499,16.3215,0.0],[-61.656,16.3193,5.4193],[-61.6632,16.3207,0.0],[-61.6646,16.3182,1.801],[-61.6646,16.3215,0.6904],[-61.6682,16.3207,0.0],[-61.6699,16.3226,0.0],[-61.6715,16.3207,1.1177],[-61.6732,16.3249,3.0129],[-61.6762,16.3257,1.6519],[-61.6799,16.3301,0.5463],[-61.6818,16.3293,0.5463],[-61.6818,16.3257,2.7431],[-61.6849,16.3251,2.7614],[-61.6862,16.329,1.4709],[-61.691,16.331,6.525],[-61.6937,16.3349,0.7879],[-61.6971,16.3343,1.899],[-61.7004,16.336,0.0],[-61.7012,16.3346,3.2342],[-61.7049,16.3371,0.0],[-61.7082,16.3363,6.7435],[-61.716,16.3393,6.0144],[-61.7176,16.3424,10.7318],[-61.7151,16.3451,1.7994],[-61.7174,16.3449,9.9157],[-61.7193,16.3479,0.0],[-61.7218,16.3476,0.0],[-61.7215,16.3501,1.8568],[-61.7246,16.3521,4.6187],[-61.7243,16.3546,0.0],[-61.7274,16.3549,3.8683],[-61.7293,16.3576,0.0],[-61.7321,16.3563,2.0858],[-61.739,16.3585,3.2193],[-61.7387,16.3604,0.0],[-61.7465,16.3618,0.0],[-61.7465,16.3571,4.457],[-61.749,16.3565,0.0],[-61.7487,16.3551,2.4529],[-61.7507,16.354,0.0],[-61.7532,16.3549,0.0],[-61.7537,16.3535,10.534],[-61.7601,16.356,0.0],[-61.765,16.3535,47.7246],[-61.7652,16.3369,200.7637],[-61.7593,16.3284,181.1042],[-61.7587,16.3178,397.5448],[-61.7645,16.2909,554.0349],[-61.7578,16.2823,621.9842]]],
[[[-61.6746,16.3449,0.3656],[-61.6771,16.3457,0.0],[-61.6782,16.3432,0.0],[-61.6749,16.3424,0.6957],[-61.6724,16.344,0.4567],[-61.6724,16.3451,0.4567],[-61.6746,16.3449,0.3656]]],
[[[-61.6843,16.3479,0.0],[-61.6854,16.3487,0.0],[-61.686,16.3474,0.0],[-61.6846,16.3457,3.0888],[-61.6804,16.346,0.6787],[-61.6807,16.3468,0.6787],[-61.6843,16.3479,0.0]]],
[[[-61.6504,16.3374,0.0],[-61.6526,16.3374,0.0],[-61.6529,16.3365,1.289],[-61.6499,16.3357,0.0],[-61.6504,16.3374,0.0]]],
[[[-61.5887,16.3543,0.0],[-61.5918,16.3532,0.0],[-61.5918,16.3496,0.0],[-61.5974,16.3429,3.0934],[-61.5965,16.3415,0.0],[-61.594,16.3421,2.3036],[-61.5915,16.3465,3.2911],[-61.5829,16.3443,0.0],[-61.5799,16.3457,0.0],[-61.5793,16.3504,1.1784],[-61.5887,16.3543,0.0]]]]}}