{"type":"Feature","properties":{"ISO3166-1-Alpha-3":"BHS","country":"The Bahamas","fill":"#F0F","id":"5021","name":"Mangrove Cay"},
"geometry":{"type": "Polygon","coordinates": [[[-77.74405,24.03547,0.0],[-77.72985,24.04263,-0.5241],[-77.7246,24.05329,0.6057],[-77.72126,24.06623,0.1979],[-77.70482,24.09467,0.0],[-77.70226,24.11274,2.7908],[-77.70767,24.12372,0.0],[-77.72354,24.11738,0.0],[-77.74812,24.13178,0.0],[-77.75853,24.14077,1.2251],[-77.75463,24.14472,0.7699],[-77.73693,24.14863,0.4018],[-77.73253,24.15705,0.4475],[-77.73998,24.1645,0.6009],[-77.75772,24.16584,1.1731],[-77.75772,24.17259,2.9687],[-77.72696,24.1778,1.9337],[-77.70246,24.19025,2.1921],[-77.64074,24.23729,1.1847],[-77.63121,24.24909,0.0],[-77.63793,24.25458,0.0],[-77.65022,24.26016,0.0],[-77.65852,24.2735,0.0],[-77.66584,24.2895,0.0],[-77.67516,24.30296,0.0],[-77.70311,24.28872,1.0647],[-77.71443,24.27509,2.2875],[-77.75573,24.25926,1.111],[-77.77074,24.24775,0.4271],[-77.77672,24.23558,0.0856],[-77.77888,24.22785,0.1497],[-77.78238,24.22158,0.1682],[-77.79247,24.21361,0.291],[-77.80541,24.20893,0.3241],[-77.83967,24.20673,0.0],[-77.84341,24.19888,0.0],[-77.84992,24.1743,0.0],[-77.85391,24.16584,0.0],[-77.8651,24.15795,0.0],[-77.89216,24.14964,0.0],[-77.90233,24.14472,0.0],[-77.911,24.13581,0.4424],[-77.9108,24.13133,0.3808],[-77.90795,24.12678,0.4863],[-77.90856,24.11738,0.4437],[-77.90827,24.11262,0.6294],[-77.90909,24.10529,0.0],[-77.9147,24.10253,0.0],[-77.92907,24.11123,0.0],[-77.93611,24.10448,0.0],[-77.94205,24.09687,0.0],[-77.87963,24.07396,-0.5],[-77.8601,24.06273,0.6214],[-77.8601,24.05598,0.0],[-77.86653,24.04755,0.0],[-77.85863,24.04096,0.0757],[-77.84484,24.03339,0.0],[-77.83349,24.0218,0.2571],[-77.83349,24.00959,0.0],[-77.83776,23.99592,0.0],[-77.83723,23.98481,-0.1597],[-77.82258,23.98021,-0.1014],[-77.78158,24.00832,-0.1911],[-77.74405,24.03547,0.0]]]}}