{"type": "Feature","bbox": [-72.546,19.5213,-72.415,19.677],"geometry": {"type": "MultiPolygon","coordinates": [[[[-72.4228,19.5561,593.7835],[-72.4249,19.5602,618.8215],[-72.423,19.5662,608.778],[-72.4273,19.5731,646.218],[-72.4438,19.5855,602.3732],[-72.4458,19.5898,519.6762],[-72.4442,19.5935,517.9948],[-72.4464,19.6013,552.5425],[-72.4449,19.6024,517.2834],[-72.4497,19.6057,493.0197],[-72.4519,19.6107,450.732],[-72.4486,19.6137,441.9131],[-72.4482,19.6167,507.7527],[-72.4537,19.6239,669.5144],[-72.4512,19.6288,540.5302],[-72.4512,19.6428,669.9758],[-72.4544,19.652,579.3367],[-72.4614,19.6628,911.6495],[-72.4578,19.6742,945.8776],[-72.4605,19.677,1027.5151],[-72.4656,19.6728,763.7797],[-72.4688,19.665,708.8166],[-72.4714,19.6631,799.6511],[-72.4823,19.6616,701.2906],[-72.4882,19.6563,713.8488],[-72.4952,19.6567,757.8476],[-72.4992,19.661,705.0485],[-72.508,19.6606,616.7753],[-72.5121,19.663,480.2219],[-72.5159,19.6611,365.3896],[-72.5173,19.6568,436.3016],[-72.5155,19.653,447.8938],[-72.5249,19.6392,291.1702],[-72.5217,19.6211,396.7201],[-72.5313,19.6166,722.7305],[-72.5362,19.6104,768.3589],[-72.546,19.6035,943.4525],[-72.5415,19.5987,1001.8698],[-72.5424,19.5887,894.9619],[-72.5359,19.5825,868.4775],[-72.5257,19.5781,925.1108],[-72.5213,19.5814,670.7755],[-72.5152,19.5818,621.8318],[-72.523,19.5741,905.8359],[-72.5211,19.5711,895.5985],[-72.5073,19.5621,713.8955],[-72.5005,19.5605,822.6432],[-72.4934,19.5556,798.0511],[-72.4881,19.5468,824.6028],[-72.4826,19.542,724.3461],[-72.4553,19.5223,957.4344],[-72.4472,19.5213,991.9094],[-72.4419,19.5227,1014.9863],[-72.44,19.528,1032.0116],[-72.4332,19.5252,992.4704],[-72.4247,19.5297,963.8706],[-72.415,19.545,620.0725],[-72.4228,19.5561,593.7835]]]]}
,"properties": {"GID_3": "HTI.7.6.2_1","GID_0": "HTI","country": "Haiti","GID_1": "HTI.7_1","province": "Nord","NL_NAME_1": "NA","GID_2": "HTI.7.6_1","county": "Plaisance","NL_NAME_2": "NA","city": "Plaisance","VARNAME_3": "NA","NL_NAME_3": "NA","TYPE_3": "Commune","ENGTYPE_3": "Commune","CC_3": "NA","HASC_3": "NA","name": "Plaisance.city","area_km2": 121.62402,"hist_schema_id": "Elevation0-9000","hist_area_km2": {"300": 1.67742,"325": 4.9129,"350": 9.30757,"375": 14.46175,"400": 9.24827,"425": 7.47046,"450": 7.84998,"475": 6.31193,"500": 6.21202,"525": 6.17206,"550": 4.97366,"575": 4.93372,"600": 4.63418,"625": 4.39443,"650": 3.97504,"675": 3.85503,"700": 2.93624,"725": 3.37555,"750": 2.31711,"775": 2.27702,"800": 2.09735,"825": 1.8377,"850": 1.45813,"875": 0.99878,"900": 0.93878,"925": 0.61925,"950": 0.5794,"975": 0.45951,"1000": 0.75931,"1025": 0.51955,"1050": 0.05995}}}