{"type":"Feature","properties":{"ISO3166-1-Alpha-3":"CUB","country":"Cuba","fill":"#F0F","id":"1320","name":"Isla de la Juventud"},
"geometry":{"type": "MultiPolygon","coordinates": [[[[-82.08837,21.56818,3.2892],[-82.07433,21.57221,3.417],[-82.07046,21.57648,2.9357],[-82.0653,21.57974,1.4166],[-82.05858,21.58145,3.7077],[-82.02945,21.59516,2.1461],[-81.98982,21.60883,2.0555],[-81.97277,21.62222,5.9813],[-81.97362,21.63988,2.1411],[-81.98119,21.64777,0.0],[-81.9829,21.64631,0.5388],[-81.98412,21.64191,2.0207],[-81.98762,21.63483,0.0],[-81.99665,21.62661,0.0],[-82.00788,21.62153,0.0],[-82.01976,21.62104,0.0],[-82.04833,21.61066,0.0],[-82.05451,21.60615,0.0],[-82.06184,21.59837,0.0],[-82.0712,21.59296,0.0],[-82.08218,21.59003,0.0],[-82.10216,21.57445,0.0],[-82.11425,21.5703,0.0],[-82.11002,21.56745,0.0],[-82.08837,21.56818,3.2892]]],
[[[-81.87011,21.63947,2.8423],[-81.85265,21.64989,4.3998],[-81.8378,21.66108,1.5664],[-81.83902,21.66621,0.0],[-81.85253,21.66356,0.0],[-81.8592,21.66157,0.0],[-81.88915,21.64936,0.0],[-81.89208,21.64741,1.3967],[-81.88817,21.64704,1.5334],[-81.8922,21.64106,0.0],[-81.90563,21.63101,0.0],[-81.92219,21.62934,0.0],[-81.93285,21.6402,1.5373],[-81.9357,21.64191,3.5234],[-81.93236,21.62849,2.272],[-81.91885,21.61546,1.4648],[-81.90136,21.61563,4.1839],[-81.87011,21.63947,2.8423]]],
[[[-81.41755,21.66791,1.8493],[-81.37654,21.70307,0.0],[-81.3723,21.70539,0.0],[-81.36937,21.70856,0.0],[-81.37165,21.71475,0.0],[-81.37767,21.71894,0.0],[-81.38598,21.71597,0.0],[-81.41731,21.69721,0.0],[-81.43171,21.685,0.0],[-81.43781,21.66787,0.0],[-81.4427,21.65998,0.0],[-81.4545,21.6518,0.0],[-81.46906,21.64818,0.0],[-81.48217,21.65388,0.0],[-81.49352,21.65705,0.0],[-81.50304,21.6457,0.0],[-81.51244,21.63085,0.0],[-81.52351,21.62344,0.0],[-81.55138,21.62759,0.0],[-81.56078,21.62238,1.4034],[-81.56066,21.60297,0.7523],[-81.5277,21.60586,2.9511],[-81.49669,21.61848,4.312],[-81.41755,21.66791,1.8493]]],
[[[-82.859,21.93366,0.0],[-82.98949,21.94843,0.0],[-82.99877,21.94184,0.0],[-83.00524,21.9396,0.0],[-83.00471,21.93765,0.0],[-82.99258,21.93195,-0.1541],[-82.98103,21.93195,0.0],[-82.97008,21.93,0.0],[-82.9591,21.92512,0.0],[-82.9757,21.92182,0.0],[-82.99852,21.91096,0.0],[-83.01867,21.89769,0.0],[-83.02733,21.88727,0.0],[-83.03283,21.87434,0.0],[-83.07518,21.84317,0.0],[-83.0856,21.80028,0.0],[-83.07348,21.76057,0.0],[-82.98766,21.61978,0.0],[-82.9759,21.6092,0.978],[-82.94612,21.60464,0.2878],[-82.94103,21.59309,0.2939],[-82.9591,21.562,4.4689],[-82.96593,21.56826,0.6664],[-82.95653,21.58218,0.2434],[-82.95763,21.59235,0.5458],[-82.9628,21.59829,0.0],[-82.96593,21.59927,0.0],[-82.96923,21.59125,0.1923],[-82.97692,21.58487,0.4385],[-82.99258,21.5751,0.0],[-83.02058,21.55248,0.0],[-83.02392,21.54841,0.0],[-83.06526,21.54841,0.0],[-83.08202,21.55146,0.0],[-83.10131,21.5598,0.1449],[-83.11701,21.57172,0.9414],[-83.12361,21.58564,0.0],[-83.17394,21.6201,0.0],[-83.18505,21.63032,0.0],[-83.1918,21.63032,4.6962],[-83.18952,21.62027,0.0],[-83.17821,21.59553,0.0],[-83.17138,21.56826,0.0],[-83.1621,21.54926,0.0],[-83.15172,21.53791,0.0],[-83.12361,21.52045,0.0],[-83.11115,21.50975,0.0],[-83.07852,21.46922,0.0],[-83.06949,21.46516,0.0],[-83.03356,21.46581,3.5542],[-83.02184,21.46308,0.0],[-83.00227,21.45502,0.0],[-82.99258,21.45213,0.0],[-82.92724,21.451,0.4175],[-82.91812,21.4416,0.0],[-82.90624,21.43749,0.0],[-82.83556,21.44473,0.0],[-82.75919,21.47061,2.33],[-82.63146,21.53075,2.4926],[-82.6127,21.53408,6.1055],[-82.59463,21.54182,9.8688],[-82.57144,21.55976,9.3824],[-82.55089,21.58027,0.0],[-82.54076,21.59553,0.0],[-82.55264,21.60139,0.0],[-82.56713,21.61201,0.7507],[-82.57518,21.6247,4.5189],[-82.56802,21.63654,0.9627],[-82.56802,21.64395,0.0],[-82.5819,21.64574,0.0],[-82.59386,21.65107,2.5113],[-82.61644,21.66446,4.3826],[-82.61144,21.67292,2.5774],[-82.60953,21.68159,4.3358],[-82.61107,21.69013,4.2748],[-82.61644,21.69855,4.2223],[-82.609,21.69855,4.2657],[-82.59773,21.71743,3.4163],[-82.59236,21.72907,1.4233],[-82.5926,21.73676,0.8473],[-82.59789,21.74604,0.3768],[-82.60294,21.75849,0.0],[-82.60961,21.7696,0.5962],[-82.61954,21.77432,0.9844],[-82.63296,21.77363,2.4825],[-82.67789,21.80781,0.0],[-82.69253,21.82404,0.0],[-82.69347,21.83544,0.8615],[-82.68822,21.84764,1.3046],[-82.68472,21.86616,0.0],[-82.69017,21.88182,0.257],[-82.70372,21.89281,0.0],[-82.72142,21.90009,0.0],[-82.7775,21.91486,0.0],[-82.859,21.93366,0.0]]],
[[[-82.60289,21.92194,0.0],[-82.59118,21.92666,0.0],[-82.60774,21.93871,0.0],[-82.64517,21.95454,0.0],[-82.66808,21.94912,0.0],[-82.65787,21.93207,0.0],[-82.63012,21.92072,0.0],[-82.60289,21.92194,0.0]]]]}}