{"type":"Feature","properties":{"GID_2":"GLP.1.15_1","GID_0":"GLP","country":"Guadeloupe","GID_1":"GLP.1_1","province":"Basse-Terre","NL_NAME_1":"NA","county":"Terre-De-Haut","VARNAME_2":"NA","NL_NAME_2":"NA","TYPE_2":"Communesimple","ENGTYPE_2":"Commune","CC_2":"34","HASC_2":"NA","name":"Terre-De-Haut.county"},
"geometry":{"type": "MultiPolygon","coordinates": [[[[-61.6104,15.8396,0.4986],[-61.6121,15.8376,0.0],[-61.6087,15.8338,0.0],[-61.6046,15.8351,0.0],[-61.6085,15.836,4.1304],[-61.6104,15.8396,0.4986]]],
[[[-61.5904,15.8424,0.0],[-61.5915,15.8429,0.0],[-61.5988,15.836,0.9615],[-61.5857,15.8315,0.0],[-61.5835,15.8354,8.4975],[-61.5904,15.8424,0.0]]],
[[[-61.5729,15.8838,0.0],[-61.5743,15.8835,0.0],[-61.5774,15.8738,0.0],[-61.5793,15.876,7.5946],[-61.5801,15.881,0.0],[-61.5849,15.8771,0.0],[-61.5857,15.8696,0.0],[-61.5843,15.8679,0.0],[-61.5879,15.8643,3.2569],[-61.5901,15.866,0.0],[-61.5921,15.8637,72.5288],[-61.5974,15.8637,28.1038],[-61.5993,15.8657,0.0],[-61.6007,15.8601,13.9431],[-61.6054,15.8601,19.5528],[-61.6068,15.8562,0.0],[-61.6029,15.8576,10.4958],[-61.6004,15.8543,0.0],[-61.5926,15.8524,17.3736],[-61.5879,15.8588,10.6748],[-61.5865,15.8565,0.0],[-61.5799,15.8571,6.7925],[-61.5804,15.8554,0.0],[-61.5782,15.8549,0.0],[-61.576,15.8576,12.3006],[-61.579,15.859,9.5569],[-61.5776,15.8651,2.8453],[-61.576,15.8671,48.975],[-61.5682,15.8693,3.6036],[-61.5657,15.8738,6.604],[-61.5668,15.876,0.0],[-61.5679,15.8718,23.8236],[-61.5701,15.8713,19.5475],[-61.5713,15.8726,3.7973],[-61.5682,15.8796,0.0],[-61.571,15.8813,12.2932],[-61.5699,15.8832,0.0],[-61.5729,15.8838,0.0]]],
[[[-61.5988,15.879,0.0],[-61.6018,15.8776,0.0],[-61.6015,15.8757,4.5318],[-61.5993,15.8757,11.5472],[-61.5935,15.8715,0.0],[-61.5904,15.8782,0.0],[-61.5937,15.879,0.0],[-61.5943,15.8774,0.0],[-61.5982,15.8774,0.0],[-61.5988,15.879,0.0]]]]}}