{"type": "Feature","bbox": [-67.226,18.2428,-67.0377,18.3239],"geometry": {"type": "MultiPolygon","coordinates": [[[[-67.1828,18.3131,349.4586],[-67.1828,18.3112,335.2498],[-67.1939,18.3077,232.4721],[-67.2018,18.3105,197.1259],[-67.2086,18.3066,142.598],[-67.2202,18.3059,79.739],[-67.226,18.2962,0.0],[-67.2115,18.2951,0.0],[-67.1954,18.2901,0.0],[-67.1913,18.2846,4.1258],[-67.1893,18.2787,2.3471],[-67.189,18.2662,0.0],[-67.1739,18.2679,3.972],[-67.1661,18.2699,4.1932],[-67.1611,18.2733,5.5396],[-67.1495,18.2716,5.5129],[-67.1346,18.2646,7.2761],[-67.1367,18.2469,19.7433],[-67.1232,18.2428,34.4002],[-67.1117,18.2482,101.2615],[-67.1063,18.253,149.5154],[-67.0868,18.249,278.1375],[-67.0781,18.2591,149.0433],[-67.0675,18.2592,178.021],[-67.0652,18.2611,105.052],[-67.062,18.2702,180.9547],[-67.0518,18.2661,241.7896],[-67.0403,18.2719,164.1268],[-67.0409,18.2833,126.257],[-67.0377,18.2896,57.9426],[-67.0406,18.3005,206.96],[-67.0634,18.3117,231.3038],[-67.0778,18.313,198.1675],[-67.1121,18.3202,169.2926],[-67.1214,18.3239,183.3065],[-67.1264,18.319,163.9906],[-67.137,18.3165,173.9016],[-67.1487,18.3221,211.9404],[-67.1607,18.3177,270.4019],[-67.1611,18.3158,256.7915],[-67.1648,18.3152,208.6476],[-67.1727,18.3185,314.299],[-67.1828,18.3131,349.4586]]]]}
,"properties": {"GID_1": "PRI.6_1","GID_0": "PRI","country": "PuertoRico","province": "Añasco","VARNAME_1": "NA","NL_NAME_1": "NA","TYPE_1": "Municipio","ENGTYPE_1": "Municipality","CC_1": "NA","HASC_1": "PR.AN","ISO_1": "NA","name": "Añasco.province","area_km2": 102.18657,"hist_schema_id": "Elevation0-9000","hist_area_km2": {"0": 22.08488,"25": 12.44163,"50": 10.24724,"75": 9.50231,"100": 8.19341,"125": 8.27386,"150": 7.54901,"175": 6.46178,"200": 6.90457,"225": 6.05906,"250": 2.5565,"275": 1.24807,"300": 0.42272,"325": 0.20129,"350": 0.04026}}}