{"type":"Feature","properties":{"GID_3":"HTI.2.3.2_1","GID_0":"HTI","country":"Haiti","GID_1":"HTI.2_1","province":"Grand'Anse","NL_NAME_1":"NA","GID_2":"HTI.2.3_1","county":"Jérémie","NL_NAME_2":"NA","city":"Bonbon","VARNAME_3":"NA","NL_NAME_3":"NA","TYPE_3":"Commune","ENGTYPE_3":"Commune","CC_3":"NA","HASC_3":"NA","name":"Bonbon.city"},
"geometry":{"type": "MultiPolygon","coordinates": [[[[-74.2592,18.5936,669.282],[-74.2412,18.5888,591.0554],[-74.226,18.6006,352.2527],[-74.2216,18.6074,289.5338],[-74.2143,18.6106,302.6718],[-74.1981,18.6142,357.938],[-74.1908,18.6183,380.413],[-74.1903,18.6231,456.8594],[-74.1924,18.624,497.5621],[-74.2074,18.6193,271.8087],[-74.2124,18.6222,318.8548],[-74.2274,18.6261,222.6425],[-74.2274,18.6279,235.2199],[-74.2203,18.6318,354.3572],[-74.221,18.6345,390.0735],[-74.2269,18.639,356.8183],[-74.2319,18.6457,249.1607],[-74.2335,18.6545,192.7047],[-74.2315,18.6575,210.1028],[-74.2142,18.6633,108.3882],[-74.2144,18.674,8.2077],[-74.2435,18.6701,4.9762],[-74.2479,18.6657,0.0],[-74.249,18.6663,3.617],[-74.2485,18.6693,0.0],[-74.2535,18.671,0.0],[-74.2574,18.6712,1.5358],[-74.2635,18.669,0.0],[-74.264,18.666,0.0],[-74.2629,18.667,22.0403],[-74.2575,18.6617,40.9875],[-74.257,18.6573,102.2846],[-74.2591,18.6538,138.7111],[-74.2584,18.642,310.4239],[-74.2552,18.6369,280.296],[-74.2573,18.6233,279.9371],[-74.2609,18.6132,238.7016],[-74.2602,18.6098,265.6336],[-74.2565,18.6072,235.3538],[-74.2592,18.5936,669.282]]]]}}