{"type":"Feature","properties":{"GID_2":"DOM.12.6_1","GID_0":"DOM","country":"DominicanRepublic","GID_1":"DOM.12_1","province":"LaEstrelleta","NL_NAME_1":"NA","county":"PedroSantana","VARNAME_2":"NA","NL_NAME_2":"NA","TYPE_2":"Municipio","ENGTYPE_2":"Municipality","CC_2":"NA","HASC_2":"DO.EP.PS","name":"Pedro_Santana.county"},
"geometry":{"type": "MultiPolygon","coordinates": [[[[-71.6319,19.2266,405.5765],[-71.6303,19.2218,453.093],[-71.6248,19.2163,450.8611],[-71.6295,19.2124,418.7154],[-71.6229,19.2144,439.4734],[-71.6229,19.2124,433.5198],[-71.6221,19.2136,438.174],[-71.6181,19.2117,448.1386],[-71.6189,19.2105,389.5439],[-71.6201,19.2117,389.5439],[-71.6209,19.2078,466.3336],[-71.6236,19.2097,448.1711],[-71.6236,19.2117,399.9577],[-71.6315,19.2097,505.5612],[-71.6315,19.2078,458.4204],[-71.6342,19.207,496.9348],[-71.633,19.205,471.3174],[-71.6342,19.205,490.7033],[-71.635,19.2011,456.4371],[-71.633,19.2004,423.6587],[-71.633,19.1984,415.1483],[-71.635,19.1976,444.0972],[-71.6295,19.193,391.5001],[-71.6267,19.1949,445.174],[-71.6256,19.1918,391.8892],[-71.6228,19.1911,468.8945],[-71.6248,19.1891,372.8935],[-71.6248,19.1872,394.0704],[-71.6236,19.1872,394.0704],[-71.6267,19.1864,532.5118],[-71.6275,19.1883,478.9933],[-71.6283,19.1872,478.9933],[-71.6314,19.1872,565.46],[-71.6314,19.1883,565.46],[-71.6342,19.1836,574.5321],[-71.6408,19.1856,786.5544],[-71.6397,19.1825,708.8434],[-71.6436,19.1817,641.9295],[-71.635,19.1798,519.1777],[-71.635,19.1778,478.8871],[-71.6295,19.1743,367.7639],[-71.6302,19.1732,404.9749],[-71.6322,19.1743,422.4384],[-71.6322,19.1716,427.8871],[-71.6377,19.1731,570.6044],[-71.6337,19.1689,578.0894],[-71.6365,19.1688,599.2025],[-71.6361,19.1667,541.2592],[-71.6413,19.1682,577.3107],[-71.6416,19.1669,495.9631],[-71.6396,19.1669,481.0183],[-71.6388,19.1623,356.2324],[-71.6396,19.1611,384.9204],[-71.6416,19.1623,458.8525],[-71.6416,19.1603,517.8572],[-71.6396,19.1591,358.0893],[-71.6433,19.1582,554.0358],[-71.6361,19.1518,490.382],[-71.6376,19.1498,347.3647],[-71.6416,19.151,450.239],[-71.6416,19.1498,553.9355],[-71.649,19.1471,612.3937],[-71.6529,19.1482,544.6925],[-71.6502,19.1463,539.5546],[-71.6502,19.1444,485.9445],[-71.6416,19.1405,414.1172],[-71.6423,19.137,393.9634],[-71.6443,19.1358,391.2811],[-71.6435,19.1331,394.3794],[-71.6455,19.1311,384.7665],[-71.6443,19.1304,365.562],[-71.647,19.1257,379.6385],[-71.6502,19.1238,372.9956],[-71.6501,19.1203,361.102],[-71.6509,19.123,364.8056],[-71.6543,19.1155,346.3958],[-71.6557,19.1173,347.4854],[-71.6631,19.1129,340.5969],[-71.6706,19.1174,347.2122],[-71.673,19.1128,331.8584],[-71.6792,19.1136,367.8613],[-71.6772,19.1117,336.0482],[-71.6799,19.107,308.8308],[-71.6823,19.1076,323.6047],[-71.6849,19.103,306.5446],[-71.697,19.1086,265.6226],[-71.7012,19.1074,268.1301],[-71.7027,19.1042,265.5879],[-71.6999,19.1015,277.4875],[-71.6952,19.1003,281.7697],[-71.6929,19.0934,328.35],[-71.6863,19.0914,556.8481],[-71.674,19.0908,469.2146],[-71.6654,19.0883,387.1071],[-71.6258,19.0876,445.2495],[-71.6036,19.0786,689.8865],[-71.5896,19.0662,1015.8303],[-71.575,19.0625,728.497],[-71.5545,19.0654,698.2023],[-71.545,19.0726,897.8262],[-71.5401,19.0736,991.5935],[-71.5354,19.0725,1229.7667],[-71.5314,19.0681,1199.2358],[-71.5259,19.0652,1123.2927],[-71.5128,19.0672,1270.9966],[-71.5029,19.0603,1039.1952],[-71.4909,19.0629,1042.5393],[-71.4771,19.0726,1192.3762],[-71.4739,19.0789,1353.6152],[-71.4715,19.0911,960.6841],[-71.4502,19.1036,1047.6565],[-71.4477,19.1095,1169.0049],[-71.4512,19.1172,1194.4287],[-71.4502,19.1198,1257.5205],[-71.4464,19.1209,1403.4954],[-71.4244,19.1206,1330.871],[-71.4182,19.1262,1333.1493],[-71.4124,19.1247,1231.922],[-71.4062,19.1137,1438.8369],[-71.398,19.1095,1564.0381],[-71.3857,19.1094,1363.8912],[-71.3656,19.1146,1532.0736],[-71.3619,19.113,1488.2112],[-71.357,19.1057,1580.3395],[-71.3512,19.1011,1543.8982],[-71.3356,19.1035,1431.9514],[-71.3338,19.1051,1578.1853],[-71.3289,19.1201,1467.0858],[-71.3335,19.1346,1508.6986],[-71.3329,19.1593,1444.7208],[-71.3302,19.1619,1471.7178],[-71.3206,19.1648,1693.3842],[-71.3097,19.1651,1539.8265],[-71.3068,19.1679,1535.7736],[-71.3132,19.1768,1801.1592],[-71.3242,19.184,1542.2379],[-71.3322,19.183,1550.5784],[-71.3354,19.1871,1468.0918],[-71.3417,19.1851,1492.2832],[-71.3476,19.1859,1480.0842],[-71.3714,19.2093,1301.5745],[-71.3838,19.2113,1320.1725],[-71.3964,19.2172,1259.871],[-71.4057,19.2284,1255.1307],[-71.4159,19.2316,1279.0194],[-71.421,19.2383,1436.7966],[-71.4287,19.2364,1229.9636],[-71.4344,19.2369,1190.6903],[-71.457,19.2503,933.9019],[-71.4682,19.2479,853.8217],[-71.4807,19.2484,922.7309],[-71.4838,19.2606,820.1182],[-71.4889,19.267,816.2425],[-71.4955,19.27,697.3826],[-71.5071,19.2649,856.8466],[-71.5098,19.2575,1004.4752],[-71.5148,19.2564,868.6921],[-71.5418,19.2703,645.0895],[-71.5467,19.2705,608.5341],[-71.5537,19.2659,579.0806],[-71.5579,19.2655,597.6343],[-71.5699,19.2717,555.2585],[-71.5727,19.2762,522.0911],[-71.5783,19.2766,552.4882],[-71.5855,19.2596,555.2007],[-71.5865,19.2495,667.4957],[-71.5888,19.2459,727.918],[-71.5945,19.2431,537.4963],[-71.6045,19.2448,499.6704],[-71.6109,19.2384,507.4784],[-71.618,19.2365,478.9785],[-71.6227,19.2298,487.168],[-71.6278,19.2262,465.7383],[-71.6319,19.2266,405.5765]]]]}}