{"type":"Feature","properties":{"GID_2":"HTI.8.1_1","GID_0":"HTI","country":"Haiti","GID_1":"HTI.8_1","province":"Ouest","NL_NAME_1":"NA","county":"Croix-des-Bouquets","VARNAME_2":"NA","NL_NAME_2":"NA","TYPE_2":"Arrondissement","ENGTYPE_2":"District","CC_2":"NA","HASC_2":"HT.OU.CB","name":"Croix-des-Bouquets.county"},
"geometry":{"type": "MultiPolygon","coordinates": [[[[-71.9909,18.6193,118.0229],[-71.9937,18.6205,172.5506],[-71.9956,18.6193,166.0571],[-72.0039,18.6267,151.8878],[-71.989,18.6345,720.1064],[-71.9776,18.638,882.4561],[-71.971,18.6493,935.9054],[-71.9616,18.6586,1011.8074],[-71.9561,18.6548,1067.5596],[-71.9486,18.654,1067.2037],[-71.94,18.6501,723.8898],[-71.927,18.64,846.6029],[-71.9239,18.6393,867.2781],[-71.9231,18.6373,834.3992],[-71.9164,18.6393,810.061],[-71.9082,18.6514,1059.3364],[-71.9051,18.6502,1074.6488],[-71.8996,18.6514,1024.5547],[-71.8788,18.6394,1192.1517],[-71.8752,18.63,1053.9968],[-71.8686,18.6308,943.4464],[-71.8651,18.6364,1231.2332],[-71.8604,18.6367,1264.2771],[-71.8523,18.6358,1267.0568],[-71.8443,18.6294,1138.0409],[-71.8362,18.6296,1150.9285],[-71.8276,18.6332,1158.1526],[-71.8154,18.6306,1000.5582],[-71.8121,18.6341,958.548],[-71.8071,18.6353,880.1624],[-71.8062,18.6376,836.3356],[-71.8015,18.6383,761.0612],[-71.8015,18.6477,1070.459],[-71.8047,18.6644,1346.5721],[-71.798,18.6729,1479.0874],[-71.7962,18.6834,1883.832],[-71.8098,18.688,1770.5885],[-71.829,18.7045,1663.4355],[-71.8418,18.7099,1504.7429],[-71.8533,18.7187,1235.7251],[-71.8758,18.7193,1326.192],[-71.8821,18.718,1355.673],[-71.8874,18.7197,1322.9879],[-71.8935,18.7194,1349.077],[-71.9008,18.722,1294.4919],[-71.911,18.7296,1263.0381],[-71.9161,18.7294,1288.8079],[-71.9209,18.7313,1251.8983],[-71.9234,18.7369,1148.1675],[-71.9259,18.7389,1021.3483],[-71.9424,18.7386,1068.4146],[-71.9609,18.7408,1032.9705],[-71.9711,18.7467,906.6699],[-71.9778,18.734,661.5782],[-71.9885,18.7376,585.0643],[-71.9919,18.7343,450.757],[-72.0053,18.73,394.0737],[-72.0059,18.735,357.8578],[-72.0094,18.7369,324.1698],[-72.014,18.732,310.621],[-72.0171,18.7241,354.933],[-72.022,18.7266,482.4661],[-72.0276,18.7268,582.7953],[-72.0352,18.7241,753.8481],[-72.0375,18.7209,962.9684],[-72.0442,18.7192,1141.0264],[-72.0567,18.7187,1050.1487],[-72.0681,18.7207,946.5314],[-72.0735,18.7366,403.4717],[-72.084,18.727,561.7138],[-72.0869,18.7136,826.2397],[-72.0917,18.7105,767.6292],[-72.0979,18.7114,819.4547],[-72.1098,18.7082,841.8869],[-72.1155,18.7035,831.8553],[-72.1229,18.7036,807.8064],[-72.1272,18.7063,814.2064],[-72.1472,18.6946,698.0359],[-72.1666,18.7026,810.462],[-72.1899,18.7238,738.9186],[-72.1973,18.7321,808.1223],[-72.2011,18.7417,769.2949],[-72.1971,18.7448,653.2438],[-72.1939,18.7514,592.3357],[-72.1998,18.7584,469.2744],[-72.2031,18.7561,526.649],[-72.2068,18.7579,552.2463],[-72.2101,18.7648,412.4374],[-72.2178,18.7737,333.0769],[-72.225,18.7723,381.0915],[-72.2258,18.7762,374.0027],[-72.229,18.778,374.8501],[-72.2372,18.7774,459.7525],[-72.2455,18.7805,460.4634],[-72.2573,18.789,454.9962],[-72.2621,18.7892,476.2366],[-72.279,18.7974,626.4153],[-72.2744,18.7999,544.291],[-72.2724,18.804,580.2637],[-72.2746,18.8074,550.9783],[-72.2789,18.8087,617.0153],[-72.2817,18.8165,564.5273],[-72.3031,18.8181,778.615],[-72.3092,18.8164,867.7892],[-72.3139,18.8127,1064.4277],[-72.3194,18.8116,1132.9448],[-72.3275,18.7968,842.859],[-72.3322,18.7962,707.2179],[-72.33,18.792,775.345],[-72.3263,18.7893,770.7137],[-72.3362,18.7828,691.334],[-72.3326,18.7806,785.1826],[-72.3357,18.7794,839.3795],[-72.3439,18.7707,489.3696],[-72.3524,18.7693,265.2259],[-72.3559,18.7674,220.3781],[-72.3575,18.7645,202.8164],[-72.3574,18.7616,303.463],[-72.3531,18.7608,344.8662],[-72.3519,18.7568,400.4719],[-72.3523,18.7525,408.5323],[-72.3582,18.7472,309.266],[-72.3517,18.7397,444.5763],[-72.352,18.7357,354.5986],[-72.3495,18.7339,391.4292],[-72.3442,18.7361,422.0345],[-72.3318,18.7327,442.1079],[-72.3285,18.7338,518.486],[-72.3285,18.7299,341.4631],[-72.3353,18.7262,288.3969],[-72.338,18.7224,198.5626],[-72.334,18.7148,186.4383],[-72.3363,18.7109,136.2289],[-72.3322,18.7084,152.3402],[-72.3257,18.7073,189.0176],[-72.3226,18.7036,181.491],[-72.3119,18.7037,299.7309],[-72.3167,18.693,109.5723],[-72.321,18.6925,95.3163],[-72.3235,18.6888,77.5312],[-72.332,18.6826,2.666],[-72.3221,18.6796,4.0633],[-72.3202,18.6746,0.3876],[-72.3221,18.674,0.0],[-72.3182,18.6719,0.2915],[-72.3191,18.6596,0.0],[-72.3217,18.6572,0.0],[-72.3285,18.6551,0.4167],[-72.3366,18.6477,0.1746],[-72.3477,18.6273,0.0],[-72.3536,18.6273,0.4495],[-72.3358,18.621,4.9427],[-72.3351,18.6175,5.4146],[-72.3267,18.6159,6.5709],[-72.3264,18.6136,7.458],[-72.3283,18.6134,6.3311],[-72.3274,18.6117,7.3081],[-72.3248,18.6136,7.458],[-72.3207,18.61,9.9384],[-72.3152,18.6101,9.7597],[-72.3141,18.6081,13.4468],[-72.3161,18.6065,12.0795],[-72.3129,18.6043,11.5319],[-72.3068,18.6067,12.5872],[-72.303,18.6047,13.3697],[-72.3012,18.6058,14.7962],[-72.3003,18.6095,16.9347],[-72.2959,18.6073,18.776],[-72.295,18.6034,21.9233],[-72.2889,18.6012,26.4355],[-72.2892,18.5976,26.1525],[-72.2816,18.5991,28.2733],[-72.2783,18.5981,27.156],[-72.2737,18.5998,30.4859],[-72.2682,18.596,33.5235],[-72.2658,18.5969,34.2064],[-72.2564,18.5935,38.834],[-72.2536,18.5873,44.7157],[-72.2486,18.5869,47.4616],[-72.2489,18.5814,54.6986],[-72.2434,18.5778,55.1062],[-72.2428,18.5733,57.2441],[-72.2364,18.5647,65.8684],[-72.233,18.5551,81.5633],[-72.2104,18.5216,128.5663],[-72.2074,18.5103,152.8221],[-72.1908,18.4925,383.5316],[-72.1876,18.4832,246.6672],[-72.1837,18.4833,247.0912],[-72.1851,18.4816,310.9762],[-72.1827,18.4798,253.6516],[-72.1796,18.4852,242.8692],[-72.178,18.4849,249.356],[-72.1756,18.4833,260.8508],[-72.1776,18.4803,302.2468],[-72.1752,18.48,289.3225],[-72.1746,18.4824,260.8508],[-72.1735,18.4822,289.4678],[-72.1687,18.4767,263.4382],[-72.1711,18.4745,278.7098],[-72.166,18.4735,364.7493],[-72.1661,18.4719,275.3092],[-72.1688,18.4709,306.9005],[-72.1682,18.4686,368.9878],[-72.1642,18.4697,288.662],[-72.1593,18.4687,290.6485],[-72.1607,18.4649,308.5334],[-72.1589,18.4599,317.948],[-72.1596,18.4522,378.2389],[-72.1612,18.4505,365.8191],[-72.1703,18.4481,381.2874],[-72.172,18.4462,388.4833],[-72.1754,18.4462,353.2731],[-72.1763,18.4428,378.8316],[-72.1737,18.4389,389.0767],[-72.1789,18.4365,372.6778],[-72.1795,18.4346,366.3231],[-72.1786,18.43,399.4015],[-72.1738,18.4351,399.2213],[-72.1709,18.432,435.9906],[-72.1667,18.4336,407.3013],[-72.1649,18.4297,427.2964],[-72.1727,18.4294,441.6948],[-72.1724,18.424,435.3661],[-72.177,18.4211,462.7037],[-72.1782,18.4176,444.0676],[-72.1822,18.4194,447.3837],[-72.1922,18.4195,550.3911],[-72.1949,18.4208,649.1754],[-72.196,18.4184,515.9111],[-72.1982,18.4186,627.6304],[-72.2017,18.4128,623.5733],[-72.2053,18.4113,606.0098],[-72.206,18.408,520.9982],[-72.2103,18.4044,521.7293],[-72.2073,18.4009,602.1218],[-72.2029,18.3902,700.6812],[-72.2045,18.3836,766.5869],[-72.2016,18.3786,878.8071],[-72.2045,18.365,1209.2993],[-72.2015,18.3604,1409.2166],[-72.1994,18.3522,2046.9587],[-72.1899,18.3532,1969.0972],[-72.182,18.3477,1937.8466],[-72.1759,18.3459,1704.5225],[-72.1715,18.3475,1562.5281],[-72.1563,18.348,1808.5867],[-72.1472,18.3456,1787.295],[-72.1373,18.3393,1859.3376],[-72.1276,18.3364,1879.6881],[-72.1158,18.3369,1904.549],[-72.1061,18.3354,1872.4426],[-72.0902,18.3375,1786.3644],[-72.084,18.3347,1666.4542],[-72.0755,18.3244,1548.5406],[-72.0674,18.3202,1380.7856],[-72.0647,18.3199,1439.4017],[-72.0558,18.3264,1836.5472],[-72.0482,18.325,1879.2764],[-72.0457,18.3204,1830.2443],[-72.0418,18.3206,1909.8571],[-72.0396,18.323,1896.3727],[-72.0392,18.3275,1922.9287],[-72.0327,18.3196,1844.3323],[-72.0126,18.3169,1587.0013],[-72.0039,18.3178,1675.5206],[-72.0022,18.3115,1555.293],[-71.9858,18.3148,1811.4943],[-71.9742,18.3128,1839.7937],[-71.9661,18.3161,1913.1041],[-71.9526,18.3173,1796.6917],[-71.9336,18.3069,1660.449],[-71.9269,18.3114,1615.0164],[-71.904,18.3179,1676.7477],[-71.8938,18.3172,1686.0388],[-71.8836,18.3216,1675.7949],[-71.8716,18.3241,1610.6099],[-71.862,18.3191,1424.6589],[-71.8639,18.315,1296.0118],[-71.8634,18.3114,1233.3777],[-71.867,18.3055,1232.532],[-71.8646,18.2935,993.9423],[-71.8702,18.2855,855.8857],[-71.8679,18.282,795.6717],[-71.8701,18.2732,722.7382],[-71.8607,18.2774,798.864],[-71.8554,18.2749,887.1064],[-71.8461,18.2755,953.2008],[-71.838,18.2827,1053.0345],[-71.8284,18.2787,1152.5513],[-71.8199,18.2789,1150.6804],[-71.8151,18.2828,1178.7793],[-71.8102,18.2836,1224.6296],[-71.8062,18.2864,1247.2976],[-71.7887,18.2866,1644.245],[-71.7858,18.2836,1647.2087],[-71.7803,18.2829,1687.6083],[-71.765,18.2888,1736.0916],[-71.7568,18.2897,1822.7242],[-71.7504,18.2924,1805.0099],[-71.7395,18.2903,2043.4733],[-71.7198,18.2916,2275.3413],[-71.688,18.3427,874.0037],[-71.7889,18.381,510.4033],[-71.7995,18.3923,385.7083],[-71.7975,18.395,329.3357],[-71.8117,18.3996,550.5508],[-71.8238,18.4004,536.2538],[-71.8305,18.419,404.9717],[-71.838,18.4311,565.8186],[-71.8596,18.4404,789.4458],[-71.871,18.4481,350.9388],[-71.8992,18.459,616.6696],[-71.9084,18.4861,346.6592],[-71.8807,18.4902,21.9058],[-71.8808,18.4917,20.0],[-71.875,18.4928,20.0],[-71.8758,18.5056,44.9188],[-71.9504,18.5813,20.0],[-71.9607,18.6054,39.88],[-71.9627,18.6073,29.5229],[-71.9709,18.6073,63.1193],[-71.9756,18.6127,109.9893],[-71.9776,18.6127,96.2346],[-71.9815,18.6213,316.6309],[-71.9909,18.6193,118.0229]]]]}}