{"type": "Feature","bbox": [-63.1219,18.1728,-63.0763,18.2005],"geometry": {"type": "MultiPolygon","coordinates": [[[[-63.0763,18.1863,18.3745],[-63.0765,18.1963,47.0339],[-63.0784,18.2005,28.63],[-63.0851,18.1965,49.2196],[-63.1048,18.1954,22.5626],[-63.1219,18.1925,0.0],[-63.1208,18.1728,1.1096],[-63.1052,18.1837,4.8602],[-63.0763,18.1863,18.3745]]]]}
,"properties": {"GID_1": "AIA.9_1","GID_0": "AIA","country": "Anguilla","state": "SouthHill","VARNAME_1": "NA","NL_NAME_1": "NA","TYPE_1": "District","ENGTYPE_1": "District","CC_1": "NA","HASC_1": "AI.SO","ISO_1": "NA","name": "SouthHill.state","area_km2": 6.90898,"hist_schema_id": "Elevation0-9000","hist_area_km2": {"0": 1.309311,"25": 3.565295,"50": 2.034374}}}