{"type":"Feature","properties":{"ISO3166-1-Alpha-3":"DMA","country":"Dominica","fill":"#00F","id":"1439","name":"Saint Patrick"},
"geometry":{"type": "Polygon","coordinates": [[[-61.34638,15.2117,135.2966],[-61.34594,15.21235,233.7995],[-61.34268,15.21967,212.1337],[-61.32872,15.22557,193.3843],[-61.3236,15.23859,165.0302],[-61.31819,15.24339,92.0894],[-61.31188,15.24453,22.1304],[-61.30337,15.24258,0.0],[-61.2932,15.24388,9.0196],[-61.2893,15.2436,71.039],[-61.28441,15.24482,28.3868],[-61.27721,15.25023,179.2891],[-61.25666,15.28535,237.8978],[-61.25373,15.32469,152.0983],[-61.25406,15.33266,95.6223],[-61.29638,15.3255,871.5614],[-61.30018,15.32359,1003.9438],[-61.30822,15.31666,810.9868],[-61.30462,15.3141,872.5251],[-61.30416,15.31354,885.1958],[-61.30431,15.31204,934.3094],[-61.31659,15.29222,897.5693],[-61.31946,15.28951,830.8803],[-61.32346,15.28679,689.5062],[-61.33271,15.28209,1043.7043],[-61.34266,15.27434,569.9316],[-61.35661,15.2538,411.5979],[-61.35566,15.2438,490.7033],[-61.34638,15.2117,135.2966]]]}}