{"type": "Feature","bbox": [-61.3466,15.2118,-61.241,15.3432],"geometry": {"type": "MultiPolygon","coordinates": [[[[-61.3013,15.3247,973.2104],[-61.299,15.3233,1031.8268],[-61.2985,15.3207,994.2504],[-61.3027,15.3175,891.872],[-61.3033,15.3112,934.3094],[-61.3104,15.2972,691.0894],[-61.3244,15.2883,767.9437],[-61.3301,15.2872,1006.3846],[-61.3371,15.2798,697.6728],[-61.3398,15.2743,614.6401],[-61.3444,15.2706,518.1968],[-61.3442,15.2655,441.7684],[-61.3466,15.2602,517.3027],[-61.3444,15.241,548.4727],[-61.3368,15.225,611.7608],[-61.3338,15.2121,100.0804],[-61.3307,15.2129,42.822],[-61.3296,15.2118,0.0],[-61.3296,15.2143,3.0381],[-61.3318,15.2149,47.7921],[-61.331,15.216,5.5287],[-61.3321,15.2165,105.7055],[-61.3307,15.2201,49.2967],[-61.3257,15.2238,51.2881],[-61.3157,15.2265,9.631],[-61.3135,15.2293,0.0],[-61.3135,15.2374,5.1001],[-61.3101,15.2432,6.6775],[-61.3057,15.2451,1.7246],[-61.2988,15.2451,2.9107],[-61.2976,15.2437,0.0],[-61.2929,15.2437,26.4739],[-61.2899,15.2399,0.0],[-61.2837,15.2437,0.0],[-61.2765,15.2424,13.6166],[-61.2704,15.2437,0.0],[-61.2596,15.2507,5.5845],[-61.2599,15.2546,31.2977],[-61.2576,15.2571,0.0],[-61.2571,15.2707,0.0],[-61.254,15.2754,1.4704],[-61.2546,15.2785,3.3321],[-61.2521,15.2799,9.329],[-61.2549,15.2829,63.9793],[-61.2451,15.2874,1.6216],[-61.2468,15.2876,78.9577],[-61.246,15.2901,93.9886],[-61.2446,15.2901,2.0163],[-61.2465,15.2929,17.9971],[-61.2457,15.2962,19.7412],[-61.2482,15.2971,5.5218],[-61.2485,15.299,45.3486],[-61.2463,15.3001,0.0],[-61.2454,15.3035,0.0],[-61.2457,15.3157,59.2058],[-61.2438,15.3243,59.8455],[-61.241,15.3279,7.054],[-61.241,15.3326,7.9856],[-61.2449,15.3368,16.6962],[-61.2465,15.3432,1.1473],[-61.2627,15.3405,167.9114],[-61.2689,15.3374,222.3996],[-61.2922,15.3352,625.3433],[-61.2955,15.3298,715.0975],[-61.2991,15.3281,766.5694],[-61.3013,15.3247,973.2104]]]]}
,"properties": {"GID_1": "DMA.8_1","GID_0": "DMA","country": "Dominica","province": "SaintPatrick","VARNAME_1": "NA","NL_NAME_1": "NA","TYPE_1": "Parish","ENGTYPE_1": "Parish","CC_1": "NA","HASC_1": "DM.PK","ISO_1": "DM-09","name": "Saint_Patrick.province","area_km2": 87.82303,"hist_schema_id": "Elevation0-9000","hist_area_km2": {"0": 1.28861,"25": 1.65672,"50": 2.20886,"75": 2.78156,"100": 2.98613,"125": 3.10889,"150": 2.86349,"175": 3.10893,"200": 3.45663,"225": 2.86347,"250": 3.00666,"275": 3.06792,"300": 2.88394,"325": 3.31341,"350": 2.59757,"375": 2.10662,"400": 3.02701,"425": 2.94519,"450": 2.82249,"475": 3.14966,"500": 2.86329,"525": 2.802,"550": 2.53607,"575": 2.47469,"600": 2.51559,"625": 2.55645,"650": 2.55642,"675": 1.96333,"700": 1.53385,"725": 1.63611,"750": 1.63607,"775": 1.26798,"800": 1.20661,"825": 1.00207,"850": 0.98164,"875": 0.65442,"900": 0.44991,"925": 0.73621,"950": 0.30674,"975": 0.26585,"1000": 0.26584,"1025": 0.0818,"1050": 0.14315,"1075": 0.06135,"1100": 0.0409,"1125": 0.02045,"1150": 0.02045}}}