{"type":"Feature","properties":{"GID_1":"PRI.57_1","GID_0":"PRI","country":"PuertoRico","province":"Peñuelas","VARNAME_1":"NA","NL_NAME_1":"NA","TYPE_1":"Municipio","ENGTYPE_1":"Municipality","CC_1":"NA","HASC_1":"PR.PN","ISO_1":"NA","name":"Peñuelas.province"},
"geometry":{"type": "MultiPolygon","coordinates": [[[[-66.7507,17.9671,0.0],[-66.7549,17.966,0.0],[-66.7499,17.9646,0.0],[-66.749,17.9662,0.0],[-66.7507,17.9671,0.0]]],
[[[-66.7487,17.9757,0.0],[-66.7507,17.976,0.0],[-66.751,17.974,0.0],[-66.7454,17.9721,0.0],[-66.7435,17.9729,0.0],[-66.746,17.9751,1.2603],[-66.7487,17.9757,0.0]]],
[[[-66.736,17.9846,0.199],[-66.7376,17.9851,0.199],[-66.7424,17.9801,0.0],[-66.7365,17.981,0.0],[-66.7351,17.9829,0.0],[-66.736,17.9846,0.199]]],
[[[-66.731,17.9721,0.0],[-66.734,17.9715,0.0],[-66.7337,17.9671,0.0],[-66.731,17.9671,0.0],[-66.731,17.9721,0.0]]],
[[[-66.7157,17.9785,0.0],[-66.7157,17.9801,0.0],[-66.7179,17.9804,0.0],[-66.7187,17.9776,0.3462],[-66.7174,17.9774,0.3462],[-66.7157,17.9785,0.0]]],
[[[-66.767,18.1349,1018.8632],[-66.7691,18.1348,1037.004],[-66.7686,18.1272,988.1974],[-66.7649,18.1225,959.3213],[-66.7611,18.112,916.2972],[-66.7657,18.1063,799.0941],[-66.7647,18.1005,697.9468],[-66.7697,18.0867,527.7837],[-66.7659,18.0795,332.6385],[-66.7663,18.0748,240.54],[-66.7691,18.0709,183.071],[-66.7689,18.0552,92.2128],[-66.7665,18.0399,86.2471],[-66.7651,18.039,86.2471],[-66.7556,18.0562,186.5225],[-66.7467,18.0448,157.5377],[-66.7389,18.0473,216.5535],[-66.7361,18.0425,219.692],[-66.742,18.0306,156.8334],[-66.7331,18.0173,112.0446],[-66.7345,18.0139,103.9714],[-66.7483,18.011,91.7445],[-66.7568,17.996,0.0],[-66.7613,17.9949,0.4212],[-66.7649,17.9965,0.0],[-66.7637,17.994,0.0],[-66.7579,17.994,2.1103],[-66.7557,17.9876,1.947],[-66.7588,17.9818,1.5394],[-66.7618,17.9849,0.0],[-66.7637,17.9835,0.4406],[-66.7637,17.9804,0.0],[-66.7599,17.9793,1.2313],[-66.7588,17.9765,0.0],[-66.7607,17.974,0.0],[-66.7618,17.9746,0.0],[-66.7621,17.9724,0.0],[-66.7568,17.9771,3.799],[-66.7546,17.9768,0.0],[-66.7532,17.9865,0.0],[-66.7457,17.9901,0.0],[-66.739,17.9904,0.0],[-66.7357,17.9888,1.8851],[-66.7332,17.9912,1.1888],[-66.7318,17.991,1.1888],[-66.731,17.9868,0.0],[-66.7304,17.9918,0.4388],[-66.7232,17.9915,0.5293],[-66.7193,17.989,0.0],[-66.7165,17.9899,1.3724],[-66.7143,17.9882,0.5923],[-66.714,17.9854,0.0],[-66.7121,17.9849,3.063],[-66.7112,17.9807,0.7893],[-66.7085,17.9796,0.0],[-66.7046,17.981,6.6934],[-66.7018,17.9776,3.1778],[-66.6987,17.9771,14.5197],[-66.6983,17.9813,96.5425],[-66.6932,17.9837,126.2066],[-66.6868,17.9909,147.4642],[-66.6878,17.999,218.1843],[-66.6901,18.0038,206.2564],[-66.6865,18.0157,236.5578],[-66.6894,18.03,115.0646],[-66.6895,18.0401,143.7771],[-66.6872,18.0539,245.7876],[-66.6795,18.0716,205.8514],[-66.6788,18.1036,663.3701],[-66.6943,18.1307,960.1069],[-66.7104,18.1282,927.1054],[-66.7137,18.132,891.808],[-66.7173,18.1314,936.6316],[-66.7187,18.1276,883.2164],[-66.726,18.1199,865.7467],[-66.7251,18.1171,877.0285],[-66.7274,18.1132,919.2928],[-66.7325,18.1122,903.6751],[-66.7394,18.117,883.5813],[-66.7505,18.114,875.6454],[-66.7594,18.1292,880.4451],[-66.767,18.1349,1018.8632]]]]}}