{"type": "Feature","bbox": [-78.4523,21.5411,-78.1392,21.7976],"geometry": {"type": "MultiPolygon","coordinates": [[[[-78.3421,21.7515,61.8351],[-78.342,21.7448,62.9123],[-78.3354,21.7166,77.2273],[-78.3353,21.7083,68.8342],[-78.3386,21.7033,64.7742],[-78.3537,21.6922,59.7579],[-78.3588,21.6833,53.0795],[-78.3654,21.664,59.6134],[-78.3721,21.6531,66.6375],[-78.3779,21.6483,56.8859],[-78.3872,21.6464,53.0484],[-78.418,21.6472,44.2543],[-78.435,21.6441,36.3864],[-78.4443,21.6384,30.3308],[-78.45,21.6288,30.2478],[-78.4523,21.6132,24.9612],[-78.4011,21.5655,39.4965],[-78.362799999999993,21.547,52.3254],[-78.3443,21.5411,52.3586],[-78.312,21.5556,58.339],[-78.2691,21.5843,75.084],[-78.2396,21.5984,89.0395],[-78.2203,21.6147,83.7894],[-78.2028,21.6255,86.0817],[-78.1967,21.6449,89.8374],[-78.1885,21.6582,83.1464],[-78.1729,21.6672,74.5075],[-78.1474,21.6766,64.5601],[-78.1471,21.7102,61.6399],[-78.1392,21.7369,63.5529],[-78.1404,21.7634,47.1036],[-78.1496,21.7757,47.319],[-78.1698,21.7868,52.584],[-78.1743,21.7913,53.8574],[-78.1906,21.7855,65.7909],[-78.1952,21.781,71.0401],[-78.1951,21.7719,67.5022],[-78.1918,21.7637,69.5],[-78.1927,21.7575,73.9756],[-78.2029,21.7565,77.021],[-78.2173,21.7628,85.1699],[-78.226,21.7636,87.9599],[-78.2322,21.762,81.4871],[-78.2482,21.75,72.5558],[-78.2547,21.7479,74.6194],[-78.2612,21.7493,72.0483],[-78.266,21.7531,69.3075],[-78.2896,21.7938,51.1071],[-78.2943,21.7976,52.1911],[-78.3005,21.7975,51.5836],[-78.3369,21.778199999999998,55.8747],[-78.3422,21.7596,64.0522],[-78.3421,21.7515,61.8351]]]]}
,"properties": {"GID_2": "CUB.1.2_1","GID_0": "CUB","country": "Cuba","GID_1": "CUB.1_1","province": "Camagüey","NL_NAME_1": "NA","county": "CarlosManueldeCéspedes","VARNAME_2": "NA","NL_NAME_2": "NA","TYPE_2": "Municipio","ENGTYPE_2": "Municipality","CC_2": "NA","HASC_2": "CU.CM.CC","name": "Carlos_Manuelde_Céspedes.county","area_km2": 488.6777,"hist_schema_id": "Elevation0-9000","hist_area_km2": {"25": 14.0747,"50": 155.118,"75": 282.5264,"100": 36.9585}}}