{"type": "Feature","bbox": [-72.8907,19.5132,-72.7121,19.7319],"geometry": {"type": "MultiPolygon","coordinates": [[[[-72.7836,19.5289,443.7324],[-72.7781,19.52,530.3243],[-72.7658,19.5132,630.6661],[-72.7626,19.514,756.6864],[-72.7506,19.523,660.2862],[-72.7409,19.5217,691.7905],[-72.7299,19.5314,363.113],[-72.7304,19.534,408.5638],[-72.7281,19.5363,429.9767],[-72.7306,19.5432,420.1854],[-72.7384,19.542,563.684],[-72.7426,19.5491,694.8409],[-72.7458,19.5509,738.8672],[-72.748,19.5589,850.3301],[-72.7423,19.5592,860.3553],[-72.7394,19.561,763.4703],[-72.7399,19.5674,715.3378],[-72.7438,19.5717,812.6544],[-72.7443,19.5752,843.4407],[-72.7346,19.5723,755.1506],[-72.7308,19.5765,779.4178],[-72.7216,19.5812,524.5773],[-72.7186,19.5855,578.2858],[-72.72,19.5896,663.4185],[-72.7231,19.59,688.0864],[-72.7292,19.5964,724.6517],[-72.7269,19.6023,649.163],[-72.7179,19.6033,495.8782],[-72.7147,19.608,392.0497],[-72.7149,19.6104,364.7114],[-72.7121,19.6122,331.7463],[-72.7138,19.6163,341.757],[-72.7206,19.6201,384.6122],[-72.7322,19.6202,596.9767],[-72.7451,19.6239,555.6733],[-72.7495,19.6231,518.347],[-72.7518,19.6284,470.0088],[-72.7542,19.6295,484.2151],[-72.7757,19.6278,780.1556],[-72.7831,19.6295,951.9752],[-72.7899,19.6267,686.0587],[-72.7943,19.6274,701.7396],[-72.798,19.6321,711.7525],[-72.8019,19.6416,582.4669],[-72.8021,19.6492,508.0594],[-72.8001,19.6565,539.8296],[-72.7848,19.6777,502.4638],[-72.7982,19.685,507.894],[-72.8012,19.6813,559.4825],[-72.8082,19.6832,537.8502],[-72.8201,19.6899,751.5299],[-72.8239,19.6942,726.604],[-72.8304,19.6966,755.8558],[-72.8271,19.7003,702.7354],[-72.8249,19.7074,532.5105],[-72.8257,19.7088,538.1196],[-72.8215,19.7136,502.2231],[-72.8261,19.7157,536.6202],[-72.8308,19.7228,506.5669],[-72.8328,19.723,572.2612],[-72.8291,19.7315,499.6466],[-72.8353,19.7319,651.236],[-72.8384,19.7298,661.1903],[-72.8377,19.7209,573.7312],[-72.8402,19.7162,568.8964],[-72.8466,19.7132,723.3065],[-72.8581,19.7128,546.2822],[-72.8504,19.7015,711.4092],[-72.8515,19.6962,896.5201],[-72.8553,19.69,1030.1182],[-72.8712,19.6819,529.5354],[-72.8762,19.6825,518.1969],[-72.8787,19.6796,410.3787],[-72.8787,19.6761,349.6037],[-72.8726,19.6734,350.3834],[-72.8576,19.6713,377.6454],[-72.8545,19.6631,256.0539],[-72.8586,19.6601,228.3928],[-72.8678,19.6581,211.8735],[-72.8744,19.6466,181.8506],[-72.8774,19.6469,177.6001],[-72.8798,19.6443,163.9186],[-72.8832,19.6467,155.4831],[-72.8907,19.6446,138.9894],[-72.8883,19.6417,151.2544],[-72.8807,19.6387,159.9301],[-72.882,19.634,167.0047],[-72.878,19.6356,187.1901],[-72.8763,19.6313,193.7539],[-72.8569,19.6191,448.1121],[-72.8386,19.6029,739.2557],[-72.8383,19.6006,767.7761],[-72.8204,19.5938,890.0369],[-72.8259,19.5872,698.0837],[-72.8324,19.585,541.606],[-72.8331,19.5811,365.7246],[-72.8408,19.5791,276.1099],[-72.8452,19.5762,150.1921],[-72.8431,19.574,230.172],[-72.8393,19.5754,207.9054],[-72.8363,19.5735,174.2517],[-72.8288,19.5585,280.3168],[-72.819,19.5472,229.0308],[-72.8187,19.5446,252.6284],[-72.8134,19.5453,250.2072],[-72.8088,19.5442,169.4437],[-72.8042,19.5407,180.5004],[-72.7987,19.5419,245.1978],[-72.7887,19.5386,392.8996],[-72.7836,19.5289,443.7324]]]]}
,"properties": {"GID_3": "HTI.3.2.3_1","GID_0": "HTI","country": "Haiti","GID_1": "HTI.3_1","province": "L'Artibonite","NL_NAME_1": "NA","GID_2": "HTI.3.2_1","county": "Gros-Morne","NL_NAME_2": "NA","city": "TerreNeuve","VARNAME_3": "NA","NL_NAME_3": "NA","TYPE_3": "Commune","ENGTYPE_3": "Commune","CC_3": "NA","HASC_3": "NA","name": "Terre_Neuve.city","area_km2": 181.4887,"hist_schema_id": "Elevation0-9000","hist_area_km2": {"150": 0.5193,"175": 1.4381,"200": 2.976,"225": 4.0345,"250": 5.2129,"275": 4.2939,"300": 4.114,"325": 4.5733,"350": 4.1739,"375": 3.7746,"400": 4.6533,"425": 4.7732,"450": 5.8914,"475": 7.6086,"500": 7.4491,"525": 8.1478,"550": 8.3874,"575": 7.988,"600": 8.0482,"625": 7.2895,"650": 7.3095,"675": 8.3685,"700": 8.3287,"725": 8.1695,"750": 8.5892,"775": 8.4297,"800": 6.6118,"825": 4.4345,"850": 3.3159,"875": 3.316,"900": 3.0363,"925": 2.1174,"950": 1.598,"975": 1.0585,"1000": 0.6592,"1025": 0.4993,"1050": 0.1998,"1075": 0.0999}}}