{"type": "Feature","bbox": [-75.7769,20.786,-75.5504,20.9009],"geometry": {"type": "MultiPolygon","coordinates": [[[[-75.7567,20.8393,1.5552],[-75.7546,20.8388,2.0039],[-75.7546,20.8368,0.0],[-75.7515,20.8371,2.488],[-75.7404,20.8329,0.0],[-75.7418,20.8279,6.9573],[-75.7451,20.826,0.0],[-75.7435,20.8229,0.0],[-75.734,20.8282,0.612],[-75.7282,20.8282,1.6946],[-75.7251,20.8243,2.2323],[-75.7207,20.8263,2.8162],[-75.7179,20.8251,0.0],[-75.7162,20.8276,0.0],[-75.7196,20.8332,0.5069],[-75.7157,20.831,1.0359],[-75.7138,20.8343,1.5882],[-75.7149,20.8365,0.6572],[-75.7113,20.8365,3.087],[-75.7113,20.834,1.9684],[-75.7068,20.8337,1.8023],[-75.7057,20.8376,2.5705],[-75.7054,20.8337,1.8023],[-75.7068,20.8321,1.8023],[-75.7082,20.8332,1.0943],[-75.7113,20.8324,0.0],[-75.7113,20.8293,0.0],[-75.7093,20.8235,1.0902],[-75.7074,20.8226,0.0],[-75.7071,20.8274,1.6331],[-75.7029,20.8293,1.8296],[-75.7046,20.8243,0.0],[-75.7012,20.824,4.3703],[-75.7021,20.8171,1.1963],[-75.6954,20.821,5.3289],[-75.6935,20.8193,0.4911],[-75.6871,20.8263,1.2071],[-75.6888,20.8329,0.0],[-75.6865,20.8362,0.0],[-75.6904,20.8401,1.2842],[-75.6896,20.8412,1.2142],[-75.6851,20.8388,1.6114],[-75.6857,20.8324,0.4899],[-75.681,20.831,0.0],[-75.6815,20.8371,4.0876],[-75.6779,20.8388,2.1935],[-75.6782,20.8365,4.6657],[-75.6804,20.8362,2.1729],[-75.6782,20.8337,0.0],[-75.6643,20.8285,0.0],[-75.6612,20.8296,0.3628],[-75.6601,20.8329,0.5141],[-75.6532,20.8399,0.0],[-75.6537,20.8424,0.0],[-75.6604,20.8451,6.4759],[-75.661,20.8471,2.1501],[-75.659,20.8479,0.0],[-75.6524,20.8443,0.0],[-75.6488,20.8457,2.3581],[-75.6513,20.8435,3.4822],[-75.6513,20.8415,2.0547],[-75.6485,20.8365,0.0],[-75.6376,20.8357,3.8866],[-75.6346,20.8324,3.8353],[-75.6318,20.8249,0.0],[-75.6282,20.8274,0.0],[-75.6276,20.8296,1.2945],[-75.6237,20.8312,0.996],[-75.624,20.8332,1.753],[-75.626,20.8332,3.2226],[-75.6249,20.8374,0.0],[-75.6285,20.841,0.0],[-75.6318,20.8393,3.8386],[-75.6349,20.8401,5.4689],[-75.6393,20.846,1.8145],[-75.636,20.8446,0.6642],[-75.6304,20.8454,1.886],[-75.6299,20.8432,0.0],[-75.6288,20.8449,0.0],[-75.6299,20.8463,0.5782],[-75.6265,20.8482,0.0],[-75.6246,20.8482,0.0],[-75.6265,20.8451,0.0],[-75.6251,20.8446,0.792],[-75.6193,20.8482,1.0],[-75.6168,20.8418,2.4779],[-75.6176,20.839,0.0],[-75.6126,20.8365,5.9122],[-75.6049,20.8293,0.5662],[-75.6087,20.8288,0.0],[-75.6085,20.8268,0.6622],[-75.6001,20.8268,2.7656],[-75.6018,20.8226,5.3064],[-75.6096,20.821,1.8196],[-75.6029,20.8113,1.8217],[-75.5999,20.8104,0.0],[-75.6007,20.8168,6.4366],[-75.5987,20.8196,2.767],[-75.5982,20.8151,0.775],[-75.5937,20.8151,6.9886],[-75.5863,20.8101,5.6006],[-75.5826,20.8021,6.6165],[-75.5851,20.7974,5.5068],[-75.5776,20.7899,5.9397],[-75.5629,20.786,2.5989],[-75.5524,20.7882,1.5036],[-75.5512,20.7951,4.8308],[-75.5532,20.8037,5.4617],[-75.551,20.8099,0.0],[-75.5518,20.8246,5.6047],[-75.5504,20.8276,0.0],[-75.5535,20.8299,0.5983],[-75.5724,20.8312,3.5903],[-75.5751,20.8351,1.0925],[-75.5749,20.8479,0.0],[-75.5779,20.8532,2.8729],[-75.5935,20.8593,0.3388],[-75.599,20.8662,0.4339],[-75.6118,20.8738,0.0],[-75.6299,20.8749,1.7195],[-75.639,20.8729,4.0548],[-75.6499,20.8743,0.0],[-75.6546,20.8726,2.9134],[-75.6582,20.8746,6.789],[-75.6626,20.8801,4.3265],[-75.6679,20.8788,0.0],[-75.6701,20.8746,6.9773],[-75.6729,20.8746,2.1194],[-75.6746,20.8807,11.0249],[-75.6768,20.8813,0.0],[-75.6801,20.8785,15.68],[-75.6785,20.8751,19.2747],[-75.6801,20.8724,14.8079],[-75.6787,20.869,1.8946],[-75.6746,20.8679,5.6929],[-75.6721,20.8657,25.3348],[-75.6715,20.8613,0.978],[-75.674,20.859,0.8449],[-75.6771,20.8604,1.7721],[-75.6726,20.8649,0.5],[-75.6754,20.8674,5.6929],[-75.6801,20.8682,24.2557],[-75.6818,20.8738,0.0],[-75.6837,20.8729,11.576],[-75.681,20.8771,5.9587],[-75.6818,20.8815,0.0],[-75.684,20.8838,0.0],[-75.6965,20.8715,6.9211],[-75.6979,20.8685,39.1844],[-75.7057,20.871,1.3582],[-75.711,20.8696,12.3502],[-75.714,20.8718,17.3452],[-75.7185,20.8713,0.0],[-75.7207,20.8687,0.0],[-75.7196,20.8646,0.9071],[-75.7224,20.8607,0.0],[-75.7221,20.8574,0.0],[-75.7237,20.8565,0.0],[-75.7265,20.8649,1.1748],[-75.7343,20.8707,0.7954],[-75.7324,20.8724,4.1411],[-75.7326,20.8768,3.557],[-75.7254,20.879,0.0],[-75.7262,20.8813,1.8103],[-75.7412,20.884,0.0],[-75.7496,20.8807,0.0],[-75.751,20.8771,0.0],[-75.7535,20.8774,1.1024],[-75.7579,20.8826,0.76],[-75.7574,20.8838,1.7811],[-75.7524,20.8835,0.0],[-75.7524,20.891,0.0],[-75.7493,20.8954,0.8632],[-75.7485,20.9009,0.0],[-75.7731,20.9004,7.0782],[-75.7769,20.8956,14.4445],[-75.7768,20.8876,3.2373],[-75.7665,20.8536,12.5451],[-75.7567,20.8393,1.5552]]]]}
,"properties": {"GID_2": "CUB.7.1_1","GID_0": "CUB","country": "Cuba","GID_1": "CUB.7_1","province": "Holguín","NL_NAME_1": "NA","county": "Antilla","VARNAME_2": "NA","NL_NAME_2": "NA","TYPE_2": "Municipio","ENGTYPE_2": "Municipality","CC_2": "NA","HASC_2": "CU.HO.AN","name": "Antilla.county","area_km2": 114.72351,"hist_schema_id": "Elevation0-9000","hist_area_km2": {"0": 70.77565,"25": 30.19648,"50": 12.40404,"75": 1.34734}}}