{"type":"Feature","properties":{"GID_2":"CUB.1.1_1","GID_0":"CUB","country":"Cuba","GID_1":"CUB.1_1","province":"Camagüey","NL_NAME_1":"NA","county":"Camagüey","VARNAME_2":"NA","NL_NAME_2":"NA","TYPE_2":"Municipio","ENGTYPE_2":"Municipality","CC_2":"NA","HASC_2":"CU.CM.CA","name":"Camagüey.county"},
"geometry":{"type": "MultiPolygon","coordinates": [[[[-78.2428,21.3706,48.0098],[-78.2065,21.3554,50.2285],[-78.1763,21.3048,46.8226],[-78.1534,21.3007,54.7321],[-78.1377,21.2922,59.8568],[-78.1365,21.2784,63.5511],[-78.1584,21.2385,54.1036],[-78.1584,21.2277,55.3722],[-78.1508,21.2134,59.9745],[-78.144,21.2071,61.5184],[-78.0969,21.1928,65.2279],[-78.0885,21.214,66.0788],[-78.0692,21.2349,79.2717],[-78.0602,21.2499,89.586],[-78.0494,21.2596,96.423],[-78.0318,21.2677,88.6509],[-78.0075,21.2714,78.073],[-77.9674,21.2852,76.0014],[-77.9468,21.2878,87.1631],[-77.9067,21.3016,93.0498],[-77.8842,21.3048,100.1597],[-77.8205,21.3342,125.8568],[-77.7889,21.326,104.6266],[-77.7689,21.3153,108.5161],[-77.7583,21.338,87.1556],[-77.7292,21.356,75.2885],[-77.7258,21.384,84.5325],[-77.7174,21.4084,100.9911],[-77.7084,21.4242,84.6776],[-77.7123,21.4473,86.8856],[-77.7182,21.4607,92.5014],[-77.7205,21.4779,74.4741],[-77.7238,21.4846,71.7875],[-77.7313,21.4902,72.466],[-77.7715,21.5076,75.3659],[-77.7776,21.5151,74.8217],[-77.7624,21.5467,58.0224],[-77.7371,21.5837,112.989],[-77.7671,21.5996,162.0608],[-77.7896,21.6184,165.8097],[-77.8048,21.625,172.3169],[-77.8115,21.625,214.2446],[-77.8234,21.6199,187.0323],[-77.8433,21.6054,103.1236],[-77.86,21.599,92.1412],[-77.8769,21.6052,93.8241],[-77.9027,21.626,89.0784],[-77.926,21.636,97.7793],[-77.9978,21.6366,127.5228],[-78.0435,21.6462,72.0057],[-78.0752,21.6028,68.6425],[-78.0843,21.5765,74.8863],[-78.0958,21.5229,88.2261],[-78.1049,21.4967,86.8415],[-78.1206,21.4685,74.0699],[-78.1355,21.459,71.0766],[-78.1857,21.435,63.1306],[-78.1937,21.4267,60.0821],[-78.2034,21.4106,61.2197],[-78.2428,21.3706,48.0098]]]]}}