{"type":"Feature","properties":{"GID_2":"BLM.2.8_1","GID_0":"BLM","country":"Saint-Barthélemy","GID_1":"BLM.2_1","province":"SousleVent","NL_NAME_1":"NA","county":"Flamands","VARNAME_2":"NA","NL_NAME_2":"NA","TYPE_2":"Quartier","ENGTYPE_2":"Quarter","CC_2":"NA","HASC_2":"NA","name":"Flamands.county"},
"geometry":{"type": "MultiPolygon","coordinates": [[[[-62.8591,17.9162,60.4345],[-62.8542,17.9159,58.9176],[-62.8541,17.9172,32.3262],[-62.8552,17.9196,0.0],[-62.8591,17.9193,3.0738],[-62.8618,17.9219,7.7714],[-62.8633,17.9199,53.9959],[-62.8591,17.9162,60.4345]]]]}}