{"type": "Feature","bbox": [-73.6198,18.2122,-73.4416,18.3422],"geometry": {"type": "MultiPolygon","coordinates": [[[[-73.5441,18.2745,344.2085],[-73.5483,18.2774,569.5941],[-73.5439,18.2782,557.4167],[-73.5392,18.2822,503.3304],[-73.5344,18.2804,432.7393],[-73.5309,18.2827,243.8022],[-73.5183,18.2854,24.4134],[-73.5156,18.2917,32.1018],[-73.5109,18.2917,42.9508],[-73.5043,18.2972,92.7523],[-73.4979,18.2979,85.9393],[-73.4964,18.3001,87.5332],[-73.4926,18.3005,107.1767],[-73.4898,18.31,134.2131],[-73.4801,18.3105,208.3753],[-73.479,18.3146,294.1879],[-73.4714,18.3192,297.4263],[-73.4656,18.3293,514.25],[-73.4618,18.3327,737.0712],[-73.4503,18.3328,1028.3844],[-73.4416,18.3407,907.3442],[-73.4546,18.3381,1076.5115],[-73.4704,18.3375,1064.5156],[-73.4718,18.3406,1203.6052],[-73.4821,18.3422,1150.9215],[-73.498,18.3372,1119.7914],[-73.5015,18.3327,1197.7783],[-73.5098,18.3288,955.2204],[-73.5126,18.3166,873.7637],[-73.5151,18.3128,856.2349],[-73.5252,18.3087,744.1938],[-73.5266,18.3059,701.2303],[-73.5239,18.302,329.4205],[-73.5249,18.2987,165.5133],[-73.5336,18.299,197.8791],[-73.5351,18.2947,84.6169],[-73.5341,18.2909,110.5423],[-73.5367,18.2886,308.7539],[-73.5417,18.289,226.9405],[-73.5613,18.3068,180.8709],[-73.5656,18.3131,113.8869],[-73.5666,18.3179,132.9019],[-73.564,18.3217,238.6584],[-73.5641,18.3262,361.8659],[-73.5653,18.3267,361.8659],[-73.571,18.3203,425.8589],[-73.5724,18.3217,470.9263],[-73.5746,18.3201,425.7517],[-73.5827,18.3205,390.1686],[-73.5818,18.3159,414.5999],[-73.5848,18.3157,357.4958],[-73.5887,18.309,343.7498],[-73.5882,18.3075,299.4393],[-73.5938,18.3019,283.7574],[-73.5892,18.2971,275.6816],[-73.5894,18.294,312.7437],[-73.581,18.2911,172.2153],[-73.5741,18.2922,60.336],[-73.5712,18.2901,34.5398],[-73.5819,18.2826,30.1309],[-73.5924,18.2649,10.9456],[-73.5922,18.2606,6.5315],[-73.5895,18.2577,7.3417],[-73.5933,18.2522,7.838],[-73.6001,18.2494,1.0544],[-73.6015,18.2506,0.6196],[-73.6028,18.2474,2.5196],[-73.6012,18.2429,0.1121],[-73.6043,18.241,15.9344],[-73.6085,18.2418,9.0871],[-73.6096,18.2371,0.0],[-73.6126,18.2371,0.0],[-73.6154,18.234,0.0],[-73.6162,18.2276,2.8015],[-73.615,18.2232,1.4334],[-73.6198,18.2195,0.2389],[-73.6196,18.2168,0.0],[-73.6105,18.2128,0.7465],[-73.6017,18.2122,0.459],[-73.5989,18.2145,0.8381],[-73.5954,18.2145,0.0],[-73.5904,18.219,43.836],[-73.5867,18.2201,0.0],[-73.5846,18.2243,0.0],[-73.5888,18.2321,7.3348],[-73.5876,18.2349,0.0],[-73.5851,18.2354,7.1412],[-73.5875,18.233,8.697],[-73.581,18.2286,0.0],[-73.5788,18.2173,1.4336],[-73.5726,18.2153,0.0],[-73.5671,18.215699999999998,0.0],[-73.5646,18.2182,0.0],[-73.5651,18.2207,0.9433],[-73.5596,18.2229,1.4732],[-73.5588,18.2274,0.0],[-73.5632,18.2363,0.0],[-73.5687,18.2399,3.2047],[-73.5749,18.2479,2.5466],[-73.5743,18.2525,7.1061],[-73.5629,18.2595,6.4811],[-73.5577,18.2567,0.0],[-73.5562,18.2601,1.1254],[-73.5523,18.259,0.379],[-73.5456,18.2604,0.0],[-73.5425,18.2644,15.4137],[-73.5441,18.2745,344.2085]]],
[[[-73.5507,18.2526,0.0],[-73.5529,18.2529,0.9143],[-73.5521,18.2493,0.0],[-73.5512,18.2493,0.0],[-73.5507,18.2526,0.0]]]]}
,"properties": {"GID_3": "HTI.10.1.3_1","GID_0": "HTI","country": "Haiti","GID_1": "HTI.10_1","province": "Sud","NL_NAME_1": "NA","GID_2": "HTI.10.1_1","county": "Aquin","NL_NAME_2": "NA","city": "Saint-JeanduSud","VARNAME_3": "NA","NL_NAME_3": "NA","TYPE_3": "Commune","ENGTYPE_3": "Commune","CC_3": "NA","HASC_3": "NA","name": "Saint-Jeandu_Sud.city","area_km2": 70.20076,"hist_schema_id": "Elevation0-9000","hist_area_km2": {"0": 5.19536,"25": 8.03422,"50": 6.86607,"75": 4.93317,"100": 4.24831,"125": 3.94605,"150": 2.91919,"175": 2.29495,"200": 2.21438,"225": 2.1741,"250": 2.25461,"275": 2.29485,"300": 1.97275,"325": 1.77142,"350": 1.38897,"375": 1.34866,"400": 1.42918,"425": 1.12723,"450": 0.94609,"475": 0.94611,"500": 0.74475,"525": 0.82529,"550": 0.68436,"575": 0.64411,"600": 0.34217,"625": 0.54345,"650": 0.42268,"675": 0.48305,"700": 0.34216,"725": 0.38242,"750": 0.5233,"775": 0.5233,"800": 0.36229,"825": 0.40254,"850": 0.36228,"875": 0.36228,"900": 0.32202,"925": 0.28176,"950": 0.40253,"975": 0.28176,"1000": 0.44277,"1025": 0.28176,"1050": 0.36226,"1075": 0.34214,"1100": 0.24151,"1125": 0.28176,"1150": 0.20126,"1175": 0.22138,"1200": 0.161,"1225": 0.12075}}}