{"type":"Feature","properties":{"GID_1":"BHS.20_1","GID_0":"BHS","country":"Bahamas","state":"Moore'sIsland","VARNAME_1":"NA","NL_NAME_1":"NA","TYPE_1":"District","ENGTYPE_1":"District","CC_1":"NA","HASC_1":"BS.MI","ISO_1":"NA","name":"Moore'sIsland.state"},
"geometry":{"type": "MultiPolygon","coordinates": [[[[-77.5685,26.2449,0.2087],[-77.5701,26.2454,0.1204],[-77.5715,26.2426,0.2593],[-77.5749,26.2421,0.0],[-77.5818,26.2365,1.478],[-77.5829,26.2315,0.3407],[-77.5685,26.2343,0.3185],[-77.5654,26.2396,0.0],[-77.5671,26.2426,0.0],[-77.566,26.2446,0.3861],[-77.5685,26.2449,0.2087]]],
[[[-77.5571,26.2393,0.0],[-77.5574,26.2418,0.3391],[-77.5599,26.2407,0.0],[-77.5596,26.2393,0.0],[-77.5571,26.2393,0.0]]],
[[[-77.5596,26.244,0.5584],[-77.5599,26.2468,0.4236],[-77.5649,26.2457,0.0571],[-77.5615,26.2418,0.0],[-77.5593,26.2426,0.0],[-77.5596,26.244,0.5584]]],
[[[-77.5621,26.2499,0.33],[-77.5638,26.2504,0.0668],[-77.5646,26.2496,0.0668],[-77.5621,26.2485,0.0],[-77.5621,26.2499,0.33]]],
[[[-77.5504,26.2321,0.0],[-77.5515,26.2343,0.0],[-77.554,26.2307,0.0],[-77.5612,26.2288,0.424],[-77.5549,26.2232,0.2325],[-77.5507,26.2226,0.0],[-77.5482,26.2251,0.0],[-77.5504,26.2321,0.0]]],
[[[-77.5546,26.2371,0.1166],[-77.5549,26.2382,0.1166],[-77.5579,26.2374,0.1571],[-77.5585,26.2351,0.0],[-77.5546,26.234,0.3219],[-77.5535,26.2354,0.3219],[-77.5546,26.2371,0.1166]]],
[[[-77.5707,26.3326,2.2416],[-77.5762,26.3329,1.18],[-77.5818,26.3288,0.2963],[-77.579,26.3243,0.8293],[-77.581,26.3215,0.2018],[-77.5724,26.3037,0.0],[-77.5693,26.3007,0.2998],[-77.5657,26.3007,1.1024],[-77.5626,26.2985,0.1907],[-77.5638,26.2924,0.0],[-77.5621,26.2865,0.482],[-77.5682,26.2735,0.6874],[-77.5696,26.2665,3.8748],[-77.5729,26.2657,0.3871],[-77.5732,26.269,0.0],[-77.5765,26.2701,0.4519],[-77.5821,26.2687,0.0],[-77.5782,26.266,0.2018],[-77.5762,26.2618,0.2928],[-77.579,26.2571,0.0],[-77.5818,26.256,0.1356],[-77.5799,26.254,0.2175],[-77.5729,26.2576,0.3638],[-77.5696,26.266,3.8748],[-77.5679,26.2563,0.0862],[-77.5638,26.2554,0.0],[-77.5646,26.2671,0.4056],[-77.5607,26.2776,0.8673],[-77.5579,26.2776,0.4671],[-77.5574,26.2738,0.0],[-77.5601,26.2738,0.0],[-77.5593,26.271,0.2236],[-77.5549,26.2726,0.0],[-77.5549,26.2749,0.0],[-77.5524,26.2763,1.1089],[-77.5504,26.2813,0.252],[-77.5457,26.2824,0.6706],[-77.5396,26.2871,0.8854],[-77.5365,26.299,1.9352],[-77.534,26.3013,0.0],[-77.5376,26.309,0.3346],[-77.5435,26.3154,0.3795],[-77.5521,26.319,-0.0318],[-77.5549,26.3226,0.0],[-77.566,26.3279,1.2662],[-77.5707,26.3326,2.2416]]]]}}