{"type": "Feature","bbox": [-69.6089,18.4772,-69.3719,18.8238],"geometry": {"type": "MultiPolygon","coordinates": [[[[-69.4488,18.8098,119.2963],[-69.4493,18.8209,191.6464],[-69.452,18.8236,217.1726],[-69.4559,18.8238,239.1488],[-69.4616,18.8136,228.5182],[-69.4687,18.8118,226.0717],[-69.4739,18.8047,189.471],[-69.4869,18.7973,119.1143],[-69.488,18.7885,103.0677],[-69.494,18.7692,92.2999],[-69.5066,18.7662,84.6214],[-69.5152,18.7519,80.8503],[-69.5281,18.7403,70.6523],[-69.5264,18.7273,68.0152],[-69.5357,18.6921,56.7547],[-69.5429,18.6836,54.179],[-69.5449,18.6747,49.5244],[-69.5518,18.6667,43.0958],[-69.5556,18.6584,38.855],[-69.5698,18.6506,35.023],[-69.578,18.6378,29.7013],[-69.5839,18.6342,34.8424],[-69.5856,18.6314,28.3722],[-69.5848,18.6252,30.3391],[-69.5817,18.6245,33.5308],[-69.5749,18.6266,27.9974],[-69.5711,18.6215,29.0721],[-69.5713,18.6161,28.707],[-69.5784,18.6085,27.4989],[-69.5796,18.604,25.0035],[-69.5758,18.5958,26.887],[-69.5687,18.5882,27.1298],[-69.5684,18.585,31.4281],[-69.5879,18.5509,23.0097],[-69.5892,18.5429,21.3048],[-69.592,18.5373,21.2094],[-69.6076,18.5289,21.2939],[-69.6089,18.5265,19.6734],[-69.6073,18.524,20.021],[-69.5978,18.5198,19.4899],[-69.5951,18.5171,19.3369],[-69.5949,18.5017,27.7014],[-69.5792,18.4938,27.8541],[-69.5682,18.4842,31.311],[-69.5549,18.478,33.3897],[-69.5066,18.4772,48.3297],[-69.4946,18.4826,49.6812],[-69.4731,18.4829,36.3094],[-69.4601,18.4856,40.4511],[-69.4462,18.4853,32.1376],[-69.431,18.4825,39.9522],[-69.4314,18.4901,36.9068],[-69.4379,18.5014,47.3723],[-69.4528,18.5064,41.0313],[-69.4651,18.5205,33.889],[-69.4838,18.5319,30.6158],[-69.4788,18.5455,29.7396],[-69.4814,18.5534,27.249],[-69.4819,18.5722,25.3749],[-69.493,18.5966,31.7519],[-69.4936,18.6086,38.113],[-69.492,18.6122,34.9318],[-69.4818,18.612,33.5725],[-69.4634,18.6018,30.6869],[-69.4473,18.6003,21.4294],[-69.445,18.5923,24.147],[-69.4415,18.5896,22.2004],[-69.435,18.5934,21.6942],[-69.4333,18.6007,18.8677],[-69.4297,18.6054,17.4903],[-69.4257,18.6086,20.3724],[-69.4222,18.6089,20.0763],[-69.417,18.6041,10.028],[-69.4155,18.5955,21.7549],[-69.4128,18.5908,30.0555],[-69.3959,18.5795,31.1135],[-69.3848,18.5835,19.8201],[-69.3745,18.5837,25.9881],[-69.3719,18.5902,11.7074],[-69.3721,18.5948,16.2334],[-69.3783,18.6056,26.4439],[-69.3931,18.6132,18.9862],[-69.4004,18.6229,15.9468],[-69.401,18.6275,9.7751],[-69.399,18.6345,29.7422],[-69.4048,18.6457,21.4663],[-69.4097,18.65,24.3924],[-69.4169,18.6609,15.409],[-69.4326,18.6739,22.4655],[-69.4302,18.6804,21.606],[-69.4208,18.6895,29.0566],[-69.4197,18.6932,29.5536],[-69.4249,18.7019,29.0219],[-69.4254,18.7355,44.3843],[-69.4289,18.7424,49.2615],[-69.4366,18.7514,50.6308],[-69.4346,18.7615,73.567],[-69.4373,18.7642,73.8475],[-69.4456,18.7652,68.507],[-69.4516,18.7679,76.875],[-69.4547,18.7719,80.6127],[-69.4518,18.7859,103.0526],[-69.4541,18.7937,94.2046],[-69.4542,18.8034,119.3891],[-69.4488,18.8098,119.2963]]]]}
,"properties": {"GID_2": "DOM.27.3_1","GID_0": "DOM","country": "DominicanRepublic","GID_1": "DOM.27_1","province": "SanPedrodeMacorís","NL_NAME_1": "NA","county": "LosLlanos","VARNAME_2": "SanJosédeLosLlanos","NL_NAME_2": "NA","TYPE_2": "Municipio","ENGTYPE_2": "Municipality","CC_2": "NA","HASC_2": "DO.PM.LL","name": "Los_Llanos.county","area_km2": 437.2809,"hist_schema_id": "Elevation0-9000","hist_area_km2": {"0": 5.3449,"25": 235.1751,"50": 127.072,"75": 53.8521,"100": 6.4235,"125": 3.9541,"150": 2.1276,"175": 1.7261,"200": 1.0437,"225": 0.4817,"250": 0.0602,"275": 0.0201}}}