{"type": "Feature","bbox": [-70.1353,19.1965,-69.7395,19.4898],"geometry": {"type": "MultiPolygon","coordinates": [[[[-69.7506,19.2209,3.7358],[-69.7463,19.2343,5.4604],[-69.7458,19.2555,3.523],[-69.7435,19.2618,2.0816],[-69.7428,19.2724,1.4097],[-69.7395,19.281,0.0],[-69.7632,19.2918,5.9603],[-69.7843,19.306,2.1553],[-69.7937,19.3151,9.9314],[-69.8057,19.3304,0.0],[-69.8063,19.3363,1.7122],[-69.8143,19.3415,4.2814],[-69.8154,19.3504,0.0],[-69.8249,19.3551,3.0088],[-69.826,19.3579,0.0],[-69.8388,19.3696,0.0],[-69.841,19.3693,2.083],[-69.8429,19.3754,4.59],[-69.8465,19.3799,2.0306],[-69.8465,19.394,0.0],[-69.8613,19.4157,0.0],[-69.8743,19.4457,4.4923],[-69.8763,19.4551,1.9264],[-69.876,19.4587,3.1549],[-69.8729,19.4615,0.2763],[-69.8732,19.4729,0.4026],[-69.8712,19.4771,0.0],[-69.8732,19.4801,1.0985],[-69.8913,19.4829,6.2027],[-69.9123,19.4776,2.5045],[-69.9254,19.4701,3.5356],[-69.9311,19.4699,3.5968],[-69.9397,19.4759,6.1947],[-69.945,19.4861,4.3985],[-69.9514,19.4892,3.1168],[-69.9572,19.4898,4.3486],[-69.959,19.4854,4.9172],[-69.9675,19.4763,10.0524],[-69.9929,19.4745,17.5457],[-69.9979,19.4753,26.4975],[-70.0107,19.4687,32.6062],[-70.0247,19.4735,19.88],[-70.0303,19.4788,27.6756],[-70.0466,19.487,31.2183],[-70.053,19.4874,35.2275],[-70.0598,19.4855,39.6715],[-70.0669,19.487,41.2472],[-70.0723,19.4796,50.9791],[-70.0735,19.4716,62.3823],[-70.0765,19.4663,69.0543],[-70.0881,19.4564,121.8481],[-70.0936,19.4492,71.5892],[-70.1189,19.4484,308.9213],[-70.128,19.4504,283.8613],[-70.1346,19.4405,295.051],[-70.1353,19.4297,133.4934],[-70.1305,19.4234,132.1591],[-70.1159,19.4209,180.8617],[-70.1103,19.4281,194.7184],[-70.1039,19.4288,157.3777],[-70.0921,19.4231,85.1631],[-70.0803,19.4249,63.2092],[-70.0766,19.4198,123.4819],[-70.0745,19.4031,105.0312],[-70.0763,19.3914,129.5343],[-70.0874,19.3803,187.6611],[-70.0884,19.3674,384.4884],[-70.0962,19.3578,617.4112],[-70.0996,19.3488,711.9883],[-70.0993,19.3442,594.168],[-70.0967,19.3415,543.5244],[-70.0893,19.3385,457.8146],[-70.0787,19.3374,415.5704],[-70.058,19.3274,179.6093],[-70.0306,19.3186,274.6539],[-69.9938,19.3118,416.5604],[-69.9852,19.3069,308.8124],[-69.967,19.3061,355.9573],[-69.9492,19.2979,177.5888],[-69.9461,19.2986,156.333],[-69.9453,19.3022,166.8138],[-69.9537,19.3104,205.8195],[-69.9535,19.3154,154.7476],[-69.948,19.32,168.0184],[-69.938,19.3196,356.387],[-69.9353,19.3251,393.2837],[-69.9285,19.3297,341.4827],[-69.9265,19.3377,167.7861],[-69.9213,19.3424,132.0163],[-69.912,19.3415,90.7258],[-69.8975,19.3479,88.5179],[-69.8883,19.3483,78.9478],[-69.8767,19.3403,35.8815],[-69.8667,19.3357,17.1099],[-69.8527,19.3366,1.2765],[-69.8442,19.3283,0.9309],[-69.8495,19.3197,1.7823],[-69.8532,19.3065,1.4685],[-69.8475,19.2955,1.235],[-69.8469,19.2792,2.5071],[-69.8413,19.267,3.2134],[-69.8422,19.263,3.558],[-69.8526,19.2492,5.5026],[-69.8586,19.2345,12.8644],[-69.8591,19.2297,17.5289],[-69.8541,19.2221,27.2065],[-69.8492,19.2187,9.0888],[-69.8409,19.2174,16.4646],[-69.8329,19.2111,6.9416],[-69.8184,19.2122,7.9023],[-69.8052,19.2059,3.8138],[-69.7977,19.1999,4.6771],[-69.7909,19.2003,3.0167],[-69.7819,19.1965,4.2199],[-69.7792,19.1985,9.0826],[-69.7746,19.2104,3.6616],[-69.7691,19.2159,2.7719],[-69.7653,19.2177,2.7405],[-69.756,19.2182,2.2954],[-69.7506,19.2209,3.7358]]]]}
,"properties": {"GID_2": "DOM.15.3_1","GID_0": "DOM","country": "DominicanRepublic","GID_1": "DOM.15_1","province": "MaríaTrinidadSánchez","NL_NAME_1": "NA","county": "Nagua","VARNAME_2": "NA","NL_NAME_2": "NA","TYPE_2": "Municipio","ENGTYPE_2": "Municipality","CC_2": "NA","HASC_2": "DO.MT.NA","name": "Nagua.county","area_km2": 557.1252,"hist_schema_id": "Elevation0-9000","hist_area_km2": {"0": 203.532,"25": 120.6773,"50": 64.9346,"75": 46.2428,"100": 35.7025,"125": 21.8812,"150": 9.921,"175": 6.6212,"200": 5.4009,"225": 4.4409,"250": 3.9009,"275": 4.5806,"300": 3.8807,"325": 3.9411,"350": 3.8614,"375": 3.2612,"400": 2.8211,"425": 2.4209,"450": 1.8207,"475": 1.8407,"500": 1.4405,"525": 1.0403,"550": 0.7002,"575": 0.6602,"600": 0.5401,"625": 0.3201,"650": 0.3601,"675": 0.2801,"700": 0.06,"725": 0.04}}}