{"type": "Feature","bbox": [-70.3674,19.1504,-70.012,19.5144],"geometry": {"type": "MultiPolygon","coordinates": [[[[-70.02,19.2755,352.7802],[-70.0189,19.2812,425.1602],[-70.012,19.2921,81.2592],[-70.0165,19.3006,152.7995],[-70.0163,19.316,366.8625],[-70.0306,19.3186,274.6539],[-70.058,19.3274,179.6093],[-70.0787,19.3374,415.5704],[-70.0907,19.3388,487.1699],[-70.0993,19.3442,594.168],[-70.0996,19.3488,711.9883],[-70.0962,19.3578,617.4112],[-70.0884,19.3674,384.4884],[-70.0874,19.3803,187.6611],[-70.0763,19.3914,129.5343],[-70.0745,19.4031,105.0312],[-70.0764,19.4191,123.4819],[-70.0803,19.4249,63.2092],[-70.0921,19.4231,85.1631],[-70.1039,19.4288,157.3777],[-70.1103,19.4281,194.7184],[-70.1126,19.4238,168.5504],[-70.1165,19.4208,180.8617],[-70.1326,19.4248,133.6449],[-70.1353,19.4297,133.4934],[-70.1355,19.4377,220.767],[-70.1241,19.4579,306.2858],[-70.1235,19.4729,292.1445],[-70.1259,19.4784,341.2647],[-70.1349,19.4837,301.7018],[-70.1359,19.4956,269.4034],[-70.1392,19.5025,198.6543],[-70.1438,19.5049,248.534],[-70.1547,19.5026,429.2924],[-70.1759,19.5077,467.3407],[-70.1866,19.5082,491.4328],[-70.1949,19.5126,611.9767],[-70.209,19.506,366.1854],[-70.2257,19.5107,498.3892],[-70.2356,19.5116,440.7405],[-70.2409,19.5144,475.45],[-70.2471,19.5034,478.483],[-70.2442,19.496,441.1684],[-70.2506,19.4879,389.5895],[-70.2536,19.4787,389.7363],[-70.2576,19.4774,357.4415],[-70.2699,19.4777,343.3626],[-70.2804,19.4827,344.3889],[-70.2924,19.4747,336.9029],[-70.2871,19.4621,339.9431],[-70.2878,19.4581,365.3076],[-70.2924,19.4525,353.0116],[-70.292,19.4502,331.4935],[-70.2878,19.4493,338.0419],[-70.2796,19.4514,321.8124],[-70.2777,19.4452,334.8645],[-70.2752,19.4439,330.4819],[-70.2668,19.4485,304.723],[-70.2628,19.4486,319.6013],[-70.2577,19.4453,309.6053],[-70.2572,19.4405,408.3638],[-70.2594,19.4385,431.8427],[-70.2661,19.4402,410.9326],[-70.2745,19.4361,399.1686],[-70.2776,19.4322,340.1767],[-70.2792,19.4221,350.0185],[-70.2899,19.4187,375.3252],[-70.2941,19.4109,399.3403],[-70.3008,19.4052,479.9753],[-70.3097,19.3917,430.724],[-70.3192,19.3862,280.9132],[-70.3204,19.3737,182.0838],[-70.3233,19.3692,177.8918],[-70.3281,19.3661,170.357],[-70.3242,19.3561,158.9499],[-70.3282,19.3501,147.8511],[-70.335,19.3299,122.2865],[-70.339,19.3297,120.7427],[-70.3454,19.3364,127.0208],[-70.3525,19.3314,126.5162],[-70.3511,19.3279,118.5364],[-70.344,19.322,113.7886],[-70.3459,19.3124,99.0297],[-70.341,19.2966,96.3828],[-70.3408,19.2906,97.6529],[-70.3428,19.2869,89.9439],[-70.3605,19.2698,77.1366],[-70.3669,19.2579,75.1365],[-70.3674,19.2532,72.6371],[-70.3638,19.2415,67.8306],[-70.3559,19.2364,65.2831],[-70.3555,19.213,62.3363],[-70.3524,19.207,58.7527],[-70.3275,19.1914,55.1851],[-70.3247,19.1843,54.8418],[-70.3149,19.1716,51.4789],[-70.3034,19.1669,47.7833],[-70.2993,19.1627,47.5243],[-70.2868,19.158,45.2271],[-70.2792,19.1517,44.6672],[-70.2753,19.1504,45.4703],[-70.2663,19.158,43.9274],[-70.2589,19.1537,49.8932],[-70.2485,19.1559,40.6054],[-70.2566,19.1669,43.0158],[-70.2775,19.2036,54.5144],[-70.2778,19.2094,51.608],[-70.2722,19.2125,52.0506],[-70.2624,19.2096,52.2108],[-70.241,19.2099,50.1162],[-70.2395,19.2127,52.0766],[-70.239,19.2289,58.6624],[-70.2215,19.2455,68.5585],[-70.2133,19.2487,73.6638],[-70.1952,19.2488,78.7955],[-70.1869,19.2508,74.9027],[-70.1665,19.2435,75.9012],[-70.164,19.2448,85.9169],[-70.1588,19.2438,82.5923],[-70.1506,19.253,75.0213],[-70.1398,19.2561,80.7606],[-70.1338,19.2692,119.982],[-70.1198,19.276,194.6092],[-70.1085,19.2736,135.6387],[-70.0924,19.2729,144.6518],[-70.0856,19.2588,165.089],[-70.0793,19.2597,154.0089],[-70.0736,19.2633,163.6266],[-70.0637,19.2927,233.4007],[-70.0597,19.2957,293.8203],[-70.0565,19.2953,313.5607],[-70.0513,19.2906,323.1232],[-70.0371,19.2862,372.7067],[-70.0289,19.2796,393.1712],[-70.02,19.2755,352.7802]]]]}
,"properties": {"GID_2": "DOM.6.6_1","GID_0": "DOM","country": "DominicanRepublic","GID_1": "DOM.6_1","province": "Duarte","NL_NAME_1": "NA","county": "SanFranciscodeMacorís","VARNAME_2": "NA","NL_NAME_2": "NA","TYPE_2": "Municipio","ENGTYPE_2": "Municipality","CC_2": "NA","HASC_2": "DO.DU.SF","name": "San_Franciscode_Macorís.county","area_km2": 755.8112,"hist_schema_id": "Elevation0-9000","hist_area_km2": {"25": 0.0601,"50": 71.3197,"75": 85.1451,"100": 58.4725,"125": 48.7015,"150": 48.5391,"175": 55.9778,"200": 43.7111,"225": 33.385,"250": 27.8408,"275": 26.6169,"300": 27.4945,"325": 28.3931,"350": 28.7922,"375": 25.8141,"400": 24.1952,"425": 22.8561,"450": 20.1772,"475": 16.9781,"500": 13.6792,"525": 13.0397,"550": 8.42,"575": 5.0402,"600": 4.0803,"625": 3.2802,"650": 3.1003,"675": 2.2602,"700": 1.8201,"725": 1.7002,"750": 1.0601,"775": 0.9601,"800": 0.7201,"825": 0.5601,"850": 0.4201,"875": 0.5001,"900": 0.32,"925": 0.18,"950": 0.14,"975": 0.06}}}