{"type": "Feature","id": "5026","bbox": [-76.78742,25.53955,-76.74589,25.5513],"geometry": {"type": "Polygon","coordinates": [[[-76.77019,25.5513,2.4252],[-76.78116,25.54817,0.0],[-76.78742,25.5419,0.0],[-76.76078,25.54033,2.6593],[-76.74981,25.53955,2.8132],[-76.74589,25.54504,0.3018],[-76.75843,25.54895,0.0],[-76.77019,25.5513,2.4252]]]}
,"properties": {"ISO3166-1-Alpha-3": "BHS","country": "The Bahamas","fill": "#F0F","name": "Harbour Island","area_km2": 3.481595,"hist_schema_id": "Elevation0-9000","hist_area_km2": {"0": 3.079866,"25": 0.401729}}}