{"type":"Feature","properties":{"GID_1":"BHS.14_1","GID_0":"BHS","country":"Bahamas","state":"HarbourIsland","VARNAME_1":"NA","NL_NAME_1":"NA","TYPE_1":"District","ENGTYPE_1":"District","CC_1":"NA","HASC_1":"BS.HB","ISO_1":"BS-HI","name":"HarbourIsland.state"},
"geometry":{"type": "MultiPolygon","coordinates": [[[[-76.7651,25.5513,3.1276],[-76.771,25.5515,2.4252],[-76.7724,25.5476,0.0],[-76.7751,25.5468,6.2082],[-76.7876,25.5451,14.5614],[-76.8071,25.5454,1.1624],[-76.811,25.5435,0.0],[-76.8049,25.541,1.9711],[-76.8071,25.5385,0.0],[-76.8043,25.5385,0.0],[-76.8015,25.5415,0.5202],[-76.7962,25.5432,0.679],[-76.7854,25.5421,9.699],[-76.784,25.5404,0.0],[-76.7735,25.5413,6.8243],[-76.7565,25.5376,0.302],[-76.7549,25.5379,0.302],[-76.7551,25.5404,0.3744],[-76.7507,25.5374,0.1794],[-76.7418,25.5393,0.0],[-76.744,25.5413,0.0],[-76.7435,25.5443,0.0],[-76.7571,25.5462,1.6768],[-76.7651,25.5513,3.1276]]],
[[[-76.7699,25.5596,0.5288],[-76.7715,25.5585,0.0],[-76.7685,25.5579,0.0],[-76.7685,25.559,0.0],[-76.7699,25.5596,0.5288]]]]}}