{"type": "Feature","bbox": [-80.0654,22.2212,-79.7992,22.4694],"geometry": {"type": "MultiPolygon","coordinates": [[[[-79.9207,22.4592,82.627],[-79.9559,22.4621,110.1096],[-79.9776,22.4687,108.4731],[-80.0085,22.4694,100.0127],[-80.0165,22.4621,103.8157],[-80.0574,22.4424,84.0],[-80.0635,22.4356,81.5382],[-80.0654,22.4274,93.9503],[-80.0632,22.3282,130.7238],[-80.0421,22.309,150.3057],[-80.02,22.2775,212.9746],[-80.0026,22.2888,172.48],[-79.9863,22.2888,167.9123],[-79.9413,22.2511,243.5715],[-79.9064,22.2351,233.3828],[-79.875,22.2322,279.2351],[-79.8444,22.2212,174.6093],[-79.8473,22.2454,254.385],[-79.855,22.267,184.9636],[-79.8538,22.3062,406.626],[-79.8453,22.3303,152.7176],[-79.8407,22.336,158.5786],[-79.7992,22.3546,114.4495],[-79.8108,22.3728,93.4871],[-79.8149,22.3957,84.5534],[-79.8228,22.4182,96.9621],[-79.8283,22.4255,92.1075],[-79.8663,22.4434,106.5845],[-79.9207,22.4592,82.627]]]]}
,"properties": {"GID_2": "CUB.16.12_1","GID_0": "CUB","country": "Cuba","GID_1": "CUB.16_1","province": "VillaClara","NL_NAME_1": "NA","county": "SantaClara","VARNAME_2": "NA","NL_NAME_2": "NA","TYPE_2": "Municipio","ENGTYPE_2": "Municipality","CC_2": "NA","HASC_2": "CU.VC.SC","name": "Santa_Clara.county","area_km2": 504.1213,"hist_schema_id": "Elevation0-9000","hist_area_km2": {"75": 15.3451,"100": 132.4433,"125": 107.3937,"150": 68.2449,"175": 57.7421,"200": 43.9383,"225": 27.9932,"250": 15.5563,"275": 12.3388,"300": 9.2387,"325": 4.7271,"350": 3.5109,"375": 2.7066,"400": 1.8045,"425": 0.8434,"450": 0.2942}}}