{"type":"Feature","properties":{"GID_2":"CUB.16.11_1","GID_0":"CUB","country":"Cuba","GID_1":"CUB.16_1","province":"VillaClara","NL_NAME_1":"NA","county":"SagualaGrande","VARNAME_2":"NA","NL_NAME_2":"NA","TYPE_2":"Municipio","ENGTYPE_2":"Municipality","CC_2":"NA","HASC_2":"CU.VC.SG","name":"Saguala_Grande.county"},
"geometry":{"type": "MultiPolygon","coordinates": [[[[-80.0827,22.7035,55.1571],[-80.0749,22.7025,54.1854],[-80.0425,22.6891,86.4492],[-79.9633,22.689,69.0584],[-79.9474,22.724,5.141],[-79.9464,22.7539,5.9443],[-79.944,22.7634,5.6847],[-79.9268,22.7808,5.2779],[-79.9029,22.7954,3.2709],[-79.8798,22.8211,3.0784],[-79.8671,22.8329,6.6145],[-79.8674,22.8382,2.7497],[-79.861,22.844,1.7273],[-79.8635,22.8476,1.444],[-79.864,22.8551,0.8339],[-79.8624,22.8563,1.5984],[-79.8613,22.8654,2.0297],[-79.8587,22.8654,0.0],[-79.8576,22.8674,3.8976],[-79.8446,22.8674,5.7261],[-79.8424,22.866,3.0452],[-79.8301,22.866,7.5906],[-79.8257,22.864,3.8704],[-79.8171,22.8651,0.0],[-79.8093,22.8635,0.0],[-79.8032,22.864,2.0992],[-79.8015,22.8668,0.0],[-79.8068,22.8735,2.7192],[-79.8035,22.8751,0.0],[-79.8043,22.8776,1.3096],[-79.8024,22.8796,5.8747],[-79.7968,22.8801,0.0],[-79.7801,22.8762,0.0],[-79.7838,22.8787,4.9755],[-79.784,22.8838,1.7063],[-79.786,22.8787,0.8023],[-79.7868,22.881,3.349],[-79.7824,22.8879,3.0599],[-79.7815,22.8924,0.0],[-79.7857,22.8932,2.7054],[-79.786,22.8954,3.747],[-79.7899,22.894,0.5922],[-79.7926,22.8968,4.8559],[-79.7921,22.8993,2.4697],[-79.7949,22.8996,2.0379],[-79.7913,22.9021,5.1657],[-79.7865,22.9013,0.0],[-79.7857,22.9026,0.0],[-79.7924,22.9049,1.0568],[-79.796,22.9018,3.9769],[-79.7996,22.8951,1.2715],[-79.7993,22.8926,0.773],[-79.801,22.8937,4.2062],[-79.8226,22.8812,3.924],[-79.8368,22.8782,1.2163],[-79.8515,22.8799,1.4882],[-79.8476,22.8829,2.1845],[-79.8432,22.8829,0.8764],[-79.8449,22.8838,1.1481],[-79.8446,22.8857,4.1308],[-79.8365,22.8871,6.0886],[-79.8349,22.8888,8.9273],[-79.8326,22.8865,0.0],[-79.8288,22.8871,1.9817],[-79.8282,22.8896,0.0],[-79.831,22.8915,0.0],[-79.829,22.9004,0.0],[-79.8246,22.8999,3.0838],[-79.8215,22.8957,3.6882],[-79.8157,22.9001,2.1932],[-79.8182,22.9029,0.5388],[-79.824,22.903199999999998,3.0414],[-79.8193,22.9057,2.818],[-79.8199,22.9082,0.3268],[-79.8185,22.9093,0.5958],[-79.8201,22.911,0.0],[-79.8235,22.911,3.5368],[-79.8213,22.9124,1.4789],[-79.8215,22.9143,0.0],[-79.8238,22.9151,1.4788],[-79.8215,22.9176,0.0],[-79.8226,22.9243,0.0],[-79.8293,22.9243,0.3932],[-79.8354,22.9176,1.7403],[-79.8365,22.9185,1.7403],[-79.8349,22.9201,0.5069],[-79.8357,22.9232,2.8533],[-79.8474,22.9238,0.0],[-79.846,22.9313,2.7962],[-79.8435,22.9335,0.0],[-79.8404,22.9337,0.0],[-79.8374,22.9399,3.1606],[-79.8385,22.9446,0.0],[-79.8482,22.9507,0.9242],[-79.8468,22.9543,0.0],[-79.849,22.9546,2.9687],[-79.8579,22.9474,2.1659],[-79.8601,22.941,0.0],[-79.8585,22.9401,0.0],[-79.8551,22.9415,0.0],[-79.854,22.9449,2.958],[-79.8493,22.9424,3.3703],[-79.8487,22.9396,2.991],[-79.8546,22.9346,0.8062],[-79.856,22.9293,0.0],[-79.8657,22.9285,1.3489],[-79.8649,22.9229,1.9089],[-79.8624,22.9179,0.0],[-79.8529,22.9138,1.7448],[-79.8504,22.9096,0.0],[-79.8515,22.9088,0.0],[-79.8507,22.9062,0.0],[-79.8474,22.9035,0.0],[-79.8451,22.904,1.6012],[-79.8401,22.9096,4.0029],[-79.8318,22.911,1.8871],[-79.8388,22.9082,1.8447],[-79.8393,22.9062,4.5386],[-79.8449,22.9026,0.8612],[-79.8443,22.9007,0.7297],[-79.8401,22.9001,0.0],[-79.8401,22.8982,0.0],[-79.8457,22.8915,1.8422],[-79.8485,22.891,2.1294],[-79.849,22.8857,5.2118],[-79.8557,22.8832,4.9506],[-79.8576,22.8757,0.1421],[-79.8624,22.8757,1.4013],[-79.8668,22.8779,1.47],[-79.8838,22.8779,1.7485],[-79.884,22.8738,2.0994],[-79.8896,22.8701,0.7079],[-79.8893,22.8676,0.0],[-79.8863,22.8671,1.0323],[-79.8857,22.8643,0.0],[-79.8885,22.8635,0.0],[-79.8913,22.8604,0.0],[-79.8893,22.8599,0.0],[-79.8882,22.8626,0.0],[-79.8846,22.8635,0.0],[-79.8854,22.8688,1.9582],[-79.8801,22.8724,0.5237],[-79.8793,22.8701,0.0],[-79.8768,22.8718,0.7446],[-79.8749,22.8713,0.9519],[-79.8763,22.869,1.1368],[-79.8749,22.8679,1.4019],[-79.8851,22.8582,0.0],[-79.884,22.8537,1.2786],[-79.8863,22.8515,0.3349],[-79.8876,22.8432,2.5586],[-79.8938,22.8443,0.0],[-79.8951,22.8426,2.528],[-79.8976,22.8432,1.5534],[-79.9049,22.840699999999998,0.6389],[-79.9088,22.8432,0.2958],[-79.9112,22.8485,0.0],[-79.9176,22.8526,1.7369],[-79.9212,22.8604,1.6765],[-79.931,22.8679,0.0],[-79.946,22.8685,0.9663],[-79.9524,22.8638,4.091],[-79.9585,22.8646,4.7332],[-79.9604,22.8668,1.2577],[-79.9665,22.866,2.7542],[-79.969,22.8696,0.0],[-79.9737,22.8696,4.366],[-79.974,22.8724,1.5391],[-79.9776,22.874,3.7734],[-79.981,22.8793,0.0],[-79.9837,22.8799,5.6065],[-79.984,22.8826,1.0962],[-79.9871,22.8829,2.3969],[-79.9854,22.8854,0.0],[-79.9865,22.8896,1.5731],[-79.9837,22.891,3.6555],[-79.9854,22.8921,0.0],[-79.9843,22.8949,1.0154],[-79.9899,22.8974,0.0],[-79.9982,22.8954,2.0279],[-79.9999,22.9001,0.0],[-79.996,22.9068,1.1006],[-79.9999,22.9112,0.0],[-80.0085,22.9112,1.3455],[-80.0079,22.9135,0.1724],[-80.0126,22.9257,1.5423],[-80.0126,22.9301,1.8562],[-80.0065,22.9368,1.2249],[-80.0137,22.931,1.4403],[-80.0154,22.9318,0.0],[-80.0135,22.9357,0.7853],[-80.0096,22.9376,0.0],[-80.0065,22.944,2.3081],[-80.0071,22.9463,0.6802],[-80.0099,22.9451,0.0],[-80.0124,22.941,0.0],[-80.0146,22.9396,0.5331],[-80.0165,22.9404,0.0],[-80.019,22.9379,0.7931],[-80.0335,22.9371,0.4159],[-80.0393,22.9435,1.3535],[-80.0393,22.9457,0.3444],[-80.0424,22.9482,0.8859],[-80.0457,22.9554,0.1658],[-80.0482,22.9557,0.0],[-80.0493,22.9521,0.4796],[-80.0446,22.946,0.489],[-80.0407,22.944,1.075],[-80.0407,22.9387,0.8481],[-80.0462,22.9337,1.6508],[-80.0485,22.9349,0.543],[-80.0504,22.9318,1.0856],[-80.0599,22.9296,2.6778],[-80.064,22.9329,0.0],[-80.0665,22.9315,1.148],[-80.069,22.9332,1.4694],[-80.0732,22.939,1.0546],[-80.0726,22.9407,0.0],[-80.0743,22.9396,0.0],[-80.0735,22.9354,1.5254],[-80.0776,22.9343,1.1579],[-80.0813,22.9357,0.8258],[-80.0813,22.9399,0.4466],[-80.0885,22.9396,0.0],[-80.0937,22.9371,0.0],[-80.0999,22.9385,0.499],[-80.1085,22.9371,0.0],[-80.1093,22.9387,0.7432],[-80.1074,22.9413,1.0111],[-80.1107,22.9499,0.0],[-80.1135,22.9482,0.2685],[-80.1174,22.949,0.36],[-80.1207,22.9543,0.0],[-80.1274,22.9529,0.5428],[-80.1368,22.9546,0.5634],[-80.136,22.9626,0.0],[-80.1393,22.9643,0.0],[-80.1432,22.9649,0.8537],[-80.1515,22.9593,0.8729],[-80.1599,22.9612,0.0],[-80.1615,22.9588,0.0],[-80.1704,22.9554,5.1539],[-80.1712,22.9488,5.7514],[-80.1682,22.9526,1.4513],[-80.1657,22.9521,4.2217],[-80.1621,22.9543,1.8376],[-80.1599,22.9532,1.9089],[-80.1629,22.9471,1.3543],[-80.1568,22.9449,0.0],[-80.1549,22.9399,0.0],[-80.1515,22.9379,0.7377],[-80.1513,22.934,0.0],[-80.1743,22.9301,3.9226],[-80.1821,22.934,0.0],[-80.1843,22.9307,0.0],[-80.1813,22.9293,0.4165],[-80.1857,22.9265,0.5818],[-80.1976,22.921,0.3497],[-80.204,22.9218,0.2497],[-80.2065,22.9207,0.4421],[-80.2071,22.9224,0.0],[-80.2121,22.921,0.0],[-80.2115,22.9204,0.0],[-80.2087,22.9204,0.0],[-80.2082,22.9182,0.0],[-80.2054,22.9182,0.5175],[-80.2099,22.9151,0.3296],[-80.2149,22.9149,0.1656],[-80.2182,22.9115,0.2852],[-80.2282,22.9126,0.0],[-80.229,22.9101,0.0],[-80.226,22.9104,0.9717],[-80.2254,22.909,0.9717],[-80.229,22.9062,0.5417],[-80.2346,22.9085,0.6539],[-80.2335,22.8333,29.0748],[-80.2085,22.7833,69.2509],[-80.2071,22.7358,36.8258],[-80.2133,22.7228,30.5],[-80.2527,22.6854,39.7364],[-80.2631,22.6706,51.766],[-80.2032,22.6557,44.5144],[-80.1851,22.6565,50.5676],[-80.1687,22.6626,56.405],[-80.1502,22.6652,64.9713],[-80.1271,22.6746,44.3682],[-80.1034,22.6945,47.2933],[-80.0827,22.7035,55.1571]]],
[[[-79.9615,22.9121,0.0],[-79.9635,22.9129,0.0],[-79.9638,22.9107,0.0],[-79.9604,22.9093,0.9941],[-79.9596,22.9124,0.0],[-79.9615,22.9121,0.0]]],
[[[-80.0149,22.9499,0.4356],[-80.0165,22.951,0.0],[-80.0176,22.9488,0.399],[-80.016,22.9479,0.0],[-80.0149,22.9499,0.4356]]],
[[[-79.9949,22.9721,0.0],[-79.9993,22.9724,0.6117],[-79.9996,22.969,0.7518],[-79.9979,22.9679,0.3721],[-80.0018,22.9688,0.0],[-80.0018,22.9638,1.3339],[-79.9938,22.9696,2.2529],[-79.9935,22.9721,0.0],[-79.9949,22.9721,0.0]]],
[[[-80.2293,22.914,0.1414],[-80.2307,22.9151,0.0],[-80.2315,22.9121,0.5655],[-80.2299,22.9118,0.0],[-80.2293,22.914,0.1414]]],
[[[-80.216,22.9249,0.3176],[-80.2182,22.926,0.0],[-80.2199,22.9229,1.2115],[-80.2171,22.9235,0.0],[-80.2162,22.9207,0.3501],[-80.216,22.9249,0.3176]]],
[[[-80.1718,22.9521,1.2456],[-80.1715,22.9562,1.6947],[-80.1732,22.9571,0.0],[-80.1787,22.9549,2.3419],[-80.1796,22.9499,1.3765],[-80.1735,22.9482,1.2683],[-80.1718,22.9521,1.2456]]],
[[[-80.1296,22.9771,0.3291],[-80.1321,22.9779,0.0],[-80.1335,22.9763,0.4895],[-80.1351,22.9632,0.1971],[-80.1301,22.964,0.8446],[-80.126,22.969,0.5987],[-80.1251,22.9754,0.0],[-80.1296,22.9771,0.3291]]],
[[[-80.0235,22.9774,0.0],[-80.0249,22.9782,1.3208],[-80.0285,22.9779,1.6516],[-80.0279,22.976,0.6501],[-80.0235,22.9774,0.0]]],
[[[-79.9926,23.006,0.0],[-79.9965,23.0068,2.0625],[-79.9993,23.0051,0.0],[-79.9996,23.0021,0.3925],[-80.0032,22.9976,0.4975],[-80.0013,22.996,0.6302],[-80.0024,22.994,0.0],[-80.0001,22.9921,0.6212],[-79.996,22.9982,0.5435],[-79.9943,22.9979,0.4273],[-79.9957,22.9968,0.2607],[-79.9946,22.9949,0.0],[-79.991,22.9968,0.0],[-79.9921,22.9926,0.0],[-79.9904,22.991,0.0],[-79.9926,22.9899,0.3133],[-79.9926,22.9876,0.3124],[-79.9876,22.986,0.5752],[-79.9887,22.9826,0.5451],[-79.9826,22.9824,0.7763],[-79.9812,22.9849,0.0],[-79.9849,22.9904,1.0677],[-79.984,22.9963,0.3584],[-79.986,23.0021,0.0],[-79.9926,23.006,0.0]]],
[[[-80.1221,23.0088,0.5031],[-80.1232,23.009,0.5031],[-80.1232,23.0063,1.0932],[-80.1254,23.0074,0.0],[-80.1299,23.006,0.0],[-80.131,23.0026,0.0],[-80.1121,23.0038,3.3144],[-80.1065,23.0001,0.0],[-80.0937,22.9968,0.0],[-80.0918,22.999,2.8184],[-80.0915,22.9963,0.0],[-80.0862,22.9976,6.245],[-80.0849,22.996,1.8885],[-80.0801,22.9971,1.7482],[-80.0729,23.0018,1.5321],[-80.0713,23.0007,2.0105],[-80.0707,23.0035,5.2578],[-80.0732,23.0038,1.6532],[-80.0738,23.0068,2.0949],[-80.0699,23.0054,0.0],[-80.0701,23.0074,6.1184],[-80.0735,23.0096,1.2862],[-80.0799,23.0093,1.7547],[-80.084,23.0126,0.0],[-80.0854,23.011,4.0976],[-80.0882,23.011,2.8343],[-80.089,23.0154,3.859],[-80.094,23.0199,1.6881],[-80.0993,23.0187,1.6373],[-80.1007,23.016,1.5398],[-80.1015,23.0215,2.0548],[-80.1124,23.021,1.026],[-80.1146,23.0176,1.6696],[-80.1182,23.0174,1.565],[-80.1154,23.0096,0.4969],[-80.116,23.006,0.3868],[-80.1174,23.0096,0.2518],[-80.1201,23.011,0.0],[-80.119,23.0074,2.1323],[-80.1201,23.0051,0.6162],[-80.1226,23.0046,1.5798],[-80.1221,23.0088,0.5031]]],
[[[-80.059,23.0187,0.0],[-80.0576,23.019,0.0],[-80.0579,23.0207,0.0],[-80.0604,23.0207,0.0],[-80.0601,23.0185,0.0],[-80.059,23.0187,0.0]]],
[[[-80.1551,23.0054,0.0798],[-80.1551,23.0074,1.1944],[-80.1571,23.0076,0.2257],[-80.1615,23.0026,1.1248],[-80.1596,23.0026,0.9773],[-80.1551,23.0054,0.0798]]],
[[[-80.1493,23.0168,2.0261],[-80.1524,23.0174,0.0],[-80.1529,23.0151,0.3432],[-80.1513,23.0135,0.4811],[-80.1549,23.0121,0.0],[-80.1526,23.0054,0.3117],[-80.1557,23.0029,0.2565],[-80.1551,22.9993,0.4595],[-80.149,22.9979,0.0],[-80.1446,22.9988,2.9028],[-80.1429,23.0018,1.8543],[-80.1424,23.0001,0.0],[-80.1321,23.0021,4.6908],[-80.1324,23.0035,4.6908],[-80.1379,23.0026,3.0575],[-80.1401,23.0051,3.5129],[-80.1387,23.0082,3.8302],[-80.1446,23.0107,1.0508],[-80.1471,23.0154,0.0],[-80.1499,23.014,0.8656],[-80.1493,23.0168,2.0261]]],
[[[-80.1257,23.0088,0.6787],[-80.1235,23.0088,2.8835],[-80.1224,23.0107,0.5345],[-80.1251,23.0121,0.0],[-80.1265,23.0107,0.5407],[-80.1299,23.0113,0.0],[-80.1285,23.0079,0.0],[-80.1279,23.0096,2.0303],[-80.1257,23.0088,0.6787]]],
[[[-80.1424,23.0187,1.3958],[-80.1432,23.0213,0.2743],[-80.1449,23.021,0.4904],[-80.1432,23.0168,0.0],[-80.1415,23.0174,0.0],[-80.1424,23.0187,1.3958]]],
[[[-79.9471,22.889,0.4633],[-79.949,22.8896,0.0],[-79.946,22.8849,1.0987],[-79.9429,22.8857,2.1665],[-79.9435,22.8874,0.0],[-79.9471,22.889,0.4633]]],
[[[-79.9529,22.8937,6.1472],[-79.9543,22.8946,1.255],[-79.9518,22.8907,1.656],[-79.9512,22.8921,0.4165],[-79.9529,22.8937,6.1472]]],
[[[-79.956,22.9143,1.6587],[-79.9587,22.9138,0.6653],[-79.9568,22.9121,2.1279],[-79.9585,22.909,2.5088],[-79.9551,22.9024,0.0],[-79.9515,22.9001,0.0],[-79.9499,22.9029,3.3128],[-79.9488,22.9024,3.3128],[-79.9479,22.8982,4.1596],[-79.949,22.8971,0.4142],[-79.9451,22.8921,0.6484],[-79.9362,22.8918,0.0],[-79.9351,22.8929,0.0],[-79.936,22.8971,0.0],[-79.9393,22.8993,1.7479],[-79.939,22.9007,0.5694],[-79.936,22.9007,0.0],[-79.9371,22.9035,2.3973],[-79.9449,22.9068,2.7196],[-79.9443,22.9043,3.0546],[-79.9399,22.9018,0.5694],[-79.9407,22.9007,0.7578],[-79.9446,22.904,0.8757],[-79.951,22.9057,2.0263],[-79.9554,22.9101,4.7722],[-79.956,22.9143,1.6587]]],
[[[-79.9443,22.909,0.0],[-79.9457,22.9099,0.0],[-79.9474,22.9096,0.0],[-79.9449,22.9074,2.9919],[-79.9443,22.909,0.0]]],
[[[-79.9035,22.8765,0.9627],[-79.9046,22.8774,0.0],[-79.909,22.8749,0.9433],[-79.901,22.8729,0.0],[-79.9035,22.8765,0.9627]]],
[[[-79.8238,22.8899,5.3336],[-79.8249,22.8907,0.0],[-79.8268,22.8879,1.6508],[-79.8246,22.8876,1.4988],[-79.8238,22.8899,5.3336]]],
[[[-79.7685,22.9287,1.6874],[-79.7721,22.9296,0.8217],[-79.7732,22.9282,0.6103],[-79.7685,22.9265,2.3374],[-79.7651,22.9224,1.4796],[-79.7629,22.9232,2.0113],[-79.761,22.9176,1.093],[-79.7596,22.9174,1.093],[-79.7596,22.9218,1.755],[-79.7621,22.9224,2.0113],[-79.7646,22.9268,0.9624],[-79.7685,22.9287,1.6874]]],
[[[-79.7976,22.941,0.4007],[-79.7999,22.9421,0.0],[-79.801,22.9407,0.0],[-79.8049,22.941,0.0],[-79.8087,22.9371,0.0],[-79.8043,22.9387,5.5193],[-79.8024,22.9371,5.5193],[-79.8024,22.9296,0.0],[-79.8004,22.9282,0.0],[-79.794,22.9282,0.0],[-79.7926,22.9307,1.9102],[-79.7846,22.9257,2.5584],[-79.784,22.9287,2.1011],[-79.791,22.9335,1.856],[-79.7976,22.941,0.4007]]],
[[[-79.8732,22.9635,0.8115],[-79.8746,22.9649,3.2302],[-79.8804,22.9638,0.0],[-79.8893,22.9562,0.0],[-79.8949,22.9443,0.7974],[-79.8957,22.9465,1.7607],[-79.8932,22.9507,2.9528],[-79.894,22.9524,0.6436],[-79.8976,22.949,0.0],[-79.9007,22.9415,2.7859],[-79.9037,22.9396,1.0168],[-79.904,22.9407,1.9182],[-79.9037,22.9415,1.9182],[-79.901,22.9432,0.8429],[-79.8985,22.9501,0.0],[-79.8915,22.9579,0.826],[-79.8913,22.961,0.0],[-79.8942,22.9638,0.0],[-79.9018,22.9621,0.0],[-79.9126,22.9621,0.7809],[-79.9143,22.9638,0.0],[-79.9238,22.9632,0.4081],[-79.9287,22.961,0.0],[-79.931,22.9565,2.3559],[-79.9374,22.9518,0.0],[-79.9349,22.946,0.9622],[-79.939,22.9493,1.6527],[-79.9401,22.9529,0.847],[-79.9424,22.9515,2.3499],[-79.9465,22.9521,0.0],[-79.9468,22.9501,2.2639],[-79.9504,22.9493,1.8484],[-79.9524,22.9438,3.6196],[-79.9457,22.9354,4.4488],[-79.9454,22.9299,2.8419],[-79.9379,22.9235,0.0],[-79.9351,22.9229,2.2724],[-79.9365,22.9193,0.0],[-79.9318,22.9163,0.0],[-79.9282,22.9168,0.0],[-79.9224,22.921,3.291],[-79.9313,22.934,2.8463],[-79.9279,22.9376,2.5939],[-79.9257,22.936,1.4427],[-79.9251,22.9379,1.3069],[-79.9229,22.9374,1.5513],[-79.921,22.9429,1.0435],[-79.9218,22.9471,1.3267],[-79.919,22.9446,0.0],[-79.9168,22.9471,1.3663],[-79.9151,22.9454,1.4469],[-79.9157,22.9418,0.0],[-79.9082,22.9296,0.7569],[-79.9051,22.9313,0.3708],[-79.899,22.9307,0.6148],[-79.8965,22.9346,1.3632],[-79.8979,22.9307,0.6148],[-79.896,22.9299,0.0],[-79.894,22.9257,0.3335],[-79.8901,22.9263,1.1437],[-79.8904,22.9221,1.714],[-79.8874,22.9215,0.5197],[-79.8832,22.9171,1.7334],[-79.876,22.9135,0.0],[-79.8726,22.9182,1.8001],[-79.8749,22.9196,0.9714],[-79.8763,22.9235,0.0],[-79.8796,22.9207,1.3899],[-79.8788,22.9287,1.946],[-79.8812,22.9399,1.2856],[-79.8796,22.9418,1.1744],[-79.8804,22.9451,0.0],[-79.8782,22.9521,2.1764],[-79.874,22.9571,0.0],[-79.8732,22.9635,0.8115]]],
[[[-79.8715,22.9429,0.0],[-79.8751,22.9438,0.0],[-79.8749,22.9399,0.5397],[-79.8712,22.9399,0.0],[-79.8715,22.9429,0.0]]],
[[[-79.7546,22.9454,0.2935],[-79.7568,22.946,0.0],[-79.7565,22.9418,0.0],[-79.7529,22.9435,0.0],[-79.7546,22.9454,0.2935]]],
[[[-79.8569,22.9607,0.0],[-79.859,22.9618,1.4363],[-79.8629,22.9576,1.1298],[-79.8688,22.956,0.0],[-79.8743,22.9488,2.5083],[-79.8743,22.9457,3.5366],[-79.8701,22.9443,2.7629],[-79.8654,22.9374,4.4728],[-79.8626,22.9387,0.0],[-79.8615,22.9443,0.0],[-79.8632,22.9457,2.0258],[-79.861,22.946,2.0963],[-79.859,22.9485,1.4268],[-79.8599,22.951,3.5387],[-79.8518,22.9535,2.199],[-79.8569,22.9607,0.0]]],
[[[-79.941,22.911,0.3491],[-79.9424,22.9118,0.0],[-79.9443,22.9115,0.0],[-79.9404,22.9096,0.0],[-79.941,22.911,0.3491]]],
[[[-79.9507,22.9118,0.0],[-79.9501,22.9132,0.0],[-79.9504,22.9154,0.0],[-79.9518,22.9138,0.7927],[-79.9507,22.9118,0.0]]],
[[[-79.9401,22.9168,0.0],[-79.9426,22.9176,0.422],[-79.9432,22.916,0.6513],[-79.9413,22.9151,0.0],[-79.9401,22.9168,0.0]]],
[[[-79.9424,22.969,1.3316],[-79.9449,22.9699,2.1093],[-79.949,22.9679,0.227],[-79.9515,22.9621,1.6711],[-79.9546,22.961,1.725],[-79.961,22.9654,1.4416],[-79.9626,22.9643,1.4416],[-79.9626,22.9618,1.257],[-79.9665,22.9612,0.9465],[-79.966,22.9593,0.0],[-79.9676,22.9568,0.0],[-79.9632,22.9535,0.0],[-79.9615,22.9488,3.0345],[-79.9587,22.9488,0.0],[-79.9557,22.9532,1.975],[-79.951,22.9529,0.6267],[-79.9463,22.9596,0.7938],[-79.944,22.9599,0.8248],[-79.9437,22.9618,0.0],[-79.9404,22.964,4.2856],[-79.9401,22.9671,0.0],[-79.9424,22.969,1.3316]]],
[[[-79.8446,22.9732,1.7376],[-79.8465,22.9732,0.752],[-79.8468,22.9679,1.6918],[-79.8376,22.9654,0.0],[-79.8335,22.9615,0.0],[-79.8332,22.959,1.448],[-79.826,22.9596,1.6426],[-79.8299,22.9571,0.0],[-79.8332,22.9576,0.0],[-79.8354,22.961,0.8584],[-79.8407,22.9601,5.4131],[-79.8437,22.9612,0.0],[-79.8432,22.9585,1.342],[-79.8376,22.9549,0.0],[-79.8365,22.949,1.4157],[-79.8282,22.9474,1.5682],[-79.8304,22.9457,2.501],[-79.8351,22.9457,0.0],[-79.8396,22.9488,0.0],[-79.8351,22.9374,3.3167],[-79.8296,22.9371,4.6871],[-79.8282,22.9387,0.0],[-79.8249,22.939,1.9413],[-79.8232,22.9429,4.9634],[-79.8187,22.9413,1.9157],[-79.8112,22.9421,1.3898],[-79.8268,22.9674,0.0],[-79.8332,22.9662,2.5943],[-79.8446,22.9732,1.7376]]],
[[[-79.8474,22.971,4.2517],[-79.8504,22.9715,1.8546],[-79.854,22.9688,1.3495],[-79.8613,22.9671,0.0],[-79.8629,22.9643,3.2163],[-79.8551,22.9615,1.6713],[-79.8507,22.9554,0.0],[-79.846,22.9565,1.1821],[-79.8446,22.9604,1.1505],[-79.8476,22.9654,1.2428],[-79.8474,22.971,4.2517]]],
[[[-79.9346,22.9626,0.0],[-79.9374,22.9632,0.6283],[-79.9401,22.9615,1.3972],[-79.9407,22.9596,1.309],[-79.9451,22.9576,0.5256],[-79.9451,22.956,1.4204],[-79.9407,22.9574,2.3147],[-79.9396,22.9596,1.0909],[-79.9349,22.9601,0.0],[-79.9346,22.9626,0.0]]],
[[[-79.971,22.9846,0.0],[-79.9749,22.9846,0.8438],[-79.9757,22.9804,0.0],[-79.9726,22.9776,0.3674],[-79.9699,22.9779,1.6451],[-79.9674,22.9751,0.0],[-79.9687,22.9721,0.9672],[-79.9662,22.9704,0.9552],[-79.9654,22.9665,0.0],[-79.9635,22.9688,1.333],[-79.9582,22.969,1.3724],[-79.9571,22.9707,2.6041],[-79.9507,22.9685,0.0],[-79.9457,22.9704,2.1093],[-79.9507,22.9779,0.3798],[-79.9585,22.9821,0.0],[-79.971,22.9846,0.0]]],
[[[-80.1271,23.028199999999998,1.8015],[-80.1315,23.0279,1.4153],[-80.1343,23.0251,0.0],[-80.1335,23.0201,0.0],[-80.1299,23.0207,0.2739],[-80.129,23.0251,0.4957],[-80.129,23.0238,0.4957],[-80.1257,23.0238,1.7025],[-80.1229,23.0204,0.0],[-80.1229,23.0179,1.3858],[-80.1274,23.0176,0.0],[-80.1276,23.0151,0.0],[-80.1224,23.0151,0.0],[-80.1176,23.0179,1.565],[-80.1165,23.021,0.0],[-80.1196,23.0221,1.6636],[-80.1188,23.0243,0.0],[-80.1232,23.0276,0.0],[-80.1271,23.028199999999998,1.8015]]],
[[[-80.1387,23.029,0.0],[-80.141,23.0296,0.2217],[-80.1429,23.0254,1.0552],[-80.1429,23.0215,0.2743],[-80.1404,23.0196,0.6771],[-80.1401,23.016,0.0],[-80.1385,23.016,1.4171],[-80.1363,23.0193,0.7754],[-80.1365,23.0229,1.1963],[-80.1343,23.0268,0.7916],[-80.1354,23.029,0.0],[-80.1387,23.029,0.0]]],
[[[-80.0129,23.0482,0.9367],[-80.0165,23.0482,0.0],[-80.0176,23.0432,0.0],[-80.0163,23.0407,1.3914],[-80.0193,23.0404,1.3806],[-80.0218,23.0357,0.9934],[-80.019,23.0349,0.0],[-80.0179,23.0371,0.7558],[-80.0107,23.0379,0.0],[-80.0088,23.0418,0.4536],[-80.009,23.0376,0.0],[-80.0121,23.0357,0.2478],[-80.001,23.0293,0.5974],[-79.9985,23.0296,1.0206],[-80.0013,23.0265,0.814],[-80.0021,23.029,1.3726],[-80.0099,23.0332,0.4024],[-80.0129,23.028199999999998,0.7123],[-80.0157,23.0287,0.7705],[-80.0171,23.0271,0.499],[-80.0204,23.0304,0.4227],[-80.0193,23.0332,0.1522],[-80.0207,23.0343,0.0],[-80.0271,23.0304,0.7608],[-80.024,23.0346,0.0],[-80.031,23.0304,2.4298],[-80.0346,23.0254,2.717],[-80.0351,23.0201,0.0],[-80.0332,23.0168,0.0],[-80.0315,23.0174,0.4316],[-80.0321,23.0215,1.0992],[-80.031,23.019,0.2143],[-80.029,23.0199,0.28],[-80.0326,23.014,2.4696],[-80.0285,23.0101,0.8248],[-80.0329,23.0107,0.0],[-80.029,23.0076,0.6899],[-80.0285,23.0054,0.6466],[-80.0251,23.0057,0.4432],[-80.0271,23.0029,0.0],[-80.0251,23.0015,0.0],[-80.019,23.0051,0.839],[-80.0163,23.0046,0.0],[-80.0146,23.0063,0.3635],[-80.016,23.0071,0.0],[-80.0151,23.0088,0.6082],[-80.0129,23.0065,0.5588],[-80.0104,23.0104,0.5004],[-80.0065,23.0126,0.81],[-80.0062,23.0115,0.0],[-80.0085,23.0093,0.0],[-80.0051,23.0076,1.1544],[-80.0065,23.0043,0.0],[-80.004,23.0035,0.0],[-80.0013,23.0057,4.0251],[-79.999,23.009,2.4482],[-79.9982,23.0149,4.1225],[-79.9976,23.0126,0.8187],[-79.9951,23.0143,0.0],[-79.9962,23.0187,3.3478],[-79.9976,23.0165,6.1],[-79.9996,23.0182,0.7765],[-79.9979,23.029,1.0206],[-79.9915,23.034,3.6253],[-79.9885,23.0335,0.0],[-79.9918,23.0385,1.0005],[-79.9943,23.0385,0.4185],[-79.9962,23.0354,3.8245],[-80.0007,23.0368,4.6814],[-80.0038,23.0421,0.0],[-80.0065,23.0429,3.2958],[-80.0076,23.0451,2.0199],[-80.0118,23.0457,0.3913],[-80.0129,23.0482,0.9367]]],
[[[-80.0707,23.0732,1.3444],[-80.0757,23.074,0.0],[-80.0771,23.0721,2.5433],[-80.0818,23.071,1.8351],[-80.0871,23.0732,0.0],[-80.0854,23.0715,1.9672],[-80.0854,23.0635,0.8338],[-80.0843,23.0635,0.8338],[-80.084,23.0649,0.7075],[-80.0826,23.0637,2.7999],[-80.0868,23.0613,0.0],[-80.0862,23.0563,3.0499],[-80.091,23.0565,0.5868],[-80.0924,23.054,1.6879],[-80.0893,23.0549,0.5132],[-80.0893,23.051,0.76],[-80.0837,23.051,2.7324],[-80.086,23.0443,3.0979],[-80.0888,23.0501,3.9238],[-80.0915,23.0507,0.3428],[-80.0921,23.0526,0.0],[-80.0957,23.0513,0.0],[-80.0935,23.0513,2.0254],[-80.0915,23.0468,0.0],[-80.0857,23.0426,2.5799],[-80.0854,23.041,1.5481],[-80.0879,23.0412,0.9257],[-80.0885,23.0396,0.0],[-80.084,23.0396,1.4873],[-80.0835,23.0346,2.4445],[-80.0813,23.0346,1.345],[-80.0788,23.0376,6.2263],[-80.0732,23.0382,0.6381],[-80.069,23.0415,3.213],[-80.0674,23.0415,2.3463],[-80.0668,23.0385,0.0],[-80.0638,23.0415,2.9045],[-80.0593,23.0396,2.2108],[-80.0601,23.0357,0.0],[-80.0565,23.0332,2.1426],[-80.0546,23.0232,0.5358],[-80.0515,23.019,0.0],[-80.0493,23.019,2.1848],[-80.0476,23.0224,4.2822],[-80.0426,23.0251,0.0],[-80.0415,23.029,2.2812],[-80.0449,23.0338,0.0],[-80.0496,23.0343,1.3355],[-80.0571,23.039,0.336],[-80.0624,23.046,1.9286],[-80.0618,23.0501,5.2333],[-80.0585,23.0532,1.585],[-80.0563,23.0529,0.1694],[-80.056,23.0551,0.885],[-80.0607,23.059,0.0],[-80.0657,23.0604,1.6383],[-80.0693,23.0685,0.7943],[-80.0685,23.071,2.1838],[-80.0663,23.0715,0.1434],[-80.0707,23.0732,1.3444]]]]}}