{"type":"Feature","properties":{"GID_1":"TCA.2_1","GID_0":"TCA","country":"TurksandCaicosIslands","province":"MiddleCaicos","VARNAME_1":"NA","NL_NAME_1":"NA","TYPE_1":"District","ENGTYPE_1":"District","CC_1":"NA","HASC_1":"NA","ISO_1":"NA","name":"Middle_Caicos.province"},
"geometry":{"type": "MultiPolygon","coordinates": [[[[-71.7824,21.6513,0.0],[-71.7851,21.6507,0.0],[-71.7813,21.6496,0.0],[-71.7807,21.6474,0.0],[-71.7774,21.6476,0.0],[-71.7757,21.6446,0.0],[-71.7724,21.6451,0.0],[-71.7704,21.6474,0.0],[-71.7721,21.6485,0.0],[-71.7749,21.6468,0.775],[-71.7757,21.6499,0.0],[-71.7807,21.6499,0.0],[-71.7824,21.6513,0.0]]],
[[[-71.8029,21.6535,0.0],[-71.8068,21.6543,0.0],[-71.8068,21.6526,0.0],[-71.8043,21.6501,0.0],[-71.7999,21.6521,0.0],[-71.8029,21.6535,0.0]]],
[[[-71.6293,21.7215,0.1792],[-71.6304,21.7226,0.0],[-71.634,21.719,0.0],[-71.6332,21.7135,0.0],[-71.6307,21.7135,0.0],[-71.6274,21.7165,0.0],[-71.6293,21.7215,0.1792]]],
[[[-71.6379,21.7546,0.0],[-71.639,21.7551,0.0],[-71.6404,21.7529,0.0],[-71.6404,21.751,0.0],[-71.6387,21.7507,0.5434],[-71.6396,21.7476,0.0],[-71.6351,21.7424,0.0],[-71.6357,21.7404,0.0],[-71.6324,21.7388,0.0],[-71.6307,21.7493,0.0],[-71.634,21.7499,1.1856],[-71.6379,21.7546,0.0]]],
[[[-71.6335,21.7674,0.0],[-71.6354,21.7674,0.7092],[-71.6357,21.7643,0.6925],[-71.6368,21.7649,0.6925],[-71.6374,21.7632,0.0],[-71.6346,21.754,0.1072],[-71.631,21.7565,0.2966],[-71.6312,21.7596,0.8248],[-71.629,21.7632,0.0],[-71.629,21.7654,0.0],[-71.6335,21.7674,0.0]]],
[[[-71.8376,21.8585,6.3569],[-71.8399,21.8587,8.0373],[-71.8407,21.8538,1.5518],[-71.8449,21.8515,5.2322],[-71.8515,21.8529,0.0],[-71.8543,21.8513,0.0],[-71.8543,21.8482,0.0],[-71.8518,21.8476,0.4264],[-71.8535,21.841,0.0],[-71.851,21.8307,1.4249],[-71.8524,21.829,0.0],[-71.8496,21.8263,0.0],[-71.851,21.8229,0.2393],[-71.8538,21.826,0.0],[-71.8543,21.8204,0.0],[-71.851,21.8176,0.1066],[-71.8562,21.819,0.0981],[-71.8574,21.8213,0.0],[-71.8587,21.8188,0.2354],[-71.8568,21.8157,0.0],[-71.8587,21.8129,0.1368],[-71.8624,21.8129,0.0],[-71.8674,21.8096,0.4219],[-71.8793,21.8063,0.1208],[-71.8824,21.8065,0.3258],[-71.8835,21.8085,0.1123],[-71.8863,21.8074,0.2364],[-71.8907,21.8004,0.3141],[-71.8987,21.799,0.0],[-71.9026,21.7932,0.4751],[-71.9079,21.7907,0.0],[-71.9088,21.7862,0.0],[-71.914,21.7846,0.0],[-71.9146,21.7807,0.0],[-71.9135,21.7799,0.0],[-71.9099,21.7824,0.0],[-71.9062,21.7888,0.4182],[-71.8971,21.7929,0.1629],[-71.9018,21.7879,0.2547],[-71.9076,21.7854,0.0],[-71.9085,21.7815,0.0],[-71.9071,21.781,0.0],[-71.906,21.7838,0.397],[-71.9015,21.7862,0.0],[-71.9068,21.7804,0.0],[-71.9062,21.779,0.0],[-71.8918,21.7907,0.3648],[-71.8915,21.7901,0.2046],[-71.8965,21.786,0.0],[-71.8987,21.7807,0.0],[-71.9032,21.7779,0.1206],[-71.9013,21.776,0.0818],[-71.9035,21.7754,0.283],[-71.904,21.7735,0.0],[-71.8999,21.7715,0.0],[-71.8957,21.7768,0.0],[-71.8882,21.7785,0.1498],[-71.8874,21.7768,0.0],[-71.886,21.7774,0.4923],[-71.8868,21.7751,0.0],[-71.8918,21.7721,0.0],[-71.896,21.7668,0.0],[-71.894,21.7663,0.0],[-71.8876,21.7699,0.2477],[-71.8885,21.7674,0.0],[-71.8846,21.7643,0.0981],[-71.8768,21.7674,0.0],[-71.879,21.7693,0.0],[-71.8796,21.7676,0.0],[-71.8824,21.7671,0.3533],[-71.879,21.7701,0.0],[-71.8788,21.770763636363657,0.1655],[-71.8788,21.7696,0.0],[-71.8763,21.769,0.1155],[-71.869,21.7779,0.6933],[-71.8688,21.7765,0.5184],[-71.8718,21.7743,0.1171],[-71.874,21.7687,0.1383],[-71.8807,21.7638,0.0],[-71.8807,21.7621,0.0],[-71.8729,21.7632,0.0],[-71.8712,21.7679,0.1652],[-71.8679,21.7704,0.0],[-71.8693,21.7729,0.0],[-71.866,21.7751,0.1882],[-71.8676,21.7724,0.4842],[-71.8668,21.769,0.2986],[-71.871,21.7657,0.0],[-71.874,21.7596,0.0],[-71.8718,21.7588,0.0],[-71.8699,21.7626,0.363],[-71.8668,21.7646,0.2903],[-71.8679,21.7593,0.0],[-71.8599,21.7613,0.3261],[-71.8546,21.7596,0.1461],[-71.8629,21.7579,0.0],[-71.8629,21.7557,0.2388],[-71.8646,21.7549,0.0],[-71.8635,21.7532,0.598],[-71.8665,21.7543,0.1462],[-71.8632,21.7579,0.0],[-71.869,21.7579,0.102],[-71.8718,21.7529,0.0],[-71.8643,21.7488,0.3156],[-71.8679,21.7454,0.4416],[-71.8732,21.746,0.0],[-71.8768,21.7438,0.0],[-71.8776,21.7415,0.2986],[-71.8763,21.7401,0.0],[-71.8674,21.7357,0.3624],[-71.8593,21.7368,0.1726],[-71.8532,21.7351,0.0],[-71.8507,21.7304,0.0],[-71.8468,21.734,0.1569],[-71.8401,21.7332,0.1719],[-71.8429,21.7301,0.6325],[-71.8421,21.7268,0.5432],[-71.8443,21.7218,0.0],[-71.8429,21.7193,0.0],[-71.839,21.7204,0.1476],[-71.841,21.7179,0.0],[-71.839,21.715699999999998,0.2121],[-71.8343,21.7193,0.0],[-71.8326,21.7226,0.0],[-71.8268,21.7407,0.6179],[-71.8182,21.7432,0.0],[-71.8182,21.7488,0.2738],[-71.8154,21.7532,0.0],[-71.8085,21.7565,0.1683],[-71.8035,21.7624,0.1167],[-71.7935,21.7685,0.349],[-71.7954,21.7654,1.2509],[-71.8024,21.7621,0.1167],[-71.8046,21.7574,0.1207],[-71.8099,21.7532,0.1201],[-71.8104,21.7474,0.2496],[-71.8121,21.7493,0.0],[-71.8115,21.7524,0.0],[-71.8149,21.7499,0.0834],[-71.8151,21.744,0.2714],[-71.8176,21.7412,0.0],[-71.8168,21.7376,0.0],[-71.8063,21.7357,0.0742],[-71.7993,21.7407,0.2129],[-71.8043,21.7332,0.0],[-71.7957,21.7296,0.0],[-71.7921,21.7304,0.0],[-71.791,21.7326,0.2768],[-71.7874,21.7321,0.5521],[-71.7871,21.7307,0.2255],[-71.7835,21.7313,0.2192],[-71.7776,21.7415,0.0],[-71.7743,21.7379,0.0812],[-71.7729,21.7313,0.0],[-71.7676,21.7315,0.2314],[-71.7718,21.7285,0.1005],[-71.7715,21.7268,0.0],[-71.7682,21.7251,0.0],[-71.7682,21.7229,0.0],[-71.7643,21.7229,0.0],[-71.7613,21.7279,0.1075],[-71.7576,21.7296,0.0],[-71.7543,21.7274,0.5398],[-71.7546,21.7251,0.0],[-71.7515,21.7246,0.4047],[-71.7499,21.719,0.1212],[-71.7432,21.7215,0.2891],[-71.7457,21.7171,0.4137],[-71.7426,21.7074,0.0],[-71.7474,21.7046,0.0],[-71.7462,21.7026,0.0],[-71.7415,21.7038,0.0],[-71.741,21.7074,0.4655],[-71.7349,21.7124,0.0869],[-71.7326,21.7174,0.4924],[-71.7285,21.7171,0.3371],[-71.7276,21.7151,0.0],[-71.7249,21.7193,0.1246],[-71.7226,21.7188,0.2979],[-71.7235,21.7171,0.1081],[-71.7199,21.7132,0.0],[-71.7182,21.7149,0.1495],[-71.7107,21.7149,0.3131],[-71.7182,21.7118,0.2496],[-71.7224,21.7126,0.0704],[-71.726,21.7062,0.1048],[-71.7343,21.704,0.0817],[-71.7343,21.7029,0.0],[-71.731,21.7029,0.0922],[-71.721,21.6979,0.0],[-71.7196,21.696,0.0],[-71.7129,21.7015,0.0],[-71.711,21.7004,0.0],[-71.7054,21.7018,0.0],[-71.7007,21.701,0.0],[-71.7015,21.7079,0.0],[-71.6993,21.7062,0.1046],[-71.6996,21.7032,0.0],[-71.696,21.7024,0.1146],[-71.6965,21.6996,0.0],[-71.6893,21.6979,0.0],[-71.6874,21.6993,0.0],[-71.6868,21.7026,0.3659],[-71.6826,21.7032,0.0],[-71.681,21.7054,0.0],[-71.6751,21.706,0.1137],[-71.6721,21.7043,0.0],[-71.6582,21.706,0.1931],[-71.6568,21.7096,0.0],[-71.6426,21.7124,0.209],[-71.6371,21.7151,0.0],[-71.6385,21.719,0.2754],[-71.6349,21.7224,0.0],[-71.6346,21.7285,0.0],[-71.6374,21.7307,0.1149],[-71.6374,21.7363,0.0],[-71.6404,21.7371,0.0],[-71.6401,21.7432,0.0],[-71.6424,21.7454,3.9061],[-71.6413,21.7507,0.0],[-71.6435,21.7507,1.5161],[-71.6429,21.754,0.3509],[-71.6399,21.7563,0.0],[-71.6374,21.7707,0.6542],[-71.6471,21.7793,0.0],[-71.6537,21.7921,0.0],[-71.6604,21.8154,3.2345],[-71.6582,21.8193,1.897],[-71.6618,21.8196,1.1079],[-71.6674,21.8265,0.0],[-71.6699,21.8268,1.5181],[-71.6732,21.8335,0.805],[-71.6793,21.8324,1.4868],[-71.6804,21.8338,0.0],[-71.6821,21.8307,0.9883],[-71.6871,21.8307,1.131],[-71.6982,21.8349,2.5885],[-71.7007,21.8388,0.0],[-71.7021,21.8374,0.0],[-71.701,21.8349,0.8544],[-71.7024,21.8321,0.5604],[-71.7101,21.8304,1.1979],[-71.7107,21.8285,3.2304],[-71.7132,21.8276,2.0418],[-71.7365,21.8288,0.5299],[-71.7501,21.8346,0.0],[-71.7629,21.8371,0.5306],[-71.7682,21.8371,0.0],[-71.779,21.8332,6.7974],[-71.8018,21.8318,6.3765],[-71.8151,21.8363,6.7698],[-71.8246,21.8412,7.641],[-71.8332,21.8501,1.1245],[-71.8337,21.8532,2.731],[-71.8374,21.8551,1.4109],[-71.8376,21.8585,6.3569]],
[[-71.8788,21.770763636363657,0.1655],[-71.8788,21.771,0.1655],[-71.878700191938592,21.771094817658341,0.1655],[-71.8788,21.770763636363657,0.1655]],
[[-71.878700191938592,21.771094817658341,0.1655],[-71.8768,21.7774,0.1072],[-71.8737,21.778199999999998,0.5218],[-71.8765,21.7763,0.0],[-71.8768,21.7729,0.0624],[-71.878700191938592,21.771094817658341,0.1655]]],
[[[-71.6676,21.6999,0.0755],[-71.6718,21.6999,0.1613],[-71.671,21.6971,0.1085],[-71.6724,21.6946,0.0],[-71.6685,21.6971,0.4207],[-71.6637,21.6965,0.0],[-71.6607,21.6982,0.1071],[-71.6626,21.6999,0.0953],[-71.6676,21.6999,0.0755]]],
[[[-71.8412,21.7151,0.0999],[-71.8435,21.715699999999998,0.0],[-71.8435,21.7126,0.0],[-71.8463,21.7115,0.1779],[-71.8504,21.7121,0.0],[-71.8501,21.7093,0.1649],[-71.8451,21.706,0.0],[-71.8449,21.7101,0.0],[-71.8412,21.7121,0.0],[-71.8412,21.7151,0.0999]]]]}}