{"type": "Feature","id": "5003","bbox": [-71.85066,21.74388,-71.63093,21.85627],"geometry": {"type": "Polygon","coordinates": [[[-71.80285,21.78791,1.3686],[-71.74112,21.79491,3.0475],[-71.71544,21.7873,4.7533],[-71.69982,21.76,0.0],[-71.69359,21.76,0.0],[-71.69201,21.76406,0.0],[-71.68615,21.77432,2.4311],[-71.66853,21.75043,11.1843],[-71.6586,21.74388,11.2959],[-71.64517,21.74641,1.274],[-71.65241,21.76496,0.0],[-71.67121,21.79975,1.0428],[-71.67931,21.82209,1.3854],[-71.66808,21.80976,2.4069],[-71.65905,21.79352,2.0216],[-71.64806,21.77961,2.3591],[-71.63093,21.77432,0.0],[-71.65518,21.82323,0.0],[-71.66564,21.83576,0.0],[-71.67878,21.84186,0.0],[-71.69176,21.84121,0.0],[-71.72033,21.83576,0.0],[-71.78173,21.84317,0.0],[-71.79076,21.84223,0.0],[-71.79992,21.83991,0.0],[-71.8094,21.83999,0.0],[-71.82584,21.85078,0.0],[-71.83381,21.85383,0.0],[-71.84236,21.85562,0.0],[-71.85066,21.85627,0.0],[-71.84801,21.8194,0.411],[-71.84439,21.80781,0.4026],[-71.83552,21.79149,1.1259],[-71.82771,21.78579,2.2685],[-71.80285,21.78791,1.3686]]]}
,"properties": {"ISO3166-1-Alpha-3": "TCA","country": "Turks and Caicos Islands","fill": "#F0F","name": "Middle Caicos","area_km2": 134.5644,"hist_schema_id": "Elevation0-9000","hist_area_km2": {"0": 130.4898,"25": 4.0549,"50": 0.0197}}}