{"type": "Feature","id": "1365","bbox": [-75.48968,19.88254,-74.13288,20.55606],"geometry": {"type": "Polygon","coordinates": [[[-74.15966,20.27342,0.0],[-74.19371,20.29393,8.7314],[-74.21361,20.31098,0.0],[-74.22354,20.31737,0.0],[-74.23595,20.32123,0.0],[-74.25719,20.31965,0.0],[-74.27623,20.31122,10.69],[-74.29369,20.30093,124.0112],[-74.31041,20.29393,0.0],[-74.3297,20.29523,8.6859],[-74.35192,20.30044,0.0],[-74.37218,20.30052,0.0],[-74.38557,20.28653,0.0],[-74.39297,20.28653,22.0361],[-74.40111,20.30728,10.3882],[-74.42341,20.32758,0.0],[-74.45027,20.34309,15.8619],[-74.47208,20.34919,6.4059],[-74.48575,20.35082,0.0],[-74.49498,20.35517,0.0],[-74.54393,20.40355,10.8209],[-74.54723,20.41006,17.6878],[-74.5548,20.41446,20.0347],[-74.5865,20.4558,24.8391],[-74.59728,20.47679,46.5898],[-74.60521,20.48574,0.0],[-74.65071,20.51309,1.4404],[-74.66999,20.52766,0.0],[-74.67349,20.54096,0.0],[-74.70983,20.55223,0.0],[-74.71516,20.55606,1.4067],[-74.71517,20.55606,1.4067],[-74.72776,20.54986,17.9148],[-74.7376,20.54254,223.3722],[-74.74094,20.54066,217.4096],[-74.74401,20.53999,165.2268],[-74.75189,20.54017,197.5148],[-74.756,20.53973,226.4781],[-74.75959,20.53807,347.5323],[-74.76719,20.5318,430.151],[-74.77251,20.52601,463.2813],[-74.77964,20.51616,441.5902],[-74.78471,20.50668,260.8231],[-74.79029,20.49102,340.7521],[-74.7916,20.47157,331.5891],[-74.78316,20.44477,186.1125],[-74.82362,20.42924,188.9792],[-74.82641,20.42728,215.3327],[-74.82915,20.42444,196.8005],[-74.83059,20.42142,361.5621],[-74.83215,20.41738,244.3161],[-74.83323,20.41167,371.225],[-74.8347,20.40847,445.1795],[-74.83871,20.40677,494.1818],[-74.84499,20.40819,441.6611],[-74.8584,20.414,331.7754],[-74.8686,20.42108,386.945],[-74.87964,20.42733,293.8174],[-74.91617,20.4434,434.8949],[-74.94984,20.46635,481.4434],[-74.95953,20.47123,442.5329],[-74.96878,20.47206,580.2145],[-74.99578,20.46831,456.6093],[-75.0012,20.46674,580.3798],[-75.0034,20.46482,726.4457],[-74.99945,20.45699,665.122],[-74.99834,20.45407,683.2556],[-74.9981,20.45149,667.3086],[-75.0002,20.44444,654.6482],[-75.00071,20.44128,637.8289],[-75.00051,20.43973,662.7101],[-74.99934,20.43937,578.121],[-74.99141,20.43857,569.7543],[-74.98549,20.43392,706.6187],[-74.98177,20.42955,628.1769],[-74.97924,20.42514,505.0155],[-74.978,20.42224,486.3961],[-74.97725,20.41948,449.6761],[-74.9773,20.41669,511.8331],[-74.97823,20.41304,540.6577],[-74.98224,20.41204,569.0951],[-74.98878,20.41322,506.5133],[-75.01585,20.43116,653.4453],[-75.04826,20.43371,723.2671],[-75.07048,20.45082,633.587],[-75.09885,20.47929,508.1511],[-75.10497,20.48418,518.6144],[-75.11047,20.48474,618.9878],[-75.11688,20.48322,568.6263],[-75.13988,20.475,322.8335],[-75.15835,20.46557,238.8747],[-75.16461,20.46467,236.4548],[-75.16949,20.46565,163.4407],[-75.17783,20.47229,158.5623],[-75.18303,20.4733,121.5625],[-75.18969,20.4717,159.9769],[-75.21235,20.45922,290.4654],[-75.22576,20.44769,295.4991],[-75.2283,20.44211,215.5897],[-75.2314,20.41204,466.7025],[-75.24049,20.39679,385.2333],[-75.25507,20.40715,206.7706],[-75.25654,20.41018,231.4134],[-75.26018,20.41258,136.0594],[-75.2639,20.41219,180.2738],[-75.28222,20.40374,145.632],[-75.28674,20.4033,165.4744],[-75.29111,20.40493,229.5565],[-75.29997,20.41018,354.5899],[-75.30666,20.41591,421.8492],[-75.30798,20.41762,421.4346],[-75.3115,20.42312,372.024],[-75.31697,20.42816,306.7559],[-75.32648,20.43426,356.078],[-75.33072,20.43798,385.2199],[-75.33723,20.43989,423.4559],[-75.3448,20.4386,367.6504],[-75.36408,20.42576,293.805],[-75.37547,20.42286,348.9358],[-75.38477,20.41573,412.8923],[-75.3894,20.40733,334.7021],[-75.39356,20.40423,393.2382],[-75.39847,20.40335,306.2567],[-75.40782,20.40645,304.2767],[-75.41149,20.40808,337.7157],[-75.41655,20.40912,339.6975],[-75.41924,20.40793,324.4147],[-75.42095,20.4047,342.3429],[-75.42164,20.40105,317.3487],[-75.42177,20.39612,361.7814],[-75.42304,20.38961,336.9027],[-75.42699,20.38155,369.5522],[-75.43702,20.36718,407.3502],[-75.44857,20.35827,341.7459],[-75.45996,20.35147,356.7108],[-75.47255,20.34672,292.7649],[-75.47733,20.34284,342.8347],[-75.47913,20.34002,364.2423],[-75.47513,20.3315,563.5891],[-75.46456,20.31109,552.7515],[-75.46211,20.2946,301.2242],[-75.4635,20.26233,226.4452],[-75.46518,20.25693,189.4581],[-75.46735,20.25476,195.683],[-75.47063,20.25236,198.6297],[-75.47332,20.25,201.0055],[-75.47596,20.24626,169.8414],[-75.48045,20.23817,156.8105],[-75.48151,20.23367,152.8108],[-75.48099,20.22729,151.6495],[-75.47528,20.20337,149.4008],[-75.47022,20.18897,143.5949],[-75.46782,20.18471,135.1492],[-75.46273,20.1714,164.9733],[-75.46187,20.16996,182.196],[-75.46004,20.16794,213.1497],[-75.45051,20.16146,209.3707],[-75.4512,20.1349,93.1532],[-75.4481,20.1235,81.1185],[-75.44554,20.12143,90.8181],[-75.44252,20.12066,91.4455],[-75.43836,20.12035,89.0008],[-75.43208,20.11702,138.943],[-75.42963,20.11255,106.5763],[-75.42883,20.10363,121.1715],[-75.43048,20.09821,132.1005],[-75.43327,20.09467,169.5132],[-75.45694,20.08353,151.4133],[-75.4688,20.06965,204.9132],[-75.47296,20.0672,252.4823],[-75.47611,20.0672,272.466],[-75.48968,20.06172,505.0875],[-75.48828,20.02462,682.2373],[-75.48371,20.00953,329.9949],[-75.47053,19.98888,385.8279],[-75.46428,19.98178,435.9781],[-75.44275,19.96284,562.9219],[-75.38211,19.88259,0.0],[-75.38208,19.88254,0.0],[-75.28466,19.88825,24.2855],[-75.23286,19.90005,0.0],[-75.23286,19.90005,0.0],[-75.22897,19.93744,16.3819],[-75.17886,19.97073,1.9997],[-75.16019,19.97065,4.6934],[-75.15913,19.97777,3.2767],[-75.147,19.98428,0.0629],[-75.15123,19.99457,1.2487],[-75.15331,19.99917,0.2111],[-75.15543,19.99494,2.5515],[-75.15807,19.99136,0.3275],[-75.16211,19.99041,0.3396],[-75.16868,19.99194,0.5796],[-75.17406,19.99348,0.0],[-75.17736,20.00397,1.0945],[-75.17545,20.01374,0.0],[-75.16943,20.02558,1.2822],[-75.15433,20.03117,3.6849],[-75.14381,20.02595,0.0],[-75.13579,20.0213,0.6825],[-75.12861,20.03351,0.0],[-75.12238,20.04391,0.6723],[-75.11279,20.05748,3.9286],[-75.09244,20.06122,-0.5],[-75.09081,20.03547,0.0],[-75.08486,20.0259,0.0],[-75.09013,20.01414,18.2433],[-75.10208,19.9929,0.0],[-75.11505,19.99062,0.8389],[-75.12975,19.98115,0.0],[-75.13516,19.97628,0.9529],[-75.13704,19.97155,1.1007],[-75.09495,19.97158,12.9734],[-75.09501,19.89723,0.0],[-75.09178,19.89713,0.0],[-75.06633,19.90486,20.438],[-75.06638,19.91437,14.3848],[-75.06352,19.9216,0.6176],[-75.05823,19.92297,0.5247],[-75.05103,19.91937,0.8421],[-75.04567,19.9076,11.542],[-75.01008,19.91157,1.0129],[-74.97787,19.92303,0.0],[-74.96156,19.94701,0.7828],[-74.95552,19.96781,8.9066],[-74.94733,19.97595,6.0185],[-74.93352,19.97822,22.2745],[-74.91002,19.97866,0.0],[-74.88781,19.98408,0.0],[-74.87068,19.99702,0.0],[-74.85513,20.01276,0.0],[-74.838,20.02643,0.0],[-74.81298,20.03726,0.0],[-74.78842,20.03947,6.1243],[-74.71312,20.0518,0.0],[-74.65018,20.04216,15.9805],[-74.61865,20.05452,5.049],[-74.58048,20.04764,2.8234],[-74.49836,20.06562,2.7904],[-74.45592,20.06867,0.0],[-74.39297,20.08104,34.6756],[-74.34659,20.07958,5.1581],[-74.30451,20.06932,0.0],[-74.2674,20.0683,0.0],[-74.23595,20.09467,0.0],[-74.2303,20.13032,21.7272],[-74.22509,20.13569,11.9601],[-74.21833,20.13784,0.0],[-74.19807,20.14887,16.9578],[-74.18407,20.16267,28.6829],[-74.16291,20.17056,16.5765],[-74.14196,20.1826,6.1877],[-74.13288,20.20458,0.0],[-74.13508,20.22382,0.7454],[-74.13964,20.24234,0.6738],[-74.14753,20.25918,0.0],[-74.15966,20.27342,0.0]]]}
,"properties": {"ISO3166-1-Alpha-3": "CUB","country": "Cuba","fill": "#F0F","name": "Guantánamo","area_km2": 6168.692,"hist_schema_id": "Elevation0-9000","hist_area_km2": {"0": 304.373,"25": 439.924,"50": 381.728,"75": 307.657,"100": 246.375,"125": 253.236,"150": 255.949,"175": 252.704,"200": 223.606,"225": 216.052,"250": 214.628,"275": 207.335,"300": 194.151,"325": 185.812,"350": 189.345,"375": 183.036,"400": 184.171,"425": 185.953,"450": 174.692,"475": 159.441,"500": 145.119,"525": 139.652,"550": 130.181,"575": 117.368,"600": 113.066,"625": 103.534,"650": 99.951,"675": 88.812,"700": 84.75,"725": 86.435,"750": 81.742,"775": 63.236,"800": 48.305,"825": 32.359,"850": 21.484,"875": 17.228,"900": 11.46,"925": 6.05,"950": 4.796,"975": 3.821,"1000": 2.627,"1025": 2.647,"1050": 1.572,"1075": 1.115,"1100": 0.617,"1125": 0.378,"1150": 0.119,"1175": 0.1}}}