{"type":"Feature","properties":{"GID_1":"CUB.6_1","GID_0":"CUB","country":"Cuba","province":"Guantánamo","VARNAME_1":"NA","NL_NAME_1":"NA","TYPE_1":"Provincia","ENGTYPE_1":"Province","CC_1":"NA","HASC_1":"CU.GU","ISO_1":"NA","name":"Guantánamo.province"},
"geometry":{"type": "MultiPolygon","coordinates": [[[[-75.126,19.9932,2.5943],[-75.1265,19.9946,1.0051],[-75.1288,19.9912,2.7029],[-75.1268,19.991,0.0],[-75.126,19.9932,2.5943]]],
[[[-75.0918,20.051,1.9392],[-75.0929,20.0421,0.8862],[-75.0896,20.0421,-0.0594],[-75.0826,20.0349,0.3306],[-75.0785,20.0326,0.0],[-75.079,20.031,0.4947],[-75.0801,20.0329,0.0],[-75.0818,20.0321,0.0],[-75.0804,20.0287,0.7407],[-75.0826,20.0251,0.3707],[-75.0835,20.0193,0.0],[-75.0824,20.0176,2.0502],[-75.084,20.0165,7.352],[-75.086,20.0182,0.8905],[-75.0912,20.0174,0.0],[-75.0965,20.0132,0.0],[-75.0949,20.0032,0.0],[-75.0985,19.999,0.0],[-75.0963,19.994,0.2934],[-75.1001,19.9912,0.2981],[-75.1204,19.9938,0.0],[-75.1215,19.9912,0.0],[-75.1185,19.9907,1.2169],[-75.1199,19.9871,0.0],[-75.1232,19.9851,3.5556],[-75.1274,19.9854,0.0],[-75.1268,19.9824,0.8705],[-75.1288,19.9804,3.318],[-75.1346,19.9835,1.1971],[-75.1354,19.9824,1.1971],[-75.1338,19.9793,0.0],[-75.1374,19.9785,2.7581],[-75.1415,19.9746,0.6002],[-75.1385,19.964,0.1501],[-75.136,19.9618,0.0],[-75.1338,19.9629,0.1558],[-75.1324,19.9615,0.0],[-75.134,19.9588,0.0],[-75.1329,19.9532,0.0],[-75.1218,19.9546,0.0],[-75.1218,19.9588,0.0],[-75.1254,19.9607,5.527],[-75.1243,19.964,3.5999],[-75.1221,19.9638,0.0],[-75.1235,19.9662,1.4914],[-75.1204,19.9707,0.7841],[-75.1188,19.9696,0.8128],[-75.1207,19.9615,0.0],[-75.1157,19.9585,0.0],[-75.1168,19.9538,0.0],[-75.1151,19.9526,0.0],[-75.1132,19.9532,0.0],[-75.1093,19.9588,0.0],[-75.1118,19.9601,0.2143],[-75.1113,19.9618,0.0],[-75.1024,19.9615,0.3032],[-75.1015,19.9585,0.3003],[-75.1099,19.9549,0.0],[-75.1126,19.951,0.0],[-75.1096,19.951,0.2794],[-75.1085,19.9543,0.465],[-75.1026,19.9557,0.0],[-75.1026,19.9532,0.2366],[-75.106,19.9526,0.0],[-75.1079,19.9501,0.0],[-75.1032,19.9496,0.2517],[-75.1024,19.946,0.6335],[-75.1071,19.944,0.6481],[-75.1071,19.946,0.1934],[-75.1099,19.9471,0.0],[-75.1099,19.9443,0.0],[-75.1126,19.946,0.0],[-75.1135,19.949,0.0],[-75.1171,19.9454,6.5994],[-75.1243,19.9485,0.2425],[-75.1246,19.9468,0.0],[-75.1229,19.946,3.525],[-75.1235,19.9426,0.0],[-75.1257,19.9424,0.2925],[-75.1257,19.9443,0.0],[-75.1271,19.9446,0.0],[-75.1279,19.9413,0.7676],[-75.1304,19.9396,1.7542],[-75.1301,19.9368,0.5014],[-75.136,19.9285,3.4543],[-75.1404,19.9254,8.9284],[-75.1454,19.9249,4.3871],[-75.1454,19.9235,0.0],[-75.1426,19.9229,0.0],[-75.1449,19.9212,0.3987],[-75.1443,19.9179,1.7288],[-75.146,19.9204,3.7378999999999998],[-75.1493,19.9207,0.0],[-75.1532,19.9163,0.0],[-75.1543,19.9185,4.2488],[-75.1624,19.9201,0.2577],[-75.166,19.916,12.5399],[-75.1665,19.909,0.0],[-75.1682,19.9065,0.0],[-75.1654,19.8991,11.4785],[-75.1665,19.894,0.0],[-75.1646,19.8918,0.0],[-75.1596,19.8913,1.9811],[-75.1579,19.8896,0.0],[-75.1535,19.8924,15.3796],[-75.1501,19.8915,0.0],[-75.1468,19.8949,0.0],[-75.1443,19.8935,0.0],[-75.1349,19.8935,0.0],[-75.1315,19.8954,0.0],[-75.1293,19.8943,0.0],[-75.1224,19.8951,0.0],[-75.1179,19.8985,0.0],[-75.1146,19.896,0.0],[-75.1085,19.896,0.0],[-75.0985,19.901,5.879],[-75.0937,19.8988,0.0],[-75.0865,19.9015,1.9405],[-75.081,19.8988,4.5546],[-75.0568,19.9026,0.0],[-75.0568,19.9065,0.0],[-75.0607,19.9101,0.0],[-75.0574,19.9126,0.0],[-75.0626,19.9151,4.8143],[-75.0643,19.9185,1.9611],[-75.0587,19.916,0.0],[-75.0593,19.9199,0.7233],[-75.0565,19.9224,0.4168],[-75.0546,19.9199,1.3212],[-75.0554,19.916,0.0],[-75.0501,19.9182,0.0],[-75.0493,19.9171,0.0],[-75.0521,19.9126,0.9011],[-75.0465,19.9118,0.0],[-75.0479,19.9101,3.0268],[-75.0571,19.911,0.2895],[-75.0543,19.9046,0.0],[-75.0424,19.9068,0.0],[-75.031,19.9071,10.5012],[-75.0293,19.906,0.0],[-75.029,19.9074,5.6453],[-75.0249,19.9085,0.0],[-75.0193,19.9079,1.5027],[-75.0101,19.9112,1.0129],[-75.0062,19.9143,1.8552],[-75.001,19.9143,0.0],[-75.0001,19.9165,0.0],[-74.9965,19.9185,0.0],[-74.9912,19.9174,0.0],[-74.9876,19.9204,0.483],[-74.9826,19.921,1.4619],[-74.9676,19.9354,0.0],[-74.9649,19.9424,2.4577],[-74.9546,19.9554,0.0],[-74.9512,19.9685,0.0],[-74.956,19.9701,3.1248],[-74.9554,19.9751,1.0276],[-74.951,19.974,4.3761],[-74.9463,19.976,6.0185],[-74.9376,19.9729,0.0],[-74.9257,19.9735,0.0],[-74.9171,19.9749,0.0],[-74.9149,19.9771,5.8134],[-74.9104,19.9771,0.0],[-74.9046,19.9804,0.0],[-74.896,19.9815,0.0],[-74.881,19.989,0.8413],[-74.8715,20.0085,1.1819],[-74.8649,20.0126,5.7341],[-74.859,20.014,0.8072],[-74.8538,20.0182,2.8337],[-74.8526,20.0249,0.0],[-74.8485,20.0251,0.0],[-74.836,20.0346,5.6211],[-74.8307,20.0343,48.7074],[-74.8285,20.0326,0.0],[-74.8218,20.0351,0.0],[-74.8182,20.0343,0.0],[-74.814,20.0396,0.0],[-74.8101,20.0418,0.0],[-74.806,20.0413,0.0],[-74.8012,20.0435,2.2914],[-74.801,20.041,0.0],[-74.7962,20.0407,6.5557],[-74.7929,20.0374,0.0],[-74.7829,20.0396,0.0],[-74.776,20.0435,0.0],[-74.7651,20.0465,0.9176],[-74.7538,20.0476,7.4579],[-74.7504,20.0457,2.469],[-74.7407,20.0454,0.0],[-74.7315,20.0482,0.0],[-74.7296,20.0513,2.4307],[-74.7082,20.0537,0.0],[-74.6993,20.051,4.389],[-74.6913,20.054,20.1911],[-74.6913,20.0524,5.6348],[-74.6879,20.0496,1.8594],[-74.6807,20.0471,22.1364],[-74.6551,20.0421,21.5981],[-74.641,20.0435,0.0],[-74.6265,20.0518,0.0],[-74.616,20.0554,0.9023],[-74.6087,20.0549,0.7521],[-74.5957,20.0485,0.0],[-74.5743,20.0476,5.9419],[-74.5521,20.0568,2.2321],[-74.5424,20.0582,0.0],[-74.536,20.0618,1.3872],[-74.5096,20.0604,0.0],[-74.5015,20.0649,2.2974],[-74.4971,20.0635,0.0],[-74.4879,20.0699,1.647],[-74.4804,20.0643,3.2489],[-74.4735,20.0668,0.0],[-74.4601,20.066,8.075],[-74.4532,20.0693,6.247],[-74.4465,20.0676,5.4468],[-74.4404,20.0701,1.4548],[-74.4274,20.0707,0.805],[-74.4054,20.0771,15.5234],[-74.3979,20.0751,0.0],[-74.3938,20.0776,4.7631],[-74.3796,20.0779,2.7081],[-74.3593,20.0815,1.8563],[-74.3501,20.0812,5.6781],[-74.3454,20.0776,0.5412],[-74.3412,20.0788,10.6045],[-74.3335,20.0776,2.4111],[-74.3293,20.0812,4.8311],[-74.3121,20.0807,18.4538],[-74.3037,20.0735,3.9902],[-74.3012,20.0688,2.0908],[-74.2971,20.0662,4.2975],[-74.2693,20.0685,0.0],[-74.2462,20.0796,0.0],[-74.2382,20.0901,0.0],[-74.2349,20.0924,0.0],[-74.2349,20.1101,0.0],[-74.2332,20.1157,0.0],[-74.2343,20.1179,3.1028],[-74.2265,20.1335,0.0],[-74.221,20.138,5.1368],[-74.2099,20.1407,8.8011],[-74.2001,20.1451,0.0],[-74.1851,20.156,11.2756],[-74.1668,20.1635,0.0],[-74.1485,20.1757,0.6896],[-74.1435,20.1804,0.0],[-74.1368,20.1918,0.0],[-74.1312,20.2121,0.0],[-74.1382,20.2376,0.0],[-74.1421,20.2435,5.2336],[-74.1426,20.2485,1.735],[-74.1454,20.2512,0.0],[-74.1454,20.2551,0.0],[-74.1482,20.2568,2.1221],[-74.1496,20.2604,0.0],[-74.1535,20.2613,1.0192],[-74.1643,20.2735,2.2604],[-74.1776,20.2832,3.698],[-74.1968,20.3035,0.0],[-74.2121,20.309,1.3445],[-74.2288,20.3188,0.0],[-74.2901,20.3096,0.0],[-74.3001,20.3007,0.0],[-74.3012,20.2965,31.1828],[-74.3074,20.2935,26.0671],[-74.3207,20.2932,7.9062],[-74.329,20.296,0.404],[-74.3363,20.2954,7.0457],[-74.3399,20.2968,1.238],[-74.3415,20.2968,0.0],[-74.3424,20.2946,2.3707],[-74.376,20.2954,8.0078],[-74.3801,20.2907,2.2168],[-74.3782,20.2888,1.3713],[-74.3788,20.2854,2.8735],[-74.3851,20.2843,0.0],[-74.3874,20.2901,3.0075],[-74.3815,20.2926,0.0],[-74.3812,20.2971,0.0],[-74.3876,20.2985,8.3613],[-74.401,20.3101,2.9483],[-74.4154,20.3046,2.4656],[-74.4099,20.3082,0.0],[-74.4049,20.3093,0.0],[-74.4032,20.3118,9.3461],[-74.4062,20.3149,1.0503],[-74.4112,20.316,7.3511],[-74.4185,20.321,0.0],[-74.419,20.3229,0.0],[-74.4296,20.3312,1.6682],[-74.4368,20.3349,1.8383],[-74.4365,20.3365,0.0],[-74.4407,20.3385,6.0493],[-74.4421,20.3413,0.0],[-74.444,20.3413,0.0],[-74.4526,20.3479,0.0],[-74.4687,20.3512,0.0],[-74.4749,20.3468,0.0],[-74.4749,20.341,0.0],[-74.4846,20.3382,1.4495],[-74.491,20.3418,0.4886],[-74.4951,20.3512,0.0],[-74.4979,20.3535,1.4834],[-74.5015,20.3537,3.8843],[-74.5024,20.3493,0.448],[-74.5054,20.3499,0.9463],[-74.5079,20.3521,3.0865],[-74.5085,20.3551,3.9624],[-74.5051,20.3568,0.0],[-74.5018,20.3563,3.2395],[-74.5024,20.3654,1.536],[-74.511,20.3743,0.0],[-74.5124,20.3735,0.0],[-74.5121,20.371,0.0],[-74.5154,20.371,0.0],[-74.5226,20.3757,0.9741],[-74.5215,20.3776,0.0],[-74.5282,20.3893,0.0],[-74.5349,20.3854,3.355],[-74.5379,20.3857,0.0],[-74.5343,20.3874,0.0],[-74.5312,20.3924,0.0],[-74.5329,20.3943,0.0],[-74.5321,20.3988,0.0],[-74.5354,20.4037,6.2567],[-74.5349,20.411,14.5377],[-74.5379,20.4193,0.0],[-74.5432,20.4251,6.9879],[-74.5457,20.4254,4.358],[-74.5479,20.4232,8.0407],[-74.5468,20.4276,0.0],[-74.554,20.4279,0.0],[-74.5579,20.4254,2.8638],[-74.5593,20.4224,0.0],[-74.561,20.4232,0.0],[-74.5576,20.4265,0.0],[-74.5576,20.4293,0.0],[-74.5615,20.4312,2.5418],[-74.5626,20.4385,0.0],[-74.5685,20.4451,0.0],[-74.5713,20.4451,2.8858],[-74.5715,20.4479,0.0],[-74.576,20.4493,2.9852],[-74.5754,20.4513,4.3189],[-74.5696,20.4504,0.0],[-74.5696,20.4574,6.7667],[-74.571,20.4599,0.6955],[-74.5776,20.4646,0.0],[-74.5851,20.4668,3.4471],[-74.5904,20.4718,2.5252],[-74.5921,20.4715,2.5252],[-74.5904,20.476,0.0],[-74.5943,20.4821,0.0],[-74.599,20.4851,2.8069],[-74.6087,20.4854,2.0882],[-74.6115,20.4804,10.6223],[-74.6132,20.4821,11.2359],[-74.6121,20.4849,0.0],[-74.6157,20.4862,3.6967],[-74.6154,20.4879,0.6548],[-74.6201,20.4918,1.2242],[-74.6224,20.4918,2.6985],[-74.6235,20.4893,0.0],[-74.6274,20.4876,0.0],[-74.6271,20.4907,3.8164],[-74.6224,20.4932,0.0],[-74.6257,20.4996,0.0],[-74.6288,20.5007,0.0],[-74.6312,20.5046,0.0],[-74.6396,20.509,1.0341],[-74.6476,20.5107,0.0],[-74.6565,20.519,0.0],[-74.6588,20.5182,6.5073],[-74.6626,20.5221,0.0],[-74.6676,20.5229,1.2681],[-74.6674,20.5154,27.8587],[-74.6693,20.5149,7.5573],[-74.6712,20.5112,3.5171],[-74.6757,20.5224,12.103],[-74.6721,20.5238,12.6566],[-74.6693,20.5218,0.0],[-74.6685,20.5246,11.2535],[-74.6787,20.5346,0.9732],[-74.6826,20.5343,1.9606],[-74.6868,20.5365,0.4357],[-74.6951,20.5332,3.9403],[-74.6979,20.5349,3.1087],[-74.7021,20.534,3.4078],[-74.6999,20.5365,0.7576],[-74.6999,20.5393,0.0],[-74.7029,20.5476,0.6793],[-74.7085,20.5499,1.5798],[-74.7118,20.5532,1.744],[-74.7179,20.5504,2.4276],[-74.7143,20.5546,0.7849],[-74.7162,20.5596,0.2784],[-74.7154,20.5629,0.0],[-74.7218,20.574,0.7981],[-74.7254,20.571,2.0402],[-74.7218,20.5657,0.0],[-74.7174,20.5635,0.3919],[-74.7176,20.5599,0.2784],[-74.724,20.5546,0.4347],[-74.7265,20.5546,0.7788],[-74.7296,20.5704,0.0],[-74.7312,20.5718,5.4247],[-74.7293,20.574,0.0],[-74.7326,20.5768,0.5359],[-74.7318,20.5788,0.0],[-74.7349,20.5796,0.9941],[-74.7354,20.5821,0.0],[-74.7408,20.5829,3.154],[-74.7492,20.5741,39.4565],[-74.7565,20.5628,22.7534],[-74.7597,20.5454,294.5367],[-74.7505,20.4954,237.7938],[-74.7519,20.4842,502.6768],[-74.7574,20.4791,449.9864],[-74.7806,20.47,298.5248],[-74.7896,20.464,402.6607],[-74.796,20.4553,239.1231],[-74.7982,20.4364,268.9267],[-74.8015,20.4332,329.9543],[-74.8162,20.4351,221.0693],[-74.8615,20.4749,755.2764],[-74.8879,20.4932,881.3722],[-74.9089,20.503,981.8015],[-74.9105,20.5071,1119.0538],[-74.9091,20.5162,923.7972],[-74.9139,20.5262,861.3143],[-74.9174,20.5276,855.3824],[-74.95,20.5255,677.6162],[-74.9724,20.5299,355.9812],[-74.979,20.5298,138.8685],[-74.9802,20.5275,155.2461],[-74.9798,20.5219,191.3124],[-74.9756,20.5134,290.3137],[-74.969,20.5061,262.8295],[-74.9505,20.4951,715.1686],[-74.9451,20.4907,663.0473],[-74.9413,20.4849,960.2184],[-74.9407,20.4663,630.5833],[-74.9438,20.463,632.871],[-74.9528,20.465,514.2133],[-74.9719,20.4754,557.2216],[-74.9915,20.4967,417.1289],[-74.9971,20.4969,376.1471],[-75.0008,20.4948,387.5239],[-75.0038,20.4892,431.324],[-75.007,20.4891,473.2476],[-75.0215,20.5025,247.4265],[-75.0296,20.5071,368.014],[-75.0581,20.5177,350.8945],[-75.0724,20.5208,315.5502],[-75.082,20.5207,283.5306],[-75.0898,20.5188,264.8021],[-75.1111,20.5085,237.6485],[-75.1316,20.5062,289.0195],[-75.146,20.5158,203.6187],[-75.1538,20.5186,107.7182],[-75.161,20.518,138.8574],[-75.1788,20.5021,97.0524],[-75.1973,20.4751,378.0078],[-75.2055,20.4599,193.3967],[-75.2074,20.4405,282.1467],[-75.2101,20.4316,348.7235],[-75.2162,20.4265,365.4081],[-75.2243,20.4264,466.6157],[-75.2309,20.429,330.8178],[-75.2419,20.4407,315.5948],[-75.2503,20.4414,202.7831],[-75.2623,20.4342,96.766],[-75.2667,20.4339,140.4524],[-75.2726,20.437,167.6794],[-75.2818,20.4479,264.1416],[-75.2889,20.4631,158.9339],[-75.2961,20.4668,134.3352],[-75.3026,20.4668,193.9968],[-75.3109,20.4617,255.4014],[-75.3207,20.4486,329.4393],[-75.3407,20.438,357.2075],[-75.3462,20.4318,275.2531],[-75.3488,20.4143,405.2237],[-75.3524,20.4087,446.0779],[-75.3746,20.414,353.3168],[-75.3823,20.4139,457.1696],[-75.387,20.4112,401.108],[-75.3905,20.4003,472.2051],[-75.3924,20.3814,260.5829],[-75.3976,20.3763,325.645],[-75.4161,20.3652,483.0899],[-75.4247,20.3551,558.9492],[-75.4283,20.3456,594.8748],[-75.427,20.3418,508.6763],[-75.4152,20.3269,294.6302],[-75.4129,20.3163,232.4961],[-75.4134,20.3054,302.2066],[-75.4228,20.2911,272.0945],[-75.4261,20.2837,230.7743],[-75.4278,20.2742,264.66],[-75.4249,20.2663,285.8057],[-75.408,20.2583,252.5075],[-75.407,20.2556,261.6627],[-75.41,20.2488,255.4901],[-75.432,20.2438,218.9213],[-75.4345,20.2409,221.515],[-75.4343,20.2279,200.5879],[-75.4243,20.187,144.2939],[-75.4192,20.1765,140.2321],[-75.4104,20.1677,222.5822],[-75.3749,20.1443,265.0925],[-75.3732,20.142,221.6837],[-75.3742,20.1401,199.1926],[-75.3729,20.136,156.2344],[-75.366,20.1319,78.0303],[-75.3625,20.1264,77.0],[-75.3624,20.1214,90.3256],[-75.3661,20.1169,80.047],[-75.3896,20.1105,77.0],[-75.3958,20.106,222.4048],[-75.4003,20.0941,207.8076],[-75.4019,20.08,112.3873],[-75.4049,20.0725,108.9713],[-75.4105,20.0722,125.789],[-75.4139,20.0739,107.1183],[-75.426,20.0929,221.6493],[-75.432,20.0982,138.2444],[-75.4377,20.1005,118.9916],[-75.4435,20.0983,120.082],[-75.445,20.0933,139.7489],[-75.4398,20.0792,172.7267],[-75.4388,20.0486,202.1005],[-75.4331,20.0218,120.8578],[-75.4254,20.0086,98.3859],[-75.3474,19.9401,49.058],[-75.3281,19.9167,30.1567],[-75.3244,19.8988,17.7112],[-75.3257,19.8824,12.1494],[-75.3226,19.8826,0.0],[-75.3235,19.8851,0.0],[-75.3215,19.886,11.6331],[-75.3157,19.8813,1.7699],[-75.3085,19.8821,8.562],[-75.3043,19.8807,4.4881],[-75.3032,19.884,11.1221],[-75.2949,19.8821,7.5616],[-75.2904,19.8843,8.5321],[-75.2887,19.8871,21.0444],[-75.2854,19.8846,0.0],[-75.2757,19.8926,12.8819],[-75.2693,19.8921,3.3988],[-75.2688,19.8943,13.1732],[-75.2649,19.8935,0.0],[-75.2651,19.8949,16.2047],[-75.2574,19.896,2.1394],[-75.2513,19.8999,1.0283],[-75.2351,19.8999,0.0],[-75.2293,19.903199999999998,6.4735],[-75.2182,19.9054,0.0],[-75.1932,19.9051,0.0],[-75.1907,19.9076,0.0],[-75.1904,19.9121,0.0],[-75.1965,19.9112,4.8845],[-75.1982,19.9096,8.3664],[-75.2007,19.9112,0.0],[-75.2046,19.9099,5.4388],[-75.2079,19.914,4.6346],[-75.206,19.919,0.0],[-75.2087,19.9188,0.0],[-75.2118,19.9157,0.1953],[-75.2135,19.9174,0.0],[-75.2121,19.9199,0.3374],[-75.2176,19.9199,1.2586],[-75.2182,19.9232,0.0],[-75.216,19.9254,0.0],[-75.211,19.9251,0.0],[-75.2118,19.9276,3.9042],[-75.2101,19.929,6.0775],[-75.2032,19.9285,0.0],[-75.2018,19.9215,0.0],[-75.204,19.9168,1.0239],[-75.2065,19.9154,0.0],[-75.1943,19.9126,1.6938],[-75.1932,19.9151,4.2876],[-75.1968,19.9226,0.0],[-75.1918,19.9287,0.0],[-75.1799,19.9338,1.3398],[-75.1768,19.9368,3.4498],[-75.1557,19.9371,0.7964],[-75.1518,19.9385,0.0],[-75.1501,19.9404,1.1587],[-75.1529,19.9424,1.1841],[-75.1507,19.9457,0.0],[-75.1593,19.9432,0.3834],[-75.1615,19.9504,0.3936],[-75.1635,19.9488,0.0],[-75.1643,19.9524,0.0],[-75.171,19.9543,2.4103],[-75.169,19.9546,2.1868],[-75.1676,19.954,2.0415],[-75.1668,19.9543,2.0415],[-75.1654,19.9571,6.2939],[-75.1654,19.9538,1.7537],[-75.1629,19.954,1.8584],[-75.1621,19.9507,0.0],[-75.1588,19.9499,0.0],[-75.1579,19.9546,0.0],[-75.1607,19.9546,0.2495],[-75.1635,19.9585,0.325],[-75.1593,19.959,0.1783],[-75.1568,19.9568,0.0],[-75.1576,19.9604,0.0],[-75.161,19.9626,0.0],[-75.1657,19.9613,4.599],[-75.1699,19.9682,0.0],[-75.1657,19.9701,4.4575],[-75.1637,19.9671,2.2222],[-75.154,19.9668,0.0],[-75.154,19.9732,0.6926],[-75.151,19.9688,2.5776],[-75.1462,19.9699,0.0],[-75.1415,19.9813,0.0],[-75.1479,19.9874,2.4464],[-75.1501,19.9938,1.2487],[-75.1526,19.9951,3.1871],[-75.1529,20.0001,0.2111],[-75.1496,20.0032,0.0],[-75.1507,20.0049,1.1078],[-75.1549,20.0049,1.1819],[-75.1562,19.9965,1.2881],[-75.1593,19.9935,1.9094],[-75.1682,19.9946,1.7188],[-75.1765,19.9982,1.8027],[-75.1785,20.0021,0.0],[-75.1765,20.0071,0.0],[-75.1785,20.0085,0.1061],[-75.1785,20.0115,0.0],[-75.1738,20.0213,0.0],[-75.1668,20.0285,3.4366],[-75.1588,20.0312,7.4082],[-75.1421,20.0287,0.0],[-75.1387,20.026,1.263],[-75.1399,20.0232,0.0],[-75.1387,20.0176,1.2862],[-75.1299,20.0126,0.0],[-75.131,20.0174,0.0],[-75.134,20.0193,1.1847],[-75.1368,20.026,0.5888],[-75.1315,20.0329,1.1653],[-75.124,20.0357,0.2447],[-75.1193,20.054,7.5162],[-75.1096,20.0596,1.9518],[-75.099,20.0593,2.5863],[-75.0935,20.0582,1.8123],[-75.0915,20.0557,2.4648],[-75.0918,20.051,1.9392]]],
[[[-75.1571,19.9488,0.1993],[-75.1599,19.9488,0.0],[-75.1579,19.9449,0.0],[-75.1565,19.9454,0.0],[-75.1571,19.9488,0.1993]]],
[[[-75.1504,19.9488,0.2247],[-75.151,19.951,0.0],[-75.1565,19.951,0.0],[-75.1562,19.9496,0.1993],[-75.1504,19.9488,0.2247]]],
[[[-75.1443,19.949,0.5533],[-75.1454,19.951,0.0],[-75.146,19.944,0.0],[-75.1435,19.9463,0.0],[-75.1443,19.949,0.5533]]],
[[[-75.1101,19.9499,0.0],[-75.1126,19.9499,0.3005],[-75.1126,19.9488,0.3005],[-75.1096,19.9488,0.0],[-75.1101,19.9499,0.0]]],
[[[-75.1424,19.965699999999998,0.13],[-75.144,19.9662,0.0797],[-75.1449,19.9646,0.6238],[-75.1435,19.9601,0.7787],[-75.1401,19.9568,0.0],[-75.1368,19.9565,0.0],[-75.1363,19.9582,0.0],[-75.1404,19.9615,1.225],[-75.1424,19.965699999999998,0.13]]]]}}