{"type": "Feature","bbox": [-67.1026,18.3754,-66.9221,18.516],"geometry": {"type": "MultiPolygon","coordinates": [[[[-67.0562,18.4609,138.7641],[-67.0509,18.4438,184.4884],[-67.0273,18.3936,279.6396],[-67.006,18.3943,277.2588],[-66.9846,18.385,287.0292],[-66.9739,18.3861,273.3864],[-66.9595,18.3819,253.5398],[-66.9456,18.3754,263.5884],[-66.9368,18.3769,300.3826],[-66.9373,18.3845,291.8636],[-66.935,18.3884,289.2796],[-66.9291,18.3927,269.1636],[-66.9221,18.3933,196.0],[-66.9236,18.3985,186.0603],[-66.9426,18.3993,170.7813],[-66.9472,18.4016,160.8519],[-66.9482,18.4035,164.6812],[-66.9459,18.4083,174.2315],[-66.9394,18.4107,209.4464],[-66.9344,18.4175,147.649],[-66.9433,18.424,182.6887],[-66.9476,18.4378,205.8448],[-66.9582,18.4406,118.4321],[-66.9667,18.45,135.4788],[-66.959,18.4653,44.2823],[-66.9637,18.4719,35.2595],[-66.9526,18.4773,11.8286],[-66.9571,18.4888,0.0],[-66.961,18.4918,2.958],[-66.9629,18.491,7.2773],[-66.9721,18.494,0.0],[-66.9737,18.4921,0.0],[-66.9788,18.4912,11.6584],[-66.9915,18.5001,7.3222],[-67.0024,18.5029,5.9794],[-67.0099,18.5071,0.0],[-67.0113,18.5063,2.4702],[-67.0179,18.5113,0.0],[-67.0215,18.5115,0.0],[-67.0201,18.5099,1.2147],[-67.024,18.5082,7.5588],[-67.0393,18.5129,1.1434],[-67.049,18.5129,3.3483],[-67.051,18.5154,6.779],[-67.0563,18.5135,6.7057],[-67.0654,18.5129,2.6171],[-67.0724,18.5132,5.7232],[-67.0729,18.5146,0.969],[-67.0804,18.5132,3.121],[-67.0907,18.516,0.0],[-67.1015,18.5146,3.3286],[-67.1026,18.5132,4.482],[-67.0976,18.5124,2.8237],[-67.0919,18.5034,60.1027],[-67.0854,18.4992,58.4615],[-67.0826,18.4954,51.9335],[-67.0825,18.4892,65.8875],[-67.0732,18.4879,70.4487],[-67.063,18.4842,87.5738],[-67.0592,18.4761,111.7361],[-67.0586,18.4685,134.7938],[-67.0563,18.4685,134.4781],[-67.0562,18.4609,138.7641]]]]}
,"properties": {"GID_1": "PRI.37_1","GID_0": "PRI","country": "PuertoRico","province": "Isabela","VARNAME_1": "NA","NL_NAME_1": "NA","TYPE_1": "Municipio","ENGTYPE_1": "Municipality","CC_1": "NA","HASC_1": "PR.IS","ISO_1": "-","name": "Isabela.province","area_km2": 143.5425,"hist_schema_id": "Elevation0-9000","hist_area_km2": {"0": 4.363,"25": 1.8699,"50": 4.7452,"75": 21.3339,"100": 15.2023,"125": 15.0828,"150": 8.9297,"175": 13.4558,"200": 9.8561,"225": 11.1239,"250": 12.8545,"275": 13.7608,"300": 7.5444,"325": 2.5953,"350": 0.8249}}}