{"type": "Feature","bbox": [-61.2051,13.1671,-61.114,13.3835],"geometry": {"type": "MultiPolygon","coordinates": [[[[-61.2051,13.2101,666.2089],[-61.2016,13.2071,626.4222],[-61.1993,13.2001,538.8865],[-61.192,13.1954,359.6753],[-61.1913,13.1917,358.1338],[-61.1847,13.1891,297.4551],[-61.1795,13.1792,198.1961],[-61.1714,13.1757,130.2861],[-61.1681,13.1793,122.3676],[-61.1646,13.1748,232.3262],[-61.1485,13.1675,19.8294],[-61.1429,13.1671,9.2739],[-61.1413,13.184,0.5163],[-61.1399,13.1876,4.6388],[-61.1374,13.1876,0.0],[-61.1362,13.1963,0.8252],[-61.1343,13.1965,0.0],[-61.1346,13.2001,16.3112],[-61.1299,13.2015,0.0],[-61.1312,13.2054,0.0],[-61.1296,13.2107,8.8266],[-61.1274,13.2107,11.4206],[-61.1276,13.2129,49.5012],[-61.1263,13.2138,29.9573],[-61.126,13.2235,0.0],[-61.1235,13.2243,0.0],[-61.1243,13.2288,33.4555],[-61.1218,13.2335,0.0],[-61.1143,13.2393,0.0],[-61.1162,13.2429,9.1723],[-61.1157,13.2476,0.0],[-61.1179,13.2596,0.0],[-61.114,13.2604,0.0],[-61.116,13.2638,0.0],[-61.1182,13.2768,4.88],[-61.1154,13.2799,0.0],[-61.1149,13.2921,0.0],[-61.1151,13.3021,0.0],[-61.1176,13.3118,0.0],[-61.1179,13.3304,0.0],[-61.1221,13.3365,0.0],[-61.1229,13.3413,0.4443],[-61.1274,13.3438,1.5701],[-61.1293,13.3476,5.3612],[-61.129,13.3501,7.853],[-61.1318,13.3557,8.3898],[-61.1299,13.359,0.0],[-61.1326,13.3599,15.0011],[-61.1346,13.3643,59.2756],[-61.1343,13.3654,0.0],[-61.1318,13.3649,0.0],[-61.1293,13.3676,0.0],[-61.131,13.3682,3.9535],[-61.1312,13.371,0.0],[-61.1357,13.3713,0.0],[-61.1374,13.369,7.7567],[-61.1376,13.371,0.0],[-61.1413,13.3715,3.9273],[-61.1421,13.3738,12.753],[-61.1396,13.3743,0.0],[-61.1396,13.3782,0.0],[-61.141,13.3793,0.0],[-61.149,13.3743,13.1837],[-61.1562,13.3815,1.4644],[-61.171,13.3835,2.9036],[-61.174,13.3815,31.5956],[-61.1751,13.3829,0.0],[-61.1754,13.3812,31.5956],[-61.1705,13.3759,144.2236],[-61.1724,13.3625,747.2294],[-61.166,13.358,879.416],[-61.1639,13.3513,918.9005],[-61.1669,13.3472,996.1786],[-61.171,13.3463,1122.2036],[-61.1774,13.3479,1189.9397],[-61.1786,13.3459,1076.3447],[-61.1736,13.3342,1000.5037],[-61.177,13.3239,850.178],[-61.1722,13.3108,578.4077],[-61.1736,13.3022,522.2972],[-61.1688,13.2974,794.3415],[-61.1679,13.2928,754.929],[-61.1688,13.2892,849.431],[-61.175,13.2851,611.9864],[-61.1778,13.2795,837.3756],[-61.1741,13.2761,823.9126],[-61.1734,13.2693,719.6849],[-61.1701,13.2628,647.1556],[-61.1713,13.2602,646.6018],[-61.1883,13.256,785.3809],[-61.1895,13.2512,851.483],[-61.1957,13.2457,832.5475],[-61.1985,13.2367,729.294],[-61.2014,13.2344,708.0604],[-61.199,13.2152,644.6719],[-61.2051,13.2101,666.2089]]]]}
,"properties": {"GID_1": "VCT.1_1","GID_0": "VCT","country": "SaintVincentandtheGrenadines","province": "Charlotte","VARNAME_1": "NA","NL_NAME_1": "NA","TYPE_1": "Parish","ENGTYPE_1": "Parish","CC_1": "NA","HASC_1": "VC.CH","ISO_1": "VC-01","name": "Charlotte.province","area_km2": 141.7291,"hist_schema_id": "Elevation0-9000","hist_area_km2": {"0": 4.4572,"25": 7.2434,"50": 8.1101,"75": 8.8738,"100": 7.6975,"125": 6.5418,"150": 6.2737,"175": 6.0466,"200": 6.1291,"225": 5.5926,"250": 4.8084,"275": 4.8702,"300": 4.2306,"325": 4.2304,"350": 3.5081,"375": 3.7763,"400": 3.8176,"425": 3.3225,"450": 3.3018,"475": 3.3844,"500": 3.2398,"525": 2.6826,"550": 2.4556,"575": 2.4144,"600": 2.1461,"625": 2.5795,"650": 2.208,"675": 2.4762,"700": 2.2493,"725": 2.0223,"750": 1.6509,"775": 1.4445,"800": 1.3413,"825": 1.3,"850": 0.9698,"875": 0.8047,"900": 0.5365,"925": 0.4745,"950": 0.3301,"975": 0.4126,"1000": 0.5983,"1025": 0.3507,"1050": 0.2476,"1075": 0.2269,"1100": 0.1238,"1125": 0.1031,"1150": 0.0825,"1175": 0.0206,"1200": 0.0206}}}