{"type":"Feature","properties":{"ISO3166-1-Alpha-3":"VCT","country":"Saint Vincent and the Grenadines","fill":"#F0F","id":"5063","name":"Charlotte"},
"geometry":{"type": "Polygon","coordinates": [[[-61.13554,13.19785,22.1119],[-61.12442,13.24698,83.2038],[-61.12393,13.30825,65.4151],[-61.13378,13.35277,36.3236],[-61.14004,13.36738,98.3541],[-61.14403,13.37409,48.9614],[-61.15123,13.37678,0.0],[-61.17126,13.37995,57.4867],[-61.17132,13.35927,781.9666],[-61.16148,13.35533,868.9733],[-61.16083,13.34222,890.8743],[-61.16935,13.34091,1086.0421],[-61.17263,13.32255,690.5886],[-61.17197,13.30879,563.1937],[-61.17066,13.2924,593.4999],[-61.17197,13.27339,822.782],[-61.17459,13.26028,646.569],[-61.18771,13.2629,643.6742],[-61.19492,13.24913,706.7203],[-61.19885,13.2393,760.5963],[-61.20016,13.22291,681.7655],[-61.19277,13.21669,814.4855],[-61.18771,13.21242,478.8534],[-61.17459,13.20324,334.2983],[-61.16279,13.20521,288.1442],[-61.14772,13.20259,102.4712],[-61.13554,13.19785,22.1119]]]}}