{"type": "Feature","bbox": [-65.952,18.1428,-65.8521,18.2701],"geometry": {"type": "MultiPolygon","coordinates": [[[[-65.9164,18.2687,260.7357],[-65.9187,18.2701,271.6701],[-65.9275,18.2682,151.1146],[-65.9363,18.2592,80.4396],[-65.9464,18.2525,52.0792],[-65.9492,18.2439,69.494],[-65.9395,18.2339,93.026],[-65.9414,18.232,138.2719],[-65.9511,18.2291,153.9046],[-65.952,18.2158,224.8407],[-65.9358,18.1981,191.5332],[-65.9294,18.1972,226.5405],[-65.9275,18.1772,150.5323],[-65.9322,18.1614,322.9004],[-65.9299,18.1557,369.6945],[-65.9285,18.1428,380.6989],[-65.9188,18.1571,246.2459],[-65.9141,18.169,132.7861],[-65.903,18.1848,101.7351],[-65.9021,18.1914,127.0603],[-65.8961,18.2024,136.4338],[-65.8878,18.1986,138.1217],[-65.8827,18.2081,113.3734],[-65.8688,18.2195,171.0313],[-65.8581,18.2419,222.6875],[-65.8521,18.2481,292.6697],[-65.8535,18.2529,484.0692],[-65.8526,18.2548,500.9605],[-65.8618,18.2572,514.4507],[-65.8664,18.2558,485.9684],[-65.8678,18.2534,467.1976],[-65.8738,18.2524,471.9514],[-65.8891,18.2615,499.822],[-65.8965,18.261,474.847],[-65.9113,18.2653,280.2997],[-65.9164,18.2687,260.7357]]]]}
,"properties": {"GID_1": "PRI.40_1","GID_0": "PRI","country": "PuertoRico","province": "Juncos","VARNAME_1": "NA","NL_NAME_1": "NA","TYPE_1": "Municipio","ENGTYPE_1": "Municipality","CC_1": "NA","HASC_1": "PR.JC","ISO_1": "NA","name": "Juncos.province","area_km2": 69.35783,"hist_schema_id": "Elevation0-9000","hist_area_km2": {"50": 3.94675,"75": 15.10339,"100": 12.46605,"125": 11.19795,"150": 7.99563,"175": 4.35,"200": 2.61812,"225": 2.2555,"250": 2.1547,"275": 1.77214,"300": 1.14781,"325": 1.08748,"350": 0.60421,"375": 0.60417,"400": 0.52361,"425": 0.42287,"450": 0.32219,"475": 0.3423,"500": 0.14094,"525": 0.22148,"550": 0.08054}}}