{"type":"Feature","properties":{"GID_2":"DOM.27.6_1","GID_0":"DOM","country":"DominicanRepublic","GID_1":"DOM.27_1","province":"SanPedrodeMacorís","NL_NAME_1":"NA","county":"SanPedrodeMacorís","VARNAME_2":"NA","NL_NAME_2":"NA","TYPE_2":"Municipio","ENGTYPE_2":"Municipality","CC_2":"NA","HASC_2":"DO.PM.SP","name":"San_Pedrode_Macorís.county"},
"geometry":{"type": "MultiPolygon","coordinates": [[[[-69.3444,18.5284,26.6649],[-69.3405,18.518,42.3532],[-69.3303,18.5139,44.1024],[-69.3328,18.5034,22.6117],[-69.3311,18.494,17.618],[-69.3704,18.4853,26.2169],[-69.3921,18.4845,28.6156],[-69.3972,18.4821,27.1885],[-69.401,18.4749,22.1936],[-69.4008,18.4472,18.0257],[-69.3968,18.4455,14.0421],[-69.3701,18.4449,6.3215],[-69.3662,18.4368,8.8525],[-69.3649,18.4237,0.0],[-69.3504,18.4237,0.0],[-69.3501,18.426,3.2489],[-69.3479,18.424,1.8346],[-69.336,18.426,3.7593],[-69.331,18.4249,0.0],[-69.3243,18.4276,0.0],[-69.3218,18.4293,0.0],[-69.3221,18.4343,0.6819],[-69.3201,18.4349,1.641],[-69.319,18.4332,0.0],[-69.3168,18.4354,0.591],[-69.3174,18.4371,0.0],[-69.3215,18.4374,0.5512],[-69.3213,18.4432,0.7057],[-69.3154,18.4471,2.1546],[-69.3107,18.446,0.0],[-69.3126,18.4418,1.4169],[-69.3112,18.4382,0.0],[-69.3104,18.4399,1.4744],[-69.3051,18.4404,0.5988],[-69.3037,18.4387,0.0],[-69.2982,18.4376,1.9165],[-69.2976,18.4351,1.5687],[-69.2996,18.4338,1.5687],[-69.296,18.4335,0.0],[-69.2874,18.4365,0.3034],[-69.2757,18.4382,0.0],[-69.2676,18.4421,4.6571],[-69.2557,18.441,0.0],[-69.2346,18.4426,0.0],[-69.2279,18.4457,2.2961],[-69.2257,18.4487,0.6439],[-69.2176,18.449,3.4162],[-69.2096,18.4526,1.9229],[-69.2031,18.4504,0.0],[-69.2012,18.4589,0.0],[-69.1918,18.4736,10.4807],[-69.18,18.4849,66.5937],[-69.1679,18.4899,64.9253],[-69.1663,18.4933,63.0569],[-69.1659,18.5012,15.5828],[-69.1677,18.5033,7.4905],[-69.1789,18.5034,53.533],[-69.1864,18.5014,62.0428],[-69.1989,18.5042,59.9807],[-69.2042,18.5073,59.6003],[-69.2049,18.5427,48.8911],[-69.2071,18.5455,48.7065],[-69.217,18.5433,53.728],[-69.2367,18.5431,50.5164],[-69.2457,18.5325,53.2683],[-69.2772,18.5245,46.4923],[-69.2987,18.5274,41.5309],[-69.3011,18.5355,45.0016],[-69.3062,18.5381,43.3662],[-69.3146,18.5357,38.823],[-69.3282,18.5352,35.6551],[-69.3392,18.5318,28.5488],[-69.3444,18.5284,26.6649]]]]}}