{"type":"Feature","properties":{"GID_2":"DOM.3.5_1","GID_0":"DOM","country":"DominicanRepublic","GID_1":"DOM.3_1","province":"Barahona","NL_NAME_1":"NA","county":"Jaquimeyes","VARNAME_2":"NA","NL_NAME_2":"NA","TYPE_2":"Distritomunicipal","ENGTYPE_2":"Municipaldistrict","CC_2":"NA","HASC_2":"DO.BH.JQ","name":"Jaquimeyes.county"},
"geometry":{"type": "MultiPolygon","coordinates": [[[[-70.959,18.3676,1033.076],[-70.9629,18.37,1098.5134],[-70.9692,18.3701,1056.0931],[-70.9726,18.3657,1076.0975],[-70.9743,18.3404,1026.1628],[-70.9797,18.3262,788.3627],[-70.9821,18.3239,754.0446],[-70.9852,18.3252,558.9587],[-70.993,18.3403,622.8437],[-71.0039,18.3475,905.6733],[-71.0179,18.3509,845.0503],[-71.0338,18.351,603.4846],[-71.0472,18.3474,294.9664],[-71.0517,18.3374,149.2792],[-71.0579,18.3284,46.6538],[-71.0625,18.3258,28.9264],[-71.0716,18.3265,0.0047],[-71.0782,18.3339,28.8413],[-71.0877,18.3374,36.9815],[-71.1,18.3372,5.5413],[-71.1081,18.334,6.2319],[-71.1124,18.3311,2.9994],[-71.1113,18.3253,1.4258],[-71.114,18.3233,2.0189],[-71.1304,18.3239,6.1524],[-71.144,18.3307,10.2981],[-71.1497,18.3192,10.9201],[-71.1606,18.3141,11.0515],[-71.1605,18.3107,10.5965],[-71.1566,18.3075,9.0844],[-71.1553,18.3039,8.9621],[-71.1612,18.2927,6.8085],[-71.1557,18.2882,5.6726],[-71.1484,18.2912,5.6457],[-71.1422,18.283,4.6073],[-71.1341,18.2761,3.167],[-71.1216,18.2701,3.6535],[-71.1145,18.2699,2.3459],[-71.1112,18.2729,2.3508],[-71.1129,18.2787,2.4576],[-71.112,18.2806,4.0603],[-71.0976,18.2841,0.0],[-71.084,18.2999,1.0493],[-71.0612,18.3154,2.6712],[-71.0624,18.319,0.8246],[-71.0657,18.3196,0.4508],[-71.0768,18.3135,0.9053],[-71.0785,18.3168,-0.0437],[-71.076,18.3188,-0.0645],[-71.0762,18.3204,-0.0645],[-71.0674,18.3235,0.1601],[-71.0629,18.3221,0.4974],[-71.0618,18.3243,4.7849],[-71.0596,18.3226,4.4244],[-71.0612,18.321,0.0],[-71.0593,18.3199,0.0],[-71.0593,18.3218,1.0887],[-71.0576,18.3218,0.6215],[-71.0557,18.3179,0.6928],[-71.0465,18.3176,5.7833],[-71.0357,18.3129,1.7097],[-71.0343,18.3076,0.2695],[-71.0321,18.3096,1.4497],[-71.0282,18.309,1.6367],[-71.0232,18.3107,0.9837],[-71.0174,18.3065,0.4667],[-71.0124,18.3057,7.8314],[-71.0054,18.3018,4.0864],[-71.0051,18.3004,0.0],[-70.9982,18.2996,6.9656],[-70.9935,18.2943,0.0],[-70.9929,18.2904,0.0],[-70.9824,18.2857,74.9427],[-70.9765,18.2707,61.4907],[-70.9768,18.264,0.0],[-70.9737,18.2599,5.93],[-70.9679,18.2567,19.0186],[-70.9592,18.2581,338.4723],[-70.9538,18.2611,345.9192],[-70.9508,18.2656,377.1097],[-70.9477,18.2719,356.3608],[-70.9462,18.2804,462.5908],[-70.9432,18.2861,655.5377],[-70.9357,18.2943,628.7776],[-70.9351,18.299,626.1871],[-70.9386,18.3081,660.6133],[-70.9536,18.3335,785.7878],[-70.9613,18.3393,1006.8015],[-70.9604,18.3419,1069.4868],[-70.9558,18.3431,833.7128],[-70.9516,18.3464,781.9915],[-70.9471,18.3555,684.6085],[-70.9495,18.3615,723.6492],[-70.959,18.3676,1033.076]]]]}}