{"type": "Feature","bbox": [-61.7465,15.9854,-61.7125,16.0115],"geometry": {"type": "MultiPolygon","coordinates": [[[[-61.7465,16.0105,2.237],[-61.7232,15.9854,0.0],[-61.7125,15.9968,169.239],[-61.7301,16.0115,78.6203],[-61.7465,16.0105,2.237]]]]}
,"properties": {"GID_2": "GLP.1.3_1","GID_0": "GLP","country": "Guadeloupe","GID_1": "GLP.1_1","province": "Basse-Terre","NL_NAME_1": "NA","county": "Basse-Terre","VARNAME_2": "NA","NL_NAME_2": "NA","TYPE_2": "Préfecturederégion","ENGTYPE_2": "Commune","CC_2": "94","HASC_2": "NA","name": "Basse-Terre.county","area_km2": 4.687591,"hist_schema_id": "Elevation0-9000","hist_area_km2": {"0": 0.468761,"25": 1.080186,"50": 0.856,"75": 0.917136,"100": 0.631803,"125": 0.611421,"150": 0.122284}}}