{"type":"Feature","properties":{"GID_2":"HTI.3.3_1","GID_0":"HTI","country":"Haiti","GID_1":"HTI.3_1","province":"L'Artibonite","NL_NAME_1":"NA","county":"lesGonaïves","VARNAME_2":"NA","NL_NAME_2":"NA","TYPE_2":"Arrondissement","ENGTYPE_2":"District","CC_2":"NA","HASC_2":"HT.AR.GV","name":"les_Gonaïves.county"},
"geometry":{"type": "MultiPolygon","coordinates": [[[[-72.5072,19.3375,575.1329],[-72.4965,19.337,708.8163],[-72.4933,19.3533,593.4191],[-72.496,19.3598,431.5237],[-72.4953,19.3696,440.7147],[-72.486,19.3684,569.4365],[-72.4823,19.3746,650.9388],[-72.4773,19.3776,597.4786],[-72.4766,19.3793,606.591],[-72.4785,19.3821,612.2684],[-72.4774,19.3832,612.2684],[-72.4676,19.3838,741.0642],[-72.4656,19.3894,785.7374],[-72.4627,19.392,1097.0793],[-72.4522,19.3953,1400.9664],[-72.4539,19.4006,1429.8468],[-72.4577,19.4023,1424.8074],[-72.4595,19.407,1441.1378],[-72.4472,19.4046,1120.3956],[-72.4368,19.3971,976.071],[-72.4251,19.3985,630.4087],[-72.4248,19.4011,620.1245],[-72.4268,19.4051,649.2892],[-72.4108,19.4087,575.9822],[-72.4139,19.4157,724.5416],[-72.4123,19.4184,605.7147],[-72.4063,19.4222,550.1678],[-72.3898,19.4262,507.5657],[-72.3887,19.4298,530.1619],[-72.39,19.4354,541.7183],[-72.3872,19.439,538.7219],[-72.3876,19.4445,567.4992],[-72.3791,19.4407,585.8489],[-72.378,19.4431,572.8593],[-72.3817,19.4479,600.5767],[-72.3819,19.453,650.0266],[-72.3781,19.4574,690.8316],[-72.3661,19.4603,626.3542],[-72.3577,19.4732,684.5507],[-72.3575,19.4769,777.9929],[-72.3634,19.477,803.7561],[-72.3702,19.4701,775.0693],[-72.3731,19.4635,661.9531],[-72.3751,19.4631,655.7411],[-72.3798,19.4701,656.6255],[-72.3871,19.4665,681.2908],[-72.393,19.467,679.0065],[-72.4021,19.4615,618.9662],[-72.4165,19.4632,520.5197],[-72.4174,19.4648,492.6208],[-72.4127,19.4698,594.142],[-72.4073,19.4696,612.3664],[-72.4035,19.4721,559.164],[-72.4025,19.4752,588.5472],[-72.4045,19.4776,591.723],[-72.404,19.4805,660.84],[-72.4097,19.4843,690.3174],[-72.414,19.4914,791.8958],[-72.415,19.4984,746.5402],[-72.4166,19.5004,854.7438],[-72.4318,19.5083,857.1904],[-72.4354,19.515,886.0077],[-72.4394,19.5127,825.4924],[-72.446,19.5175,975.2502],[-72.4472,19.5213,991.9094],[-72.4553,19.5223,957.4344],[-72.4624,19.5263,899.8936],[-72.4881,19.5468,824.6028],[-72.4934,19.5556,798.0511],[-72.5005,19.5605,822.6432],[-72.5073,19.5621,713.8955],[-72.5211,19.5711,895.5985],[-72.523,19.5741,905.8359],[-72.5152,19.5818,621.8318],[-72.5213,19.5814,670.7755],[-72.5257,19.5781,925.1108],[-72.5383,19.5847,873.7805],[-72.543,19.5903,928.0774],[-72.5414,19.5926,890.0908],[-72.5415,19.5987,1001.8698],[-72.5651,19.6264,887.3674],[-72.5691,19.6338,823.2014],[-72.5708,19.6441,852.6498],[-72.6057,19.6495,852.7325],[-72.6202,19.6336,784.35],[-72.6176,19.6293,626.0518],[-72.6292,19.6253,515.0029],[-72.6357,19.6196,298.4865],[-72.6458,19.6158,273.2912],[-72.6481,19.6133,283.6603],[-72.6542,19.6119,283.9406],[-72.6575,19.6062,225.585],[-72.6563,19.6015,190.3941],[-72.6722,19.6004,268.2069],[-72.6822,19.5966,233.8199],[-72.6874,19.6035,295.1276],[-72.6872,19.6059,287.1674],[-72.7026,19.6036,335.6148],[-72.7087,19.6062,317.5542],[-72.7095,19.6088,321.8715],[-72.7133,19.611,338.9279],[-72.7149,19.6104,364.7114],[-72.7147,19.608,392.0497],[-72.7179,19.6033,495.8782],[-72.7269,19.6023,649.163],[-72.7292,19.5964,724.6517],[-72.7284,19.5947,722.3614],[-72.7231,19.59,688.0864],[-72.72,19.5896,663.4185],[-72.7186,19.5855,578.2858],[-72.7216,19.5812,524.5773],[-72.7308,19.5765,779.4178],[-72.7346,19.5723,755.1506],[-72.7443,19.5752,843.4407],[-72.7438,19.5717,812.6544],[-72.7399,19.5674,715.3378],[-72.7394,19.561,763.4703],[-72.7423,19.5592,860.3553],[-72.748,19.5589,850.3301],[-72.7458,19.5509,738.8672],[-72.7426,19.5491,694.8409],[-72.7384,19.542,563.684],[-72.7306,19.5432,420.1854],[-72.7281,19.5363,429.9767],[-72.7304,19.534,408.5638],[-72.7299,19.5314,363.113],[-72.7409,19.5217,691.7905],[-72.7506,19.523,660.2862],[-72.7626,19.514,756.6864],[-72.7658,19.5132,630.6661],[-72.7781,19.52,530.3243],[-72.7829,19.5281,458.492],[-72.7854,19.5214,377.2988],[-72.7907,19.5186,197.1421],[-72.7932,19.5109,84.6586],[-72.8051,19.501,1.6634],[-72.7799,19.4721,9.3516],[-72.7712,19.4535,0.0],[-72.7621,19.4521,47.3872],[-72.759,19.4479,0.0],[-72.7446,19.4448,0.0],[-72.7395,19.447,0.0],[-72.7318,19.4473,0.0243],[-72.731,19.4534,2.6394],[-72.7265,19.4546,0.0],[-72.7243,19.4576,1.3732],[-72.7185,19.4551,0.2808],[-72.7204,19.4532,0.0],[-72.7221,19.4557,0.0],[-72.7226,19.4521,0.057],[-72.7174,19.4524,13.6765],[-72.716,19.4494,0.0],[-72.7143,19.4493,0.0],[-72.7092,19.454,0.0],[-72.7129,19.4529,0.1166],[-72.714,19.4545,10.1534],[-72.7057,19.4584,0.137],[-72.6974,19.4571,0.4421],[-72.6974,19.4555,0.2938],[-72.7033,19.455,0.0],[-72.697,19.4518,0.0],[-72.6988,19.4471,0.0],[-72.6982,19.4427,0.0207],[-72.7004,19.4415,-0.092],[-72.7004,19.4278,0.2599],[-72.6966,19.4269,0.0],[-72.6901,19.4212,0.1486],[-72.6893,19.4166,0.0],[-72.6857,19.4159,0.1203],[-72.6821,19.4119,0.3091],[-72.6826,19.4076,0.0768],[-72.6857,19.4029,0.057],[-72.696,19.399,0.0],[-72.6985,19.3958,0.0608],[-72.7028,19.394,0.0],[-72.7104,19.4016,0.0],[-72.7047,19.4071,0.0],[-72.7043,19.4104,0.0],[-72.7143,19.4128,0.0],[-72.7174,19.4151,0.0],[-72.7135,19.4235,0.2995],[-72.7172,19.4311,0.0],[-72.7237,19.4271,0.0345],[-72.7269,19.42,0.0],[-72.7265,19.415,0.0618],[-72.7304,19.4032,0.0],[-72.7126,19.3935,0.0],[-72.7134,19.3908,0.0336],[-72.7113,19.3865,0.0227],[-72.7143,19.3843,0.0],[-72.7165,19.3793,0.0592],[-72.7193,19.379,0.0697],[-72.7243,19.371,0.0],[-72.7187,19.3601,0.0147],[-72.7142,19.3614,0.0448],[-72.7118,19.3603,-0.0164],[-72.7103,19.3555,0.2164],[-72.707,19.3551,-0.1675],[-72.7022,19.3508,0.494],[-72.7015,19.3447,0.1965],[-72.6963,19.3393,-0.4374],[-72.6803,19.3349,1.5411],[-72.6638,19.3253,2.3304],[-72.6619,19.3204,2.1429],[-72.6568,19.3163,2.6843],[-72.6514,19.3164,2.1049],[-72.6516,19.3131,2.0304],[-72.6465,19.3037,2.7064],[-72.6296,19.3019,2.3408],[-72.6234,19.3041,3.4997],[-72.6207,19.3032,3.4273],[-72.6167,19.2986,3.9027],[-72.6115,19.3006,5.2785],[-72.6105,19.2989,6.0176],[-72.6078,19.3009,5.1236],[-72.6086,19.3033,6.7652],[-72.6069,19.305,5.7212],[-72.5996,19.306,5.9423],[-72.5936,19.3114,5.1318],[-72.5904,19.3106,5.2157],[-72.5827,19.3039,5.1531],[-72.5648,19.3023,4.6793],[-72.5622,19.3049,7.3081],[-72.5625,19.3088,120.3002],[-72.56,19.3131,205.6095],[-72.5548,19.3135,190.569],[-72.5464,19.3176,451.5072],[-72.5408,19.3118,492.5805],[-72.538,19.3123,537.6021],[-72.5339,19.3151,484.4972],[-72.5301,19.3258,350.3635],[-72.5268,19.3285,289.8831],[-72.5222,19.3312,545.1543],[-72.5106,19.3323,685.3339],[-72.5105,19.3366,625.7437],[-72.5072,19.3375,575.1329]]]]}}