{"type":"Feature","properties":{"GID_2":"DOM.1.4_1","GID_0":"DOM","country":"DominicanRepublic","GID_1":"DOM.1_1","province":"Azua","NL_NAME_1":"NA","county":"LasCharcas","VARNAME_2":"NA","NL_NAME_2":"NA","TYPE_2":"Distritomunicipal","ENGTYPE_2":"Municipaldistrict","CC_2":"NA","HASC_2":"DO.AZ.LC","name":"Las_Charcas.county"},
"geometry":{"type": "MultiPolygon","coordinates": [[[[-70.6245,18.4221,4.2439],[-70.624,18.419,0.5058],[-70.6218,18.4193,0.6736],[-70.6201,18.4221,4.3623],[-70.6165,18.4224,4.4745],[-70.6015,18.4196,2.767],[-70.5871,18.4126,5.3262],[-70.5813,18.406,2.3907],[-70.5779,18.3801,0.0],[-70.5704,18.371,5.8377],[-70.5701,18.3521,9.5691],[-70.574,18.351,0.2784],[-70.5757,18.3415,0.0],[-70.5749,18.3326,2.9145],[-70.5715,18.3265,0.0],[-70.571,18.3182,19.9457],[-70.5724,18.3115,1.3303],[-70.5746,18.3099,3.2116],[-70.5807,18.3096,0.0],[-70.5832,18.301,2.5723],[-70.589,18.294,0.0],[-70.5918,18.2876,4.2183],[-70.5924,18.2774,0.0],[-70.589,18.2732,0.1442],[-70.5813,18.2696,8.7521],[-70.5777,18.2626,20.8769],[-70.5717,18.2742,37.5752],[-70.5627,18.2774,23.0952],[-70.5526,18.2755,30.6981],[-70.5428,18.2803,36.1163],[-70.5344,18.2778,45.0798],[-70.5274,18.2776,52.7263],[-70.5158,18.2825,58.023],[-70.5033,18.2852,72.98],[-70.4954,18.2837,116.2509],[-70.4885,18.2869,95.8808],[-70.481,18.3001,88.5035],[-70.4798,18.3102,105.3946],[-70.4758,18.3168,100.9702],[-70.4777,18.3321,136.5096],[-70.4803,18.3395,160.2678],[-70.4802,18.3603,139.3579],[-70.4781,18.364,190.3256],[-70.4668,18.3749,162.6502],[-70.4634,18.3812,199.0712],[-70.4579,18.4074,227.171],[-70.4628,18.4149,237.8927],[-70.4694,18.418,208.8126],[-70.4778,18.4192,209.1039],[-70.488,18.426,230.0299],[-70.4895,18.4325,239.7514],[-70.487,18.4417,279.0778],[-70.4876,18.4493,341.5268],[-70.4915,18.4535,388.1348],[-70.4923,18.4579,488.28],[-70.5194,18.4588,536.4268],[-70.5287,18.4645,662.762],[-70.5319,18.4726,636.6832],[-70.537,18.4781,785.0749],[-70.5491,18.4845,736.4667],[-70.5579,18.4916,926.7794],[-70.5661,18.4949,799.921],[-70.5864,18.4947,290.2233],[-70.6009,18.4879,273.2546],[-70.6078,18.4781,160.4388],[-70.611,18.4705,127.8448],[-70.6084,18.462,102.3212],[-70.6085,18.4538,84.2832],[-70.6161,18.442,44.9323],[-70.6178,18.4335,24.744],[-70.6245,18.4221,4.2439]]]]}}