{"type":"Feature","properties":{"ISO3166-1-Alpha-3":"AIA","country":"Anguilla","fill":"#F0F","id":"5114","name":"Blowing Point"},
"geometry":{"type": "Polygon","coordinates": [[[-63.06139,18.19885,29.0778],[-63.06133,18.21248,47.4899],[-63.06545,18.20582,55.5485],[-63.07212,18.20276,45.78],[-63.07263,18.21213,41.244],[-63.08122,18.20681,37.9577],[-63.08759,18.20163,-1.0],[-63.10193,18.20123,0.0],[-63.10272,18.19685,0.0],[-63.11387,18.19685,0.0],[-63.11384,18.18985,31.4527],[-63.10912,18.18504,12.4182],[-63.10237,18.18041,2.681],[-63.09952,18.17617,14.2081],[-63.06139,18.19885,29.0778]]]}}