{"type": "Feature","bbox": [-63.1121,18.1682,-63.0731,18.1863],"geometry": {"type": "MultiPolygon","coordinates": [[[[-63.0731,18.1821,9.8116],[-63.0763,18.1863,18.3745],[-63.1052,18.1837,4.8602],[-63.1121,18.1791,4.6724],[-63.1065,18.1756,0.2207],[-63.1046,18.1705,0.0],[-63.101,18.1682,0.0],[-63.077,18.176,0.0],[-63.0731,18.1821,9.8116]]]]}
,"properties": {"GID_1": "AIA.1_1","GID_0": "AIA","country": "Anguilla","state": "BlowingPoint","VARNAME_1": "NA","NL_NAME_1": "NA","TYPE_1": "District","ENGTYPE_1": "District","CC_1": "NA","HASC_1": "AI.BP","ISO_1": "NA","name": "BlowingPoint.state","area_km2": 5.056144,"hist_schema_id": "Elevation0-9000","hist_area_km2": {"0": 3.565504,"25": 1.490639}}}