{"type":"Feature","properties":{"GID_3":"HTI.7.4.2_1","GID_0":"HTI","country":"Haiti","GID_1":"HTI.7_1","province":"Nord","NL_NAME_1":"NA","GID_2":"HTI.7.4_1","county":"leCap-Haïtien","NL_NAME_2":"NA","city":"Limonade","VARNAME_3":"NA","NL_NAME_3":"NA","TYPE_3":"Commune","ENGTYPE_3":"Commune","CC_3":"NA","HASC_3":"NA","name":"Limonade.city"},
"geometry":{"type": "MultiPolygon","coordinates": [[[[-72.1102,19.6335,372.2477],[-72.1088,19.635,399.4912],[-72.1061,19.6346,371.4688],[-72.0935,19.6261,310.3546],[-72.0789,19.6315,62.7976],[-72.0716,19.6308,53.1309],[-72.0656,19.6353,43.4502],[-72.0641,19.6447,33.3439],[-72.0672,19.6487,30.8039],[-72.0645,19.6515,26.7034],[-72.0665,19.6556,22.5146],[-72.0612,19.6627,15.9372],[-72.0587,19.6731,7.4221],[-72.0628,19.6853,1.4555],[-72.0565,19.696,0.0],[-72.0587,19.6979,0.0],[-72.0646,19.6965,0.7334],[-72.0646,19.6976,0.3266],[-72.0551,19.7038,1.1943],[-72.0479,19.7013,0.1308],[-72.0404,19.7018,0.0],[-72.0354,19.7085,0.0],[-72.0371,19.7121,1.0285],[-72.0368,19.7166,0.8481],[-72.0396,19.721,0.2624],[-72.0371,19.7229,0.4622],[-72.0365,19.7273,0.6617],[-72.0392,19.7321,0.0],[-72.0453,19.7369,0.4656],[-72.051,19.7368,0.118],[-72.0474,19.7313,0.0],[-72.0524,19.7276,0.3683],[-72.0565,19.7185,0.5169],[-72.0624,19.7176,0.0],[-72.0624,19.7113,0.1237],[-72.0671,19.7118,0.7457],[-72.0665,19.7096,0.1993],[-72.0629,19.7093,0.3382],[-72.0624,19.7076,0.0],[-72.0676,19.7071,0.0],[-72.0676,19.704,0.2189],[-72.0706,19.7029,0.9081],[-72.0743,19.7043,0.0],[-72.0779,19.7035,0.773],[-72.076,19.7085,0.333],[-72.0799,19.7099,0.8648],[-72.0801,19.7121,1.1213],[-72.0782,19.714,0.5232],[-72.071,19.7118,0.0],[-72.064,19.7132,0.0],[-72.0632,19.7154,0.7895],[-72.0646,19.7195,0.3012],[-72.0576,19.722,0.0],[-72.0543,19.7288,0.1867],[-72.0557,19.7318,0.6115],[-72.0615,19.7308,0.4036],[-72.0645,19.7329,0.2504],[-72.0715,19.7326,0.0],[-72.0793,19.7304,0.4427],[-72.0799,19.729,0.0],[-72.0901,19.7285,0.0],[-72.0937,19.7265,0.7071],[-72.1135,19.7299,1.7341],[-72.1232,19.7377,1.5231],[-72.1265,19.7445,0.2944],[-72.1269,19.7504,0.2289],[-72.1333,19.7526,1.2722],[-72.1314,19.7466,3.3628],[-72.1357,19.7454,4.8496],[-72.1386,19.7413,5.8187],[-72.1367,19.7353,5.6391],[-72.1375,19.7266,7.3956],[-72.1349,19.7202,7.3744],[-72.1398,19.7092,11.4487],[-72.1384,19.7074,12.4503],[-72.1423,19.7011,10.3345],[-72.1432,19.6851,12.2769],[-72.1415,19.6788,10.9936],[-72.1467,19.6751,16.0934],[-72.1483,19.67,19.2624],[-72.1523,19.6652,19.2754],[-72.1558,19.6634,18.9979],[-72.1577,19.657,24.5408],[-72.1681,19.6497,26.7565],[-72.1663,19.6464,24.4963],[-72.169,19.6417,27.4666],[-72.1746,19.6382,30.1717],[-72.1768,19.6326,31.8049],[-72.1687,19.629,38.7422],[-72.167,19.6239,35.4792],[-72.1633,19.622,71.3864],[-72.1591,19.6108,246.0737],[-72.1513,19.5987,540.3815],[-72.1472,19.5986,546.0082],[-72.1453,19.5952,541.3626],[-72.1383,19.597,410.6027],[-72.1327,19.5894,400.7473],[-72.1211,19.5887,345.2474],[-72.1138,19.5915,368.9995],[-72.1123,19.5955,433.0631],[-72.1069,19.5997,417.3929],[-72.1057,19.6029,462.4823],[-72.1124,19.6106,264.0108],[-72.1115,19.6144,123.5664],[-72.1134,19.6186,72.6561],[-72.1083,19.6227,227.4693],[-72.1102,19.6335,372.2477]]]]}}