{"type":"Feature","properties":{"GID_3":"HTI.4.1.1_1","GID_0":"HTI","country":"Haiti","GID_1":"HTI.4_1","province":"Nippes","NL_NAME_1":"NA","GID_2":"HTI.4.1_1","county":"l'Anse-à-Veau","NL_NAME_2":"NA","city":"Anse-à-Veau","VARNAME_3":"NA","NL_NAME_3":"NA","TYPE_3":"Commune","ENGTYPE_3":"Commune","CC_3":"NA","HASC_3":"NA","name":"Anse-à-Veau.city"},
"geometry":{"type": "MultiPolygon","coordinates": [[[[-73.2654,18.3963,375.8535],[-73.2624,18.4051,794.6045],[-73.2586,18.4081,831.7778],[-73.2617,18.411,775.1726],[-73.2625,18.4144,731.9161],[-73.2575,18.4369,393.3495],[-73.2579,18.4415,282.9542],[-73.263,18.4471,537.7681],[-73.2761,18.4494,439.7567],[-73.2783,18.4527,327.3939],[-73.2742,18.4562,247.8661],[-73.2735,18.4592,168.3287],[-73.2749,18.4633,118.8971],[-73.2726,18.4755,17.0215],[-73.2738,18.4831,2.7822],[-73.2844,18.4826,1.5846],[-73.2865,18.4843,0.0],[-73.2965,18.4846,0.9177],[-73.3064,18.4899,0.3888],[-73.3101,18.4943,0.0],[-73.312,18.494,0.0],[-73.3279,18.5023,0.0],[-73.341,18.5057,0.0],[-73.346,18.5057,0.0],[-73.3471,18.5035,5.4737],[-73.3496,18.5074,0.0],[-73.3579,18.5101,8.4635],[-73.3926,18.5143,5.4876],[-73.4079,18.5207,0.0],[-73.4179,18.5196,5.4103],[-73.4426,18.5251,5.0232],[-73.4464,18.5219,17.0377],[-73.4428,18.5121,27.0055],[-73.4455,18.5055,36.15],[-73.4482,18.5031,42.155],[-73.4497,18.4968,52.7184],[-73.4466,18.4908,65.5815],[-73.4339,18.4797,90.617],[-73.4331,18.4724,118.3843],[-73.4349,18.4675,137.1498],[-73.4288,18.4544,414.7777],[-73.4302,18.4523,416.2012],[-73.423,18.4507,469.8852],[-73.4171,18.4452,256.0857],[-73.4024,18.4467,139.1705],[-73.3994,18.4446,128.4121],[-73.399,18.4416,137.9731],[-73.4004,18.4398,131.6967],[-73.4089,18.4359,148.2083],[-73.4118,18.4333,154.438],[-73.4131,18.4292,209.0413],[-73.4121,18.4245,289.662],[-73.4038,18.419,266.5438],[-73.4043,18.4166,228.1953],[-73.4092,18.4141,112.6515],[-73.4088,18.4117,124.6391],[-73.4039,18.4111,98.3912],[-73.4084,18.4093,107.4562],[-73.4078,18.4073,97.2185],[-73.403,18.4063,98.1742],[-73.4012,18.4088,126.2206],[-73.3962,18.4043,93.8022],[-73.3931,18.4056,96.7416],[-73.3921,18.4022,90.9777],[-73.3878,18.402,88.5844],[-73.3877,18.3966,114.199],[-73.3852,18.3945,98.0799],[-73.3837,18.3983,81.1304],[-73.3767,18.3953,97.3379],[-73.3758,18.3967,123.1961],[-73.3773,18.4014,74.485],[-73.376,18.4022,115.5011],[-73.3734,18.4002,73.0598],[-73.3726,18.3968,99.9257],[-73.3702,18.3963,94.7161],[-73.3706,18.4011,90.1838],[-73.3649,18.4027,78.801],[-73.3633,18.4062,63.1357],[-73.3585,18.4072,95.3117],[-73.361,18.4125,76.4625],[-73.3594,18.4144,60.8459],[-73.3559,18.4136,58.8857],[-73.35,18.4086,85.5633],[-73.3436,18.4102,57.7522],[-73.3424,18.4142,90.4928],[-73.3385,18.411,61.6269],[-73.326,18.411,151.6941],[-73.3246,18.4013,246.3002],[-73.3257,18.3986,269.9722],[-73.3394,18.3865,318.9354],[-73.3314,18.3777,291.8974],[-73.3306,18.3707,223.3086],[-73.3275,18.3671,202.9458],[-73.3248,18.3677,203.9637],[-73.3222,18.3638,217.1615],[-73.3187,18.3626,221.2621],[-73.3063,18.3652,235.4154],[-73.3051,18.3667,224.2775],[-73.3014,18.3665,223.5834],[-73.2994,18.3685,223.0061],[-73.2963,18.3654,243.9251],[-73.294,18.3657,225.3727],[-73.2951,18.3677,224.7619],[-73.2868,18.3676,243.6718],[-73.279,18.3619,253.8137],[-73.27,18.3587,285.9725],[-73.2668,18.3598,251.3938],[-73.2661,18.3641,249.2845],[-73.2627,18.3649,261.6149],[-73.2649,18.3702,261.4587],[-73.2642,18.3768,276.9305],[-73.2614,18.3814,335.2382],[-73.2654,18.3963,375.8535]]]]}}