{"type": "Feature","bbox": [-71.879,18.6527,-71.3068,19.2762],"geometry": {"type": "MultiPolygon","coordinates": [[[[-71.6839,18.6645,1978.839],[-71.6789,18.6609,1924.7399],[-71.6714,18.6648,1915.0967],[-71.6659,18.6653,1939.7886],[-71.652,18.665,1906.7996],[-71.6378,18.6622,1871.264],[-71.6249,18.6677,1762.0651],[-71.6144,18.6655,1744.6511],[-71.6049,18.6672,1508.7458],[-71.5949,18.6626,1687.2837],[-71.5835,18.6612,1745.8409],[-71.577,18.6569,1970.3781],[-71.564,18.6527,2035.4337],[-71.5597,18.6639,1747.3922],[-71.5623,18.6733,1448.7463],[-71.5625,18.6879,961.9417],[-71.5595,18.7016,778.1494],[-71.5596,18.7165,789.4115],[-71.5626,18.722,798.024],[-71.5679,18.7258,729.7736],[-71.5706,18.7391,710.8115],[-71.5601,18.7584,625.28],[-71.5653,18.7682,659.285],[-71.558,18.7738,886.2286],[-71.5569,18.7796,1046.7505],[-71.5753,18.7843,897.3984],[-71.5847,18.7967,834.3563],[-71.613,18.8031,828.2446],[-71.612,18.8176,493.3721],[-71.608,18.8215,479.1263],[-71.6021,18.8236,482.9276],[-71.601,18.8267,462.8499],[-71.6014,18.8416,444.6024],[-71.609,18.849,501.236],[-71.6101,18.852,492.1976],[-71.6097,18.8606,454.4134],[-71.607,18.8683,432.0478],[-71.6071,18.8772,418.3778],[-71.609,18.879,410.6628],[-71.6122,18.879,406.2492],[-71.6209,18.8722,419.9422],[-71.6262,18.8709,426.5331],[-71.6355,18.8753,408.167],[-71.6397,18.8814,442.3273],[-71.6374,18.8854,425.511],[-71.6195,18.8919,378.1147],[-71.6154,18.9015,362.6031],[-71.6074,18.9111,371.4944],[-71.6069,18.9295,342.4284],[-71.6091,18.9326,353.2593],[-71.6209,18.9333,347.0171],[-71.6367,18.9386,328.9603],[-71.6338,18.9414,333.218],[-71.6199,18.9451,371.6949],[-71.6175,18.9504,392.243],[-71.6109,18.9551,390.3225],[-71.6053,18.9653,390.556],[-71.5955,18.9742,402.4381],[-71.583,18.98,425.8648],[-71.573,18.9807,421.6153],[-71.569,18.9826,430.9953],[-71.5634,18.9886,438.9531],[-71.5615,18.9966,457.3949],[-71.5569,18.9995,479.9843],[-71.5476,19.0001,487.8437],[-71.5392,18.9974,478.6577],[-71.5209,18.997,478.4107],[-71.5121,18.9949,490.6671],[-71.4973,19.0078,560.9944],[-71.4954,19.0117,544.5114],[-71.4996,19.0204,629.7979],[-71.5001,19.0273,743.7633],[-71.4915,19.043,722.3411],[-71.4909,19.0629,1042.5393],[-71.4771,19.0726,1192.3762],[-71.4739,19.0789,1353.6152],[-71.4715,19.0911,960.6841],[-71.4502,19.1036,1047.6565],[-71.4477,19.1095,1169.0049],[-71.4512,19.1172,1194.4287],[-71.4502,19.1198,1257.5205],[-71.4464,19.1209,1403.4954],[-71.4244,19.1206,1330.871],[-71.4201,19.1255,1405.6696],[-71.4154,19.1262,1260.0203],[-71.4116,19.1237,1192.0692],[-71.4062,19.1137,1438.8369],[-71.398,19.1095,1564.0381],[-71.3857,19.1094,1363.8912],[-71.3656,19.1146,1532.0736],[-71.3619,19.113,1488.2112],[-71.357,19.1057,1580.3395],[-71.3512,19.1011,1543.8982],[-71.3356,19.1035,1431.9514],[-71.3338,19.1051,1578.1853],[-71.3289,19.1201,1467.0858],[-71.3335,19.1346,1508.6986],[-71.3329,19.1593,1444.7208],[-71.3302,19.1619,1471.7178],[-71.3206,19.1648,1693.3842],[-71.3097,19.1651,1539.8265],[-71.3068,19.1679,1535.7736],[-71.3132,19.1768,1801.1592],[-71.3242,19.184,1542.2379],[-71.3322,19.183,1550.5784],[-71.3354,19.1871,1468.0918],[-71.3417,19.1851,1492.2832],[-71.3476,19.1859,1480.0842],[-71.3714,19.2093,1301.5745],[-71.3838,19.2113,1320.1725],[-71.3964,19.2172,1259.871],[-71.4057,19.2284,1255.1307],[-71.4159,19.2316,1279.0194],[-71.421,19.2383,1436.7966],[-71.4287,19.2364,1229.9636],[-71.4344,19.2369,1190.6903],[-71.457,19.2503,933.9019],[-71.4682,19.2479,853.8217],[-71.4807,19.2484,922.7309],[-71.4838,19.2606,820.1182],[-71.4889,19.267,816.2425],[-71.4942,19.2698,709.6357],[-71.5071,19.2649,856.8466],[-71.5098,19.2575,1004.4752],[-71.5148,19.2564,868.6921],[-71.5418,19.2703,645.0895],[-71.5467,19.2705,608.5341],[-71.5537,19.2659,579.0806],[-71.5579,19.2655,597.6343],[-71.5699,19.2717,555.2585],[-71.5727,19.2762,522.0911],[-71.5794,19.2759,552.4882],[-71.581,19.2686,782.7445],[-71.5857,19.2589,555.2007],[-71.5865,19.2495,667.4957],[-71.5888,19.2459,727.918],[-71.5945,19.2431,537.4963],[-71.6045,19.2448,499.6704],[-71.6109,19.2384,507.4784],[-71.618,19.2365,478.9785],[-71.6227,19.2298,487.168],[-71.6278,19.2262,465.7383],[-71.6319,19.2266,405.5765],[-71.6303,19.2218,453.093],[-71.6248,19.2163,450.8611],[-71.6295,19.2124,418.7154],[-71.6229,19.2144,439.4734],[-71.6229,19.2124,433.5198],[-71.6221,19.2136,438.174],[-71.6181,19.2117,448.1386],[-71.6189,19.2105,389.5439],[-71.6201,19.2117,389.5439],[-71.6209,19.2078,466.3336],[-71.6236,19.2097,448.1711],[-71.6236,19.2117,399.9577],[-71.6315,19.2097,505.5612],[-71.6315,19.2078,458.4204],[-71.6342,19.207,496.9348],[-71.633,19.205,471.3174],[-71.6342,19.205,490.7033],[-71.635,19.2011,456.4371],[-71.633,19.2004,423.6587],[-71.633,19.1984,415.1483],[-71.635,19.1976,444.0972],[-71.6295,19.193,391.5001],[-71.6267,19.1949,445.174],[-71.6256,19.1918,391.8892],[-71.6228,19.1911,468.8945],[-71.6248,19.1891,372.8935],[-71.6248,19.1872,394.0704],[-71.6236,19.1872,394.0704],[-71.6267,19.1864,532.5118],[-71.6275,19.1883,478.9933],[-71.6283,19.1872,478.9933],[-71.6314,19.1872,565.46],[-71.6314,19.1883,565.46],[-71.6342,19.1836,574.5321],[-71.6408,19.1856,786.5544],[-71.6397,19.1825,708.8434],[-71.6436,19.1817,641.9295],[-71.635,19.1798,519.1777],[-71.635,19.1778,478.8871],[-71.6295,19.1743,367.7639],[-71.6302,19.1732,404.9749],[-71.6322,19.1743,422.4384],[-71.6322,19.1716,427.8871],[-71.6377,19.1731,570.6044],[-71.6337,19.1689,578.0894],[-71.6365,19.1688,599.2025],[-71.6361,19.1667,541.2592],[-71.6413,19.1682,577.3107],[-71.6416,19.1669,495.9631],[-71.6396,19.1669,481.0183],[-71.6388,19.1623,356.2324],[-71.6396,19.1611,384.9204],[-71.6416,19.1623,458.8525],[-71.6416,19.1603,517.8572],[-71.6396,19.1591,358.0893],[-71.6433,19.1582,554.0358],[-71.6361,19.1518,490.382],[-71.6376,19.1498,347.3647],[-71.6416,19.151,450.239],[-71.6416,19.1498,553.9355],[-71.649,19.1471,612.3937],[-71.6529,19.1482,544.6925],[-71.6502,19.1463,539.5546],[-71.6502,19.1444,485.9445],[-71.6416,19.1397,396.0655],[-71.6443,19.1358,391.2811],[-71.6435,19.1331,394.3794],[-71.6455,19.1311,384.7665],[-71.6443,19.1304,365.562],[-71.647,19.1257,379.6385],[-71.6502,19.1238,372.9956],[-71.6501,19.1203,361.102],[-71.6512,19.1227,364.8056],[-71.6543,19.1155,346.3958],[-71.6557,19.1173,347.4854],[-71.6631,19.1129,340.5969],[-71.6706,19.1174,347.2122],[-71.673,19.1128,331.8584],[-71.6792,19.1136,367.8613],[-71.6772,19.1117,336.0482],[-71.6799,19.107,308.8308],[-71.6823,19.1076,323.6047],[-71.6849,19.103,306.5446],[-71.697,19.1086,265.6226],[-71.7012,19.1074,268.1301],[-71.7027,19.1042,265.5879],[-71.6999,19.1015,277.4875],[-71.6952,19.1003,281.7697],[-71.6925,19.0949,427.0104],[-71.6932,19.0922,328.35],[-71.698,19.0891,255.5255],[-71.7054,19.0902,272.038],[-71.7074,19.0891,261.0519],[-71.7081,19.0828,264.6302],[-71.7046,19.0809,277.1666],[-71.6987,19.0809,281.6179],[-71.6971,19.079,276.5656],[-71.7018,19.0731,249.465],[-71.7101,19.0672,244.1496],[-71.7112,19.0706,253.1959],[-71.7162,19.0711,265.3097],[-71.7168,19.0688,243.7747],[-71.712,19.0677,261.1582],[-71.712,19.065,263.1613],[-71.714,19.063,261.6102],[-71.716,19.0642,249.5565],[-71.7172,19.0632,240.5569],[-71.7167,19.06,236.7494],[-71.7184,19.0586,262.3953],[-71.7255,19.0556,257.2882],[-71.7233,19.0536,253.6674],[-71.7342,19.0499,231.6421],[-71.7363,19.047,235.9737],[-71.7377,19.0478,233.985],[-71.7405,19.0433,247.3139],[-71.7495,19.0473,235.0326],[-71.7544,19.0435,232.9489],[-71.7598,19.0388,227.442],[-71.7563,19.0341,245.8717],[-71.7571,19.0314,229.6227],[-71.7607,19.0303,223.1982],[-71.7611,19.0273,220.6021],[-71.7647,19.0262,227.2834],[-71.768,19.0318,218.7515],[-71.7705,19.0317,218.7586],[-71.7786,19.0221,216.4323],[-71.7771,19.0201,238.3809],[-71.7731,19.0201,249.0798],[-71.7712,19.0174,265.8652],[-71.7771,19.0143,214.029],[-71.7806,19.0162,215.6335],[-71.7865,19.0115,214.5217],[-71.7872,19.0049,226.3392],[-71.7825,19.0014,247.2298],[-71.7833,18.9976,274.5871],[-71.7868,18.9968,224.3146],[-71.7891,18.9932,237.3568],[-71.7917,18.9929,209.739],[-71.7984,18.9961,217.172],[-71.7962,18.9996,204.0595],[-71.7991,19.0051,204.1495],[-71.801,19.0051,204.1623],[-71.8006,19.0034,212.6158],[-71.8021,19.0022,207.5432],[-71.8054,19.0015,198.8915],[-71.8046,18.9993,197.4815],[-71.8062,18.9983,207.0258],[-71.8144,18.996,202.0725],[-71.8192,18.9969,199.2217],[-71.8261,18.9935,220.7814],[-71.829,18.9955,198.937],[-71.8305,19.0041,205.6499],[-71.8345,19.0034,189.4854],[-71.835,19.0008,190.3582],[-71.839,18.9999,192.5749],[-71.841,18.9947,198.4731],[-71.8484,18.9967,211.314],[-71.8476,18.9908,186.0538],[-71.8523,18.9862,187.4012],[-71.8511,18.9815,214.0644],[-71.8563,18.9804,190.6715],[-71.8568,18.9771,183.7723],[-71.8584,18.9765,191.4097],[-71.8624,18.9788,183.2799],[-71.8719,18.9752,191.1901],[-71.8699,18.964,210.7482],[-71.8711,18.9612,223.863],[-71.8746,18.9601,177.8601],[-71.8748,18.9582,198.9924],[-71.879,18.9568,191.2406],[-71.8785,18.9461,180.0129],[-71.8763,18.9455,175.0966],[-71.8751,18.9489,194.3381],[-71.8728,18.948,178.176],[-71.8711,18.9527,212.9753],[-71.8644,18.95,200.9941],[-71.857,18.9508,207.5987],[-71.857,18.9566,210.9104],[-71.8586,18.9582,218.37],[-71.8578,18.962,190.6073],[-71.8558,18.9628,206.5956],[-71.857,18.9667,243.9974],[-71.855,18.9667,239.7693],[-71.8503,18.9613,194.9877],[-71.8508,18.9589,196.2047],[-71.8489,18.9606,199.4398],[-71.8499,18.9629,205.1599],[-71.8462,18.9621,204.4658],[-71.8444,18.964,229.5687],[-71.8456,18.9667,233.2547],[-71.8407,18.9662,205.9241],[-71.8395,18.9692,218.2953],[-71.8362,18.9701,202.6548],[-71.835,18.9734,247.8968],[-71.8323,18.9741,262.6247],[-71.8288,18.9668,213.9114],[-71.8229,18.9722,264.3806],[-71.8201,18.9714,252.2446],[-71.8182,18.9734,264.2252],[-71.8174,18.9722,264.2252],[-71.8221,18.9676,227.5765],[-71.8135,18.9668,251.9575],[-71.8099,18.9687,253.2153],[-71.808,18.9668,247.5327],[-71.808,18.9629,249.3868],[-71.804,18.9641,261.096],[-71.7985,18.9614,246.178],[-71.7993,18.9583,241.8412],[-71.7919,18.9602,254.7261],[-71.7919,18.9575,248.4989],[-71.7899,18.9567,236.2751],[-71.7864,18.9622,269.9765],[-71.7844,18.9602,271.9431],[-71.777,18.9583,262.6803],[-71.7785,18.9521,239.3019],[-71.7635,18.9109,367.6228],[-71.7561,18.9101,361.701],[-71.7392,18.897,374.3947],[-71.7345,18.895,377.3714],[-71.7313,18.8896,399.2825],[-71.7325,18.8822,406.9536],[-71.7219,18.8811,369.8377],[-71.7184,18.885,361.9448],[-71.7172,18.883,366.2326],[-71.7203,18.8791,375.1381],[-71.7211,18.8682,412.4317],[-71.7211,18.8457,699.5629],[-71.7155,18.8371,862.5917],[-71.7171,18.8298,831.4503],[-71.7171,18.8084,1099.9644],[-71.7322,18.7263,885.7847],[-71.7679,18.713,1052.7422],[-71.7699,18.7142,977.0358],[-71.7781,18.7095,1300.0094],[-71.78,18.7056,1347.0588],[-71.78,18.6955,1591.3165],[-71.7848,18.6882,1892.3909],[-71.7854,18.6828,1914.4069],[-71.776,18.6853,1896.2273],[-71.7715,18.6803,1866.7114],[-71.7598,18.6769,1901.5845],[-71.7536,18.6774,1950.8483],[-71.7432,18.6813,1952.4705],[-71.7339,18.6773,1966.756],[-71.7217,18.6765,2065.7344],[-71.7091,18.6734,2089.9849],[-71.7018,18.6689,2109.8447],[-71.6905,18.6675,2128.2827],[-71.6839,18.6645,1978.839]]]]}
,"properties": {"GID_1": "DOM.12_1","GID_0": "DOM","country": "DominicanRepublic","province": "LaEstrelleta","VARNAME_1": "ElíasPiña|SanRafael","NL_NAME_1": "NA","TYPE_1": "Provincia","ENGTYPE_1": "Province","CC_1": "NA","HASC_1": "DO.EP","ISO_1": "NA","name": "La_Estrelleta.province","area_km2": 1428.981,"hist_schema_id": "Elevation0-9000","hist_area_km2": {"175": 0.742,"200": 4.351,"225": 10.225,"250": 16.438,"275": 28.445,"300": 40.657,"325": 55.756,"350": 72.218,"375": 73.402,"400": 64.658,"425": 62.132,"450": 56.379,"475": 43.764,"500": 34.815,"525": 24.13,"550": 21.903,"575": 20.5,"600": 21.522,"625": 22.485,"650": 22.626,"675": 23.586,"700": 23.828,"725": 26.755,"750": 27.697,"775": 29.421,"800": 28.702,"825": 28.364,"850": 24.837,"875": 24.898,"900": 24.118,"925": 23.655,"950": 23.012,"975": 21.229,"1000": 20.826,"1025": 20.465,"1050": 21.569,"1075": 19.307,"1100": 21.17,"1125": 18.805,"1150": 18.385,"1175": 16.481,"1200": 17.883,"1225": 15.799,"1250": 14.858,"1275": 13.094,"1300": 14.178,"1325": 12.191,"1350": 10.888,"1375": 11.007,"1400": 11.59,"1425": 10.106,"1450": 9.165,"1475": 9.866,"1500": 8.402,"1525": 8.863,"1550": 7.94,"1575": 7.641,"1600": 7.781,"1625": 6.738,"1650": 6.258,"1675": 5.736,"1700": 4.251,"1725": 3.189,"1750": 3.189,"1775": 2.849,"1800": 2.308,"1825": 2.609,"1850": 3.051,"1875": 2.49,"1900": 2.048,"1925": 1.948,"1950": 1.808,"1975": 1.707,"2000": 0.643,"2025": 0.502,"2050": 0.583,"2075": 0.582,"2100": 0.643,"2125": 0.321,"2150": 0.02}}}