{"type": "Feature","bbox": [-66.0306,18.2072,-65.9187,18.3112],"geometry": {"type": "MultiPolygon","coordinates": [[[[-65.9978,18.2072,67.2166],[-65.9918,18.212,123.7898],[-65.9899,18.2196,86.4156],[-65.9825,18.2206,96.3328],[-65.9714,18.2292,225.624],[-65.9511,18.2291,153.9046],[-65.9414,18.232,138.2719],[-65.9395,18.2339,93.026],[-65.9492,18.2439,69.494],[-65.9464,18.2525,52.0792],[-65.9363,18.2592,80.4396],[-65.9275,18.2682,151.1146],[-65.9187,18.2701,271.6701],[-65.933,18.2801,337.3438],[-65.9422,18.2935,239.6264],[-65.9529,18.2945,270.9673],[-65.9635,18.3007,189.0451],[-65.9681,18.3102,69.5617],[-65.9862,18.3112,208.9591],[-65.9978,18.3059,119.4051],[-66.0066,18.3045,134.6711],[-66.0167,18.3088,39.0],[-66.0237,18.3035,56.1499],[-66.0297,18.303,39.0],[-66.0306,18.3011,50.5152],[-66.0292,18.2892,39.5129],[-66.0172,18.2811,41.4293],[-66.0079,18.2778,44.2525],[-66.0089,18.2721,48.3995],[-66.007,18.2668,44.3958],[-66.0144,18.2644,57.3549],[-66.0107,18.2501,61.8019],[-66.0149,18.2454,49.4544],[-66.0084,18.2377,53.0463],[-66.0084,18.2334,55.9848],[-66.0139,18.2253,62.3771],[-66.0107,18.221,55.0969],[-65.9996,18.2182,60.2409],[-65.9978,18.2072,67.2166]]]]}
,"properties": {"GID_1": "PRI.33_1","GID_0": "PRI","country": "PuertoRico","province": "Gurabo","VARNAME_1": "NA","NL_NAME_1": "NA","TYPE_1": "Municipio","ENGTYPE_1": "Municipality","CC_1": "NA","HASC_1": "PR.GR","ISO_1": "-","name": "Gurabo.province","area_km2": 73.60917,"hist_schema_id": "Elevation0-9000","hist_area_km2": {"50": 16.65114,"75": 14.2154,"100": 6.50341,"125": 4.99326,"150": 4.4295,"175": 3.96644,"200": 4.18783,"225": 3.68429,"250": 3.22115,"275": 3.30155,"300": 2.59692,"325": 2.43588,"350": 1.26828,"375": 0.90594,"400": 0.5637,"425": 0.42278,"450": 0.26172}}}