{"type": "Feature","id": "5151","bbox": [-69.17174,12.04133,-68.73974,12.39151],"geometry": {"type": "Polygon","coordinates": [[[-68.78075,12.09781,0.0],[-68.80403,12.11701,14.1474],[-68.81184,12.12934,11.4255],[-68.81481,12.1496,0.0],[-68.82079,12.16234,0.0],[-68.83528,12.17105,0.0],[-68.96129,12.20136,0.0],[-69.00402,12.22167,4.697],[-69.04076,12.25605,10.1852],[-69.04996,12.27611,0.924],[-69.06041,12.32258,12.4341],[-69.07152,12.34138,31.4821],[-69.08959,12.35688,11.4129],[-69.10778,12.36782,0.0],[-69.15062,12.38573,22.8],[-69.15624,12.39061,0.7807],[-69.1612,12.39151,0.0],[-69.16613,12.38784,0.0],[-69.17174,12.37889,0.0],[-69.16381,12.36188,0.0],[-69.16198,12.34284,0.0],[-69.1643,12.30695,0.0],[-69.15954,12.29336,0.0],[-69.1481,12.28441,29.9706],[-69.13439,12.27733,56.8417],[-69.12267,12.26903,11.0537],[-69.09191,12.21988,0.0],[-69.0786,12.20425,56.2477],[-69.0629,12.19843,33.086],[-69.04361,12.19668,0.0],[-69.02721,12.19009,0.0],[-69.02025,12.16975,0.0],[-69.00744,12.14818,0.0],[-68.97777,12.12458,0.0],[-68.94473,12.10562,0.7007],[-68.89342,12.09052,24.696],[-68.84118,12.05549,0.0],[-68.81481,12.04316,2.3227],[-68.79475,12.04133,9.8439],[-68.76985,12.04291,0.0],[-68.74865,12.04702,0.598],[-68.73974,12.05305,0.0],[-68.74523,12.06224,0.0],[-68.78075,12.09781,0.0]]]}
,"properties": {"ISO3166-1-Alpha-3": "CUW","country": "Curaçao","fill": "#F0F","name": "Curaçao","area_km2": 465.0635,"hist_schema_id": "Elevation0-9000","hist_area_km2": {"0": 141.4727,"25": 179.8123,"50": 91.7144,"75": 31.9895,"100": 10.3178,"125": 4.7025,"150": 2.2786,"175": 1.2222,"200": 0.9528,"225": 0.2278,"250": 0.2071,"275": 0.0621,"300": 0.0414,"325": 0.0621}}}