{"type":"Feature","properties":{"GID_2":"DOM.3.6_1","GID_0":"DOM","country":"DominicanRepublic","GID_1":"DOM.3_1","province":"Barahona","NL_NAME_1":"NA","county":"LaCienaga","VARNAME_2":"NA","NL_NAME_2":"NA","TYPE_2":"Distritomunicipal","ENGTYPE_2":"Municipaldistrict","CC_2":"NA","HASC_2":"DO.BH.LC","name":"La_Cienaga.county"},
"geometry":{"type": "MultiPolygon","coordinates": [[[[-71.1925,18.1155,1438.5371],[-71.1881,18.1045,1209.8295],[-71.1908,18.0954,1179.4381],[-71.1837,18.0926,1143.1316],[-71.182,18.0901,1084.77],[-71.182,18.0835,1094.0071],[-71.185,18.0749,1027.0409],[-71.184,18.0679,976.0361],[-71.1753,18.063,986.8004],[-71.1686,18.0547,983.021],[-71.1476,18.0411,557.4438],[-71.1435,18.0368,365.3243],[-71.1282,18.0335,0.0],[-71.1243,18.0387,12.5468],[-71.1165,18.0421,2.3314],[-71.1154,18.0446,3.9795],[-71.1182,18.0465,4.089],[-71.1182,18.0485,3.2201],[-71.1143,18.0524,0.0],[-71.1126,18.0568,3.6127],[-71.1057,18.0646,0.0],[-71.099,18.0651,0.0],[-71.0965,18.0668,0.0],[-71.0929,18.0754,1.1096],[-71.091,18.076,0.41],[-71.084,18.0868,3.2149],[-71.0807,18.0957,16.353],[-71.0721,18.109,5.7048],[-71.0701,18.1193,0.672],[-71.0671,18.1229,0.0],[-71.0674,18.126,13.5399],[-71.0649,18.1271,0.0],[-71.0657,18.1304,11.2653],[-71.064,18.1313,3.9825],[-71.0629,18.1357,2.2785],[-71.0638,18.1443,18.6706],[-71.0596,18.1474,0.0],[-71.0607,18.1493,0.0],[-71.0582,18.1544,1.2478],[-71.066,18.1595,104.7786],[-71.0765,18.1583,134.7426],[-71.0808,18.1542,224.129],[-71.0781,18.1435,137.7676],[-71.0792,18.1401,107.8688],[-71.0966,18.1332,351.4905],[-71.1086,18.1264,531.5312],[-71.1269,18.1232,629.8517],[-71.1399,18.1234,960.5992],[-71.148,18.1259,1158.8325],[-71.1549,18.1262,1292.6648],[-71.1712,18.1206,1297.8188],[-71.1824,18.121,1446.2047],[-71.1884,18.1228,1404.4204],[-71.1905,18.1216,1478.9275],[-71.1925,18.1155,1438.5371]]]]}}