{"type":"Feature","properties":{"GID_2":"CUB.2.8_1","GID_0":"CUB","country":"Cuba","GID_1":"CUB.2_1","province":"CiegodeÁvila","NL_NAME_1":"NA","county":"Morón","VARNAME_2":"NA","NL_NAME_2":"NA","TYPE_2":"Municipio","ENGTYPE_2":"Municipality","CC_2":"NA","HASC_2":"CU.CA.MO","name":"Morón.county"},
"geometry":{"type": "MultiPolygon","coordinates": [[[[-78.515,22.1549,2.8236],[-78.5087,22.1614,1.15],[-78.483,22.1776,1.887],[-78.4524,22.1931,2.6311],[-78.4447,22.2136,3.4446],[-78.4349,22.2304,3.7192],[-78.427,22.2396,0.0],[-78.4329,22.2479,0.0],[-78.4371,22.2493,0.0],[-78.4388,22.2549,0.2886],[-78.4376,22.2593,0.0],[-78.4371,22.2604,0.0],[-78.4354,22.2604,0.2337],[-78.4346,22.2585,0.0],[-78.4326,22.2596,0.0],[-78.4343,22.2601,0.2337],[-78.4349,22.2632,0.0],[-78.4429,22.2579,0.0],[-78.4526,22.2568,0.2665],[-78.4593,22.2538,0.0],[-78.4668,22.2565,0.4569],[-78.4799,22.2549,3.264],[-78.4896,22.2557,2.6978],[-78.4957,22.2599,1.9935],[-78.4993,22.2596,1.3057],[-78.5004,22.2613,0.332],[-78.5015,22.2599,1.1572],[-78.504,22.2604,1.0951],[-78.5126,22.2724,0.4517],[-78.5201,22.2751,0.4598],[-78.524,22.2801,0.0],[-78.5276,22.2807,0.3368],[-78.5329,22.286,1.3718],[-78.4893,22.3415,0.0],[-78.4904,22.3412,0.0],[-78.4974,22.3329,0.0],[-78.5312,22.2888,0.0],[-78.534,22.2868,1.3718],[-78.5429,22.3004,0.0],[-78.5474,22.3046,0.7849],[-78.5579,22.3079,0.7664],[-78.5643,22.3063,0.395],[-78.5751,22.3085,0.6183],[-78.5771,22.3101,0.4012],[-78.5876,22.3107,0.0],[-78.596,22.3168,0.0],[-78.6021,22.324,0.0],[-78.6085,22.3243,0.0],[-78.6099,22.3263,0.0],[-78.6137,22.3268,0.0],[-78.6196,22.334,0.0],[-78.6307,22.3301,0.4108],[-78.6393,22.3326,0.0],[-78.6365,22.331,0.7949],[-78.6365,22.329,0.5367],[-78.6418,22.331,0.0],[-78.6424,22.3329,0.1614],[-78.6407,22.3338,0.2147],[-78.6451,22.3379,0.0],[-78.6485,22.3382,0.0],[-78.6518,22.3426,0.7919],[-78.6582,22.3587,1.2309],[-78.6615,22.3585,0.711],[-78.6626,22.3565,0.4337],[-78.6671,22.3549,0.4221],[-78.6757,22.3554,0.0],[-78.6846,22.3632,0.9012],[-78.6868,22.3712,0.0],[-78.6896,22.3746,0.949],[-78.6899,22.3788,0.0],[-78.6954,22.3821,0.0],[-78.7018,22.3838,0.0],[-78.7085,22.3796,0.3628],[-78.7082,22.3782,0.8603],[-78.7118,22.3785,0.4633],[-78.7162,22.3813,0.4973],[-78.7196,22.3871,0.0],[-78.7226,22.3876,0.0],[-78.7251,22.3863,0.548],[-78.7243,22.3826,0.4011],[-78.7118,22.376,0.0],[-78.7026,22.3768,0.0],[-78.7026,22.3788,0.7585],[-78.7012,22.379,0.9086],[-78.6988,22.3743,0.758],[-78.6935,22.3721,0.4978],[-78.6929,22.3704,0.5631],[-78.6954,22.3704,0.1251],[-78.7018,22.376,0.0],[-78.7029,22.3746,0.0],[-78.6999,22.3721,0.0],[-78.701,22.3704,0.4856],[-78.7046,22.3738,0.0],[-78.706,22.3715,0.0],[-78.7085,22.3726,0.0],[-78.7112,22.371,0.8906],[-78.7146,22.3712,0.8111],[-78.7179,22.3729,0.0],[-78.7215,22.3712,0.8436],[-78.7296,22.386,0.4146],[-78.7363,22.3818,1.6885],[-78.741,22.3749,1.4054],[-78.741,22.3724,1.5895],[-78.7374,22.3738,1.0126],[-78.7368,22.3779,2.5503],[-78.7337,22.3796,0.8136],[-78.7268,22.3754,0.6664],[-78.7296,22.3732,0.0],[-78.7285,22.3699,0.0],[-78.7265,22.3704,0.0],[-78.7271,22.3726,0.8133],[-78.7257,22.3743,1.5573],[-78.7232,22.371,0.504],[-78.7235,22.3679,0.0],[-78.7218,22.3704,0.0],[-78.7162,22.3707,0.7457],[-78.7149,22.3688,0.9026],[-78.7135,22.3693,0.4299],[-78.7124,22.3665,1.0315],[-78.714,22.3665,0.0],[-78.7138,22.3632,1.3386],[-78.7213,22.3657,0.3755],[-78.7201,22.3629,0.0],[-78.7174,22.3626,0.0],[-78.7157,22.3601,1.3],[-78.7196,22.3576,0.458],[-78.7193,22.3557,0.4531],[-78.7176,22.3557,0.0],[-78.7174,22.3579,0.6888],[-78.7154,22.3568,0.0],[-78.7143,22.3579,0.4044],[-78.7115,22.3543,0.4551],[-78.7082,22.3532,0.0],[-78.706,22.3474,0.0],[-78.7044,22.3516,0.0],[-78.7021,22.3485,0.0],[-78.7029,22.3457,0.7164],[-78.7068,22.3454,1.022],[-78.711,22.349,0.0],[-78.7096,22.3457,0.8134],[-78.7063,22.3443,1.022],[-78.7076,22.3376,1.3587],[-78.7096,22.3374,0.7831],[-78.7087,22.3315,1.8281],[-78.7121,22.331,0.0],[-78.7096,22.319,1.8857],[-78.7051,22.3126,2.2091],[-78.7057,22.3101,1.0027],[-78.709,22.3126,0.0],[-78.7124,22.3196,0.4983],[-78.7151,22.3213,0.0],[-78.7207,22.3213,0.0],[-78.7174,22.3151,2.4836],[-78.7196,22.311,1.5404],[-78.7143,22.3054,1.0664],[-78.7149,22.3037,1.1375],[-78.7174,22.304,0.4236],[-78.7174,22.3007,2.3241],[-78.7193,22.3021,1.9175],[-78.7199,22.3051,1.0018],[-78.7218,22.3057,0.0],[-78.7262,22.3024,0.3062],[-78.7293,22.3024,1.4775],[-78.7343,22.3088,0.0],[-78.7343,22.3143,0.0],[-78.736,22.3174,0.0],[-78.7399,22.311,1.78],[-78.7462,22.3196,0.0],[-78.7412,22.3101,3.4012],[-78.7487,22.3107,0.6927],[-78.7546,22.3143,1.6785],[-78.7536,22.2957,7.8273],[-78.7496,22.2843,10.1852],[-78.703,22.1976,2.1697],[-78.7059,22.1895,2.361],[-78.7273,22.1694,4.4],[-78.7328,22.1608,5.2254],[-78.7329,22.1432,11.1157],[-78.725,22.1225,17.9759],[-78.7269,22.105,27.1384],[-78.7032,22.1073,22.5383],[-78.6848,22.1139,19.289],[-78.6668,22.1149,17.6892],[-78.6539,22.1126,12.1945],[-78.6339,22.1021,10.0774],[-78.6294,22.0936,12.9651],[-78.6276,22.0707,14.8356],[-78.6208,22.053,17.5306],[-78.6177,22.0259,20.9466],[-78.5913,21.9774,19.1363],[-78.5801,21.9679,21.57],[-78.5719,21.9873,14.7208],[-78.5538,22.0066,10.4979],[-78.535,22.0341,10.516],[-78.5349,22.0414,8.6752],[-78.5415,22.0604,6.0104],[-78.5414,22.1023,3.7825],[-78.515,22.1549,2.8236]]],
[[[-78.4443,22.3146,0.0],[-78.4432,22.3157,0.0],[-78.4482,22.316,0.0],[-78.4565,22.3113,0.0],[-78.4596,22.3132,0.6451],[-78.4624,22.3124,0.1897],[-78.4565,22.3104,0.0],[-78.4504,22.3137,0.7477],[-78.4493,22.311,0.4046],[-78.4515,22.3107,0.283],[-78.4449,22.3063,0.0],[-78.4485,22.3137,0.7477],[-78.4443,22.3146,0.0]]],
[[[-78.4576,22.4026,0.0],[-78.4618,22.404,0.0],[-78.4643,22.4018,0.0],[-78.4593,22.4007,0.0],[-78.4587,22.4026,0.0],[-78.459,22.3999,0.0],[-78.4576,22.3993,0.0],[-78.4576,22.4026,0.0]]],
[[[-78.4599,22.4168,0.0],[-78.4629,22.4179,0.0],[-78.4632,22.4163,0.0],[-78.4571,22.4138,0.0],[-78.4565,22.4118,0.9099],[-78.4593,22.4093,0.0],[-78.4585,22.4076,0.0],[-78.4565,22.4076,0.0],[-78.454,22.4132,0.0],[-78.4599,22.4168,0.0]]],
[[[-78.3857,22.2787,0.0],[-78.3854,22.2804,0.0],[-78.3901,22.2801,0.0],[-78.3915,22.2765,0.0],[-78.3885,22.2774,0.0],[-78.3857,22.2787,0.0]]],
[[[-78.3782,22.3012,0.0],[-78.381,22.3018,0.0],[-78.3815,22.2971,0.1164],[-78.3829,22.2965,0.0],[-78.3796,22.296,0.0442],[-78.3776,22.2924,0.0],[-78.3763,22.2926,0.0],[-78.3779,22.291,0.0],[-78.3771,22.2879,0.0],[-78.3824,22.2862,0.0893],[-78.3832,22.2818,0.0],[-78.3821,22.2807,0.0],[-78.3771,22.2829,0.0],[-78.3749,22.286,0.0],[-78.3807,22.2835,0.0],[-78.3793,22.2857,0.0],[-78.3718,22.2882,0.0],[-78.3751,22.2901,0.0],[-78.3729,22.2912,0.102],[-78.3715,22.289,0.0],[-78.3701,22.2896,0.0],[-78.3732,22.2938,0.0],[-78.3749,22.2932,0.0],[-78.3793,22.2971,0.0333],[-78.3782,22.3012,0.0]]],
[[[-78.3213,22.3007,0.0],[-78.326,22.3018,0.0],[-78.3274,22.2999,0.0],[-78.3218,22.2957,0.0],[-78.3199,22.2979,0.0],[-78.3213,22.3007,0.0]]],
[[[-78.2651,22.2996,0.0],[-78.266,22.3012,0.1965],[-78.2685,22.2999,0.1856],[-78.2654,22.2988,0.0],[-78.2651,22.2996,0.0]]],
[[[-78.3999,22.3007,0.0],[-78.4013,22.3021,0.0],[-78.404,22.3012,0.0],[-78.4013,22.2988,0.0],[-78.3968,22.2982,0.0],[-78.3999,22.3007,0.0]]],
[[[-78.3163,22.3004,0.1505],[-78.3182,22.3015,0.0],[-78.3176,22.2996,0.0],[-78.3138,22.2996,0.0],[-78.3151,22.3004,0.1505],[-78.3163,22.3004,0.1505]]],
[[[-78.3071,22.3024,0.0],[-78.3068,22.304,0.0],[-78.3087,22.3043,0.0],[-78.3087,22.3021,0.0],[-78.3118,22.2996,0.0],[-78.3104,22.2996,0.0],[-78.3071,22.3024,0.0]]],
[[[-78.4154,22.3063,0.0],[-78.4199,22.3074,0.0],[-78.4176,22.306,0.0],[-78.4215,22.306,0.2027],[-78.4218,22.3049,0.0],[-78.4149,22.3049,0.0],[-78.4154,22.3063,0.0]]],
[[[-78.2999,22.3126,2.0897],[-78.2988,22.3146,4.2275],[-78.3071,22.311,0.0],[-78.3138,22.3124,0.0],[-78.3221,22.3063,0.0],[-78.3104,22.3051,0.0],[-78.2999,22.3126,2.0897]]],
[[[-78.2921,22.3168,0.0],[-78.2915,22.3185,0.3102],[-78.2954,22.3174,0.4473],[-78.2957,22.316,3.9697],[-78.2946,22.3154,0.0],[-78.2921,22.3168,0.0]]],
[[[-78.2576,22.3265,0.0],[-78.2593,22.3288,0.0],[-78.2615,22.3254,0.2193],[-78.2657,22.3257,0.0],[-78.2554,22.3199,0.0],[-78.2524,22.316,0.0],[-78.2524,22.3129,0.3175],[-78.249,22.3118,0.0],[-78.2485,22.3135,0.0],[-78.251,22.3154,0.4519],[-78.2524,22.3196,0.0],[-78.2571,22.3226,0.1179],[-78.2576,22.3265,0.0]]],
[[[-78.4154,22.3682,0.0],[-78.419,22.369,0.0116],[-78.436,22.3624,0.6181],[-78.4401,22.3635,0.7896],[-78.4443,22.3624,0.0],[-78.4426,22.3607,0.0],[-78.4326,22.3615,0.0],[-78.4285,22.3601,0.0],[-78.4238,22.3638,0.0879],[-78.4151,22.3651,0.0],[-78.4154,22.3682,0.0]]],
[[[-78.7382,22.3199,0.0],[-78.7376,22.3218,0.8942],[-78.739,22.3226,0.0],[-78.7407,22.3201,0.0],[-78.7382,22.3199,0.0]]],
[[[-78.7224,22.3213,1.1017],[-78.7232,22.3232,1.2491],[-78.7265,22.3199,0.0],[-78.7246,22.3196,0.0],[-78.7224,22.3213,1.1017]]],
[[[-78.729,22.3226,2.0058],[-78.7288,22.3246,0.3796],[-78.7312,22.3251,0.5411],[-78.7329,22.3221,0.0],[-78.731,22.3218,0.0],[-78.729,22.3226,2.0058]]],
[[[-78.7226,22.3437,0.94],[-78.7229,22.3457,0.0],[-78.7249,22.3454,1.719],[-78.7237,22.3396,1.5621],[-78.7215,22.3404,0.0],[-78.7226,22.3437,0.94]]],
[[[-78.7157,22.3376,0.0],[-78.7168,22.3396,0.0],[-78.7187,22.3388,0.0],[-78.7162,22.329,0.7941],[-78.7143,22.3282,0.0],[-78.7126,22.3374,0.6579],[-78.7157,22.3376,0.0]]],
[[[-78.7112,22.3471,1.0631],[-78.7118,22.3493,0.0],[-78.7129,22.3496,0.0],[-78.7107,22.3454,0.0],[-78.7112,22.3471,1.0631]]],
[[[-78.7165,22.3538,0.5494],[-78.7154,22.3532,0.0],[-78.7149,22.3557,0.0],[-78.7171,22.3554,0.5494],[-78.7165,22.3538,0.5494]]],
[[[-78.6568,22.4865,0.7866],[-78.6574,22.4915,0.8731],[-78.6637,22.489,1.7351],[-78.6604,22.4854,0.0],[-78.6568,22.4865,0.7866]]],
[[[-78.719,22.3515,0.0],[-78.7193,22.3546,0.5519],[-78.7207,22.3546,0.0],[-78.7213,22.3518,0.0],[-78.719,22.3515,0.0]]],
[[[-78.7182,22.3587,0.458],[-78.7179,22.3613,0.4747],[-78.7196,22.3613,0.37],[-78.7196,22.3587,0.458],[-78.7182,22.3587,0.458]]],
[[[-78.756,22.3851,0.1227],[-78.7557,22.3876,0.0],[-78.7582,22.3876,0.574],[-78.759,22.3824,1.1305],[-78.7562,22.3818,0.0],[-78.7543,22.3832,0.0],[-78.756,22.3851,0.1227]]],
[[[-78.7285,22.5071,3.5645],[-78.7282,22.5093,0.475],[-78.7363,22.509,0.0],[-78.7421,22.5043,1.6931],[-78.7485,22.5054,2.9386],[-78.7487,22.5024,2.0106],[-78.7476,22.501,1.8469],[-78.7435,22.501,0.5113],[-78.7407,22.5038,1.6931],[-78.7285,22.5071,3.5645]]],
[[[-78.6679,22.4901,0.646],[-78.6712,22.491,0.3446],[-78.6685,22.4879,0.0],[-78.6671,22.4893,0.646],[-78.6679,22.4901,0.646]]],
[[[-78.7079,22.5032,0.8085],[-78.709,22.5054,0.0],[-78.7112,22.5046,0.9934],[-78.7101,22.5018,0.0],[-78.7035,22.4996,0.0],[-78.7038,22.5007,0.9057],[-78.7079,22.5032,0.8085]]],
[[[-78.6521,22.5132,0.3213],[-78.6532,22.5146,0.603],[-78.6546,22.5143,0.3153],[-78.6507,22.5124,0.391],[-78.6521,22.5132,0.3213]]],
[[[-78.7085,22.5365,0.4005],[-78.7093,22.5379,0.0],[-78.7104,22.5376,0.0],[-78.7079,22.5351,0.0],[-78.7085,22.5365,0.4005]]],
[[[-78.634,22.4526,1.1151],[-78.6374,22.4538,0.0],[-78.6351,22.4496,0.0],[-78.6329,22.4504,0.0],[-78.634,22.4526,1.1151]]],
[[[-78.6099,22.4613,1.0062],[-78.6107,22.4638,0.0],[-78.6135,22.4635,0.0],[-78.6087,22.4588,0.3909],[-78.6087,22.4526,1.6959],[-78.6051,22.4446,0.0],[-78.6035,22.4451,0.0],[-78.601,22.4529,0.4792],[-78.599,22.4543,0.7918],[-78.5918,22.454,0.0],[-78.5929,22.456,0.0],[-78.6038,22.4557,0.0],[-78.6099,22.4613,1.0062]]],
[[[-78.6129,22.4549,0.0],[-78.6118,22.4565,0.0],[-78.6143,22.4571,0.0],[-78.6143,22.4543,0.0],[-78.6129,22.4549,0.0]]],
[[[-78.5643,22.4588,0.6564],[-78.564,22.4604,0.6564],[-78.5668,22.4579,0.1499],[-78.5676,22.4601,0.0],[-78.5701,22.459,0.0],[-78.5718,22.4529,0.0],[-78.5671,22.4549,0.0],[-78.5643,22.4588,0.6564]]],
[[[-78.6176,22.4632,5.4408],[-78.6193,22.4638,0.0],[-78.6165,22.4615,1.5016],[-78.6165,22.4624,1.1037],[-78.6176,22.4632,5.4408]]],
[[[-78.6429,22.5229,0.0],[-78.6418,22.5224,0.0],[-78.6435,22.5249,0.0],[-78.6454,22.5254,0.5707],[-78.6482,22.5196,0.0],[-78.6432,22.519,0.0],[-78.644,22.5229,0.6522],[-78.6429,22.5229,0.0]]],
[[[-78.6229,22.6121,0.0],[-78.6246,22.6132,0.387],[-78.6246,22.611,0.5566],[-78.6218,22.6101,0.0],[-78.6215,22.6107,2.9854],[-78.6229,22.6121,0.0]]],
[[[-78.6438,22.6271,0.0],[-78.6468,22.6276,0.6864],[-78.6451,22.6254,0.0],[-78.6429,22.626,0.0],[-78.6438,22.6271,0.0]]],
[[[-78.7765,22.5249,0.0],[-78.7754,22.5257,0.0],[-78.7754,22.528199999999998,0.0],[-78.7793,22.5265,1.1262],[-78.7765,22.5249,0.0]]],
[[[-78.7743,22.5318,1.928],[-78.7768,22.5329,0.9988],[-78.7754,22.5307,1.928],[-78.7732,22.5312,0.0],[-78.7743,22.5318,1.928]]],
[[[-78.7368,22.5518,3.0574],[-78.741,22.5526,0.0],[-78.7343,22.5471,1.0523],[-78.7349,22.5462,1.1414],[-78.7368,22.5474,0.0],[-78.7379,22.5446,0.4241],[-78.7346,22.5413,0.0],[-78.7335,22.5376,1.0445],[-78.734,22.5368,1.7278],[-78.7365,22.5396,0.0],[-78.736,22.5357,0.0],[-78.7393,22.5374,0.0],[-78.7407,22.5362,0.4856],[-78.7415,22.5388,0.0],[-78.744,22.5399,1.0425],[-78.7474,22.5368,1.1415],[-78.7499,22.5365,0.2717],[-78.7493,22.5388,0.0],[-78.7521,22.5376,0.0],[-78.751,22.5415,0.0],[-78.7535,22.5404,1.6079],[-78.7557,22.5446,0.0],[-78.7599,22.5438,0.0],[-78.7615,22.5462,0.0],[-78.7629,22.5462,0.0],[-78.7613,22.5435,0.0],[-78.7626,22.5401,1.1321],[-78.7643,22.5432,0.8331],[-78.7665,22.5432,0.6477],[-78.7674,22.546,1.1286],[-78.769,22.5457,1.1286],[-78.7696,22.5429,2.7378999999999998],[-78.7718,22.5435,0.0],[-78.7663,22.5382,0.6316],[-78.7693,22.5368,2.0242],[-78.7707,22.5326,0.8765],[-78.7671,22.5349,0.3123],[-78.7637,22.5329,0.0],[-78.7651,22.5293,0.9581],[-78.7685,22.5299,0.4158],[-78.7679,22.526,0.2694],[-78.7712,22.5254,1.4853],[-78.7643,22.5174,0.8655],[-78.764,22.5149,0.0],[-78.7632,22.5149,0.0],[-78.7629,22.5193,0.8882],[-78.7593,22.5218,0.2781],[-78.7571,22.5207,0.3418],[-78.7554,22.5246,0.8627],[-78.7513,22.5263,0.1481],[-78.7479,22.526,0.8381],[-78.7485,22.5221,1.4549],[-78.7457,22.5157,0.4031],[-78.7387,22.5182,0.0],[-78.7368,22.5246,1.4494],[-78.7401,22.5304,0.0],[-78.7351,22.5318,0.0],[-78.7304,22.5362,2.4728],[-78.7265,22.5374,2.8534],[-78.7213,22.5426,2.1104],[-78.7165,22.5438,0.6861],[-78.721,22.5468,1.466],[-78.7276,22.5462,0.8289],[-78.7282,22.5421,0.0],[-78.7337,22.5465,0.359],[-78.7321,22.5468,0.0],[-78.7321,22.5485,0.0],[-78.7337,22.5504,0.597],[-78.7368,22.5518,3.0574]]],
[[[-78.7782,22.5426,0.8264],[-78.7801,22.5438,0.0],[-78.7821,22.5424,0.0],[-78.7787,22.5382,0.7269],[-78.7776,22.539,0.0],[-78.7782,22.5426,0.8264]]],
[[[-78.7149,22.5524,0.4284],[-78.7165,22.5535,1.5056],[-78.7182,22.5518,0.0],[-78.7179,22.5496,0.7682],[-78.7149,22.5488,1.6805],[-78.7129,22.5501,0.0],[-78.7149,22.5524,0.4284]]],
[[[-78.6543,22.5524,2.2059],[-78.6554,22.5543,0.4996],[-78.6568,22.5521,0.5945],[-78.6554,22.5513,0.0],[-78.6543,22.5524,2.2059]]],
[[[-78.711,22.5532,0.3219],[-78.7132,22.5543,0.2633],[-78.7126,22.5521,0.2148],[-78.7099,22.5513,0.0],[-78.711,22.5532,0.3219]]],
[[[-78.7068,22.5576,0.4467],[-78.7076,22.559,0.0],[-78.709,22.5587,1.1261],[-78.7063,22.5554,0.0],[-78.7068,22.5576,0.4467]]],
[[[-78.7151,22.5568,0.0],[-78.7171,22.5582,0.4227],[-78.7182,22.5579,0.0],[-78.7171,22.5554,0.0],[-78.7151,22.5568,0.0]]],
[[[-78.7679,22.5646,0.0],[-78.7707,22.5651,1.4802],[-78.7704,22.5582,0.0],[-78.7665,22.5604,0.0],[-78.7663,22.564,0.5929],[-78.7679,22.5646,0.0]]],
[[[-78.7304,22.5629,2.666],[-78.7318,22.5643,0.0],[-78.7332,22.5637,0.3946],[-78.7299,22.5604,0.0],[-78.7304,22.5629,2.666]]],
[[[-78.7201,22.564,0.942],[-78.7207,22.5665,0.0],[-78.7226,22.5674,0.0],[-78.7268,22.5665,0.0],[-78.7265,22.5651,0.0],[-78.7182,22.561,0.3665],[-78.7182,22.5629,1.713],[-78.7201,22.564,0.942]]],
[[[-78.674,22.5654,0.0],[-78.6771,22.5668,0.0],[-78.6796,22.5632,0.903],[-78.6771,22.5626,1.7217],[-78.674,22.5654,0.0]]],
[[[-78.7121,22.5818,2.8475],[-78.7135,22.5829,0.3885],[-78.7132,22.5785,0.0],[-78.7101,22.579,2.9377],[-78.7104,22.5815,1.4752],[-78.7121,22.5818,2.8475]]],
[[[-78.7029,22.5868,0.3177],[-78.7046,22.5885,1.0119],[-78.7038,22.5865,0.2847],[-78.7051,22.5843,0.0],[-78.7024,22.5857,0.3177],[-78.7029,22.5868,0.3177]]],
[[[-78.6988,22.5918,0.7072],[-78.6982,22.5929,0.0],[-78.6996,22.5924,0.6603],[-78.7018,22.5874,0.0],[-78.6993,22.5893,0.8567],[-78.6988,22.5918,0.7072]]],
[[[-78.0618,22.2015,0.0441],[-78.0679,22.2024,0.0],[-78.0643,22.1982,0.0],[-78.0618,22.199,0.1365],[-78.0618,22.2015,0.0441]]],
[[[-78.0385,22.2174,0.0],[-78.0401,22.2193,0.0],[-78.0374,22.214,0.0],[-78.0371,22.2149,0.0],[-78.0385,22.2174,0.0]]],
[[[-78.0349,22.2232,0.0],[-78.0385,22.2237,0.0],[-78.0379,22.2218,0.0],[-78.036,22.2218,0.0],[-78.0343,22.2138,0.0],[-78.0321,22.2115,0.0],[-78.0312,22.2138,0.0],[-78.034,22.2182,0.0],[-78.0349,22.2232,0.0]]],
[[[-78.0565,22.2276,0.0],[-78.0599,22.2288,0.0],[-78.0585,22.2249,0.0],[-78.0607,22.2199,0.0],[-78.0579,22.2221,0.0],[-78.0565,22.2276,0.0]]],
[[[-78.0865,22.1957,0.0],[-78.0896,22.196,0.0],[-78.089,22.1929,0.0],[-78.0882,22.1929,0.0],[-78.0865,22.1957,0.0]]],
[[[-78.0776,22.204,0.0],[-78.0801,22.2054,0.0],[-78.0843,22.2043,0.0],[-78.0854,22.1987,0.0],[-78.0796,22.2026,0.0163],[-78.0785,22.1979,0.0],[-78.0768,22.1971,0.0],[-78.0771,22.1946,0.0],[-78.0754,22.1963,0.0],[-78.0707,22.1968,0.0],[-78.0693,22.1963,0.0],[-78.0704,22.1935,0.0],[-78.0674,22.196,0.0],[-78.0626,22.1957,0.2688],[-78.0682,22.1996,0.1174],[-78.069,22.204,0.0],[-78.0776,22.204,0.0]]],
[[[-78.0862,22.2329,0.0],[-78.0896,22.234,0.0],[-78.0874,22.2313,0.3541],[-78.0879,22.2276,0.0],[-78.081,22.2246,0.0],[-78.0813,22.2263,0.0],[-78.0862,22.2329,0.0]]],
[[[-78.091,22.236,0.0],[-78.0926,22.2376,0.0],[-78.0935,22.2376,0.0],[-78.0915,22.2346,0.0],[-78.091,22.236,0.0]]],
[[[-77.9668,22.2626,0.0],[-77.9646,22.2626,0.0],[-77.964,22.2637,0.0],[-77.9668,22.2637,0.0],[-77.9668,22.2626,0.0]]],
[[[-78.0071,22.279,0.0],[-78.0082,22.2813,0.0],[-78.016,22.2835,0.6036],[-78.0157,22.2813,0.5849],[-78.0135,22.2807,0.0626],[-78.014,22.2735,0.009],[-78.0082,22.2726,0.0531],[-78.0071,22.279,0.0]]],
[[[-78.0099,22.2826,-0.0069],[-78.0071,22.2818,0.0],[-78.0085,22.2854,-0.068],[-78.0101,22.2854,0.0],[-78.0099,22.2826,-0.0069]]],
[[[-78.0485,22.2918,0.0],[-78.0496,22.2935,0.0],[-78.051,22.2929,0.0],[-78.0476,22.2868,0.0],[-78.0465,22.2901,0.0],[-78.0485,22.2918,0.0]]],
[[[-77.9757,22.3026,0.3372],[-77.9782,22.3037,2.442],[-77.9788,22.3012,1.6743],[-77.9743,22.2971,0.1425],[-77.9737,22.2999,0.274],[-77.9757,22.3026,0.3372]]],
[[[-78.0032,22.3346,0.6137],[-78.0043,22.3371,0.0],[-78.0062,22.3371,0.0],[-78.0099,22.3338,0.2343],[-78.009,22.3288,0.059],[-78.0038,22.3304,0.0],[-78.0032,22.3346,0.6137]]],
[[[-78.0465,22.3424,0.0],[-78.0485,22.3435,0.1179],[-78.0496,22.3412,0.2375],[-78.0474,22.3401,0.0],[-78.0465,22.3424,0.0]]],
[[[-77.9924,22.3532,0.3122],[-77.9951,22.3543,0.0],[-77.9957,22.3504,0.0],[-77.9924,22.3507,0.4805],[-77.9868,22.3457,0.2586],[-77.9865,22.3415,0.2641],[-77.9829,22.3421,0.6401],[-77.9812,22.3454,0.0],[-77.9837,22.3499,0.3465],[-77.9924,22.3532,0.3122]]],
[[[-78.2276,22.3046,0.0],[-78.2301,22.306,0.0],[-78.2196,22.2982,0.0],[-78.2118,22.296,0.0],[-78.2015,22.2965,0.0],[-78.2043,22.2974,0.0],[-78.2087,22.3026,0.0],[-78.2124,22.3018,0.0],[-78.2093,22.2996,0.0],[-78.2121,22.2979,0.0],[-78.2146,22.2985,0.0],[-78.216,22.3015,0.0],[-78.2199,22.3007,0.0],[-78.2246,22.3043,0.0],[-78.2276,22.3046,0.0]]],
[[[-78.2435,22.3126,0.0],[-78.2474,22.3135,0.0],[-78.2429,22.3101,0.0],[-78.2435,22.309,0.0],[-78.2457,22.3101,0.0],[-78.2457,22.309,0.0],[-78.236,22.3065,0.0],[-78.2354,22.3051,0.0],[-78.2326,22.3054,0.0],[-78.2354,22.3082,0.0],[-78.2421,22.3101,0.2648],[-78.2435,22.3126,0.0]]],
[[[-78.2224,22.3149,0.0],[-78.2193,22.3151,0.0],[-78.219,22.3163,0.0],[-78.2251,22.316,0.0],[-78.2224,22.3149,0.0]]],
[[[-78.0676,22.3849,0.2368],[-78.0715,22.386,0.0],[-78.0693,22.3832,0.0],[-78.0654,22.3835,0.0],[-78.0676,22.3849,0.2368]]],
[[[-78.0529,22.3937,2.4089],[-78.0563,22.3949,1.9878],[-78.0576,22.3915,0.6442],[-78.0521,22.3882,0.0],[-78.0526,22.386,0.1521],[-78.0549,22.3846,0.0798],[-78.059,22.3865,0.0],[-78.0604,22.3857,0.0],[-78.0596,22.3838,0.0],[-78.0579,22.384,0.1536],[-78.0579,22.3804,0.0],[-78.0549,22.3804,0.0672],[-78.0582,22.3754,1.036],[-78.0599,22.3679,0.0],[-78.0576,22.3654,0.0],[-78.0546,22.3671,1.7137],[-78.0549,22.3707,1.7706],[-78.0507,22.3765,0.0],[-78.0504,22.3882,0.0],[-78.0476,22.3913,0.5384],[-78.0529,22.3937,2.4089]]],
[[[-78.0629,22.389,1.3191],[-78.0626,22.3913,0.9807],[-78.0649,22.3899,0.67],[-78.0649,22.3871,0.6407],[-78.0635,22.3879,0.0],[-78.0629,22.389,1.3191]]],
[[[-78.0668,22.389,0.9322],[-78.0665,22.3915,0.4237],[-78.0696,22.3913,1.3042],[-78.069,22.3882,0.6757],[-78.0668,22.389,0.9322]]],
[[[-78.0593,22.3921,1.0886],[-78.0582,22.3918,0.6442],[-78.0574,22.3949,0.8321],[-78.0599,22.3946,0.0],[-78.0593,22.3921,1.0886]]],
[[[-78.0821,22.4051,0.7446],[-78.0846,22.4063,0.4544],[-78.0862,22.4046,0.2432],[-78.0799,22.3982,0.0],[-78.081,22.4035,0.7361],[-78.0821,22.4051,0.7446]]],
[[[-78.1296,22.4296,0.4406],[-78.1326,22.4307,0.4464],[-78.1243,22.4226,0.1801],[-78.1204,22.4212,0.0],[-78.1263,22.4254,0.3694],[-78.1296,22.4296,0.4406]]],
[[[-78.1193,22.4265,0.4325],[-78.1188,22.4285,0.0],[-78.1204,22.429,0.0],[-78.1243,22.4271,0.0],[-78.1218,22.4243,0.0],[-78.1193,22.4265,0.4325]]],
[[[-78.1621,22.4332,0.0],[-78.1635,22.4346,0.0],[-78.1648,22.4338,0.0],[-78.1632,22.4321,0.6537],[-78.1621,22.4332,0.0]]],
[[[-78.1596,22.439,0.2645],[-78.1607,22.4418,0.9495],[-78.1643,22.441,0.4722],[-78.1615,22.4382,0.4612],[-78.1618,22.4343,0.7025],[-78.1574,22.4313,0.601],[-78.1568,22.4335,1.0695],[-78.1596,22.439,0.2645]]],
[[[-78.2201,22.4368,0.0],[-78.2218,22.4387,0.9104],[-78.2235,22.4363,0.0],[-78.221,22.436,0.0],[-78.2201,22.4368,0.0]]],
[[[-78.1501,22.4396,1.978],[-78.1524,22.4401,0.9028],[-78.1482,22.4368,0.0],[-78.1496,22.4382,2.0289],[-78.1501,22.4396,1.978]]],
[[[-78.1438,22.4393,0.0],[-78.1457,22.4404,0.6804],[-78.1468,22.4399,1.4855],[-78.1454,22.4385,0.0],[-78.1438,22.4393,0.0]]],
[[[-78.3651,22.3804,0.0],[-78.3668,22.3824,0.0],[-78.366,22.3796,0.0],[-78.3632,22.3782,0.105],[-78.3637,22.3762,0.0],[-78.3665,22.3788,0.0],[-78.3699,22.3785,0.0],[-78.3699,22.3774,0.0],[-78.3574,22.3735,0.0],[-78.3576,22.3757,0.0],[-78.3626,22.3762,0.0],[-78.3579,22.3774,0.0895],[-78.3626,22.3782,0.105],[-78.3651,22.3804,0.0]]],
[[[-78.0407,22.1657,0.0],[-78.0396,22.1648,0.0],[-77.9889,22.2343,0.0],[-77.9918,22.2385,0.4713],[-77.994,22.2518,0.7475],[-77.9935,22.2568,0.0],[-77.9885,22.2588,0.189],[-77.9849,22.2629,0.3239],[-77.9674,22.2635,0.0],[-77.9649,22.2674,0.0],[-77.9676,22.2749,0.0],[-77.9649,22.2729,0.0],[-77.9638,22.2665,0.0],[-77.9612,22.2657,0.0],[-77.961,22.2674,0.0],[-77.9629,22.2685,0.0],[-77.9621,22.2707,0.0],[-77.9635,22.274,0.0526],[-77.9687,22.279,0.0],[-77.9704,22.2857,0.0],[-77.9779,22.294,0.0],[-77.9801,22.2949,0.1178],[-77.9807,22.2932,0.3203],[-77.9843,22.2921,0.0],[-77.9857,22.2929,0.1019],[-77.9851,22.2971,0.0],[-77.9926,22.2999,0.463],[-77.9935,22.3018,0.0742],[-77.996,22.301,0.0],[-77.9943,22.2974,0.0],[-77.9965,22.2949,0.1001],[-77.9985,22.2979,0.1175],[-77.9976,22.3018,0.0],[-78.0004,22.3024,0.2276],[-78.0007,22.3065,0.1035],[-78.0082,22.3071,0.0866],[-78.0154,22.3107,0.0],[-78.0171,22.3107,0.0],[-78.0168,22.3085,0.0],[-78.0113,22.3065,0.0432],[-78.0129,22.3024,0.0288],[-78.0099,22.3012,0.0],[-78.0049,22.3032,0.1033],[-78.0051,22.299,0.0896],[-78.0088,22.3007,0.0],[-78.0099,22.2999,0.0],[-78.009,22.2962,0.0952],[-78.011,22.2965,0.0],[-78.0115,22.2949,0.0],[-78.0082,22.2907,0.0],[-78.0057,22.291,0.1953],[-78.0035,22.2862,0.1405],[-78.0051,22.2801,0.0],[-78.0032,22.2804,0.0642],[-78.0026,22.2785,0.1321],[-78.0051,22.2776,0.0926],[-78.0038,22.2751,0.2599],[-78.0046,22.2715,0.0549],[-77.9974,22.2721,0.2876],[-78.0015,22.2674,0.0777],[-78.0104,22.2718,0.0],[-78.0113,22.2707,0.0],[-78.0101,22.2685,0.1159],[-78.0124,22.2679,0.0],[-78.0126,22.2718,0.1108],[-78.0165,22.2729,0.6783],[-78.0201,22.2776,0.0],[-78.0229,22.2771,0.0],[-78.0249,22.2799,0.0],[-78.0224,22.2804,0.0],[-78.0243,22.2815,0.0],[-78.0282,22.276,0.2548],[-78.0287,22.2807,0.0],[-78.0346,22.279,0.0333],[-78.0354,22.2851,0.3319],[-78.0387,22.2865,0.2277],[-78.0415,22.2904,0.0824],[-78.0432,22.2849,0.0],[-78.0457,22.2835,0.0],[-78.0437,22.2779,0.2962],[-78.0449,22.2799,0.078],[-78.0496,22.2818,0.1999],[-78.0479,22.2846,0.0],[-78.0496,22.2876,0.0435],[-78.0565,22.2901,0.2323],[-78.0568,22.2938,0.0],[-78.061,22.2979,0.0],[-78.0657,22.2962,0.2157],[-78.0685,22.2974,0.0],[-78.069,22.2949,0.4513],[-78.0718,22.2974,0.0],[-78.0699,22.3004,0.4458],[-78.0676,22.2988,0.1548],[-78.0646,22.2993,0.1055],[-78.0624,22.3024,0.0],[-78.0649,22.304,0.0],[-78.0693,22.3026,0.1163],[-78.0668,22.3088,0.0],[-78.0676,22.3132,0.0],[-78.0704,22.3174,0.0],[-78.0743,22.3137,1.2522],[-78.0738,22.3182,0.0],[-78.0682,22.3224,0.1525],[-78.064,22.3293,0.0661],[-78.0601,22.329,0.0],[-78.0621,22.3312,0.2518],[-78.0654,22.3304,0.0661],[-78.066,22.3324,0.0],[-78.0682,22.3324,0.1019],[-78.0643,22.3346,0.0],[-78.0685,22.3446,0.0],[-78.0682,22.3507,0.0],[-78.0724,22.3529,0.2669],[-78.0738,22.3554,0.2133],[-78.0751,22.354,0.2327],[-78.0718,22.3504,0.2632],[-78.0774,22.3538,0.0],[-78.0776,22.3571,0.2465],[-78.0751,22.3576,0.0],[-78.0757,22.3632,0.0],[-78.0776,22.3654,0.0],[-78.0779,22.3743,0.172],[-78.081,22.3799,0.1176],[-78.0765,22.3768,0.2004],[-78.0768,22.3751,0.172],[-78.0743,22.3729,0.4447],[-78.0713,22.374,0.3236],[-78.0657,22.371,0.0],[-78.0654,22.3732,0.0],[-78.0713,22.3807,0.0],[-78.086,22.3874,0.0],[-78.0987,22.3985,0.6059],[-78.0976,22.4021,0.207],[-78.0929,22.4049,0.0],[-78.0896,22.4099,0.0],[-78.0893,22.4143,0.6953],[-78.0851,22.414,0.6654],[-78.0837,22.4093,1.1248],[-78.0804,22.4112,1.9571],[-78.0821,22.4188,0.3076],[-78.0893,22.4276,0.2189],[-78.0929,22.4279,0.5237],[-78.1026,22.4229,0.3257],[-78.1074,22.4262,0.0],[-78.1104,22.4251,2.5107],[-78.1121,22.4221,0.5631],[-78.1107,22.4196,0.0],[-78.1026,22.4193,0.0],[-78.1001,22.4221,0.8735],[-78.0946,22.4221,0.3636],[-78.0918,22.414,0.3769],[-78.0954,22.4096,0.0],[-78.0918,22.409,0.6932],[-78.0918,22.4076,0.0],[-78.0976,22.4029,0.207],[-78.1026,22.4035,0.3681],[-78.1115,22.414,0.0],[-78.1165,22.4132,0.374],[-78.1329,22.4179,0.1892],[-78.1429,22.4226,0.0],[-78.1465,22.4218,0.8939],[-78.1499,22.4254,0.4977],[-78.1574,22.4285,1.3289],[-78.1601,22.4321,1.2191],[-78.1668,22.431,0.7202],[-78.1679,22.4332,0.2631],[-78.174,22.4326,0.0],[-78.1732,22.4285,0.0],[-78.1707,22.4296,0.3672],[-78.1671,22.426,0.0],[-78.179,22.4287,0.0],[-78.1743,22.4204,0.7555],[-78.1746,22.4179,1.1546],[-78.1768,22.4179,0.7365],[-78.1779,22.4201,0.8016],[-78.1851,22.4224,0.0],[-78.1888,22.4321,0.0],[-78.1904,22.4321,0.0],[-78.1924,22.4293,0.5831],[-78.1963,22.429,0.1489],[-78.199,22.4318,0.0],[-78.1999,22.4365,0.211],[-78.2029,22.4385,0.7538],[-78.209,22.4387,0.0],[-78.2149,22.4357,0.252],[-78.2215,22.4354,0.0],[-78.2151,22.4329,0.3665],[-78.2182,22.4318,0.0],[-78.2185,22.4293,0.0],[-78.2224,22.431,0.0],[-78.2265,22.4304,0.5797],[-78.2321,22.4246,0.4196],[-78.2301,22.4238,0.2244],[-78.2265,22.426,1.3732],[-78.2196,22.4243,0.396],[-78.2229,22.4204,1.2172],[-78.234,22.4201,1.6294],[-78.2663,22.4293,0.0],[-78.2746,22.4257,0.0],[-78.2768,22.4204,0.0],[-78.2754,22.4185,0.2676],[-78.2796,22.4176,0.0],[-78.2796,22.4229,0.0],[-78.2835,22.424,0.0],[-78.2829,22.4262,0.3056],[-78.2849,22.4268,0.9103],[-78.2849,22.4299,0.0],[-78.2835,22.4301,0.0],[-78.2812,22.4268,0.0],[-78.2799,22.4299,0.2103],[-78.2729,22.4296,0.0],[-78.271,22.4332,0.0],[-78.2812,22.4407,0.3493],[-78.2846,22.4449,0.5267],[-78.2843,22.4474,0.4553],[-78.2874,22.4524,0.0],[-78.2988,22.4615,3.683],[-78.3046,22.4735,1.1679],[-78.3115,22.4801,1.5944],[-78.306,22.4832,0.0],[-78.3118,22.4815,0.0],[-78.3157,22.4896,1.2581],[-78.3235,22.4932,5.6729],[-78.3301,22.5035,0.9594],[-78.3343,22.5049,0.9318],[-78.3443,22.504,0.7377],[-78.3485,22.506,0.7208],[-78.3524,22.514,2.3063],[-78.3512,22.5163,1.8399],[-78.3538,22.5165,1.4807],[-78.3576,22.5201,0.6963],[-78.356,22.5224,0.0],[-78.3571,22.524,0.5989],[-78.3535,22.5246,0.0],[-78.3529,22.5265,0.0],[-78.3479,22.5268,0.0],[-78.3429,22.5229,0.0],[-78.3365,22.5207,1.5084],[-78.3343,22.5215,0.9346],[-78.3346,22.5232,2.1872],[-78.3385,22.5257,0.3469],[-78.3435,22.5326,1.144],[-78.3546,22.5368,4.9394],[-78.356,22.5393,0.0],[-78.3587,22.5371,0.0],[-78.3649,22.5399,1.2605],[-78.3726,22.5446,3.7256],[-78.379,22.551,0.3443],[-78.3838,22.5499,5.1223],[-78.3918,22.5529,0.0],[-78.404,22.5549,2.0349],[-78.409,22.5546,1.0068],[-78.4101,22.5532,0.2307],[-78.4221,22.5532,4.4197],[-78.4257,22.5557,0.0],[-78.4243,22.5499,0.0],[-78.4282,22.5446,0.6294],[-78.4374,22.5413,5.2958],[-78.4432,22.5415,0.786],[-78.4507,22.5315,0.8135],[-78.4565,22.5274,1.6022],[-78.4629,22.5265,0.0],[-78.4646,22.524,0.0],[-78.4801,22.5229,2.9272],[-78.4907,22.5254,4.551],[-78.4999,22.5256,4.3007],[-78.5132,22.5296,0.0],[-78.524,22.5299,1.5204],[-78.5254,22.5271,0.0],[-78.5351,22.5251,0.0],[-78.5371,22.5232,2.6785],[-78.5451,22.5232,2.6221],[-78.5451,22.526,0.0],[-78.5471,22.5263,0.0],[-78.5518,22.5246,0.0],[-78.5499,22.5226,0.0],[-78.554,22.5207,0.306],[-78.5607,22.521,1.395],[-78.5601,22.5221,2.6674],[-78.554,22.5235,0.0],[-78.5535,22.5251,0.0],[-78.5621,22.524,0.368],[-78.5729,22.5274,0.0],[-78.5738,22.5265,0.2502],[-78.5696,22.524,2.6271],[-78.574,22.524,0.7088],[-78.5757,22.5251,0.7088],[-78.5754,22.5287,0.0],[-78.5876,22.5371,0.5841],[-78.594,22.546,0.0],[-78.6001,22.5426,2.745],[-78.606,22.5429,0.6119],[-78.6071,22.5401,0.0],[-78.6046,22.5382,2.1389],[-78.606,22.5371,0.9915],[-78.6021,22.536,1.7676],[-78.6015,22.5343,0.915],[-78.6021,22.534,0.915],[-78.6038,22.5349,0.8753],[-78.6046,22.5307,1.8601],[-78.6074,22.5301,1.1576],[-78.611,22.5324,0.4889],[-78.6071,22.5326,1.1131],[-78.6115,22.536,0.6425],[-78.6129,22.5399,0.0],[-78.6118,22.5415,0.5451],[-78.609,22.541,0.4391],[-78.6107,22.5382,0.0],[-78.6085,22.5379,0.0],[-78.6068,22.5435,0.6119],[-78.6146,22.5462,1.5416],[-78.6199,22.5426,0.5315],[-78.6237,22.5471,0.0],[-78.6268,22.5474,0.0],[-78.6299,22.5524,0.7073],[-78.6251,22.5513,0.0],[-78.6249,22.5549,0.0],[-78.631,22.5557,2.0782],[-78.6307,22.5582,0.6985],[-78.6326,22.5574,0.3372],[-78.6418,22.5657,0.0],[-78.6399,22.5743,5.2804],[-78.6499,22.5849,3.7202],[-78.6571,22.5951,1.2573],[-78.6571,22.5979,2.7971],[-78.6618,22.601,0.0],[-78.6663,22.601,0.8484],[-78.6685,22.6046,0.9868],[-78.6851,22.6151,0.0],[-78.6857,22.6124,0.0],[-78.6893,22.611,1.6414],[-78.7082,22.6129,2.0236],[-78.7035,22.6024,2.1306],[-78.6988,22.6032,0.0],[-78.696,22.6068,1.0468],[-78.6913,22.6054,0.0],[-78.6899,22.6035,0.7257],[-78.6907,22.5999,1.0304],[-78.6982,22.591,0.7072],[-78.6976,22.5896,0.8567],[-78.6954,22.5901,0.0],[-78.6949,22.5865,1.4038],[-78.6976,22.5868,0.6247],[-78.7007,22.5846,0.0],[-78.6993,22.5807,0.7997],[-78.6963,22.581,0.8219],[-78.6915,22.5746,0.4155],[-78.6943,22.5746,0.871],[-78.6974,22.5785,0.5677],[-78.6979,22.5743,0.3544],[-78.6965,22.5749,0.4376],[-78.6871,22.5701,0.0],[-78.6871,22.576,1.1656],[-78.6843,22.5793,1.0377],[-78.681,22.5751,1.075],[-78.6854,22.5707,0.0],[-78.686,22.5674,0.0],[-78.6832,22.5676,2.1223],[-78.6832,22.5713,0.4738],[-78.6824,22.5674,2.2905],[-78.6807,22.5668,0.0],[-78.6787,22.5693,0.0],[-78.6818,22.5699,0.5502],[-78.6793,22.5726,2.2682],[-78.679,22.5763,1.7746],[-78.6815,22.5774,0.5172],[-78.6807,22.5812,0.0],[-78.6751,22.5818,0.6114],[-78.6746,22.5857,0.8852],[-78.6729,22.5865,0.8852],[-78.669,22.5832,0.0],[-78.6693,22.5804,1.8041],[-78.6715,22.5804,1.8007],[-78.671,22.579,1.8007],[-78.6576,22.576,1.9927],[-78.6549,22.571,4.3387],[-78.6574,22.5682,0.0],[-78.6424,22.5679,0.7359],[-78.6426,22.5654,0.0],[-78.6332,22.5574,0.3372],[-78.6379,22.5521,0.0],[-78.6399,22.5535,1.0578],[-78.6424,22.5529,0.8903],[-78.6443,22.5549,1.1328],[-78.6485,22.5526,0.0],[-78.649,22.551,0.0],[-78.6468,22.549,1.4524],[-78.6474,22.5457,1.5634],[-78.6535,22.5435,1.5929],[-78.6568,22.5451,1.426],[-78.6582,22.5526,0.5945],[-78.6607,22.5501,1.4003],[-78.6601,22.5529,0.3968],[-78.6576,22.5546,0.7667],[-78.6582,22.5579,0.0],[-78.6651,22.5565,2.3367],[-78.6668,22.5579,0.0],[-78.6724,22.5557,0.0],[-78.6724,22.5574,0.0],[-78.6746,22.5571,0.0],[-78.6743,22.5585,0.0],[-78.6762,22.5593,0.0],[-78.6782,22.5563,0.9987],[-78.6762,22.551,0.2877],[-78.6801,22.5485,1.5854],[-78.679,22.5535,0.0],[-78.6807,22.5535,0.0],[-78.6832,22.5576,0.2616],[-78.6879,22.5551,1.5679],[-78.6874,22.5615,0.8995],[-78.6899,22.5626,0.7033],[-78.6882,22.5651,0.4159],[-78.6896,22.5651,0.9764],[-78.6899,22.5674,0.6137],[-78.6951,22.5676,0.5462],[-78.6974,22.5651,1.5574],[-78.7012,22.566,0.5763],[-78.7065,22.5693,1.3393],[-78.706,22.5724,0.2665],[-78.7085,22.5732,0.6393],[-78.7085,22.5749,0.5359],[-78.7129,22.5738,0.0],[-78.7104,22.5729,0.3957],[-78.7112,22.5704,1.5064],[-78.7154,22.5718,1.3055],[-78.7129,22.5637,0.0],[-78.7035,22.5599,0.8151],[-78.7015,22.5574,0.3064],[-78.704,22.5551,0.0],[-78.7018,22.5546,0.4804],[-78.7012,22.5501,1.0147],[-78.706,22.5438,0.0],[-78.7021,22.5393,0.0],[-78.7032,22.536,0.6823],[-78.6924,22.5346,0.336],[-78.6904,22.5312,0.6364],[-78.6874,22.5304,0.0],[-78.6854,22.5246,0.8967],[-78.6857,22.5232,1.3301],[-78.6904,22.5218,3.1318],[-78.6907,22.5132,1.5672],[-78.6957,22.5104,0.2669],[-78.696,22.509,0.2669],[-78.6943,22.5085,0.2484],[-78.6951,22.5065,1.0227],[-78.701,22.5082,0.6072],[-78.6993,22.506,1.2031],[-78.7012,22.4965,2.1355],[-78.7029,22.4985,1.2624],[-78.7024,22.4951,0.0],[-78.6921,22.4954,0.0],[-78.6879,22.4921,1.018],[-78.6799,22.4926,1.1032],[-78.6779,22.4874,0.765],[-78.6735,22.4888,0.486],[-78.6729,22.4899,0.486],[-78.6749,22.4907,0.0],[-78.6774,22.489,0.6748],[-78.6801,22.4976,0.5719],[-78.6765,22.4988,1.3583],[-78.6707,22.5051,0.6461],[-78.6693,22.5118,1.1634],[-78.6615,22.5154,0.0],[-78.6682,22.516,0.8649],[-78.6651,22.5185,1.0103],[-78.6665,22.5207,2.0191],[-78.666,22.526,0.0],[-78.6687,22.5285,2.1983],[-78.6679,22.531,0.5524],[-78.6696,22.5312,1.5933],[-78.6668,22.5368,2.0968],[-78.661,22.5388,1.3451],[-78.654,22.5354,0.0],[-78.6521,22.536,1.029],[-78.6482,22.5315,0.2327],[-78.649,22.529,0.0],[-78.6476,22.5287,0.0],[-78.6357,22.5376,0.0],[-78.6335,22.5332,0.9995],[-78.6351,22.5299,1.638],[-78.6343,22.5271,0.6861],[-78.6315,22.5263,0.8292],[-78.6282,22.5276,1.4753],[-78.6246,22.5254,1.0708],[-78.626,22.5238,0.2169],[-78.6249,22.5218,0.5687],[-78.6274,22.5199,0.0],[-78.6268,22.5163,0.0],[-78.6257,22.5157,0.0],[-78.6263,22.5196,0.4696],[-78.6237,22.5201,0.0],[-78.6196,22.5151,0.2689],[-78.6201,22.5113,0.0],[-78.6235,22.5093,0.7635],[-78.6243,22.5124,0.0],[-78.6315,22.5204,0.0],[-78.6324,22.5185,0.0],[-78.6279,22.5157,0.2177],[-78.6274,22.5135,0.6214],[-78.6312,22.5135,0.2743],[-78.634,22.5176,0.1949],[-78.6365,22.5174,0.0],[-78.6351,22.516,0.2354],[-78.636,22.5135,0.9261],[-78.6404,22.5187,0.0],[-78.6393,22.5199,0.471],[-78.6382,22.5182,0.0],[-78.6335,22.5187,0.0],[-78.6338,22.5204,0.0],[-78.6365,22.5199,0.2069],[-78.6365,22.5226,0.0],[-78.6421,22.5218,0.0],[-78.6399,22.5149,0.5562],[-78.6476,22.5182,0.2333],[-78.6485,22.5157,0.0],[-78.6474,22.5174,0.2333],[-78.6454,22.5163,1.0223],[-78.6465,22.5149,0.2263],[-78.6454,22.5113,0.849],[-78.6479,22.509,1.3888],[-78.6421,22.5038,0.3505],[-78.6432,22.5021,0.0],[-78.6443,22.5038,0.0],[-78.6468,22.5026,0.708],[-78.6449,22.5007,0.5208],[-78.6454,22.4951,0.2986],[-78.644,22.494,0.2986],[-78.6457,22.4901,0.9923],[-78.649,22.4907,0.1697],[-78.6476,22.4935,0.0],[-78.6504,22.4963,0.473],[-78.6499,22.4985,0.0],[-78.6532,22.5004,0.0],[-78.6515,22.5021,0.1262],[-78.6571,22.5007,0.0],[-78.6585,22.5021,0.0],[-78.6629,22.5004,0.0],[-78.6626,22.4985,1.1268],[-78.6676,22.5007,0.0],[-78.6643,22.4968,0.0],[-78.6604,22.4982,0.0],[-78.6599,22.5001,0.0],[-78.6574,22.4999,0.0],[-78.656,22.4957,0.0],[-78.6554,22.4957,0.0],[-78.656,22.4993,0.7744],[-78.6515,22.4982,0.6203],[-78.6513,22.4951,0.0],[-78.649,22.4932,0.1106],[-78.6496,22.4893,0.0],[-78.6526,22.4871,0.0],[-78.654,22.4899,0.0],[-78.6537,22.4868,1.0749],[-78.6557,22.4849,1.1737],[-78.6496,22.4843,0.8323],[-78.6418,22.4799,0.0],[-78.6346,22.4818,0.0],[-78.6318,22.4846,0.0],[-78.6346,22.4849,0.0],[-78.6379,22.4821,0.0],[-78.6449,22.4832,1.2111],[-78.6474,22.4857,0.0],[-78.6468,22.4874,0.759],[-78.6374,22.4843,0.0],[-78.6363,22.486,0.8453],[-78.629,22.486,1.1963],[-78.624,22.4829,0.2538],[-78.6241,22.481,0.3145],[-78.6279,22.4793,0.4772],[-78.6185,22.4754,0.0],[-78.6137,22.4763,0.991],[-78.609,22.4726,0.0],[-78.6024,22.4743,0.3044],[-78.5957,22.4724,0.7673],[-78.5935,22.4704,1.3029],[-78.5929,22.466,0.9242],[-78.5829,22.4668,0.0],[-78.5774,22.4649,0.0],[-78.5724,22.465699999999998,0.0],[-78.5674,22.4635,0.0],[-78.5651,22.4649,0.0],[-78.5585,22.4638,0.0],[-78.5587,22.4588,0.0],[-78.5471,22.4535,0.0],[-78.5465,22.4474,0.2461],[-78.5512,22.4399,0.0],[-78.5504,22.4371,0.3282],[-78.5451,22.4357,0.0],[-78.5346,22.4382,0.2742],[-78.5168,22.4376,0.0],[-78.5165,22.4438,0.0],[-78.5182,22.4432,0.0],[-78.5185,22.446,0.0],[-78.5215,22.4471,0.0],[-78.5204,22.4485,0.0],[-78.5143,22.4446,0.0],[-78.5149,22.4418,0.0],[-78.5126,22.444,0.0],[-78.5076,22.4438,0.0],[-78.5021,22.4396,0.0],[-78.5021,22.4363,0.0],[-78.5149,22.439,0.0],[-78.5082,22.4351,0.0],[-78.4901,22.4338,0.4378],[-78.4874,22.4354,0.4577],[-78.4863,22.434,0.4577],[-78.4799,22.434,0.0],[-78.4826,22.4468,0.0],[-78.4807,22.4504,0.0],[-78.4782,22.451,0.0],[-78.4743,22.4485,0.0],[-78.4729,22.4507,0.0],[-78.4696,22.4515,0.0],[-78.4685,22.4479,0.0],[-78.4649,22.4468,0.0],[-78.464,22.4482,0.0],[-78.4601,22.4474,0.0],[-78.4593,22.4507,0.0],[-78.4579,22.4426,0.0],[-78.459,22.4387,0.0],[-78.4649,22.4365,0.0],[-78.4693,22.4404,0.0],[-78.4674,22.4371,0.0],[-78.4715,22.4335,0.645],[-78.474,22.434,0.0],[-78.4721,22.4379,0.0],[-78.4749,22.4351,0.0],[-78.4785,22.4351,0.0],[-78.4715,22.4307,0.0],[-78.4693,22.4335,0.0],[-78.4596,22.4363,0.0],[-78.4521,22.4443,0.0],[-78.4404,22.4438,0.0],[-78.4374,22.4418,0.0],[-78.4376,22.4482,0.0],[-78.4351,22.4465,0.0],[-78.4332,22.4474,0.0],[-78.4315,22.4399,0.0],[-78.4296,22.4393,0.0],[-78.4301,22.4424,0.2072],[-78.4273,22.4454,0.0],[-78.4304,22.4524,0.0],[-78.4299,22.454,0.0],[-78.426,22.4532,0.0],[-78.4243,22.4443,0.0],[-78.4235,22.4468,0.0],[-78.4212,22.4456,0.0],[-78.4201,22.4476,0.0],[-78.4099,22.4485,0.0],[-78.4118,22.4415,0.0],[-78.4179,22.4382,0.0],[-78.4199,22.434,0.0],[-78.4218,22.4346,0.0],[-78.4232,22.4404,0.0],[-78.4254,22.4404,0.0],[-78.4257,22.4451,0.0],[-78.4271,22.444,0.0],[-78.426,22.439,0.0],[-78.4235,22.4363,0.0],[-78.4254,22.4349,0.0],[-78.4249,22.4224,0.0],[-78.4262,22.4215,0.0],[-78.4279,22.4232,0.0],[-78.4282,22.4215,0.0],[-78.4243,22.4182,0.0],[-78.4229,22.4132,0.0],[-78.426,22.4135,0.1356],[-78.4274,22.4185,0.0],[-78.4271,22.4132,0.1356],[-78.4296,22.4126,0.0],[-78.4301,22.411,0.1054],[-78.4332,22.4121,0.0],[-78.4274,22.4076,0.0184],[-78.4276,22.4054,0.747],[-78.4399,22.3993,0.0],[-78.4421,22.4029,0.0],[-78.4454,22.4046,0.0],[-78.4518,22.4037,0.7376],[-78.4493,22.4024,1.3778],[-78.4493,22.3996,0.0],[-78.4449,22.401,0.3538],[-78.4426,22.4001,0.0],[-78.4451,22.3985,0.4991],[-78.4449,22.3929,0.7475],[-78.4471,22.389,0.0],[-78.4888,22.342,0.0],[-78.444,22.391,0.0],[-78.4429,22.3968,0.0],[-78.4304,22.4024,0.0],[-78.4276,22.4021,0.0],[-78.4246,22.4057,0.9961],[-78.419,22.4074,0.6076],[-78.4082,22.4218,0.0],[-78.4026,22.4224,0.5581],[-78.4015,22.4204,0.0],[-78.3957,22.4224,0.0718],[-78.3935,22.4196,0.0],[-78.3921,22.4204,0.3752],[-78.3915,22.426,0.2352],[-78.386,22.424,0.5466],[-78.3824,22.4279,0.126],[-78.379,22.4279,0.1302],[-78.3768,22.4268,0.0],[-78.3757,22.4232,0.3178],[-78.374,22.4238,0.0],[-78.3729,22.4271,0.4326],[-78.366,22.4243,0.4588],[-78.3629,22.4249,0.0],[-78.3596,22.4218,0.0],[-78.3532,22.4226,0.6439],[-78.3487,22.4199,0.0],[-78.3429,22.419,0.4135],[-78.3343,22.4251,0.0],[-78.3307,22.4246,0.0],[-78.3282,22.4268,0.0],[-78.3276,22.4313,0.1055],[-78.321,22.4376,1.9427],[-78.3174,22.4376,0.0],[-78.3124,22.4415,0.1167],[-78.3046,22.4399,0.0],[-78.3037,22.4421,0.4625],[-78.3015,22.4426,0.3445],[-78.3004,22.439,0.0],[-78.3024,22.4368,0.0],[-78.3063,22.4363,0.0],[-78.3057,22.4315,0.0412],[-78.3079,22.4304,0.0],[-78.304,22.4274,0.5661],[-78.3057,22.4229,0.0967],[-78.3026,22.4174,0.0],[-78.3063,22.4176,0.0],[-78.3082,22.4143,0.1235],[-78.311,22.4135,0.0773],[-78.3093,22.411,0.0],[-78.3121,22.4068,0.1787],[-78.3118,22.4046,0.0],[-78.314,22.4029,0.0],[-78.3224,22.399,0.0],[-78.3262,22.4013,0.0],[-78.3304,22.401,0.0],[-78.3285,22.3985,0.1889],[-78.3282,22.3937,0.3324],[-78.3293,22.3971,0.0],[-78.331,22.3957,0.0],[-78.3315,22.3996,0.0],[-78.3332,22.3999,0.0],[-78.3313,22.3932,0.0],[-78.329,22.391,0.2622],[-78.316,22.3879,0.3319],[-78.3138,22.3835,0.0],[-78.3021,22.3821,0.0],[-78.3043,22.3871,0.0],[-78.3085,22.389,0.0],[-78.3079,22.3921,0.0],[-78.3065,22.3921,0.0],[-78.3029,22.3882,0.0],[-78.3018,22.3888,0.0],[-78.3015,22.3921,0.0],[-78.3037,22.3971,0.0],[-78.3007,22.3949,0.0],[-78.3004,22.391,0.0],[-78.2962,22.3921,0.0],[-78.2937,22.3901,0.0],[-78.2935,22.3835,0.0],[-78.296,22.3838,0.0],[-78.2962,22.3863,0.0],[-78.2974,22.3851,0.0],[-78.296,22.3821,0.0],[-78.2843,22.3785,0.0],[-78.2846,22.3807,0.0],[-78.2893,22.3818,0.0],[-78.291,22.3868,0.0],[-78.2913,22.3921,0.2472],[-78.2885,22.3985,0.0],[-78.2835,22.3954,0.0],[-78.2846,22.3926,0.0],[-78.2832,22.3899,0.0],[-78.2857,22.3874,0.1209],[-78.2821,22.3835,0.0],[-78.279,22.3829,0.0],[-78.2782,22.3788,0.0],[-78.2763,22.3793,0.0],[-78.2757,22.3826,0.0],[-78.2735,22.3826,0.0],[-78.2763,22.384,0.0],[-78.276,22.3854,0.0],[-78.274,22.3865,0.0],[-78.2732,22.3854,0.0],[-78.2718,22.3882,0.0],[-78.2693,22.3885,0.0],[-78.2718,22.3929,0.0],[-78.269,22.3943,0.0],[-78.2685,22.3907,0.0],[-78.2668,22.3896,0.0],[-78.269,22.3843,0.0],[-78.2712,22.3835,0.0],[-78.2718,22.3788,0.0],[-78.2696,22.379,0.0],[-78.2688,22.3771,0.0],[-78.2721,22.376,0.0],[-78.2712,22.374,0.0],[-78.2726,22.371,0.0],[-78.2712,22.3682,0.0],[-78.2726,22.3665,0.0],[-78.2741,22.3671,0.0],[-78.2743,22.3707,0.0],[-78.2763,22.3704,0.0],[-78.2746,22.3729,0.0],[-78.2765,22.3721,0.0],[-78.2812,22.3751,0.2156],[-78.2824,22.3779,0.2331],[-78.284,22.3779,0.0],[-78.2838,22.3768,0.0],[-78.2774,22.3674,0.0],[-78.2735,22.3651,0.0],[-78.2626,22.3538,0.0],[-78.2582,22.3424,0.2073],[-78.2532,22.3437,0.0],[-78.2499,22.3418,0.0],[-78.2474,22.3446,0.0],[-78.2443,22.340699999999998,0.0],[-78.2446,22.3393,0.0],[-78.2479,22.3385,0.0],[-78.2415,22.3363,0.2023],[-78.2435,22.3301,0.251],[-78.2426,22.3282,0.3592],[-78.2449,22.3246,0.0],[-78.2429,22.326,0.1576],[-78.2374,22.3246,0.0],[-78.2346,22.3265,0.0],[-78.2299,22.3257,0.0],[-78.2285,22.3288,0.3272],[-78.2262,22.3285,0.0],[-78.2285,22.324,0.0],[-78.2332,22.3215,0.1867],[-78.2335,22.3149,0.1862],[-78.2257,22.3099,1.041],[-78.2249,22.3065,0.0],[-78.2213,22.3074,0.0],[-78.2213,22.3043,0.0],[-78.2157,22.3029,0.0],[-78.219,22.3074,0.0],[-78.219,22.3146,0.0],[-78.2221,22.3137,0.0],[-78.2215,22.3107,0.5581],[-78.2235,22.3101,0.0],[-78.2268,22.3121,0.6971],[-78.2282,22.3154,0.2238],[-78.2304,22.316,0.9381],[-78.2304,22.319,0.4806],[-78.2268,22.3174,0.0],[-78.2257,22.3254,0.6835],[-78.2185,22.3224,0.0],[-78.216,22.3196,0.0],[-78.2162,22.3171,0.0],[-78.2124,22.3179,0.0],[-78.2096,22.3113,0.0],[-78.2018,22.3079,0.0],[-78.201,22.3046,0.0],[-78.1943,22.3043,0.0],[-78.1937,22.3074,0.0],[-78.196,22.3074,0.0],[-78.1954,22.3099,0.0],[-78.1901,22.3057,0.0],[-78.1896,22.2976,0.0],[-78.1979,22.2968,0.0],[-78.2004,22.2985,0.0],[-78.1982,22.2962,0.0],[-78.1837,22.2962,0.0],[-78.1754,22.3007,0.0],[-78.1704,22.3012,0.0],[-78.1607,22.2965,0.0],[-78.1535,22.2954,0.3194],[-78.1482,22.2899,0.0],[-78.1415,22.2879,0.0],[-78.139,22.2846,0.0],[-78.1376,22.2893,0.0],[-78.1332,22.2901,0.0],[-78.1312,22.2874,0.0],[-78.1293,22.2888,0.0],[-78.1288,22.2954,0.0],[-78.1257,22.2949,0.0],[-78.1276,22.2874,0.0],[-78.1268,22.2851,0.0],[-78.1249,22.2854,0.0],[-78.1243,22.2926,0.0],[-78.1204,22.2912,1.0961],[-78.1196,22.2787,0.1752],[-78.1207,22.2774,0.1752],[-78.1193,22.2768,0.0],[-78.1196,22.2738,0.0],[-78.1179,22.2715,0.0],[-78.1201,22.2729,0.0],[-78.1218,22.2721,0.0],[-78.1168,22.2682,0.0],[-78.1171,22.264,0.0],[-78.119,22.2635,0.0],[-78.1171,22.2599,0.0],[-78.1246,22.2601,0.0],[-78.1235,22.2585,0.0],[-78.1254,22.2568,0.0],[-78.1285,22.2582,0.0],[-78.129,22.2635,0.0],[-78.1271,22.2607,0.0],[-78.1257,22.2615,0.0],[-78.1285,22.2668,0.0],[-78.1271,22.2732,0.0],[-78.1301,22.2824,0.0],[-78.1324,22.2826,0.0],[-78.1301,22.2746,0.0],[-78.134,22.2696,0.1093],[-78.1357,22.2718,0.4908],[-78.1338,22.2726,0.1554],[-78.1365,22.2754,0.467],[-78.1363,22.2776,0.201],[-78.1349,22.2776,0.0],[-78.1379,22.2829,0.319],[-78.1399,22.2799,0.0],[-78.1379,22.2771,0.8335],[-78.1382,22.2724,0.833],[-78.1321,22.2601,0.0],[-78.1276,22.254,0.0],[-78.124,22.254,0.0],[-78.1246,22.2515,0.0],[-78.1221,22.2493,0.0],[-78.1215,22.2465,0.0],[-78.1226,22.246,0.0],[-78.121,22.2449,0.0],[-78.1193,22.2538,0.9347],[-78.1149,22.2574,0.0],[-78.1151,22.2668,0.0],[-78.1196,22.2857,1.1633],[-78.1188,22.296,0.0],[-78.1151,22.3007,0.0],[-78.1057,22.2979,0.0],[-78.1007,22.299,0.0],[-78.0954,22.296,0.0],[-78.0904,22.2965,0.0],[-78.0926,22.2935,0.0],[-78.0901,22.2915,0.0692],[-78.0893,22.2871,0.0],[-78.0843,22.2862,0.0],[-78.0865,22.2824,0.0],[-78.0804,22.2749,0.0],[-78.0779,22.2732,0.0],[-78.069,22.2724,0.0],[-78.0663,22.2693,0.0],[-78.0601,22.2682,0.0],[-78.0563,22.2596,0.0],[-78.0568,22.2546,0.0],[-78.0549,22.2549,0.0],[-78.0529,22.2499,0.0],[-78.056,22.2479,0.0],[-78.0521,22.2471,0.0],[-78.0507,22.2415,0.0],[-78.0457,22.2393,0.0],[-78.0468,22.2349,0.0],[-78.0437,22.2368,0.0],[-78.041,22.2365,0.0],[-78.0424,22.234,0.0],[-78.0365,22.2293,0.0],[-78.0365,22.2279,0.0],[-78.0401,22.2285,0.0],[-78.0424,22.2329,0.0],[-78.0437,22.2329,0.0],[-78.046,22.2326,0.0],[-78.0479,22.2279,0.0],[-78.0449,22.2271,0.1324],[-78.0424,22.229,0.0],[-78.0326,22.2232,0.0],[-78.0287,22.224,0.0],[-78.0285,22.2165,0.0],[-78.0257,22.2151,0.0],[-78.0224,22.216,0.0],[-78.021,22.214,0.0],[-78.0249,22.2113,0.0],[-78.0271,22.2121,0.0],[-78.0279,22.2074,0.0],[-78.0312,22.2085,0.0],[-78.0312,22.211,0.0],[-78.0343,22.2101,0.0388],[-78.0362,22.2115,0.0],[-78.0376,22.2054,0.0],[-78.0404,22.2043,0.0],[-78.0424,22.2071,0.0],[-78.0379,22.2079,0.0],[-78.0374,22.2096,0.0405],[-78.0415,22.2138,0.0],[-78.0421,22.2121,0.0],[-78.0404,22.2118,0.0],[-78.0396,22.2085,0.0],[-78.0418,22.2093,0.0],[-78.0451,22.2079,0.0],[-78.0457,22.2096,0.0],[-78.0474,22.2096,0.0],[-78.049,22.204,0.0],[-78.0507,22.2049,0.0],[-78.051,22.2026,0.0],[-78.0526,22.2024,0.0883],[-78.059,22.2065,0.0],[-78.0638,22.2154,0.0818],[-78.0685,22.214,0.0568],[-78.0699,22.209,0.0],[-78.0685,22.209,0.031],[-78.0665,22.2135,0.0],[-78.064,22.2132,0.0],[-78.064,22.2082,0.0],[-78.0624,22.2085,0.0],[-78.0571,22.2024,0.0],[-78.0507,22.199,0.0],[-78.0507,22.1929,0.0],[-78.0526,22.191,0.0],[-78.0551,22.191,0.0],[-78.061,22.1951,0.0738],[-78.0632,22.1949,0.0],[-78.066,22.1918,0.0],[-78.0668,22.186,0.0],[-78.0643,22.1849,0.0],[-78.0632,22.1763,0.0],[-78.0726,22.1774,0.0],[-78.0757,22.179,0.0],[-78.0765,22.1829,0.0],[-78.0837,22.1835,0.141],[-78.0846,22.1871,0.0],[-78.0926,22.1951,0.1177],[-78.0929,22.1899,0.1964],[-78.0921,22.1868,0.0729],[-78.0879,22.1835,0.0],[-78.0893,22.1787,0.0],[-78.0704,22.1649,0.0],[-78.0665,22.1646,0.0],[-78.0549,22.171,0.0],[-78.054,22.1782,0.0],[-78.056,22.1768,0.0934],[-78.0554,22.179,0.0],[-78.0593,22.1799,0.0],[-78.0557,22.1712,0.0],[-78.0596,22.1707,0.0],[-78.0607,22.1796,0.6291],[-78.0593,22.181,0.0],[-78.0615,22.1849,0.0],[-78.0585,22.1863,0.0],[-78.056,22.1854,0.0],[-78.056,22.1804,0.0],[-78.0499,22.1807,0.0],[-78.0529,22.1776,0.0627],[-78.0499,22.1768,0.0437],[-78.0451,22.1718,0.0],[-78.0462,22.169,0.0],[-78.0496,22.171,0.1107],[-78.0482,22.1679,0.0],[-78.0407,22.1657,0.0]]],
[[[-78.3707,22.3979,0.0968],[-78.3732,22.3993,0.3461],[-78.371,22.3951,0.1051],[-78.374,22.3935,0.0],[-78.3704,22.3904,0.0],[-78.3712,22.3865,0.0],[-78.3665,22.3829,0.0],[-78.3688,22.3937,0.4404],[-78.3707,22.3979,0.0968]]],
[[[-78.4013,22.406,0.0],[-78.4032,22.4079,0.0],[-78.4035,22.4063,0.4664],[-78.4057,22.4057,0.328],[-78.4112,22.4071,0.0],[-78.4046,22.4029,0.0],[-78.4013,22.406,0.0]]],
[[[-78.5751,22.4185,0.2332],[-78.5738,22.4254,0.0],[-78.5757,22.4249,1.5938],[-78.5785,22.4204,0.0],[-78.5782,22.4185,0.0],[-78.5751,22.4185,0.2332]]],
[[[-78.4301,22.4238,0.0],[-78.4293,22.4254,0.0],[-78.4307,22.4257,0.0],[-78.4321,22.4221,0.0],[-78.4285,22.4201,0.0],[-78.4285,22.4212,0.0],[-78.4301,22.4238,0.0]]],
[[[-78.4287,22.431,0.0],[-78.4301,22.4338,0.0],[-78.4318,22.4338,0.0],[-78.4315,22.4296,0.0],[-78.4287,22.431,0.0]]],
[[[-78.5526,22.4376,0.0],[-78.5526,22.4387,0.0],[-78.5574,22.4379,0.0],[-78.5565,22.4371,0.0],[-78.5526,22.4376,0.0]]],
[[[-78.3971,22.4132,0.189],[-78.4018,22.4143,0.0],[-78.3979,22.4115,0.0],[-78.3987,22.4093,0.1681],[-78.3968,22.4107,0.0],[-78.3971,22.4132,0.189]]],
[[[-78.4268,22.429,0.0],[-78.4265,22.4324,0.0],[-78.4279,22.4326,0.0],[-78.4285,22.4285,0.0],[-78.4268,22.429,0.0]]],
[[[-78.2465,22.4399,0.4473],[-78.2465,22.4415,0.6156],[-78.2496,22.4418,2.276],[-78.2482,22.4382,1.3169],[-78.2465,22.4399,0.4473]]],
[[[-78.2679,22.4613,0.0],[-78.2668,22.4629,0.0],[-78.2688,22.4632,0.6665],[-78.2718,22.459,0.0],[-78.2701,22.459,0.0],[-78.2679,22.4613,0.0]]],
[[[-78.5671,22.449,0.0],[-78.5715,22.4504,0.232],[-78.5699,22.4454,0.0],[-78.5668,22.4438,0.3487],[-78.5654,22.4387,0.0],[-78.5646,22.4374,0.0],[-78.5629,22.4379,0.0],[-78.5621,22.4351,0.0],[-78.5671,22.4324,0.0],[-78.5676,22.429,0.2559],[-78.571,22.429,0.0],[-78.5718,22.4263,0.4199],[-78.5621,22.429,0.1944],[-78.5599,22.4351,0.0],[-78.561,22.4382,0.1712],[-78.564,22.4399,0.0],[-78.5671,22.449,0.0]]],
[[[-78.5079,22.4401,0.0],[-78.5079,22.4413,0.0],[-78.5093,22.4421,0.0],[-78.5099,22.4393,0.0],[-78.5079,22.4401,0.0]]],
[[[-78.4724,22.4457,0.0],[-78.476,22.4468,0.0],[-78.4743,22.4446,0.0],[-78.4768,22.4424,0.0],[-78.4751,22.4415,0.2329],[-78.4754,22.4393,0.0],[-78.471,22.4404,0.0],[-78.4724,22.4457,0.0]]],
[[[-78.5746,22.4549,0.242],[-78.5776,22.4562,0.2541],[-78.5799,22.4529,0.3233],[-78.5829,22.4529,0.0],[-78.5876,22.4554,0.301],[-78.5896,22.4521,0.0],[-78.5851,22.4501,0.0],[-78.5865,22.4479,0.0],[-78.579,22.4465,0.0],[-78.5732,22.4488,0.0],[-78.5746,22.4549,0.242]]],
[[[-78.1954,22.4407,0.1927],[-78.1979,22.4415,0.3142],[-78.1988,22.439,0.4846],[-78.1957,22.4382,0.0],[-78.1954,22.4407,0.1927]]],
[[[-78.1518,22.4515,0.0],[-78.1526,22.4538,0.0],[-78.1543,22.4529,0.0],[-78.1537,22.451,0.6746],[-78.1518,22.4515,0.0]]],
[[[-78.1604,22.4818,3.0704],[-78.1618,22.4829,1.0935],[-78.171,22.4818,0.0],[-78.1665,22.4801,0.0],[-78.1624,22.4726,0.5428],[-78.1665,22.4651,0.4719],[-78.1765,22.456,0.0],[-78.189,22.4535,2.7788],[-78.1907,22.4535,2.1419],[-78.1915,22.4554,0.0],[-78.1957,22.4515,0.0],[-78.1971,22.4471,0.2915],[-78.1974,22.4504,0.4692],[-78.2004,22.4479,0.3317],[-78.2021,22.4518,1.0253],[-78.2038,22.4512,0.2743],[-78.2032,22.4549,0.0],[-78.1999,22.4543,0.0],[-78.2015,22.4562,0.0],[-78.2049,22.4546,0.3946],[-78.2049,22.4582,0.0],[-78.2082,22.4585,0.0],[-78.2063,22.4574,0.0],[-78.2068,22.4562,1.4803],[-78.2124,22.4549,0.0],[-78.2096,22.4529,2.3572],[-78.2118,22.4499,0.6114],[-78.211,22.4476,0.0],[-78.2165,22.4512,0.3659],[-78.2174,22.4557,0.0],[-78.2226,22.4543,0.0],[-78.2226,22.4562,0.485],[-78.224,22.4562,0.485],[-78.2249,22.4546,0.0],[-78.2224,22.4496,0.4053],[-78.2243,22.4465,0.7357],[-78.2254,22.4496,0.0],[-78.2285,22.4479,1.0263],[-78.2315,22.4488,0.0],[-78.2326,22.4435,0.0],[-78.2307,22.4415,0.0],[-78.2262,22.4429,1.4733],[-78.2262,22.4396,0.0],[-78.2196,22.4415,0.0],[-78.2187,22.4454,0.5394],[-78.2179,22.4421,1.7385],[-78.2143,22.4407,0.9054],[-78.1963,22.4424,0.4534],[-78.1932,22.4401,0.3678],[-78.1949,22.4382,0.9022],[-78.194,22.4371,0.9022],[-78.1924,22.439,0.3678],[-78.1913,22.436,0.0],[-78.1832,22.4338,1.0635],[-78.1813,22.436,0.0],[-78.1846,22.4363,1.2594],[-78.1849,22.4376,0.4502],[-78.1771,22.449,0.6941],[-78.1735,22.4499,0.2025],[-78.1712,22.4465,0.0],[-78.1696,22.4493,0.0],[-78.1679,22.4451,0.0],[-78.1618,22.4424,0.6601],[-78.1601,22.4432,0.0],[-78.1615,22.4565,0.83],[-78.1596,22.461,0.5407],[-78.1599,22.4649,0.0],[-78.1579,22.4621,0.1269],[-78.1562,22.4624,0.1269],[-78.1515,22.4549,0.0],[-78.1557,22.4663,0.0],[-78.1546,22.4676,0.0],[-78.1554,22.471,0.0],[-78.1532,22.4726,0.0667],[-78.1513,22.4699,0.0],[-78.149,22.4707,0.0765],[-78.1457,22.4663,1.5086],[-78.1435,22.4588,0.3547],[-78.1393,22.4532,0.8767],[-78.1396,22.4507,0.368],[-78.144,22.4485,0.0],[-78.1396,22.4457,0.8937],[-78.1407,22.4418,0.0],[-78.1357,22.4382,0.0],[-78.1288,22.4371,1.2454],[-78.1257,22.4382,0.6544],[-78.1243,22.4413,0.3753],[-78.1363,22.4557,0.3196],[-78.149,22.4754,0.6196],[-78.1604,22.4818,3.0704]]],
[[[-78.211,22.4785,0.0],[-78.2138,22.4793,0.0],[-78.2149,22.479,0.0],[-78.2126,22.4776,0.0],[-78.211,22.4785,0.0]]],
[[[-78.7349,22.5688,1.4381],[-78.7357,22.5699,1.4381],[-78.7376,22.569,0.0],[-78.736,22.5643,1.057],[-78.7346,22.5657,2.6258],[-78.7349,22.5688,1.4381]]],
[[[-78.7207,22.5685,0.0],[-78.7207,22.5665,0.0],[-78.7185,22.5657,0.0],[-78.716,22.5668,0.3861],[-78.7171,22.5699,0.0],[-78.7207,22.5685,0.0]]],
[[[-78.7332,22.591,0.0],[-78.7335,22.5924,0.0],[-78.7354,22.5924,0.0],[-78.7399,22.5876,2.4116],[-78.7382,22.5874,4.3181],[-78.7332,22.591,0.0]]],
[[[-78.7368,22.6157,2.1225],[-78.7393,22.6162,0.0],[-78.7379,22.6143,0.5828],[-78.7357,22.6143,0.6444],[-78.7368,22.6157,2.1225]]],
[[[-78.7051,22.5926,0.0],[-78.7076,22.5935,1.7401],[-78.7085,22.5932,1.0871],[-78.7065,22.591,1.3565],[-78.7051,22.5926,0.0]]],
[[[-78.6996,22.5951,3.1441],[-78.7035,22.5957,0.0],[-78.7004,22.5926,0.6603],[-78.699,22.5935,0.0],[-78.6996,22.5951,3.1441]]],
[[[-78.6937,22.6038,1.1582],[-78.6954,22.6051,0.0],[-78.694,22.6007,0.4461],[-78.6924,22.6015,0.611],[-78.6937,22.6038,1.1582]]],
[[[-78.694,22.629,0.0],[-78.696,22.6285,0.6666],[-78.6904,22.6257,1.0503],[-78.6876,22.6268,0.2681],[-78.6876,22.6276,0.436],[-78.694,22.629,0.0]]]]}}