{"type": "Feature","bbox": [-78.4181,27.1867,-78.2447,27.2711],"geometry": {"type": "MultiPolygon","coordinates": [[[[-78.2772,27.1983,1.4213],[-78.2799,27.199,0.0],[-78.2767,27.1953,0.0],[-78.2703,27.1931,-0.3389],[-78.2703,27.1908,0.0],[-78.2867,27.1992,0.0],[-78.2869,27.1981,0.0],[-78.2839,27.1967,0.0],[-78.2903,27.1947,0.0],[-78.2853,27.1919,0.0],[-78.2856,27.1944,0.0],[-78.2828,27.1961,0.0],[-78.2617,27.1867,0.0],[-78.2603,27.1869,0.0],[-78.2664,27.1894,-0.0248],[-78.265,27.1897,0.0],[-78.2656,27.1914,-0.0429],[-78.259,27.1893,0.0],[-78.2589,27.1922,0.5963],[-78.2564,27.1931,0.0],[-78.2569,27.1942,0.0],[-78.2678,27.195,0.7489],[-78.2772,27.1983,1.4213]]],
[[[-78.2458,27.1933,0.0],[-78.2487,27.1952,0.0],[-78.2494,27.1944,0.0],[-78.2447,27.1914,0.0],[-78.2458,27.1933,0.0]]],
[[[-78.3139,27.2264,0.0723],[-78.3186,27.2278,0.0],[-78.3194,27.2261,0.2217],[-78.3231,27.2261,0.0],[-78.3231,27.2233,-0.626],[-78.3253,27.2233,0.0],[-78.3244,27.2211,-0.3519],[-78.32,27.2192,0.2244],[-78.3206,27.2172,0.0],[-78.3306,27.2211,0.5225],[-78.3214,27.215,0.0],[-78.3167,27.2156,0.4673],[-78.3189,27.2186,0.0],[-78.3108,27.2139,0.0],[-78.3075,27.2136,0.0],[-78.3189,27.2197,0.2244],[-78.3189,27.2222,0.0],[-78.3108,27.2167,0.0],[-78.3058,27.2167,0.8402],[-78.3006,27.2133,0.0],[-78.3022,27.2175,0.0],[-78.3114,27.2211,0.2306],[-78.3125,27.2267,0.0],[-78.3139,27.2264,0.0723]]],
[[[-78.3322,27.2364,0.1798],[-78.335,27.2369,-0.2494],[-78.3358,27.2331,-0.0116],[-78.3425,27.2256,0.2303],[-78.3483,27.2261,0.0],[-78.3392,27.2214,0.8839],[-78.3322,27.22,0.0],[-78.3342,27.2233,-0.3774],[-78.3328,27.2239,0.0],[-78.3358,27.2258,-0.3607],[-78.335,27.2267,-0.0623],[-78.3269,27.2231,0.0],[-78.3261,27.2275,-0.7079],[-78.3217,27.2294,0.0],[-78.3222,27.2325,0.0],[-78.3322,27.2364,0.1798]]],
[[[-78.3411,27.2417,0.0],[-78.3392,27.2411,0.0],[-78.3428,27.2472,0.0],[-78.3433,27.245,-0.1432],[-78.3411,27.2417,0.0]]],
[[[-78.3717,27.2581,0.0],[-78.3772,27.2572,0.0],[-78.3694,27.2564,0.0],[-78.3653,27.2575,0.0],[-78.3656,27.2583,0.0],[-78.3717,27.2581,0.0]]],
[[[-78.4003,27.2611,0.0],[-78.4025,27.2619,0.7315],[-78.4047,27.2575,0.5922],[-78.3997,27.2594,1.127],[-78.3961,27.2564,0.0],[-78.3906,27.2572,0.0],[-78.3908,27.2581,1.0495],[-78.4003,27.2611,0.0]]],
[[[-78.3506,27.2614,0.0],[-78.3519,27.2622,0.0],[-78.3569,27.2597,0.2301],[-78.3533,27.2594,0.0],[-78.3506,27.2614,0.0]]],
[[[-78.4094,27.265,0.0],[-78.4097,27.2664,0.0],[-78.4139,27.2686,0.0],[-78.4122,27.2658,0.4578],[-78.4094,27.265,0.0]]],
[[[-78.4164,27.2711,0.0],[-78.4181,27.2706,0.6243],[-78.4161,27.2692,0.6215],[-78.4153,27.27,0.0],[-78.4164,27.2711,0.0]]]]}
,"properties": {"GID_1": "BHS.13_1","GID_0": "BHS","country": "Bahamas","state": "GrandCay","VARNAME_1": "NA","NL_NAME_1": "NA","TYPE_1": "District","ENGTYPE_1": "District","CC_1": "NA","HASC_1": "BS.GC","ISO_1": "NA","name": "GrandCay.state","area_km2": 5.674985,"hist_schema_id": "Elevation0-9000","hist_area_km2": {"0": 5.674985}}}