{"type":"Feature","properties":{"GID_1":"PRI.48_1","GID_0":"PRI","country":"PuertoRico","province":"Maricao","VARNAME_1":"NA","NL_NAME_1":"NA","TYPE_1":"Municipio","ENGTYPE_1":"Municipality","CC_1":"NA","HASC_1":"PR.MR","ISO_1":"NA","name":"Maricao.province"},
"geometry":{"type": "MultiPolygon","coordinates": [[[[-66.898,18.1876,863.9819],[-66.9151,18.1922,411.8965],[-66.9582,18.1998,450.9132],[-66.968,18.2069,295.5547],[-66.9777,18.2082,400.8207],[-66.9892,18.2052,531.7327],[-66.9924,18.199,561.0002],[-67.0039,18.1936,402.0372],[-67.0201,18.1954,373.7613],[-67.0182,18.1882,278.5493],[-67.0195,18.1868,329.9267],[-67.0237,18.1848,259.0344],[-67.0348,18.1857,189.7813],[-67.0407,18.1784,157.4163],[-67.0518,18.174,136.9102],[-67.0438,18.1693,184.4098],[-67.0216,18.1663,429.8144],[-67.0044,18.1574,692.1072],[-66.9966,18.1565,747.0355],[-66.9928,18.1504,820.3862],[-66.9896,18.1485,823.593],[-66.9706,18.142,816.6407],[-66.9642,18.1483,870.1937],[-66.9609,18.1459,793.8049],[-66.9378,18.1481,698.4786],[-66.9152,18.154,799.3319],[-66.9032,18.146,853.6025],[-66.8912,18.1481,840.3817],[-66.8898,18.1524,900.9531],[-66.8875,18.1533,911.5841],[-66.8703,18.1387,927.9064],[-66.8569,18.1384,895.8863],[-66.8502,18.1628,904.4932],[-66.8437,18.1609,915.154],[-66.8368,18.1705,675.133],[-66.8443,18.1719,735.3718],[-66.8502,18.1704,659.3429],[-66.8586,18.1736,572.0503],[-66.8605,18.1755,537.3988],[-66.8638,18.187,449.6811],[-66.898,18.1876,863.9819]]]]}}