{"type": "Feature","id": "1372","bbox": [-77.64029,17.84195,-77.35897,18.23723],"geometry": {"type": "Polygon","coordinates": [[[-77.55332,18.2316,791.667],[-77.59156,18.23708,649.6249],[-77.59733,18.23723,552.0837],[-77.60291,18.23579,541.2415],[-77.61022,18.23253,497.7618],[-77.6213,18.2261,431.8923],[-77.62743,18.22393,405.1888],[-77.64029,18.22085,350.1805],[-77.63526,18.13119,61.3643],[-77.56702,17.86162,0.0],[-77.56456,17.85713,0.0],[-77.56455,17.8571,0.0],[-77.54548,17.85399,0.0],[-77.50182,17.84195,0.0],[-77.48062,17.84374,0.0],[-77.45946,17.85741,0.0],[-77.44103,17.86465,3.5461],[-77.41771,17.86172,0.0],[-77.39562,17.85395,0.0],[-77.39458,17.85337,0.0],[-77.39457,17.85338,0.0],[-77.39173,17.85594,69.8393],[-77.38972,17.8572,177.033],[-77.3868,17.85806,216.5479],[-77.37791,17.85702,303.181],[-77.37481,17.85718,331.5591],[-77.37217,17.85772,310.0269],[-77.3701,17.85912,238.1622],[-77.36845,17.86098,162.2898],[-77.36734,17.86356,38.589],[-77.36532,17.87578,28.0895],[-77.35938,17.89441,52.8009],[-77.35897,17.89756,50.0818],[-77.35995,17.9009,85.7208],[-77.36217,17.90441,91.2078],[-77.37359,17.91384,158.9748],[-77.37824,17.91971,150.9382],[-77.37995,17.92402,195.0918],[-77.38171,17.93007,186.5863],[-77.38393,17.94363,77.3808],[-77.38442,17.95038,46.5197],[-77.38411,17.95524,51.1848],[-77.38132,17.96312,46.2885],[-77.37992,17.96877,47.2465],[-77.48878,18.18122,769.8249],[-77.49116,18.1961,839.3086],[-77.53583,18.22571,944.9933],[-77.55014,18.2317,837.8151],[-77.55332,18.2316,791.667]]]}
,"properties": {"ISO3166-1-Alpha-3": "JAM","country": "Jamaica","fill": "#FF0","name": "Manchester","area_km2": 819.4543,"hist_schema_id": "Elevation0-9000","hist_area_km2": {"0": 16.8498,"25": 4.7598,"50": 7.1807,"75": 7.342,"100": 9.1781,"125": 11.5376,"150": 13.4334,"175": 19.4827,"200": 28.8733,"225": 28.2735,"250": 20.7705,"275": 19.6804,"300": 17.0566,"325": 15.9074,"350": 13.5088,"375": 15.4037,"400": 17.7614,"425": 18.2462,"450": 20.3226,"475": 23.9112,"500": 30.1807,"525": 37.5012,"550": 37.2176,"575": 35.4405,"600": 31.6491,"625": 38.3436,"650": 36.9125,"675": 30.56,"700": 31.2071,"725": 36.1273,"750": 33.3237,"775": 31.3863,"800": 25.6784,"825": 19.1849,"850": 15.4951,"875": 11.4253,"900": 6.3065,"925": 1.7729,"950": 0.2619}}}