{"type": "Feature","bbox": [-77.6318,17.8424,-77.3591,18.2495],"geometry": {"type": "MultiPolygon","coordinates": [[[[-77.4873,18.2024,745.5046],[-77.4926,18.2032,813.4111],[-77.5016,18.2086,850.6304],[-77.5068,18.2149,823.7227],[-77.5149,18.2198,836.9492],[-77.5238,18.2306,706.5527],[-77.546,18.2401,678.3017],[-77.5569,18.2423,633.341],[-77.5638,18.2473,574.935],[-77.5719,18.2458,597.5106],[-77.5795,18.2493,556.0268],[-77.5956,18.2495,484.6688],[-77.6025,18.2467,515.2529],[-77.6071,18.2405,526.7122],[-77.6176,18.2436,510.8874],[-77.6318,18.234,439.8167],[-77.6279,18.1423,216.3001],[-77.5916,18.0135,210.4577],[-77.567,17.8685,2.0219],[-77.564,17.8668,0.0],[-77.5529,17.866,7.8995],[-77.5435,17.8607,4.6809],[-77.5393,17.856,0.8158],[-77.5357,17.8551,1.2179],[-77.5335,17.8518,0.0],[-77.5293,17.8512,4.9282],[-77.5171,17.8426,4.2138],[-77.5104,17.8424,13.8926],[-77.4662,17.8599,1.8534],[-77.4471,17.864,7.1729],[-77.419,17.8654,1.7735],[-77.4057,17.8632,0.955],[-77.4018,17.8607,4.7037],[-77.4004,17.8627,4.5754],[-77.3908,17.8643,23.5016],[-77.3809,17.8613,248.9489],[-77.372,17.8608,193.3829],[-77.3708,17.8635,82.8618],[-77.3662,17.8659,45.4634],[-77.3591,17.8925,64.8911],[-77.3609,17.9087,65.4335],[-77.3769,17.9259,163.9992],[-77.3889,17.9637,127.0714],[-77.3856,17.9805,77.9265],[-77.3835,17.9822,62.0669],[-77.3821,17.9928,79.1128],[-77.3868,18.0149,135.4192],[-77.3922,18.0218,137.7527],[-77.4873,18.2024,745.5046]]]]}
,"properties": {"GID_1": "JAM.4_1","GID_0": "JAM","country": "Jamaica","province": "Manchester","VARNAME_1": "NA","NL_NAME_1": "NA","TYPE_1": "Parish","ENGTYPE_1": "Parish","CC_1": "NA","HASC_1": "JM.MA","ISO_1": "JM-12","name": "Manchester.province","area_km2": 821.8583,"hist_schema_id": "Elevation0-9000","hist_area_km2": {"0": 6.3163,"25": 2.9463,"50": 4.0156,"75": 5.367,"100": 6.8198,"125": 10.5503,"150": 13.8372,"175": 18.4145,"200": 23.7738,"225": 20.4086,"250": 20.186,"275": 19.4996,"300": 16.029,"325": 15.0411,"350": 12.9851,"375": 15.1419,"400": 17.7613,"425": 18.226,"450": 20.8261,"475": 25.0594,"500": 31.7119,"525": 39.3143,"550": 38.2651,"575": 36.3671,"600": 32.3944,"625": 39.1089,"650": 38.0001,"675": 31.8894,"700": 32.9595,"725": 39.0484,"750": 37.3528,"775": 35.8789,"800": 30.8561,"825": 22.469,"850": 18.6378,"875": 13.2182,"900": 7.6562,"925": 2.921,"950": 0.6043}}}