{"type": "Feature","bbox": [-70.1059,18.4986,-69.9789,18.5598],"geometry": {"type": "MultiPolygon","coordinates": [[[[-69.9816,18.5408,29.6795],[-69.9816,18.5521,6.7203],[-69.9887,18.5585,8.9705],[-70.0025,18.5524,9.5177],[-70.0099,18.543,18.1261],[-70.0159,18.5397,33.6609],[-70.0282,18.5432,38.274],[-70.0348,18.5475,52.8211],[-70.0438,18.5491,67.7191],[-70.0532,18.5587,76.7688],[-70.0583,18.5598,84.1689],[-70.0691,18.5593,79.1106],[-70.09,18.5517,91.7415],[-70.1018,18.5512,96.1255],[-70.1047,18.5495,106.5368],[-70.1059,18.5464,112.2696],[-70.1051,18.5425,89.1085],[-70.0997,18.5377,107.7649],[-70.0896,18.534,42.4321],[-70.08,18.5334,41.9383],[-70.0788,18.522,33.7986],[-70.0764,18.5184,28.3381],[-70.0604,18.5103,33.1219],[-70.0535,18.5138,53.4411],[-70.0471,18.5044,46.9068],[-70.0345,18.4986,22.7344],[-70.0233,18.5036,32.8235],[-70.0188,18.5116,42.9084],[-70.0157,18.514,40.9756],[-69.9942,18.5112,52.372],[-69.9848,18.5121,40.1614],[-69.9839,18.5173,37.4741],[-69.9867,18.526,42.4809],[-69.9851,18.5297,36.1269],[-69.9789,18.5349,41.4634],[-69.9816,18.5408,29.6795]]]]}
,"properties": {"GID_2": "DOM.31.3_1","GID_0": "DOM","country": "DominicanRepublic","GID_1": "DOM.31_1","province": "SantoDomingo","NL_NAME_1": "NA","county": "LosAlcarrizos","VARNAME_2": "NA","NL_NAME_2": "NA","TYPE_2": "Distritomunicipal","ENGTYPE_2": "Municipaldistrict","CC_2": "NA","HASC_2": "DO.SD.LA","name": "Los_Alcarrizos.county","area_km2": 52.26717,"hist_schema_id": "Elevation0-9000","hist_area_km2": {"0": 2.8945,"25": 12.34351,"50": 28.04393,"75": 7.37714,"100": 1.46738,"125": 0.14071}}}