{"type": "Feature","bbox": [-65.8777,18.0694,-65.729,18.207],"geometry": {"type": "MultiPolygon","coordinates": [[[[-65.7951,18.0696,0.0],[-65.7963,18.0696,5.7781],[-65.7951,18.0694,0.0],[-65.7951,18.0696,0.0]]],
[[[-65.7393,18.1735,0.0],[-65.7408,18.1821,6.653],[-65.7482,18.1797,20.4063],[-65.7515,18.1764,14.2322],[-65.7662,18.1821,1.9334],[-65.7602,18.1955,101.2473],[-65.7925,18.207,129.6837],[-65.7999,18.2027,118.442],[-65.8069,18.2051,112.5947],[-65.8194,18.2056,111.1357],[-65.8258,18.2004,228.9208],[-65.8258,18.1918,198.9705],[-65.8282,18.187,155.182],[-65.8333,18.1837,124.013],[-65.8365,18.1751,232.811],[-65.8467,18.178,153.9926],[-65.8541,18.1771,125.4913],[-65.8568,18.1733,114.8354],[-65.8555,18.167,92.501],[-65.8619,18.1556,156.9681],[-65.8615,18.1456,159.1377],[-65.8629,18.1403,163.2012],[-65.8675,18.138,195.0683],[-65.874,18.1284,225.8345],[-65.8777,18.1179,265.0245],[-65.8712,18.1127,240.6938],[-65.8703,18.1084,239.3059],[-65.8652,18.1079,253.8967],[-65.8634,18.1089,246.0182],[-65.8634,18.1127,239.3725],[-65.8601,18.1155,257.6565],[-65.8509,18.1184,238.9024],[-65.8454,18.115,213.2154],[-65.8421,18.1103,175.2951],[-65.8482,18.0993,144.4311],[-65.8436,18.0979,125.5344],[-65.838,18.0902,53.2154],[-65.8302,18.0859,83.9634],[-65.8219,18.0816,71.3036],[-65.814,18.0816,76.9081],[-65.809,18.0716,68.526],[-65.7965,18.0696,5.7781],[-65.7946,18.0729,0.0],[-65.7962,18.0751,3.5685],[-65.7946,18.0779,0.4088],[-65.796,18.0807,2.5967],[-65.7954,18.0854,1.2551],[-65.7918,18.0896,4.3692],[-65.7879,18.0901,0.0],[-65.7896,18.0935,2.0785],[-65.7893,18.0976,2.9508],[-65.7812,18.1121,7.4391],[-65.7771,18.1135,0.0],[-65.7771,18.1168,6.8822],[-65.7799,18.1188,0.0],[-65.7779,18.1296,2.0572],[-65.7668,18.144,17.5717],[-65.7671,18.149,5.0938],[-65.7574,18.1574,4.5448],[-65.7426,18.164,2.207],[-65.7393,18.1735,0.0]]],
[[[-65.7296,18.159,0.0],[-65.7349,18.1588,0.0],[-65.7349,18.153199999999998,0.0],[-65.7324,18.1537,0.0],[-65.7329,18.1579,1.9427],[-65.7318,18.1563,8.8927],[-65.729,18.1568,0.0],[-65.7296,18.159,0.0]]]]}
,"properties": {"GID_1": "PRI.36_1","GID_0": "PRI","country": "PuertoRico","province": "Humacao","VARNAME_1": "NA","NL_NAME_1": "NA","TYPE_1": "Municipio","ENGTYPE_1": "Municipality","CC_1": "NA","HASC_1": "PR.HU","ISO_1": "-","name": "Humacao.province","area_km2": 118.50951,"hist_schema_id": "Elevation0-9000","hist_area_km2": {"0": 32.21669,"25": 29.05346,"50": 15.31265,"75": 11.4841,"100": 8.40107,"125": 6.82963,"150": 5.09733,"175": 3.3446,"200": 3.18347,"225": 2.23648,"250": 1.08808,"275": 0.24181,"300": 0.02015}}}