{"type":"Feature","properties":{"GID_2":"DOM.16.3_1","GID_0":"DOM","country":"DominicanRepublic","GID_1":"DOM.16_1","province":"MonseñorNouel","NL_NAME_1":"NA","county":"PiedraBlanca","VARNAME_2":"NA","NL_NAME_2":"NA","TYPE_2":"Municipio","ENGTYPE_2":"Municipality","CC_2":"NA","HASC_2":"DO.MN.PB","name":"Piedra_Blanca.county"},
"geometry":{"type": "MultiPolygon","coordinates": [[[[-70.4026,18.7595,1052.3076],[-70.4022,18.7515,1098.672],[-70.3872,18.7493,1249.1458],[-70.3737,18.7367,929.8527],[-70.3671,18.7284,1198.524],[-70.3598,18.7252,1113.6346],[-70.3438,18.7244,1022.3702],[-70.3349,18.7215,1134.9015],[-70.3198,18.7135,1088.1492],[-70.3171,18.714,948.0928],[-70.3095,18.7178,646.7923],[-70.297,18.7293,791.9849],[-70.2907,18.7389,614.9294],[-70.2884,18.7505,714.0961],[-70.2959,18.7629,691.5065],[-70.2962,18.7695,488.4604],[-70.2948,18.7733,423.9519],[-70.2856,18.7786,333.9609],[-70.2809,18.7861,309.2033],[-70.2477,18.7988,415.6765],[-70.2403,18.812,494.0153],[-70.2393,18.8255,364.1355],[-70.2447,18.8268,421.449],[-70.2493,18.8335,568.4764],[-70.2581,18.8385,458.9008],[-70.2631,18.8449,302.9921],[-70.2804,18.8521,421.4321],[-70.2795,18.8638,267.7804],[-70.2913,18.8755,307.8406],[-70.3033,18.8948,210.3412],[-70.3099,18.9013,554.8008],[-70.3174,18.904,602.808],[-70.3212,18.9003,510.9661],[-70.3354,18.8941,578.1545],[-70.3403,18.8964,553.9417],[-70.3451,18.9034,545.7849],[-70.356,18.9029,182.7096],[-70.3624,18.9086,168.5849],[-70.3673,18.908,167.4769],[-70.3775,18.9031,170.7632],[-70.3787,18.9006,172.9624],[-70.371,18.8941,171.4972],[-70.3653,18.8834,177.2357],[-70.3652,18.8797,174.9532],[-70.3682,18.8753,181.7274],[-70.3754,18.8694,186.5687],[-70.3845,18.8529,258.1422],[-70.4021,18.8411,516.3231],[-70.4059,18.8302,690.5983],[-70.4062,18.8096,762.7839],[-70.4136,18.8021,1033.1554],[-70.4112,18.7954,1151.7656],[-70.3979,18.7787,1028.8909],[-70.398,18.7756,982.4501],[-70.4027,18.7667,1064.1046],[-70.4026,18.7595,1052.3076]]]]}}