{"type":"Feature","properties":{"GID_2":"HTI.4.1_1","GID_0":"HTI","country":"Haiti","GID_1":"HTI.4_1","province":"Nippes","NL_NAME_1":"NA","county":"l'Anse-à-Veau","VARNAME_2":"NA","NL_NAME_2":"NA","TYPE_2":"Arrondissement","ENGTYPE_2":"District","CC_2":"NA","HASC_2":"HT.NI.AV","name":"l'Anse-à-Veau.county"},
"geometry":{"type": "MultiPolygon","coordinates": [[[[-73.2654,18.3963,375.8535],[-73.2624,18.4051,794.6045],[-73.2586,18.4081,831.7778],[-73.2617,18.411,775.1726],[-73.2625,18.4144,731.9161],[-73.2575,18.4369,393.3495],[-73.2579,18.4415,282.9542],[-73.263,18.4471,537.7681],[-73.2761,18.4494,439.7567],[-73.2783,18.4527,327.3939],[-73.2742,18.4562,247.8661],[-73.2735,18.4592,168.3287],[-73.2749,18.4633,118.8971],[-73.2726,18.4755,17.0215],[-73.2738,18.4831,2.7822],[-73.2844,18.4826,1.5846],[-73.2865,18.4843,0.0],[-73.2965,18.4846,0.9177],[-73.3064,18.4899,0.3888],[-73.3101,18.4943,0.0],[-73.3324,18.5037,5.4517],[-73.346,18.5057,0.0],[-73.3471,18.5035,5.4737],[-73.3496,18.5074,0.0],[-73.3579,18.5101,8.4635],[-73.3926,18.5143,5.4876],[-73.4065,18.5204,15.5899],[-73.4199,18.5199,9.5362],[-73.4568,18.5287,15.0026],[-73.4718,18.5235,2.9626],[-73.4935,18.5276,0.0],[-73.5057,18.5272,0.338],[-73.5121,18.5286,0.0],[-73.5139,18.5265,1.0555],[-73.5205,18.5291,0.0],[-73.5257,18.5263,0.4389],[-73.5315,18.5276,0.0],[-73.5312,18.5237,0.2905],[-73.5329,18.5229,0.1981],[-73.5396,18.524,0.0],[-73.5418,18.5226,0.0],[-73.5382,18.5221,0.1747],[-73.5382,18.5201,0.6996],[-73.5427,18.5222,0.0],[-73.546,18.5215,0.0847],[-73.5499,18.5191,0.074],[-73.5499,18.5176,0.335],[-73.5537,18.5174,0.0],[-73.5551,18.5138,0.0],[-73.559,18.5124,0.1054],[-73.5599,18.5101,7.6013],[-73.5629,18.5118,0.0896],[-73.5635,18.5143,0.1],[-73.5621,18.5157,0.0],[-73.5635,18.5157,0.0],[-73.5651,18.5138,0.1],[-73.564,18.5101,0.0],[-73.5696,18.5082,0.0],[-73.5701,18.5063,1.7273],[-73.5749,18.5071,0.0],[-73.5757,18.5057,0.144],[-73.574,18.5124,0.0],[-73.5757,18.5126,0.0],[-73.5765,18.5074,0.0],[-73.5768,18.511,0.0],[-73.5801,18.5096,0.0],[-73.5785,18.5049,13.1562],[-73.5801,18.5046,10.9309],[-73.581,18.5071,0.0],[-73.5843,18.504,0.201],[-73.5865,18.5042,0.0],[-73.5876,18.5018,44.8755],[-73.5926,18.504,0.0],[-73.5946,18.5021,0.0],[-73.5976,18.5035,0.0],[-73.5986,18.5021,1.2077],[-73.5968,18.5054,0.9341],[-73.5979,18.5057,0.0],[-73.5999,18.5035,1.2077],[-73.6068,18.5015,9.8806],[-73.6079,18.5035,4.1015],[-73.611,18.501,7.0377],[-73.6114,18.5031,0.0],[-73.6142,18.501,37.9856],[-73.619,18.5026,0.0],[-73.6218,18.5007,6.6051],[-73.6231,18.504,0.0],[-73.6249,18.5032,20.6663],[-73.6273,18.5046,0.0],[-73.6268,18.5021,14.5557],[-73.629,18.5026,0.0],[-73.6296,18.5046,3.7343],[-73.6338,18.504,1.0039],[-73.6363,18.5063,0.7562],[-73.6387,18.504,0.7688],[-73.6473,18.5023,2.434],[-73.6471,18.501,57.0966],[-73.6588,18.4993,9.3926],[-73.6632,18.5001,1.1294],[-73.6646,18.5029,0.4188],[-73.6636,18.506,0.0],[-73.6724,18.5085,8.7894],[-73.6724,18.5115,15.8323],[-73.6706,18.5133,12.8219],[-73.672,18.5168,0.0],[-73.6699,18.5174,0.0],[-73.6674,18.5243,3.4122],[-73.6643,18.5244,1.9243],[-73.6651,18.5287,0.0],[-73.6596,18.5335,0.0],[-73.6596,18.5351,0.0],[-73.6626,18.536,8.1578],[-73.6629,18.541,0.0],[-73.6707,18.5426,0.0],[-73.6746,18.5404,53.2608],[-73.6782,18.5457,0.0],[-73.6799,18.5457,0.0],[-73.6821,18.5438,6.8442],[-73.6826,18.5379,49.4419],[-73.6846,18.5376,5.9258],[-73.6843,18.5449,0.0],[-73.6899,18.5449,5.022],[-73.6899,18.5429,2.9976],[-73.6932,18.5399,51.7181],[-73.6943,18.5457,0.0],[-73.6976,18.5451,0.0],[-73.6996,18.5418,22.7253],[-73.7018,18.5435,1.1],[-73.7038,18.5421,0.0],[-73.7107,18.5432,1.437],[-73.7146,18.5418,32.6204],[-73.7158,18.5439,0.0],[-73.7176,18.5435,7.6064],[-73.721,18.5461,0.7125],[-73.721,18.5434,18.3668],[-73.7234,18.5424,5.1974],[-73.7249,18.5435,5.0959],[-73.7243,18.5459,8.8155],[-73.7171,18.551,11.1432],[-73.7165,18.5474,3.821],[-73.7104,18.5439,1.4093],[-73.7079,18.547,0.0],[-73.6999,18.5496,0.0],[-73.6988,18.5529,0.0],[-73.6965,18.5501,0.0],[-73.6923,18.5512,0.0],[-73.6924,18.5535,0.0],[-73.6879,18.5518,0.0],[-73.6859,18.554,7.6261],[-73.6832,18.5532,0.0],[-73.6804,18.5573,2.0895],[-73.6801,18.561,0.0],[-73.687,18.5618,4.7879],[-73.6907,18.564,0.0752],[-73.6882,18.5654,0.0],[-73.681,18.5635,0.0],[-73.6743,18.564,0.8337],[-73.6662,18.5571,0.1297],[-73.6621,18.5593,0.2234],[-73.6624,18.5576,0.0],[-73.6665,18.5546,0.0],[-73.6657,18.5529,6.0585],[-73.6615,18.5542,7.5927],[-73.6443,18.5543,0.438],[-73.6432,18.5563,0.0],[-73.6446,18.5579,0.1431],[-73.6318,18.5591,1.7582],[-73.6188,18.556,2.2166],[-73.617,18.5539,0.0],[-73.6124,18.5551,1.0937],[-73.6071,18.5524,0.5845],[-73.5985,18.5534,0.617],[-73.5915,18.5521,1.0062],[-73.5776,18.5604,0.0],[-73.5698,18.5729,13.3208],[-73.5635,18.5796,3.1177],[-73.5641,18.5841,0.0],[-73.5674,18.5871,0.0],[-73.5777,18.5892,0.0],[-73.6293,18.5832,3.6926],[-73.6562,18.5723,0.0],[-73.6696,18.5735,1.4782],[-73.6871,18.5782,1.229],[-73.7001,18.5776,0.3349],[-73.7112,18.5751,0.7799],[-73.716,18.5716,2.1207],[-73.7185,18.5715,1.1713],[-73.7201,18.5696,0.0],[-73.7201,18.5654,0.3057],[-73.727,18.5665,0.4914],[-73.7262,18.5643,0.2287],[-73.7288,18.5649,0.1443],[-73.7282,18.5626,0.1265],[-73.731,18.5633,0.1421],[-73.7315,18.5596,0.2154],[-73.7343,18.5574,0.0844],[-73.7207,18.5574,0.0],[-73.7207,18.5535,2.8359],[-73.7271,18.551,0.4383],[-73.731,18.5515,4.0085],[-73.733,18.5472,56.2388],[-73.7355,18.5458,68.2513],[-73.7314,18.5428,2.0011],[-73.7315,18.5406,14.7566],[-73.7374,18.536,139.8833],[-73.7433,18.5231,315.3116],[-73.7539,18.517,329.1968],[-73.7576,18.5117,366.6922],[-73.7653,18.506,370.8011],[-73.7688,18.4989,413.9645],[-73.7673,18.4964,393.5909],[-73.7617,18.4941,354.0577],[-73.7423,18.4892,303.3923],[-73.7385,18.4862,342.8564],[-73.739,18.4814,236.2983],[-73.7462,18.4752,238.5621],[-73.7654,18.4654,403.8486],[-73.7663,18.4594,568.6419],[-73.7724,18.4568,665.6496],[-73.7748,18.4541,701.1531],[-73.7758,18.4421,842.4801],[-73.7789,18.4412,873.6298],[-73.78,18.4239,1086.592],[-73.7738,18.4183,1165.7173],[-73.771,18.4176,1145.0215],[-73.7591,18.4234,913.87],[-73.7435,18.4205,884.8099],[-73.7378,18.4159,715.5153],[-73.7214,18.4146,792.5858],[-73.7069,18.421,459.3206],[-73.7023,18.42,552.2526],[-73.6978,18.4141,504.2778],[-73.6819,18.4,547.9243],[-73.6767,18.3979,548.1161],[-73.6715,18.4028,604.3901],[-73.672,18.4306,628.625],[-73.6699,18.4301,552.9741],[-73.6681,18.4332,510.2808],[-73.6534,18.4257,679.3358],[-73.6479,18.4297,586.3645],[-73.6435,18.4301,415.843],[-73.6389,18.4249,372.4841],[-73.6315,18.4219,418.3113],[-73.6261,18.4256,359.2691],[-73.6096,18.427,422.9119],[-73.6016,18.4203,379.6355],[-73.5915,18.4188,545.7237],[-73.5852,18.4208,414.7292],[-73.578,18.4204,328.489],[-73.5794,18.4165,344.7047],[-73.5789,18.4071,504.8514],[-73.5739,18.4011,528.2023],[-73.5622,18.4013,555.8101],[-73.5594,18.3993,594.3403],[-73.5589,18.3911,517.9965],[-73.5526,18.3904,503.591],[-73.5486,18.3874,488.9577],[-73.5463,18.3892,477.8279],[-73.5438,18.3862,448.7751],[-73.5386,18.3845,475.8293],[-73.5418,18.3736,506.0827],[-73.543,18.3757,565.4875],[-73.5462,18.3753,563.7446],[-73.5549,18.3699,454.0576],[-73.5572,18.3583,636.0804],[-73.5563,18.3497,830.6975],[-73.5643,18.3465,547.4626],[-73.5643,18.3444,634.0874],[-73.5615,18.3472,545.4474],[-73.5546,18.336,877.4631],[-73.5045,18.3364,1250.2327],[-73.4932,18.338,1204.6482],[-73.4894,18.3406,1216.5042],[-73.4821,18.3422,1150.9215],[-73.4718,18.3406,1203.6052],[-73.4704,18.3375,1064.5156],[-73.4588,18.3378,1092.8838],[-73.4292,18.3444,827.447],[-73.4184,18.3414,943.9186],[-73.4122,18.3419,748.8861],[-73.4045,18.3475,711.8253],[-73.4011,18.3459,719.6646],[-73.3858,18.347,319.3301],[-73.363,18.3452,278.5847],[-73.3552,18.3424,187.1971],[-73.3484,18.3485,231.5857],[-73.3364,18.3693,199.3897],[-73.3352,18.368,206.2768],[-73.333,18.3699,201.5916],[-73.3318,18.3687,213.0472],[-73.3306,18.3707,223.3086],[-73.3275,18.3671,202.9458],[-73.3248,18.3677,203.9637],[-73.3198,18.3628,221.2621],[-73.3014,18.3665,223.5834],[-73.2994,18.3685,223.0061],[-73.2963,18.3654,243.9251],[-73.294,18.3657,225.3727],[-73.2951,18.3677,224.7619],[-73.2868,18.3676,243.6718],[-73.279,18.3619,253.8137],[-73.27,18.3587,285.9725],[-73.2668,18.3598,251.3938],[-73.2661,18.3641,249.2845],[-73.2627,18.3649,261.6149],[-73.2649,18.3702,261.4587],[-73.2642,18.3768,276.9305],[-73.2614,18.3814,335.2382],[-73.2654,18.3963,375.8535]]],
[[[-73.5724,18.5104,0.0],[-73.5735,18.5121,0.0],[-73.5729,18.5088,0.0],[-73.5707,18.509,0.0545],[-73.5707,18.5104,0.0545],[-73.5724,18.5104,0.0]]],
[[[-73.6485,18.5237,5.6361],[-73.6501,18.5246,0.0],[-73.6501,18.5218,28.361],[-73.654,18.5226,4.2763],[-73.6557,18.5215,37.9265],[-73.6574,18.5232,3.2205],[-73.6588,18.5201,25.9648],[-73.6632,18.5204,14.1649],[-73.6651,18.5185,0.8185],[-73.6649,18.5171,0.8185],[-73.6637,18.5179,21.2865],[-73.6643,18.5138,0.0],[-73.6557,18.5154,0.0],[-73.6551,18.5176,15.616],[-73.6546,18.5163,0.0],[-73.6515,18.5163,0.9571],[-73.6499,18.5213,28.361],[-73.6476,18.5213,0.0],[-73.6485,18.5237,5.6361]]],
[[[-73.659,18.5407,6.3455],[-73.6596,18.5415,6.3455],[-73.6615,18.5415,3.6667],[-73.6599,18.5382,1.1811],[-73.659,18.5407,6.3455]]],
[[[-73.5582,18.5157,0.0],[-73.5607,18.5165,0.0672],[-73.5618,18.5151,0.0],[-73.5574,18.5146,0.1378],[-73.5582,18.5157,0.0]]],
[[[-73.5462,18.5313,0.0985],[-73.5515,18.5321,0.0],[-73.5524,18.5301,0.142],[-73.549,18.5276,0.0],[-73.541,18.5271,0.2215],[-73.5396,18.5251,0.0],[-73.5357,18.5257,0.128],[-73.5382,18.5274,0.0],[-73.539,18.5304,0.244],[-73.5462,18.5313,0.0985]]],
[[[-73.6776,18.5576,9.598],[-73.6799,18.5563,7.7455],[-73.6793,18.5529,1.9289],[-73.6768,18.5563,29.7567],[-73.6776,18.5576,9.598]]]]}}