{"type":"Feature","properties":{"GID_2":"DOM.23.3_1","GID_0":"DOM","country":"DominicanRepublic","GID_1":"DOM.23_1","province":"Samaná","NL_NAME_1":"NA","county":"SantaBárbaradeSamaná","VARNAME_2":"NA","NL_NAME_2":"NA","TYPE_2":"Municipio","ENGTYPE_2":"Municipality","CC_2":"NA","HASC_2":"DO.SM.SB","name":"Santa_Bárbarade_Samaná.county"},
"geometry":{"type": "MultiPolygon","coordinates": [[[[-69.2754,19.1682,10.5939],[-69.2799,19.1682,2.4758],[-69.2799,19.1665,2.0017],[-69.276,19.1654,0.0],[-69.2746,19.1632,0.155],[-69.2712,19.1662,3.1036],[-69.2754,19.1682,10.5939]]],
[[[-69.3282,19.1954,0.0],[-69.3296,19.196,0.0],[-69.3296,19.1949,0.0],[-69.3251,19.1943,0.0],[-69.3257,19.1957,0.0],[-69.3282,19.1954,0.0]]],
[[[-69.4852,19.2875,177.1611],[-69.4795,19.2831,171.7002],[-69.4789,19.279,158.6457],[-69.4838,19.2695,254.085],[-69.4854,19.261,271.0914],[-69.4926,19.2532,292.4324],[-69.4934,19.2502,297.5986],[-69.4922,19.2475,276.6342],[-69.4808,19.2408,254.1878],[-69.4759,19.2322,260.693],[-69.476,19.2255,177.7899],[-69.4814,19.2167,34.3908],[-69.4814,19.2082,3.036],[-69.4693,19.2068,0.0],[-69.461,19.2024,2.3888],[-69.4507,19.2029,2.5148],[-69.4421,19.1999,0.0],[-69.4368,19.1963,7.4487],[-69.4321,19.1899,0.0],[-69.4262,19.1935,0.0],[-69.4163,19.1926,0.7107],[-69.4143,19.1865,0.0],[-69.4071,19.1838,1.8855],[-69.4068,19.1907,7.2525],[-69.4024,19.1949,0.0],[-69.3987,19.1935,0.0],[-69.3932,19.196,4.9261],[-69.3874,19.194,5.8833],[-69.3854,19.1954,0.0],[-69.379,19.1946,1.5658],[-69.369,19.1965,2.9409],[-69.3493,19.1935,0.0],[-69.3432,19.194,22.0342],[-69.341,19.1926,2.263],[-69.3399,19.1965,0.0],[-69.3371,19.1951,0.0],[-69.3349,19.1968,0.0],[-69.3374,19.199,4.9102],[-69.3374,19.201,4.2265],[-69.3321,19.2026,3.4102],[-69.3257,19.201,12.9265],[-69.314,19.1932,0.0],[-69.3115,19.1965,1.1701],[-69.3076,19.1968,6.63],[-69.2993,19.1901,0.0],[-69.2957,19.1946,4.3402],[-69.2937,19.1949,0.0],[-69.2835,19.1896,0.0],[-69.2782,19.184,6.3144],[-69.274,19.1851,0.0],[-69.2712,19.1832,0.0],[-69.2571,19.1838,9.7099],[-69.2562,19.1801,0.0],[-69.2526,19.1824,9.1269],[-69.2476,19.1824,14.9273],[-69.2396,19.1801,0.0],[-69.234,19.1812,2.9143],[-69.2318,19.1793,0.2273],[-69.2207,19.1832,0.0],[-69.2199,19.1865,40.2104],[-69.221,19.1876,62.2083],[-69.2187,19.1876,0.0],[-69.2218,19.191,24.8537],[-69.219,19.1943,0.0],[-69.2182,19.1985,-1.3257],[-69.2151,19.199,0.0],[-69.2162,19.2057,-4.3975],[-69.2146,19.2115,-1.4067],[-69.216,19.2132,-2.5127],[-69.2107,19.2215,0.0],[-69.209,19.2304,0.0],[-69.2076,19.2313,-2.5103],[-69.2085,19.2329,-3.4442],[-69.1968,19.2382,-2.1561],[-69.1915,19.2424,-1.2169],[-69.1901,19.2465,-2.045],[-69.1776,19.2554,-1.4124],[-69.1679,19.2593,0.0],[-69.1624,19.2649,-2.2018],[-69.1604,19.2696,13.4494],[-69.1543,19.2768,0.0],[-69.151,19.2851,-2.5947],[-69.1501,19.2999,-3.4827],[-69.1518,19.3024,0.0],[-69.1621,19.3013,6.3114],[-69.1629,19.3051,2.3367],[-69.1696,19.3049,1.0326],[-69.1724,19.3016,3.6988],[-69.1793,19.2993,0.0],[-69.1804,19.2968,-4.027],[-69.1843,19.2962,-2.46],[-69.1851,19.2932,-4.3185],[-69.1876,19.2935,-3.5792],[-69.1888,19.2954,-2.3581],[-69.1918,19.2924,-3.0833],[-69.1957,19.2924,-0.7891],[-69.206,19.2979,-0.3101],[-69.2076,19.2946,-1.6404],[-69.2112,19.2932,0.0],[-69.2174,19.2871,0.0],[-69.2265,19.2882,-1.9831],[-69.2293,19.2857,-1.0079],[-69.2368,19.2876,0.0],[-69.2401,19.2862,-3.1902],[-69.2496,19.2893,-2.2263],[-69.2549,19.294,-1.7676],[-69.2501,19.3046,6.6365],[-69.2401,19.3174,52.6569],[-69.236,19.326,49.0952],[-69.2349,19.3254,0.0],[-69.2296,19.3329,-2.0113],[-69.2268,19.3338,4.4085],[-69.2204,19.3404,1.6052],[-69.214,19.3546,4.3928],[-69.2162,19.3607,0.0],[-69.2218,19.3593,24.5355],[-69.2246,19.3601,2.7163],[-69.226,19.3576,-2.2924],[-69.2296,19.3626,0.0],[-69.2387,19.3638,0.0],[-69.2424,19.3538,0.0925],[-69.251,19.3418,25.9993],[-69.2546,19.3471,0.0],[-69.2576,19.3454,101.1591],[-69.2604,19.3463,2.012],[-69.2635,19.3418,78.9649],[-69.2679,19.3401,-1.4237],[-69.2679,19.3363,0.1142],[-69.2663,19.3343,9.5481],[-69.2757,19.334,0.0],[-69.2885,19.3307,11.5627],[-69.296,19.3221,0.0],[-69.3057,19.3199,47.919],[-69.3107,19.3132,33.331],[-69.3213,19.3076,0.0],[-69.3257,19.3021,17.9917],[-69.3235,19.2982,46.8754],[-69.3262,19.2918,7.374],[-69.3249,19.2876,8.4382],[-69.3274,19.2838,0.0],[-69.3368,19.284,46.9191],[-69.3388,19.2893,0.0],[-69.3426,19.2879,32.4107],[-69.3457,19.2896,66.3597],[-69.3524,19.2974,51.8316],[-69.354,19.3032,20.4824],[-69.3599,19.3032,6.907],[-69.3632,19.3013,58.5259],[-69.3712,19.3035,0.0],[-69.3743,19.3026,3.8973],[-69.3757,19.306,0.0],[-69.3799,19.3079,47.4835],[-69.3796,19.3115,0.0],[-69.3863,19.3121,0.0],[-69.3882,19.3079,3.3133],[-69.3913,19.3085,2.7638],[-69.4032,19.3171,0.0],[-69.4082,19.3174,0.0],[-69.4118,19.3201,3.9323],[-69.4121,19.3226,0.0],[-69.4176,19.3213,1.2085],[-69.4171,19.3176,0.0],[-69.4262,19.3137,7.8028],[-69.4349,19.319,0.0],[-69.4376,19.3251,2.9133],[-69.4421,19.3265,3.3275],[-69.444,19.3257,0.0],[-69.4457,19.3218,4.8898],[-69.4488,19.3207,0.0],[-69.4515,19.3213,1.809],[-69.4535,19.326,0.0],[-69.4581,19.3252,1.2998],[-69.4698,19.3194,1.855],[-69.4777,19.3132,42.6621],[-69.4852,19.3109,27.7972],[-69.4876,19.3053,85.7209],[-69.4874,19.292,177.6913],[-69.4852,19.2875,177.1611]]],
[[[-69.4226,19.331,0.0],[-69.424,19.3312,0.0],[-69.4246,19.3279,1.2779],[-69.4221,19.3282,0.0],[-69.4226,19.331,0.0]]]]}}