{"type": "Feature","bbox": [-61.0877,14.7266,-61.0157,14.8315],"geometry": {"type": "MultiPolygon","coordinates": [[[[-61.0585,14.7406,484.7904],[-61.0424,14.7916,333.3668],[-61.0157,14.8081,1.8399],[-61.0201,14.8124,0.0],[-61.0196,14.819,0.0],[-61.0246,14.8235,3.5591],[-61.031,14.8235,9.1251],[-61.0285,14.8274,0.0],[-61.0293,14.831,0.0],[-61.0365,14.8301,7.8033],[-61.0385,14.8315,4.1647],[-61.0434,14.8253,8.6578],[-61.0628,14.7679,259.7167],[-61.0628,14.7559,252.7784],[-61.0827,14.7461,334.8362],[-61.0844,14.7423,389.874],[-61.0877,14.74,417.3846],[-61.0813,14.7266,728.2936],[-61.0585,14.7406,484.7904]]]]}
,"properties": {"GID_2": "MTQ.3.6_1","GID_0": "MTQ","country": "Martinique","GID_1": "MTQ.3_1","province": "LeTrinité","NL_NAME_1": "NA","county": "LeMarigot","VARNAME_2": "NA","NL_NAME_2": "NA","TYPE_2": "Commune","ENGTYPE_2": "Commune","CC_2": "NA","HASC_2": "MQ.TR.MG","name": "Le_Marigot.county","area_km2": 21.99695,"hist_schema_id": "Elevation0-9000","hist_area_km2": {"0": 1.00435,"25": 0.90187,"50": 1.35282,"75": 1.49633,"100": 1.16839,"125": 1.31189,"150": 1.5579,"175": 1.43493,"200": 0.77899,"225": 0.94302,"250": 1.06606,"275": 0.90208,"300": 1.14812,"325": 0.90211,"350": 0.96361,"375": 0.86111,"400": 0.84062,"425": 0.51259,"450": 0.5126,"475": 0.53311,"500": 0.36908,"525": 0.20505,"550": 0.30757,"575": 0.24606,"600": 0.20505,"625": 0.16404,"650": 0.10253,"675": 0.06152,"700": 0.08202,"725": 0.02051,"750": 0.04101}}}