{"type": "Feature","bbox": [-70.3763,19.3297,-70.2409,19.557],"geometry": {"type": "MultiPolygon","coordinates": [[[[-70.2409,19.5144,475.45],[-70.2557,19.5144,417.1752],[-70.2673,19.5223,304.8491],[-70.2844,19.5236,178.1274],[-70.2868,19.5266,196.7246],[-70.2907,19.5423,242.7111],[-70.2952,19.5502,210.5837],[-70.3052,19.5563,181.4475],[-70.3129,19.557,95.342],[-70.3175,19.5557,97.5066],[-70.3202,19.5488,135.6109],[-70.3341,19.5442,339.8654],[-70.3374,19.5328,581.8939],[-70.3381,19.5212,589.9205],[-70.3427,19.5101,653.4609],[-70.3466,19.5089,608.3033],[-70.3505,19.5102,614.6321],[-70.3543,19.5186,572.5518],[-70.3639,19.5089,637.8253],[-70.3698,19.4953,631.0403],[-70.3693,19.493,703.5219],[-70.3387,19.4918,726.8116],[-70.3351,19.489,710.8337],[-70.3317,19.4806,662.3021],[-70.3326,19.4702,516.0106],[-70.3477,19.4627,621.6423],[-70.3552,19.4547,757.6691],[-70.3519,19.4388,515.5801],[-70.3439,19.4236,427.7006],[-70.3441,19.4173,547.0829],[-70.3552,19.4154,466.8564],[-70.3612,19.4128,415.2447],[-70.3741,19.4037,322.3241],[-70.3763,19.3997,260.3054],[-70.3759,19.3889,205.4247],[-70.3683,19.3819,186.8083],[-70.3694,19.3751,173.6686],[-70.365,19.37,169.1782],[-70.3559,19.3408,123.061],[-70.3555,19.3342,128.6683],[-70.3525,19.3314,126.5162],[-70.3454,19.3364,127.0208],[-70.339,19.3297,120.7427],[-70.335,19.3299,122.2865],[-70.3282,19.3501,147.8511],[-70.3242,19.3561,158.9499],[-70.3281,19.3661,170.357],[-70.3233,19.3692,177.8918],[-70.3204,19.3737,182.0838],[-70.3192,19.3862,280.9132],[-70.3097,19.3917,430.724],[-70.3008,19.4052,479.9753],[-70.2941,19.4109,399.3403],[-70.2899,19.4187,375.3252],[-70.2792,19.4221,350.0185],[-70.2776,19.4322,340.1767],[-70.2745,19.4361,399.1686],[-70.2661,19.4402,410.9326],[-70.2599,19.4385,431.8427],[-70.2577,19.4394,400.1284],[-70.2577,19.4453,309.6053],[-70.2628,19.4486,319.6013],[-70.2668,19.4485,304.723],[-70.2752,19.4439,330.4819],[-70.2777,19.4452,334.8645],[-70.2796,19.4514,321.8124],[-70.2878,19.4493,338.0419],[-70.292,19.4502,331.4935],[-70.2924,19.4525,353.0116],[-70.2878,19.4581,365.3076],[-70.2871,19.4621,339.9431],[-70.2926,19.4741,336.9029],[-70.2904,19.477,366.6649],[-70.2804,19.4827,344.3889],[-70.2699,19.4777,343.3626],[-70.2576,19.4774,357.4415],[-70.2536,19.4787,389.7363],[-70.2506,19.4879,389.5895],[-70.2442,19.496,441.1684],[-70.2471,19.5034,478.483],[-70.2409,19.5144,475.45]]]]}
,"properties": {"GID_2": "DOM.22.2_1","GID_0": "DOM","country": "DominicanRepublic","GID_1": "DOM.22_1","province": "Salcedo","NL_NAME_1": "NA","county": "Tenares","VARNAME_2": "NA","NL_NAME_2": "NA","TYPE_2": "Municipio","ENGTYPE_2": "Municipality","CC_2": "NA","HASC_2": "DO.SC.TE","name": "Tenares.county","area_km2": 160.6537,"hist_schema_id": "Elevation0-9000","hist_area_km2": {"100": 0.6793,"125": 6.2789,"150": 10.5177,"175": 13.1567,"200": 9.4558,"225": 7.0563,"250": 6.1968,"275": 4.9174,"300": 4.8576,"325": 6.5969,"350": 13.6736,"375": 15.7335,"400": 12.9953,"425": 10.9964,"450": 8.897,"475": 5.8978,"500": 3.2387,"525": 3.0584,"550": 2.039,"575": 1.659,"600": 1.6988,"625": 2.0586,"650": 2.938,"675": 2.8381,"700": 2.2386,"725": 0.7795,"750": 0.1799,"775": 0.02}}}