{"type":"Feature","properties":{"GID_1":"HTI.3_1","GID_0":"HTI","country":"Haiti","province":"L'Artibonite","VARNAME_1":"Artibonite","NL_NAME_1":"NA","TYPE_1":"Département","ENGTYPE_1":"Department","CC_1":"NA","HASC_1":"HT.AR","ISO_1":"NA","name":"L'Artibonite.province"},
"geometry":{"type": "MultiPolygon","coordinates": [[[[-72.2456,18.9115,73.0882],[-72.2408,18.9165,66.1939],[-72.2439,18.9181,65.6906],[-72.2428,18.9244,222.4151],[-72.2375,18.9324,384.5754],[-72.2377,18.9379,437.8183],[-72.2268,18.9482,193.6035],[-72.2249,18.9563,236.8208],[-72.2367,18.9668,257.3436],[-72.2382,18.9702,324.186],[-72.241,18.985,568.8873],[-72.237,18.993,540.8298],[-72.2378,19.002,478.0214],[-72.2445,19.0104,734.866],[-72.2445,19.0172,1003.5806],[-72.2479,19.0227,806.864],[-72.2484,19.0291,940.8646],[-72.2454,19.033,907.7934],[-72.2385,19.0367,933.16],[-72.2414,19.0434,916.2032],[-72.2401,19.0497,1089.7205],[-72.2325,19.0558,1261.7169],[-72.2297,19.0607,1455.3091],[-72.2274,19.0705,1417.6058],[-72.2218,19.0803,1161.0626],[-72.2217,19.0833,1139.1475],[-72.2385,19.0998,1058.5968],[-72.2406,19.1156,656.2697],[-72.2394,19.1179,609.8057],[-72.2208,19.1271,464.2905],[-72.2196,19.1309,502.7168],[-72.2312,19.1419,720.7504],[-72.2425,19.1561,537.8043],[-72.255,19.161,399.022],[-72.2544,19.1669,342.4552],[-72.2603,19.1766,399.2403],[-72.2609,19.1876,397.3813],[-72.2643,19.1916,410.2422],[-72.2633,19.1953,374.0767],[-72.2579,19.2023,347.4008],[-72.2575,19.2066,347.9509],[-72.2657,19.216,351.4371],[-72.2616,19.2186,328.2475],[-72.2562,19.2274,320.6881],[-72.2488,19.2314,300.7162],[-72.2417,19.2321,292.456],[-72.2391,19.2518,320.7842],[-72.242,19.2593,319.1192],[-72.242,19.2647,339.0041],[-72.2333,19.274,340.7512],[-72.2266,19.2748,333.7155],[-72.2208,19.281,338.1042],[-72.2179,19.2868,351.9695],[-72.2033,19.2984,352.5571],[-72.2007,19.3113,338.7697],[-72.206,19.3151,339.6081],[-72.2084,19.319,345.3045],[-72.2239,19.325,361.6633],[-72.2255,19.3276,363.7639],[-72.2243,19.3384,364.9454],[-72.2307,19.3433,375.5261],[-72.2277,19.3439,374.2362],[-72.2333,19.3583,389.2884],[-72.2303,19.3637,389.5883],[-72.2323,19.369,406.6003],[-72.2364,19.373,418.8854],[-72.2415,19.3746,433.7637],[-72.2486,19.3845,498.5009],[-72.2443,19.3864,495.7994],[-72.2426,19.3855,489.7761],[-72.2422,19.3875,508.5589],[-72.2405,19.3878,508.5589],[-72.2288,19.3841,483.429],[-72.2314,19.3915,629.4399],[-72.2293,19.4,663.8788],[-72.2315,19.4072,734.946],[-72.2311,19.4171,720.9031],[-72.223,19.4155,533.7089],[-72.2241,19.4177,625.8926],[-72.2229,19.4191,585.9904],[-72.2299,19.4261,733.4584],[-72.2297,19.4299,689.2186],[-72.2269,19.4331,682.2286],[-72.2501,19.4443,793.1672],[-72.2519,19.4534,815.5338],[-72.257,19.456,929.222],[-72.2536,19.4716,1023.441],[-72.2495,19.4769,1029.4791],[-72.2607,19.4758,1033.7133],[-72.2654,19.4706,1051.5137],[-72.2732,19.4697,963.5215],[-72.2756,19.4639,991.3008],[-72.2821,19.4672,866.6036],[-72.2882,19.4677,881.0596],[-72.3068,19.4654,594.3735],[-72.3204,19.4597,580.7158],[-72.3288,19.4629,590.4155],[-72.3272,19.4702,630.8562],[-72.3231,19.4773,774.4343],[-72.3222,19.4767,765.5353],[-72.3209,19.4856,878.1571],[-72.3187,19.4872,895.7003],[-72.3254,19.4896,1017.6572],[-72.326,19.5004,905.6848],[-72.3316,19.5054,870.92],[-72.3271,19.5104,685.5735],[-72.3221,19.5109,597.5599],[-72.3254,19.5265,703.8717],[-72.328,19.5275,799.0345],[-72.3312,19.5324,781.7664],[-72.325,19.5394,574.3357],[-72.3253,19.5433,638.8629],[-72.3232,19.5448,648.1724],[-72.323,19.5542,844.6874],[-72.3191,19.5586,931.5298],[-72.3225,19.5613,849.004],[-72.3246,19.5699,834.3412],[-72.3278,19.572,862.7229],[-72.3348,19.5706,726.8177],[-72.347,19.5737,677.6996],[-72.359,19.5726,700.6667],[-72.3649,19.5653,562.9202],[-72.3666,19.566,505.3906],[-72.3647,19.575,556.0079],[-72.3663,19.5764,566.8983],[-72.3619,19.5783,675.2247],[-72.3592,19.5817,806.0685],[-72.3591,19.5855,854.6483],[-72.3629,19.5878,792.7656],[-72.3652,19.5918,775.7844],[-72.3745,19.5901,834.2991],[-72.3774,19.5883,736.4026],[-72.3786,19.5853,815.0162],[-72.3812,19.5854,872.6995],[-72.39,19.5739,705.847],[-72.3913,19.5707,625.9139],[-72.3902,19.566,427.691],[-72.3932,19.5621,420.2741],[-72.4001,19.5639,374.271],[-72.4039,19.5692,383.6911],[-72.4084,19.5676,338.6413],[-72.4093,19.5708,365.669],[-72.4118,19.5713,316.9162],[-72.4231,19.5652,600.8245],[-72.4248,19.5588,618.8215],[-72.415,19.545,620.0725],[-72.4247,19.5297,963.8706],[-72.4332,19.5252,992.4704],[-72.44,19.528,1032.0116],[-72.4419,19.5227,1014.9863],[-72.4472,19.5213,991.9094],[-72.4553,19.5223,957.4344],[-72.4624,19.5263,899.8936],[-72.4881,19.5468,824.6028],[-72.4934,19.5556,798.0511],[-72.5005,19.5605,822.6432],[-72.5073,19.5621,713.8955],[-72.5211,19.5711,895.5985],[-72.523,19.5741,905.8359],[-72.5152,19.5818,621.8318],[-72.5213,19.5814,670.7755],[-72.5257,19.5781,925.1108],[-72.5359,19.5825,868.4775],[-72.5424,19.5887,894.9619],[-72.5415,19.5987,1001.8698],[-72.5651,19.6264,887.3674],[-72.5691,19.6338,823.2014],[-72.5718,19.6523,666.8375],[-72.5761,19.6572,657.5388],[-72.5738,19.6733,283.1454],[-72.5771,19.6751,262.5065],[-72.5831,19.6747,253.1515],[-72.5895,19.6797,457.6347],[-72.5985,19.6816,517.066],[-72.6095,19.6914,648.933],[-72.6143,19.6933,618.6494],[-72.6158,19.6975,643.6617],[-72.6117,19.7013,665.1011],[-72.6102,19.7004,645.9075],[-72.5992,19.7144,810.996],[-72.5977,19.7143,876.9529],[-72.5981,19.7241,979.1169],[-72.6088,19.7516,991.707],[-72.6143,19.7567,1061.6018],[-72.6234,19.7569,876.6058],[-72.6257,19.7523,899.7123],[-72.6246,19.7481,758.0281],[-72.6288,19.7423,766.7925],[-72.6311,19.7416,647.7581],[-72.6379,19.7444,914.255],[-72.6466,19.7452,1013.6395],[-72.6482,19.7615,826.4982],[-72.6471,19.7643,803.7467],[-72.6412,19.7678,1019.0398],[-72.6405,19.7716,1039.0142],[-72.6374,19.7737,830.0851],[-72.6432,19.7854,725.5643],[-72.6563,19.7856,941.6898],[-72.6533,19.7766,951.537],[-72.6683,19.7762,561.1294],[-72.6736,19.7786,536.6039],[-72.6814,19.8037,793.076],[-72.678,19.8088,609.5681],[-72.6895,19.8085,751.6467],[-72.6993,19.8156,742.0538],[-72.7122,19.8116,703.1588],[-72.7197,19.8119,520.7257],[-72.7246,19.8095,463.3267],[-72.7277,19.8057,428.3],[-72.7289,19.7994,367.0851],[-72.7339,19.7939,288.2426],[-72.7393,19.7907,308.7031],[-72.7394,19.786,309.6814],[-72.7426,19.7835,261.3853],[-72.7485,19.7829,290.1839],[-72.7568,19.7858,338.6726],[-72.7592,19.7885,372.4062],[-72.7652,19.7883,467.476],[-72.7754,19.7808,382.7886],[-72.784,19.7714,176.1304],[-72.7972,19.7643,129.5922],[-72.8069,19.7569,187.3241],[-72.8104,19.7519,198.8596],[-72.8116,19.7456,211.2473],[-72.8109,19.7394,232.5569],[-72.8122,19.7379,258.5208],[-72.8186,19.7346,396.8427],[-72.8244,19.7344,501.9804],[-72.8284,19.7314,484.8317],[-72.8353,19.7319,651.236],[-72.8384,19.7298,661.1903],[-72.8377,19.7209,573.7312],[-72.8402,19.7162,568.8964],[-72.8466,19.7132,723.3065],[-72.8581,19.7128,546.2822],[-72.8774,19.709,628.9814],[-72.8949,19.7103,673.4958],[-72.8971,19.7139,531.1642],[-72.9249,19.7176,586.8705],[-72.9244,19.7259,559.0342],[-72.9274,19.7292,553.4246],[-72.9375,19.7257,640.7902],[-72.9467,19.7262,738.6139],[-72.953,19.7247,763.6663],[-72.9613,19.7283,749.1774],[-72.9672,19.7283,638.2772],[-72.9785,19.7224,494.7899],[-72.9832,19.7236,381.2553],[-72.9922,19.7223,250.4468],[-73.0083,19.7274,179.7359],[-73.0109,19.7308,168.4956],[-73.0267,19.7328,114.0947],[-73.0328,19.7379,141.7893],[-73.0374,19.7395,169.4479],[-73.0529,19.7418,357.4452],[-73.0615,19.7387,339.8846],[-73.07,19.7312,297.2067],[-73.0735,19.7329,308.2199],[-73.08,19.7311,276.5549],[-73.0871,19.7144,178.2784],[-73.1032,19.7057,147.036],[-73.1056,19.7025,145.7719],[-73.1017,19.6994,135.3788],[-73.1037,19.6963,138.8099],[-73.1071,19.6966,129.6395],[-73.116,19.703,165.1453],[-73.1206,19.702,172.1724],[-73.1222,19.6923,155.534],[-73.1184,19.6897,145.7072],[-73.1177,19.6872,143.8288],[-73.1191,19.6845,129.4327],[-73.1174,19.6809,134.5649],[-73.1184,19.6763,155.9216],[-73.1289,19.6566,10.8708],[-73.1306,19.6507,16.7944],[-73.1363,19.6436,65.955],[-73.1362,19.6404,75.6131],[-73.1314,19.6381,53.2148],[-73.1282,19.6333,21.6357],[-73.122,19.6318,0.0],[-73.1232,19.6274,1.6797],[-73.1215,19.6293,0.0],[-73.1218,19.6321,0.6293],[-73.1174,19.6376,1.6118],[-73.116,19.6368,0.0],[-73.114,19.639,0.5993],[-73.1032,19.6418,0.0],[-73.0535,19.6301,0.0],[-73.0462,19.6232,0.0],[-73.0446,19.6232,1.2677],[-73.0443,19.6215,0.0],[-73.0382,19.619,0.4596],[-73.0374,19.6162,0.0],[-73.0304,19.614,0.0],[-73.0229,19.6085,0.0],[-73.0143,19.609,0.6488],[-73.016,19.6074,0.0],[-73.0154,19.6054,0.0],[-73.0035,19.604,0.2319],[-73.0001,19.6065,0.0],[-72.9996,19.6107,0.528],[-72.9943,19.6135,0.2165],[-72.9918,19.611,0.0],[-72.9976,19.6046,0.1338],[-72.9979,19.6013,0.3071],[-72.9918,19.5957,0.0],[-72.986,19.5943,0.3316],[-72.9847,19.5913,0.3615],[-72.9817,19.5901,0.0],[-72.9801,19.5902,0.0],[-72.9796,19.5949,0.2996],[-72.9779,19.5946,0.3352],[-72.9788,19.5868,0.3647],[-72.9676,19.5796,0.2227],[-72.9636,19.5796,0.7622],[-72.9629,19.5754,0.0],[-72.9574,19.575,0.0],[-72.9563,19.5732,0.0],[-72.9514,19.5729,0.2481],[-72.9467,19.5696,0.0],[-72.9209,19.562,0.5077],[-72.8964,19.5499,0.2899],[-72.8904,19.544,0.3987],[-72.8874,19.5449,0.0],[-72.8876,19.5415,0.0],[-72.886,19.5407,3.5652],[-72.8812,19.5424,2.5984],[-72.8651,19.5385,0.0],[-72.8565,19.5324,0.2255],[-72.8485,19.531,2.4228],[-72.841,19.5243,8.0216],[-72.8388,19.5201,0.0],[-72.8324,19.5154,0.0],[-72.8196,19.5128,0.7309],[-72.8179,19.5101,0.0],[-72.8037,19.4999,0.9257],[-72.7949,19.4882,0.2103],[-72.7826,19.476,0.5622],[-72.7764,19.4662,3.7147],[-72.7712,19.4535,0.0],[-72.7621,19.4521,47.3872],[-72.759,19.4479,0.0],[-72.7446,19.4448,0.0],[-72.7395,19.447,0.0],[-72.7318,19.4473,0.0243],[-72.731,19.4534,2.6394],[-72.7265,19.4546,0.0],[-72.7243,19.4576,1.3732],[-72.7185,19.4551,0.2808],[-72.7204,19.4532,0.0],[-72.7221,19.4557,0.0],[-72.7226,19.4521,0.057],[-72.7174,19.4524,13.6765],[-72.716,19.4494,0.0],[-72.7143,19.4493,0.0],[-72.7092,19.454,0.0],[-72.7129,19.4529,0.1166],[-72.714,19.4545,10.1534],[-72.7057,19.4584,0.137],[-72.6974,19.4571,0.4421],[-72.6974,19.4555,0.2938],[-72.7033,19.455,0.0],[-72.697,19.4518,0.0],[-72.6988,19.4471,0.0],[-72.6982,19.4427,0.0207],[-72.7004,19.4415,-0.092],[-72.7004,19.4278,0.2599],[-72.6946,19.4254,0.0459],[-72.689,19.4194,0.0],[-72.6893,19.4166,0.0],[-72.6857,19.4159,0.1203],[-72.6821,19.4119,0.3091],[-72.6837,19.4045,0.5699],[-72.696,19.399,0.0],[-72.6985,19.3958,0.0608],[-72.7028,19.394,0.0],[-72.7104,19.4016,0.0],[-72.7047,19.4071,0.0],[-72.7043,19.4104,0.0],[-72.7143,19.4128,0.0],[-72.7174,19.4151,0.0],[-72.7135,19.4238,0.1405],[-72.7172,19.4311,0.0],[-72.7196,19.4307,0.0],[-72.7237,19.4271,0.0345],[-72.7265,19.421,0.0491],[-72.7265,19.415,0.0618],[-72.7304,19.4032,0.0],[-72.7126,19.3935,0.0],[-72.7134,19.3908,0.0336],[-72.7113,19.3863,0.0227],[-72.7143,19.3843,0.0],[-72.7165,19.3793,0.0592],[-72.7182,19.3799,0.0697],[-72.7204,19.3776,0.0],[-72.7243,19.371,0.0],[-72.7238,19.3683,-0.0066],[-72.7262,19.3693,0.0],[-72.7307,19.3652,-0.0142],[-72.7335,19.3651,0.0104],[-72.7337,19.3635,0.0079],[-72.7354,19.3646,0.0],[-72.7374,19.3635,-0.1167],[-72.7461,19.3721,0.0],[-72.7474,19.3751,-0.0255],[-72.7585,19.3763,0.0],[-72.7651,19.3727,0.0],[-72.7688,19.3679,0.0],[-72.7724,19.3565,0.0],[-72.7736,19.3457,0.0],[-72.7693,19.3396,0.0],[-72.7671,19.3299,0.0],[-72.7649,19.3296,0.0441],[-72.7643,19.3332,0.1243],[-72.7696,19.3418,0.0],[-72.7643,19.3407,-0.0803],[-72.7604,19.3438,-0.0274],[-72.7615,19.3299,0.0175],[-72.7571,19.3299,-0.0039],[-72.7585,19.3271,0.0301],[-72.7546,19.3246,0.0],[-72.7504,19.3249,0.0349],[-72.7476,19.3212,0.0],[-72.7448,19.3245,0.1278],[-72.7283,19.3254,0.0],[-72.7259,19.3183,0.0428],[-72.7326,19.311,0.0],[-72.7282,19.3088,0.186],[-72.7267,19.3055,0.1352],[-72.7279,19.3054,0.5808],[-72.7279,19.3078,0.0],[-72.7293,19.3063,0.3409],[-72.7337,19.3071,0.0],[-72.7312,19.3041,0.5525],[-72.7355,19.2976,0.5588],[-72.7326,19.2957,0.7238],[-72.7296,19.3007,0.533],[-72.7268,19.3014,0.0],[-72.7257,19.3035,0.2877],[-72.7255,19.3024,0.2877],[-72.7268,19.3009,0.0],[-72.726,19.3,0.0],[-72.7226,19.3009,0.0],[-72.724,19.3033,0.2877],[-72.7168,19.2988,0.5804],[-72.7162,19.2929,0.2964],[-72.7204,19.286,0.0],[-72.7262,19.2832,0.3842],[-72.7319,19.2872,0.0],[-72.7315,19.2928,0.1205],[-72.7354,19.294,0.0],[-72.7396,19.2899,0.0],[-72.7385,19.2879,0.0],[-72.7408,19.2823,0.0],[-72.7471,19.2779,0.1377],[-72.7664,19.2843,0.0],[-72.7705,19.2847,0.0964],[-72.7735,19.2828,0.0],[-72.7746,19.2789,0.0],[-72.7734,19.2763,0.0],[-72.7705,19.2798,0.4135],[-72.7671,19.2764,0.0],[-72.7667,19.2729,0.3304],[-72.7699,19.2676,0.6332],[-72.7726,19.2674,0.0611],[-72.774,19.2701,0.168],[-72.7732,19.2745,0.1703],[-72.7709,19.2769,0.0],[-72.7744,19.2748,0.1703],[-72.7756,19.2438,0.0],[-72.7794,19.2379,0.1247],[-72.7845,19.2375,0.0],[-72.7862,19.2337,0.0],[-72.7849,19.2313,0.0],[-72.7762,19.2263,0.0],[-72.7735,19.2301,0.5971],[-72.7737,19.233,1.3862],[-72.7704,19.2399,0.0],[-72.7635,19.2415,0.5152],[-72.7596,19.2379,0.8774],[-72.7571,19.2379,1.2052],[-72.7529,19.2326,0.8366],[-72.7578,19.231,0.913],[-72.7674,19.2321,0.0],[-72.7704,19.2301,1.583],[-72.7746,19.2229,1.3567],[-72.7793,19.2207,0.8537],[-72.7799,19.2253,0.1975],[-72.783,19.2201,0.5451],[-72.7866,19.2191,0.0],[-72.7906,19.2196,2.8695],[-72.7954,19.2232,5.5356],[-72.7999,19.2215,0.0],[-72.7932,19.2149,3.6483],[-72.7938,19.211,0.0],[-72.7904,19.2096,0.0],[-72.7904,19.2065,0.0],[-72.7859,19.2063,0.0],[-72.7822,19.2023,0.6005],[-72.7825,19.2001,0.0],[-72.7774,19.1964,0.0],[-72.7764,19.1915,0.0],[-72.7718,19.1863,0.0],[-72.7646,19.171,6.5135],[-72.7651,19.1688,0.0],[-72.761,19.1632,0.0],[-72.7577,19.1618,0.0],[-72.7443,19.1482,4.3638],[-72.7304,19.1413,0.0],[-72.7229,19.1401,0.0],[-72.7149,19.1357,15.3852],[-72.7112,19.1354,6.9748],[-72.701,19.1285,49.3121],[-72.6999,19.1193,3.0691],[-72.7038,19.1099,0.0],[-72.7029,19.1079,2.0038],[-72.7065,19.1015,2.9889],[-72.7128,19.096,0.8235],[-72.7207,19.0943,0.0],[-72.7296,19.0885,49.9434],[-72.7515,19.0893,0.0],[-72.7596,19.0932,1.1241],[-72.7693,19.0938,0.0],[-72.7796,19.0912,1.3264],[-72.7876,19.0865,9.9197],[-72.7921,19.0862,0.0],[-72.8043,19.0815,2.1553],[-72.8121,19.0774,0.4678],[-72.8179,19.0718,2.9669],[-72.8215,19.0674,0.3088],[-72.8246,19.0587,0.0],[-72.8213,19.0432,0.0],[-72.8115,19.0307,3.9468],[-72.8032,19.0279,0.0],[-72.7988,19.0282,0.0],[-72.7921,19.0243,0.0],[-72.7796,19.0203,0.0],[-72.7757,19.0171,0.0],[-72.7629,19.0135,0.0],[-72.7593,19.0068,0.0],[-72.7465,18.9977,0.0],[-72.7426,18.9926,0.6963],[-72.7387,18.9912,0.0],[-72.7379,18.9835,0.0],[-72.736,18.9826,10.1798],[-72.7291,18.9718,0.0],[-72.7299,18.9646,1.5267],[-72.7274,18.9532,1.4518],[-72.7151,18.949,7.6064],[-72.71,18.9422,2.6625],[-72.7082,18.948,15.7021],[-72.7058,18.949,21.6793],[-72.7051,18.9522,30.9459],[-72.6998,18.956,50.0906],[-72.6993,18.9584,50.4989],[-72.6918,18.9626,77.1884],[-72.6886,18.967,93.9957],[-72.6845,18.9674,121.2109],[-72.6816,18.973,111.5431],[-72.6787,18.9739,153.8887],[-72.6771,18.9724,124.6131],[-72.6786,18.9685,192.1972],[-72.6706,18.9685,166.0016],[-72.6643,18.9721,186.6201],[-72.6611,18.9679,192.0171],[-72.6576,18.9673,205.3946],[-72.6538,18.9711,298.0212],[-72.65,18.9722,319.3486],[-72.6462,18.9728,227.5593],[-72.638,18.9708,236.785],[-72.6351,18.9733,268.0446],[-72.6354,18.9759,379.5902],[-72.6334,18.976,282.7138],[-72.6318,18.9729,308.0877],[-72.6282,18.9771,401.3297],[-72.627,18.9726,344.6161],[-72.6233,18.9728,342.1749],[-72.6232,18.9707,368.2732],[-72.6198,18.9711,370.1681],[-72.6173,18.9762,384.0197],[-72.6081,18.9744,374.1206],[-72.6034,18.9752,382.5442],[-72.6009,18.9729,387.566],[-72.6016,18.972,425.0554],[-72.5981,18.9715,412.674],[-72.5941,18.9737,404.4617],[-72.5803,18.9685,454.995],[-72.5727,18.9692,483.8256],[-72.5661,18.9648,487.7162],[-72.5585,18.9649,515.6183],[-72.5546,18.9614,534.0598],[-72.5413,18.9616,565.5189],[-72.5365,18.9572,600.397],[-72.5308,18.9595,696.5717],[-72.5252,18.9577,744.9179],[-72.521,18.9584,770.0098],[-72.5182,18.9558,777.5675],[-72.5145,18.9553,701.3525],[-72.509,18.9595,794.5281],[-72.5038,18.9577,790.0059],[-72.4957,18.9588,1119.585],[-72.467,18.9257,1178.6306],[-72.4644,18.9251,1177.5597],[-72.4624,18.9276,1281.2445],[-72.4595,18.9272,1257.7874],[-72.4568,18.9208,1152.2047],[-72.4549,18.9197,1205.1427],[-72.443,18.9239,1216.448],[-72.4356,18.9234,1194.3202],[-72.4371,18.9202,1311.3826],[-72.4285,18.9172,1275.3833],[-72.4281,18.9147,1333.0597],[-72.4234,18.9116,1337.0308],[-72.4204,18.9126,1207.5756],[-72.4148,18.9035,1262.3931],[-72.406,18.9011,1327.8846],[-72.4039,18.9018,1277.9423],[-72.3968,18.8942,1370.2891],[-72.3922,18.8931,1216.259],[-72.3873,18.885,1334.661],[-72.3781,18.8764,1206.0597],[-72.3748,18.8751,1133.9709],[-72.3695,18.8683,1139.9292],[-72.3647,18.8658,1038.418],[-72.3598,18.8693,1105.5631],[-72.3523,18.8696,850.1206],[-72.3446,18.8661,735.8349],[-72.3415,18.8673,685.8732],[-72.3324,18.8631,649.452],[-72.325,18.8627,635.063],[-72.3154,18.858,602.174],[-72.3109,18.8591,623.9383],[-72.305,18.8636,774.7075],[-72.3009,18.8637,840.4309],[-72.2892,18.8637,876.9762],[-72.2788,18.86,963.3231],[-72.2646,18.8619,702.2553],[-72.2568,18.8572,633.0061],[-72.2533,18.858,663.7499],[-72.2468,18.8717,448.1373],[-72.2481,18.8807,307.7205],[-72.2436,18.8996,121.0932],[-72.2449,18.903,91.8863],[-72.2498,18.9076,67.8734],[-72.2456,18.9115,73.0882]]],
[[[-72.7369,19.3151,0.1746],[-72.7387,19.3177,0.0],[-72.7396,19.3057,0.0],[-72.7379,19.3057,0.0],[-72.739,19.3085,0.0],[-72.7363,19.3118,0.2413],[-72.7369,19.3151,0.1746]]],
[[[-73.1235,19.6269,0.2616],[-73.1237,19.6265,0.2616],[-73.1232,19.6268,0.2616],[-73.1232,19.6274,1.6797],[-73.1234,19.6271,1.6797],[-73.1235,19.6269,0.2616]]]]}}