{"type": "Feature","bbox": [-71.8865,19.0556,-71.6181,19.2834],"geometry": {"type": "MultiPolygon","coordinates": [[[[-71.6932,19.0922,328.35],[-71.6925,19.0949,427.0104],[-71.6952,19.1003,281.7697],[-71.6999,19.1015,277.4875],[-71.7027,19.1042,265.5879],[-71.7012,19.1074,268.1301],[-71.697,19.1086,265.6226],[-71.6849,19.103,306.5446],[-71.6823,19.1076,323.6047],[-71.6799,19.107,308.8308],[-71.6772,19.1117,336.0482],[-71.6792,19.1136,367.8613],[-71.673,19.1128,331.8584],[-71.6706,19.1174,347.2122],[-71.6631,19.1129,340.5969],[-71.6557,19.1173,347.4854],[-71.6543,19.1155,346.3958],[-71.6512,19.1227,364.8056],[-71.6501,19.1203,361.102],[-71.6502,19.1238,372.9956],[-71.647,19.1257,379.6385],[-71.6443,19.1304,365.562],[-71.6455,19.1311,384.7665],[-71.6435,19.1331,394.3794],[-71.6443,19.1358,391.2811],[-71.6423,19.137,393.9634],[-71.6416,19.1405,414.1172],[-71.6502,19.1444,485.9445],[-71.6502,19.1463,539.5546],[-71.6529,19.1482,544.6925],[-71.649,19.1471,612.3937],[-71.6416,19.1498,553.9355],[-71.6416,19.151,450.239],[-71.6376,19.1498,347.3647],[-71.6361,19.1518,490.382],[-71.6433,19.1582,554.0358],[-71.6396,19.1591,358.0893],[-71.6416,19.1603,517.8572],[-71.6416,19.1623,458.8525],[-71.6396,19.1611,384.9204],[-71.6388,19.1623,356.2324],[-71.6396,19.1669,481.0183],[-71.6416,19.1669,495.9631],[-71.6413,19.1682,577.3107],[-71.6361,19.1667,541.2592],[-71.6365,19.1688,599.2025],[-71.6337,19.1689,578.0894],[-71.6377,19.1731,570.6044],[-71.6322,19.1716,427.8871],[-71.6322,19.1743,422.4384],[-71.6302,19.1732,404.9749],[-71.6295,19.1743,367.7639],[-71.635,19.1778,478.8871],[-71.635,19.1798,519.1777],[-71.6436,19.1817,641.9295],[-71.6397,19.1825,708.8434],[-71.6408,19.1856,786.5544],[-71.6342,19.1836,574.5321],[-71.6314,19.1883,565.46],[-71.6314,19.1872,565.46],[-71.6283,19.1872,478.9933],[-71.6275,19.1883,478.9933],[-71.6267,19.1864,532.5118],[-71.6236,19.1872,394.0704],[-71.6248,19.1872,394.0704],[-71.6248,19.1891,372.8935],[-71.6228,19.1911,468.8945],[-71.6256,19.1918,391.8892],[-71.6267,19.1949,445.174],[-71.6295,19.193,391.5001],[-71.635,19.1976,444.0972],[-71.633,19.1984,415.1483],[-71.633,19.2004,423.6587],[-71.635,19.2011,456.4371],[-71.6342,19.205,490.7033],[-71.633,19.205,471.3174],[-71.6342,19.207,496.9348],[-71.6315,19.2078,458.4204],[-71.6315,19.2097,505.5612],[-71.6236,19.2117,399.9577],[-71.6236,19.2097,448.1711],[-71.6209,19.2078,466.3336],[-71.6201,19.2117,389.5439],[-71.6189,19.2105,389.5439],[-71.6181,19.2117,448.1386],[-71.6221,19.2136,438.174],[-71.6229,19.2124,433.5198],[-71.6229,19.2144,439.4734],[-71.6295,19.2124,418.7154],[-71.6248,19.2163,450.8611],[-71.6303,19.2218,453.093],[-71.6331,19.2291,419.0742],[-71.6323,19.2303,419.0742],[-71.635,19.2291,399.3464],[-71.635,19.2311,408.5609],[-71.637,19.2291,448.166],[-71.6351,19.2329,408.8178],[-71.6362,19.235,422.6342],[-71.6378,19.2338,444.4206],[-71.6378,19.235,444.4206],[-71.6398,19.2338,440.3174],[-71.6409,19.2349,440.3174],[-71.6417,19.233,415.1351],[-71.6456,19.2349,405.8403],[-71.6472,19.2338,405.8403],[-71.6606,19.2349,445.5286],[-71.6613,19.2337,487.947],[-71.6653,19.2396,434.9917],[-71.6672,19.2376,447.6111],[-71.668,19.2403,443.9886],[-71.6739,19.2403,424.2395],[-71.6747,19.2368,427.7964],[-71.6774,19.2415,440.0875],[-71.6821,19.2415,438.3289],[-71.6794,19.243,456.3392],[-71.6821,19.2442,469.6034],[-71.6868,19.243,457.7571],[-71.6888,19.2469,464.1407],[-71.6935,19.245,467.2346],[-71.6943,19.2488,501.4559],[-71.6975,19.2496,491.0956],[-71.7049,19.257,484.9562],[-71.703,19.2617,536.0748],[-71.7049,19.2648,535.5625],[-71.7085,19.2655,500.547],[-71.7132,19.2721,570.5851],[-71.7151,19.271,565.8232],[-71.721,19.2721,507.7831],[-71.7191,19.2756,546.0088],[-71.7199,19.2803,533.4589],[-71.7218,19.2822,571.1141],[-71.7246,19.2814,522.6943],[-71.7246,19.2776,490.8728],[-71.7265,19.2768,513.1166],[-71.7273,19.2721,526.6542],[-71.7285,19.2721,504.0906],[-71.7273,19.2663,556.2704],[-71.7352,19.2729,551.0553],[-71.736,19.2834,598.9302],[-71.7367,19.2814,572.6389],[-71.7454,19.2787,546.472],[-71.7446,19.2814,559.6759],[-71.7479,19.2833,587.9888],[-71.7592,19.2754,580.3648],[-71.7648,19.2763,583.7099],[-71.7698,19.2723,639.2096],[-71.7722,19.2674,752.8939],[-71.7761,19.2671,806.4848],[-71.7735,19.2611,808.3886],[-71.7747,19.2593,804.1079],[-71.7843,19.2618,766.2311],[-71.7986,19.2605,731.3513],[-71.8092,19.2647,807.5363],[-71.8284,19.2641,584.6179],[-71.8463,19.2664,702.4207],[-71.8539,19.2698,957.3691],[-71.8546,19.2611,948.1866],[-71.8607,19.2449,797.6447],[-71.8847,19.222,875.4044],[-71.8849,19.2194,838.1942],[-71.8776,19.2102,820.0319],[-71.8778,19.2082,791.0077],[-71.8834,19.2075,795.397],[-71.8865,19.2022,768.4324],[-71.8832,19.2001,761.6037],[-71.877,19.1899,656.3616],[-71.8749,19.1878,671.3973],[-71.87,19.1889,714.8495],[-71.8696,19.1874,718.4886],[-71.8656,19.1866,698.7161],[-71.8572,19.1901,786.6971],[-71.8532,19.1886,871.8184],[-71.8276,19.1588,690.5217],[-71.8145,19.1528,565.0741],[-71.808,19.1516,572.1143],[-71.8018,19.1448,404.2233],[-71.8118,19.134,336.9604],[-71.8114,19.1324,330.7133],[-71.7981,19.1304,317.3104],[-71.789,19.1308,337.7501],[-71.7828,19.1271,339.4921],[-71.7801,19.1235,336.5468],[-71.7777,19.1226,337.0822],[-71.7715,19.1245,337.1724],[-71.7685,19.123,330.7383],[-71.7682,19.1185,343.6649],[-71.7638,19.1118,321.6351],[-71.753,19.1077,317.6925],[-71.7487,19.1005,311.3909],[-71.7417,19.0969,288.4275],[-71.7398,19.0807,254.5847],[-71.7332,19.0708,266.8953],[-71.728,19.0681,310.7056],[-71.7285,19.0589,293.975],[-71.7255,19.0556,257.2882],[-71.7184,19.0586,262.3953],[-71.7167,19.06,236.7494],[-71.7172,19.0632,240.5569],[-71.716,19.0642,249.5565],[-71.714,19.063,261.6102],[-71.712,19.065,263.1613],[-71.712,19.0677,261.1582],[-71.7168,19.0688,243.7747],[-71.7162,19.0711,265.3097],[-71.7112,19.0706,253.1959],[-71.7101,19.0672,244.1496],[-71.7018,19.0731,249.465],[-71.6971,19.079,276.5656],[-71.6987,19.0809,281.6179],[-71.7046,19.0809,277.1666],[-71.7081,19.0828,264.6302],[-71.7074,19.0891,261.0519],[-71.7054,19.0902,272.038],[-71.698,19.0891,255.5255],[-71.6932,19.0922,328.35]]]]}
,"properties": {"GID_3": "HTI.1.1.1_1","GID_0": "HTI","country": "Haiti","GID_1": "HTI.1_1","province": "Centre","NL_NAME_1": "NA","GID_2": "HTI.1.1_1","county": "CercaLaSource","NL_NAME_2": "NA","city": "CercaLaSource","VARNAME_3": "NA","NL_NAME_3": "NA","TYPE_3": "Commune","ENGTYPE_3": "Commune","CC_3": "NA","HASC_3": "NA","name": "Cerca_La_Source.city","area_km2": 377.8992,"hist_schema_id": "Elevation0-9000","hist_area_km2": {"225": 0.02,"250": 2.6449,"275": 6.9726,"300": 11.6801,"325": 15.1045,"350": 19.59,"375": 20.0697,"400": 17.8455,"425": 16.442,"450": 17.7219,"475": 19.5822,"500": 21.0229,"525": 21.5221,"550": 21.3016,"575": 18.4991,"600": 18.0986,"625": 16.8575,"650": 15.2761,"675": 13.7345,"700": 11.8126,"725": 10.4914,"750": 10.5114,"775": 9.4502,"800": 7.0077,"825": 5.7064,"850": 5.1258,"875": 4.3049,"900": 4.2248,"925": 3.2036,"950": 2.8033,"975": 2.4229,"1000": 1.9022,"1025": 1.1814,"1050": 0.7809,"1075": 0.821,"1100": 0.6608,"1125": 0.5607,"1150": 0.5607,"1175": 0.3404,"1200": 0.04}}}