{"type":"Feature","properties":{"ISO3166-1-Alpha-3":"CUB","country":"Cuba","fill":"#FF0","id":"1367","name":"Holguín"},
"geometry":{"type": "MultiPolygon","coordinates": [[[[-75.48571,20.74982,6.4521],[-75.49376,20.76105,4.3045],[-75.50817,20.78657,0.0],[-75.51708,20.79426,0.0],[-75.52916,20.7958,0.0],[-75.57848,20.78742,0.0],[-75.57775,20.76952,0.0],[-75.56753,20.75678,2.578],[-75.55183,20.74901,10.7548],[-75.53409,20.74641,11.863],[-75.50084,20.73794,20.8771],[-75.48217,20.73778,17.6809],[-75.48571,20.74982,6.4521]]],
[[[-76.12658,21.10212,0.0],[-76.13073,21.11416,5.5235],[-76.12999,21.13557,0.0],[-76.13341,21.1437,5.4151],[-76.13781,21.16722,0.0],[-76.16967,21.18716,0.0],[-76.27587,21.22504,3.7876],[-76.29027,21.23371,3.7024],[-76.31355,21.2519,4.2124],[-76.3142,21.25067,4.2124],[-76.31808,21.19426,8.7386],[-76.32567,21.17757,19.6478],[-76.33084,21.17444,24.0456],[-76.33474,21.17106,18.9976],[-76.33996,21.16447,22.8226],[-76.3403,21.15824,25.4029],[-76.33686,21.14034,26.6749],[-76.33851,21.13406,64.7034],[-76.34391,21.1275,75.1519],[-76.37084,21.11171,32.7079],[-76.39259,21.10318,37.1546],[-76.43701,21.07636,47.3441],[-76.45308,21.0636,36.0],[-76.45882,21.06065,36.0],[-76.48357,21.04231,42.0548],[-76.50246,21.0242,60.206],[-76.51437,20.99621,87.3439],[-76.51724,20.98128,127.3065],[-76.52078,20.97841,138.0055],[-76.52762,20.97756,119.4942],[-76.53256,20.97833,118.5521],[-76.53842,20.9804,123.9061],[-76.5478,20.9798,113.7417],[-76.56083,20.97663,131.1578],[-76.61359,20.95518,160.8798],[-76.62974,20.95164,136.6577],[-76.63679,20.9511,146.7326],[-76.64281,20.95156,135.9713],[-76.64728,20.95332,133.8515],[-76.65281,20.95689,127.3342],[-76.66276,20.96531,125.1842],[-76.67467,20.97035,127.1535],[-76.6873,20.93614,114.1629],[-76.68635,20.8655,102.4115],[-76.68792,20.85152,84.4122],[-76.69131,20.84193,83.1435],[-76.70958,20.81961,61.5672],[-76.71678,20.8064,54.9613],[-76.71965,20.79728,50.4681],[-76.72113,20.78429,44.0172],[-76.72089,20.77641,40.5948],[-76.71872,20.77083,39.9213],[-76.70782,20.75953,37.0702],[-76.70255,20.75245,36.4829],[-76.69883,20.74264,36.0182],[-76.69947,20.73656,34.9099],[-76.70224,20.73207,32.5573],[-76.71239,20.72563,33.1796],[-76.7219,20.7223,34.1752],[-76.71704,20.7145,33.4282],[-76.71283,20.70964,29.8396],[-76.70725,20.70615,30.3448],[-76.69978,20.70452,30.589],[-76.68994,20.70794,32.7616],[-76.68035,20.71318,38.4965],[-76.67717,20.71318,37.1925],[-76.67361,20.71067,35.7338],[-76.66446,20.69613,34.8766],[-76.65798,20.69099,33.3852],[-76.64992,20.68773,34.0849],[-76.63539,20.68484,34.8569],[-76.6279,20.68243,35.247],[-76.61824,20.68179,35.243],[-76.60816,20.68383,35.5891],[-76.58124,20.69708,38.6876],[-76.57031,20.69646,38.2949],[-76.56452,20.68006,37.1627],[-76.56341,20.67264,33.6215],[-76.56281,20.66094,33.2534],[-76.56444,20.64618,34.0248],[-76.56442,20.64189,34.3939],[-76.55984,20.63822,35.2349],[-76.55067,20.63386,36.2928],[-76.50383,20.62329,39.8338],[-76.48589,20.61577,40.6734],[-76.43957,20.58991,44.1734],[-76.40476,20.57993,46.3302],[-76.39613,20.57639,46.7203],[-76.39306,20.57655,46.8724],[-76.39014,20.57807,46.884],[-76.38735,20.5804,46.7009],[-76.38531,20.58174,47.4902],[-76.38076,20.58272,47.6961],[-76.37789,20.58241,47.4145],[-76.37448,20.58125,47.7848],[-76.37079,20.57869,48.4256],[-76.36781,20.57195,49.7558],[-76.36694,20.56686,48.685],[-76.37257,20.5458,50.6899],[-76.36037,20.54456,50.5211],[-76.33805,20.53637,53.4707],[-76.31288,20.53213,53.1138],[-76.30053,20.52857,40.5996],[-76.28007,20.51957,58.3853],[-76.25309,20.51363,61.3371],[-76.24441,20.50947,58.7493],[-76.23397,20.50278,58.957],[-76.20434,20.47433,61.3469],[-76.17966,20.43759,74.8085],[-76.15542,20.43888,86.3783],[-76.14646,20.4386,87.8477],[-76.13819,20.43689,91.145],[-76.13046,20.43415,93.0214],[-76.12139,20.42984,96.3541],[-76.1163,20.42847,98.0469],[-76.11176,20.42878,97.8214],[-76.10677,20.43028,97.1196],[-76.10615,20.42829,97.1417],[-76.10711,20.42413,101.5125],[-76.11481,20.40832,112.5603],[-76.11134,20.40062,123.8835],[-76.09261,20.41746,105.9167],[-76.09054,20.42056,102.8516],[-76.08437,20.44201,82.9396],[-76.08173,20.46444,76.3471],[-76.08835,20.4795,74.8689],[-76.09029,20.48885,72.4461],[-76.09287,20.49203,67.9798],[-76.09641,20.49337,70.403],[-76.09693,20.49598,75.5],[-76.09455,20.4994,75.5],[-76.07902,20.50916,75.5],[-76.06631,20.51976,79.5157],[-76.06135,20.52268,84.9028],[-76.04344,20.52957,90.0747],[-76.04106,20.53469,90.2793],[-76.04186,20.54143,87.4291],[-76.04897,20.55751,93.2876],[-76.0514,20.56608,92.4675],[-76.0492,20.57241,95.6993],[-76.04667,20.5736,98.097],[-76.03303,20.56787,102.9619],[-75.98561,20.53477,107.3419],[-75.97618,20.52014,109.4468],[-75.9805,20.5097,102.27],[-75.97724,20.50583,102.6615],[-75.96983,20.50296,98.602],[-75.95244,20.50146,96.9639],[-75.94014,20.50164,90.1459],[-75.93329,20.50045,88.1969],[-75.93079,20.49784,94.141],[-75.93172,20.49102,99.5025],[-75.93422,20.4863,104.1541],[-75.93681,20.48216,110.7496],[-75.93936,20.47922,110.2646],[-75.94058,20.47712,109.0942],[-75.93719,20.47294,116.116],[-75.92975,20.46707,118.3247],[-75.90014,20.44808,277.4205],[-75.88355,20.44397,346.4186],[-75.87945,20.4278,236.2197],[-75.87805,20.42436,390.6522],[-75.87666,20.42173,270.3341],[-75.87301,20.41831,452.4342],[-75.85627,20.4101,449.8723],[-75.82467,20.40762,480.0841],[-75.7524,20.43904,405.1858],[-75.74434,20.44105,341.5663],[-75.73315,20.44206,340.312],[-75.70134,20.43787,257.5451],[-75.65881,20.44149,293.8882],[-75.61556,20.46984,458.8258],[-75.61251,20.47702,314.7221],[-75.60957,20.48599,197.7936],[-75.61484,20.49689,132.4694],[-75.61577,20.50002,190.681],[-75.61556,20.50312,270.609],[-75.61422,20.50712,195.0119],[-75.61143,20.51063,230.3386],[-75.6092,20.51177,290.6596],[-75.60179,20.50828,173.8237],[-75.59535,20.50604,300.4085],[-75.58259,20.49955,244.5264],[-75.57794,20.50071,292.3982],[-75.5705,20.50518,464.619],[-75.55543,20.51642,759.8369],[-75.53554,20.53575,506.2585],[-75.53174,20.54025,237.8864],[-75.52856,20.54247,336.7769],[-75.52482,20.54425,393.2676],[-75.51874,20.54614,542.9896],[-75.51502,20.54815,674.0713],[-75.51164,20.55086,638.5912],[-75.5074,20.55185,682.9273],[-75.50179,20.55053,754.3606],[-75.4858,20.53849,862.7043],[-75.46722,20.53298,1012.2969],[-75.42343,20.54076,598.7667],[-75.41108,20.54087,581.4267],[-75.40699,20.54164,495.1897],[-75.40193,20.54324,392.5869],[-75.39271,20.54751,347.3491],[-75.39069,20.54433,494.9253],[-75.39015,20.53764,338.0858],[-75.3934,20.51312,190.0989],[-75.395,20.50839,162.1678],[-75.39674,20.50697,214.1744],[-75.40348,20.50433,281.2197],[-75.4072,20.50226,242.8807],[-75.40968,20.49942,216.2647],[-75.41175,20.49578,219.4076],[-75.41273,20.49242,235.0748],[-75.41431,20.48911,224.7295],[-75.41676,20.48557,190.0169],[-75.4204,20.48273,192.8742],[-75.42459,20.48043,193.8243],[-75.4235,20.47681,235.9655],[-75.4171,20.46891,288.4349],[-75.40146,20.45612,266.5361],[-75.37547,20.42286,348.9358],[-75.36408,20.42576,293.805],[-75.3448,20.4386,367.6504],[-75.33723,20.43989,423.4559],[-75.33072,20.43798,385.2199],[-75.32648,20.43426,356.078],[-75.31697,20.42816,306.7559],[-75.3115,20.42312,372.024],[-75.30798,20.41762,421.4346],[-75.30666,20.41591,421.8492],[-75.29997,20.41018,354.5899],[-75.29111,20.40493,229.5565],[-75.28674,20.4033,165.4744],[-75.28222,20.40374,145.632],[-75.2639,20.41219,180.2738],[-75.26018,20.41258,136.0594],[-75.25654,20.41018,231.4134],[-75.25507,20.40715,206.7706],[-75.24049,20.39679,385.2333],[-75.2314,20.41204,466.7025],[-75.2283,20.44211,215.5897],[-75.22576,20.44769,295.4991],[-75.21235,20.45922,290.4654],[-75.18969,20.4717,159.9769],[-75.18303,20.4733,121.5625],[-75.17783,20.47229,158.5623],[-75.16949,20.46565,163.4407],[-75.16461,20.46467,236.4548],[-75.15835,20.46557,238.8747],[-75.13988,20.475,322.8335],[-75.11688,20.48322,568.6263],[-75.11047,20.48474,618.9878],[-75.10497,20.48418,518.6144],[-75.09885,20.47929,508.1511],[-75.07048,20.45082,633.587],[-75.04826,20.43371,723.2671],[-75.01585,20.43116,653.4453],[-74.98878,20.41322,506.5133],[-74.98224,20.41204,569.0951],[-74.97823,20.41304,540.6577],[-74.9773,20.41669,511.8331],[-74.97725,20.41948,449.6761],[-74.978,20.42224,486.3961],[-74.97924,20.42514,505.0155],[-74.98177,20.42955,628.1769],[-74.98549,20.43392,706.6187],[-74.99141,20.43857,569.7543],[-74.99934,20.43937,578.121],[-75.00051,20.43973,662.7101],[-75.00071,20.44128,637.8289],[-75.0002,20.44444,654.6482],[-74.9981,20.45149,667.3086],[-74.99834,20.45407,683.2556],[-74.99945,20.45699,665.122],[-75.0034,20.46482,726.4457],[-75.0012,20.46674,580.3798],[-74.99578,20.46831,456.6093],[-74.96878,20.47206,580.2145],[-74.95953,20.47123,442.5329],[-74.94984,20.46635,481.4434],[-74.91617,20.4434,434.8949],[-74.87964,20.42733,293.8174],[-74.8686,20.42108,386.945],[-74.8584,20.414,331.7754],[-74.84499,20.40819,441.6611],[-74.83871,20.40677,494.1818],[-74.8347,20.40847,445.1795],[-74.83323,20.41167,371.225],[-74.83215,20.41738,244.3161],[-74.83059,20.42142,361.5621],[-74.82915,20.42444,196.8005],[-74.82641,20.42728,215.3327],[-74.82362,20.42924,188.9792],[-74.78316,20.44477,186.1125],[-74.7916,20.47157,331.5891],[-74.79029,20.49102,340.7521],[-74.78471,20.50668,260.8231],[-74.77964,20.51616,441.5902],[-74.77251,20.52601,463.2813],[-74.76719,20.5318,430.151],[-74.75959,20.53807,347.5323],[-74.756,20.53973,226.4781],[-74.75189,20.54017,197.5148],[-74.74401,20.53999,165.2268],[-74.74094,20.54066,217.4096],[-74.7376,20.54254,223.3722],[-74.72776,20.54986,17.9148],[-74.71517,20.55606,1.4067],[-74.72191,20.56086,0.0],[-74.72838,20.56444,23.0118],[-74.73257,20.56485,17.0978],[-74.73493,20.56761,23.727],[-74.73559,20.57856,2.9728],[-74.74987,20.60244,34.141],[-74.74572,20.60395,17.3094],[-74.73559,20.60928,0.4728],[-74.75121,20.61957,0.3879],[-74.77184,20.6258,0.0],[-74.8509,20.63459,0.0],[-74.86929,20.64594,0.0],[-74.88353,20.65949,0.0],[-74.90005,20.67072,0.0],[-74.92467,20.66804,0.0],[-74.94074,20.6684,1.9289],[-74.94787,20.67414,2.8511],[-74.95108,20.68358,1.5437],[-74.9591,20.68732,0.0],[-74.96923,20.68952,0.0],[-74.97887,20.69457,0.0],[-74.99836,20.70075,0.0],[-75.07877,20.69115,0.0],[-75.06456,20.67756,0.1574],[-75.07193,20.67324,0.0],[-75.08039,20.67365,3.49],[-75.08943,20.67768,0.5329],[-75.0987,20.68439,0.0],[-75.0996,20.67768,0.0],[-75.10412,20.66861,3.2283],[-75.10611,20.66328,9.8806],[-75.11535,20.68659,3.1446],[-75.13183,20.6874,0.0],[-75.14908,20.68309,3.8587],[-75.16076,20.69115,0.0],[-75.16397,20.6892,0.0],[-75.16487,20.68781,0.0],[-75.16515,20.68643,0.0],[-75.16698,20.68439,0.0],[-75.19489,20.69115,8.8103],[-75.19489,20.69798,6.4123],[-75.17858,20.70222,1.5798],[-75.18196,20.70913,0.0],[-75.19433,20.71564,0.0],[-75.24104,20.7248,0.0],[-75.25634,20.72598,0.0],[-75.2495,20.71849,0.0],[-75.26797,20.72333,0.0],[-75.2943,20.72313,0.0],[-75.31871,20.71711,1.553],[-75.33141,20.70425,7.9521],[-75.31159,20.69945,9.3258],[-75.27375,20.68159,2.6299],[-75.25634,20.67072,5.2893],[-75.31281,20.66474,1.5],[-75.33723,20.66966,16.2488],[-75.34577,20.69115,1.5],[-75.35139,20.68187,1.5],[-75.35261,20.67756,1.5],[-75.35936,20.67756,4.347],[-75.36433,20.69139,4.0409],[-75.37304,20.70425,2.8421],[-75.34923,20.70848,8.577],[-75.35603,20.71992,6.9172],[-75.37658,20.73216,4.9713],[-75.39415,20.73896,0.0],[-75.41356,20.74116,0.0],[-75.43969,20.74063,4.7582],[-75.46361,20.73408,1.91],[-75.47606,20.71849,17.6602],[-75.46593,20.71922,0.0],[-75.45718,20.71796,20.9248],[-75.44066,20.71166,43.1019],[-75.44811,20.69115,0.0],[-75.45686,20.6955,0.0],[-75.46471,20.70063,0.0],[-75.47126,20.70612,26.1538],[-75.47606,20.71166,40.8527],[-75.48225,20.71166,4.4162],[-75.49779,20.69343,0.0],[-75.55671,20.70645,0.0],[-75.55114,20.68439,13.8651],[-75.57331,20.69139,0.0],[-75.58357,20.69823,0.0],[-75.5819,20.70795,3.1746],[-75.5775,20.71845,0.0],[-75.58682,20.7215,0.0],[-75.61262,20.71849,4.1759],[-75.6057,20.73599,2.4122],[-75.60774,20.75316,3.6006],[-75.6173,20.76862,2.3778],[-75.63313,20.78059,0.0],[-75.64318,20.76073,0.0],[-75.69103,20.72289,0.0],[-75.70202,20.70112,0.0],[-75.70885,20.69058,0.0],[-75.72452,20.6955,0.0],[-75.76305,20.71601,0.0],[-75.77465,20.73762,0.0],[-75.78392,20.74641,3.8979],[-75.77937,20.7569,0.0],[-75.7766,20.7687,0.0],[-75.77571,20.78132,1.6018],[-75.77648,20.78742,1.8423],[-75.76635,20.81159,1.7108],[-75.765,20.82441,0.0],[-75.77025,20.83584,0.0],[-75.70474,20.82868,1.4995],[-75.68537,20.83511,0.8848],[-75.6306,20.84309,0.0],[-75.62743,20.84146,0.0],[-75.62011,20.83584,0.0],[-75.61571,20.82966,0.0],[-75.61343,20.8225,0.0],[-75.61018,20.81656,0.0],[-75.60269,20.81411,8.8898],[-75.5891,20.80768,0.0],[-75.57315,20.79767,27.0348],[-75.55907,20.79767,6.2657],[-75.55114,20.82152,5.7709],[-75.56493,20.82148,15.9797],[-75.57331,20.82754,5.3703],[-75.57738,20.83808,4.1824],[-75.57848,20.85196,3.795],[-75.58487,20.85684,0.6284],[-75.62633,20.87678,0.0],[-75.64818,20.87954,0.0],[-75.67813,20.87824,30.954],[-75.7045,20.87084,0.0],[-75.71569,20.85505,1.7126],[-75.72183,20.85505,1.5653],[-75.73046,20.87222,0.0],[-75.7434,20.88935,0.0],[-75.74401,20.90156,0.0],[-75.71569,20.90351,0.0],[-75.71752,20.91035,0.0],[-75.72142,20.91446,0.0],[-75.72737,20.91657,0.0],[-75.7355,20.91771,0.0],[-75.72948,20.92145,0.0],[-75.72362,20.92341,0.0],[-75.71703,20.92255,0.0],[-75.70885,20.91771,0.0],[-75.6964,20.92487,0.7872],[-75.69026,20.91519,1.5978],[-75.68651,20.90005,0.0],[-75.68155,20.89045,0.0],[-75.66515,20.89008,27.3773],[-75.64875,20.8994,24.6952],[-75.63488,20.91254,12.164],[-75.62633,20.92398,20.1793],[-75.62418,20.92988,9.6479],[-75.62194,20.94481,7.256],[-75.62011,20.95124,10.4479],[-75.61604,20.95673,10.2079],[-75.60485,20.9654,9.0134],[-75.59895,20.97236,8.518],[-75.57848,21.01337,4.3045],[-75.61315,21.06257,4.0264],[-75.63589,21.07636,0.0],[-75.67536,21.06859,2.3107],[-75.68432,21.10309,3.5519],[-75.70401,21.11896,1.2646],[-75.73229,21.12328,10.9502],[-75.76684,21.12324,8.6267],[-75.78429,21.11864,34.2627],[-75.79402,21.11905,28.3942],[-75.79821,21.12661,2.0966],[-75.80126,21.1293,0.0],[-75.81627,21.13565,0.0],[-75.82177,21.13687,0.0],[-75.87336,21.10212,0.0],[-75.86828,21.09309,7.3076],[-75.87352,21.08877,0.0],[-75.88195,21.09028,0.0],[-75.89025,21.10773,15.4065],[-75.89989,21.11278,2.5176],[-75.91242,21.11518,2.163],[-75.92488,21.11571,0.0],[-75.93346,21.11294,0.0],[-75.94905,21.0998,0.0],[-75.95531,21.09589,4.5198],[-75.96788,21.09398,0.0],[-75.99462,21.09455,0.0],[-76.00304,21.09589,0.0],[-76.00219,21.07807,8.9018],[-76.00817,21.0703,0.0],[-76.01671,21.07368,0.0],[-76.02355,21.08906,0.0],[-76.02575,21.08454,6.62],[-76.02892,21.07958,6.2412],[-76.03091,21.07477,1.6424],[-76.03718,21.07477,0.0],[-76.03722,21.08735,5.5599],[-76.04101,21.09667,0.0],[-76.04809,21.10383,0.0],[-76.05826,21.10956,0.0],[-76.07266,21.11298,0.0],[-76.08381,21.11054,0.0],[-76.09984,21.10212,20.3169],[-76.10985,21.09223,0.0],[-76.11677,21.0915,0.0],[-76.12658,21.10212,0.0]]]]}}