{"type": "Feature","bbox": [-76.7146,20.4133,-74.7257,21.2404],"geometry": {"type": "MultiPolygon","coordinates": [[[[-75.2726,20.437,167.6794],[-75.2667,20.4339,140.4524],[-75.2623,20.4342,96.766],[-75.2503,20.4414,202.7831],[-75.2419,20.4407,315.5948],[-75.2309,20.429,330.8178],[-75.2243,20.4264,466.6157],[-75.2162,20.4265,365.4081],[-75.2101,20.4316,348.7235],[-75.2074,20.4405,282.1467],[-75.2055,20.4599,193.3967],[-75.1837,20.4962,71.8779],[-75.161,20.518,138.8574],[-75.1538,20.5186,107.7182],[-75.146,20.5158,203.6187],[-75.1316,20.5062,289.0195],[-75.1111,20.5085,237.6485],[-75.0898,20.5188,264.8021],[-75.082,20.5207,283.5306],[-75.0724,20.5208,315.5502],[-75.0581,20.5177,350.8945],[-75.0296,20.5071,368.014],[-75.0215,20.5025,247.4265],[-75.007,20.4891,473.2476],[-75.0038,20.4892,431.324],[-75.0008,20.4948,387.5239],[-74.9971,20.4969,376.1471],[-74.9915,20.4967,417.1289],[-74.9719,20.4754,557.2216],[-74.9528,20.465,514.2133],[-74.9438,20.463,632.871],[-74.9407,20.4663,630.5833],[-74.9413,20.4849,960.2184],[-74.9451,20.4907,663.0473],[-74.969,20.5061,262.8295],[-74.9756,20.5134,290.3137],[-74.9798,20.5219,191.3124],[-74.9802,20.5275,155.2461],[-74.979,20.5298,138.8685],[-74.9724,20.5299,355.9812],[-74.95,20.5255,677.6162],[-74.9348,20.5256,810.3411],[-74.9217,20.5279,789.0778],[-74.9139,20.5262,861.3143],[-74.9091,20.5162,923.7972],[-74.9105,20.5071,1119.0538],[-74.9089,20.503,981.8015],[-74.8879,20.4932,881.3722],[-74.8615,20.4749,755.2764],[-74.8162,20.4351,221.0693],[-74.8015,20.4332,329.9543],[-74.7982,20.4364,268.9267],[-74.796,20.4553,239.1231],[-74.7896,20.464,402.6607],[-74.7806,20.47,298.5248],[-74.7574,20.4791,449.9864],[-74.7519,20.4842,502.6768],[-74.7505,20.4954,237.7938],[-74.7597,20.5454,294.5367],[-74.7565,20.5628,22.7534],[-74.7492,20.5741,39.4565],[-74.7408,20.5829,3.154],[-74.741,20.5843,2.7837],[-74.739,20.5846,0.0],[-74.7376,20.5882,3.53],[-74.7385,20.5924,1.366],[-74.7421,20.5949,0.0],[-74.7385,20.5957,8.377],[-74.739,20.5979,3.8128],[-74.7346,20.5982,0.0],[-74.7371,20.606,0.2559],[-74.734,20.6021,0.6594],[-74.7329,20.5957,0.8698],[-74.7312,20.5968,0.0],[-74.7293,20.6026,2.1012],[-74.7293,20.6126,3.2237],[-74.7326,20.6182,4.422],[-74.739,20.6224,0.8618],[-74.7568,20.6262,0.0],[-74.764,20.6232,0.584],[-74.7643,20.6207,0.215],[-74.766,20.6204,1.517],[-74.7768,20.6224,0.0],[-74.781,20.6249,1.3071],[-74.7887,20.6207,1.2732],[-74.7974,20.6215,2.0519],[-74.8012,20.6246,0.3318],[-74.8037,20.6221,1.8249],[-74.8093,20.6218,11.3814],[-74.8129,20.6235,11.4519],[-74.8129,20.626,0.4749],[-74.816,20.6288,0.0],[-74.8232,20.6282,0.0],[-74.8376,20.6226,1.3267],[-74.8432,20.6238,0.0],[-74.844,20.6257,0.0],[-74.851,20.6257,0.0],[-74.8538,20.6312,22.4511],[-74.8538,20.6368,2.7037],[-74.866,20.6354,4.7165],[-74.8674,20.6446,0.0],[-74.8732,20.6437,18.4865],[-74.8785,20.6476,0.4649],[-74.8774,20.6579,0.222],[-74.8826,20.6582,1.9632],[-74.8893,20.6612,0.5289],[-74.904,20.659,0.0],[-74.9062,20.6618,3.2182],[-74.9062,20.6651,0.8143],[-74.9088,20.6668,0.5463],[-74.9163,20.6635,0.5633],[-74.9276,20.6621,0.0],[-74.9329,20.659,0.0],[-74.934,20.6621,0.0],[-74.939,20.6649,3.4254],[-74.9457,20.6743,0.0],[-74.951,20.6785,2.7498],[-74.9485,20.684,1.1559],[-74.9457,20.6857,0.0],[-74.9465,20.6879,1.0711],[-74.9549,20.6838,1.6774],[-74.959,20.6835,0.8076],[-74.9624,20.6854,0.6842],[-74.9671,20.6854,2.7406],[-74.9693,20.6885,0.6622],[-74.9762,20.6893,0.5074],[-74.9774,20.6918,0.8199],[-74.9793,20.6915,0.2462],[-74.9807,20.6935,0.3094],[-74.979,20.6954,0.0],[-74.9812,20.6963,0.2235],[-74.9924,20.6974,0.0],[-75.014,20.6924,0.2608],[-75.0221,20.6926,0.7936],[-75.0265,20.6963,2.1277],[-75.0249,20.699,0.0],[-75.0315,20.7001,0.0],[-75.0332,20.6976,0.2856],[-75.0379,20.6988,0.0],[-75.041,20.6929,0.3838],[-75.0476,20.6879,0.9716],[-75.0582,20.6904,0.4794],[-75.0704,20.6896,0.0],[-75.0715,20.6857,0.705],[-75.0618,20.6832,0.0],[-75.0649,20.681,0.4132],[-75.0643,20.6765,0.0],[-75.0601,20.6762,0.2889],[-75.0654,20.6724,1.0099],[-75.0626,20.6704,0.0],[-75.0629,20.6682,1.5775],[-75.0685,20.6696,1.2503],[-75.0685,20.6679,6.5734],[-75.0713,20.6693,0.0],[-75.076,20.6679,1.0276],[-75.0779,20.6718,1.7441],[-75.0821,20.6707,1.2167],[-75.0835,20.6718,1.2167],[-75.081,20.6735,3.49],[-75.0738,20.6721,1.3055],[-75.0713,20.6757,0.0],[-75.0746,20.6765,0.448],[-75.0785,20.6751,8.5735],[-75.0804,20.6771,0.0],[-75.079,20.681,0.0],[-75.0854,20.6799,0.1376],[-75.0879,20.6815,0.0],[-75.0876,20.6838,0.408],[-75.0751,20.6857,0.4122],[-75.0732,20.6887,0.0],[-75.0882,20.6896,0.0],[-75.0935,20.6885,1.0035],[-75.0946,20.6863,1.0577],[-75.0937,20.6815,3.0431],[-75.0968,20.674,0.6625],[-75.094,20.6682,4.3758],[-75.1024,20.6612,2.4051],[-75.104,20.6615,0.9272],[-75.104,20.6635,0.0],[-75.1004,20.6643,0.0],[-75.0963,20.6679,0.9237],[-75.0979,20.6701,0.0],[-75.0979,20.6762,0.0],[-75.1057,20.6787,10.2195],[-75.1035,20.6835,0.0],[-75.1043,20.6849,0.0],[-75.114,20.6865,3.0381],[-75.1226,20.6938,0.0],[-75.1421,20.6957,0.0],[-75.1454,20.6932,1.4956],[-75.1418,20.6926,1.1068],[-75.1446,20.6899,0.5948],[-75.1438,20.6835,0.0],[-75.1371,20.6843,0.0],[-75.1368,20.686,0.0],[-75.1399,20.6851,1.3506],[-75.1415,20.6868,0.8539],[-75.1418,20.6913,0.8377],[-75.1401,20.6932,0.4517],[-75.1365,20.6926,3.2137],[-75.1346,20.6943,4.2951],[-75.1335,20.694,4.2951],[-75.1343,20.6915,0.0],[-75.129,20.6893,8.1845],[-75.1315,20.6874,0.0],[-75.1296,20.684,0.2498],[-75.1429,20.6829,0.3539],[-75.146,20.6774,0.0],[-75.1454,20.6715,12.5849],[-75.1501,20.6715,0.0],[-75.1524,20.6696,0.0],[-75.154,20.6762,2.2481],[-75.1524,20.6765,0.0],[-75.1487,20.6821,3.8587],[-75.1499,20.6865,2.8552],[-75.1479,20.6904,3.9486],[-75.151,20.691,0.0],[-75.1515,20.6851,1.939],[-75.1526,20.6851,4.0682],[-75.1535,20.6893,0.0],[-75.1571,20.6879,0.0],[-75.159,20.6915,0.0],[-75.1618,20.6871,0.898],[-75.1565,20.684,1.7521],[-75.161,20.6846,0.0],[-75.1615,20.6801,2.8171],[-75.1643,20.6793,2.0716],[-75.1671,20.671,1.9839],[-75.1704,20.6707,15.5041],[-75.1674,20.674,3.0752],[-75.1657,20.6779,6.805],[-75.1668,20.679,5.7626],[-75.1632,20.6813,0.0],[-75.1738,20.6857,0.0],[-75.1796,20.6854,9.876],[-75.1821,20.6826,11.6756],[-75.1843,20.6826,1.2134],[-75.1876,20.6865,1.6499],[-75.1862,20.6885,0.3697],[-75.184,20.686,2.1666],[-75.181,20.6876,9.4429],[-75.1743,20.6879,2.4547],[-75.1721,20.6918,0.0],[-75.1679,20.6915,0.0],[-75.1621,20.6938,3.6848],[-75.1582,20.6929,0.4137],[-75.1551,20.6949,0.0],[-75.1585,20.6946,1.8649],[-75.1746,20.7035,0.5115],[-75.1982,20.7076,0.9134],[-75.2315,20.7207,0.0],[-75.2343,20.7204,1.4924],[-75.2363,20.7174,0.0],[-75.2429,20.714,1.0534],[-75.249,20.7137,2.0678],[-75.2485,20.7085,2.5102],[-75.2524,20.7149,0.0],[-75.2613,20.7207,0.0],[-75.2737,20.721,0.0],[-75.2893,20.7115,5.6161],[-75.2965,20.7126,2.1663],[-75.3079,20.7188,0.0],[-75.3199,20.7199,0.581],[-75.3204,20.7176,1.553],[-75.324,20.7151,5.3118],[-75.3246,20.7104,6.5247],[-75.3299,20.7101,2.9954],[-75.3296,20.7062,16.8317],[-75.3315,20.704,7.9521],[-75.324,20.699,15.7279],[-75.3207,20.7004,1.5],[-75.3224,20.706,11.3482],[-75.3207,20.7032,5.4015],[-75.3182,20.704,17.4659],[-75.3124,20.7021,10.0912],[-75.3151,20.6999,1.5],[-75.3082,20.6985,7.234],[-75.309,20.6971,1.5],[-75.3071,20.6943,2.0289],[-75.3093,20.694,1.5],[-75.3099,20.6918,1.5],[-75.3074,20.6932,6.1948],[-75.3054,20.6915,42.5015],[-75.3054,20.6851,10.2516],[-75.304,20.6838,20.3696],[-75.3018,20.6838,4.1623],[-75.2993,20.6868,5.3718],[-75.2943,20.6874,6.5985],[-75.2901,20.6907,23.3028],[-75.2882,20.6904,1.9179],[-75.2846,20.6824,2.2607],[-75.2893,20.6721,3.6693],[-75.2843,20.6696,1.5],[-75.2801,20.6704,1.5],[-75.2754,20.679,4.6231],[-75.266,20.6829,2.5211],[-75.2529,20.6774,2.127],[-75.2438,20.6682,2.174],[-75.2496,20.671,2.7557],[-75.2546,20.6704,3.8342],[-75.2554,20.6724,1.5],[-75.2588,20.6707,2.6184],[-75.2593,20.6735,2.697],[-75.2576,20.6749,1.8004],[-75.2588,20.6776,1.5],[-75.2674,20.6815,2.0804],[-75.276,20.6768,1.7432],[-75.2785,20.6685,3.2047],[-75.2812,20.6696,1.5],[-75.2879,20.6685,1.8278],[-75.2954,20.6635,2.8492],[-75.299,20.6638,1.5],[-75.2999,20.6618,1.7848],[-75.3024,20.6654,1.5],[-75.311,20.6582,3.4152],[-75.3176,20.6585,3.1226],[-75.3196,20.6554,4.1978],[-75.3221,20.6549,3.4563],[-75.3246,20.6596,1.5],[-75.3304,20.6599,4.7399],[-75.3304,20.6626,3.3351],[-75.324,20.6632,1.5],[-75.324,20.6643,1.5],[-75.3265,20.6671,3.721],[-75.3274,20.6712,4.5348],[-75.3307,20.6743,1.5],[-75.3354,20.6751,18.5063],[-75.3357,20.6787,6.8606],[-75.3382,20.681,4.4992],[-75.3376,20.6865,6.7986],[-75.3465,20.684,1.5],[-75.3457,20.6824,7.9202],[-75.3424,20.6832,1.5],[-75.3401,20.674,5.7195],[-75.3418,20.6738,3.2521],[-75.3435,20.676,1.5],[-75.3451,20.6707,2.0773],[-75.349,20.669,1.5],[-75.3515,20.6704,8.8856],[-75.3507,20.6735,2.6802],[-75.3557,20.6743,11.9034],[-75.3565,20.6829,1.5],[-75.3593,20.6849,1.5],[-75.359,20.6871,8.0134],[-75.3554,20.6882,1.5],[-75.3532,20.6918,1.5],[-75.3549,20.6935,4.2258],[-75.3629,20.6929,5.3078],[-75.3662,20.6896,10.8046],[-75.3685,20.6896,12.3169],[-75.3746,20.6988,7.6333],[-75.3743,20.7035,5.5871],[-75.3721,20.7049,2.8421],[-75.3685,20.7051,1.8734],[-75.3665,20.7012,4.0356],[-75.3637,20.7001,1.5],[-75.3626,20.7007,1.5],[-75.3646,20.7021,8.5213],[-75.3621,20.7029,2.9003],[-75.3607,20.7012,1.7298],[-75.3593,20.7038,13.6472],[-75.349,20.7018,1.5],[-75.3479,20.7057,1.5],[-75.3515,20.7068,20.8927],[-75.3499,20.7074,10.44],[-75.3504,20.7088,5.5343],[-75.3535,20.7088,7.0139],[-75.3521,20.7101,7.0139],[-75.3487,20.7099,13.3318],[-75.3479,20.7065,1.5],[-75.3446,20.7054,1.5],[-75.3396,20.7099,3.3082],[-75.3332,20.7101,2.0744],[-75.3279,20.7124,3.1177],[-75.3271,20.7149,3.0543],[-75.3362,20.719,1.7377],[-75.3365,20.7207,0.0],[-75.3457,20.7246,3.3842],[-75.349,20.7276,0.0],[-75.3518,20.7279,0.5787],[-75.3482,20.726,2.9922],[-75.3501,20.7249,2.2153],[-75.3538,20.7265,2.3215],[-75.3526,20.7279,0.5787],[-75.3568,20.7296,0.6579],[-75.3688,20.7318,4.0692],[-75.3724,20.734,0.0],[-75.379,20.7335,5.3268],[-75.3876,20.7357,0.0],[-75.3885,20.7343,1.5116],[-75.3943,20.7337,4.6831],[-75.4032,20.7351,1.2625],[-75.406,20.7329,3.1864],[-75.4101,20.7324,1.6214],[-75.4124,20.7232,3.4786],[-75.4135,20.7232,3.945],[-75.4126,20.7296,2.2689],[-75.4146,20.7299,2.4028],[-75.4146,20.7313,2.1481],[-75.4112,20.7346,4.6514],[-75.404,20.7349,1.2625],[-75.404,20.7382,1.7767],[-75.4093,20.741,0.0],[-75.4199,20.741,2.5918],[-75.429,20.7457,0.0],[-75.436,20.7449,1.5482],[-75.4376,20.7432,2.6158],[-75.446,20.7432,1.9782],[-75.4507,20.7401,2.0807],[-75.4699,20.7382,1.3682],[-75.4724,20.734,2.5596],[-75.4721,20.7318,0.6199],[-75.4685,20.7293,3.4665],[-75.4679,20.7237,2.6846],[-75.4701,20.7221,0.0],[-75.4701,20.7196,1.7671],[-75.4629,20.7221,5.2148],[-75.4629,20.7204,1.2855],[-75.4601,20.7188,2.5758],[-75.4635,20.7199,1.2855],[-75.4649,20.7168,0.0],[-75.4587,20.7143,3.2522],[-75.4554,20.7151,11.7294],[-75.4507,20.7121,19.0273],[-75.4435,20.711,28.6433],[-75.441,20.7085,9.8681],[-75.441,20.699,3.2191],[-75.4435,20.6951,14.5346],[-75.444,20.6885,7.62],[-75.4465,20.6857,1.593],[-75.4488,20.6857,3.1913],[-75.4493,20.691,0.0],[-75.4532,20.6932,1.3072],[-75.4615,20.6926,0.0],[-75.4612,20.6963,0.859],[-75.464,20.6982,0.0],[-75.4735,20.6976,4.802],[-75.4729,20.7018,23.3598],[-75.4662,20.7082,3.6026],[-75.4682,20.7162,0.6443],[-75.4726,20.7143,0.0],[-75.4743,20.7207,2.5596],[-75.4721,20.7226,0.0],[-75.4707,20.7276,0.0],[-75.4749,20.7318,0.6866],[-75.4785,20.7304,5.058],[-75.4785,20.7218,14.8764],[-75.4818,20.719,0.0],[-75.4868,20.7199,0.7088],[-75.4874,20.7188,0.0],[-75.4868,20.7113,2.3144],[-75.4832,20.7104,0.0],[-75.4812,20.7065,1.5284],[-75.4901,20.7079,0.0],[-75.4863,20.7038,1.7837],[-75.4829,20.7038,2.5593],[-75.4801,20.7001,2.9787],[-75.4818,20.6954,1.2637],[-75.4835,20.6935,1.0261],[-75.4876,20.6957,0.0],[-75.4901,20.6951,12.5576],[-75.4912,20.6929,15.97],[-75.4899,20.6913,0.0],[-75.4932,20.6885,4.3506],[-75.4968,20.6899,0.0],[-75.499,20.6876,0.0],[-75.4974,20.686,8.6451],[-75.4987,20.6843,6.1566],[-75.5029,20.686,0.0],[-75.5082,20.6838,5.2922],[-75.5179,20.6896,0.0],[-75.5232,20.6899,0.7065],[-75.5235,20.6915,0.0],[-75.5218,20.6921,0.0],[-75.524,20.6935,0.0],[-75.5307,20.6924,0.0],[-75.5326,20.6901,4.5937],[-75.5351,20.6907,5.6001],[-75.539,20.6943,1.8241],[-75.541,20.6996,1.2053],[-75.544,20.6999,12.1462],[-75.5454,20.7018,17.5363],[-75.5476,20.7096,0.0],[-75.5424,20.7121,0.0],[-75.546,20.7132,0.8515],[-75.5493,20.7121,0.0],[-75.5474,20.7151,0.0],[-75.5485,20.7162,0.0],[-75.556,20.7129,0.0],[-75.5565,20.7101,0.0],[-75.5537,20.7096,0.0],[-75.5532,20.7062,0.0],[-75.5551,20.7038,0.0],[-75.5585,20.7029,1.9477],[-75.5585,20.7015,4.0484],[-75.5512,20.7001,0.6375],[-75.549,20.6976,5.5074],[-75.5532,20.699,0.4881],[-75.5518,20.6965,5.4526],[-75.5626,20.7012,0.2842],[-75.5618,20.6988,0.0],[-75.5674,20.6904,6.7364],[-75.569,20.6907,2.1118],[-75.5715,20.6882,2.6707],[-75.5771,20.6907,0.0],[-75.5804,20.6904,4.1753],[-75.5807,20.6938,0.0],[-75.5854,20.6968,0.0],[-75.5815,20.7012,0.6684],[-75.5796,20.7015,0.0],[-75.5762,20.7065,0.0],[-75.5738,20.7065,0.0],[-75.5762,20.7074,0.0],[-75.5779,20.7113,4.1183],[-75.5771,20.7193,0.0],[-75.5735,20.7207,0.0],[-75.576,20.7226,0.7122],[-75.5757,20.724,2.065],[-75.566,20.7218,0.0],[-75.5649,20.7249,0.8009],[-75.5699,20.7246,4.4777],[-75.5704,20.726,3.7805],[-75.566,20.7293,1.9042],[-75.5607,20.7285,4.484],[-75.5587,20.7251,0.0],[-75.5565,20.7249,0.0],[-75.5576,20.7293,1.8431],[-75.5565,20.7337,0.0],[-75.5501,20.7365,0.0],[-75.549,20.739,4.9393],[-75.5404,20.7337,0.0],[-75.5393,20.7376,5.6754],[-75.5374,20.7382,0.0],[-75.5362,20.7363,0.0],[-75.531,20.7351,0.0],[-75.5276,20.7321,0.6043],[-75.5304,20.7401,0.8339],[-75.5285,20.7418,1.5758],[-75.5296,20.7446,0.4739],[-75.5282,20.7449,4.2995],[-75.5271,20.739,0.0],[-75.5243,20.739,3.7628],[-75.5224,20.7368,0.0],[-75.5218,20.7412,0.0],[-75.524,20.7463,0.4518],[-75.5224,20.7451,1.5384],[-75.5215,20.7463,0.8098],[-75.5215,20.7446,1.6527],[-75.5199,20.744,4.0475],[-75.521,20.7354,0.0],[-75.519,20.7349,0.0],[-75.5104,20.7382,0.0],[-75.5082,20.7276,0.0],[-75.5024,20.7313,2.8927],[-75.4946,20.7276,0.5728],[-75.4871,20.7271,27.8485],[-75.4849,20.724,8.9246],[-75.4801,20.7249,0.0],[-75.4807,20.731,0.0],[-75.4762,20.7329,0.0],[-75.4737,20.7387,2.164],[-75.4793,20.7443,2.1501],[-75.4815,20.7518,0.7817],[-75.4879,20.7551,3.5108],[-75.4896,20.7604,1.1937],[-75.4935,20.7643,3.0994],[-75.4976,20.7724,0.0],[-75.5082,20.7849,5.6543],[-75.5149,20.7901,1.4447],[-75.5207,20.7924,0.0],[-75.5246,20.7921,0.0],[-75.5265,20.789,0.0],[-75.5293,20.7879,0.0],[-75.5312,20.784,0.8199],[-75.5304,20.7785,26.7484],[-75.5349,20.7721,0.0],[-75.5426,20.7715,8.0938],[-75.556,20.7768,5.9616],[-75.5771,20.7779,3.9211],[-75.5779,20.7729,0.0],[-75.5738,20.7735,1.0574],[-75.5679,20.7704,1.8787],[-75.5674,20.7676,22.2285],[-75.5696,20.7646,0.0],[-75.5674,20.7568,33.5893],[-75.5682,20.7521,7.351],[-75.5629,20.7535,3.3199],[-75.561,20.7496,0.0],[-75.5565,20.7499,0.7621],[-75.5568,20.7443,1.7568],[-75.5526,20.746,3.2927],[-75.5507,20.7426,6.6889],[-75.5537,20.7429,0.0],[-75.5535,20.7415,2.4226],[-75.5557,20.7407,0.0],[-75.5549,20.7379,2.9497],[-75.5587,20.7404,4.9351],[-75.5618,20.7374,0.0],[-75.5663,20.7363,1.7134],[-75.5671,20.7371,2.0118],[-75.5626,20.7399,1.7894],[-75.5612,20.7438,0.0],[-75.564,20.7443,0.0],[-75.5687,20.7418,3.7901],[-75.5679,20.7387,2.7064],[-75.5713,20.7346,0.5806],[-75.5685,20.7324,4.0425],[-75.5704,20.731,1.1985],[-75.5743,20.7313,1.1957],[-75.5824,20.7265,0.0],[-75.5826,20.7232,0.0],[-75.5804,20.721,1.4658],[-75.584,20.719,0.0],[-75.5876,20.7135,3.2626],[-75.5926,20.7162,1.5217],[-75.6001,20.715699999999998,0.0],[-75.6032,20.7185,2.714],[-75.6051,20.7121,0.0],[-75.6093,20.7101,2.181],[-75.6113,20.7132,0.8528],[-75.609,20.7185,2.3465],[-75.6113,20.721,0.9849],[-75.6151,20.7196,1.0],[-75.6174,20.7162,1.926],[-75.6201,20.7165,1.539],[-75.6146,20.7224,2.6719],[-75.6096,20.7235,1.8731],[-75.6104,20.7215,0.7561],[-75.609,20.7213,0.7561],[-75.6076,20.7237,0.0],[-75.6038,20.7257,3.9948],[-75.5949,20.7249,0.416],[-75.5912,20.7276,0.6006],[-75.5879,20.7276,0.0],[-75.5862,20.7299,0.0],[-75.5871,20.7315,0.0],[-75.5879,20.729,0.0],[-75.5915,20.7287,0.6006],[-75.5926,20.7271,2.87],[-75.5924,20.7299,2.3341],[-75.5946,20.7321,2.2025],[-75.5924,20.744,0.5524],[-75.5946,20.7457,2.3372],[-75.5957,20.751,0.0],[-75.5999,20.7582,0.0],[-75.5971,20.7638,0.0],[-75.6054,20.7674,0.0],[-75.6104,20.7676,0.0],[-75.6118,20.7743,0.0],[-75.619,20.7715,1.1989],[-75.6185,20.774,1.2615],[-75.6135,20.7763,1.2401],[-75.6154,20.7776,0.0],[-75.6196,20.7749,0.4256],[-75.6212,20.7715,1.4663],[-75.6249,20.7699,0.5366],[-75.6212,20.7674,2.5701],[-75.6176,20.7613,1.704],[-75.6218,20.7538,0.4238],[-75.621,20.7474,2.8009],[-75.6235,20.7446,1.0219],[-75.626,20.7521,3.2919],[-75.6221,20.7546,0.4238],[-75.6218,20.7585,0.0],[-75.6201,20.7596,0.0],[-75.6221,20.7638,0.0],[-75.6415,20.749,0.498],[-75.6332,20.7574,0.5392],[-75.6318,20.7632,1.5417],[-75.6351,20.7632,1.0256],[-75.6387,20.7596,0.8555],[-75.6443,20.7607,0.0],[-75.6476,20.7588,0.5079],[-75.6537,20.7668,0.0],[-75.6557,20.7671,0.473],[-75.6574,20.7532,2.9053],[-75.6649,20.751,0.6054],[-75.6646,20.7499,0.0],[-75.6604,20.751,1.1479],[-75.6571,20.7499,2.0753],[-75.6588,20.7404,3.261],[-75.6762,20.7321,0.0],[-75.6732,20.7249,4.4071],[-75.6738,20.7224,7.2528],[-75.6774,20.7196,2.0607],[-75.6865,20.7243,1.6354],[-75.6876,20.7263,1.5378],[-75.6899,20.7263,1.3808],[-75.6882,20.7207,21.2213],[-75.6899,20.7135,2.3961],[-75.6885,20.7085,11.307],[-75.6929,20.6963,10.3242],[-75.7021,20.6954,2.7914],[-75.7051,20.6968,1.704],[-75.7068,20.689,1.8886],[-75.7112,20.6882,3.002],[-75.7126,20.6899,1.16],[-75.7187,20.6907,2.1938],[-75.7246,20.6938,0.496],[-75.7312,20.701,0.0],[-75.7412,20.699,2.1507],[-75.749,20.7057,0.0],[-75.7518,20.7049,2.0929],[-75.7524,20.7018,2.7026],[-75.7568,20.7029,0.6758],[-75.7601,20.7068,0.569],[-75.7582,20.7104,0.6405],[-75.7624,20.709,0.4561],[-75.7643,20.7099,1.4513],[-75.766,20.7138,0.3096],[-75.7699,20.7138,0.4976],[-75.7688,20.7185,0.0],[-75.7715,20.7201,3.6903],[-75.7707,20.7224,0.0],[-75.7732,20.724,1.3342],[-75.7721,20.7257,0.6337],[-75.7749,20.729,0.0],[-75.7776,20.7296,1.5242],[-75.7771,20.7332,0.0],[-75.7832,20.7463,1.5093],[-75.7832,20.7532,2.5313],[-75.7754,20.7579,0.0],[-75.7746,20.7643,0.4509],[-75.7746,20.7654,0.4509],[-75.7801,20.7646,7.5443],[-75.7821,20.7679,2.3079],[-75.7812,20.7738,0.4625],[-75.7824,20.7765,2.0238],[-75.7749,20.7765,1.1077],[-75.7674,20.7735,0.2926],[-75.7712,20.7787,0.0],[-75.776,20.779,0.6746],[-75.774,20.784,0.7758],[-75.7746,20.7901,0.3814],[-75.7724,20.7926,1.1052],[-75.7757,20.7946,0.5466],[-75.7793,20.7921,0.5214],[-75.779,20.7943,0.4294],[-75.7737,20.7971,1.8011],[-75.7718,20.7943,0.3381],[-75.7654,20.7921,1.2667],[-75.7657,20.7935,1.2667],[-75.7696,20.7943,0.4182],[-75.7676,20.7968,0.3561],[-75.7679,20.8007,0.9051],[-75.7607,20.8085,0.0],[-75.7637,20.8118,1.8523],[-75.7618,20.814,0.0],[-75.7696,20.8182,3.2871],[-75.7712,20.8254,0.0],[-75.7765,20.8301,1.1637],[-75.776,20.8318,0.6863],[-75.7729,20.8321,0.4135],[-75.7738,20.8376,2.3284],[-75.7724,20.8385,0.0],[-75.7676,20.8368,0.0],[-75.7579,20.8399,1.0439],[-75.7546,20.8388,2.0039],[-75.7546,20.8368,0.0],[-75.741,20.8335,0.0],[-75.7401,20.8318,4.5224],[-75.7418,20.8279,6.9573],[-75.7451,20.826,0.0],[-75.7435,20.8229,0.0],[-75.734,20.8282,0.612],[-75.7282,20.8282,1.6946],[-75.7251,20.8243,2.2323],[-75.7207,20.8263,2.8162],[-75.7179,20.8251,0.0],[-75.7162,20.8276,0.0],[-75.7196,20.8332,0.5069],[-75.7157,20.831,1.0359],[-75.7138,20.8343,1.5882],[-75.7149,20.8365,0.6572],[-75.7113,20.8365,3.087],[-75.7113,20.834,1.9684],[-75.7068,20.8337,1.8023],[-75.7057,20.8376,2.5705],[-75.7054,20.8337,1.8023],[-75.7068,20.8321,1.8023],[-75.7082,20.8332,1.0943],[-75.7113,20.8324,0.0],[-75.7113,20.8293,0.0],[-75.7093,20.8235,1.0902],[-75.7074,20.8226,0.0],[-75.7071,20.8274,1.6331],[-75.7029,20.8293,1.8296],[-75.7046,20.8243,0.0],[-75.7012,20.824,4.3703],[-75.7021,20.8171,1.1963],[-75.6954,20.821,5.3289],[-75.6935,20.8193,0.4911],[-75.6871,20.8263,1.2071],[-75.6888,20.8329,0.0],[-75.6865,20.8362,0.0],[-75.6904,20.8401,1.2842],[-75.6896,20.8412,1.2142],[-75.6851,20.8388,1.6114],[-75.6857,20.8324,0.4899],[-75.681,20.831,0.0],[-75.6815,20.8371,4.0876],[-75.6779,20.8388,2.1935],[-75.6782,20.8365,4.6657],[-75.6804,20.8362,2.1729],[-75.6782,20.8337,0.0],[-75.6643,20.8285,0.0],[-75.6612,20.8296,0.3628],[-75.6601,20.8329,0.5141],[-75.6532,20.8399,0.0],[-75.6537,20.8424,0.0],[-75.6604,20.8451,6.4759],[-75.661,20.8471,2.1501],[-75.659,20.8479,0.0],[-75.6524,20.8443,0.0],[-75.6488,20.8457,2.3581],[-75.6513,20.8435,3.4822],[-75.6513,20.8415,2.0547],[-75.6485,20.8365,0.0],[-75.6376,20.8357,3.8866],[-75.6346,20.8324,3.8353],[-75.6318,20.8249,0.0],[-75.6282,20.8274,0.0],[-75.6276,20.8296,1.2945],[-75.6237,20.8312,0.996],[-75.624,20.8332,1.753],[-75.626,20.8332,3.2226],[-75.6249,20.8374,0.0],[-75.6285,20.841,0.0],[-75.6318,20.8393,3.8386],[-75.6349,20.8401,5.4689],[-75.6393,20.846,1.8145],[-75.636,20.8446,0.6642],[-75.6304,20.8454,1.886],[-75.6299,20.8432,0.0],[-75.6288,20.8449,0.0],[-75.6299,20.8463,0.5782],[-75.6265,20.8482,0.0],[-75.6246,20.8482,0.0],[-75.6265,20.8451,0.0],[-75.6251,20.8446,0.792],[-75.6193,20.8482,1.0],[-75.6168,20.8418,2.4779],[-75.6176,20.839,0.0],[-75.6126,20.8365,5.9122],[-75.6049,20.8293,0.5662],[-75.6087,20.8288,0.0],[-75.6085,20.8268,0.6622],[-75.6001,20.8268,2.7656],[-75.6018,20.8226,5.3064],[-75.6096,20.821,1.8196],[-75.6029,20.8113,1.8217],[-75.5999,20.8104,0.0],[-75.6007,20.8168,6.4366],[-75.5987,20.8196,2.767],[-75.5982,20.8151,0.775],[-75.5937,20.8151,6.9886],[-75.5863,20.8101,5.6006],[-75.5826,20.8021,6.6165],[-75.5851,20.7974,5.5068],[-75.5776,20.7899,5.9397],[-75.5629,20.786,2.5989],[-75.5524,20.7882,1.5036],[-75.5512,20.7951,4.8308],[-75.5532,20.8037,5.4617],[-75.551,20.8099,0.0],[-75.5518,20.8246,5.6047],[-75.5504,20.8276,0.0],[-75.5535,20.8299,0.5983],[-75.5724,20.8312,3.5903],[-75.5751,20.8351,1.0925],[-75.5749,20.8479,0.0],[-75.5779,20.8532,2.8729],[-75.5935,20.8593,0.3388],[-75.599,20.8662,0.4339],[-75.609,20.8726,0.4562],[-75.6171,20.8749,1.5581],[-75.6299,20.8749,1.7195],[-75.639,20.8729,4.0548],[-75.6499,20.8743,0.0],[-75.6546,20.8726,2.9134],[-75.6582,20.8746,6.789],[-75.6626,20.8801,4.3265],[-75.6679,20.8788,0.0],[-75.6701,20.8746,6.9773],[-75.6729,20.8746,2.1194],[-75.6746,20.8807,11.0249],[-75.6768,20.8813,0.0],[-75.6801,20.8785,15.68],[-75.6785,20.8751,19.2747],[-75.6801,20.8724,14.8079],[-75.6787,20.869,1.8946],[-75.6746,20.8679,5.6929],[-75.6721,20.8657,25.3348],[-75.6715,20.8613,0.978],[-75.674,20.859,0.8449],[-75.6771,20.8604,1.7721],[-75.6726,20.8649,0.5],[-75.6754,20.8674,5.6929],[-75.6801,20.8682,24.2557],[-75.6818,20.8738,0.0],[-75.6837,20.8729,11.576],[-75.681,20.8771,5.9587],[-75.6818,20.8815,0.0],[-75.684,20.8838,0.0],[-75.6965,20.8715,6.9211],[-75.6979,20.8685,39.1844],[-75.7057,20.871,1.3582],[-75.711,20.8696,12.3502],[-75.714,20.8718,17.3452],[-75.7185,20.8713,0.0],[-75.7207,20.8687,0.0],[-75.7196,20.8646,0.9071],[-75.7224,20.8607,0.0],[-75.7221,20.8574,0.0],[-75.7237,20.8565,0.0],[-75.7265,20.8649,1.1748],[-75.7343,20.8707,0.7954],[-75.7324,20.8724,4.1411],[-75.7326,20.8768,3.557],[-75.7254,20.879,0.0],[-75.7262,20.8813,1.8103],[-75.7412,20.884,0.0],[-75.7496,20.8807,0.0],[-75.7518,20.8768,2.0511],[-75.7579,20.8821,0.76],[-75.7574,20.8838,1.7811],[-75.7524,20.8835,0.0],[-75.7524,20.891,0.0],[-75.7493,20.8954,0.8632],[-75.7476,20.9035,0.0],[-75.7435,20.9035,0.0],[-75.7443,20.9071,2.0288],[-75.7424,20.9071,2.2664],[-75.7426,20.9054,0.3215],[-75.7393,20.9065,0.4756],[-75.7318,20.9035,0.0],[-75.729,20.9043,2.957],[-75.726,20.9024,1.663],[-75.726,20.9001,0.0],[-75.7226,20.9024,0.8121],[-75.7237,20.9093,0.0],[-75.7279,20.909,1.0769],[-75.7329,20.9118,2.3125],[-75.7404,20.9129,1.1235],[-75.7426,20.9168,1.3915],[-75.7457,20.9182,3.1045],[-75.7451,20.9196,0.9063],[-75.7399,20.919,1.1607],[-75.7363,20.9224,1.4325],[-75.7312,20.9226,1.7348],[-75.7288,20.9257,2.6466],[-75.7237,20.9254,0.0],[-75.7179,20.9274,1.4365],[-75.7138,20.9215,0.0],[-75.7068,20.9221,1.0971],[-75.7054,20.919,0.0],[-75.7024,20.9179,0.9615],[-75.6976,20.9221,1.024],[-75.6946,20.9212,0.9703],[-75.6935,20.9188,0.0],[-75.6946,20.9176,0.4022],[-75.6918,20.9176,1.3362],[-75.6907,20.9157,1.7251],[-75.6932,20.9143,0.0],[-75.6932,20.9126,0.0],[-75.6865,20.9112,1.4562],[-75.6888,20.9054,0.0],[-75.6821,20.9063,1.2671],[-75.6807,20.9004,0.0],[-75.679,20.9021,1.6584],[-75.6751,20.901,0.8189],[-75.6687,20.8954,0.0],[-75.6687,20.8901,0.8142],[-75.6743,20.8876,9.0853],[-75.677,20.8873,2.169],[-75.6849,20.8913,5.9525],[-75.6879,20.8907,1.4454],[-75.6837,20.8862,1.4404],[-75.6826,20.8885,0.0],[-75.6793,20.8879,0.726],[-75.681,20.8815,0.0],[-75.6738,20.8824,31.207],[-75.6718,20.8768,0.0],[-75.6657,20.8832,2.5391],[-75.6601,20.8829,4.5964],[-75.6585,20.8801,0.0],[-75.656,20.8813,0.0],[-75.6482,20.8915,4.3501],[-75.6329,20.9024,0.8417],[-75.6324,20.9054,1.8001],[-75.6299,20.9065,0.0],[-75.6254,20.9129,2.4883],[-75.6201,20.9135,0.0],[-75.614,20.9165,0.6851],[-75.6121,20.9246,0.0],[-75.6157,20.9324,4.1149],[-75.6149,20.9365,3.5419],[-75.604,20.9487,0.0],[-75.5935,20.956,0.5106],[-75.5904,20.9601,1.701],[-75.5818,20.9843,0.0],[-75.5799,20.994,2.2766],[-75.5738,21.0029,0.5059],[-75.5729,21.0093,0.0],[-75.5765,21.0182,0.0],[-75.5888,21.0382,1.6909],[-75.5951,21.0424,0.3889],[-75.6065,21.059,0.0],[-75.619,21.0724,0.2161],[-75.6393,21.0737,2.9159],[-75.6424,21.0715,3.4393],[-75.6546,21.0699,0.9006],[-75.6601,21.0674,1.4194],[-75.674,21.0676,0.9508],[-75.6754,21.069,2.6398],[-75.6757,21.0746,5.0332],[-75.6724,21.0821,0.0],[-75.6721,21.0885,0.0],[-75.6738,21.090699999999998,0.0],[-75.6738,21.0968,0.0],[-75.6762,21.0985,2.6788],[-75.6776,21.1029,0.3514],[-75.6946,21.1154,2.5348],[-75.7099,21.1215,5.0471],[-75.7168,21.1268,0.7487],[-75.7354,21.1251,6.2896],[-75.736,21.1265,0.0],[-75.7435,21.1285,1.0596],[-75.7471,21.126,0.0],[-75.7462,21.1246,3.0899],[-75.7476,21.1229,3.4156],[-75.7557,21.1221,1.8808],[-75.7637,21.1249,2.8349],[-75.7676,21.1246,0.8228],[-75.769,21.1204,18.5554],[-75.7668,21.1162,20.4569],[-75.7699,21.1105,16.1981],[-75.7663,21.1046,0.0],[-75.7688,21.1037,2.1625],[-75.7699,21.1063,1.7567],[-75.7757,21.1063,5.3214],[-75.7715,21.1076,4.6638],[-75.7729,21.114,15.1808],[-75.7704,21.119,0.0],[-75.7724,21.1215,6.8261],[-75.7826,21.1213,3.7062],[-75.794,21.126,0.5701],[-75.799,21.1257,2.0966],[-75.8112,21.1343,0.0],[-75.8171,21.1318,0.5579],[-75.8196,21.1276,2.5836],[-75.8326,21.1254,7.9881],[-75.8396,21.1204,6.2974],[-75.8571,21.1226,1.7468],[-75.861,21.1193,0.0],[-75.861,21.1165,12.3855],[-75.8657,21.1157,2.5495],[-75.8688,21.1129,4.8501],[-75.8746,21.1129,4.9477],[-75.876,21.1149,0.0],[-75.879,21.114,0.0],[-75.8793,21.1118,0.0],[-75.8757,21.1107,15.906],[-75.8721,21.1037,0.0],[-75.8721,21.0979,0.0],[-75.8618,21.101,0.9471],[-75.8624,21.0987,4.0173],[-75.8651,21.0976,1.4314],[-75.8665,21.0901,3.1092],[-75.8674,21.0929,0.0],[-75.8707,21.0951,1.0114],[-75.8724,21.0926,0.0],[-75.871,21.0888,0.0],[-75.8726,21.0874,0.3489],[-75.8765,21.089,0.0],[-75.8821,21.0863,0.0],[-75.8849,21.090699999999998,11.7414],[-75.8846,21.0926,2.5765],[-75.881,21.0943,3.497],[-75.8829,21.0965,3.7139],[-75.8854,21.0929,2.5765],[-75.8885,21.0915,13.3126],[-75.8932,21.0943,1.5662],[-75.8921,21.0954,15.3268],[-75.8887,21.0926,4.1485],[-75.8857,21.0946,0.0],[-75.8851,21.0979,12.5614],[-75.8865,21.1001,19.5298],[-75.8887,21.1007,1.7206],[-75.8899,21.0993,6.4765],[-75.8907,21.1007,5.5294],[-75.879,21.1054,0.466],[-75.884,21.1115,0.0],[-75.8882,21.1129,1.1556],[-75.8954,21.1107,1.3719],[-75.9001,21.1151,0.4529],[-75.9212,21.1146,1.2436],[-75.9346,21.1087,1.2569],[-75.9351,21.1068,2.6024],[-75.9335,21.1043,1.7511],[-75.9321,21.1046,1.7511],[-75.9321,21.1029,0.4321],[-75.9388,21.0951,8.4522],[-75.9401,21.0993,0.4288],[-75.9454,21.0976,1.9122],[-75.9624,21.0974,0.0],[-75.9632,21.0938,1.5353],[-75.9607,21.0938,4.0294],[-75.9585,21.0899,0.0],[-75.9604,21.0829,3.3785],[-75.954,21.0799,1.469],[-75.9463,21.0824,4.3283],[-75.946,21.0768,2.4396],[-75.949,21.0754,0.0],[-75.9476,21.071,0.0],[-75.9515,21.0732,2.4582],[-75.9526,21.0779,0.0],[-75.9576,21.0701,0.6182],[-75.9629,21.0693,2.5825],[-75.9576,21.0785,0.0],[-75.9604,21.0796,0.3025],[-75.9615,21.0768,6.4317],[-75.9621,21.0818,0.8776],[-75.9651,21.0788,4.7815],[-75.9638,21.0846,1.0674],[-75.9601,21.0888,0.0],[-75.9649,21.0929,2.5017],[-75.9737,21.0946,0.0],[-75.9826,21.094,0.0],[-75.9879,21.0921,0.0],[-75.9882,21.0904,5.2512],[-75.996,21.0888,0.0],[-75.9976,21.0915,0.6747],[-76.0071,21.0935,2.8673],[-76.0085,21.0926,0.0],[-76.0079,21.091,0.0],[-76.0054,21.0893,3.436],[-76.0076,21.0885,4.9514],[-76.0076,21.0868,1.4349],[-76.0054,21.0851,3.4031],[-76.009,21.0826,0.0],[-76.0093,21.079,0.4658],[-76.0068,21.0754,0.0],[-76.0049,21.076,3.8262],[-75.999,21.0721,3.1503],[-75.9996,21.0682,2.691],[-76.0051,21.0693,0.8657],[-76.0182,21.064,1.5087],[-76.0249,21.0665,1.5768],[-76.0299,21.0651,3.2238],[-76.0268,21.0701,1.7499],[-76.0218,21.0699,0.8377],[-76.0196,21.0654,1.5087],[-76.0171,21.0699,2.9237],[-76.019,21.0793,4.4252],[-76.0163,21.0843,2.604],[-76.0263,21.0863,1.5765],[-76.0276,21.086,0.8721],[-76.0282,21.0824,3.2884],[-76.0335,21.0799,1.9992],[-76.0332,21.0782,0.0],[-76.0304,21.0771,3.7147],[-76.0354,21.0768,0.0],[-76.034,21.0743,0.0],[-76.0307,21.0738,1.6424],[-76.034,21.0679,2.388],[-76.034,21.0651,2.9977],[-76.036,21.0674,0.0],[-76.0371,21.0654,1.7443],[-76.0404,21.066,1.4544],[-76.0379,21.0699,0.5578],[-76.0418,21.0713,2.2336],[-76.046,21.0682,4.7246],[-76.0443,21.071,1.0425],[-76.046,21.0724,0.9751],[-76.0393,21.0738,2.6937],[-76.0387,21.0771,0.0],[-76.0418,21.0782,0.6191],[-76.0357,21.0796,0.667],[-76.034,21.0824,1.9362],[-76.031,21.0835,0.0],[-76.0301,21.0874,0.0],[-76.0349,21.090699999999998,0.0],[-76.0507,21.0938,0.0],[-76.0651,21.1038,0.0],[-76.0762,21.1021,3.589],[-76.0882,21.1096,2.0254],[-76.1113,21.1132,0.9724],[-76.1143,21.1071,0.0],[-76.1118,21.1029,0.0],[-76.1099,21.1026,5.4375],[-76.109,21.0976,0.0],[-76.1062,21.0951,0.0],[-76.104,21.096,3.3042],[-76.1018,21.0932,3.6301],[-76.1057,21.0913,0.0],[-76.1065,21.0882,2.2016],[-76.1124,21.0868,3.1605],[-76.1204,21.0876,0.0],[-76.1299,21.0921,0.3893],[-76.1349,21.0993,1.1024],[-76.1304,21.1021,0.0],[-76.1299,21.1074,4.0254],[-76.1279,21.109,7.6127],[-76.1257,21.1079,0.0],[-76.1246,21.1099,0.0],[-76.1249,21.1115,0.0],[-76.1279,21.1129,1.7476],[-76.1301,21.1221,0.0],[-76.1285,21.126,0.3144],[-76.1254,21.1279,1.8732],[-76.126,21.1313,0.5231],[-76.1301,21.1343,0.8048],[-76.1315,21.1385,5.1569],[-76.1285,21.1496,0.0],[-76.1312,21.1529,0.0],[-76.1399,21.1557,1.4189],[-76.1454,21.1593,0.0],[-76.1457,21.1663,0.0],[-76.1476,21.1696,0.0],[-76.1654,21.1754,1.8486],[-76.1785,21.1832,0.0],[-76.1857,21.1832,2.4547],[-76.1935,21.1854,3.5996],[-76.204,21.1979,0.3301],[-76.214,21.2049,1.5045],[-76.2296,21.2096,0.0],[-76.2429,21.2099,1.6064],[-76.2513,21.2143,0.3461],[-76.2568,21.2201,0.4549],[-76.2774,21.2274,0.0],[-76.2896,21.236,0.0],[-76.296,21.2365,0.8622],[-76.3001,21.2404,1.8478],[-76.3043,21.1891,8.796],[-76.3177,21.1692,23.9465],[-76.3176,21.1633,21.0334],[-76.307,21.1587,23.0014],[-76.306,21.1561,19.3954],[-76.3084,21.1505,27.3242],[-76.3183,21.1459,22.8145],[-76.3431,21.1424,29.4122],[-76.3514,21.1376,32.3274],[-76.3652,21.1262,44.4791],[-76.3835,21.1174,27.4642],[-76.4096,21.1186,32.7556],[-76.4133,21.1159,29.6735],[-76.4283,21.101,39.4512],[-76.4656,21.0575,46.6864],[-76.476,21.0488,48.476],[-76.4915,21.0445,43.8731],[-76.5066,21.0358,54.415],[-76.5102,21.0248,56.6455],[-76.5168,20.9912,110.0536],[-76.5238,20.9769,136.3119],[-76.5302,20.9724,130.9082],[-76.5414,20.9717,118.2897],[-76.5585,20.9733,129.4919],[-76.5796,20.9712,135.5845],[-76.6062,20.9615,184.3125],[-76.6162,20.9605,161.7409],[-76.639,20.9685,142.2547],[-76.6496,20.9701,134.4787],[-76.6601,20.9691,136.748],[-76.6697,20.9655,125.5531],[-76.674,20.9598,117.5],[-76.6791,20.9474,120.4272],[-76.6807,20.932,119.1533],[-76.6796,20.9202,117.8308],[-76.673,20.8953,134.3911],[-76.6808,20.8568,94.4442],[-76.6847,20.8456,87.2979],[-76.7146,20.8087,56.0468],[-76.7145,20.8013,53.3376],[-76.712,20.7957,51.6751],[-76.6925,20.7644,46.6301],[-76.6748,20.7428,39.1241],[-76.6731,20.7349,39.3499],[-76.6761,20.7281,37.7817],[-76.6885,20.7193,34.6596],[-76.6824,20.7126,37.7368],[-76.6793,20.71,37.8908],[-76.6752,20.7098,38.4098],[-76.6641,20.717,38.4394],[-76.6601,20.717,39.6609],[-76.6545,20.7142,40.5632],[-76.6493,20.6992,38.8027],[-76.646,20.6924,35.656],[-76.6438,20.691,35.3141],[-76.6206,20.6954,38.557],[-76.6141,20.6949,39.6837],[-76.6012,20.6903,37.0076],[-76.5891,20.6905,38.9696],[-76.5628,20.6987,35.4199],[-76.5538,20.6985,36.1652],[-76.5465,20.6921,35.6302],[-76.5439,20.6818,34.5688],[-76.547,20.6621,37.3748],[-76.5541,20.6384,35.7375],[-76.5541,20.6331,35.6945],[-76.5502,20.6263,34.2535],[-76.5427,20.6241,34.7652],[-76.4864,20.623,40.1524],[-76.4739,20.6196,41.0778],[-76.4316,20.5921,44.2228],[-76.4234,20.5883,45.1798],[-76.406,20.5862,46.0917],[-76.3911,20.5863,46.3943],[-76.3572,20.5894,49.1095],[-76.3413,20.5863,50.2091],[-76.3375,20.5834,50.7422],[-76.3368,20.5787,51.0514],[-76.346,20.5648,51.1292],[-76.3459,20.5609,51.8561],[-76.3434,20.5575,51.1847],[-76.3377,20.5548,51.6808],[-76.305,20.5487,54.9053],[-76.2828,20.5381,55.1821],[-76.24,20.5274,59.096],[-76.2141,20.5177,60.4966],[-76.2031,20.5119,63.3056],[-76.1936,20.5052,64.9028],[-76.1839,20.495,66.5052],[-76.1799,20.4812,66.915],[-76.1771,20.4568,66.489],[-76.1668,20.4148,88.3712],[-76.1547,20.4158,100.4661],[-76.1344,20.4281,100.7432],[-76.1282,20.429,98.8911],[-76.1207,20.4288,98.0713],[-76.1047,20.4193,106.2095],[-76.0919,20.4147,109.4396],[-76.0676,20.4133,108.1711],[-76.0633,20.4162,102.1561],[-76.0603,20.4254,92.9716],[-76.0598,20.4526,79.925],[-76.0624,20.4628,81.4631],[-76.0761,20.4836,80.8991],[-76.0793,20.5089,75.5],[-76.0866,20.5165,78.0235],[-76.0885,20.5224,79.6881],[-76.0739,20.5429,82.1548],[-76.0656,20.5459,86.6738],[-76.0369,20.5466,90.9637],[-76.0336,20.5502,93.9833],[-76.0337,20.5569,97.1798],[-76.0461,20.5765,98.5513],[-76.0481,20.5824,100.799],[-76.0481,20.5883,102.1047],[-76.0463,20.5901,104.246],[-76.0398,20.5902,107.4593],[-76.0291,20.5862,110.388],[-76.0024,20.565,137.3332],[-75.9943,20.5621,124.5521],[-75.9663,20.5592,89.126],[-75.9597,20.5549,84.7717],[-75.9584,20.5508,79.0807],[-75.9609,20.5333,86.2001],[-75.9595,20.526,87.0069],[-75.9545,20.5237,85.6138],[-75.9281,20.5222,76.4104],[-75.9218,20.5199,74.2864],[-75.9162,20.5156,79.5646],[-75.9142,20.5112,81.0799],[-75.9141,20.5032,95.8334],[-75.9175,20.479,107.0752],[-75.9146,20.4767,122.3777],[-75.9128,20.4767,126.3507],[-75.9042,20.485,139.884],[-75.8949,20.4849,136.8964],[-75.8813,20.4747,228.9883],[-75.8764,20.4748,257.0316],[-75.8621,20.4799,266.3931],[-75.8541,20.4797,212.3556],[-75.8484,20.4769,329.8946],[-75.8401,20.4593,788.2112],[-75.8226,20.4344,507.514],[-75.8173,20.4312,448.0303],[-75.7942,20.4291,326.4181],[-75.7784,20.4326,475.8698],[-75.7664,20.4371,477.8578],[-75.7372,20.4587,461.1984],[-75.73,20.4606,453.1053],[-75.7194,20.4598,424.7233],[-75.6863,20.4463,295.3698],[-75.6436,20.4377,210.84],[-75.6321,20.4378,324.6036],[-75.5724,20.478,398.2387],[-75.5693,20.4831,400.9454],[-75.5688,20.4902,317.7621],[-75.5708,20.4966,316.9934],[-75.5787,20.5048,357.4302],[-75.58,20.5086,331.9363],[-75.5781,20.5125,373.3175],[-75.5624,20.5174,698.5624],[-75.5329,20.5213,331.9637],[-75.5221,20.5261,481.3853],[-75.5163,20.5327,562.3189],[-75.4954,20.5721,705.1096],[-75.4827,20.5764,497.6052],[-75.4488,20.5771,272.7629],[-75.4192,20.5892,315.9261],[-75.3922,20.5931,148.8551],[-75.3769,20.5933,118.9718],[-75.3672,20.5875,133.0956],[-75.3637,20.581,118.9823],[-75.3594,20.5605,233.16309999999999],[-75.359,20.5354,381.9925],[-75.3635,20.5283,185.0904],[-75.3675,20.5253,147.4689],[-75.3846,20.5212,255.4003],[-75.3911,20.5176,213.3464],[-75.4008,20.506,213.5876],[-75.4075,20.4921,170.0398],[-75.4067,20.4853,195.1258],[-75.3816,20.4859,229.7763],[-75.3756,20.4839,191.2461],[-75.367,20.4678,127.0327],[-75.3635,20.4649,151.1963],[-75.3539,20.4632,295.1879],[-75.3466,20.4589,260.162],[-75.3394,20.4387,357.2075],[-75.3207,20.4486,329.4393],[-75.3109,20.4617,255.4014],[-75.3026,20.4668,193.9968],[-75.2961,20.4668,134.3352],[-75.2889,20.4631,158.9339],[-75.2818,20.4479,264.1416],[-75.2726,20.437,167.6794]]],
[[[-74.7296,20.5912,0.2282],[-74.731,20.5921,0.0],[-74.7326,20.590699999999998,0.0],[-74.7324,20.5882,0.0],[-74.7276,20.5835,0.0],[-74.7257,20.5846,0.0],[-74.726,20.5874,0.8454],[-74.7296,20.5912,0.2282]]],
[[[-75.301,20.6712,3.3159],[-75.3021,20.6724,1.5],[-75.3035,20.6696,4.1787],[-75.2996,20.6693,1.5],[-75.301,20.6712,3.3159]]],
[[[-75.3151,20.6699,1.5],[-75.3151,20.6707,2.5045],[-75.3138,20.6732,6.6016],[-75.3157,20.6726,1.5],[-75.3151,20.6699,1.5]]],
[[[-75.2937,20.6726,1.5],[-75.2946,20.6749,4.0764],[-75.2965,20.6707,1.9539],[-75.2951,20.6721,19.7143],[-75.2937,20.6726,1.5]]],
[[[-75.1637,20.6901,0.0],[-75.1649,20.6913,0.0],[-75.1693,20.6887,6.4644],[-75.171,20.6904,4.1061],[-75.1732,20.6871,2.4547],[-75.1671,20.6868,0.0],[-75.1637,20.6901,0.0]]],
[[[-74.916,20.6985,2.2286],[-74.9185,20.6993,2.0842],[-74.924,20.696,0.0],[-74.9193,20.6924,1.6614],[-74.911,20.691,1.2748],[-74.9099,20.689,0.2267],[-74.8985,20.6846,0.8039],[-74.8971,20.6818,0.6912],[-74.8996,20.6815,0.0],[-74.8982,20.6804,0.2407],[-74.899,20.6785,0.0],[-74.8938,20.6815,0.0],[-74.8926,20.6843,0.2698],[-74.8982,20.6907,0.0],[-74.916,20.6985,2.2286]]],
[[[-75.3168,20.6932,9.707],[-75.3182,20.6943,1.5],[-75.3176,20.6904,1.5],[-75.3149,20.6921,9.4798],[-75.3126,20.6899,1.5],[-75.3107,20.6921,3.3222],[-75.3121,20.6935,3.3222],[-75.3168,20.6932,9.707]]],
[[[-74.9301,20.6988,2.7582],[-74.9326,20.6996,0.8556],[-74.9271,20.6974,0.0],[-74.9276,20.6982,3.8932],[-74.9301,20.6988,2.7582]]],
[[[-75.0026,20.7101,0.0],[-75.0068,20.7115,1.735],[-75.0113,20.7082,1.3192],[-75.0065,20.7107,1.735],[-75.0026,20.7101,0.0]]],
[[[-75.5001,20.6935,2.5478],[-75.4999,20.6968,3.1254],[-75.5013,20.6971,0.0],[-75.5062,20.6893,0.0],[-75.5029,20.6921,5.0245],[-75.5001,20.6935,2.5478]]],
[[[-75.3432,20.7004,13.4772],[-75.344,20.7012,4.679],[-75.3418,20.7038,1.5],[-75.3468,20.7001,3.5326],[-75.3449,20.699,7.3775],[-75.3454,20.6951,1.5],[-75.3437,20.6929,1.5],[-75.3412,20.6954,17.4158],[-75.3401,20.701,1.5],[-75.3415,20.7018,2.8861],[-75.3432,20.7004,13.4772]]],
[[[-75.3335,20.7049,3.9933],[-75.336,20.7057,1.5],[-75.3365,20.7043,2.9052],[-75.3335,20.7043,3.9933],[-75.3335,20.7049,3.9933]]],
[[[-75.4918,20.7143,5.5584],[-75.491,20.7188,0.0],[-75.4987,20.7088,3.4966],[-75.4962,20.7076,1.7645],[-75.4918,20.7143,5.5584]]],
[[[-75.3168,20.6787,15.194],[-75.3201,20.6801,20.628],[-75.321,20.6762,14.1091],[-75.3251,20.6776,1.5],[-75.3238,20.6754,21.6157],[-75.3249,20.6718,1.5],[-75.3226,20.6732,13.9567],[-75.3182,20.6715,1.5],[-75.3193,20.6754,14.5844],[-75.3174,20.6776,15.194],[-75.3154,20.6762,1.5],[-75.3107,20.6765,1.5],[-75.3168,20.6787,15.194]]],
[[[-75.3521,20.6849,9.0556],[-75.3535,20.6857,1.5],[-75.354,20.6843,1.5],[-75.3524,20.6801,1.5],[-75.3515,20.6813,3.4042],[-75.3529,20.6843,9.0556],[-75.3521,20.6849,9.0556]]],
[[[-75.3174,20.6868,8.9087],[-75.3179,20.6879,3.2742],[-75.3187,20.6868,1.5],[-75.3182,20.6849,1.5],[-75.3171,20.6851,1.5],[-75.3174,20.6868,8.9087]]],
[[[-75.7629,20.771,0.0],[-75.7657,20.7721,0.0],[-75.7663,20.7687,1.9142],[-75.7688,20.7676,0.0713],[-75.764,20.7668,0.0],[-75.7629,20.771,0.0]]],
[[[-75.5674,20.7176,0.0],[-75.5671,20.7201,0.0],[-75.5704,20.7193,0.0],[-75.5696,20.7174,0.0],[-75.5674,20.7176,0.0]]],
[[[-75.6257,20.7663,1.1791],[-75.6271,20.7674,0.0],[-75.6301,20.7665,1.3726],[-75.6307,20.7604,0.0],[-75.629,20.7607,0.3903],[-75.6265,20.7632,0.0],[-75.6257,20.7663,1.1791]]],
[[[-75.6232,20.7643,1.1404],[-75.6229,20.7668,0.8598],[-75.6246,20.7674,0.0],[-75.6251,20.7638,1.1404],[-75.6232,20.7643,1.1404]]],
[[[-75.7649,20.7899,1.0817],[-75.7646,20.791,0.8686],[-75.7679,20.7885,0.0],[-75.7663,20.7885,0.0],[-75.7649,20.7899,1.0817]]],
[[[-75.876,21.1029,0.0],[-75.8776,21.1032,0.0],[-75.8788,21.0985,0.0],[-75.8751,21.0943,0.0],[-75.876,21.0996,0.0],[-75.876,21.1029,0.0]]]]}
,"properties": {"GID_1": "CUB.7_1","GID_0": "CUB","country": "Cuba","province": "Holguín","VARNAME_1": "NA","NL_NAME_1": "NA","TYPE_1": "Provincia","ENGTYPE_1": "Province","CC_1": "NA","HASC_1": "CU.HO","ISO_1": "NA","name": "Holguín.province","area_km2": 8718.732,"hist_schema_id": "Elevation0-9000","hist_area_km2": {"0": 860.809,"25": 1063.338,"50": 1556.002,"75": 1368.044,"100": 1016.224,"125": 761.139,"150": 510.263,"175": 341.082,"200": 219.59,"225": 152.75,"250": 110.573,"275": 90.637,"300": 77.196,"325": 65.596,"350": 52.616,"375": 43.304,"400": 38.758,"425": 33.337,"450": 30.717,"475": 29.148,"500": 26.388,"525": 25.732,"550": 26.01,"575": 26.526,"600": 25.237,"625": 28.574,"650": 26.053,"675": 19.619,"700": 16.203,"725": 12.986,"750": 9.293,"775": 10.505,"800": 8.956,"825": 9.095,"850": 8.956,"875": 4.865,"900": 3.237,"925": 3.058,"950": 1.926,"975": 1.37,"1000": 1.132,"1025": 0.874,"1050": 0.516,"1075": 0.218,"1100": 0.099,"1125": 0.119}}}