{"type":"Feature","properties":{"ISO3166-1-Alpha-3":"PRI","country":"Puerto Rico","fill":"#F0F","id":"5260","name":"Puerto Rico"},
"geometry":{"type": "MultiPolygon","coordinates": [[[[-67.87316,18.05345,0.0],[-67.86889,18.05634,0.0],[-67.86754,18.0642,20.9587],[-67.86417,18.06875,14.903],[-67.85993,18.07315,14.0034],[-67.84976,18.09064,53.8652],[-67.84415,18.09756,7.6072],[-67.84435,18.10456,0.0],[-67.85587,18.11469,47.7322],[-67.86189,18.11612,74.4823],[-67.91975,18.11449,68.9297],[-67.9313,18.10871,64.5954],[-67.93781,18.09422,0.0],[-67.93114,18.08051,48.7747],[-67.9027,18.06542,41.017],[-67.89623,18.05634,29.5833],[-67.89196,18.05345,0.0],[-67.88256,18.05256,0.0],[-67.87316,18.05345,0.0]]],
[[[-65.27575,18.13715,0.0],[-65.28555,18.14887,0.0],[-65.29857,18.15371,0.0],[-65.35106,18.15571,0.0],[-65.38581,18.16718,0.0],[-65.39855,18.16934,0.0],[-65.47851,18.15705,0.0],[-65.48795,18.15229,0.0],[-65.50219,18.14126,0.0],[-65.52025,18.13093,0.0],[-65.54015,18.12377,0.0],[-65.55993,18.12214,0.0],[-65.56493,18.12263,0.0],[-65.58043,18.12214,0.0],[-65.56509,18.09394,42.9658],[-65.536,18.09007,116.4766],[-65.50487,18.09365,3.421],[-65.48424,18.08735,0.0],[-65.46858,18.09443,3.4829],[-65.39025,18.11197,0.6589],[-65.37121,18.11953,0.0],[-65.3566,18.12287,0.0],[-65.34773,18.11469,21.7538],[-65.34081,18.11469,0.0],[-65.33556,18.12027,0.0],[-65.31656,18.1328,91.2826],[-65.3098,18.1352,6.2067],[-65.28307,18.13349,5.8367],[-65.27575,18.13715,0.0]]],
[[[-65.25666,18.32392,0.0],[-65.28091,18.33527,0.0],[-65.30944,18.34077,0.0],[-65.33406,18.34064,4.4499],[-65.33434,18.3371,54.8585],[-65.29259,18.29995,32.8107],[-65.2788,18.2792,0.0],[-65.27481,18.28901,0.0],[-65.27652,18.29694,2.6323],[-65.28555,18.31395,32.0484],[-65.2788,18.31395,56.1094],[-65.27603,18.30634,9.6252],[-65.27042,18.30142,76.7391],[-65.26212,18.29922,24.0247],[-65.25145,18.29971,0.0],[-65.25829,18.30655,11.7635],[-65.24755,18.30585,13.6304],[-65.24462,18.30655,0.6563],[-65.25666,18.32392,0.0]]],
[[[-67.01236,18.50576,7.4606],[-67.04845,18.52114,0.0],[-67.10171,18.52277,0.0],[-67.15168,18.50894,0.0],[-67.17001,18.48602,0.0],[-67.1687,18.4606,0.0],[-67.15812,18.44311,7.6794],[-67.15945,18.42091,0.0],[-67.18432,18.40209,0.0],[-67.19839,18.3937,0.0],[-67.21736,18.38618,0.0],[-67.24027,18.37681,0.0],[-67.26882,18.3689,0.0],[-67.27084,18.36183,2.4334],[-67.2626,18.34381,0.0],[-67.25277,18.32934,0.0],[-67.23691,18.29986,0.0],[-67.21883,18.29557,12.5159],[-67.19651,18.29134,6.9366],[-67.18708,18.27277,4.9741],[-67.1712,18.22487,2.081],[-67.15847,18.21396,2.436],[-67.15186,18.20339,1.7609],[-67.15754,18.19173,2.1204],[-67.16591,18.18407,2.5866],[-67.1737,18.17617,2.8495],[-67.18378,18.13995,0.0],[-67.18324,18.10769,1.8981],[-67.19388,18.0973,4.2939],[-67.18974,18.08061,12.7304],[-67.18569,18.07043,2.4209],[-67.1954,18.06377,5.6474],[-67.20213,18.05436,2.9588],[-67.20288,18.03572,0.8447],[-67.19008,18.03031,0.0],[-67.17687,18.0327,9.7605],[-67.16723,18.0279,4.3607],[-67.1632,18.02253,3.5124],[-67.16649,18.01504,4.2743],[-67.17422,18.01118,1.5421],[-67.18334,18.00853,1.1852],[-67.1905,18.00483,0.2048],[-67.21435,17.99414,0.0],[-67.21477,17.96634,0.0],[-67.20961,17.95689,1.7655],[-67.19507,17.93568,4.3337],[-67.18419,17.93507,1.4089],[-67.19122,17.95799,0.1434],[-67.18047,17.96612,-0.3068],[-67.15856,17.95457,4.6056],[-67.12401,17.95116,1.9282],[-67.11197,17.94961,3.491],[-67.09732,17.95287,2.8703],[-67.08092,17.96125,7.8193],[-67.06701,17.97256,0.0],[-67.05271,17.96817,0.0],[-67.02853,17.96854,0.0],[-67.00596,17.96491,37.176],[-66.98571,17.96385,0.0],[-66.96325,17.94107,2.45],[-66.94913,17.93122,0.0],[-66.93041,17.92914,8.8167],[-66.92992,17.93863,0.0],[-66.92821,17.94554,20.7694],[-66.92422,17.94961,39.6124],[-66.91902,17.95014,39.9512],[-66.90783,17.9492,0.0],[-66.89265,17.95067,1.5],[-66.86148,17.94961,0.0],[-66.84057,17.9527,19.7158],[-66.8177,17.95897,2.8855],[-66.79796,17.96931,1.7372],[-66.78645,17.98436,20.8503],[-66.80012,17.98436,3.268],[-66.80012,17.99185,1.1233],[-66.78746,17.99934,5.9925],[-66.77404,18.00218,2.9991],[-66.76513,17.99803,0.0],[-66.76594,17.98436,0.0],[-66.72496,17.98436,0.0],[-66.69498,17.97309,0.0],[-66.68741,17.97134,0.0],[-66.6466,17.97663,0.0],[-66.62938,17.97517,0.0],[-66.62255,17.96385,0.0],[-66.61531,17.96674,3.0122],[-66.60827,17.97134,4.3309],[-66.59252,17.96357,0.0],[-66.58064,17.96581,0.9366],[-66.57042,17.97236,1.7321],[-66.55989,17.97753,2.8676],[-66.52701,17.97932,1.0483],[-66.51252,17.982,0.0],[-66.50197,17.98712,1.2379],[-66.4878,17.98885,0.0],[-66.46915,17.99266,2.7771],[-66.45214,17.98216,3.594],[-66.4359,17.96402,0.0],[-66.41649,17.94961,0.0],[-66.39615,17.94725,0.8637],[-66.36767,17.96601,5.2146],[-66.34447,17.97134,0.0],[-66.32811,17.97232,0.0],[-66.31916,17.97036,0.0],[-66.30663,17.96385,0.0],[-66.30138,17.9582,0.0],[-66.29772,17.9514,0.0],[-66.29259,17.94575,0.0],[-66.28307,17.94343,0.0],[-66.25552,17.94066,0.9144],[-66.24136,17.93732,0.3856],[-66.22989,17.94042,0.8279],[-66.21044,17.9571,0.0],[-66.20116,17.95051,0.0],[-66.19701,17.9444,0.0],[-66.19957,17.9396,5.5414],[-66.21044,17.93659,0.0],[-66.20983,17.93187,0.783],[-66.20857,17.92914,1.0948],[-66.20421,17.92292,0.0],[-66.19628,17.92772,0.0],[-66.18663,17.92862,0.0],[-66.17561,17.92821,0.0],[-66.16324,17.92914,0.0],[-66.10464,17.95893,14.9291],[-66.0841,17.96385,0.0],[-66.05358,17.96312,2.1215],[-66.04654,17.96385,1.5593],[-66.01708,17.97508,0.0],[-66.00499,17.97753,0.0],[-65.98453,17.97565,5.0564],[-65.96166,17.97101,0.0],[-65.93912,17.97053,0.0],[-65.88718,17.98773,0.0],[-65.84975,18.00971,0.0],[-65.83027,18.02691,0.0],[-65.84048,18.05634,1.5991],[-65.83528,18.06249,1.0199],[-65.81216,18.06729,36.4296],[-65.807,18.0703,65.7042],[-65.79314,18.08763,0.0],[-65.79029,18.11397,39.705],[-65.75487,18.16625,5.2407],[-65.73754,18.18268,4.1861],[-65.72102,18.18985,1.5473],[-65.70128,18.19424,63.8395],[-65.68297,18.20283,12.5259],[-65.66552,18.20844,5.6769],[-65.64873,18.20013,0.0],[-65.63683,18.1981,0.0],[-65.62723,18.20593,1.675],[-65.63699,18.21857,7.7928],[-65.63336,18.22918,0.0],[-65.62222,18.22926,0.0],[-65.61244,18.2145,0.0],[-65.60353,18.21527,0.0],[-65.60211,18.22375,0.0],[-65.59176,18.23088,2.6608],[-65.60377,18.24634,0.0],[-65.60659,18.25361,0.0],[-65.6037,18.26286,0.0],[-65.61759,18.25634,0.0],[-65.6258,18.25983,0.0],[-65.63292,18.26691,10.7353],[-65.62881,18.2792,7.9904],[-65.63296,18.291,0.0],[-65.63077,18.33283,2.1405],[-65.621,18.38227,11.7848],[-65.62141,18.38906,0.0],[-65.62938,18.39106,0.0],[-65.63777,18.38569,0.0],[-65.64574,18.3784,0.0],[-65.6632,18.36641,0.0],[-65.69801,18.37111,0.0],[-65.72485,18.39127,0.0],[-65.73811,18.38237,0.0],[-65.755,18.39104,0.0],[-65.77203,18.41457,0.0],[-65.77837,18.41067,1.381],[-65.78878,18.40674,2.9004],[-65.79631,18.40503,5.185],[-65.79232,18.41276,0.0],[-65.78715,18.41831,0.0],[-65.78835,18.42325,0.0],[-65.79417,18.42541,0.0],[-65.80163,18.41544,0.0],[-65.81261,18.41041,2.5476],[-65.8308,18.4287,0.0],[-65.8483,18.43789,0.0],[-65.88052,18.44481,0.0],[-65.89281,18.4536,0.0],[-65.90483,18.45592,0.0],[-65.92044,18.44589,0.0],[-65.96622,18.45844,0.0],[-65.98888,18.46308,0.0],[-65.99772,18.45018,0.8506],[-66.0121,18.44396,1.5008],[-66.02818,18.44687,0.0],[-66.0397,18.45051,3.1537],[-66.0559,18.4538,3.0929],[-66.12163,18.47347,0.0],[-66.10936,18.46141,0.0],[-66.09496,18.4477,1.8107],[-66.07677,18.43887,4.8188],[-66.06021,18.43684,4.2911],[-66.06021,18.42939,4.1221],[-66.09317,18.41983,1.0702],[-66.10847,18.42064,8.9991],[-66.11486,18.43317,3.472],[-66.11808,18.44303,1.2368],[-66.13747,18.45276,0.0],[-66.13414,18.46589,0.0],[-66.14409,18.4687,0.0],[-66.15201,18.45872,0.0],[-66.16158,18.4533,0.0],[-66.17007,18.45734,0.0],[-66.1737,18.46296,0.0],[-66.1809,18.4715,0.0],[-66.19399,18.47359,0.0],[-66.20519,18.4654,8.8652],[-66.25813,18.48151,0.0],[-66.30386,18.46882,13.6561],[-66.38239,18.49144,0.0],[-66.46744,18.47529,0.0],[-66.50707,18.4864,0.0],[-66.57144,18.48701,0.0],[-66.5878,18.48404,4.0333],[-66.61433,18.49323,0.0],[-66.64086,18.49641,0.0],[-66.69766,18.49144,0.0],[-66.73681,18.48314,0.0],[-66.7517,18.48404,0.0],[-66.78921,18.49653,0.0],[-66.80346,18.49828,0.0],[-66.90732,18.48532,0.0],[-67.01236,18.50576,7.4606]]]]}}