{"type":"Feature","properties":{"GID_1":"PRI.2_1","GID_0":"PRI","country":"PuertoRico","province":"Aguada","VARNAME_1":"NA","NL_NAME_1":"NA","TYPE_1":"Municipio","ENGTYPE_1":"Municipality","CC_1":"NA","HASC_1":"PR.AD","ISO_1":"-","name":"Aguada.province"},
"geometry":{"type": "MultiPolygon","coordinates": [[[[-67.16,18.4154,1.783],[-67.1704,18.4082,3.5605],[-67.1765,18.4068,0.9841],[-67.1768,18.4054,3.5994],[-67.1879,18.401,0.0],[-67.191,18.3985,0.0],[-67.1926,18.394,1.3983],[-67.1957,18.3921,0.0],[-67.2054,18.3893,0.0],[-67.2054,18.3879,3.4795],[-67.2115,18.3857,1.5269],[-67.2124,18.384,16.003],[-67.2262,18.3788,0.0],[-67.2396,18.3757,0.0],[-67.2274,18.3607,32.0034],[-67.2259,18.3573,34.9504],[-67.2272,18.3487,42.6163],[-67.2104,18.3361,135.1938],[-67.1955,18.3306,188.0972],[-67.1879,18.3159,297.9416],[-67.1828,18.3131,349.4586],[-67.1727,18.3185,314.299],[-67.1648,18.3152,208.6476],[-67.1611,18.3158,256.7915],[-67.1607,18.3177,270.4019],[-67.1487,18.3221,211.9404],[-67.137,18.3165,173.9016],[-67.1301,18.318,174.0363],[-67.1344,18.3304,175.8624],[-67.1313,18.3366,123.3173],[-67.1346,18.3466,174.9289],[-67.1314,18.349,173.3727],[-67.1282,18.3548,175.1819],[-67.127,18.3715,93.2976],[-67.1308,18.3757,45.3827],[-67.1323,18.3895,10.1612],[-67.1383,18.3871,8.9674],[-67.1472,18.3922,7.2793],[-67.1565,18.3935,4.5235],[-67.1547,18.3969,5.3779],[-67.1594,18.4082,9.6138],[-67.1586,18.414,10.0575],[-67.16,18.4154,1.783]]]]}}