{"type": "Feature","bbox": [-64.7439,32.3187,-64.6974,32.3606],"geometry": {"type": "MultiPolygon","coordinates": [[[[-64.7102,32.3213,1.5686],[-64.7002,32.3265,0.0],[-64.7057,32.3355,0.0],[-64.702,32.3351,9.7864],[-64.6974,32.3394,0.0],[-64.7025,32.3433,0.0],[-64.7053,32.3419,5.3669],[-64.7075,32.3442,0.68],[-64.7067,32.3472,0.0],[-64.7094,32.3506,0.9188],[-64.7072,32.3553,0.0],[-64.7086,32.3561,0.0],[-64.7111,32.3536,7.5141],[-64.7158,32.3556,0.3481],[-64.7158,32.3569,0.3481],[-64.7122,32.3581,0.0],[-64.7156,32.3606,0.0],[-64.7183,32.3544,5.6827],[-64.7228,32.3519,1.8763],[-64.7239,32.3489,0.0],[-64.7375,32.3436,13.9877],[-64.7378,32.3406,0.2831],[-64.7422,32.3336,0.0],[-64.74,32.3333,0.7015],[-64.7394,32.3317,5.938],[-64.7439,32.3258,0.0],[-64.7417,32.3239,3.9952],[-64.7354,32.3232,2.5292],[-64.7333,32.3207,13.7361],[-64.7254,32.3224,0.8787],[-64.7177,32.3187,32.4678],[-64.7181,32.325,0.0],[-64.7137,32.3289,0.0],[-64.7102,32.3213,1.5686]]],
[[[-64.725,32.35,0.0],[-64.725,32.3517,0.0],[-64.7272,32.3503,0.0],[-64.7264,32.3497,0.0],[-64.725,32.35,0.0]]]]}
,"properties": {"GID_1": "BMU.2_1","GID_0": "BMU","country": "Bermuda","province": "Hamilton","VARNAME_1": "NA","NL_NAME_1": "NA","TYPE_1": "Parish","ENGTYPE_1": "Parish","CC_1": "NA","HASC_1": "BM.HA","ISO_1": "-","name": "Hamilton.province","area_km2": 10.658965,"hist_schema_id": "Elevation0-9000","hist_area_km2": {"0": 8.061539,"25": 2.203327,"50": 0.394099}}}