{"type":"Feature","properties":{"GID_1":"PRI.46_1","GID_0":"PRI","country":"PuertoRico","province":"Luquillo","VARNAME_1":"NA","NL_NAME_1":"NA","TYPE_1":"Municipio","ENGTYPE_1":"Municipality","CC_1":"NA","HASC_1":"PR.LQ","ISO_1":"-","name":"Luquillo.province"},
"geometry":{"type": "MultiPolygon","coordinates": [[[[-65.7535,18.297,509.5573],[-65.7502,18.3013,621.2456],[-65.7438,18.2994,591.9413],[-65.7378,18.2965,660.3423],[-65.7336,18.2879,553.709],[-65.7322,18.2884,580.6226],[-65.7257,18.2922,481.8624],[-65.7253,18.295,463.0311],[-65.7206,18.296,410.6834],[-65.7206,18.3041,416.084],[-65.7192,18.3064,473.3908],[-65.71,18.3064,373.773],[-65.7044,18.3093,278.8171],[-65.7039,18.3207,304.9425],[-65.6951,18.325,238.9493],[-65.6868,18.3225,163.208],[-65.6845,18.3235,233.4198],[-65.6858,18.3302,229.0453],[-65.683,18.3321,151.4889],[-65.6779,18.3425,36.0233],[-65.6798,18.3463,52.5428],[-65.6695,18.3621,0.0],[-65.6754,18.3632,0.9109],[-65.679,18.3682,6.8481],[-65.6843,18.3679,3.2888],[-65.689,18.3657,2.1769],[-65.7021,18.3685,5.3319],[-65.7101,18.3724,0.0],[-65.716,18.3779,3.4335],[-65.7165,18.3813,0.8668],[-65.7201,18.3826,0.0],[-65.721,18.3896,0.0],[-65.7282,18.3885,4.0974],[-65.7307,18.3832,4.6483],[-65.7401,18.3796,3.7084],[-65.7497,18.3854,4.1728],[-65.7704,18.3662,13.2064],[-65.7682,18.3557,24.1541],[-65.7649,18.3547,24.727],[-65.7534,18.3413,67.0536],[-65.7538,18.3351,113.2843],[-65.7562,18.3337,101.2045],[-65.7557,18.3285,89.2871],[-65.7515,18.328,113.7581],[-65.7488,18.3256,114.9512],[-65.752,18.3204,163.2714],[-65.758,18.3185,173.5292],[-65.7627,18.3061,284.3809],[-65.7581,18.2975,399.2879],[-65.759,18.2908,595.9655],[-65.7535,18.297,509.5573]]]]}}