{"type":"Feature","properties":{"ISO3166-1-Alpha-3":"MSR","country":"Montserrat","fill":"#FF0","id":"5088","name":"Saint Georges"},
"geometry":{"type": "Polygon","coordinates": [[[-62.14737,16.74429,2.0757],[-62.15632,16.76032,13.1805],[-62.17003,16.777,56.4751],[-62.17748,16.76797,236.1879],[-62.18417,16.75458,437.8669],[-62.18863,16.73897,375.474],[-62.17897,16.7293,374.812],[-62.16855,16.72335,422.4241],[-62.15079,16.72036,34.495],[-62.15176,16.72451,31.0361],[-62.14769,16.73705,0.0],[-62.14737,16.74429,2.0757]]]}}