{"type": "Feature","bbox": [-62.1996,16.712,-62.1468,16.7826],"geometry": {"type": "MultiPolygon","coordinates": [[[[-62.1501,16.7121,8.843],[-62.1468,16.7162,0.0],[-62.1488,16.7232,6.0037],[-62.1524,16.7254,31.0361],[-62.1532,16.7296,70.4017],[-62.1515,16.7396,12.1307],[-62.1488,16.7421,1.0253],[-62.1488,16.7449,2.0757],[-62.1512,16.7479,10.9139],[-62.1499,16.7521,8.415],[-62.1521,16.7526,14.3949],[-62.1512,16.7554,13.4208],[-62.1549,16.7612,4.9749],[-62.1599,16.761,12.5628],[-62.1629,16.7629,7.9063],[-62.1629,16.7657,0.0],[-62.1685,16.7707,0.0],[-62.1699,16.7804,32.2272],[-62.1724,16.7826,10.8777],[-62.1829,16.7732,188.9249],[-62.187,16.7663,330.8196],[-62.1957,16.7474,435.7836],[-62.1996,16.7345,240.6189],[-62.1994,16.7296,170.3273],[-62.1786,16.7155,673.7462],[-62.1608,16.712,357.7368],[-62.1501,16.7121,8.843]]]]}
,"properties": {"GID_1": "MSR.2_1","GID_0": "MSR","country": "Montserrat","province": "SaintGeorges","VARNAME_1": "NA","NL_NAME_1": "NA","TYPE_1": "Parish","ENGTYPE_1": "Parish","CC_1": "NA","HASC_1": "MS.SG","ISO_1": "NA","name": "Saint_Georges.province","area_km2": 27.87668,"hist_schema_id": "Elevation0-9000","hist_area_km2": {"0": 0.42634,"25": 2.1927,"50": 1.38063,"75": 1.19786,"100": 1.03544,"125": 1.46182,"150": 1.17757,"175": 1.3197,"200": 1.56334,"225": 1.42125,"250": 1.7461,"275": 1.7258,"300": 1.6446,"325": 1.4822,"350": 1.82736,"375": 1.44157,"400": 0.77155,"425": 0.89338,"450": 0.56851,"475": 0.58880999999999994,"500": 0.48729,"525": 0.28425,"550": 0.30456,"575": 0.20305,"600": 0.22335,"625": 0.20305,"650": 0.14213,"675": 0.06092,"700": 0.06092,"750": 0.02031,"800": 0.02031}}}