{"type": "Feature","bbox": [-73.2759,19.6963,-72.9985,19.9307],"geometry": {"type": "MultiPolygon","coordinates": [[[[-73.1397,19.7442,398.9025],[-73.1406,19.738,362.1998],[-73.1304,19.7254,305.3536],[-73.1293,19.7121,311.752],[-73.1243,19.7061,247.9298],[-73.1244,19.7025,204.6993],[-73.116,19.703,165.1453],[-73.1071,19.6966,129.6395],[-73.1037,19.6963,138.8099],[-73.1017,19.6994,135.3788],[-73.1056,19.7025,145.7719],[-73.1032,19.7057,147.036],[-73.0871,19.7144,178.2784],[-73.08,19.7311,276.5549],[-73.0735,19.7329,308.2199],[-73.07,19.7312,297.2067],[-73.0661,19.7358,302.4742],[-73.0572,19.7406,497.5335],[-73.0469,19.7418,262.4481],[-73.0328,19.7379,141.7893],[-73.0267,19.7328,114.0947],[-73.0109,19.7308,168.4956],[-73.0119,19.7348,167.6678],[-73.0172,19.7395,183.5439],[-73.0217,19.7488,176.9364],[-73.0225,19.7556,157.8237],[-73.0297,19.7588,195.3983],[-73.0321,19.7619,201.566],[-73.0336,19.7741,300.4993],[-73.0288,19.7767,286.5592],[-73.0235,19.7836,232.1271],[-73.0227,19.79,193.3545],[-73.0206,19.7917,184.4931],[-73.0223,19.7954,187.2923],[-73.0203,19.8135,135.8951],[-73.0219,19.8162,146.8239],[-73.0217,19.824,107.9725],[-73.0248,19.8295,127.1359],[-73.0199,19.8375,80.4489],[-73.0182,19.8361,100.7331],[-73.014,19.837,74.7824],[-73.0127,19.8482,105.5357],[-73.0047,19.8543,57.0728],[-73.0035,19.8669,34.6076],[-73.007,19.8728,32.9831],[-73.0063,19.8752,29.778],[-72.9998,19.8806,16.3702],[-72.9997,19.8879,13.8242],[-73.0025,19.9008,23.2797],[-72.9995,19.9061,15.4813],[-73.0004,19.9171,0.0],[-72.9987,19.9179,15.8422],[-73.0038,19.9176,7.1257],[-73.014,19.9218,5.4133],[-73.031,19.9221,0.0],[-73.0324,19.919,0.0],[-73.0271,19.916,0.0],[-73.0275,19.9109,0.0],[-73.0285,19.9093,0.1864],[-73.0334,19.909,0.0],[-73.0401,19.9168,2.8268],[-73.046,19.919,0.0],[-73.0501,19.9177,4.3788],[-73.0582,19.9199,5.0925],[-73.069,19.9185,12.1856],[-73.119,19.926,0.0],[-73.1468,19.9251,12.176],[-73.1524,19.9263,23.294],[-73.154,19.929,0.0],[-73.1574,19.9287,22.0328],[-73.1579,19.9307,0.0],[-73.1651,19.9307,0.0],[-73.1679,19.9299,1.513],[-73.1715,19.9257,0.9915],[-73.1846,19.9212,0.4597],[-73.1849,19.9188,0.0],[-73.1879,19.9163,0.5535],[-73.1937,19.9143,0.0],[-73.1949,19.909,1.7477],[-73.1988,19.9076,0.0],[-73.2004,19.9046,2.769],[-73.214,19.9004,0.419],[-73.2165,19.8974,0.6176],[-73.2299,19.8893,1.6607],[-73.2329,19.8849,6.96],[-73.2421,19.8782,18.1685],[-73.2485,19.8776,0.0],[-73.2574,19.8715,6.9249],[-73.265,19.8694,0.0],[-73.2719,19.8646,5.7084],[-73.2759,19.8641,4.2002],[-73.274,19.8562,148.2695],[-73.2719,19.8543,174.6491],[-73.2717,19.8499,242.8367],[-73.2681,19.8475,283.2974],[-73.2654,19.8415,360.0597],[-73.2687,19.8389,382.1382],[-73.2677,19.8329,493.3964],[-73.2704,19.8267,558.5718],[-73.2616,19.8231,645.4899],[-73.2601,19.8205,658.02],[-73.2615,19.8119,654.245],[-73.2594,19.8036,643.9703],[-73.2632,19.8017,631.734],[-73.2636,19.7961,619.0636],[-73.261,19.7928,621.9265],[-73.26,19.7865,610.3815],[-73.2575,19.7838,612.5961],[-73.2549,19.7725,553.5139],[-73.2496,19.7709,513.9886],[-73.2402,19.7509,461.1936],[-73.2307,19.7516,489.3799],[-73.2275,19.7553,557.2034],[-73.2241,19.7548,531.5361],[-73.2139,19.7573,606.2135],[-73.216,19.7615,528.3792],[-73.2145,19.768,623.2815],[-73.2034,19.7721,769.8057],[-73.1959,19.7717,861.1613],[-73.1954,19.7792,791.6182],[-73.1864,19.7868,678.9059],[-73.188,19.7909,611.7387],[-73.1877,19.7956,561.4115],[-73.1833,19.7991,536.906],[-73.1727,19.7856,673.925],[-73.1708,19.7677,730.3651],[-73.168,19.7621,681.2491],[-73.1575,19.7617,508.5396],[-73.1565,19.7575,479.9827],[-73.161,19.7557,498.4938],[-73.1611,19.7544,501.3938],[-73.1489,19.7429,380.1862],[-73.1397,19.7442,398.9025]]],
[[[-72.9985,19.9182,15.8422],[-72.9987,19.9182,15.8422],[-72.9987,19.9179,15.8422],[-72.9985,19.918,15.8422],[-72.9985,19.9182,15.8422]]]]}
,"properties": {"GID_3": "HTI.6.1.3_1","GID_0": "HTI","country": "Haiti","GID_1": "HTI.6_1","province": "Nord-Ouest","NL_NAME_1": "NA","GID_2": "HTI.6.1_1","county": "MôleSaint-Nicolas","NL_NAME_2": "NA","city": "Jean-Rabel","VARNAME_3": "NA","NL_NAME_3": "NA","TYPE_3": "Commune","ENGTYPE_3": "Commune","CC_3": "NA","HASC_3": "NA","name": "Jean-Rabel.city","area_km2": 486.9755,"hist_schema_id": "Elevation0-9000","hist_area_km2": {"0": 15.4902,"25": 38.5786,"50": 42.489,"75": 31.7039,"100": 24.0677,"125": 24.8869,"150": 27.7624,"175": 24.4728,"200": 19.9669,"225": 18.9504,"250": 19.5685,"275": 18.1525,"300": 15.5003,"325": 14.084,"350": 13.7251,"375": 14.1044,"400": 14.1245,"425": 13.6658,"450": 13.7256,"475": 11.6509,"500": 10.3343,"525": 9.4562,"550": 9.6361,"575": 7.9003,"600": 8.0998,"625": 6.6036,"650": 6.3242,"675": 4.8079,"700": 1.3567,"725": 0.8978,"750": 1.0973,"775": 0.8978,"800": 0.8579,"825": 1.0375,"850": 0.7183,"875": 0.2793}}}