{"type":"Feature","properties":{"ISO3166-1-Alpha-3":"BHS","country":"The Bahamas","fill":"#FF0","id":"5014","name":"North Abaco"},
"geometry":{"type": "Polygon","coordinates": [[[-77.32795,26.70913,2.2558],[-77.5113,26.86953,6.3755],[-77.55358,26.89802,1.6827],[-77.60684,26.9204,0.0],[-77.62979,26.9042,0.0],[-77.68236,26.90843,0.0],[-77.77448,26.92723,0.0],[-77.86815,26.92841,0.0],[-77.91344,26.92097,0.0],[-77.94945,26.89989,0.0],[-77.95665,26.89842,0.0],[-77.95962,26.89696,0.0],[-77.96255,26.89305,0.0],[-77.94148,26.89354,0.0],[-77.90978,26.90404,0.0],[-77.83068,26.90941,0.0],[-77.81237,26.90681,0.0],[-77.79467,26.89973,0.0],[-77.76643,26.8828,0.0],[-77.75463,26.87946,0.0],[-77.71496,26.87938,0.0],[-77.69685,26.87735,0.0],[-77.63805,26.85993,0.0],[-77.61433,26.85651,0.0],[-77.59699,26.86205,0.0],[-77.57848,26.87116,2.6976],[-77.55622,26.87055,0.0],[-77.53441,26.86319,0.0],[-77.51749,26.8522,0.0],[-77.49022,26.82331,0.0],[-77.44469,26.75507,3.9571],[-77.42813,26.72118,3.1246],[-77.43399,26.70551,1.3131],[-77.42699,26.69514,0.8277],[-77.41124,26.6894,0.7648],[-77.39086,26.68769,0.1569],[-77.38492,26.69033,0.3035],[-77.38003,26.69571,0.2629],[-77.37536,26.69953,0.1304],[-77.32795,26.70913,2.2558]]]}}