{"type":"Feature","properties":{"GID_1":"BHS.22_1","GID_0":"BHS","country":"Bahamas","state":"NorthAbaco","VARNAME_1":"NA","NL_NAME_1":"NA","TYPE_1":"District","ENGTYPE_1":"District","CC_1":"NA","HASC_1":"BS.NB","ISO_1":"NA","name":"NorthAbaco.state"},
"geometry":{"type": "MultiPolygon","coordinates": [[[[-77.4201,26.6579,0.3476],[-77.4204,26.6593,0.0],[-77.4221,26.659,0.0],[-77.4221,26.6565,0.0],[-77.4207,26.6563,0.0],[-77.4201,26.6579,0.3476]]],
[[[-77.4071,26.6593,0.0],[-77.4093,26.6601,0.0727],[-77.4107,26.6582,0.1483],[-77.409,26.6576,0.2219],[-77.4071,26.6593,0.0]]],
[[[-77.416,26.6721,0.0243],[-77.4193,26.6732,0.0206],[-77.4204,26.669,0.0],[-77.4179,26.6649,0.0],[-77.4151,26.664,0.1036],[-77.4176,26.661,0.0],[-77.4149,26.659,0.0778],[-77.414,26.6529,0.0],[-77.4154,26.6482,0.0],[-77.4137,26.6476,0.0928],[-77.4115,26.6524,0.0912],[-77.4132,26.656,0.0744],[-77.4112,26.6593,0.0727],[-77.4132,26.6663,0.0],[-77.4176,26.6688,0.0214],[-77.4182,26.6718,0.0354],[-77.4165,26.671,0.0415],[-77.416,26.6721,0.0243]]],
[[[-77.426,26.6682,0.1782],[-77.4279,26.6701,0.0],[-77.4276,26.6612,0.0461],[-77.426,26.6629,0.1782],[-77.4232,26.6624,0.0],[-77.4229,26.6646,0.0484],[-77.426,26.6682,0.1782]]],
[[[-77.4071,26.6749,0.0],[-77.4112,26.6754,0.141],[-77.4096,26.6735,0.2386],[-77.4126,26.6732,0.0],[-77.4121,26.6715,0.0],[-77.4096,26.6712,0.0676],[-77.4107,26.6682,0.0634],[-77.4051,26.6721,0.2669],[-77.4049,26.6735,0.0],[-77.4071,26.6749,0.0]]],
[[[-77.4176,26.6818,0.1599],[-77.4224,26.6829,0.0],[-77.4279,26.6799,0.0],[-77.4279,26.6718,0.0],[-77.4243,26.6712,0.0698],[-77.4235,26.6746,0.0],[-77.4257,26.676,0.1248],[-77.4254,26.6779,0.0],[-77.4232,26.6804,0.0],[-77.4212,26.6785,0.0],[-77.4179,26.6799,0.0],[-77.4176,26.6818,0.1599]]],
[[[-77.4062,26.6793,0.0862],[-77.4054,26.6801,0.0862],[-77.4088,26.6796,0.0982],[-77.4076,26.6776,0.0],[-77.4062,26.6793,0.0862]]],
[[[-77.3579,26.7018,0.4295],[-77.3587,26.7032,0.1081],[-77.3604,26.7024,0.0],[-77.3621,26.6957,0.0],[-77.3596,26.6968,0.0],[-77.3579,26.7018,0.4295]]],
[[[-77.3971,26.7765,0.0],[-77.3987,26.7774,0.0],[-77.3896,26.7671,0.0],[-77.3915,26.771,0.0],[-77.3971,26.7765,0.0]]],
[[[-77.4976,26.8104,0.0],[-77.4985,26.8124,0.0],[-77.499,26.809,1.236],[-77.4968,26.8068,0.1036],[-77.499,26.8037,2.1059],[-77.5029,26.8063,0.1745],[-77.501,26.8071,0.0133],[-77.5007,26.8093,-0.0317],[-77.5035,26.8107,0.0],[-77.5057,26.8104,0.6904],[-77.5062,26.8085,0.8328],[-77.5093,26.8087,1.239],[-77.509,26.8035,0.0],[-77.4987,26.7988,0.0],[-77.4976,26.8032,0.0],[-77.4957,26.804,0.9173],[-77.4957,26.8021,0.0],[-77.4918,26.7993,0.0],[-77.496,26.7965,0.4461],[-77.4921,26.7946,0.0],[-77.4885,26.7951,0.0],[-77.4896,26.7988,1.9441],[-77.481,26.7965,0.0],[-77.4924,26.8057,0.0],[-77.4957,26.8063,0.1036],[-77.4976,26.8104,0.0]]],
[[[-77.5101,26.826,0.2838],[-77.5088,26.8265,0.0],[-77.5115,26.8271,0.0],[-77.5129,26.8254,0.4959],[-77.5113,26.8168,0.0],[-77.5088,26.8143,0.5941],[-77.5049,26.8157,0.3083],[-77.5054,26.8126,1.8705],[-77.5007,26.8135,0.0],[-77.5004,26.8154,0.0678],[-77.5101,26.8218,2.7433],[-77.5101,26.826,0.2838]]],
[[[-77.3282,26.679,0.8073],[-77.3206,26.683,0.5837],[-77.3151,26.6881,1.7366],[-77.3151,26.6915,0.389],[-77.3128,26.6918,0.0],[-77.3106,26.7033,8.9858],[-77.3135,26.7071,0.0],[-77.3318,26.7182,0.8061],[-77.341,26.7218,2.0467],[-77.3546,26.7337,2.7329],[-77.3637,26.739,0.0],[-77.3679,26.7396,0.0],[-77.3712,26.7449,0.2169],[-77.3768,26.746,5.1474],[-77.389,26.7596,5.9054],[-77.394,26.7687,1.1268],[-77.4013,26.7751,1.5807],[-77.4026,26.7787,0.0],[-77.3996,26.7799,0.0],[-77.401,26.7815,0.4093],[-77.4035,26.7812,1.4108],[-77.4029,26.7835,0.0],[-77.4071,26.7846,0.0],[-77.436,26.8146,0.7369],[-77.484,26.8496,4.5769],[-77.5171,26.8782,3.3235],[-77.5204,26.8826,1.074],[-77.5268,26.8857,2.1992],[-77.5274,26.8887,0.4442],[-77.5349,26.894,0.0],[-77.5362,26.8924,0.4726],[-77.5379,26.8929,1.3679],[-77.5465,26.8979,3.7601],[-77.5543,26.9049,1.8451],[-77.5829,26.9207,0.0],[-77.5874,26.9212,0.0],[-77.5854,26.9201,7.479],[-77.5854,26.9165,4.3202],[-77.5826,26.9121,0.9364],[-77.5821,26.9051,0.117],[-77.5837,26.904,0.117],[-77.5804,26.9018,1.3778],[-77.5826,26.9015,0.646],[-77.5888,26.896,0.5881],[-77.5901,26.8963,0.5881],[-77.5837,26.9018,0.646],[-77.5849,26.9026,0.723],[-77.5879,26.8996,0.4257],[-77.5865,26.9015,0.0507],[-77.5882,26.9018,0.0507],[-77.5843,26.9063,0.0],[-77.5926,26.9001,1.0888],[-77.594,26.901,0.1126],[-77.5885,26.9043,1.3055],[-77.5882,26.9065,0.0],[-77.5943,26.9018,0.1126],[-77.5965,26.9021,0.0],[-77.5949,26.901,0.6768],[-77.5965,26.8996,0.9688],[-77.6012,26.9007,0.0],[-77.6024,26.8993,0.2929],[-77.6068,26.8999,0.118],[-77.6165,26.8974,0.4695],[-77.6174,26.8979,0.4473],[-77.6135,26.899,0.0],[-77.6188,26.8996,0.1209],[-77.6251,26.8988,0.0],[-77.6249,26.8974,0.0],[-77.6288,26.8963,1.5219],[-77.6374,26.8965,0.59],[-77.6521,26.899,1.0927],[-77.6479,26.9007,0.0],[-77.6626,26.9004,4.0754],[-77.7096,26.9076,0.0],[-77.7157,26.9065,2.3427],[-77.7224,26.9107,0.0],[-77.7296,26.9118,0.3266],[-77.7326,26.9107,0.2883],[-77.7521,26.9146,0.2054],[-77.759,26.9143,1.5233],[-77.771,26.9201,0.2433],[-77.7715,26.9182,4.3491],[-77.7807,26.9201,1.2068],[-77.7821,26.919,1.1094],[-77.8007,26.9199,2.3292],[-77.8074,26.9168,1.6786],[-77.8268,26.9151,0.0937],[-77.8185,26.9107,1.6014],[-77.8115,26.911,2.6506],[-77.8082,26.9096,0.9155],[-77.809,26.9068,0.0],[-77.8021,26.8985,0.0],[-77.7999,26.8988,0.0],[-77.8029,26.9018,0.6796],[-77.801,26.9043,0.9066],[-77.8012,26.9065,0.4222],[-77.7901,26.906,0.8529],[-77.7835,26.9021,0.4309],[-77.7824,26.9057,1.3741],[-77.7779,26.9071,1.8328],[-77.7712,26.9049,0.496],[-77.7693,26.9018,0.0503],[-77.7637,26.899,0.1081],[-77.7635,26.9018,0.1788],[-77.766,26.9018,0.2036],[-77.7643,26.9043,0.6483],[-77.7582,26.9013,0.0],[-77.7501,26.9015,1.5587],[-77.7487,26.8988,-0.0568],[-77.7407,26.8949,0.0],[-77.739,26.8954,0.0335],[-77.7401,26.8999,0.0192],[-77.7354,26.8996,0.0001],[-77.7354,26.8943,-0.0029],[-77.734,26.8932,-0.1177],[-77.7401,26.8926,-0.0086],[-77.7435,26.8954,-0.0407],[-77.7471,26.8954,0.0],[-77.749,26.889,0.0],[-77.7438,26.8851,0.0],[-77.7346,26.8832,0.0],[-77.729,26.884,1.7903],[-77.7265,26.8876,1.6887],[-77.719,26.8913,0.8143],[-77.7168,26.8949,0.0],[-77.7182,26.8974,2.4798],[-77.7176,26.9015,0.0],[-77.7138,26.904,3.3331],[-77.709,26.8974,3.4253],[-77.6951,26.8968,2.538],[-77.6926,26.8932,0.0],[-77.6851,26.8918,0.0],[-77.6846,26.8879,0.0745],[-77.6815,26.8865,0.0],[-77.6796,26.8882,0.0],[-77.6776,26.8851,0.0],[-77.6732,26.8843,2.7874],[-77.6643,26.8729,1.3815],[-77.6571,26.8713,0.7012],[-77.6554,26.8688,5.7289],[-77.6501,26.8662,0.0],[-77.6326,26.8665,1.2292],[-77.626,26.8643,2.2202],[-77.6226,26.8613,1.0784],[-77.6176,26.8615,0.0],[-77.6157,26.864,4.2836],[-77.5974,26.8679,2.3097],[-77.5813,26.869,4.3736],[-77.5746,26.8676,0.0],[-77.5751,26.8701,0.0],[-77.5732,26.8715,0.5724],[-77.5604,26.8754,0.0],[-77.5465,26.8732,0.0],[-77.5382,26.8746,0.0],[-77.5371,26.8779,-0.1834],[-77.539,26.8818,-0.0136],[-77.5413,26.8793,-0.0242],[-77.5587,26.881,0.0883],[-77.5612,26.8793,0.1231],[-77.564,26.8804,0.559],[-77.5671,26.879,0.0344],[-77.5707,26.8815,0.0],[-77.5732,26.8774,0.0],[-77.579,26.881,0.0],[-77.5785,26.879,0.1904],[-77.5762,26.8785,0.0],[-77.5738,26.8749,-0.1902],[-77.5774,26.8743,0.0],[-77.5801,26.8796,-0.6064],[-77.5801,26.8746,-0.4465],[-77.5826,26.8804,-0.1269],[-77.581,26.8796,-0.6064],[-77.5801,26.8807,0.235],[-77.5857,26.8846,0.0],[-77.5888,26.8838,1.7108],[-77.5865,26.8918,2.5548],[-77.5799,26.8979,0.0],[-77.5799,26.9013,0.0846],[-77.5771,26.8996,0.3538],[-77.5774,26.8976,0.3139],[-77.5804,26.8929,-0.0647],[-77.584,26.8913,0.2544],[-77.5843,26.8879,0.0],[-77.579,26.8851,0.0],[-77.5749,26.8854,0.0],[-77.5585,26.8929,-0.1075],[-77.5585,26.8913,0.0016],[-77.564,26.8899,-0.0183],[-77.5665,26.8854,0.0],[-77.5624,26.8857,-0.1179],[-77.5632,26.8835,0.0],[-77.5601,26.8812,0.0],[-77.5482,26.8812,0.0],[-77.5432,26.8863,-0.1594],[-77.551,26.8915,0.0],[-77.5507,26.8935,0.0],[-77.5488,26.8935,-0.0426],[-77.5426,26.8876,0.574],[-77.5301,26.8812,3.522],[-77.5296,26.8788,-0.0028],[-77.5276,26.8788,1.7382],[-77.5251,26.8746,0.0],[-77.5093,26.8607,4.578],[-77.5038,26.8521,6.293],[-77.5004,26.8513,0.0],[-77.4996,26.8487,0.0],[-77.4962,26.8482,3.7786],[-77.4912,26.8393,0.2835],[-77.4865,26.8362,1.952],[-77.4865,26.834,0.0835],[-77.4818,26.8326,0.7116],[-77.4815,26.8307,0.0],[-77.4788,26.8301,9.2638],[-77.4749,26.8249,5.5714],[-77.4701,26.8126,0.0466],[-77.4757,26.8146,0.2478],[-77.476,26.8185,0.1285],[-77.4776,26.8188,0.0],[-77.4799,26.8143,0.1983],[-77.4849,26.8146,0.1653],[-77.4885,26.809,0.1877],[-77.4865,26.8087,0.0],[-77.4796,26.8132,0.1951],[-77.4757,26.8113,0.0],[-77.4726,26.8121,0.2004],[-77.4718,26.8093,0.1619],[-77.4676,26.8085,0.0],[-77.4546,26.7954,0.0],[-77.451,26.7765,1.2567],[-77.4504,26.7579,0.0],[-77.4543,26.7412,0.4908],[-77.4521,26.7324,0.3518],[-77.4551,26.7276,0.0],[-77.4482,26.7213,5.6553],[-77.449,26.7168,0.0],[-77.4435,26.7174,6.6171],[-77.4374,26.7115,6.5767],[-77.4329,26.7032,0.6019],[-77.4332,26.6982,0.0],[-77.4254,26.694,1.4254],[-77.4238,26.6879,0.0],[-77.4168,26.686,0.206],[-77.4129,26.6824,0.783],[-77.4068,26.6871,1.5155],[-77.4015,26.6874,0.2738],[-77.4049,26.6826,0.0461],[-77.4037,26.6804,0.0],[-77.3987,26.681,0.0],[-77.3979,26.6851,0.0334],[-77.3946,26.6865,0.0],[-77.3901,26.6868,0.126],[-77.3893,26.6854,0.0],[-77.3807,26.6863,0.13],[-77.3779,26.6849,0.0],[-77.3749,26.689,0.0],[-77.3757,26.696,0.0],[-77.3735,26.7007,0.098],[-77.3615,26.7054,0.0],[-77.359,26.7082,0.0],[-77.359,26.706,0.0],[-77.3532,26.6993,0.2079],[-77.3535,26.6963,0.1317],[-77.3485,26.6926,0.1844],[-77.3496,26.6854,0.0],[-77.3485,26.6793,0.2539],[-77.3457,26.6779,0.0],[-77.3463,26.6746,0.0726],[-77.341,26.674,0.0],[-77.3349,26.6776,0.0],[-77.3357,26.679,0.0],[-77.3415,26.6787,0.2675],[-77.3446,26.6818,0.2211],[-77.3446,26.684,0.157],[-77.3424,26.6835,0.0],[-77.3421,26.681,0.0],[-77.339,26.6818,0.1603],[-77.3382,26.6799,0.0],[-77.3335,26.6832,0.1249],[-77.3315,26.6793,0.9402],[-77.3282,26.679,0.8073]]],
[[[-77.5399,26.869,-0.0384],[-77.5396,26.8701,-0.0384],[-77.5421,26.8699,-0.1296],[-77.5435,26.8676,0.0],[-77.5429,26.8662,0.0],[-77.5393,26.8668,-0.0107],[-77.5432,26.8632,0.0],[-77.5421,26.8532,1.9205],[-77.5332,26.8504,3.3624],[-77.5324,26.8443,3.1021],[-77.5207,26.836,0.0],[-77.5171,26.8388,0.2096],[-77.5168,26.836,0.0],[-77.5196,26.8343,0.5358],[-77.5193,26.8324,0.7624],[-77.5165,26.8312,0.0],[-77.5121,26.8374,0.318],[-77.5154,26.841,0.0],[-77.5143,26.8435,0.0799],[-77.5176,26.8421,0.2758],[-77.5151,26.8443,0.0],[-77.5179,26.8443,0.0],[-77.5179,26.840699999999998,0.1503],[-77.5212,26.8399,0.4734],[-77.5274,26.846,1.5327],[-77.5268,26.8482,0.3123],[-77.5296,26.8526,0.0306],[-77.5315,26.8493,2.2348],[-77.5338,26.8574,0.0],[-77.5338,26.859,0.1796],[-77.5324,26.859,0.3983],[-77.5296,26.854,0.081],[-77.5279,26.8538,0.1609],[-77.5279,26.8554,0.1609],[-77.526,26.8546,0.0],[-77.5257,26.8563,0.1652],[-77.5207,26.8563,0.0613],[-77.5196,26.861,0.0],[-77.5215,26.8604,0.0],[-77.5224,26.8574,0.0],[-77.5276,26.8585,0.2666],[-77.5321,26.8624,0.0],[-77.5343,26.8618,0.1504],[-77.5349,26.8637,-0.1985],[-77.5326,26.8646,0.0],[-77.5362,26.869,0.0],[-77.5399,26.8682,-0.0363],[-77.5399,26.869,-0.0384]]],
[[[-77.5251,26.8704,0.3693],[-77.526,26.8724,0.0],[-77.5276,26.8718,0.0],[-77.5265,26.8671,0.0],[-77.5249,26.8693,0.3693],[-77.5251,26.8704,0.3693]]],
[[[-77.639,26.9004,0.0],[-77.6418,26.901,0.0],[-77.6424,26.9001,0.0],[-77.6413,26.9004,0.0],[-77.639,26.9004,0.0]]],
[[[-77.9149,26.8021,0.0],[-77.9165,26.8035,0.4762],[-77.9174,26.8021,0.4762],[-77.9171,26.7963,0.4273],[-77.914,26.7932,0.0],[-77.9137,26.8004,0.4795],[-77.9149,26.8021,0.0]]],
[[[-77.9104,26.8074,0.0],[-77.9124,26.8082,0.0],[-77.914,26.8079,0.0],[-77.9126,26.8065,0.0],[-77.9104,26.8074,0.0]]],
[[[-77.9499,26.8201,0.2941],[-77.9574,26.8207,0.0],[-77.9557,26.8118,0.0],[-77.9526,26.8085,0.0],[-77.9432,26.8113,0.0],[-77.9454,26.8182,0.0],[-77.9499,26.8201,0.2941]]],
[[[-77.924,26.8229,0.1528],[-77.9271,26.8229,0.1657],[-77.9246,26.8174,0.2066],[-77.9201,26.816,0.2858],[-77.9171,26.8121,0.0],[-77.919,26.8185,0.0],[-77.924,26.8229,0.1528]]],
[[[-77.9335,26.8324,0.0],[-77.9385,26.8324,0.0],[-77.941,26.8293,0.5058],[-77.9413,26.826,0.6226],[-77.9454,26.8221,0.3423],[-77.9418,26.8115,0.067],[-77.9324,26.8151,0.1145],[-77.9257,26.8143,0.0],[-77.926,26.8163,0.1693],[-77.9296,26.8188,0.2334],[-77.9335,26.8324,0.0]]],
[[[-77.9151,26.8368,0.1591],[-77.9168,26.8382,0.1009],[-77.9204,26.8351,0.0],[-77.9193,26.8251,1.0276],[-77.9143,26.8188,0.2306],[-77.9154,26.8263,0.0],[-77.9201,26.8326,0.0],[-77.9201,26.8338,0.0],[-77.9163,26.8338,0.0343],[-77.9115,26.8257,0.0],[-77.9132,26.8229,0.1549],[-77.9124,26.8149,0.0],[-77.9082,26.8126,0.0168],[-77.9079,26.8157,0.0985],[-77.9062,26.8157,0.0665],[-77.904,26.8101,0.0],[-77.9021,26.809,0.0],[-77.9015,26.8104,0.0],[-77.9043,26.8137,0.0614],[-77.9037,26.8174,0.435],[-77.9107,26.826,0.0],[-77.9151,26.8368,0.1591]]],
[[[-77.906,26.8379,0.1607],[-77.9093,26.839,0.0],[-77.9104,26.8365,0.2553],[-77.909,26.8307,0.0711],[-77.9029,26.8221,0.0],[-77.9013,26.8282,0.2253],[-77.906,26.8379,0.1607]]],
[[[-77.9179,26.8432,0.0],[-77.9196,26.8463,0.0],[-77.9199,26.8426,0.0],[-77.9176,26.8415,0.0],[-77.9179,26.8432,0.0]]],
[[[-77.8085,26.8526,0.0],[-77.8071,26.8524,0.1596],[-77.8074,26.8549,0.2823],[-77.8087,26.8549,0.0],[-77.8085,26.8526,0.0]]],
[[[-77.7971,26.8557,0.5547],[-77.7965,26.8587,1.2289],[-77.7985,26.859,0.0],[-77.799,26.8563,0.0],[-77.7971,26.8557,0.5547]]],
[[[-77.761,26.8713,0.0],[-77.7626,26.8721,0.0],[-77.7635,26.871,0.0],[-77.7596,26.8693,0.1451],[-77.7568,26.8704,0.0],[-77.7571,26.8718,0.2053],[-77.761,26.8713,0.0]]],
[[[-77.7138,26.8774,0.4348],[-77.7179,26.8782,0.0],[-77.7213,26.8762,0.1413],[-77.7257,26.8718,2.1569],[-77.7246,26.8688,1.2332],[-77.7143,26.8713,0.9685],[-77.7126,26.8732,0.303],[-77.7138,26.8774,0.4348]]],
[[[-77.9024,26.8749,0.4012],[-77.9065,26.8754,0.6019],[-77.9137,26.871,0.0],[-77.9135,26.8696,0.0],[-77.9115,26.871,1.7468],[-77.9051,26.8699,0.0978],[-77.9085,26.8665,0.3128],[-77.9107,26.8685,0.0494],[-77.911,26.8671,0.0494],[-77.9135,26.8682,0.0],[-77.9129,26.8651,0.1543],[-77.9096,26.8657,0.1183],[-77.9096,26.8629,0.7793],[-77.906,26.8624,0.215],[-77.9054,26.8649,1.6521],[-77.8985,26.866,3.5347],[-77.8982,26.8637,0.4881],[-77.8907,26.8587,0.5267],[-77.8849,26.8574,2.6701],[-77.8865,26.8513,0.7822],[-77.8849,26.849,0.0],[-77.8826,26.8532,0.0],[-77.8829,26.8571,0.0],[-77.8949,26.8637,2.0924],[-77.8982,26.8679,0.0966],[-77.8951,26.8685,0.2975],[-77.8957,26.871,0.6377],[-77.9024,26.8749,0.4012]]],
[[[-77.8771,26.8757,0.6195],[-77.8793,26.8768,0.1019],[-77.8801,26.8754,0.9302],[-77.8788,26.8718,0.0925],[-77.8799,26.8671,1.0453],[-77.8688,26.8713,0.5942],[-77.8693,26.8732,0.7929],[-77.8771,26.8757,0.6195]]],
[[[-77.8518,26.8865,-0.7484],[-77.8593,26.8865,0.3547],[-77.861,26.8824,0.0],[-77.8582,26.8796,0.0],[-77.8551,26.8796,0.402],[-77.854,26.8818,1.0177],[-77.8504,26.8832,0.5599],[-77.8518,26.8865,-0.7484]]],
[[[-77.8299,26.9149,0.0],[-77.8346,26.9157,0.0],[-77.859,26.9151,0.5957],[-77.8885,26.9068,3.4079],[-77.8918,26.9076,0.2169],[-77.924,26.8999,0.8594],[-77.9524,26.8971,0.0],[-77.9549,26.8949,0.0],[-77.9512,26.8932,0.0],[-77.9451,26.896,1.704],[-77.9426,26.8951,0.0],[-77.9396,26.8968,0.0],[-77.901,26.9015,0.0],[-77.8601,26.9126,0.5607],[-77.8421,26.9135,0.0],[-77.836,26.9151,0.2579],[-77.8318,26.9138,1.3075],[-77.8329,26.9121,1.7477],[-77.8301,26.9118,0.0],[-77.8299,26.9149,0.0]]],
[[[-77.6351,26.9004,0.0],[-77.6351,26.9015,0.0],[-77.6385,26.9013,0.0],[-77.6382,26.9001,0.0],[-77.6351,26.9004,0.0]]],
[[[-77.6201,26.9018,0.0],[-77.6221,26.9029,0.0],[-77.6288,26.9007,0.0],[-77.6276,26.9004,0.0],[-77.6201,26.9018,0.0]]],
[[[-77.601,26.9046,0.1172],[-77.6029,26.9057,0.0],[-77.616,26.9026,0.0],[-77.6135,26.9018,0.0],[-77.6038,26.9049,0.1174],[-77.6029,26.9035,0.2847],[-77.6082,26.901,0.0],[-77.6015,26.9013,0.0],[-77.5957,26.9049,0.0],[-77.601,26.9046,0.1172]]],
[[[-77.5985,26.9079,0.0],[-77.5982,26.9093,0.0],[-77.6001,26.9082,0.0],[-77.6043,26.909,0.0],[-77.6065,26.9065,0.0],[-77.6051,26.9074,0.0],[-77.5985,26.9079,0.0]]],
[[[-77.5929,26.9101,0.5504],[-77.5954,26.9104,0.0],[-77.5946,26.9085,0.0],[-77.5904,26.909,0.2669],[-77.5904,26.9101,0.2669],[-77.5929,26.9101,0.5504]]],
[[[-77.6026,26.911,0.0],[-77.6049,26.9118,0.0],[-77.6062,26.9118,0.0],[-77.5996,26.9099,0.0],[-77.6026,26.911,0.0]]],
[[[-77.709,26.9146,0.0],[-77.7121,26.9154,0.0],[-77.714,26.9151,0.0],[-77.7076,26.9138,0.0],[-77.709,26.9146,0.0]]],
[[[-77.6032,26.9268,1.8678],[-77.6049,26.9276,0.0],[-77.5999,26.924,1.247],[-77.5896,26.921,0.0],[-77.5912,26.9229,0.0],[-77.6032,26.9268,1.8678]]],
[[[-77.8493,26.8921,0.0],[-77.8521,26.8921,0.0],[-77.8501,26.889,0.0],[-77.8457,26.8896,0.3397],[-77.8471,26.8918,0.1857],[-77.8493,26.8921,0.0]]],
[[[-77.849,26.8963,0.0],[-77.851,26.8974,0.0],[-77.8521,26.8957,0.0],[-77.8507,26.8954,0.0],[-77.849,26.8963,0.0]]],
[[[-77.7601,26.8965,0.0],[-77.761,26.8979,0.0],[-77.7629,26.8974,0.0187],[-77.7624,26.8954,0.0],[-77.7601,26.8965,0.0]]],
[[[-77.8374,26.9057,0.0],[-77.8393,26.9068,0.1153],[-77.8396,26.9049,0.0],[-77.8376,26.904,0.68],[-77.8399,26.9021,1.3774],[-77.8271,26.8957,1.5133],[-77.8213,26.8946,1.5563],[-77.8182,26.8901,0.0],[-77.8165,26.8929,0.3968],[-77.8115,26.8932,0.0],[-77.8235,26.8968,0.9623],[-77.834,26.9051,0.2703],[-77.8374,26.9057,0.0]]],
[[[-77.8432,26.9026,0.204],[-77.8454,26.9035,0.9241],[-77.849,26.9015,0.0],[-77.849,26.9001,0.0],[-77.8432,26.901,0.6774],[-77.8424,26.899,0.6921],[-77.8437,26.8963,0.0],[-77.8424,26.896,1.0123],[-77.841,26.8965,0.0],[-77.8401,26.901,0.0],[-77.8432,26.9026,0.204]]],
[[[-77.8288,26.9079,0.4751],[-77.8332,26.9085,0.0],[-77.8187,26.8996,0.0],[-77.8107,26.8988,0.1436],[-77.8207,26.9024,0.0],[-77.8288,26.9079,0.4751]]],
[[[-77.7379,26.919,0.0],[-77.7407,26.9199,0.0],[-77.7354,26.9174,0.0],[-77.7357,26.9185,0.0],[-77.7379,26.919,0.0]]],
[[[-77.7887,26.9382,1.2761],[-77.7904,26.939,0.0],[-77.7926,26.9365,0.914],[-77.7951,26.9382,0.632],[-77.796,26.936,1.0061],[-77.7862,26.9351,1.3038],[-77.7826,26.9324,0.4404],[-77.7724,26.9324,1.2254],[-77.7743,26.934,0.0],[-77.7838,26.9349,3.5569],[-77.7887,26.9382,1.2761]]]]}}