{"type": "Feature","bbox": [-61.2137,14.7293,-61.1295,14.8197],"geometry": {"type": "MultiPolygon","coordinates": [[[[-61.1605,14.8197,973.1614],[-61.1665,14.8187,1248.6877],[-61.1716,14.8119,1002.855],[-61.2031,14.7952,190.6005],[-61.2137,14.7815,0.8614],[-61.2051,14.7799,0.0],[-61.1982,14.7668,1.8969],[-61.1946,14.7638,5.398],[-61.1921,14.7638,28.4289],[-61.1801,14.7513,0.0],[-61.1765,14.7451,6.5437],[-61.1765,14.7354,85.5414],[-61.179,14.7335,0.0],[-61.1796,14.7306,8.4082],[-61.175,14.7299,101.8701],[-61.1666,14.7317,175.1934],[-61.1612,14.7293,262.9811],[-61.1571,14.7319,329.6304],[-61.1583,14.7342,345.8856],[-61.158,14.7446,201.1508],[-61.1355,14.7456,471.7636],[-61.1295,14.7475,591.5558],[-61.1334,14.7506,434.8623],[-61.1575,14.7582,154.1849],[-61.1563,14.7676,233.7063],[-61.1487,14.7758,402.0429],[-61.146,14.7811,413.6671],[-61.1484,14.8002,678.1294],[-61.1605,14.8197,973.1614]]]]}
,"properties": {"GID_2": "MTQ.4.8_1","GID_0": "MTQ","country": "Martinique","GID_1": "MTQ.4_1","province": "Saint-Pierre","NL_NAME_1": "NA","county": "Saint-Pierre","VARNAME_2": "NA","NL_NAME_2": "NA","TYPE_2": "Commune","ENGTYPE_2": "Commune","CC_2": "NA","HASC_2": "MQ.SP.SP","name": "Saint-Pierre.county","area_km2": 40.73558,"hist_schema_id": "Elevation0-9000","hist_area_km2": {"0": 0.69709,"25": 1.66069,"50": 1.72219,"75": 1.96822,"100": 1.80421,"125": 1.53767,"150": 1.7017,"175": 1.98875,"200": 1.90669,"225": 1.53765,"250": 1.57865,"275": 1.74267,"300": 1.39411,"325": 1.43511,"350": 1.33259,"375": 1.02504,"400": 1.27106,"425": 0.90204,"450": 1.12754,"475": 1.06603,"500": 0.88151,"525": 0.6355,"550": 0.77898,"575": 0.73798,"600": 0.67648,"625": 0.65598,"650": 0.53298,"675": 0.45098,"700": 0.53298,"725": 0.45097,"750": 0.45097,"775": 0.34848,"800": 0.28698,"825": 0.30748,"850": 0.24598,"875": 0.28698,"900": 0.20498,"925": 0.18448,"950": 0.12299,"975": 0.22548,"1000": 0.16398,"1025": 0.16398,"1050": 0.20498,"1075": 0.18448,"1100": 0.10249,"1125": 0.16398,"1150": 0.28697,"1175": 0.08199,"1200": 0.22547,"1225": 0.18448,"1250": 0.22547,"1275": 0.12299,"1300": 0.08199,"1325": 0.06149,"1350": 0.041,"1375": 0.041}}}