{"type":"Feature","properties":{"GID_2":"CUB.13.2_1","GID_0":"CUB","country":"Cuba","GID_1":"CUB.13_1","province":"PinardelRío","NL_NAME_1":"NA","county":"Candelaria","VARNAME_2":"NA","NL_NAME_2":"NA","TYPE_2":"Municipio","ENGTYPE_2":"Municipality","CC_2":"NA","HASC_2":"CU.PR.CA","name":"Candelaria.county"},
"geometry":{"type": "MultiPolygon","coordinates": [[[[-82.9124,22.8899,80.4453],[-82.9437,22.8829,159.1185],[-82.9698,22.8748,337.5391],[-82.9889,22.8661,301.4391],[-83.0015,22.8545,190.2272],[-83.0241,22.8187,258.5421],[-83.0294,22.8148,386.1019],[-83.0344,22.8148,424.1535],[-83.0476,22.8205,379.7139],[-83.0646,22.8333,407.6434],[-83.0798,22.8399,287.7911],[-83.0865,22.84,232.9122],[-83.098,22.8352,181.1756],[-83.1077,22.8267,161.8411],[-83.1264,22.7911,351.552],[-83.1078,22.7801,365.8716],[-83.0397,22.7607,129.5943],[-83.0222,22.7528,83.7482],[-82.9892,22.7321,39.5605],[-82.9548,22.7007,23.3998],[-82.9452,22.6903,21.7235],[-82.9365,22.6741,19.8792],[-82.9318,22.6576,17.0973],[-82.9181,22.6317,10.3814],[-82.8935,22.5645,1.0554],[-82.8915,22.5679,0.2742],[-82.8821,22.5729,0.0],[-82.8799,22.5765,0.1976],[-82.8729,22.5801,0.0],[-82.8679,22.5851,0.0],[-82.8579,22.5888,2.1198],[-82.8504,22.5896,0.7019],[-82.8393,22.5943,0.6168],[-82.8262,22.5965,0.0],[-82.8182,22.6007,1.1195],[-82.851,22.6293,4.7797],[-82.8656,22.6468,8.8502],[-82.8692,22.6561,12.7097],[-82.8801,22.7029,19.5429],[-82.8955,22.7253,28.2755],[-82.9543,22.7716,50.1844],[-82.9547,22.7763,50.8773],[-82.9496,22.7864,68.8635],[-82.9133,22.8079,74.6494],[-82.9031,22.8243,78.3387],[-82.9008,22.8346,127.7149],[-82.9007,22.8456,119.1044],[-82.9124,22.8899,80.4453]]]]}}