{"type":"Feature","properties":{"GID_1":"TTO.3_1","GID_0":"TTO","country":"TrinidadandTobago","province":"Couva-Tabaquite-Talparo","VARNAME_1":"Couva","NL_NAME_1":"NA","TYPE_1":"Region","ENGTYPE_1":"Region","CC_1":"NA","HASC_1":"TT.CT","ISO_1":"TT-CTT","name":"Couva-Tabaquite-Talparo.province"},
"geometry":{"type": "MultiPolygon","coordinates": [[[[-61.4687,10.5229,0.0],[-61.4687,10.5207,0.0],[-61.4749,10.5146,4.9228],[-61.4732,10.5046,10.3363],[-61.4751,10.4988,4.995],[-61.4732,10.4951,0.0],[-61.4715,10.496,12.7608],[-61.4707,10.4946,5.7972],[-61.4715,10.4838,2.0148],[-61.4743,10.4818,1.7248],[-61.4738,10.4793,2.5599],[-61.4771,10.4749,0.0],[-61.4807,10.4613,1.5672],[-61.4871,10.4493,0.0],[-61.4874,10.4374,6.9645],[-61.4924,10.4299,7.71],[-61.4893,10.4276,8.4701],[-61.4926,10.4282,1.2625],[-61.4949,10.4232,0.0],[-61.4999,10.4201,0.0],[-61.4982,10.419,8.006],[-61.4932,10.421,8.0176],[-61.4899,10.4196,9.3677],[-61.4912,10.4099,4.3411],[-61.4957,10.4063,0.0],[-61.4954,10.4032,0.0],[-61.4929,10.4035,0.0],[-61.4921,10.4018,1.0922],[-61.4949,10.396,0.0],[-61.4929,10.3974,0.0],[-61.4907,10.3962,0.7239],[-61.4901,10.386,2.9714],[-61.4857,10.384,5.0009],[-61.4907,10.3807,0.9671],[-61.4824,10.3796,0.0],[-61.4835,10.3763,3.4736],[-61.4888,10.3787,4.7393],[-61.4938,10.3779,0.9325],[-61.486,10.3757,2.3716],[-61.4749,10.3657,3.2728],[-61.4712,10.3651,0.0],[-61.4676,10.3618,7.5342],[-61.4632,10.3488,2.2495],[-61.4649,10.3457,1.4728],[-61.461,10.3438,3.9694],[-61.4618,10.3354,0.0],[-61.4599,10.3304,0.0],[-61.464,10.3246,3.588],[-61.4674,10.324,0.6604],[-61.4715,10.3257,0.0],[-61.4674,10.3229,3.4863],[-61.4671,10.3201,0.0],[-61.4621,10.3199,0.0],[-61.4657,10.3187,2.2908],[-61.4649,10.3151,3.3959],[-61.4676,10.311,6.6265],[-61.4407,10.3106,10.4673],[-61.437,10.3149,8.8848],[-61.43,10.3133,11.9774],[-61.4236,10.3181,11.8704],[-61.4151,10.3127,14.4987],[-61.4119,10.3078,14.4961],[-61.4055,10.3153,16.108],[-61.3947,10.318,21.233],[-61.3947,10.3201,17.0386],[-61.3974,10.3223,21.2177],[-61.3974,10.3239,20.8089],[-61.3947,10.3255,23.7381],[-61.3888,10.3282,22.2685],[-61.3701,10.3265,30.3131],[-61.3578,10.3285,45.2856],[-61.3551,10.3355,36.0625],[-61.3476,10.3371,103.2732],[-61.3428,10.3403,102.5803],[-61.3347,10.3398,81.5995],[-61.3214,10.3311,79.5616],[-61.3155,10.3316,81.0392],[-61.315,10.33,88.1264],[-61.3118,10.3316,78.4445],[-61.3096,10.3353,79.2124],[-61.3,10.3369,63.9583],[-61.2941,10.3315,62.6266],[-61.2893,10.3309,69.9355],[-61.2888,10.3277,68.1913],[-61.2819,10.325,64.6896],[-61.2792,10.3271,62.2159],[-61.2754,10.3271,59.0793],[-61.2584,10.3184,61.4074],[-61.2568,10.3152,62.9562],[-61.253,10.3205,47.3824],[-61.2509,10.3205,51.3373],[-61.2509,10.3162,53.9396],[-61.2429,10.3086,49.9847],[-61.2427,10.3058,52.5794],[-61.2365,10.3065,65.0878],[-61.2284,10.3177,70.2928],[-61.2156,10.3177,54.0126],[-61.2118,10.3252,52.7849],[-61.2111,10.3484,36.6484],[-61.2127,10.3511,52.1993],[-61.2067,10.3613,44.0576],[-61.2061,10.3748,51.4595],[-61.2028,10.3818,51.0181],[-61.2028,10.386,51.8969],[-61.2076,10.3904,68.4365],[-61.2183,10.3926,67.3381],[-61.2241,10.3959,120.3032],[-61.2198,10.4023,69.8994],[-61.2192,10.4082,93.2214],[-61.2127,10.4147,135.8154],[-61.2062,10.4259,147.542],[-61.1992,10.4337,164.943],[-61.1991,10.4453,119.2942],[-61.1969,10.4491,126.7702],[-61.1964,10.4556,119.4048],[-61.1979,10.4572,120.0097],[-61.2172,10.4594,106.5978],[-61.2193,10.4632,114.7138],[-61.2193,10.4659,117.1108],[-61.2128,10.4729,92.9302],[-61.2171,10.4739,76.9268],[-61.2203,10.4767,80.9065],[-61.2203,10.4788,82.0816],[-61.2165,10.482,79.7055],[-61.2159,10.4848,72.8821],[-61.2089,10.4895,81.4732],[-61.2068,10.4928,76.487799999999993],[-61.2017,10.517,66.2247],[-61.2028,10.5202,80.1533],[-61.2076,10.5219,79.8488],[-61.2247,10.5225,69.266],[-61.2241,10.5306,61.1288],[-61.216,10.5375,53.2803],[-61.2192,10.5392,48.0713],[-61.2198,10.5419,41.963],[-61.2159,10.5494,37.7485],[-61.2175,10.5515,44.7254],[-61.2229,10.5527,50.8509],[-61.218,10.5618,37.8843],[-61.218,10.564,43.2607],[-61.2228,10.5694,49.0217],[-61.2211,10.578,46.1856],[-61.2333,10.5899,30.154],[-61.2367,10.5926,24.6152],[-61.2387,10.5905,31.0732],[-61.2451,10.5889,36.0618],[-61.2548,10.5792,30.3573],[-61.2597,10.5792,25.6881],[-61.2682,10.5831,23.0066],[-61.2752,10.582,21.7244],[-61.2806,10.5793,17.4202],[-61.2849,10.5831,22.2614],[-61.2972,10.5805,22.4358],[-61.3057,10.5848,20.1095],[-61.3208,10.5849,12.849],[-61.3251,10.5817,11.6804],[-61.3235,10.5757,10.6964],[-61.3316,10.5747,11.6791],[-61.3354,10.5688,9.6035],[-61.3375,10.5683,9.8358],[-61.3531,10.5683,9.167],[-61.3562,10.578,7.8362],[-61.3595,10.5759,8.3195],[-61.3658,10.5813,6.3734],[-61.3669,10.5808,6.3734],[-61.3692,10.5646,10.5059],[-61.3671,10.5603,12.7779],[-61.3666,10.5528,13.0215],[-61.3639,10.5495,13.3825],[-61.3645,10.5398,13.5708],[-61.3731,10.5318,17.4262],[-61.3775,10.5307,19.509],[-61.3775,10.5242,20.4824],[-61.3759,10.521,20.9523],[-61.37,10.5193,21.0363],[-61.3679,10.5172,22.956],[-61.3685,10.5129,17.6332],[-61.3744,10.5102,22.9074],[-61.3712,10.5048,28.6603],[-61.3739,10.5032,25.3811],[-61.3926,10.5038,19.8396],[-61.3937,10.506,19.9991],[-61.4076,10.4996,16.6984],[-61.4152,10.4996,14.7375],[-61.4242,10.5077,12.022],[-61.4257,10.5185,10.8241],[-61.4338,10.5164,8.3529],[-61.4376,10.5132,7.337],[-61.444,10.5208,5.3439],[-61.4488,10.5229,4.6967],[-61.4687,10.5229,0.0]]]]}}