{"type":"Feature","properties":{"GID_2":"CUB.2.7_1","GID_0":"CUB","country":"Cuba","GID_1":"CUB.2_1","province":"CiegodeÁvila","NL_NAME_1":"NA","county":"Majagua","VARNAME_2":"NA","NL_NAME_2":"NA","TYPE_2":"Municipio","ENGTYPE_2":"Municipality","CC_2":"NA","HASC_2":"CU.CA.MA","name":"Majagua.county"},
"geometry":{"type": "MultiPolygon","coordinates": [[[[-78.9682,21.9879,152.5184],[-78.9692,21.9768,152.1729],[-78.9804,21.9351,123.2167],[-78.9874,21.9241,114.3956],[-78.9945,21.9211,109.9968],[-79.0088,21.9209,112.2747],[-79.0375,21.9283,115.2751],[-79.0447,21.9285,122.492],[-79.0524,21.9263,117.8136],[-79.0576,21.9221,119.6262],[-79.06,21.9168,113.8959],[-79.0602,21.8856,92.3352],[-79.0678,21.8566,69.9796],[-79.0778,21.837,54.7925],[-79.083,21.8092,51.8417],[-79.0818,21.7966,46.6704],[-79.0829,21.7812,40.8104],[-79.0862,21.7732,36.4577],[-79.0923,21.7675,32.7812],[-79.112,21.7576,30.046],[-79.1191,21.751,29.9869],[-79.1257,21.7344,23.8991],[-79.1256,21.7256,22.2529],[-79.1236,21.7221,23.8319],[-79.1033,21.7155,17.8753],[-79.0926,21.7047,15.5015],[-79.0891,21.6992,13.6083],[-79.089,21.69,11.6963],[-79.0955,21.6726,8.414],[-79.1077,21.6568,7.8032],[-79.1165,21.6399,7.8109],[-79.1143,21.6358,7.2665],[-79.1086,21.6323,6.3342],[-79.0735,21.6327,11.4257],[-79.0598,21.6352,4.9432],[-79.0475,21.6398,6.0929],[-79.0223,21.6625,12.2339],[-79.0128,21.6688,15.6158],[-79.0059,21.6692,12.1586],[-78.9975,21.6663,12.3926],[-78.9816,21.6552,12.2577],[-78.9814,21.6789,14.0276],[-78.9892,21.7036,19.3196],[-78.9918,21.7354,31.5554],[-78.9909,21.7715,40.2932],[-78.9871,21.7824,43.749],[-78.9247,21.8254,60.7174],[-78.9058,21.8319,59.2127],[-78.871,21.8989,86.0781],[-78.8692,21.9405,98.728],[-78.8874,21.9447,114.0047],[-78.9049,21.9527,120.2195],[-78.9482,21.9813,178.7134],[-78.9682,21.9879,152.5184]]]]}}