{"type": "Feature","bbox": [-66.9667,18.3663,-66.8987,18.4918],"geometry": {"type": "MultiPolygon","coordinates": [[[[-66.9016,18.4837,24.43],[-66.916,18.4843,16.8872],[-66.9399,18.4915,20.7461],[-66.9479,18.4918,21.4763],[-66.9543,18.4885,17.8671],[-66.9571,18.489,0.0],[-66.9526,18.4773,11.8286],[-66.9637,18.4719,35.2595],[-66.959,18.4653,44.2823],[-66.9667,18.45,135.4788],[-66.9582,18.4406,118.4321],[-66.9476,18.4378,205.8448],[-66.9433,18.424,182.6887],[-66.9344,18.4175,147.649],[-66.9394,18.4107,209.4464],[-66.9459,18.4083,174.2315],[-66.9482,18.4035,164.6812],[-66.9472,18.4016,160.8519],[-66.9426,18.3993,170.7813],[-66.9226,18.398,235.3372],[-66.9234,18.3871,196.0],[-66.9197,18.379,196.0],[-66.9076,18.372,196.0],[-66.9047,18.3663,196.0],[-66.8987,18.3664,198.0457],[-66.9012,18.3854,290.2119],[-66.899,18.3964,277.323],[-66.9015,18.4178,210.1747],[-66.9016,18.4837,24.43]]]]}
,"properties": {"GID_1": "PRI.59_1","GID_0": "PRI","country": "PuertoRico","province": "Quebradillas","VARNAME_1": "NA","NL_NAME_1": "NA","TYPE_1": "Municipio","ENGTYPE_1": "Municipality","CC_1": "NA","HASC_1": "PR.QB","ISO_1": "-","name": "Quebradillas.province","area_km2": 59.49617,"hist_schema_id": "Elevation0-9000","hist_area_km2": {"0": 0.36195,"25": 0.6837,"50": 1.74946,"75": 2.37291,"100": 5.10782,"125": 9.89447,"150": 9.79463,"175": 4.28427,"200": 8.12699,"225": 6.27633,"250": 4.56659,"275": 3.94325,"300": 2.23321,"325": 0.10059}}}