{"type": "Feature","bbox": [-63.0381,18.2009,-63.0075,18.223],"geometry": {"type": "MultiPolygon","coordinates": [[[[-63.0359,18.223,6.4994],[-63.0381,18.2119,21.7212],[-63.0354,18.2009,0.0],[-63.0122,18.2114,2.4422],[-63.0112,18.217,0.0],[-63.0075,18.2227,0.0],[-63.0359,18.223,6.4994]]]]}
,"properties": {"GID_1": "AIA.11_1","GID_0": "AIA","country": "Anguilla","state": "TheFarrington","VARNAME_1": "NA","NL_NAME_1": "NA","TYPE_1": "District","ENGTYPE_1": "District","CC_1": "NA","HASC_1": "AI.TF","ISO_1": "NA","name": "TheFarrington.state","area_km2": 5.21622,"hist_schema_id": "Elevation0-9000","hist_area_km2": {"0": 3.40364,"25": 1.81258}}}