{"type": "Feature","bbox": [-72.4118,19.5579,-72.2702,19.7827],"geometry": {"type": "MultiPolygon","coordinates": [[[[-72.3237,19.5638,795.5675],[-72.3191,19.5586,931.5298],[-72.3047,19.5596,621.3083],[-72.2928,19.5579,543.7941],[-72.2879,19.5585,543.8374],[-72.2881,19.5616,531.3172],[-72.2856,19.5618,536.6105],[-72.2849,19.5646,518.9009],[-72.2781,19.566,497.983],[-72.2759,19.565,497.502],[-72.2757,19.5664,483.2694],[-72.2702,19.5653,479.1065],[-72.2728,19.5826,436.7076],[-72.2791,19.5875,423.2328],[-72.2744,19.5923,270.2517],[-72.2752,19.5995,113.365],[-72.2719,19.613,58.7853],[-72.2737,19.6259,39.9767],[-72.2777,19.6305,38.8165],[-72.2769,19.6345,35.8443],[-72.2781,19.6377,31.2094],[-72.2733,19.642,29.9168],[-72.2731,19.6469,27.2975],[-72.2745,19.6486,27.5544],[-72.2765,19.6479,26.0998],[-72.2756,19.6497,24.2265],[-72.2848,19.6503,31.7066],[-72.2891,19.6465,34.5445],[-72.296,19.6443,42.4005],[-72.2976,19.6454,42.4005],[-72.2951,19.6485,34.9034],[-72.2966,19.6506,34.09],[-72.2888,19.6552,24.8836],[-72.2858,19.6625,19.0786],[-72.2854,19.6737,13.8069],[-72.2786,19.6898,6.7899],[-72.2798,19.6932,6.1128],[-72.2834,19.6945,4.8869],[-72.2855,19.699,4.4393],[-72.2887,19.6962,2.2945],[-72.294,19.6963,5.6601],[-72.2987,19.7017,1.5996],[-72.3012,19.7072,0.8848],[-72.3036,19.7068,0.3654],[-72.3036,19.7112,0.5248],[-72.3103,19.7166,0.5762],[-72.3101,19.7195,0.4665],[-72.3126,19.7176,0.0],[-72.311,19.7099,0.1913],[-72.316,19.7071,0.2733],[-72.3232,19.7087,4.4182],[-72.3276,19.7129,0.7677],[-72.3326,19.7146,0.0],[-72.3343,19.721,0.0],[-72.3371,19.7232,1.1673],[-72.3368,19.7317,0.0],[-72.3424,19.7476,0.0],[-72.3412,19.751,0.3008],[-72.3388,19.7518,0.1603],[-72.3313,19.7426,0.1767],[-72.33,19.7425,0.0],[-72.3299,19.7446,0.0],[-72.3321,19.7458,0.0],[-72.3315,19.7488,0.477],[-72.3293,19.749,0.5772],[-72.3282,19.744,0.4256],[-72.326,19.744,0.0],[-72.3257,19.7465,0.631],[-72.3276,19.7507,0.0],[-72.3336,19.7546,0.8135],[-72.3388,19.7713,0.0],[-72.3429,19.7757,0.0],[-72.3515,19.7799,16.3116],[-72.354,19.7827,4.0783],[-72.3593,19.7807,59.2777],[-72.3594,19.7747,124.8885],[-72.3615,19.774,49.7738],[-72.3637,19.7756,7.8165],[-72.3637,19.7724,104.1748],[-72.3682,19.7696,186.865],[-72.3713,19.7604,203.8692],[-72.3759,19.7561,192.7768],[-72.3768,19.753,192.5587],[-72.3731,19.7452,364.0419],[-72.3739,19.7407,341.6512],[-72.3706,19.7373,377.5184],[-72.3709,19.7235,582.8229],[-72.3686,19.7199,526.3232],[-72.3636,19.7179,341.6058],[-72.3616,19.7124,374.1252],[-72.3542,19.709,133.581],[-72.3529,19.7036,201.9912],[-72.3473,19.6995,201.6651],[-72.3414,19.691,314.3323],[-72.3422,19.6855,248.532],[-72.3472,19.6823,254.3485],[-72.361,19.6659,339.8101],[-72.3589,19.6577,72.9738],[-72.3652,19.6545,68.9016],[-72.3707,19.6552,53.3162],[-72.3721,19.6516,59.5199],[-72.3774,19.6506,79.8189],[-72.3966,19.6308,695.7532],[-72.3971,19.6184,769.7873],[-72.3952,19.6168,805.5461],[-72.3958,19.6108,776.2722],[-72.4044,19.6095,785.9326],[-72.4026,19.6036,686.0476],[-72.4063,19.5985,783.757],[-72.4032,19.5943,601.1075],[-72.4063,19.5832,414.5389],[-72.4028,19.58,533.6074],[-72.4034,19.5772,534.2174],[-72.4118,19.5713,316.9162],[-72.4093,19.5708,365.669],[-72.4084,19.5676,338.6413],[-72.4039,19.5692,383.6911],[-72.4001,19.5639,374.271],[-72.3932,19.5621,420.2741],[-72.3902,19.566,427.691],[-72.3905,19.5729,665.0281],[-72.3812,19.5854,872.6995],[-72.3786,19.5853,815.0162],[-72.3774,19.5883,736.4026],[-72.3745,19.5901,834.2991],[-72.3652,19.5918,775.7844],[-72.3629,19.5878,792.7656],[-72.3591,19.5855,854.6483],[-72.3592,19.5817,806.0685],[-72.3619,19.5783,675.2247],[-72.3663,19.5764,566.8983],[-72.3647,19.575,556.0079],[-72.3666,19.566,505.3906],[-72.3649,19.5653,562.9202],[-72.3621,19.5672,662.0181],[-72.359,19.5726,700.6667],[-72.347,19.5737,677.6996],[-72.3348,19.5706,726.8177],[-72.3278,19.572,862.7229],[-72.3246,19.5699,834.3412],[-72.3237,19.5638,795.5675]]]]}
,"properties": {"GID_3": "HTI.7.3.1_1","GID_0": "HTI","country": "Haiti","GID_1": "HTI.7_1","province": "Nord","NL_NAME_1": "NA","GID_2": "HTI.7.3_1","county": "l'Acul-du-Nord","NL_NAME_2": "NA","city": "AculduNord","VARNAME_3": "NA","NL_NAME_3": "NA","TYPE_3": "Commune","ENGTYPE_3": "Commune","CC_3": "NA","HASC_3": "NA","name": "Aculdu_Nord.city","area_km2": 188.54,"hist_schema_id": "Elevation0-9000","hist_area_km2": {"0": 14.2899,"25": 20.2422,"50": 15.913,"75": 10.8618,"100": 11.1217,"125": 9.5646,"150": 8.5864,"175": 9.2854,"200": 8.0873,"225": 7.8077,"250": 7.0288,"275": 6.0707,"300": 4.8125,"325": 4.5929,"350": 4.2336,"375": 3.8545,"400": 3.7149,"425": 2.8162,"450": 2.9162,"475": 2.6566,"500": 2.7566,"525": 2.7366,"550": 3.6556,"575": 2.9364,"600": 2.7966,"625": 2.5369,"650": 2.417,"675": 2.1773,"700": 1.6779,"725": 1.8177,"750": 1.4382,"775": 1.0787,"800": 0.7191,"825": 0.4794,"850": 0.3995,"875": 0.1998,"900": 0.0999,"925": 0.0599,"950": 0.02,"975": 0.04,"1000": 0.04}}}