{"type":"Feature","properties":{"ISO3166-1-Alpha-3":"CUB","country":"Cuba","fill":"#00F","id":"5489","name":"Mayabeque"},
"geometry":{"type": "Polygon","coordinates": [[[-81.68391,23.15693,0.0],[-81.84008,23.15778,0.0],[-81.86238,23.15103,1.2013],[-81.89208,23.15786,0.0],[-81.95613,23.16364,2.2773],[-81.98583,23.17145,0.0],[-82.02343,23.19595,0.0],[-82.03319,23.20051,0.0],[-82.04402,23.19872,0.0],[-82.05492,23.19477,0.0],[-82.06501,23.19257,0.0],[-82.08825,23.19042,0.0],[-82.10009,23.18765,0.0],[-82.10009,23.18765,0.0],[-82.09687,23.17791,0.0],[-82.09857,23.16789,28.8598],[-82.09299,23.1589,84.4934],[-82.0762,23.13939,34.9785],[-82.08137,23.13538,41.8546],[-82.0908,23.13497,37.3825],[-82.0932,23.13143,35.5893],[-82.09276,23.1258,44.8508],[-82.09002,23.11683,38.9118],[-82.09095,23.11254,34.3813],[-82.09638,23.10828,57.0321],[-82.09883,23.10546,67.1036],[-82.09997,23.10094,71.592],[-82.10134,23.08402,76.7879],[-82.11098,23.06761,69.0124],[-82.14607,23.1059,34.2929],[-82.15188,23.10967,54.8499],[-82.16077,23.11381,59.4616],[-82.16488,23.11249,47.9249],[-82.16834,23.10947,43.1338],[-82.17012,23.10619,45.1449],[-82.17121,23.10086,54.0207],[-82.17622,23.08836,72.0895],[-82.18273,23.0827,85.6839],[-82.18854,23.07906,67.7028],[-82.19193,23.0796,70.711],[-82.19906,23.08898,62.2405],[-82.20462,23.09453,46.9933],[-82.21035,23.09415,53.6135],[-82.21144,23.09273,54.2025],[-82.21082,23.08991,43.4859],[-82.20927,23.08611,52.4648],[-82.20903,23.08123,54.306399999999996],[-82.20978,23.07619,54.9244],[-82.21221,23.06774,86.5822],[-82.21257,23.06133,90.6362],[-82.21102,23.05265,129.2422],[-82.2026,23.03655,113.1624],[-82.20126,23.0318,107.5212],[-82.20213,23.02813,111.0464],[-82.23614,22.99317,100.0785],[-82.24379,22.98025,115.5816],[-82.24983,22.97258,123.6731],[-82.25854,22.9694,118.6755],[-82.2704,22.96932,111.3303],[-82.28032,22.97056,118.3649],[-82.29089,22.9749,110.4278],[-82.31665,22.9733,105.0565],[-82.35582,22.97669,86.3478],[-82.36481,22.96842,107.0834],[-82.36869,22.96144,135.0329],[-82.38187,22.95061,147.7413],[-82.38879,22.94785,154.4004],[-82.39432,22.94899,135.2957],[-82.40502,22.96123,84.4939],[-82.41207,22.96547,72.8455],[-82.41969,22.96338,74.1693],[-82.43592,22.95728,72.662],[-82.43738,22.92262,90.3801],[-82.43738,22.89607,81.1961],[-82.44963,22.87155,56.262],[-82.4578,22.83887,39.1094],[-82.4578,22.8021,17.2334],[-82.43738,22.76328,11.525],[-82.41695,22.73672,10.9536],[-82.40435,22.72992,9.5888],[-82.39129,22.72224,8.7627],[-82.38795,22.70969,2.1148],[-82.39158,22.68842,7.0753],[-82.35985,22.68081,3.7063],[-82.33902,22.67866,0.0],[-82.31721,22.68098,0.0],[-82.27484,22.68562,0.0],[-82.19886,22.68577,4.9924],[-82.13097,22.66787,0.8252],[-82.09879,22.65492,0.0],[-81.99254,22.6717,0.0],[-81.91242,22.67853,1.3502],[-81.8775,22.67973,2.3271],[-81.78841,22.6501,0.0],[-81.75339,22.63804,0.0],[-81.71885,22.6137,0.0],[-81.70002,22.5996,10.6012],[-81.67263,22.57768,5.1387],[-81.65768,22.57726,7.8695],[-81.65071,22.57507,4.3734],[-81.64923,22.57716,7.9397],[-81.64809,22.57878,7.987],[-81.64723,22.57947,7.987],[-81.64393,22.58087,6.6527],[-81.63948,22.58389,3.8157],[-81.63612,22.58684,2.5692],[-81.62336,22.60601,1.7044],[-81.61475,22.6164,2.6193],[-81.6091,22.62511,9.6144],[-81.60592,22.63247,13.3628],[-81.60385,22.63952,12.0844],[-81.59618,22.69009,8.8667],[-81.59809,22.70497,14.022],[-81.61434,22.71843,17.494],[-81.65212,22.73993,14.8977],[-81.65798,22.74936,22.7737],[-81.65754,22.76463,26.4155],[-81.64664,22.7899,28.6753],[-81.64664,22.79613,32.8919],[-81.6509,22.80166,35.6689],[-81.6638,22.81018,41.0632],[-81.67917,22.82357,53.8178],[-81.6955,22.85065,122.805],[-81.68261,22.88801,153.9511],[-81.6801,22.91659,145.4091],[-81.67904,22.92067,171.7815],[-81.67979,22.92749,91.4394],[-81.68067,22.93067,93.6185],[-81.69227,22.94645,62.7592],[-81.70857,22.96601,59.3204],[-81.71643,22.97276,96.1955],[-81.72369,22.978,71.0341],[-81.73097,22.98061,75.7506],[-81.74201,22.98185,80.9743],[-81.74557,22.98364,98.2426],[-81.74718,22.98684,91.7283],[-81.74464,22.99457,111.0786],[-81.74302,22.99826,137.3946],[-81.74188,23.0003,138.2199],[-81.74139,23.00097,141.6257],[-81.73575,23.00555,174.1355],[-81.7155,23.01841,275.5874],[-81.7062,23.0304,63.0],[-81.70227,23.03195,64.8023],[-81.69984,23.03482,77.0467],[-81.7001,23.03766,87.1328],[-81.70449,23.04314,94.0083],[-81.71307,23.04952,85.3476],[-81.71369,23.05327,102.3709],[-81.71175,23.05826,115.6142],[-81.70465,23.06738,83.8953],[-81.69948,23.07014,85.8498],[-81.69431,23.0703,114.2506],[-81.68475,23.06503,65.9756],[-81.68206,23.0641,60.2563],[-81.68056,23.06451,51.4736],[-81.68075,23.07146,66.7038],[-81.68258,23.08417,84.3207],[-81.69534,23.13655,117.3896],[-81.68522,23.14874,4.2392],[-81.68391,23.15693,0.0]]]}}