{"type":"Feature","properties":{"GID_1":"CUB.12_1","GID_0":"CUB","country":"Cuba","province":"Mayabeque","VARNAME_1":"NA","NL_NAME_1":"NA","TYPE_1":"Provincia","ENGTYPE_1":"Province","CC_1":"NA","HASC_1":"CU.MQ","ISO_1":"CU-16","name":"Mayabeque.province"},
"geometry":{"type": "MultiPolygon","coordinates": [[[[-82.2835,22.4729,0.0],[-82.289,22.4735,0.7815],[-82.2963,22.471,2.8745],[-82.2913,22.4688,1.9646],[-82.2918,22.466,1.6318],[-82.2946,22.4643,2.462],[-82.2954,22.4671,0.0],[-82.2968,22.4671,0.0],[-82.3001,22.4649,0.496],[-82.2946,22.4621,1.7732],[-82.291,22.464,0.2857],[-82.2874,22.4688,0.2917],[-82.2821,22.4696,0.3461],[-82.2835,22.4729,0.0]]],
[[[-82.3637,22.4999,0.0],[-82.3671,22.5001,0.9111],[-82.3751,22.4943,0.0],[-82.3793,22.494,0.0],[-82.3818,22.4885,0.0],[-82.3815,22.4879,0.0],[-82.3785,22.4888,0.8156],[-82.3771,22.4912,3.3641],[-82.3737,22.4899,2.5333],[-82.3718,22.4849,2.4345],[-82.3768,22.4824,0.0],[-82.3743,22.4776,2.3989],[-82.3788,22.4757,2.2771],[-82.3815,22.4785,1.6981],[-82.3824,22.4763,2.4928],[-82.3796,22.4715,0.0],[-82.3726,22.4665,0.0],[-82.3674,22.4649,0.0],[-82.3657,22.4654,0.0],[-82.366,22.4668,0.0],[-82.3726,22.4726,0.0],[-82.3704,22.4765,0.0],[-82.3721,22.4799,0.0],[-82.3699,22.4799,0.0],[-82.3674,22.4824,1.0861],[-82.369,22.4932,1.8985],[-82.3657,22.4951,0.0],[-82.3637,22.4999,0.0]]],
[[[-82.2935,22.4926,0.0],[-82.2943,22.4954,0.0],[-82.2996,22.494,0.0],[-82.3037,22.4896,3.7793],[-82.3024,22.4863,5.8634],[-82.2999,22.4854,0.0],[-82.2985,22.489,1.6735],[-82.2935,22.4926,0.0]]],
[[[-82.3251,22.5076,0.0],[-82.3282,22.5082,1.1257],[-82.3293,22.5057,0.6024],[-82.3324,22.5076,0.0],[-82.3388,22.5068,0.82],[-82.3415,22.5024,1.3121],[-82.3321,22.5015,0.0],[-82.3265,22.5038,4.1911],[-82.3171,22.501,2.9033],[-82.3129,22.5029,0.954],[-82.314,22.5071,0.0],[-82.3251,22.5076,0.0]]],
[[[-81.6542,22.7826,27.4691],[-81.6592,22.7837,24.2907],[-81.6618,22.7872,27.0153],[-81.6619,22.8084,40.4871],[-81.664,22.8181,44.8077],[-81.6678,22.8222,47.4025],[-81.6846,22.8216,52.4907],[-81.6875,22.8254,56.9749],[-81.6864,22.8372,76.5901],[-81.6698,22.8755,147.2949],[-81.6675,22.8853,161.9292],[-81.6676,22.9053,186.7458],[-81.6728,22.9315,85.9298],[-81.6779,22.9388,64.708],[-81.6883,22.9457,58.6395],[-81.6955,22.9476,65.6771],[-81.7245,22.9504,113.4495],[-81.7298,22.9527,126.7012],[-81.734,22.9586,127.516],[-81.7342,22.968,121.7038],[-81.7299,22.9739,131.951],[-81.7262,22.9752,113.1018],[-81.7048,22.977,49.1568],[-81.6987,22.9809,49.0236],[-81.6923,22.9881,68.6139],[-81.6881,22.9976,38.2148],[-81.6885,23.0164,117.2469],[-81.6921,23.0235,147.6134],[-81.6981,23.0299,145.9554],[-81.6988,23.0334,145.6595],[-81.6948,23.0373,136.2077],[-81.6671,23.0371,167.4328],[-81.661,23.0402,185.5589],[-81.6558,23.0461,78.3094],[-81.6519,23.0544,91.3667],[-81.6513,23.0689,70.0511],[-81.6601,23.1045,88.08],[-81.6612,23.1465,1.8834],[-81.6726,23.146,1.825],[-81.6771,23.1418,35.5205],[-81.6787,23.1465,0.0],[-81.6865,23.1476,4.2392],[-81.6874,23.1504,15.4772],[-81.6913,23.149,19.6114],[-81.7049,23.1537,5.5214],[-81.714,23.1549,3.5316],[-81.7199,23.1518,4.7095],[-81.7232,23.1468,34.5351],[-81.7276,23.1449,5.5516],[-81.736,23.1474,0.0],[-81.7521,23.1479,2.8486],[-81.7676,23.146,8.9757],[-81.771,23.1468,7.997],[-81.7801,23.1435,23.67],[-81.781,23.1457,0.0],[-81.786,23.1474,0.0],[-81.7985,23.1474,9.4297],[-81.8132,23.1501,4.7985],[-81.821,23.1493,1.9293],[-81.8243,23.151,0.0],[-81.8365,23.1499,4.9447],[-81.8424,23.1515,1.3191],[-81.8601,23.1462,2.7775],[-81.8618,23.1465,3.1063],[-81.8607,23.149,2.8771],[-81.8626,23.1513,1.2013],[-81.8746,23.1554,2.61],[-81.8868,23.1537,4.9286],[-81.9143,23.1582,1.6753],[-81.9171,23.1568,4.8605],[-81.9165,23.1579,0.0],[-81.9185,23.159,0.0],[-81.9212,23.1582,0.0],[-81.9204,23.1554,1.5774],[-81.9215,23.1543,1.5774],[-81.9221,23.1571,1.4113],[-81.924,23.1582,2.5325],[-81.9426,23.1588,0.0],[-81.9507,23.1629,0.2929],[-81.9593,23.1626,2.4091],[-81.9668,23.1651,1.7091],[-81.976,23.1646,2.8302],[-81.9851,23.1688,0.0],[-81.9879,23.1749,2.212],[-81.9924,23.1768,11.9496],[-81.9996,23.184,0.0],[-82.0085,23.1835,0.0],[-82.0071,23.1754,1.2693],[-82.0085,23.1749,12.5488],[-82.0107,23.1785,7.0781],[-82.0101,23.1818,0.0],[-82.0129,23.1843,0.0],[-82.0254,23.1876,0.0],[-82.0354,23.1868,0.0],[-82.0362,23.1854,3.071],[-82.0435,23.1849,1.0656],[-82.0529,23.1812,1.8989],[-82.069,23.1832,1.6134],[-82.0824,23.179,1.7725],[-82.0819,23.149,34.0976],[-82.0622,23.1007,54.4865],[-82.0638,23.0874,55.8446],[-82.0695,23.0788,87.8241],[-82.0803,23.0718,111.3621],[-82.0882,23.0637,105.8072],[-82.0945,23.051,114.6245],[-82.097,23.0341,204.9419],[-82.1014,23.0252,200.6749],[-82.108,23.0239,212.659],[-82.1127,23.0265,201.2767],[-82.1238,23.0384,176.2393],[-82.1327,23.0454,196.6402],[-82.1455,23.0487,138.7268],[-82.1563,23.0482,114.4484],[-82.179,23.0441,131.8158],[-82.1992,23.0458,115.6372],[-82.2051,23.0416,115.8819],[-82.2069,23.038,110.8956],[-82.2082,23.0103,98.5266],[-82.2061,23.0018,102.8825],[-82.2007,22.9945,112.5916],[-82.1986,22.9845,124.83],[-82.2022,22.9783,129.0461],[-82.2308,22.9625,139.2685],[-82.2308,22.9451,206.4609],[-82.2322,22.9395,185.9675],[-82.2366,22.9368,213.7986],[-82.2673,22.936,206.7624],[-82.2876,22.9383,209.748],[-82.2933,22.9412,168.9562],[-82.3053,22.9522,136.7745],[-82.3437,22.9608,104.3585],[-82.3524,22.9589,101.604],[-82.3536,22.9562,114.9199],[-82.3518,22.9435,133.7054],[-82.3542,22.9382,125.7919],[-82.3609,22.9352,122.1487],[-82.3678,22.9353,112.0954],[-82.3756,22.9385,134.3082],[-82.3845,22.9451,161.044],[-82.4152,22.9587,77.9261],[-82.4168,22.8922,85.0445],[-82.4274,22.8876,78.5093],[-82.4526,22.843,41.4065],[-82.4602,22.8376,37.7972],[-82.4772,22.833,35.963],[-82.4426,22.7893,8.6763],[-82.4232,22.7533,12.9089],[-82.4223,22.7296,8.4272],[-82.4302,22.7068,1.1211],[-82.4287,22.6832,0.5788],[-82.4029,22.6854,0.0],[-82.3793,22.6813,0.0],[-82.3593,22.681,3.7063],[-82.3424,22.6776,2.9256],[-82.3346,22.6785,0.0],[-82.324,22.6824,6.7532],[-82.3046,22.6824,2.1883],[-82.3035,22.6835,1.3294],[-82.3007,22.6826,2.0518],[-82.2999,22.6807,0.7474],[-82.2974,22.6807,0.7034],[-82.2915,22.6829,3.1625],[-82.2915,22.6757,0.0],[-82.2896,22.6751,0.0],[-82.2893,22.6801,1.4985],[-82.2835,22.6854,0.2783],[-82.279,22.6865,1.9581],[-82.2396,22.6885,0.0],[-82.216,22.6851,0.0],[-82.1976,22.6857,4.9924],[-82.1568,22.6774,3.2016],[-82.1418,22.6718,0.556],[-82.1413,22.6704,0.0],[-82.1365,22.6704,0.0],[-82.1062,22.6596,0.9328],[-82.0987,22.6549,0.0],[-82.0818,22.6582,0.0],[-82.0654,22.6654,0.0],[-82.0532,22.6676,0.8608],[-82.0396,22.6662,0.0],[-82.0274,22.6676,1.3501],[-82.0157,22.6712,1.1173],[-82.0088,22.6699,0.0],[-81.9949,22.6732,1.3141],[-81.9918,22.6724,3.0718],[-81.9679,22.676,0.8086],[-81.9488,22.6757,0.3831],[-81.941,22.6771,1.7094],[-81.9385,22.6757,0.0],[-81.9268,22.676,1.0428],[-81.9254,22.6746,0.6186],[-81.9163,22.6735,0.0],[-81.8849,22.6793,3.8428],[-81.881,22.6796,2.7351],[-81.8799,22.6779,0.0],[-81.8701,22.679,9.2849],[-81.8279,22.6643,1.6192],[-81.7962,22.6568,3.4176],[-81.7812,22.6496,1.4059],[-81.7724,22.6474,6.6904],[-81.7629,22.6421,5.0501],[-81.7565,22.641,6.4167],[-81.7443,22.6338,9.0304],[-81.7415,22.6304,0.0],[-81.7343,22.6288,8.4584],[-81.7243,22.6207,7.6544],[-81.721,22.6151,0.0],[-81.7118,22.609,10.1937],[-81.706,22.6013,1.2204],[-81.6979,22.5957,5.6844],[-81.689,22.5921,8.9383],[-81.6799,22.5821,7.1967],[-81.6687,22.5763,3.4112],[-81.6585,22.5763,0.0],[-81.6557,22.5721,4.1459],[-81.649,22.5746,1.2396],[-81.6454,22.5688,7.083],[-81.6435,22.5599,8.972],[-81.6454,22.5496,10.6032],[-81.6353,22.5529,7.3273],[-81.617,22.5688,1.6733],[-81.5996,22.6032,1.8192],[-81.5842,22.6545,10.4881],[-81.5832,22.6663,8.1595],[-81.5855,22.6748,8.4698],[-81.5922,22.6824,7.4772],[-81.6428,22.7067,8.821],[-81.6501,22.7133,9.4684],[-81.6527,22.7201,15.5864],[-81.6528,22.7283,18.5331],[-81.6508,22.7481,20.5706],[-81.6481,22.7552,23.1575],[-81.6445,22.7612,25.3092],[-81.6288,22.7685,27.2715],[-81.6261,22.775,23.6582],[-81.6265,22.7789,25.602],[-81.6303,22.782,25.8797],[-81.6542,22.7826,27.4691]]]]}}