{"type": "Feature","bbox": [-61.279,13.201599999999999,-61.1883,13.2743],"geometry": {"type": "MultiPolygon","coordinates": [[[[-61.1883,13.256,785.3809],[-61.1913,13.2567,756.8091],[-61.1963,13.2628,675.1005],[-61.2005,13.2631,647.3875],[-61.2128,13.2569,568.7135],[-61.2295,13.2557,372.5043],[-61.2352,13.2587,333.8868],[-61.2406,13.2644,367.1615],[-61.2484,13.2668,247.9554],[-61.2598,13.2742,85.1409],[-61.2632,13.2743,5.8905],[-61.2629,13.2721,28.2814],[-61.2649,13.2707,9.2696],[-61.2599,13.2654,7.1448],[-61.2651,13.2632,23.7199],[-61.2676,13.2571,11.0663],[-61.2699,13.2579,5.0655],[-61.2699,13.2563,28.8932],[-61.2735,13.2557,4.6868],[-61.2713,13.2479,4.2099],[-61.2762,13.246,4.763],[-61.2746,13.2446,3.3284],[-61.2765,13.2421,5.8726],[-61.2743,13.236,13.4076],[-61.2746,13.2318,0.0],[-61.276,13.231,0.0],[-61.2743,13.229,53.711],[-61.2779,13.2232,4.5042],[-61.2751,13.2163,0.0],[-61.2779,13.2135,6.4402],[-61.2771,13.2115,2.0808],[-61.2788,13.2115,0.0],[-61.2771,13.211,2.0808],[-61.279,13.2085,0.0],[-61.2771,13.2057,2.4875],[-61.2788,13.2021,0.0],[-61.2735,13.2024,9.246],[-61.2696,13.2044,20.7043],[-61.2619,13.201599999999999,273.5921],[-61.2426,13.2125,261.5005],[-61.2293,13.215,477.4245],[-61.2252,13.2213,580.8763],[-61.2166,13.2293,555.2771],[-61.206,13.2322,602.5046],[-61.1985,13.2367,729.294],[-61.1957,13.2457,832.5475],[-61.1895,13.2512,851.483],[-61.1883,13.256,785.3809]]]]}
,"properties": {"GID_1": "VCT.6_1","GID_0": "VCT","country": "SaintVincentandtheGrenadines","province": "SaintPatrick","VARNAME_1": "NA","NL_NAME_1": "NA","TYPE_1": "Parish","ENGTYPE_1": "Parish","CC_1": "NA","HASC_1": "VC.PA","ISO_1": "VC-05","name": "Saint_Patrick.province","area_km2": 43.77492,"hist_schema_id": "Elevation0-9000","hist_area_km2": {"0": 0.743,"25": 1.71303,"50": 2.16709,"75": 1.98134,"100": 2.12578,"125": 2.00197,"150": 2.06388,"175": 2.08453,"200": 1.96069,"225": 1.96068,"250": 2.0226,"275": 1.87813,"300": 2.00195,"325": 1.71301,"350": 1.56855,"375": 1.44473,"400": 1.09387,"425": 1.56857,"450": 1.2177,"475": 1.25898,"500": 1.25897,"525": 1.13514,"550": 1.07322,"575": 1.25899,"600": 1.0113,"625": 0.78427,"650": 0.66043,"675": 0.47469,"700": 0.57786,"725": 0.28894,"750": 0.24766,"775": 0.22702,"800": 0.08255,"825": 0.08255,"850": 0.02064,"900": 0.02064}}}