{"type":"Feature","properties":{"ISO3166-1-Alpha-3":"VCT","country":"Saint Vincent and the Grenadines","fill":"#00F","id":"5068","name":"Saint Patrick"},
"geometry":{"type": "Polygon","coordinates": [[[-61.18771,13.2629,643.6742],[-61.20082,13.27601,526.5091],[-61.21458,13.26421,521.1091],[-61.2279,13.25533,397.4307],[-61.24998,13.26028,50.5382],[-61.26839,13.26591,0.0],[-61.27668,13.2499,0.0],[-61.27937,13.21589,0.0],[-61.27135,13.18651,0.0],[-61.25851,13.19996,210.391],[-61.23818,13.21439,336.7289],[-61.21983,13.23405,400.483],[-61.21196,13.23733,433.8698],[-61.19885,13.2393,760.5963],[-61.19492,13.24913,706.7203],[-61.18771,13.2629,643.6742]]]}}