{"type": "Feature","bbox": [-76.8317,19.9849,-76.5352,20.2894],"geometry": {"type": "MultiPolygon","coordinates": [[[[-76.8317,19.9913,1633.827],[-76.8258,19.9861,1628.1831],[-76.8202,19.9849,1224.2041],[-76.8137,19.9886,1470.3264],[-76.8067,19.9954,1275.2853],[-76.7983,19.9985,926.6448],[-76.7803,20.0272,742.35],[-76.7748,20.0308,826.3247],[-76.7664,20.0332,728.148],[-76.7478,20.0332,760.2653],[-76.7425,20.03,892.5134],[-76.7328,20.0059,673.1094],[-76.7281,20.0005,1073.0583],[-76.7203,19.9994,1008.9146],[-76.7157,20.0006,1111.0094],[-76.7009,20.0184,1213.9561],[-76.6951,20.0211,1317.179],[-76.6743,20.0228,1203.8416],[-76.6662,20.0229,1030.843],[-76.647,20.0084,1011.1333],[-76.6398,20.0058,1136.9564],[-76.6289,20.0065,1113.7573],[-76.6159,20.0114,1465.0739],[-76.6073,20.0127,1533.9668],[-76.5892,20.0085,1321.7322],[-76.5817,20.0098,1530.8818],[-76.5784,20.0136,1659.3142],[-76.5733,20.0302,959.4427],[-76.5666,20.0365,958.8278],[-76.5592,20.0389,1049.9713],[-76.5352,20.0373,848.0824],[-76.5421,20.0428,1261.3119],[-76.5739,20.0581,1376.5677],[-76.5829,20.0669,1126.1202],[-76.5976,20.0878,1167.9204],[-76.6278,20.1095,821.3735],[-76.6399,20.157,475.0581],[-76.6389,20.179,320.0014],[-76.6319,20.1958,247.0269],[-76.6329,20.2073,136.4216],[-76.6424,20.2181,117.3932],[-76.6601,20.2275,104.8539],[-76.6745,20.2397,98.0],[-76.7232,20.2417,90.8245],[-76.7325,20.2533,78.7319],[-76.7402,20.2714,70.0161],[-76.7752,20.2874,59.1465],[-76.8082,20.2894,46.3149],[-76.8204,20.286,55.1011],[-76.8232,20.2708,51.9159],[-76.8159,20.2535,69.0235],[-76.8141,20.2399,73.2515],[-76.8132,20.2062,90.6131],[-76.805,20.1791,309.5004],[-76.8039,20.0775,709.6727],[-76.8052,20.0637,918.5374],[-76.8158,20.0295,1093.368],[-76.8317,19.9913,1633.827]]]]}
,"properties": {"GID_2": "CUB.5.3_1","GID_0": "CUB","country": "Cuba","GID_1": "CUB.5_1","province": "Granma","NL_NAME_1": "NA","county": "BueyArriba","VARNAME_2": "NA","NL_NAME_2": "NA","TYPE_2": "Municipio","ENGTYPE_2": "Municipality","CC_2": "NA","HASC_2": "CU.GR.BA","name": "Buey_Arriba.county","area_km2": 552.8875,"hist_schema_id": "Elevation0-9000","hist_area_km2": {"50": 14.4391,"75": 38.3317,"100": 46.2577,"125": 33.8471,"150": 22.5867,"175": 18.0703,"200": 13.4141,"225": 12.5587,"250": 10.7877,"275": 8.9571,"300": 8.7385,"325": 7.6041,"350": 7.6839,"375": 7.3059,"400": 7.5848,"425": 7.5452,"450": 8.4611,"475": 8.7999,"500": 8.3421,"525": 8.2228,"550": 8.1036,"575": 8.0241,"600": 7.9446,"625": 7.1682,"650": 7.1485,"675": 7.5469,"700": 7.3677,"725": 7.368,"750": 7.4078,"775": 7.3483,"800": 6.8108,"825": 7.3089,"850": 6.8706,"875": 6.9706,"900": 7.0103,"925": 7.2694,"950": 7.0303,"975": 7.7475,"1000": 8.0065,"1025": 7.2697,"1050": 7.2698,"1075": 7.1902,"1100": 7.6085,"1125": 7.7082,"1150": 6.7721,"1175": 6.3737,"1200": 6.6127,"1225": 6.9912,"1250": 5.4576,"1275": 6.3141,"1300": 5.2784,"1325": 4.3024,"1350": 4.163,"1375": 3.7049,"1400": 3.1472,"1425": 2.7289,"1450": 2.3107,"1475": 2.1115,"1500": 2.2908,"1525": 1.7132,"1550": 1.2948,"1575": 1.2151,"1600": 1.0558,"1625": 0.7769,"1650": 0.498,"1675": 0.3585,"1700": 0.239,"1725": 0.1394}}}