{"type": "Feature","bbox": [-69.3236,18.5339,-68.8039,18.9596],"geometry": {"type": "MultiPolygon","coordinates": [[[[-69.1202,18.9238,537.5638],[-69.131,18.9185,486.407],[-69.1465,18.9158,417.9263],[-69.154,18.9178,416.2595],[-69.1677,18.9184,419.94],[-69.1936,18.9277,378.6908],[-69.2041,18.9378,294.4041],[-69.2205,18.938,380.2681],[-69.2324,18.9338,327.8447],[-69.2371,18.9362,316.383],[-69.2429,18.9456,285.3614],[-69.2493,18.9489,336.2699],[-69.2606,18.9501,279.0443],[-69.2923,18.9596,234.2092],[-69.2952,18.9523,226.3815],[-69.301,18.9452,76.4872],[-69.3171,18.9413,146.2496],[-69.3205,18.9385,158.5041],[-69.3212,18.9164,285.8939],[-69.3234,18.9092,329.8677],[-69.3187,18.9001,364.6165],[-69.3236,18.8924,320.5459],[-69.3197,18.8844,236.3793],[-69.3078,18.8757,223.7641],[-69.2982,18.8762,231.1671],[-69.287,18.8721,251.9176],[-69.2847,18.8598,303.1877],[-69.2787,18.8462,326.0208],[-69.2736,18.8458,332.4729],[-69.2657,18.8523,288.7809],[-69.2625,18.8517,299.7011],[-69.2531,18.8359,188.9094],[-69.2518,18.8178,148.5629],[-69.2405,18.812,141.657],[-69.2306,18.8111,117.8197],[-69.2266,18.8092,121.2022],[-69.2124,18.7924,101.0176],[-69.203,18.7777,95.8321],[-69.2016,18.767,88.175],[-69.1971,18.7608,76.2851],[-69.1964,18.757,116.5785],[-69.2011,18.7534,126.224],[-69.2,18.7465,100.1892],[-69.2072,18.7376,81.3866],[-69.2065,18.7317,75.5773],[-69.2085,18.7268,70.2212],[-69.2145,18.7166,58.7675],[-69.2196,18.7116,51.7959],[-69.22,18.693,44.5543],[-69.2228,18.6841,42.3731],[-69.2229,18.6759,43.1234],[-69.2174,18.6753,50.9785],[-69.2143,18.672,60.7191],[-69.2135,18.6435,68.191],[-69.2087,18.6417,57.4367],[-69.1888,18.642,52.5568],[-69.1853,18.6408,58.1261],[-69.1828,18.6324,61.5043],[-69.1758,18.6252,44.1154],[-69.1559,18.6141,10.055],[-69.1539,18.6063,23.0621],[-69.1494,18.5981,42.7514],[-69.1516,18.5911,18.552],[-69.1497,18.5882,28.8962],[-69.1468,18.5885,44.9553],[-69.1417,18.5931,52.534],[-69.1297,18.5963,49.438],[-69.1154,18.5961,72.4408],[-69.1062,18.5934,71.9748],[-69.067,18.5927,78.2305],[-69.066,18.5912,78.413],[-69.0671,18.581,76.1356],[-69.0775,18.5755,70.3688],[-69.08,18.5719,62.9885],[-69.0788,18.565,68.4767],[-69.0801,18.5569,63.9601],[-69.0779,18.5495,74.9613],[-69.0802,18.5418,68.2828],[-69.0779,18.5339,76.3834],[-69.067,18.5341,71.0172],[-69.0584,18.5379,68.2587],[-69.0488,18.5455,73.9925],[-69.0368,18.5611,77.4152],[-69.0339,18.5716,66.2344],[-69.0127,18.5836,74.638],[-68.9983,18.6003,89.0329],[-68.983,18.6262,93.2502],[-68.9787,18.6444,106.6345],[-68.9736,18.6499,112.5104],[-68.9709,18.6582,120.7868],[-68.9732,18.6659,137.6864],[-68.9717,18.67,130.1776],[-68.968,18.6711,134.8694],[-68.9606,18.669,107.9849],[-68.951,18.6712,162.4179],[-68.9408,18.6679,103.2902],[-68.9337,18.6632,102.4478],[-68.9259,18.6643,65.7841],[-68.921,18.6747,118.1204],[-68.924,18.6782,130.7324],[-68.9319,18.6828,85.0895],[-68.9342,18.6875,74.7462],[-68.9311,18.6936,95.0431],[-68.926,18.6985,80.4996],[-68.926,18.7062,115.735],[-68.9305,18.7104,83.4189],[-68.9309,18.7125,82.9296],[-68.9277,18.7195,93.7212],[-68.9218,18.7267,114.7341],[-68.8915,18.7327,311.4288],[-68.8824,18.7248,193.0394],[-68.8717,18.7281,172.6932],[-68.8654,18.7338,184.8067],[-68.8528,18.7515,235.5583],[-68.8572,18.7618,303.1846],[-68.8492,18.7726,353.1815],[-68.8502,18.78,256.056],[-68.8391,18.7844,183.0097],[-68.8267,18.7946,385.1977],[-68.8207,18.7972,216.681],[-68.8101,18.7988,509.3983],[-68.8039,18.8081,480.573],[-68.8043,18.8114,468.8618],[-68.8121,18.826,346.787],[-68.8135,18.8328,364.8372],[-68.808,18.840699999999998,497.3151],[-68.8265,18.8734,339.7693],[-68.8251,18.8832,184.0321],[-68.8298,18.8865,295.029],[-68.8311,18.896,238.7628],[-68.8352,18.8991,192.8685],[-68.852,18.8995,307.4936],[-68.8587,18.9016,506.572],[-68.8651,18.8969,406.7102],[-68.8735,18.8968,275.7391],[-68.8963,18.9089,283.3015],[-68.9051,18.916,168.4166],[-68.9196,18.9138,157.3021],[-68.9296,18.9191,125.1063],[-68.9397,18.9196,133.9748],[-68.974,18.9044,153.5423],[-68.9805,18.8924,283.5887],[-68.9887,18.8943,200.4029],[-69.0023,18.889,205.0459],[-69.0149,18.8916,167.6807],[-69.0229,18.8896,468.2325],[-69.0402,18.8974,165.3537],[-69.0562,18.8954,348.8033],[-69.0751,18.9086,450.042],[-69.0784,18.9079,454.4828],[-69.0849,18.9022,553.1855],[-69.0874,18.9022,545.5203],[-69.0983,18.9124,525.2653],[-69.1056,18.9219,536.0748],[-69.1202,18.9238,537.5638]]]]}
,"properties": {"GID_2": "DOM.7.2_1","GID_0": "DOM","country": "DominicanRepublic","GID_1": "DOM.7_1","province": "ElSeybo","NL_NAME_1": "NA","county": "SantaCruzdelSeybo","VARNAME_2": "NA","NL_NAME_2": "NA","TYPE_2": "Municipio","ENGTYPE_2": "Municipality","CC_2": "NA","HASC_2": "DO.SE.SC","name": "Santa_Cruzdel_Seybo.county","area_km2": 1337.977,"hist_schema_id": "Elevation0-9000","hist_area_km2": {"0": 0.643,"25": 26.437,"50": 109.501,"75": 184.037,"100": 181.951,"125": 149.488,"150": 134.488,"175": 118.303,"200": 91.063,"225": 71.252,"250": 54.536,"275": 42.035,"300": 33.186,"325": 27.688,"350": 23.734,"375": 19.782,"400": 14.304,"425": 10.412,"450": 8.566,"475": 9.027,"500": 9.909,"525": 10.23,"550": 3.952,"575": 2.066,"600": 0.943,"625": 0.381,"650": 0.02,"675": 0.04}}}