{"type":"Feature","properties":{"GID_2":"CUB.12.2_1","GID_0":"CUB","country":"Cuba","GID_1":"CUB.12_1","province":"Mayabeque","NL_NAME_1":"NA","county":"Bejucal","VARNAME_2":"NA","NL_NAME_2":"NA","TYPE_2":"Municipio","ENGTYPE_2":"Municipality","CC_2":"NA","HASC_2":"CU.LH.BE","name":"Bejucal.county"},
"geometry":{"type": "MultiPolygon","coordinates": [[[[-82.4152,22.9587,77.9261],[-82.4168,22.8922,85.0445],[-82.398,22.8845,74.4755],[-82.3809,22.8724,69.7489],[-82.3618,22.863,69.3372],[-82.3421,22.8549,65.7829],[-82.3196,22.8519,65.3198],[-82.3011,22.8411,59.9694],[-82.29,22.863,77.7894],[-82.2773,22.8789,95.9709],[-82.2525,22.9261,236.7915],[-82.2501,22.9357,218.844],[-82.2754,22.9365,207.2372],[-82.2876,22.9383,209.748],[-82.2933,22.9412,168.9562],[-82.3053,22.9522,136.7745],[-82.3437,22.9608,104.3585],[-82.3524,22.9589,101.604],[-82.3536,22.9562,114.9199],[-82.3518,22.9435,133.7054],[-82.3542,22.9382,125.7919],[-82.3609,22.9352,122.1487],[-82.3678,22.9353,112.0954],[-82.3756,22.9385,134.3082],[-82.3845,22.9451,161.044],[-82.4152,22.9587,77.9261]]]]}}