{"type": "Feature","id": "1366","bbox": [-77.73721,19.82783,-76.17966,20.78421],"geometry": {"type": "Polygon","coordinates": [[[-77.04687,20.73876,21.6711],[-77.05346,20.74088,20.4115],[-77.06803,20.75062,19.9305],[-77.10436,20.76344,20.5067],[-77.20249,20.76615,14.8192],[-77.22588,20.77222,17.2159],[-77.22836,20.77816,18.424],[-77.23221,20.78421,18.8338],[-77.23864,20.78421,20.8862],[-77.24621,20.78103,19.9655],[-77.26182,20.77057,15.4895],[-77.2682,20.76754,14.8192],[-77.2722,20.76747,16.0758],[-77.27626,20.77703,16.7848],[-77.28169,20.78274,21.0547],[-77.28533,20.78163,20.7557],[-77.28812,20.77708,19.0539],[-77.28936,20.76641,15.1965],[-77.29135,20.76062,13.2077],[-77.29373,20.75574,13.5526],[-77.30367,20.74496,7.7358],[-77.30727,20.7393,8.4247],[-77.30962,20.73297,5.776],[-77.31078,20.7306,6.9687],[-77.31272,20.7284,3.9721],[-77.31685,20.72602,0.2486],[-77.33241,20.71923,1.8301],[-77.33654,20.71644,1.2861],[-77.33668,20.71634,1.2861],[-77.31485,20.70905,1.194],[-77.29516,20.68708,0.0],[-77.27819,20.66205,2.7462],[-77.25805,20.64338,0.0],[-77.25105,20.6621,0.0],[-77.23168,20.65827,0.4656],[-77.19542,20.63654,0.0],[-77.19542,20.62979,0.0],[-77.21646,20.60244,2.0224],[-77.22338,20.59882,2.0071],[-77.23249,20.59601,2.498],[-77.24039,20.59211,0.412],[-77.24376,20.58535,0.0],[-77.2399,20.56306,0.825],[-77.22948,20.55292,0.8151],[-77.21402,20.54621,0.2039],[-77.19542,20.53413,5.4542],[-77.1892,20.54096,0.0],[-77.19567,20.55215,0.9033],[-77.18594,20.55093,2.7142],[-77.15014,20.53791,3.8093],[-77.1232,20.52094,0.9065],[-77.11343,20.51244,0.0],[-77.08243,20.46528,0.7391],[-77.09581,20.43016,0.0],[-77.10351,20.42365,0.0],[-77.11026,20.41641,0.0],[-77.11343,20.36848,1.039],[-77.15453,20.34406,0.0],[-77.16185,20.33832,0.0],[-77.1643,20.32217,0.0],[-77.17121,20.30728,0.0],[-77.18175,20.29487,0.0],[-77.19542,20.28653,0.0],[-77.21007,20.28286,0.0],[-77.22297,20.28339,0.0],[-77.22899,20.28913,2.7212],[-77.2233,20.30077,0.0],[-77.22985,20.30134,0.0],[-77.23339,20.30121,0.0],[-77.23632,20.30077,0.0],[-77.25072,20.28929,0.7062],[-77.26647,20.25324,0.0],[-77.28136,20.24555,0.0],[-77.30065,20.24274,0.0],[-77.40136,20.19807,0.0],[-77.42024,20.18504,0.0],[-77.43663,20.16242,0.0],[-77.47956,20.14086,0.0],[-77.49698,20.12946,0.0],[-77.51472,20.10444,0.0],[-77.51749,20.09846,0.0],[-77.52188,20.09455,0.0],[-77.54109,20.08877,0.0],[-77.55101,20.07978,6.9455],[-77.57738,20.08796,0.0],[-77.58642,20.08853,0.0],[-77.58812,20.08246,0.0],[-77.5747,20.06981,0.0],[-77.57274,20.0611,1.4437],[-77.62043,20.02033,1.0264],[-77.62393,20.01276,2.6229],[-77.62556,20.0078,2.8718],[-77.64786,19.97866,2.0528],[-77.66674,19.96247,0.0],[-77.67138,19.95478,0.0],[-77.66832,19.94392,4.216],[-77.67528,19.93989,0.0],[-77.68212,19.92959,3.8231],[-77.68883,19.92341,4.0886],[-77.69612,19.91999,1.0483],[-77.70881,19.91869,1.4098],[-77.71618,19.91657,0.0],[-77.71736,19.90721,2.4274],[-77.73599,19.87417,-0.5],[-77.73721,19.8557,0.0],[-77.73058,19.84479,3.5106],[-77.71955,19.83588,0.0],[-77.70604,19.83002,0.0],[-77.69253,19.82783,0.0],[-77.67325,19.82892,50.3751],[-77.61148,19.84463,24.8534],[-77.56933,19.8415,0.0],[-77.53336,19.84492,0.0],[-77.46996,19.85956,31.9291],[-77.37727,19.86197,31.222],[-77.35851,19.86449,16.7275],[-77.33047,19.87482,4.9684],[-77.31273,19.87564,0.0],[-77.31273,19.88247,0.209],[-77.34,19.88247,0.6329],[-77.32409,19.9003,0.4539],[-77.29825,19.90668,0.0],[-77.26915,19.90453,0.0],[-77.24376,19.89671,0.0],[-77.23717,19.90689,0.0],[-77.22728,19.91108,15.8508],[-77.21711,19.90961,6.2768],[-77.20962,19.9029,0.0],[-77.20279,19.9029,0.0],[-77.18895,19.91258,0.0],[-77.1634,19.90811,3.0107],[-77.11343,19.88931,0.0],[-77.08804,19.88544,0.0],[-77.03465,19.88777,0.0],[-77.03465,19.88783,0.0],[-77.03511,19.91059,78.5753],[-77.04415,19.92806,264.265],[-77.04723,19.93279,202.418],[-77.04785,19.93589,326.6192],[-77.04777,19.93891,312.5131],[-77.03912,19.94147,336.6372],[-76.9809,19.94752,496.6544],[-76.97382,19.94958,501.5332],[-76.9686,19.95297,571.2287],[-76.9307,20.00111,923.0331],[-76.92584,20.00335,898.5631],[-76.9185,20.00501,854.8403],[-76.89458,20.00643,875.6038],[-76.88057,20.00529,1270.7701],[-76.85869,20.0056,984.1483],[-76.84324,20.00834,1210.5959],[-76.83352,20.01242,1649.8671],[-76.81699,20.02857,1059.5796],[-76.80071,20.03795,1382.3962],[-76.79084,20.02927,1000.3566],[-76.78864,20.02681,908.7776],[-76.78458,20.02325,786.5389],[-76.78117,20.02123,590.8098],[-76.77781,20.02023,543.7094],[-76.77435,20.01945,658.3731],[-76.77161,20.01829,717.7124],[-76.769,20.01643,760.2839],[-76.76645,20.01358,719.3982],[-76.76275,20.01134,536.9121],[-76.75942,20.01141,480.0819],[-76.75577,20.01503,308.951],[-76.75391,20.01829,351.0439],[-76.7503,20.02061,631.471],[-76.74495,20.0226,774.5086],[-76.72588,20.0272,779.1591],[-76.72004,20.02733,689.0582],[-76.71394,20.02263,819.0703],[-76.70518,20.01304,1193.3354],[-76.6989,20.00886,1196.1624],[-76.691,20.00586,1091.0833],[-76.67451,20.00219,441.8238],[-76.67084,20.00082,378.7819],[-76.66888,19.99979,559.4584],[-76.66345,19.99919,830.4058],[-76.65472,19.99932,1207.1012],[-76.63702,20.00191,1305.8772],[-76.61348,20.00219,1369.8395],[-76.61,20.00408,1457.7705],[-76.60653,20.01286,1485.3342],[-76.60454,20.01449,1422.0264],[-76.59863,20.01304,1318.8013],[-76.59036,20.0101,1325.0901],[-76.56248,20.00377,1153.1849],[-76.55555,20.0055,924.131],[-76.55431,20.01023,1004.6624],[-76.56219,20.03038,785.4895],[-76.56356,20.03601,900.2618],[-76.56372,20.03878,977.3298],[-76.5571,20.0426,931.1978],[-76.52879,20.03811,919.4422],[-76.50538,20.03666,1210.2509],[-76.49837,20.0373,1277.3457],[-76.48874,20.03947,1394.7222],[-76.47675,20.04405,1005.7612],[-76.46243,20.05118,1025.6213],[-76.44737,20.0611,853.4321],[-76.41861,20.08668,877.1671],[-76.40828,20.10528,890.3616],[-76.41184,20.18952,625.7974],[-76.41747,20.21908,429.2836],[-76.420419999999993,20.22598,351.5934],[-76.41965,20.23107,291.5465],[-76.41316,20.23476,231.4661],[-76.4044,20.24393,254.4719],[-76.3891,20.25869,299.8908],[-76.39058,20.26853,284.9249],[-76.39029,20.27155,277.6228],[-76.39045,20.27626,270.1881],[-76.36947,20.35664,127.7875],[-76.36319,20.36661,223.9016],[-76.35551,20.37287,116.9456],[-76.33957,20.37328,107.2058],[-76.32978,20.3725,106.2742],[-76.30813,20.36858,103.1479],[-76.29872,20.36858,102.5887],[-76.29335,20.37054,94.5301],[-76.28999,20.37728,93.7311],[-76.28914,20.38186,96.6788],[-76.28823,20.39129,88.2504],[-76.2865,20.39527,83.5706],[-76.28301,20.39979,87.7782],[-76.27702,20.4056,75.6368],[-76.27229,20.41157,74.4233],[-76.26888,20.41831,72.7552],[-76.26733,20.42705,68.9991],[-76.26748,20.43609,67.3205],[-76.27128,20.45462,64.1593],[-76.27027,20.45909,59.3956],[-76.26601,20.46056,59.8717],[-76.25841,20.46108,52.6911],[-76.24834,20.45524,58.5093],[-76.2432,20.45002,58.4542],[-76.24095,20.44384,68.2336],[-76.24103,20.43775,64.2353],[-76.24188,20.43175,56.5988],[-76.24188,20.4256,65.1442],[-76.24084,20.42023,57.3992],[-76.23583,20.41072,67.0573],[-76.2309,20.39751,76.2305],[-76.22731,20.39325,74.7774],[-76.21953,20.39387,75.0432],[-76.2056,20.40444,76.4547],[-76.17966,20.43759,74.8085],[-76.20434,20.47433,61.3469],[-76.23397,20.50278,58.957],[-76.24441,20.50947,58.7493],[-76.25309,20.51363,61.3371],[-76.28007,20.51957,58.3853],[-76.30053,20.52857,40.5996],[-76.31288,20.53213,53.1138],[-76.33805,20.53637,53.4707],[-76.36037,20.54456,50.5211],[-76.37257,20.5458,50.6899],[-76.36694,20.56686,48.685],[-76.36781,20.57195,49.7558],[-76.37079,20.57869,48.4256],[-76.37448,20.58125,47.7848],[-76.37789,20.58241,47.4145],[-76.38076,20.58272,47.6961],[-76.38531,20.58174,47.4902],[-76.38735,20.5804,46.7009],[-76.39014,20.57807,46.884],[-76.39306,20.57655,46.8724],[-76.39613,20.57639,46.7203],[-76.40476,20.57993,46.3302],[-76.43957,20.58991,44.1734],[-76.48589,20.61577,40.6734],[-76.50383,20.62329,39.8338],[-76.55067,20.63386,36.2928],[-76.55984,20.63822,35.2349],[-76.56442,20.64189,34.3939],[-76.56444,20.64618,34.0248],[-76.56281,20.66094,33.2534],[-76.56341,20.67264,33.6215],[-76.56452,20.68006,37.1627],[-76.57031,20.69646,38.2949],[-76.58124,20.69708,38.6876],[-76.60816,20.68383,35.5891],[-76.61824,20.68179,35.243],[-76.6279,20.68243,35.247],[-76.63539,20.68484,34.8569],[-76.64992,20.68773,34.0849],[-76.65798,20.69099,33.3852],[-76.66446,20.69613,34.8766],[-76.67361,20.71067,35.7338],[-76.67717,20.71318,37.1925],[-76.68035,20.71318,38.4965],[-76.68994,20.70794,32.7616],[-76.69978,20.70452,30.589],[-76.70725,20.70615,30.3448],[-76.71283,20.70964,29.8396],[-76.71704,20.7145,33.4282],[-76.7219,20.7223,34.1752],[-76.76218,20.70695,24.8595],[-76.76629,20.70429,24.6096],[-76.78288,20.69099,23.2699],[-76.79345,20.69527,20.2916],[-76.81202,20.73261,32.3573],[-76.8213,20.73977,31.3958],[-76.83611,20.74333,32.3389],[-76.85869,20.7431,25.4546],[-76.90122,20.74786,25.0311],[-76.92122,20.7476,26.891],[-76.92925,20.74654,27.8374],[-76.97096,20.75357,26.3023],[-76.99323,20.74646,23.7244],[-77.00808,20.7445,20.2356],[-77.02162,20.74395,20.7893],[-77.03806,20.73899,21.3281],[-77.04687,20.73876,21.6711]]]}
,"properties": {"ISO3166-1-Alpha-3": "CUB","country": "Cuba","fill": "#F0F","name": "Granma","area_km2": 8565.142,"hist_schema_id": "Elevation0-9000","hist_area_km2": {"0": 1592.896,"25": 2145.393,"50": 1201.818,"75": 652.652,"100": 446.419,"125": 293.198,"150": 244.824,"175": 176.129,"200": 140.39,"225": 125.622,"250": 121.301,"275": 120.099,"300": 96.015,"325": 81.06,"350": 68.687,"375": 64.087,"400": 59.147,"425": 52.773,"450": 51.734,"475": 48.907,"500": 44.009,"525": 43.908,"550": 40.603,"575": 36.84,"600": 35.286,"625": 31.364,"650": 29.572,"675": 28.198,"700": 26.744,"725": 26.386,"750": 24.653,"775": 24.712,"800": 23.339,"825": 22.483,"850": 23.419,"875": 21.986,"900": 21.727,"925": 20.512,"950": 21.787,"975": 20.234,"1000": 19.716,"1025": 18.243,"1050": 16.65,"1075": 14.997,"1100": 14.997,"1125": 14.32,"1150": 12.807,"1175": 11.93,"1200": 11.711,"1225": 11.432,"1250": 8.744,"1275": 9.301,"1300": 8.047,"1325": 6.473,"1350": 5.936,"1375": 4.8,"1400": 4.282,"1425": 3.824,"1450": 2.968,"1475": 2.789,"1500": 2.729,"1525": 1.813,"1550": 1.454,"1575": 1.235,"1600": 0.976,"1625": 0.757,"1650": 0.538,"1675": 0.378,"1700": 0.239,"1725": 0.139}}}