{"type": "Feature","bbox": [-77.7412,19.826,-76.1669,20.7545],"geometry": {"type": "MultiPolygon","coordinates": [[[[-77.4349,19.8587,0.0],[-77.4243,19.8532,0.0],[-77.4196,19.8471,0.0],[-77.396,19.8468,0.0],[-77.3743,19.8546,4.6395],[-77.3721,19.8546,9.9734],[-77.3718,19.8529,0.0],[-77.3674,19.8529,0.0],[-77.3549,19.8546,1.8136],[-77.3499,19.8538,5.3809],[-77.3437,19.856,1.4386],[-77.3401,19.8587,0.0],[-77.3385,19.8662,0.0],[-77.3365,19.8682,0.0],[-77.3304,19.8715,0.6425],[-77.3146,19.8762,1.1146],[-77.3074,19.8818,0.0],[-77.3104,19.8854,0.6167],[-77.3165,19.8857,0.0],[-77.3271,19.881,0.9316],[-77.331,19.8821,0.0],[-77.3324,19.8801,2.1434],[-77.3346,19.8801,3.341],[-77.3371,19.8824,0.0],[-77.3399,19.8818,1.7945],[-77.3399,19.8829,0.6329],[-77.3351,19.8846,0.5153],[-77.3351,19.8907,0.6334],[-77.3293,19.8915,0.3878],[-77.3288,19.8888,0.8174],[-77.3304,19.8893,0.3398],[-77.3324,19.8874,1.0544],[-77.3315,19.8846,0.376],[-77.3262,19.8868,0.0],[-77.3249,19.8943,0.4934],[-77.3232,19.8954,0.4817],[-77.3243,19.8999,0.4539],[-77.3196,19.9007,0.0],[-77.3204,19.9029,0.0],[-77.3146,19.9063,1.4731],[-77.3138,19.9104,0.7531],[-77.3043,19.9099,0.0],[-77.2993,19.9121,6.4276],[-77.2949,19.9101,0.0],[-77.2882,19.9132,1.2498],[-77.2849,19.9129,1.5711],[-77.2835,19.9107,2.9109],[-77.2776,19.9068,0.0],[-77.276,19.9076,1.7313],[-77.2743,19.9054,0.0],[-77.2688,19.9079,0.0],[-77.2679,19.9132,0.9263],[-77.2573,19.9124,6.9055],[-77.2565,19.9107,0.5694],[-77.2579,19.9076,1.584],[-77.2604,19.9051,1.9317],[-77.2626,19.9063,0.0],[-77.264,19.9049,0.0],[-77.2615,19.9021,0.8276],[-77.2546,19.903199999999998,0.0],[-77.2493,19.9015,0.0],[-77.2465,19.904,0.0],[-77.2432,19.9026,0.0],[-77.2393,19.9101,0.0],[-77.2376,19.9104,0.0],[-77.2343,19.9054,0.0],[-77.2318,19.9043,0.0],[-77.2301,19.9043,0.0],[-77.229,19.9065,0.6928],[-77.226,19.9054,0.0],[-77.2237,19.9065,0.0],[-77.2235,19.9099,0.0],[-77.2229,19.9068,0.0],[-77.219,19.9088,0.4069],[-77.2199,19.9037,0.0],[-77.2187,19.9024,0.0],[-77.2121,19.9021,0.0],[-77.2124,19.9043,0.5178],[-77.2151,19.9063,0.0],[-77.2143,19.9076,5.1476],[-77.214,19.906,0.0],[-77.2107,19.9051,0.0],[-77.2101,19.9026,0.0],[-77.1943,19.9043,0.0],[-77.1949,19.9065,0.0],[-77.2012,19.9088,0.0],[-77.201,19.9132,0.0],[-77.1979,19.916,1.3943],[-77.1918,19.9143,0.9974],[-77.1885,19.916,1.9637],[-77.1857,19.9143,0.0],[-77.1821,19.9157,3.1783],[-77.1776,19.9126,1.0293],[-77.1785,19.9093,0.2763],[-77.1876,19.9112,0.0],[-77.1876,19.9071,0.0],[-77.181,19.9057,0.0],[-77.1768,19.9021,0.0],[-77.1732,19.9026,0.8374],[-77.1701,19.9007,0.0],[-77.1632,19.9035,0.0],[-77.1568,19.9021,0.0],[-77.1526,19.904,2.7096],[-77.1485,19.9037,0.0],[-77.1471,19.8993,0.0],[-77.1413,19.8996,0.0],[-77.1332,19.8949,0.0],[-77.1243,19.8926,0.0],[-77.1179,19.8932,0.0],[-77.1143,19.8915,0.0],[-77.1146,19.8932,0.0],[-77.1085,19.894,4.0351],[-77.1076,19.8921,0.0],[-77.1051,19.8921,0.5556],[-77.1026,19.8937,0.0],[-77.0921,19.8913,0.0],[-77.0893,19.8924,23.6421],[-77.0824,19.891,2.694],[-77.0774,19.8876,2.4663],[-77.0704,19.8871,4.5845],[-77.0657,19.8899,0.953],[-77.064,19.8879,0.0],[-77.0579,19.8874,2.4663],[-77.0524,19.8904,0.0],[-77.046,19.8896,0.0],[-77.0385,19.8924,4.7647],[-77.0338,19.8893,0.0],[-77.0251,19.8926,13.4585],[-77.016,19.889,4.9716],[-77.0126,19.8868,0.0],[-77.0121,19.8846,0.0],[-77.0046,19.8865,0.0],[-76.991,19.8854,0.0],[-76.9895,19.886,5.0289],[-76.9921,19.8906,71.159],[-76.9911,19.8907,95.4538],[-77.01,19.9111,184.8817],[-77.0113,19.9155,280.0106],[-77.0067,19.9205,327.7755],[-76.9987,19.9218,425.6233],[-76.9471,19.9221,291.2639],[-76.917,19.9299,112.367],[-76.9084,19.937,202.4439],[-76.9011,19.9483,621.1383],[-76.8834,19.9907,1049.5223],[-76.8764,19.9984,1053.9723],[-76.8652,20.0023,949.5883],[-76.8518,20.003,888.9659],[-76.8434,20.0017,1377.7173],[-76.8258,19.9861,1628.1831],[-76.8202,19.9849,1224.2041],[-76.8137,19.9886,1470.3264],[-76.8067,19.9954,1275.2853],[-76.7983,19.9985,926.6448],[-76.7803,20.0272,742.35],[-76.7748,20.0308,826.3247],[-76.7664,20.0332,728.148],[-76.7478,20.0332,760.2653],[-76.7425,20.03,892.5134],[-76.7328,20.0059,673.1094],[-76.7281,20.0005,1073.0583],[-76.7203,19.9994,1008.9146],[-76.7157,20.0006,1111.0094],[-76.7009,20.0184,1213.9561],[-76.6951,20.0211,1317.179],[-76.6743,20.0228,1203.8416],[-76.6662,20.0229,1030.843],[-76.647,20.0084,1011.1333],[-76.6398,20.0058,1136.9564],[-76.6289,20.0065,1113.7573],[-76.6159,20.0114,1465.0739],[-76.6073,20.0127,1533.9668],[-76.5892,20.0085,1321.7322],[-76.5817,20.0098,1530.8818],[-76.5784,20.0136,1659.3142],[-76.5733,20.0302,959.4427],[-76.5666,20.0365,958.8278],[-76.5592,20.0389,1049.9713],[-76.5174,20.0356,1036.5354],[-76.5003,20.0352,1094.2635],[-76.4916,20.0368,1325.6538],[-76.4902,20.0415,1458.0491],[-76.4915,20.045,1445.5654],[-76.5013,20.057,944.3859],[-76.5017,20.062,855.5023],[-76.4983,20.0668,825.2814],[-76.494,20.0674,948.4398],[-76.4868,20.0651,941.1074],[-76.4702,20.0571,1057.4181],[-76.4434,20.0521,564.8395],[-76.4297,20.0528,409.6416],[-76.4118,20.0578,558.9061],[-76.4006,20.0629,621.2869],[-76.3883,20.0707,862.9553],[-76.3788,20.0808,739.0736],[-76.3737,20.0927,727.2874],[-76.3711,20.1069,651.0001],[-76.3706,20.1573,523.646],[-76.3708,20.1706,595.9271],[-76.3725,20.1776,643.6683],[-76.3747,20.1814,649.0836],[-76.3823,20.1872,577.6802],[-76.3903,20.2048,605.0329],[-76.4001,20.2153,497.0703],[-76.4009,20.2242,371.7335],[-76.3963,20.2316,344.7449],[-76.3711,20.249,319.2498],[-76.3549,20.2672,289.3037],[-76.3489,20.2814,248.7659],[-76.3422,20.3372,172.3483],[-76.3371,20.3667,120.6448],[-76.3337,20.3724,105.9782],[-76.3282,20.376,101.7185],[-76.322,20.3761,98.9648],[-76.2905,20.3688,94.9103],[-76.2737,20.3678,111.1313],[-76.2526,20.3692,96.872],[-76.2427,20.3743,89.6658],[-76.2381,20.3791,84.3106],[-76.2357,20.3868,62.7476],[-76.2348,20.4107,67.0573],[-76.2305,20.4352,67.0367],[-76.2189,20.4466,67.9247],[-76.2124,20.4466,68.3005],[-76.2053,20.4389,71.973],[-76.1982,20.4135,77.1272],[-76.1881,20.4045,83.5786],[-76.1809,20.4022,86.771],[-76.1738,20.4023,90.5788],[-76.1689,20.4068,89.4512],[-76.1669,20.4186,88.4778],[-76.1744,20.4447,73.9635],[-76.1799,20.4812,66.915],[-76.1839,20.495,66.5052],[-76.1936,20.5052,64.9028],[-76.2031,20.5119,63.3056],[-76.2288,20.5237,58.7389],[-76.2828,20.5381,55.1821],[-76.305,20.5487,54.9053],[-76.3377,20.5548,51.6808],[-76.3434,20.5575,51.1847],[-76.3459,20.5609,51.8561],[-76.346,20.5648,51.1292],[-76.3368,20.5787,51.0514],[-76.3375,20.5834,50.7422],[-76.3413,20.5863,50.2091],[-76.3572,20.5894,49.1095],[-76.3911,20.5863,46.3943],[-76.406,20.5862,46.0917],[-76.4234,20.5883,45.1798],[-76.4316,20.5921,44.2228],[-76.4739,20.6196,41.0778],[-76.4864,20.623,40.1524],[-76.5427,20.6241,34.7652],[-76.5502,20.6263,34.2535],[-76.5541,20.6331,35.6945],[-76.5541,20.6384,35.7375],[-76.547,20.6621,37.3748],[-76.5439,20.6818,34.5688],[-76.5465,20.6921,35.6302],[-76.5538,20.6985,36.1652],[-76.5628,20.6987,35.4199],[-76.5891,20.6905,38.9696],[-76.6012,20.6903,37.0076],[-76.6141,20.6949,39.6837],[-76.6206,20.6954,38.557],[-76.6438,20.691,35.3141],[-76.646,20.6924,35.656],[-76.6493,20.6992,38.8027],[-76.6545,20.7142,40.5632],[-76.6601,20.717,39.6609],[-76.6641,20.717,38.4394],[-76.6691,20.7149,36.7246],[-76.6721,20.711,36.0257],[-76.6793,20.71,37.8908],[-76.6885,20.7193,34.6596],[-76.7128,20.709,29.8396],[-76.7254,20.7003,28.6687],[-76.734,20.6911,27.8325],[-76.7436,20.668,22.4945],[-76.747,20.6668,23.3083],[-76.7604,20.669,23.3341],[-76.767,20.673,22.9461],[-76.7769,20.6871,22.6842],[-76.7834,20.7056,27.2031],[-76.7894,20.7161,24.5512],[-76.8027,20.7286,27.9669],[-76.8193,20.7361,31.1852],[-76.8286,20.7369,28.0365],[-76.8478,20.7337,26.8317],[-76.8755,20.7325,25.2327],[-76.8982,20.7331,19.7841],[-76.9156,20.735,21.0318],[-76.9397,20.7418,27.4966],[-76.9524,20.7428,20.3586],[-76.9614,20.7412,22.3187],[-76.9756,20.7319,17.9194],[-76.9815,20.7304,17.438],[-77.0023,20.7334,18.1123],[-77.0079,20.7318,17.5045],[-77.0229,20.7166,10.1996],[-77.0322,20.7147,9.8195],[-77.0385,20.7155,10.2147],[-77.0441,20.7184,11.4849],[-77.052,20.7257,14.3416],[-77.0685,20.7473,18.1454],[-77.0754,20.7523,18.7873],[-77.082,20.7545,20.0381],[-77.1615,20.7527,16.9937],[-77.1872,20.748,13.7981],[-77.1968,20.742,13.8646],[-77.2023,20.7331,12.2003],[-77.204,20.7233,11.2875],[-77.2038,20.6932,1.1121],[-77.2115,20.68,0.0],[-77.2176,20.6778,0.8426],[-77.2191,20.6723,4.3615],[-77.2332,20.6582,0.0],[-77.2386,20.6617,0.1612],[-77.2405,20.6665,2.8498],[-77.2388,20.6724,0.7366],[-77.2427,20.672,0.4866],[-77.2581,20.6649,0.0],[-77.2606,20.6614,0.1661],[-77.2596,20.6585,0.0],[-77.2538,20.6632,2.6848],[-77.2471,20.6629,0.0],[-77.2401,20.6651,1.8625],[-77.2435,20.6599,1.1667],[-77.2387,20.6521,1.0008],[-77.2315,20.6487,0.0],[-77.2268,20.6485,0.0],[-77.226,20.6499,2.2473],[-77.2226,20.6424,1.0799],[-77.2143,20.6357,1.3349],[-77.2118,20.6357,1.3573],[-77.2099,20.6396,1.743],[-77.2024,20.6374,2.7939],[-77.199,20.629,1.6449],[-77.2012,20.6232,0.814],[-77.2065,20.621,0.0],[-77.2063,20.6165,1.6864],[-77.2115,20.6115,0.902],[-77.2151,20.6038,0.8097],[-77.229,20.5962,2.406],[-77.2363,20.5968,2.9247],[-77.2415,20.5901,0.4987],[-77.2424,20.5807,0.3986],[-77.2454,20.5771,0.0],[-77.2418,20.5746,2.1972],[-77.2363,20.5793,1.4004],[-77.229,20.581,1.159],[-77.2246,20.5851,0.5836],[-77.2221,20.5843,0.573],[-77.2282,20.5765,1.0358],[-77.2343,20.5729,5.3658],[-77.2349,20.5701,1.4539],[-77.2329,20.5682,2.1122],[-77.2371,20.5674,2.0536],[-77.2415,20.5687,2.8203],[-77.244,20.5738,0.0],[-77.2457,20.5743,0.0],[-77.2482,20.569,0.153],[-77.2479,20.5599,0.0],[-77.2471,20.5551,0.0],[-77.2426,20.5501,0.0],[-77.2421,20.5471,1.0413],[-77.2449,20.5454,2.5861],[-77.249,20.5468,2.9361],[-77.2518,20.5454,0.0],[-77.219,20.5415,0.0],[-77.1963,20.5304,0.0],[-77.1851,20.5268,0.0],[-77.1732,20.528199999999998,0.0],[-77.1732,20.5301,0.0],[-77.1776,20.5324,0.0],[-77.1857,20.5299,1.1487],[-77.1929,20.5307,0.0],[-77.1963,20.5329,0.6997],[-77.1946,20.5338,0.0],[-77.1951,20.5354,0.0],[-77.199,20.5365,1.0509],[-77.1904,20.5535,0.0],[-77.1882,20.554,3.6128999999999998],[-77.1865,20.5532,0.8634],[-77.186,20.5485,0.0],[-77.1724,20.5399,2.3062],[-77.1735,20.5343,0.404],[-77.1637,20.5318,0.0],[-77.1596,20.529,0.4555],[-77.1451,20.5268,0.3147],[-77.129,20.5213,0.619],[-77.1168,20.511,0.0],[-77.1157,20.511,0.0],[-77.1165,20.5146,0.0],[-77.1237,20.5213,0.9065],[-77.1237,20.5257,0.9373],[-77.1115,20.5318,0.0],[-77.1121,20.5374,0.6146],[-77.1101,20.5393,0.7939],[-77.1049,20.5396,0.2816],[-77.0979,20.5365,0.0],[-77.0971,20.5379,1.5186],[-77.1015,20.5451,0.381],[-77.1082,20.5501,1.6522],[-77.1124,20.5563,0.0],[-77.1363,20.5604,0.9569],[-77.1432,20.5635,1.8226],[-77.1474,20.5632,1.4192],[-77.1551,20.5571,1.3613],[-77.1549,20.5599,0.7494],[-77.1521,20.5626,1.7269],[-77.1446,20.5649,1.098],[-77.1351,20.5626,1.282],[-77.1193,20.5632,2.1082],[-77.1157,20.5613,0.0],[-77.1087,20.5607,1.3876],[-77.1104,20.5579,1.8528],[-77.1062,20.5549,0.0],[-77.0993,20.5579,1.0754],[-77.0976,20.5607,1.5798],[-77.0949,20.5599,0.0],[-77.0871,20.5626,1.548],[-77.0829,20.5604,0.0],[-77.0807,20.5615,0.5434],[-77.076,20.556,0.4839],[-77.0682,20.5574,2.1047],[-77.0635,20.5604,2.0148],[-77.0632,20.5551,0.0],[-77.0512,20.5535,0.0],[-77.0488,20.5601,0.0],[-77.0446,20.5621,0.6315],[-77.0457,20.564,2.6057],[-77.0446,20.5651,0.8836],[-77.0401,20.5643,0.6498],[-77.0376,20.5663,1.4789],[-77.0326,20.5646,4.0051],[-77.0324,20.5629,1.1905],[-77.0296,20.5637,0.9147],[-77.0285,20.5621,5.9215],[-77.029,20.5579,2.3566],[-77.0321,20.5588,0.0],[-77.0332,20.5576,1.195],[-77.0299,20.5537,2.7016],[-77.0299,20.5499,0.9977],[-77.026,20.5465,0.0],[-77.0215,20.5496,1.9179],[-77.0185,20.5496,1.644],[-77.0182,20.5468,0.0],[-77.0143,20.5418,2.2467],[-77.014,20.5365,3.6973],[-77.0163,20.529,0.0],[-77.0263,20.5226,1.0204],[-77.0296,20.5226,0.6614],[-77.031,20.524,1.9092],[-77.0304,20.5263,0.0],[-77.0321,20.5246,1.9092],[-77.0351,20.5246,0.0],[-77.0351,20.5224,1.0679],[-77.0374,20.524,0.0],[-77.0399,20.5229,3.0375],[-77.0446,20.5276,2.7202],[-77.0449,20.5307,0.0],[-77.0482,20.5318,3.8388],[-77.0518,20.5362,1.3665],[-77.0543,20.5357,1.1236],[-77.0629,20.5362,1.6615],[-77.0671,20.5388,0.0],[-77.0707,20.5332,1.8165],[-77.0746,20.5332,0.7384],[-77.0982,20.5454,0.3499],[-77.0985,20.5438,0.0],[-77.0946,20.5393,0.3893],[-77.0963,20.5351,2.6103],[-77.1015,20.5343,0.5403],[-77.1082,20.5374,0.0],[-77.1087,20.5318,0.6786],[-77.111,20.529,0.2045],[-77.116,20.5285,0.6128],[-77.1221,20.5249,0.0],[-77.1226,20.5229,0.0],[-77.1124,20.5129,0.8958],[-77.1082,20.5054,0.3412],[-77.1076,20.4982,1.6606],[-77.1101,20.5007,0.6736],[-77.1104,20.4979,0.6719],[-77.1021,20.4943,1.62],[-77.0901,20.4668,0.3823],[-77.0868,20.4635,0.0],[-77.0865,20.4682,1.7706],[-77.0885,20.4696,1.8058],[-77.0899,20.4774,0.0],[-77.0918,20.4799,0.8287],[-77.0896,20.4882,0.0],[-77.0921,20.4968,0.0],[-77.0879,20.5001,0.0],[-77.0879,20.5026,0.3493],[-77.0851,20.5032,1.6463],[-77.0821,20.5007,0.9796],[-77.0782,20.5043,3.9539],[-77.0796,20.5007,0.3643],[-77.0788,20.4985,1.429],[-77.0868,20.4988,0.0],[-77.091,20.4951,0.0],[-77.089,20.4893,0.0],[-77.089,20.4826,0.0],[-77.076,20.4746,2.3241],[-77.076,20.4726,1.3415],[-77.0799,20.474,0.0],[-77.0849,20.4674,0.0],[-77.081,20.4607,0.6423],[-77.081,20.4554,1.8053],[-77.0876,20.4251,0.6513],[-77.0951,20.416,1.56],[-77.104,20.4174,0.0],[-77.1051,20.4154,0.0],[-77.1074,20.3954,0.0],[-77.104,20.3885,1.2094],[-77.1051,20.3776,0.0],[-77.1096,20.3693,0.9292],[-77.1162,20.3665,1.2989],[-77.1168,20.3568,3.4122],[-77.1185,20.3546,2.8275],[-77.1218,20.3546,0.0],[-77.1199,20.3524,1.3571],[-77.1246,20.3468,4.9856],[-77.1379,20.3418,6.1482],[-77.141,20.3426,0.0],[-77.1485,20.3351,0.7641],[-77.1554,20.3312,0.5713],[-77.1549,20.3296,1.2867],[-77.1576,20.3293,0.0],[-77.1593,20.3196,0.5946],[-77.1637,20.3079,1.6916],[-77.1749,20.2962,0.0],[-77.1768,20.2915,0.0],[-77.1815,20.2865,2.1486],[-77.1921,20.2818,1.9787],[-77.209,20.2779,0.0],[-77.2132,20.274,1.1268],[-77.2213,20.2729,0.7887],[-77.2271,20.2765,1.2908],[-77.2329,20.2838,1.186],[-77.2307,20.2874,3.6239],[-77.2249,20.2915,0.0],[-77.2254,20.2929,0.0],[-77.2288,20.2926,0.8291],[-77.2249,20.2954,0.0],[-77.2282,20.2943,0.0],[-77.2307,20.2918,1.8749],[-77.2454,20.2907,0.0],[-77.254,20.2921,0.0],[-77.2554,20.2901,0.0],[-77.2526,20.2865,0.1283],[-77.2521,20.2785,0.7363],[-77.2554,20.2629,0.0],[-77.2613,20.2543,0.5333],[-77.2704,20.2485,0.5859],[-77.2743,20.2421,0.0],[-77.2957,20.2368,5.0403],[-77.3146,20.2296,0.0],[-77.3238,20.224,0.0],[-77.3262,20.2282,0.0],[-77.3262,20.2232,2.464],[-77.3304,20.2215,2.809],[-77.3376,20.2213,0.5481],[-77.3838,20.2076,1.8503],[-77.401,20.1963,0.0],[-77.4096,20.1824,0.0],[-77.411,20.1774,5.9815],[-77.4207,20.1763,0.0],[-77.4254,20.1718,1.5761],[-77.4271,20.1671,2.1627],[-77.4343,20.1651,0.8872],[-77.4371,20.1601,5.4334],[-77.4421,20.1593,0.2513],[-77.4435,20.1568,1.5383],[-77.449,20.154,0.0],[-77.4565,20.1543,0.0],[-77.4587,20.1504,0.9425],[-77.4635,20.1485,1.0372],[-77.471,20.149,0.0],[-77.4799,20.1349,1.7098],[-77.4829,20.1318,1.8516],[-77.4857,20.1324,0.0],[-77.4863,20.1288,0.4057],[-77.4907,20.1251,0.0],[-77.5038,20.1035,3.2233],[-77.5071,20.1013,1.5228],[-77.5121,20.1007,0.0],[-77.514,20.096,2.3289],[-77.5204,20.0951,0.0],[-77.5232,20.0921,0.0],[-77.5326,20.0912,1.2635],[-77.5379,20.0832,3.1582],[-77.5437,20.0807,0.0],[-77.5518,20.0821,0.0],[-77.5607,20.086,0.0],[-77.5685,20.0835,2.8512],[-77.576,20.086,0.2757],[-77.5782,20.0924,0.0],[-77.5821,20.0915,0.0],[-77.5849,20.0835,0.3953],[-77.5885,20.0804,0.0],[-77.5832,20.074,0.0],[-77.5807,20.0743,0.0],[-77.5779,20.0771,0.8845],[-77.5743,20.0765,0.0],[-77.5696,20.0701,0.7362],[-77.5699,20.0646,0.0],[-77.5749,20.0607,0.0],[-77.5796,20.0613,0.0],[-77.5829,20.0549,1.2552],[-77.5849,20.054,0.978],[-77.5854,20.0504,4.2409],[-77.5901,20.0496,0.0],[-77.5935,20.0465,0.71],[-77.5965,20.0485,0.4311],[-77.6004,20.0476,0.0],[-77.6007,20.0504,0.3225],[-77.6026,20.051,0.0],[-77.6038,20.0468,0.0],[-77.5993,20.0454,1.2715],[-77.6071,20.044,0.0],[-77.6079,20.041,0.0],[-77.6057,20.0393,0.0],[-77.6065,20.0379,0.7086],[-77.6093,20.0368,0.9607],[-77.6087,20.0388,0.0],[-77.611,20.0393,0.0],[-77.6115,20.0374,0.3674],[-77.614,20.0368,0.0],[-77.611,20.031,0.943],[-77.6137,20.0312,0.1427],[-77.6151,20.0296,0.2363],[-77.6154,20.0318,0.8025],[-77.6174,20.0324,0.0],[-77.6204,20.0285,0.6601],[-77.6204,20.0273,0.6601],[-77.6149,20.0265,0.2791],[-77.614,20.0244,0.0],[-77.619,20.0229,0.7635],[-77.6185,20.0251,0.0],[-77.6224,20.026,0.0],[-77.6251,20.0243,0.0],[-77.6226,20.0199,1.2024],[-77.6251,20.021,0.0],[-77.6268,20.0187,0.6079],[-77.6293,20.0193,0.0],[-77.6293,20.0171,1.0504],[-77.6274,20.0165,0.0],[-77.629,20.011,0.4651],[-77.6251,20.0104,2.677],[-77.6251,20.0093,2.677],[-77.6343,20.006,0.0],[-77.6293,20.0046,3.5336],[-77.6346,20.0026,0.0],[-77.6351,19.9979,0.8893],[-77.6368,19.9963,0.2941],[-77.6357,19.9949,0.8293],[-77.641,19.9929,0.0],[-77.6387,19.9918,2.3169],[-77.6401,19.9915,0.0],[-77.6399,19.9888,0.0],[-77.6418,19.9904,0.0],[-77.6438,19.9899,0.0],[-77.6438,19.9849,1.3081],[-77.6449,19.9863,0.1489],[-77.6471,19.9857,0.0],[-77.6465,19.9876,0.0],[-77.6479,19.9868,0.0],[-77.6477,19.9907,0.0],[-77.6496,19.9901,0.3761],[-77.6493,19.9871,0.3184],[-77.651,19.9876,0.0],[-77.6499,19.9843,0.5387],[-77.6532,19.9829,0.255],[-77.6507,19.9807,0.3355],[-77.6526,19.9796,0.0],[-77.6521,19.9774,0.0],[-77.6565,19.9771,0.0],[-77.6526,19.9751,0.0],[-77.6521,19.9724,0.0],[-77.656,19.9713,1.3413],[-77.6565,19.9696,1.244],[-77.6588,19.9699,0.0],[-77.6599,19.9604,3.3292],[-77.6621,19.9596,1.1977],[-77.6654,19.9615,0.3391],[-77.669,19.9588,0.0],[-77.6726,19.9599,0.3814],[-77.6757,19.9585,0.0],[-77.6757,19.9574,0.0],[-77.6687,19.9579,0.7365],[-77.669,19.956,0.0],[-77.666,19.9549,2.4593],[-77.6657,19.9521,2.5128],[-77.6685,19.9507,0.0],[-77.6704,19.9432,3.7777],[-77.681,19.9307,0.0],[-77.6896,19.9254,3.4185],[-77.696,19.9257,0.0],[-77.7001,19.9279,0.0],[-77.7063,19.9268,0.824],[-77.709,19.9232,0.8698],[-77.7121,19.9132,0.6614],[-77.7215,19.9071,0.0],[-77.7285,19.891,0.0],[-77.7401,19.8801,1.6172],[-77.7412,19.8754,1.3309],[-77.7365,19.859,0.0],[-77.7374,19.8554,0.0],[-77.7354,19.8549,2.0481],[-77.7379,19.8524,0.0],[-77.736,19.8501,1.5729],[-77.7382,19.8463,0.8475],[-77.7365,19.8457,0.8475],[-77.7368,19.8443,1.0052],[-77.7382,19.8449,1.0052],[-77.7393,19.8432,0.0],[-77.7385,19.8415,0.0],[-77.7324,19.8426,2.1453],[-77.7307,19.840699999999998,0.0],[-77.721,19.8393,2.9149],[-77.7107,19.8357,1.0433],[-77.7051,19.8368,0.0],[-77.6949,19.8343,18.7191],[-77.6862,19.8285,0.0],[-77.6762,19.826,7.1412],[-77.6537,19.8304,0.0],[-77.6293,19.8393,0.7493],[-77.606,19.8437,0.0],[-77.5924,19.8518,0.0],[-77.5871,19.8521,11.035],[-77.5788,19.8457,0.0],[-77.5476,19.8476,6.2925],[-77.539,19.8463,1.8918],[-77.5385,19.8446,0.0],[-77.5107,19.8432,0.0],[-77.496,19.8457,3.4294],[-77.471,19.8563,3.761],[-77.4437,19.8618,0.0],[-77.4421,19.8649,0.7034],[-77.4407,19.8649,0.7034],[-77.4368,19.859,3.954],[-77.4349,19.8587,0.0]]],
[[[-77.2882,19.8979,0.0],[-77.2896,19.8988,0.0],[-77.2913,19.8968,0.0],[-77.2901,19.894,0.0],[-77.2885,19.8951,0.0],[-77.2896,19.8971,0.0],[-77.2882,19.8979,0.0]]],
[[[-77.2737,19.8982,0.0],[-77.2735,19.9001,1.5676],[-77.2754,19.8999,1.5676],[-77.2757,19.8974,0.0],[-77.2737,19.8982,0.0]]],
[[[-77.6596,19.9882,0.3989],[-77.6624,19.989,0.0],[-77.6621,19.9876,1.1509],[-77.6643,19.9865,0.4602],[-77.6576,19.9857,0.0],[-77.6557,19.9818,0.0],[-77.6543,19.9818,0.0],[-77.654,19.9863,0.4541],[-77.6513,19.9863,0.0],[-77.6529,19.9882,0.4251],[-77.6557,19.9851,0.399],[-77.6596,19.9882,0.3989]]],
[[[-77.6321,20.0365,0.8771],[-77.6321,20.0401,0.0],[-77.6335,20.0404,0.0],[-77.6329,20.0376,0.4434],[-77.6343,20.0365,0.0],[-77.6321,20.0365,0.8771]]],
[[[-77.599,20.0926,2.2691],[-77.5987,20.0946,0.5997],[-77.6012,20.0926,0.8454],[-77.6015,20.0899,0.6051],[-77.5999,20.0901,0.0],[-77.599,20.0926,2.2691]]],
[[[-77.6076,20.0963,0.5308],[-77.6107,20.0971,0.0],[-77.6051,20.0932,0.0],[-77.6038,20.094,0.0],[-77.6046,20.0954,0.0],[-77.6076,20.0963,0.5308]]],
[[[-77.626,20.0965,0.4282],[-77.6257,20.0987,0.3348],[-77.6282,20.0979,0.1438],[-77.6276,20.0954,0.0],[-77.626,20.0965,0.4282]]],
[[[-77.6071,20.1007,0.2439],[-77.6068,20.1021,0.0],[-77.6099,20.1004,0.7357],[-77.616,20.1018,0.6189],[-77.6224,20.0993,0.3065],[-77.624,20.0974,0.0],[-77.624,20.0938,0.2448],[-77.6188,20.0968,0.1598],[-77.6165,20.0963,0.6773],[-77.6165,20.0932,0.3071],[-77.6132,20.094,0.2901],[-77.6118,20.0957,0.0],[-77.6149,20.0993,0.1844],[-77.6126,20.0982,0.0],[-77.6121,20.1001,0.3512],[-77.6096,20.099,0.7357],[-77.6071,20.1007,0.2439]]],
[[[-77.5982,20.1001,0.3416],[-77.5985,20.1024,0.0],[-77.6046,20.1021,0.3356],[-77.6038,20.0999,0.887],[-77.6051,20.0963,0.0],[-77.6012,20.0951,0.0],[-77.5982,20.1001,0.3416]]],
[[[-77.6271,20.1004,0.0],[-77.626,20.1007,2.4063],[-77.6263,20.1032,0.4255],[-77.6279,20.1032,0.9805],[-77.6271,20.1004,0.0]]],
[[[-77.584,20.0912,0.0],[-77.5843,20.0957,0.0],[-77.5888,20.0943,0.0],[-77.591,20.084,0.7134],[-77.5857,20.0846,0.1874],[-77.584,20.0912,0.0]]],
[[[-77.2182,20.359,1.592],[-77.2126,20.361,0.5993],[-77.2274,20.3596,0.4733],[-77.2321,20.3574,0.5522],[-77.2321,20.3535,1.3827],[-77.2262,20.3499,0.0],[-77.2237,20.3504,0.5076],[-77.2215,20.3479,0.0],[-77.2162,20.3482,0.0],[-77.2121,20.3524,0.3393],[-77.2193,20.3495,0.2397],[-77.2312,20.3546,1.1398],[-77.2279,20.3582,0.5492],[-77.2182,20.359,1.592]]],
[[[-77.1879,20.3551,0.0],[-77.1882,20.3587,0.0],[-77.1918,20.3576,0.0],[-77.191,20.356,0.0],[-77.1879,20.3551,0.0]]],
[[[-77.201,20.3571,0.0],[-77.2026,20.3585,0.6465],[-77.2035,20.3557,0.0],[-77.2018,20.3551,0.0],[-77.201,20.3571,0.0]]],
[[[-77.1621,20.3668,0.2614],[-77.1635,20.3676,0.0],[-77.1643,20.366,0.9618],[-77.1615,20.3654,0.0],[-77.1621,20.3668,0.2614]]],
[[[-77.176,20.3704,0.9844],[-77.1818,20.3713,0.7529],[-77.2068,20.3688,0.0],[-77.2112,20.3665,0.7673],[-77.2124,20.3629,0.0],[-77.2112,20.3654,1.5944],[-77.2063,20.3679,2.2924],[-77.1885,20.3679,0.3537],[-77.1796,20.3701,0.474],[-77.1735,20.3679,0.0],[-77.176,20.3704,0.9844]]],
[[[-77.1471,20.3715,0.0],[-77.1493,20.3724,0.0],[-77.1482,20.3701,0.0],[-77.1468,20.3701,0.0],[-77.1471,20.3715,0.0]]],
[[[-77.0732,20.5479,0.9057],[-77.0779,20.5479,1.6141],[-77.0776,20.5454,1.5506],[-77.0815,20.5424,0.6858],[-77.0735,20.5346,2.2109],[-77.0704,20.5349,1.9125],[-77.0671,20.5407,2.3762],[-77.064,20.5376,0.8341],[-77.0574,20.5376,1.0285],[-77.041,20.5349,0.7829],[-77.0443,20.539,0.0],[-77.0565,20.5415,2.3328],[-77.0568,20.5429,1.7026],[-77.054,20.5426,1.5008],[-77.056,20.5446,1.0828],[-77.0579,20.5435,1.686],[-77.0587,20.5454,0.0],[-77.061,20.5451,1.7209],[-77.0632,20.5435,2.1437],[-77.0624,20.5462,1.0594],[-77.069,20.5451,3.3634],[-77.0732,20.5479,0.9057]]],
[[[-77.0246,20.5424,2.0037],[-77.0243,20.5449,0.0],[-77.0271,20.5454,0.0],[-77.0268,20.5424,0.0],[-77.0246,20.5424,2.0037]]],
[[[-77.6507,20.1437,0.0],[-77.654,20.144,0.0],[-77.6557,20.1424,0.5742],[-77.6521,20.1426,0.8124],[-77.6507,20.1437,0.0]]],
[[[-77.6562,20.1449,0.0],[-77.6546,20.1471,2.0471],[-77.654,20.1504,0.0],[-77.6571,20.1468,0.4192],[-77.6562,20.1449,0.0]]],
[[[-77.2568,20.3004,0.0],[-77.2557,20.3032,0.0],[-77.2601,20.2996,0.8866],[-77.2574,20.2993,1.362],[-77.2568,20.3004,0.0]]],
[[[-77.2449,20.314,0.0],[-77.2515,20.3143,0.0],[-77.2549,20.3135,0.4068],[-77.2565,20.3113,0.5537],[-77.2468,20.3121,0.8673],[-77.2454,20.3065,0.7686],[-77.2418,20.3104,0.0],[-77.2449,20.314,0.0]]],
[[[-77.1665,20.3804,0.8444],[-77.1715,20.3804,1.3925],[-77.1726,20.3785,0.5254],[-77.1721,20.3765,0.0],[-77.1718,20.3788,1.3925],[-77.169,20.3799,0.7367],[-77.1582,20.376,0.0],[-77.1526,20.3779,0.4627],[-77.1543,20.3807,0.0],[-77.1579,20.3771,0.0],[-77.1665,20.3804,0.8444]]],
[[[-77.0646,20.5571,0.0],[-77.0657,20.5579,0.0],[-77.0671,20.5563,2.9851],[-77.0729,20.5551,2.2081],[-77.0732,20.549,0.7105],[-77.066,20.5476,1.6982],[-77.0624,20.5501,0.0],[-77.0624,20.5524,1.5214],[-77.0568,20.549,0.0],[-77.0571,20.5529,0.0],[-77.0638,20.5535,3.4392],[-77.0646,20.5571,0.0]]]]}
,"properties": {"GID_1": "CUB.5_1","GID_0": "CUB","country": "Cuba","province": "Granma","VARNAME_1": "NA","NL_NAME_1": "NA","TYPE_1": "Provincia","ENGTYPE_1": "Province","CC_1": "NA","HASC_1": "CU.GR","ISO_1": "CU-12","name": "Granma.province","area_km2": 8680.776,"hist_schema_id": "Elevation0-9000","hist_area_km2": {"0": 1466.95,"25": 2061.832,"50": 1267.327,"75": 687.111,"100": 461.335,"125": 303.091,"150": 255.208,"175": 186.615,"200": 146.998,"225": 135.194,"250": 131.192,"275": 128.558,"300": 105.589,"325": 86.596,"350": 72.691,"375": 67.395,"400": 63.331,"425": 56.936,"450": 55.997,"475": 53.548,"500": 48.749,"525": 49.266,"550": 47.473,"575": 44.186,"600": 42.832,"625": 38.591,"650": 36.083,"675": 33.395,"700": 31.862,"725": 30.827,"750": 29.233,"775": 28.517,"800": 27.163,"825": 26.785,"850": 26.924,"875": 25.512,"900": 25.212,"925": 23.341,"950": 24.217,"975": 22.465,"1000": 21.569,"1025": 19.199,"1050": 17.785,"1075": 15.774,"1100": 15.456,"1125": 15.058,"1150": 13.225,"1175": 12.309,"1200": 11.751,"1225": 11.831,"1250": 8.943,"1275": 9.8,"1300": 8.465,"1325": 6.633,"1350": 6.055,"1375": 5.079,"1400": 4.442,"1425": 3.805,"1450": 3.167,"1475": 2.848,"1500": 2.769,"1525": 2.072,"1550": 1.554,"1575": 1.355,"1600": 1.235,"1625": 0.916,"1650": 0.677,"1675": 0.438,"1700": 0.279,"1725": 0.139}}}