{"type":"Feature","properties":{"featurecla":"River","scalerank":10,"rivernum":22272,"dissolve":"22272River","name":"null991","name_alt":null,"note":"ID is link back to CEC data","name_full":null,"min_zoom":6.0,"strokeweig":0.2,"uident":2018101,"min_label":7.0},
"geometry":{"type": "LineString","coordinates": [[-77.195668098041239,20.552110093223206,0.9033],[-77.181630012103739,20.578314520306535,0.0],[-77.109201626687067,20.598089910931535,0.0],[-77.0433650381454,20.620062567181535,5.0727],[-76.9994197256454,20.622178452598206,3.1816],[-76.9476619131454,20.608913478639863,6.5475],[-76.930978970437067,20.587347723431535,5.8625],[-76.890492316791239,20.561835028119035,10.5031],[-76.8524470693954,20.555487371869035,8.9109],[-76.703480598041239,20.582058009889863,22.0],[-76.5585017568954,20.576198634889863,37.2402],[-76.463490363666239,20.559922593223206,41.0258],[-76.334055142312067,20.509466864056535,51.8033],[-76.149403449603739,20.472683009889863,69.4994],[-76.101429816791239,20.431423244264863,92.9792],[-75.995920376687067,20.384629624473206,121.4656],[-75.914906379291239,20.299872137494035,169.8352],[-75.9090876943954,20.270697332806535,118.5782],[-75.880197720437067,20.232692775514863,133.0004]]}}