{"type": "Feature","bbox": [-71.6452,18.6527,-71.5569,18.8031],"geometry": {"type": "MultiPolygon","coordinates": [[[[-71.564,18.6527,2035.4337],[-71.5597,18.6639,1747.3922],[-71.5623,18.6733,1448.7463],[-71.5625,18.6879,961.9417],[-71.5595,18.7016,778.1494],[-71.5594,18.715,784.0483],[-71.5626,18.722,798.024],[-71.5679,18.7258,729.7736],[-71.5706,18.7391,710.8115],[-71.5601,18.7584,625.28],[-71.5653,18.7682,659.285],[-71.558,18.7738,886.2286],[-71.5569,18.7796,1046.7505],[-71.5753,18.7843,897.3984],[-71.5853,18.7969,834.3563],[-71.613,18.8031,828.2446],[-71.6246,18.8026,647.9567],[-71.6328,18.7923,790.2364],[-71.6377,18.7831,1144.3171],[-71.6444,18.7761,1237.0055],[-71.6452,18.7729,1313.3306],[-71.6421,18.7651,1306.3429],[-71.6366,18.763,1299.1133],[-71.635,18.7608,1289.762],[-71.6423,18.7516,1457.3574],[-71.6421,18.7397,1339.2815],[-71.6447,18.7277,1152.135],[-71.6409,18.7251,1001.0773],[-71.6369,18.7249,915.6597],[-71.6263,18.7322,1265.5093],[-71.6179,18.7296,1030.4038],[-71.616,18.7272,908.569],[-71.6162,18.7116,892.1582],[-71.6214,18.7006,839.5172],[-71.6278,18.6706,1660.848],[-71.6249,18.6677,1762.0651],[-71.6151,18.6655,1749.6555],[-71.6049,18.6672,1508.7458],[-71.5949,18.6626,1687.2837],[-71.5835,18.6612,1745.8409],[-71.577,18.6569,1970.3781],[-71.564,18.6527,2035.4337]]]]}
,"properties": {"GID_2": "DOM.12.5_1","GID_0": "DOM","country": "DominicanRepublic","GID_1": "DOM.12_1","province": "LaEstrelleta","NL_NAME_1": "NA","county": "JuanSantiago","VARNAME_2": "NA","NL_NAME_2": "NA","TYPE_2": "Municipio","ENGTYPE_2": "Municipality","CC_2": "NA","HASC_2": "DO.EP.JS","name": "Juan_Santiago.county","area_km2": 107.14204,"hist_schema_id": "Elevation0-9000","hist_area_km2": {"525": 0.1405,"550": 0.24086,"575": 1.42521,"600": 2.68994,"625": 3.77414,"650": 3.45299,"675": 2.9913,"700": 3.53355,"725": 4.67827,"750": 5.0399,"775": 6.10415,"800": 5.06,"825": 4.83914,"850": 4.73866,"875": 3.93559,"900": 3.99555,"925": 3.51365,"950": 3.09195,"975": 2.61004,"1000": 2.48966,"1025": 1.68659,"1050": 2.14837,"1075": 1.86733,"1100": 1.90753,"1125": 1.78705,"1150": 2.20868,"1175": 2.18862,"1200": 2.12837,"1225": 2.18863,"1250": 1.90752,"1275": 1.98788,"1300": 2.16852,"1325": 1.56621,"1350": 0.90369,"1375": 0.78323,"1400": 0.90378,"1425": 0.88369,"1450": 0.58245,"1475": 0.64274,"1500": 0.52224,"1525": 0.72311,"1550": 0.56242,"1575": 0.46199,"1600": 0.58251,"1625": 0.52225,"1650": 0.62268,"1675": 0.6026,"1700": 0.40173,"1725": 0.36156,"1750": 0.54234,"1775": 0.54235,"1800": 0.40174,"1825": 0.1607,"1850": 0.14061,"1875": 0.14061,"1900": 0.12053,"1925": 0.1607,"1950": 0.14061,"1975": 0.14062,"2000": 0.12053,"2025": 0.14062,"2050": 0.20088,"2075": 0.04018}}}