{"type":"Feature","properties":{"GID_1":"HTI.6_1","GID_0":"HTI","country":"Haiti","province":"Nord-Ouest","VARNAME_1":"NA","NL_NAME_1":"NA","TYPE_1":"Département","ENGTYPE_1":"Department","CC_1":"NA","HASC_1":"HT.NO","ISO_1":"HT-NO","name":"Nord-Ouest.province"},
"geometry":{"type": "MultiPolygon","coordinates": [[[[-73.2149,19.6591,0.5029],[-73.2115,19.6615,1.0293],[-73.2071,19.6618,1.7004],[-73.1937,19.6476,0.0],[-73.1796,19.6388,0.6224],[-73.1626,19.6315,0.0],[-73.1554,19.629,1.2997],[-73.1501,19.629,4.2125],[-73.1421,19.624,0.0],[-73.1318,19.6218,0.0],[-73.1265,19.6226,0.0],[-73.122,19.6318,0.0],[-73.1282,19.6333,21.6357],[-73.1314,19.6381,53.2148],[-73.1362,19.6404,75.6131],[-73.1363,19.6436,65.955],[-73.1306,19.6507,16.7944],[-73.1289,19.6566,10.8708],[-73.1184,19.6763,155.9216],[-73.1174,19.6809,134.5649],[-73.1191,19.6845,129.4327],[-73.1177,19.6872,143.8288],[-73.1184,19.6897,145.7072],[-73.1222,19.6923,155.534],[-73.1206,19.702,172.1724],[-73.116,19.703,165.1453],[-73.1071,19.6966,129.6395],[-73.1037,19.6963,138.8099],[-73.1017,19.6994,135.3788],[-73.1056,19.7025,145.7719],[-73.1032,19.7057,147.036],[-73.0871,19.7144,178.2784],[-73.08,19.7311,276.5549],[-73.0735,19.7329,308.2199],[-73.07,19.7312,297.2067],[-73.0615,19.7387,339.8846],[-73.0529,19.7418,357.4452],[-73.0374,19.7395,169.4479],[-73.0328,19.7379,141.7893],[-73.0267,19.7328,114.0947],[-73.0109,19.7308,168.4956],[-73.0083,19.7274,179.7359],[-72.9922,19.7223,250.4468],[-72.9832,19.7236,381.2553],[-72.9785,19.7224,494.7899],[-72.9672,19.7283,638.2772],[-72.9613,19.7283,749.1774],[-72.953,19.7247,763.6663],[-72.9467,19.7262,738.6139],[-72.9375,19.7257,640.7902],[-72.9274,19.7292,553.4246],[-72.9244,19.7259,559.0342],[-72.9249,19.7176,586.8705],[-72.8971,19.7139,531.1642],[-72.8949,19.7103,673.4958],[-72.8774,19.709,628.9814],[-72.8581,19.7128,546.2822],[-72.8466,19.7132,723.3065],[-72.8402,19.7162,568.8964],[-72.8377,19.7209,573.7312],[-72.8384,19.7298,661.1903],[-72.8353,19.7319,651.236],[-72.8284,19.7314,484.8317],[-72.8244,19.7344,501.9804],[-72.8186,19.7346,396.8427],[-72.8122,19.7379,258.5208],[-72.8109,19.7394,232.5569],[-72.8116,19.7456,211.2473],[-72.8104,19.7519,198.8596],[-72.8069,19.7569,187.3241],[-72.7972,19.7643,129.5922],[-72.784,19.7714,176.1304],[-72.7754,19.7808,382.7886],[-72.7652,19.7883,467.476],[-72.7592,19.7885,372.4062],[-72.7568,19.7858,338.6726],[-72.7485,19.7829,290.1839],[-72.7417,19.7839,280.9524],[-72.7394,19.786,309.6814],[-72.7393,19.7907,308.7031],[-72.7339,19.7939,288.2426],[-72.7289,19.7994,367.0851],[-72.727,19.8072,484.5429],[-72.7197,19.8119,520.7257],[-72.7122,19.8116,703.1588],[-72.6993,19.8156,742.0538],[-72.6895,19.8085,751.6467],[-72.678,19.8088,609.5681],[-72.6772,19.8138,378.4539],[-72.6838,19.8262,213.7127],[-72.6846,19.8315,176.5371],[-72.6788,19.8328,327.3069],[-72.67,19.8321,459.7708],[-72.6609,19.8286,270.4749],[-72.6517,19.8279,579.6412],[-72.6389,19.8293,626.2808],[-72.6379,19.8266,817.3359],[-72.6401,19.8212,599.7399],[-72.6391,19.8184,532.5632],[-72.6318,19.8168,623.8829],[-72.63,19.8116,567.002],[-72.6272,19.8135,668.5209],[-72.6233,19.8135,718.9414],[-72.6224,19.8154,734.5143],[-72.6193,19.8148,717.5501],[-72.615,19.8179,621.8728],[-72.6164,19.8243,327.4962],[-72.615,19.8312,215.9359],[-72.6135,19.834,161.5001],[-72.6071,19.8379,130.1352],[-72.6041,19.8387,127.7246],[-72.5981,19.8373,247.2247],[-72.5944,19.8302,126.3439],[-72.5909,19.8314,164.9922],[-72.5932,19.8325,173.7443],[-72.5955,19.8398,256.1095],[-72.5902,19.8497,345.7173],[-72.5893,19.8511,420.6334],[-72.5838,19.8517,557.5776],[-72.58,19.8497,529.5154],[-72.5809,19.8556,447.2277],[-72.583,19.858,499.2644],[-72.5833,19.8661,547.0535],[-72.5719,19.8743,258.3532],[-72.5683,19.8748,172.5853],[-72.567,19.8775,149.3506],[-72.5615,19.8774,65.3066],[-72.56,19.8815,0.0],[-72.5651,19.8818,36.5309],[-72.5663,19.8838,0.0],[-72.5729,19.8868,41.0723],[-72.574,19.8899,9.3931],[-72.5729,19.8924,0.0],[-72.5785,19.8946,4.1504],[-72.581,19.8976,0.0],[-72.5835,19.8954,34.6851],[-72.5837,19.8976,0.0],[-72.5874,19.8968,30.526],[-72.5924,19.899,0.0],[-72.5943,19.8954,12.4455],[-72.6015,19.896,0.0],[-72.6064,19.8924,2.3443],[-72.6204,19.8935,2.1004],[-72.6226,19.8954,0.0],[-72.6325,19.8982,3.9711],[-72.6359,19.9027,3.3567],[-72.6356,19.907,1.7887],[-72.6368,19.9085,0.7297],[-72.6418,19.909,0.0],[-72.6435,19.9065,1.4305],[-72.6457,19.9065,1.485],[-72.6521,19.914,0.0],[-72.6588,19.9146,16.3265],[-72.661,19.9176,0.0],[-72.6674,19.916,0.0],[-72.6707,19.9182,1.6797],[-72.6712,19.9212,0.364],[-72.6796,19.9232,2.0729],[-72.6818,19.9229,1.3737],[-72.6837,19.9204,3.1106],[-72.6874,19.9212,2.8335],[-72.6885,19.9251,0.0],[-72.6924,19.9237,1.3647],[-72.6968,19.9254,2.0068],[-72.7024,19.9307,0.0],[-72.7088,19.9282,1.5657],[-72.7143,19.9326,0.0],[-72.7187,19.9335,2.2246],[-72.7218,19.9368,1.84],[-72.7321,19.9357,0.0],[-72.7382,19.939,0.0],[-72.741,19.9387,7.3694],[-72.7454,19.9429,0.0],[-72.761,19.9443,0.3354],[-72.7668,19.9493,0.0],[-72.7726,19.9476,0.6634],[-72.781,19.9518,0.0],[-72.7865,19.9504,2.2706],[-72.7935,19.951,0.0],[-72.7965,19.9487,5.9385],[-72.8007,19.9487,2.9399],[-72.8076,19.9518,0.0],[-72.8112,19.9487,1.7963],[-72.814,19.9518,0.0],[-72.8193,19.9535,0.6467],[-72.8251,19.9463,0.0],[-72.829,19.9451,0.0],[-72.8304,19.9418,4.1774],[-72.8335,19.941,1.3553],[-72.8343,19.9429,0.0],[-72.8399,19.9415,1.4463],[-72.8496,19.9443,0.0],[-72.8621,19.9407,0.0],[-72.8721,19.9313,0.9008],[-72.8768,19.9318,0.7944],[-72.879,19.9338,0.0],[-72.8885,19.9338,1.2014],[-72.8904,19.936,0.0],[-72.8943,19.9363,0.0],[-72.9451,19.9267,3.9317],[-72.95,19.9233,11.1626],[-72.9557,19.9226,3.6795],[-72.9574,19.9193,0.0],[-72.956,19.9134,21.1099],[-72.9587,19.9096,0.8698],[-72.9638,19.9107,0.0],[-72.9643,19.9161,0.0],[-72.9724,19.9243,0.0],[-72.9774,19.9243,0.0],[-72.9871,19.9211,5.799],[-72.9929,19.9224,0.0],[-72.996,19.919,0.0],[-73.0004,19.9174,0.0],[-73.014,19.9218,5.4133],[-73.031,19.9221,0.0],[-73.0324,19.919,0.0],[-73.0271,19.916,0.0],[-73.0275,19.9109,0.0],[-73.0285,19.9093,0.1864],[-73.0334,19.909,0.0],[-73.0401,19.9168,2.8268],[-73.046,19.919,0.0],[-73.0501,19.9177,4.3788],[-73.0582,19.9199,5.0925],[-73.069,19.9185,12.1856],[-73.119,19.926,0.0],[-73.1468,19.9251,12.176],[-73.1524,19.9263,23.294],[-73.154,19.929,0.0],[-73.1574,19.9287,22.0328],[-73.1579,19.9307,0.0],[-73.1651,19.9307,0.0],[-73.1679,19.9299,1.513],[-73.1715,19.9257,0.9915],[-73.1846,19.9212,0.4597],[-73.1849,19.9188,0.0],[-73.1879,19.9163,0.5535],[-73.1937,19.9143,0.0],[-73.1949,19.909,1.7477],[-73.1988,19.9076,0.0],[-73.2004,19.9046,2.769],[-73.214,19.9004,0.419],[-73.2165,19.8974,0.6176],[-73.2299,19.8893,1.6607],[-73.2329,19.8849,6.96],[-73.2421,19.8782,18.1685],[-73.2485,19.8776,0.0],[-73.2557,19.8724,0.0],[-73.2651,19.8699,0.0],[-73.2724,19.8649,5.7084],[-73.291,19.8621,0.0],[-73.3051,19.8574,0.0],[-73.3168,19.8499,1.6609],[-73.3271,19.8471,0.0],[-73.3315,19.8426,4.9686],[-73.3437,19.8374,0.0],[-73.3526,19.8385,8.4676],[-73.3654,19.8463,0.0],[-73.3885,19.8412,3.0656],[-73.4021,19.844,0.0],[-73.4088,19.8435,3.9266],[-73.4174,19.8318,5.0666],[-73.4221,19.8293,0.0],[-73.4215,19.824,0.0],[-73.414,19.8199,0.0],[-73.4071,19.8232,0.0],[-73.3943,19.8215,3.4587],[-73.3832,19.8176,0.0],[-73.374,19.8193,0.0],[-73.3693,19.8246,2.0538],[-73.3648,19.8343,2.9711],[-73.3626,19.8354,0.0],[-73.3604,19.834,0.7157],[-73.3651,19.8224,13.5702],[-73.3683,19.821,0.0],[-73.3724,19.8093,0.9252],[-73.3799,19.809,0.0],[-73.381,19.8033,2.1612],[-73.3849,19.7996,4.0807],[-73.3893,19.7979,6.9413],[-73.4007,19.7974,0.0],[-73.4107,19.791,32.6075],[-73.418,19.7915,26.182],[-73.4214,19.7965,4.6074],[-73.4262,19.7968,0.7216],[-73.4315,19.7868,12.4461],[-73.4396,19.7782,0.0],[-73.4426,19.7699,6.6575],[-73.4535,19.7596,10.5271],[-73.4524,19.7549,0.0],[-73.4568,19.7393,0.0],[-73.4557,19.7343,42.8625],[-73.4565,19.7235,0.0],[-73.4551,19.7196,16.7439],[-73.4571,19.7093,0.0],[-73.4551,19.6904,1.0223],[-73.4535,19.6865,1.6754],[-73.4388,19.6704,0.0],[-73.4382,19.6676,0.0],[-73.4357,19.6671,38.0458],[-73.4315,19.6615,0.0],[-73.4215,19.6546,0.0],[-73.4168,19.6485,0.0],[-73.411,19.6482,13.8391],[-73.3987,19.6385,0.0],[-73.3921,19.6363,3.1837],[-73.3913,19.634,2.3142],[-73.3826,19.6326,1.0875],[-73.377,19.63,0.0],[-73.374,19.6315,0.0],[-73.3699,19.6257,0.0],[-73.3646,19.6226,0.0],[-73.3566,19.626,1.8007],[-73.3499,19.624,3.0147],[-73.3407,19.624,0.0],[-73.334,19.6269,0.0],[-73.3212,19.6242,4.0622],[-73.316,19.6261,2.7574],[-73.3115,19.6257,1.7182],[-73.3046,19.629,4.384],[-73.2932,19.6287,0.0],[-73.2868,19.6318,0.0],[-73.2796,19.6299,0.0],[-73.269,19.6336,0.0],[-73.2629,19.6332,0.0],[-73.2607,19.6299,2.5397],[-73.2579,19.6287,0.0],[-73.2454,19.6296,8.5483],[-73.2432,19.6282,0.0],[-73.2393,19.6293,1.1074],[-73.2351,19.6282,0.0],[-73.2288,19.6307,2.3945],[-73.2229,19.6385,0.0],[-73.2193,19.6471,0.0],[-73.2196,19.656,0.0],[-73.2149,19.6591,0.5029]]],
[[[-74.0001,19.9999,0.0],[-73.9999,19.9999,0.0],[-73.9999,20.0001,0.0],[-74.0001,20.0001,0.0],[-74.0001,19.9999,0.0]]],
[[[-73.0001,19.9999,0.0],[-72.9999,19.9999,0.0],[-72.9999,20.0001,0.0],[-73.0001,20.0001,0.0],[-73.0001,19.9999,0.0]]],
[[[-72.7651,20.0151,0.0],[-72.7613,20.0132,1.8811],[-72.761,20.0107,0.0],[-72.7571,20.0115,0.0],[-72.7532,20.009,1.5213],[-72.7454,20.0088,38.3989],[-72.7412,20.0068,0.0],[-72.73,20.0068,0.0],[-72.7268,20.0049,0.0],[-72.7108,20.0033,0.0],[-72.6957,19.9974,0.4842],[-72.6591,19.9968,0.0],[-72.6468,19.9921,6.4364],[-72.6376,19.9937,0.0],[-72.6288,19.9929,0.0],[-72.6199,19.9968,0.0],[-72.6279,20.0096,0.0],[-72.6401,20.0229,0.0],[-72.6654,20.0393,0.0],[-72.6757,20.044,0.0],[-72.7124,20.0529,4.7998],[-72.744,20.0657,0.0],[-72.7526,20.0671,0.0],[-72.7651,20.0735,3.3911],[-72.7818,20.0785,5.3738],[-72.8015,20.0896,0.0],[-72.8215,20.0899,2.0923],[-72.8388,20.0861,3.5717],[-72.8535,20.0863,0.0],[-72.8599,20.0882,0.0],[-72.8721,20.0857,0.0],[-72.8863,20.0854,0.0],[-72.8882,20.0838,0.0],[-72.8957,20.0832,0.0],[-72.9107,20.0784,10.6642],[-72.9304,20.0771,0.0],[-72.9535,20.0692,0.0],[-72.9621,20.0688,0.0],[-72.9713,20.0651,0.0],[-72.9699,20.061,0.7044],[-72.9646,20.0589,0.0],[-72.9585,20.0526,0.0],[-72.9401,20.0521,16.5007],[-72.9062,20.0411,0.3399],[-72.8905,20.0393,4.8783],[-72.8818,20.0335,0.0],[-72.8646,20.0328,0.0],[-72.8468,20.0299,0.0],[-72.8382,20.0307,22.9205],[-72.8326,20.0304,0.0],[-72.8318,20.029,0.0],[-72.8258,20.0301,0.0],[-72.8105,20.0285,0.0],[-72.8049,20.0251,0.0],[-72.7899,20.0227,0.0],[-72.789,20.0213,0.0],[-72.7804,20.019,4.3295],[-72.7737,20.0187,0.0],[-72.7651,20.0151,0.0]]]]}}