{"type": "Feature","id": "5107","bbox": [-62.85664,17.36671,-62.80762,17.4101],"geometry": {"type": "Polygon","coordinates": [[[-62.80762,17.36671,883.9343],[-62.80827,17.37255,810.9689],[-62.81476,17.3745,781.2183],[-62.818,17.38034,489.3513],[-62.81865,17.39201,225.3705],[-62.81865,17.40174,109.1819],[-62.82234,17.4101,55.7566],[-62.82665,17.40717,57.3086],[-62.83886,17.40217,69.7211],[-62.84358,17.40107,84.2763],[-62.84655,17.39997,63.558],[-62.84923,17.39814,54.4578],[-62.85314,17.39472,49.5837],[-62.85664,17.38043,46.185],[-62.8446,17.37709,104.2443],[-62.8407,17.38228,153.3658],[-62.83487,17.37969,230.0285],[-62.83616,17.37255,247.9091],[-62.80762,17.36671,883.9343]]]}
,"properties": {"ISO3166-1-Alpha-3": "KNA","country": "Saint Kitts and Nevis","fill": "#00F","name": "Saint Paul Capesterre","area_km2": 12.92912,"hist_schema_id": "Elevation0-9000","hist_area_km2": {"50": 0.465357,"75": 1.800706,"100": 1.922097,"125": 1.315122,"150": 1.052107,"175": 0.910487,"200": 0.627232,"225": 0.546304,"250": 0.424912,"275": 0.505847,"300": 0.263042,"325": 0.182104,"350": 0.24281,"375": 0.263046,"400": 0.242813,"425": 0.121406,"450": 0.242813,"475": 0.121407,"500": 0.202346,"525": 0.121407,"550": 0.101174,"575": 0.12141,"600": 0.020235,"625": 0.020235,"650": 0.12141,"675": 0.101175,"700": 0.12141,"725": 0.222588,"750": 0.101176,"775": 0.080941,"800": 0.060706,"825": 0.04047,"850": 0.141647,"875": 0.101177}}}