{"type":"Feature","properties":{"GID_1":"KNA.9_1","GID_0":"KNA","country":"SaintKittsandNevis","province":"SaintPaulCapisterre","VARNAME_1":"NA","NL_NAME_1":"NA","TYPE_1":"Parish","ENGTYPE_1":"Parish","CC_1":"NA","HASC_1":"KN.PP","ISO_1":"KN-09","name":"Saint_Paul_Capisterre.province"},
"geometry":{"type": "MultiPolygon","coordinates": [[[[-62.8104,17.3727,871.9454],[-62.8125,17.3766,855.5552],[-62.8167,17.3771,681.8583],[-62.8243,17.3843,300.4305],[-62.8177,17.4024,85.7457],[-62.8046,17.4121,0.0],[-62.8099,17.4179,1.6699],[-62.8132,17.4168,10.9835],[-62.816,17.4182,0.0],[-62.8207,17.4176,0.0],[-62.8235,17.4165,2.4218],[-62.8246,17.4137,34.3272],[-62.8301,17.4118,31.945],[-62.8365,17.4135,1.8584],[-62.8413,17.4104,29.9348],[-62.8437,17.4112,0.0],[-62.8443,17.4082,45.8269],[-62.849,17.4068,4.3223],[-62.8524,17.4001,41.0734],[-62.8551,17.3976,5.186],[-62.8582,17.3976,0.0],[-62.8596,17.3924,11.077],[-62.8621,17.3918,11.8356],[-62.851,17.3856,83.8728],[-62.8494,17.3902,82.8376],[-62.8458,17.3897,93.0197],[-62.8456,17.383,110.4377],[-62.8394,17.3825,166.7878],[-62.8332,17.3782,269.7742],[-62.8104,17.3727,871.9454]]]]}}