{"type":"Feature","properties":{"GID_2":"DOM.9.2_1","GID_0":"DOM","country":"DominicanRepublic","GID_1":"DOM.9_1","province":"HatoMayor","NL_NAME_1":"NA","county":"HatoMayordelRey","VARNAME_2":"NA","NL_NAME_2":"NA","TYPE_2":"Municipio","ENGTYPE_2":"Municipality","CC_2":"NA","HASC_2":"DO.HM.HM","name":"Hato_Mayordel_Rey.county"},
"geometry":{"type": "MultiPolygon","coordinates": [[[[-69.3236,18.8924,320.5459],[-69.3302,18.8899,327.0104],[-69.3343,18.8858,313.184],[-69.3433,18.8829,309.494],[-69.354,18.8905,280.2648],[-69.3631,18.8945,274.4718],[-69.3633,18.8857,317.4573],[-69.3703,18.8758,294.1178],[-69.3937,18.8671,254.1796],[-69.3977,18.86,253.8242],[-69.3998,18.8495,247.1264],[-69.4137,18.849,263.7934],[-69.4174,18.8474,257.5286],[-69.4315,18.8279,222.9748],[-69.4388,18.8231,203.3035],[-69.4375,18.8162,181.2998],[-69.4402,18.811,163.1706],[-69.4488,18.8098,119.2963],[-69.4543,18.8027,119.3891],[-69.4541,18.7937,94.2046],[-69.4518,18.7859,103.0526],[-69.4548,18.776,88.2726],[-69.4543,18.7706,80.6127],[-69.4468,18.7657,72.9707],[-69.4357,18.7631,74.6722],[-69.4344,18.7603,63.0464],[-69.4366,18.7514,50.6308],[-69.4289,18.7424,49.2615],[-69.4254,18.7355,44.3843],[-69.4249,18.7019,29.0219],[-69.4196,18.6919,30.1008],[-69.4302,18.6804,21.606],[-69.4326,18.6739,22.4655],[-69.4169,18.6609,15.409],[-69.4097,18.65,24.3924],[-69.4048,18.6457,21.4663],[-69.399,18.6345,29.7422],[-69.4007,18.6236,7.4704],[-69.3945,18.6146,23.1431],[-69.3787,18.606,26.4439],[-69.3749,18.6005,15.2482],[-69.3718,18.5935,17.474],[-69.3745,18.5837,25.9881],[-69.3739,18.5755,12.5301],[-69.3658,18.5659,21.6354],[-69.362,18.5529,32.0922],[-69.3546,18.5472,30.4304],[-69.3502,18.5369,25.1513],[-69.3444,18.5284,26.6649],[-69.3359,18.5327,24.1984],[-69.3376,18.5434,6.8273],[-69.3365,18.5458,8.4297],[-69.3195,18.5539,32.3171],[-69.3117,18.5638,13.7827],[-69.3042,18.5674,7.5566],[-69.3021,18.5767,9.7619],[-69.2947,18.5782,25.1611],[-69.2927,18.5801,41.9822],[-69.2934,18.5843,22.9227],[-69.2916,18.5896,28.9567],[-69.2943,18.5998,23.4595],[-69.2886,18.6103,44.4325],[-69.2908,18.6213,18.4887],[-69.2896,18.6244,15.7081],[-69.2844,18.628,14.0036],[-69.2678,18.6288,23.5032],[-69.2446,18.6402,31.8908],[-69.2407,18.648,49.0425],[-69.2425,18.6611,32.5349],[-69.2333,18.6651,38.2165],[-69.2302,18.6696,34.0077],[-69.2236,18.6717,41.9315],[-69.2226,18.6855,44.7073],[-69.22,18.693,44.5543],[-69.2196,18.7116,51.7959],[-69.2145,18.7166,58.7675],[-69.2085,18.7268,70.2212],[-69.2065,18.7317,75.5773],[-69.2072,18.7376,81.3866],[-69.2,18.7465,100.1892],[-69.2011,18.7534,126.224],[-69.1972,18.7555,191.254],[-69.1963,18.7576,85.1898],[-69.2016,18.767,88.175],[-69.2025,18.7764,101.9966],[-69.206,18.7833,105.2649],[-69.2222,18.8049,120.4712],[-69.2291,18.8107,135.6605],[-69.2405,18.812,141.657],[-69.2518,18.8178,148.5629],[-69.2531,18.8359,188.9094],[-69.2625,18.8517,299.7011],[-69.2657,18.8523,288.7809],[-69.2736,18.8458,332.4729],[-69.2787,18.8462,326.0208],[-69.2847,18.8598,303.1877],[-69.287,18.8721,251.9176],[-69.2982,18.8762,231.1671],[-69.3078,18.8757,223.7641],[-69.3197,18.8844,236.3793],[-69.3236,18.8924,320.5459]]]]}}