{"type": "Feature","bbox": [-73.6443,18.2121,-73.4174,18.3372],"geometry": {"type": "MultiPolygon","coordinates": [[[[-73.5151,18.2154,0.2875],[-73.5165,18.215699999999998,0.0],[-73.5151,18.2135,1.0084],[-73.5201,18.2149,0.0],[-73.5207,18.2121,0.0],[-73.5113,18.2124,0.4518],[-73.5115,18.2149,0.3813],[-73.5151,18.2154,0.2875]]],
[[[-73.459,18.2185,6.2201],[-73.4601,18.219,0.0],[-73.4676,18.2165,0.0],[-73.459,18.2165,0.0],[-73.459,18.2185,6.2201]]],
[[[-73.4314,18.2953,137.2076],[-73.448,18.292,544.1411],[-73.4582,18.293,637.8093],[-73.4596,18.2944,669.3038],[-73.4624,18.3013,955.6584],[-73.4592,18.3076,944.4832],[-73.4638,18.3108,792.0581],[-73.4631,18.3124,703.8839],[-73.4543,18.3147,797.639],[-73.453,18.3198,898.5234],[-73.4538,18.3288,1098.4292],[-73.4503,18.3328,1028.3844],[-73.4618,18.3327,737.0712],[-73.4656,18.3293,514.25],[-73.4714,18.3192,297.4263],[-73.479,18.3146,294.1879],[-73.4801,18.3105,208.3753],[-73.4898,18.31,134.2131],[-73.4926,18.3005,107.1767],[-73.4964,18.3001,87.5332],[-73.4979,18.2979,85.9393],[-73.5043,18.2972,92.7523],[-73.5109,18.2917,42.9508],[-73.5156,18.2917,32.1018],[-73.5183,18.2854,24.4134],[-73.5309,18.2827,243.8022],[-73.5344,18.2804,432.7393],[-73.5392,18.2822,503.3304],[-73.5439,18.2782,557.4167],[-73.5483,18.2774,569.5941],[-73.5441,18.2745,344.2085],[-73.5425,18.2687,53.592],[-73.5425,18.2644,15.4137],[-73.5458,18.2607,4.6037],[-73.5429,18.2589,4.5126],[-73.5421,18.2551,0.8969],[-73.5376,18.2518,0.0],[-73.5382,18.2479,0.0],[-73.5362,18.2468,3.3483],[-73.5315,18.2324,0.9503],[-73.5208,18.2342,1.0778],[-73.5198,18.236,2.277],[-73.5173,18.2337,0.0],[-73.5138,18.2351,0.6467],[-73.5088,18.2324,0.6739],[-73.5013,18.2337,0.0],[-73.4946,18.2407,0.2561],[-73.5028,18.2418,17.6026],[-73.5076,18.245,0.0],[-73.5008,18.2465,0.1434],[-73.4972,18.2505,3.4609],[-73.4934,18.2517,0.0],[-73.4918,18.2561,11.5373],[-73.4896,18.2567,1.8789],[-73.4851,18.2546,0.0],[-73.4816,18.2571,5.7221],[-73.4788,18.2555,12.262],[-73.4783,18.25,0.0],[-73.4754,18.2496,0.3388],[-73.4746,18.2512,0.2131],[-73.477,18.2554,4.8063],[-73.4752,18.2572,12.6886],[-73.459,18.2616,0.0],[-73.4516,18.2551,0.0],[-73.4546,18.263,3.5264],[-73.4533,18.2662,4.5561],[-73.4505,18.2668,0.0],[-73.4483,18.2664,0.0],[-73.4435,18.2587,0.0],[-73.4445,18.2632,1.3714],[-73.443,18.2651,0.0],[-73.4376,18.2629,0.0],[-73.4365,18.265,0.0],[-73.4346,18.2651,0.0],[-73.431,18.2632,0.0],[-73.4297,18.2581,0.0],[-73.4315,18.2571,0.0],[-73.4307,18.2538,0.0],[-73.4282,18.2556,1.7264],[-73.4196,18.2549,0.0],[-73.421,18.2596,6.0271],[-73.4174,18.2743,18.2586],[-73.4196,18.276,21.2925],[-73.4223,18.2859,37.021],[-73.4255,18.2883,58.6975],[-73.4275,18.2932,83.1454],[-73.4314,18.2953,137.2076]]],
[[[-73.5399,18.2182,1.6058],[-73.5413,18.2185,0.4719],[-73.5401,18.2162,3.8512],[-73.5312,18.2129,0.3396],[-73.5312,18.2146,0.4332],[-73.5365,18.215699999999998,0.2497],[-73.5399,18.2182,1.6058]]],
[[[-73.6391,18.227,67.6832],[-73.6329,18.2274,0.0],[-73.6338,18.2326,16.3004],[-73.6315,18.2354,8.4739],[-73.634,18.2387,7.0584],[-73.6324,18.2499,4.7675],[-73.6265,18.2471,6.4267],[-73.6215,18.249,0.0],[-73.6185,18.2529,3.5089],[-73.613,18.2513,2.0745],[-73.6099,18.2554,0.0],[-73.6053,18.254,7.1695],[-73.6046,18.2518,0.0],[-73.6001,18.2494,1.0544],[-73.5933,18.2522,7.838],[-73.5895,18.2577,7.3417],[-73.5922,18.2606,6.5315],[-73.5924,18.2649,10.9456],[-73.5819,18.2826,30.1309],[-73.5712,18.2901,34.5398],[-73.5741,18.2922,60.336],[-73.581,18.2911,172.2153],[-73.5894,18.294,312.7437],[-73.5892,18.2971,275.6816],[-73.5938,18.3019,283.7574],[-73.5979,18.2982,341.3354],[-73.6031,18.2969,353.7972],[-73.6104,18.2909,289.1674],[-73.6124,18.2921,234.9027],[-73.6131,18.2951,161.0913],[-73.6209,18.2957,155.5435],[-73.623,18.2939,71.1011],[-73.6244,18.2956,77.2036],[-73.6299,18.293,40.8544],[-73.627,18.2896,104.4132],[-73.6304,18.2871,50.2935],[-73.6297,18.2841,78.4939],[-73.634,18.2817,26.3013],[-73.6355,18.2784,75.4847],[-73.6298,18.2779,91.4631],[-73.6257,18.2754,156.2805],[-73.6223,18.2652,103.108],[-73.633,18.2572,25.5346],[-73.6344,18.2541,70.5434],[-73.6367,18.2403,24.1378],[-73.6443,18.2279,54.7165],[-73.6432,18.2266,44.3095],[-73.6391,18.227,67.6832]]],
[[[-73.5321,18.3371,739.6492],[-73.5546,18.336,877.4631],[-73.5544,18.3306,579.7661],[-73.5583,18.3247,337.2319],[-73.5606,18.3221,335.6061],[-73.564,18.3217,238.6584],[-73.5666,18.3179,132.9019],[-73.5656,18.3131,113.8869],[-73.5613,18.3068,180.8709],[-73.5417,18.289,226.9405],[-73.5367,18.2886,308.7539],[-73.5341,18.2909,110.5423],[-73.5351,18.2947,84.6169],[-73.5336,18.299,197.8791],[-73.5249,18.2987,165.5133],[-73.5239,18.302,329.4205],[-73.5266,18.3059,701.2303],[-73.5252,18.3087,744.1938],[-73.5151,18.3128,856.2349],[-73.5126,18.3166,873.7637],[-73.5098,18.3288,955.2204],[-73.5015,18.3327,1197.7783],[-73.498,18.3372,1119.7914],[-73.5154,18.3357,1321.0732],[-73.5321,18.3371,739.6492]]]]}
,"properties": {"GID_3": "HTI.10.1.4_1","GID_0": "HTI","country": "Haiti","GID_1": "HTI.10_1","province": "Sud","NL_NAME_1": "NA","GID_2": "HTI.10.1_1","county": "Aquin","NL_NAME_2": "NA","city": "Saint-LouisduSud","VARNAME_3": "NA","NL_NAME_3": "NA","TYPE_3": "Commune","ENGTYPE_3": "Commune","CC_3": "NA","HASC_3": "NA","name": "Saint-Louisdu_Sud.city","area_km2": 115.01376,"hist_schema_id": "Elevation0-9000","hist_area_km2": {"0": 14.09462,"25": 13.14765,"50": 8.63736,"75": 8.15393,"100": 5.97948,"125": 4.30836,"150": 3.90567,"175": 3.14057,"200": 2.5366,"225": 2.31512,"250": 2.03328,"275": 2.23456,"300": 2.43585,"325": 2.39555,"350": 2.57672,"375": 2.39557,"400": 2.05329,"425": 2.2546,"450": 2.13382,"475": 2.51634,"500": 2.15396,"525": 2.41561,"550": 2.11363,"575": 2.37527,"600": 1.95255,"625": 1.22789,"650": 1.77135,"675": 1.3486,"700": 1.06681,"725": 1.14731,"750": 0.88565,"775": 0.70448,"800": 0.74475,"825": 0.46295,"850": 0.44282,"875": 0.50319,"900": 0.40255,"925": 0.32204,"950": 0.38242,"975": 0.32203,"1000": 0.3019,"1025": 0.34215,"1050": 0.24152,"1075": 0.40253,"1100": 0.44278,"1125": 0.16101,"1150": 0.16101,"1175": 0.16101,"1200": 0.16101,"1225": 0.12076,"1250": 0.26164,"1275": 0.12076,"1300": 0.0805,"1325": 0.04025,"1350": 0.02013}}}