{"type": "Feature","bbox": [-77.7689,21.0921,-77.4613,21.4257],"geometry": {"type": "MultiPolygon","coordinates": [[[[-77.7689,21.3153,108.5161],[-77.7543,21.2843,104.0911],[-77.7512,21.2655,114.6724],[-77.7449,21.2501,151.392],[-77.7444,21.2307,124.7999],[-77.7204,21.2305,126.2279],[-77.7117,21.2276,125.0602],[-77.7014,21.195,115.4082],[-77.6979,21.1658,118.5498],[-77.6796,21.1319,108.5916],[-77.6123,21.0921,89.3768],[-77.5922,21.099,84.5294],[-77.5695,21.1018,81.2026],[-77.5541,21.1106,96.0936],[-77.5516,21.1176,106.3467],[-77.5519,21.1487,95.2155],[-77.5493,21.1585,93.703],[-77.5302,21.1793,107.0511],[-77.5198,21.1957,97.9562],[-77.4883,21.2266,91.6343],[-77.4792,21.2415,88.6644],[-77.4613,21.2618,77.6127],[-77.4676,21.2791,63.8168],[-77.4809,21.2949,62.9946],[-77.4944,21.3196,62.8139],[-77.5075,21.3354,54.3275],[-77.5174,21.3534,45.2106],[-77.5194,21.4257,39.6293],[-77.7084,21.4242,84.6776],[-77.7174,21.4084,100.9911],[-77.7258,21.384,84.5325],[-77.7292,21.356,75.2885],[-77.7583,21.338,87.1556],[-77.7689,21.3153,108.5161]]]]}
,"properties": {"GID_2": "CUB.1.11_1","GID_0": "CUB","country": "Cuba","GID_1": "CUB.1_1","province": "Camagüey","NL_NAME_1": "NA","county": "Sibanicú","VARNAME_2": "NA","NL_NAME_2": "NA","TYPE_2": "Municipio","ENGTYPE_2": "Municipality","CC_2": "NA","HASC_2": "CU.CM.SI","name": "Sibanicú.county","area_km2": 781.9201,"hist_schema_id": "Elevation0-9000","hist_area_km2": {"25": 5.1717,"50": 125.2358,"75": 190.5935,"100": 330.2002,"125": 117.149,"150": 11.4565,"175": 2.0344,"200": 0.079}}}