{"type":"Feature","properties":{"GID_2":"CUB.5.7_1","GID_0":"CUB","country":"Cuba","GID_1":"CUB.5_1","province":"Granma","NL_NAME_1":"NA","county":"Jiguaní","VARNAME_2":"NA","NL_NAME_2":"NA","TYPE_2":"Municipio","ENGTYPE_2":"Municipality","CC_2":"NA","HASC_2":"CU.GR.JI","name":"Jiguaní.county"},
"geometry":{"type": "MultiPolygon","coordinates": [[[[-76.5158,20.3324,111.4703],[-76.5092,20.3145,107.7348],[-76.4858,20.2745,140.8448],[-76.4695,20.2604,166.3427],[-76.4156,20.2302,275.5555],[-76.401,20.2205,351.8607],[-76.4009,20.2242,371.7335],[-76.3963,20.2316,344.7449],[-76.3711,20.249,319.2498],[-76.3549,20.2672,289.3037],[-76.3489,20.2814,248.7659],[-76.3397,20.3546,129.1507],[-76.3371,20.3667,120.6448],[-76.3337,20.3724,105.9782],[-76.3282,20.376,101.7185],[-76.322,20.3761,98.9648],[-76.2905,20.3688,94.9103],[-76.2628,20.3679,106.1887],[-76.2526,20.3692,96.872],[-76.2427,20.3743,89.6658],[-76.2381,20.3791,84.3106],[-76.2357,20.3868,62.7476],[-76.2348,20.4107,67.0573],[-76.2305,20.4352,67.0367],[-76.2189,20.4466,67.9247],[-76.2124,20.4466,68.3005],[-76.2087,20.4436,69.8957],[-76.2051,20.4385,72.3789],[-76.1982,20.4135,77.1272],[-76.1881,20.4045,83.5786],[-76.1809,20.4022,86.771],[-76.1738,20.4023,90.5788],[-76.1689,20.4068,89.4512],[-76.1669,20.4186,88.4778],[-76.1744,20.4447,73.9635],[-76.1799,20.4812,66.915],[-76.1839,20.495,66.5052],[-76.1936,20.5052,64.9028],[-76.2031,20.5119,63.3056],[-76.2288,20.5237,58.7389],[-76.2828,20.5381,55.1821],[-76.305,20.5487,54.9053],[-76.3377,20.5548,51.6808],[-76.3434,20.5575,51.1847],[-76.3459,20.5609,51.8561],[-76.346,20.5648,51.1292],[-76.3368,20.5787,51.0514],[-76.3375,20.5834,50.7422],[-76.3413,20.5863,50.2091],[-76.3572,20.5894,49.1095],[-76.3994,20.5862,46.3412],[-76.4063,20.5694,47.1633],[-76.4103,20.5508,47.1431],[-76.4197,20.5325,44.1034],[-76.4329,20.5182,46.7542],[-76.4436,20.5109,49.8711],[-76.4559,20.5099,52.2513],[-76.4741,20.5164,55.9022],[-76.5076,20.5182,42.6834],[-76.5281,20.5248,39.4303],[-76.5454,20.5242,40.2562],[-76.5539,20.5083,41.4932],[-76.5574,20.4873,45.1118],[-76.5631,20.4738,45.7847],[-76.5638,20.4507,49.8401],[-76.5569,20.4332,54.0662],[-76.5531,20.4122,60.4341],[-76.5394,20.3863,69.9159],[-76.5265,20.3472,80.442],[-76.5158,20.3324,111.4703]]]]}}