{"type": "Feature","bbox": [-71.6397,18.7796,-71.3349,19.1207],"geometry": {"type": "MultiPolygon","coordinates": [[[[-71.6367,18.9386,328.9603],[-71.6209,18.9333,347.0171],[-71.6091,18.9326,353.2593],[-71.6069,18.9295,342.4284],[-71.6074,18.9111,371.4944],[-71.6154,18.9015,362.6031],[-71.6195,18.8919,378.1147],[-71.6374,18.8854,425.511],[-71.6397,18.8814,442.3273],[-71.6355,18.8753,408.167],[-71.6262,18.8709,426.5331],[-71.6209,18.8722,419.9422],[-71.6122,18.879,406.2492],[-71.609,18.879,410.6628],[-71.6071,18.8772,418.3778],[-71.607,18.8683,432.0478],[-71.6097,18.8606,454.4134],[-71.6101,18.852,492.1976],[-71.609,18.849,501.236],[-71.6014,18.8416,444.6024],[-71.601,18.8267,462.8499],[-71.6021,18.8236,482.9276],[-71.608,18.8215,479.1263],[-71.612,18.8176,493.3721],[-71.613,18.8031,828.2446],[-71.5847,18.7967,834.3563],[-71.5753,18.7843,897.3984],[-71.5569,18.7796,1046.7505],[-71.5486,18.7882,923.6828],[-71.5442,18.8024,655.5292],[-71.539,18.8054,668.5974],[-71.5079,18.8053,621.1483],[-71.4967,18.8025,921.2268],[-71.4727,18.8021,1138.5757],[-71.4611,18.7943,1363.7419],[-71.4547,18.7941,1353.2338],[-71.4524,18.7948,1314.7971],[-71.4442,18.808,686.6584],[-71.4389,18.8218,576.2407],[-71.441,18.8349,579.3395],[-71.4459,18.84,563.4199],[-71.4466,18.843,533.3085],[-71.4461,18.8491,498.5709],[-71.4382,18.8733,455.1342],[-71.4433,18.8846,442.5372],[-71.4431,18.8892,440.4345],[-71.439,18.8919,450.8956],[-71.4323,18.8896,457.0715],[-71.4266,18.8897,470.5856],[-71.4104,18.8958,511.2741],[-71.4033,18.9024,550.1036],[-71.3981,18.9137,597.8385],[-71.3904,18.9153,622.0784],[-71.3838,18.9195,689.1614],[-71.3614,18.9199,697.0369],[-71.3573,18.9217,645.5132],[-71.3515,18.9336,724.6799],[-71.3512,18.9653,698.5775],[-71.3459,18.9691,853.2869],[-71.3438,18.973,772.8403],[-71.3451,18.9798,757.3138],[-71.3425,18.9886,1137.2334],[-71.3422,19.0142,1238.6606],[-71.3349,19.0275,1375.8219],[-71.337,19.0294,1535.864],[-71.3444,19.0309,1769.2836],[-71.3464,19.0416,1437.2629],[-71.3562,19.0513,1407.0358],[-71.3642,19.055,1492.6053],[-71.3773,19.0564,1488.7051],[-71.3919,19.0769,1142.5564],[-71.4032,19.0781,1375.2936],[-71.4108,19.0726,1121.5776],[-71.4138,19.0726,1214.8938],[-71.4141,19.0907,983.3537],[-71.4193,19.0973,1006.8327],[-71.4202,19.1112,1360.2086],[-71.4244,19.1206,1330.871],[-71.4485,19.1207,1375.6451],[-71.4513,19.1178,1194.4287],[-71.4477,19.1095,1169.0049],[-71.4502,19.1036,1047.6565],[-71.4715,19.0911,960.6841],[-71.4739,19.0789,1353.6152],[-71.4771,19.0726,1192.3762],[-71.4909,19.0629,1042.5393],[-71.4915,19.043,722.3411],[-71.5001,19.0273,743.7633],[-71.4996,19.0204,629.7979],[-71.4954,19.0117,544.5114],[-71.4973,19.0078,560.9944],[-71.5121,18.9949,490.6671],[-71.5209,18.997,478.4107],[-71.5392,18.9974,478.6577],[-71.5476,19.0001,487.8437],[-71.5569,18.9995,479.9843],[-71.5615,18.9966,457.3949],[-71.5634,18.9886,438.9531],[-71.569,18.9826,430.9953],[-71.573,18.9807,421.6153],[-71.583,18.98,425.8648],[-71.5955,18.9742,402.4381],[-71.6053,18.9653,390.556],[-71.6109,18.9551,390.3225],[-71.6175,18.9504,392.243],[-71.6199,18.9451,371.6949],[-71.6338,18.9414,333.218],[-71.6367,18.9386,328.9603]]]]}
,"properties": {"GID_2": "DOM.26.4_1","GID_0": "DOM","country": "DominicanRepublic","GID_1": "DOM.26_1","province": "SanJuan","NL_NAME_1": "NA","county": "LasMatasdeFarfan","VARNAME_2": "NA","NL_NAME_2": "NA","TYPE_2": "Municipio","ENGTYPE_2": "Municipality","CC_2": "NA","HASC_2": "DO.JU.LM","name": "Las_Matasde_Farfan.county","area_km2": 634.1206,"hist_schema_id": "Elevation0-9000","hist_area_km2": {"325": 0.742,"350": 5.4751,"375": 28.2194,"400": 61.1535,"425": 77.3222,"450": 67.7982,"475": 52.254,"500": 38.734,"525": 32.113,"550": 25.4336,"575": 18.3329,"600": 14.0603,"625": 10.8504,"650": 9.2856,"675": 9.1244,"700": 9.1649,"725": 10.6487,"750": 7.2996,"775": 6.9382,"800": 6.2565,"825": 4.7322,"850": 5.0929,"875": 5.2531,"900": 4.371,"925": 4.6918,"950": 5.0115,"975": 4.7912,"1000": 5.1516,"1025": 5.2719,"1050": 7.3162,"1075": 6.7944,"1100": 6.4337,"1125": 5.7722,"1150": 4.9703,"1175": 4.9504,"1200": 5.2108,"1225": 4.5496,"1250": 4.5094,"1275": 3.7279,"1300": 4.0885,"1325": 3.828,"1350": 2.9863,"1375": 3.3668,"1400": 3.1066,"1425": 3.1464,"1450": 2.4651,"1475": 2.3247,"1500": 2.6053,"1525": 2.2245,"1550": 2.2246,"1575": 1.8438,"1600": 1.6234,"1625": 1.5632,"1650": 1.443,"1675": 1.2827,"1700": 1.3428,"1725": 0.942,"1750": 0.7816,"1775": 0.2606,"1800": 0.1804,"1825": 0.2405,"1850": 0.1804,"1875": 0.1403,"1900": 0.0802,"1925": 0.0401}}}