{"type": "Feature","bbox": [-61.461,12.5787,-61.1249,13.0482],"geometry": {"type": "MultiPolygon","coordinates": [[[[-61.4357,12.581,5.9788],[-61.4362,12.5824,0.6196],[-61.4376,12.5787,0.0],[-61.4351,12.579,15.9162],[-61.4357,12.581,5.9788]]],
[[[-61.3976,12.5893,0.0],[-61.3996,12.5901,1.8899],[-61.401,12.5876,1.5871],[-61.3996,12.584,3.0998],[-61.3971,12.5843,2.9166],[-61.3963,12.5826,3.8262],[-61.3951,12.5854,1.9236],[-61.3904,12.5829,0.0],[-61.3913,12.5857,0.0],[-61.3876,12.5865,0.0],[-61.3918,12.5885,3.5594],[-61.3949,12.5871,0.0],[-61.3976,12.5893,0.0]]],
[[[-61.4382,12.6154,33.2175],[-61.4407,12.616,0.0],[-61.4426,12.6115,9.6442],[-61.4507,12.6121,0.0],[-61.4532,12.6104,14.8342],[-61.4535,12.6065,0.0],[-61.4471,12.6054,10.4752],[-61.4474,12.6001,5.5584],[-61.4482,12.5979,40.4024],[-61.4596,12.5935,123.6978],[-61.461,12.5904,0.0],[-61.4599,12.5885,0.0],[-61.4487,12.5846,2.8887],[-61.4449,12.5849,2.2637],[-61.4437,12.5876,23.795],[-61.434,12.594,3.3184],[-61.431,12.594,3.6717],[-61.4329,12.591,0.0],[-61.4321,12.589,1.7994],[-61.4279,12.5924,3.6058],[-61.4224,12.591,5.1801],[-61.4176,12.5918,0.0],[-61.4162,12.5965,0.0],[-61.4113,12.5999,0.9173],[-61.4124,12.6029,12.1873],[-61.416,12.6057,0.0],[-61.4179,12.6037,36.5736],[-61.4249,12.6054,1.3473],[-61.4265,12.6037,26.2559],[-61.4307,12.604,0.3493],[-61.4315,12.6054,1.2744],[-61.4343,12.6046,25.2631],[-61.434,12.6062,1.0836],[-61.4371,12.6088,22.7357],[-61.436,12.6135,3.3472],[-61.4382,12.6154,33.2175]]],
[[[-61.4074,12.6012,0.9201],[-61.4087,12.6024,0.0],[-61.4107,12.6001,0.9173],[-61.4076,12.6004,0.0],[-61.4074,12.6012,0.9201]]],
[[[-61.3587,12.634,0.0],[-61.3587,12.6354,0.0],[-61.3618,12.6343,1.5965],[-61.3626,12.6321,20.0345],[-61.3607,12.6315,0.0],[-61.3587,12.634,0.0]]],
[[[-61.3932,12.6471,0.0],[-61.3954,12.6468,27.4284],[-61.3943,12.6429,9.6529],[-61.3979,12.639,15.3024],[-61.396,12.6332,5.0052],[-61.399,12.6285,0.2887],[-61.3935,12.6285,0.0],[-61.3929,12.631,1.9527],[-61.3951,12.6332,0.0761],[-61.3949,12.6354,-0.5],[-61.3926,12.6343,5.6521],[-61.3893,12.6379,2.6655],[-61.3835,12.6379,0.8139],[-61.3818,12.6396,14.662],[-61.3835,12.6435,2.2595],[-61.3874,12.6465,0.0],[-61.3932,12.6471,0.0]]],
[[[-61.3579,12.6401,6.7601],[-61.3593,12.6415,0.0],[-61.3596,12.6382,15.7506],[-61.3621,12.6379,0.0],[-61.3607,12.636,3.0357],[-61.3576,12.6368,0.6239],[-61.3579,12.6401,6.7601]]],
[[[-61.3882,12.6496,0.0],[-61.3896,12.6515,0.0],[-61.3907,12.6488,0.9923],[-61.3893,12.6482,0.0],[-61.3882,12.6496,0.0]]],
[[[-61.4007,12.6618,11.7794],[-61.4021,12.6624,0.0],[-61.4024,12.6601,0.6414],[-61.3996,12.6599,0.0],[-61.4007,12.6618,11.7794]]],
[[[-61.3476,12.6915,0.0],[-61.3476,12.6935,5.4728],[-61.349,12.6932,2.5975],[-61.3496,12.691,1.0323],[-61.3476,12.6915,0.0]]],
[[[-61.3112,12.7385,0.0],[-61.3104,12.7401,0.0],[-61.3151,12.7393,0.0],[-61.3149,12.7374,5.7766],[-61.3171,12.7365,19.7977],[-61.3182,12.7329,14.1246],[-61.321,12.731,3.8942],[-61.3262,12.7349,15.8019],[-61.326,12.7368,2.9928],[-61.3288,12.7357,6.8519],[-61.3296,12.739,0.0],[-61.3332,12.7371,0.0],[-61.334,12.7288,37.3112],[-61.3324,12.7274,5.56],[-61.334,12.7263,4.8797],[-61.3285,12.7207,0.0],[-61.329,12.7151,0.0],[-61.3285,12.7126,0.0],[-61.326,12.7115,0.0],[-61.326,12.706,4.8542],[-61.3293,12.7049,0.0],[-61.3318,12.7018,3.847],[-61.3351,12.7021,0.0],[-61.3368,12.7046,0.0],[-61.3382,12.701,19.6066],[-61.3424,12.6988,1.518],[-61.3512,12.7026,1.6863],[-61.3526,12.7051,1.6457],[-61.3546,12.704,9.4583],[-61.3543,12.7015,5.0836],[-61.3474,12.6993,1.1126],[-61.3432,12.6921,19.6281],[-61.341,12.6921,21.3543],[-61.3382,12.696,2.0761],[-61.3346,12.6974,2.7164],[-61.3304,12.6971,9.2491],[-61.3299,12.6938,14.3052],[-61.3271,12.6932,0.0],[-61.3254,12.6968,0.2231],[-61.3221,12.699,3.9041],[-61.3232,12.7013,0.0],[-61.321,12.7013,0.0],[-61.3229,12.7065,7.0543],[-61.3199,12.7157,1.892],[-61.3224,12.7165,6.9127],[-61.3218,12.7193,5.2774],[-61.3193,12.7179,0.0],[-61.3174,12.7204,1.9893],[-61.3138,12.7196,2.9584],[-61.3132,12.7174,4.0028],[-61.3082,12.7176,0.0],[-61.3037,12.7249,0.0],[-61.3068,12.7279,0.0],[-61.3057,12.7307,0.0],[-61.3071,12.7335,0.0],[-61.3054,12.7326,0.0],[-61.3037,12.7349,0.0],[-61.3054,12.7357,0.0],[-61.3035,12.7354,0.0],[-61.3029,12.7374,0.0],[-61.3054,12.7371,0.0],[-61.3054,12.7396,0.0],[-61.3096,12.7362,13.8649],[-61.309,12.7393,0.0],[-61.3112,12.7385,0.0]]],
[[[-61.3032,12.7299,0.0],[-61.3037,12.7313,0.0],[-61.3046,12.7282,0.0],[-61.3037,12.7282,0.0],[-61.3032,12.7299,0.0]]],
[[[-61.2749,12.7937,0.0],[-61.2746,12.7954,0.0],[-61.2762,12.794,0.0],[-61.2807,12.7951,0.388],[-61.2812,12.7904,0.0],[-61.2793,12.7887,0.0],[-61.2757,12.7918,0.0],[-61.2726,12.7904,0.0],[-61.2735,12.7926,0.0],[-61.2724,12.7937,0.0],[-61.2749,12.7937,0.0]]],
[[[-61.1929,12.8401,37.723],[-61.1932,12.8421,0.0],[-61.196,12.841,33.2637],[-61.1968,12.8421,0.0],[-61.1987,12.8404,0.0],[-61.1935,12.8338,7.5191],[-61.1896,12.8382,2.0402],[-61.1899,12.8407,0.0],[-61.1929,12.8401,37.723]]],
[[[-61.174,12.866,3.8853],[-61.1735,12.8676,0.0],[-61.1762,12.8668,3.2937],[-61.1762,12.8657,3.2937],[-61.174,12.866,3.8853]]],
[[[-61.1699,12.8926,25.2426],[-61.1704,12.8962,0.5501],[-61.1712,12.894,1.8175],[-61.1743,12.896,0.0],[-61.1735,12.894,9.2207],[-61.1757,12.8935,0.0],[-61.1762,12.891,6.2864],[-61.1821,12.8918,0.5906],[-61.1826,12.8951,1.6092],[-61.184,12.8949,0.0],[-61.1865,12.8924,1.5853],[-61.1851,12.8893,0.2922],[-61.1904,12.8835,0.0],[-61.1885,12.8807,0.0],[-61.1899,12.8779,0.0],[-61.1874,12.8782,32.0455],[-61.1874,12.8768,43.605],[-61.1929,12.8718,-0.0079],[-61.1935,12.8693,-1.7171],[-61.1918,12.8713,-1.6739],[-61.1899,12.8699,6.1078],[-61.1899,12.8687,30.8724],[-61.1924,12.8687,0.5775],[-61.1893,12.8643,18.3452],[-61.1907,12.8613,0.97],[-61.1879,12.8624,28.9053],[-61.1876,12.8596,0.0],[-61.1843,12.8601,1.1105],[-61.1835,12.8554,0.0],[-61.1815,12.8565,0.0],[-61.1824,12.859,7.2072],[-61.1804,12.8632,11.944],[-61.1787,12.8638,1.4055],[-61.1804,12.8657,23.9038],[-61.1779,12.8663,1.0064],[-61.1796,12.8724,1.2992],[-61.1768,12.8746,0.0],[-61.1765,12.8804,0.6035],[-61.1718,12.8832,12.5944],[-61.1679,12.8829,0.5153],[-61.166,12.8857,0.7443],[-61.1696,12.8882,4.7823],[-61.1679,12.891,0.0],[-61.1699,12.8926,25.2426]]],
[[[-61.1757,12.9082,0.0],[-61.1762,12.9107,0.0],[-61.1804,12.9104,1.7432],[-61.1829,12.9085,0.4094],[-61.1826,12.9074,0.4094],[-61.1799,12.909,1.7432],[-61.1757,12.9082,0.0]]],
[[[-61.2096,12.8088,0.0],[-61.2115,12.8093,0.0],[-61.2118,12.8043,5.2608],[-61.2093,12.8063,5.6089],[-61.2096,12.8088,0.0]]],
[[[-61.2743,12.9485,0.0],[-61.276,12.949,0.0],[-61.2757,12.9465,0.0],[-61.2726,12.9449,0.0],[-61.2724,12.9468,4.815],[-61.2743,12.9485,0.0]]],
[[[-61.246,12.9654,20.8675],[-61.2499,12.9654,0.0],[-61.2507,12.9613,16.3433],[-61.2549,12.9557,40.2795],[-61.2674,12.9521,0.0],[-61.2671,12.949,0.0],[-61.2632,12.9479,0.0],[-61.2588,12.9529,9.9759],[-61.2557,12.9487,0.0],[-61.2535,12.9504,0.0],[-61.2507,12.9487,0.0],[-61.2482,12.9496,0.0],[-61.2474,12.951,0.0],[-61.2499,12.9529,40.7867],[-61.2501,12.9582,18.2097],[-61.244,12.9596,0.4961],[-61.244,12.961,0.8184],[-61.2476,12.9626,0.0],[-61.2435,12.964,0.0],[-61.246,12.9654,20.8675]]],
[[[-61.239,12.9732,0.0],[-61.239,12.9762,0.0],[-61.2426,12.9749,30.3618],[-61.2454,12.9757,1.6202],[-61.2468,12.971,1.649],[-61.2379,12.9718,0.0],[-61.239,12.9732,0.0]]],
[[[-61.171,12.9124,2.6252],[-61.1724,12.9132,19.3242],[-61.1743,12.9115,1.9155],[-61.1712,12.9104,0.0],[-61.171,12.9124,2.6252]]],
[[[-61.1404,12.919,0.0],[-61.1418,12.9199,0.0],[-61.1429,12.9182,0.0],[-61.1396,12.9165,0.0],[-61.1379,12.9182,0.1742],[-61.1382,12.9196,0.0775],[-61.1404,12.919,0.0]]],
[[[-61.1449,12.9574,29.2609],[-61.1468,12.9593,0.0],[-61.1493,12.9546,3.229],[-61.1465,12.9451,0.0],[-61.1446,12.9443,4.3545],[-61.1454,12.9396,0.0],[-61.144,12.939,7.7207],[-61.1413,12.9415,3.0113],[-61.1368,12.9401,0.0],[-61.136,12.9429,0.0],[-61.139,12.9485,8.0837],[-61.1443,12.9482,16.1252],[-61.1413,12.9582,1.7674],[-61.1449,12.9574,29.2609]]],
[[[-61.1271,12.9654,64.7011],[-61.1271,12.9676,0.0],[-61.1318,12.9663,15.5993],[-61.1362,12.9593,4.3481],[-61.1329,12.9574,1.8149],[-61.1287,12.959,28.941],[-61.1249,12.964,0.0],[-61.1271,12.9654,64.7011]]],
[[[-61.2049,13.0482,10.4996],[-61.2079,13.0482,0.9108],[-61.2101,13.046,11.6071],[-61.2118,13.0393,38.0135],[-61.2226,13.0368,99.8807],[-61.2257,13.0324,14.4426],[-61.2296,13.0318,22.0085],[-61.2332,13.0268,87.111],[-61.236,13.0265,0.0],[-61.2374,13.0232,132.9817],[-61.249,13.0174,22.0893],[-61.249,13.0124,26.0629],[-61.2465,13.0104,0.0],[-61.2399,13.0124,7.2259],[-61.236,13.0093,1.8759],[-61.2407,13.0007,7.201],[-61.244,12.9996,0.0],[-61.2462,12.996,5.6499],[-61.2649,12.9963,28.275],[-61.2701,12.9935,55.5775],[-61.2735,12.9954,22.5296],[-61.2757,12.9926,0.0],[-61.2865,12.9896,3.8336],[-61.2815,12.989,11.0799],[-61.2754,12.9915,3.0571],[-61.2713,12.9913,2.5311],[-61.2676,12.989,0.9283],[-61.2629,12.9901,2.6023],[-61.2643,12.9885,0.0],[-61.2621,12.9874,1.2734],[-61.2546,12.9871,15.2387],[-61.2496,12.9846,0.0],[-61.2432,12.984,4.9545],[-61.2401,12.9907,42.0042],[-61.2351,12.9926,15.5908],[-61.2324,12.9907,4.1383],[-61.2329,12.9863,0.0],[-61.229,12.9871,0.0],[-61.2293,12.994,8.4304],[-61.2274,12.9929,0.0],[-61.2235,12.9979,53.5254],[-61.2174,12.999,0.8794],[-61.216,13.0021,0.5866],[-61.2165,13.0029,0.5866],[-61.2185,13.0021,1.2028],[-61.2182,13.0046,1.2373],[-61.2204,13.0071,22.8711],[-61.216,13.0082,4.9112],[-61.2168,13.0129,3.0947],[-61.2151,13.0168,22.6946],[-61.2226,13.0179,11.9952],[-61.2229,13.0204,0.0],[-61.2193,13.0218,3.6262],[-61.2168,13.0204,0.0],[-61.2185,13.0221,1.3309],[-61.2179,13.0246,7.5492],[-61.2143,13.0243,0.0],[-61.2129,13.0271,15.8337],[-61.2101,13.0271,0.8914],[-61.209,13.0301,10.0772],[-61.2043,13.0301,0.0],[-61.2049,13.0321,47.6781],[-61.2035,13.0329,0.0],[-61.206,13.0346,14.0378],[-61.2049,13.0351,14.0378],[-61.2057,13.0376,52.1883],[-61.2035,13.0396,0.0],[-61.204,13.0415,1.0746],[-61.2021,13.041,0.0],[-61.201,13.0438,1.0058],[-61.2026,13.0474,0.8232],[-61.2049,13.0482,10.4996]]]]}
,"properties": {"GID_1": "VCT.2_1","GID_0": "VCT","country": "SaintVincentandtheGrenadines","province": "Grenadines","VARNAME_1": "NA","NL_NAME_1": "NA","TYPE_1": "Parish","ENGTYPE_1": "Parish","CC_1": "NA","HASC_1": "VC.GT","ISO_1": "VC-06","name": "Grenadines.province","area_km2": 49.03413,"hist_schema_id": "Elevation0-9000","hist_area_km2": {"0": 13.37705,"25": 10.10883,"50": 7.83499,"75": 5.64329,"100": 4.19576,"125": 2.97591,"150": 2.16974,"175": 1.48811,"200": 0.7648,"225": 0.35161,"250": 0.08266,"275": 0.04138}}}