{"type": "Feature","id": "5064","bbox": [-61.45983,12.58515,-61.13142,13.05117],"geometry": {"type": "MultiPolygon","coordinates": [[[[-61.43273,12.58784,0.0],[-61.42663,12.59186,0.0],[-61.42935,12.60049,76.3094],[-61.4414,12.6079,92.06],[-61.44831,12.60993,111.7803],[-61.45556,12.60708,0.0],[-61.45678,12.60444,0.0],[-61.45466,12.60078,0.0],[-61.45568,12.59658,0.0],[-61.45983,12.59146,0.0],[-61.45592,12.58609,0.0],[-61.44323,12.58515,2.2637],[-61.43273,12.58784,0.0]]],
[[[-61.39631,12.64684,0.0],[-61.39554,12.64395,21.2769],[-61.39957,12.64444,0.0],[-61.40046,12.6402,0.0],[-61.40453,12.63394,0.0],[-61.4025,12.62893,0.0],[-61.40046,12.62429,0.0],[-61.39717,12.62979,19.0053],[-61.39143,12.63365,0.0],[-61.38736,12.64045,61.9014],[-61.39143,12.64387,13.9587],[-61.39631,12.64684,0.0]]],
[[[-61.33389,12.69359,0.0],[-61.32836,12.69945,29.7589],[-61.32551,12.7082,41.8882],[-61.31969,12.71393,0.0],[-61.31436,12.72089,36.5449],[-61.31631,12.73005,130.9994],[-61.31941,12.73379,2.1282],[-61.32632,12.73314,59.897],[-61.33536,12.7272,0.0],[-61.33585,12.71743,0.0],[-61.33397,12.70856,0.0],[-61.33926,12.70197,0.0],[-61.35066,12.69953,0.0],[-61.3531,12.69648,0.0],[-61.34411,12.69306,19.6281],[-61.33389,12.69359,0.0]]],
[[[-61.18761,12.85639,0.0],[-61.18358,12.86201,24.6039],[-61.17496,12.88178,5.9312],[-61.18318,12.88349,31.0667],[-61.19176,12.86823,3.0524],[-61.19083,12.85586,0.0],[-61.18761,12.85639,0.0]]],
[[[-61.1407,12.93793,0.0],[-61.14289,12.94538,4.3545],[-61.14696,12.949769999999999,0.0],[-61.14615,12.95234,48.7983],[-61.147,12.95592,31.3886],[-61.15298,12.95234,0.0],[-61.15176,12.94705,0.0],[-61.14883,12.93513,0.0],[-61.1407,12.93793,0.0]]],
[[[-61.13142,12.95738,0.0],[-61.13386,12.96422,5.3699],[-61.13968,12.95852,0.0],[-61.1376,12.95258,0.0],[-61.13142,12.95738,0.0]]],
[[[-61.22643,12.99315,0.0],[-61.20832,13.02326,0.0],[-61.194,13.03685,0.0],[-61.19823,13.04023,0.0],[-61.19962,13.04369,0.0],[-61.20006,13.04731,0.0],[-61.20149,13.05117,0.0],[-61.21312,13.04182,0.0],[-61.24096,13.02424,0.0],[-61.24926,13.01634,78.8479],[-61.24621,13.01122,21.4184],[-61.23957,13.00385,0.0],[-61.23961,12.99579,72.341],[-61.26232,12.99136,4.1206],[-61.27721,12.99592,0.0],[-61.27721,12.98847,0.0],[-61.26561,12.98871,0.0],[-61.25548,12.98672,0.0],[-61.24755,12.98212,0.0],[-61.24242,12.9748,30.3618],[-61.23497,12.98225,0.0],[-61.24242,12.98225,0.0],[-61.22643,12.99315,0.0]]]]}
,"properties": {"ISO3166-1-Alpha-3": "VCT","country": "Saint Vincent and the Grenadines","fill": "#F0F","name": "Grenadines","area_km2": 42.70478,"hist_schema_id": "Elevation0-9000","hist_area_km2": {"0": 18.76999,"25": 5.5605,"50": 4.36177,"75": 3.51375,"100": 3.28601,"125": 2.68644,"150": 1.96303,"175": 1.38481,"200": 0.72348,"225": 0.33095,"250": 0.08266,"275": 0.04138}}}