{"type": "Feature","id": "1383","bbox": [-76.65716,17.86026,-76.18798,18.07363],"geometry": {"type": "Polygon","coordinates": [[[-76.52519,18.02177,969.9731],[-76.52899,18.02216,992.1979],[-76.53602,18.02603,1462.5074],[-76.58338,18.04032,1950.2202],[-76.5909,18.04373,1961.1788],[-76.59754,18.04805,1714.3149],[-76.59961,18.04975,1592.5967],[-76.60144,18.05153,1528.3463],[-76.60904,18.06138,1947.9316],[-76.6278,18.07363,1510.239],[-76.637,18.06554,1063.1768],[-76.6387,18.05921,829.7815],[-76.63999,18.05109,815.2451],[-76.64041,18.03606,789.9945],[-76.63906,18.02988,694.1547],[-76.63674,18.02422,491.0697],[-76.63397,18.01978,519.7843],[-76.62847,18.00102,491.4399],[-76.62671,17.99771,303.8215],[-76.61948,17.98795,317.4392],[-76.61625,17.98229,262.8067],[-76.61625,17.97885,217.1319],[-76.61782,17.97691,325.8521],[-76.62059,17.97642,346.8981],[-76.63054,17.97725,403.4959],[-76.63457,17.97642,545.9761],[-76.63844,17.97467,678.3202],[-76.64286,17.96831,483.2599],[-76.64387,17.96252,355.8899],[-76.6433,17.95319,238.1178],[-76.64379,17.94883,179.4692],[-76.64485,17.94565,201.2548],[-76.65116,17.93875,126.6317],[-76.65715,17.92971,0.0],[-76.65716,17.92969,0.0],[-76.65477,17.92914,0.0],[-76.64859,17.9239,0.0],[-76.64395,17.91722,0.0],[-76.63858,17.91161,0.0],[-76.63052,17.90925,103.4561],[-76.62271,17.90502,0.9663],[-76.6197,17.89509,2.4727],[-76.61767,17.88353,0.0],[-76.61315,17.8745,0.0],[-76.60277,17.86762,0.0],[-76.59459,17.8666,0.0],[-76.58707,17.86799,0.0],[-76.57901,17.86831,0.0],[-76.52355,17.86026,0.5],[-76.44494,17.86677,0.0],[-76.41491,17.87751,1.2619],[-76.39656,17.87299,0.0],[-76.37853,17.86506,0.0],[-76.36303,17.86083,0.0],[-76.34561,17.86587,5.7582],[-76.32958,17.88866,7.9363],[-76.31151,17.89496,6.859],[-76.31542,17.88272,52.7783],[-76.31823,17.8793,55.6038],[-76.32518,17.8745,0.0],[-76.30736,17.8701,0.0],[-76.28649,17.87588,0.0],[-76.25007,17.89496,6.1727],[-76.19839,17.90742,4.626],[-76.18798,17.91547,6.7134],[-76.21524,17.93496,1.3946],[-76.23404,17.95392,0.0],[-76.24877,17.97785,70.6268],[-76.25678,17.99632,15.7959],[-76.25679,17.99634,15.7959],[-76.25738,17.99616,23.0209],[-76.28526,17.98789,237.5977],[-76.29578,17.98673,445.0035],[-76.33223,17.99146,754.7423],[-76.34577,17.99469,596.2579],[-76.34968,17.99787,608.1384],[-76.35247,18.00066,598.876],[-76.359,18.0097,557.8694],[-76.36068,18.01161,472.2513],[-76.36254,18.01304,453.4305],[-76.36789,18.01518,421.7047],[-76.39748,18.02355,516.6761],[-76.43019,18.02841,582.762],[-76.45215,18.04058,727.0138],[-76.45711,18.04179,726.8707],[-76.46119,18.04197,602.4381],[-76.46626,18.03993,708.2021],[-76.47295,18.03642,629.2142],[-76.47654,18.03549,611.6929],[-76.48155,18.03484,745.6479],[-76.49566,18.03477,839.3558],[-76.49972,18.0343,1050.2197],[-76.50207,18.03316,1193.2533],[-76.50408,18.03161,1282.6754],[-76.50855,18.02748,1345.6506],[-76.51243,18.02508,1169.5946],[-76.52054,18.02221,959.809],[-76.52519,18.02177,969.9731]]]}
,"properties": {"ISO3166-1-Alpha-3": "JAM","country": "Jamaica","fill": "#00F","name": "Saint Thomas","area_km2": 716.6371,"hist_schema_id": "Elevation0-9000","hist_area_km2": {"0": 74.0654,"25": 54.3317,"50": 41.9024,"75": 36.5137,"100": 32.9825,"125": 28.6453,"150": 26.5268,"175": 25.2155,"200": 25.6184,"225": 25.84,"250": 20.6961,"275": 18.9206,"300": 17.1051,"325": 14.422,"350": 14.1998,"375": 12.9085,"400": 12.1016,"425": 11.8189,"450": 11.4958,"475": 12.3428,"500": 11.1527,"525": 11.2331,"550": 10.5069,"575": 10.6479,"600": 9.8614,"625": 9.9218,"650": 8.9335,"675": 8.8528,"700": 7.945,"725": 7.7636,"750": 7.5014,"775": 7.2594,"800": 6.5938,"825": 6.2509,"850": 5.2225,"875": 5.0612,"900": 4.9603,"925": 4.315,"950": 4.2747,"975": 3.7704,"1000": 3.2462,"1025": 2.9034,"1050": 3.3268,"1075": 2.7824,"1100": 2.6211,"1125": 2.7824,"1150": 2.5807,"1175": 1.9759,"1200": 2.3186,"1225": 1.5927,"1250": 1.3911,"1275": 1.4919,"1300": 1.2097,"1325": 1.1895,"1350": 1.0081,"1375": 0.9476,"1400": 1.008,"1425": 0.9677,"1450": 0.8266,"1475": 1.008,"1500": 1.008,"1525": 0.7258,"1550": 0.9072,"1575": 0.6451,"1600": 0.5443,"1625": 0.7258,"1650": 0.5242,"1675": 0.4234,"1700": 0.4032,"1725": 0.4435,"1750": 0.504,"1775": 0.4032,"1800": 0.2419,"1825": 0.4838,"1850": 0.4032,"1875": 0.3024,"1900": 0.2419,"1925": 0.3024,"1950": 0.1613,"1975": 0.1008,"2000": 0.1008,"2025": 0.0806,"2050": 0.0605,"2075": 0.0403}}}