{"type": "Feature","bbox": [-76.6615,17.3893,-75.9699,18.0899],"geometry": {"type": "MultiPolygon","coordinates": [[[[-75.9824,17.3932,0.0],[-75.9837,17.3937,0.0],[-75.9846,17.3915,0.0],[-75.9829,17.3893,0.0],[-75.9807,17.3893,0.0],[-75.981,17.3921,0.0],[-75.9824,17.3932,0.0]]],
[[[-75.9699,17.4162,0.0],[-75.9729,17.4165,0.3145],[-75.9726,17.4126,0.0],[-75.9699,17.4146,0.0],[-75.9699,17.4162,0.0]]],
[[[-76.6357,18.0872,1750.8104],[-76.6404,18.0899,1715.3048],[-76.6435,18.08,1331.3096],[-76.6434,18.0705,1085.1046],[-76.6415,18.065,979.8798],[-76.6451,18.0633,993.3102],[-76.6451,18.0614,1067.6826],[-76.639,18.0562,811.988],[-76.6396,18.0508,861.6749],[-76.6468,18.0472,735.4319],[-76.6477,18.0428,745.9121],[-76.652,18.0416,745.0165],[-76.6529,18.04,688.1594],[-76.6416,18.0249,535.969],[-76.6291,18.0163,458.1815],[-76.6288,18.0115,633.8297],[-76.6376,18.0027,391.6466],[-76.6268,17.9939,280.6663],[-76.6259,17.9869,386.803],[-76.6196,17.9821,262.2754],[-76.63,17.977,494.3129],[-76.6449,17.977,614.5352],[-76.6485,17.9781,660.0216],[-76.6526,17.9828,838.6927],[-76.6531,17.9791,707.7714],[-76.6485,17.9667,414.869],[-76.646,17.9509,136.5976],[-76.6484,17.9472,104.8914],[-76.657,17.9441,43.423],[-76.6615,17.9332,0.0],[-76.6549,17.9313,2.2546],[-76.6513,17.926,0.0],[-76.6446,17.921,6.0104],[-76.6443,17.9179,0.0],[-76.6399,17.9143,0.0],[-76.6401,17.9129,0.0],[-76.639,17.9137,5.62],[-76.634,17.9115,0.0],[-76.6282,17.9065,2.9191],[-76.6182,17.8904,0.8228],[-76.6176,17.8849,0.0],[-76.6132,17.8762,0.0],[-76.6026,17.8693,0.0],[-76.594,17.8682,0.0],[-76.5885,17.8707,3.8884],[-76.5807,17.8701,0.0],[-76.5776,17.8718,0.0],[-76.5713,17.8713,0.0],[-76.5699,17.8732,1.5484],[-76.5657,17.8732,0.0],[-76.5621,17.8685,0.0],[-76.5568,17.8696,1.5404],[-76.5476,17.8674,2.3917],[-76.5432,17.8629,0.0],[-76.5449,17.8565,0.0],[-76.5393,17.8554,0.0],[-76.5351,17.851,0.0],[-76.5271,17.8499,0.0],[-76.514,17.8546,1.2105],[-76.5099,17.8538,0.4722],[-76.4943,17.8671,22.3912],[-76.4796,17.8665,0.0],[-76.4693,17.8724,13.133],[-76.461,17.871,1.368],[-76.4454,17.8738,4.7844],[-76.4418,17.871,0.0],[-76.434,17.8713,0.0],[-76.4262,17.8746,0.5843],[-76.4168,17.8751,0.0],[-76.4121,17.8788,3.1464],[-76.4007,17.8813,7.5372],[-76.3957,17.8807,7.1221],[-76.3871,17.8757,0.6734],[-76.3835,17.8762,3.4854],[-76.3765,17.8738,4.4185],[-76.374,17.8693,1.515],[-76.3671,17.8701,0.0],[-76.3507,17.8662,1.2405],[-76.349,17.8643,2.9881],[-76.3501,17.8618,0.0],[-76.3515,17.8621,0.0],[-76.3501,17.8593,0.0],[-76.3487,17.8601,0.6214],[-76.3463,17.8587,0.0],[-76.3463,17.861,1.0028],[-76.3435,17.8615,0.0],[-76.3424,17.8596,0.0],[-76.3376,17.8593,0.0],[-76.3393,17.8618,0.8579],[-76.3415,17.8618,0.4606],[-76.3401,17.8649,0.6831],[-76.3388,17.8649,0.0],[-76.3393,17.8662,2.3487],[-76.3326,17.864,0.0],[-76.3343,17.8671,3.7057],[-76.3329,17.8679,0.0],[-76.3326,17.8718,0.0],[-76.3351,17.8743,14.9336],[-76.3357,17.8779,7.967],[-76.3346,17.8829,0.8262],[-76.3307,17.8863,0.0],[-76.3226,17.8885,0.0],[-76.3185,17.8918,0.0],[-76.3163,17.8904,0.0],[-76.316,17.8879,0.0],[-76.3196,17.8757,17.0431],[-76.3213,17.8743,0.0],[-76.3185,17.8729,10.7412],[-76.3199,17.8701,0.0],[-76.3179,17.8685,0.0],[-76.3151,17.8696,2.4517],[-76.3085,17.8688,1.8773],[-76.3074,17.8713,2.8806],[-76.3001,17.8704,0.0],[-76.2946,17.8765,0.5483],[-76.2885,17.8782,0.0],[-76.286,17.8815,0.5373],[-76.2815,17.8838,2.4057],[-76.2712,17.884,2.9905],[-76.2693,17.8796,0.0],[-76.2649,17.8801,0.0],[-76.2604,17.8815,0.0],[-76.256,17.8893,3.4597],[-76.2538,17.8904,0.4124],[-76.244,17.8915,0.0],[-76.239,17.8904,0.0],[-76.2335,17.8924,0.0],[-76.2299,17.8993,0.6769],[-76.2251,17.9037,0.0],[-76.216,17.904,1.6176],[-76.2079,17.9074,5.42],[-76.1937,17.9001,0.0],[-76.1888,17.9004,0.0],[-76.1879,17.9024,0.0],[-76.1915,17.9043,0.0],[-76.191,17.9076,0.0],[-76.1874,17.9088,6.0283],[-76.1843,17.9071,0.4884],[-76.1815,17.9118,0.0],[-76.184,17.9199,0.7507],[-76.1926,17.9207,0.0],[-76.1943,17.9238,2.1868],[-76.1946,17.9307,0.0],[-76.2012,17.9363,0.0],[-76.2149,17.9343,1.3946],[-76.2229,17.9351,3.7102],[-76.2332,17.9429,0.4954],[-76.2368,17.9526,7.0101],[-76.2346,17.9571,1.0776],[-76.2349,17.9613,0.0],[-76.2326,17.9638,1.6811],[-76.2354,17.9704,0.0],[-76.2312,17.974,2.1091],[-76.2312,17.9757,0.0],[-76.2343,17.9774,0.0],[-76.2387,17.9768,36.0753],[-76.244,17.9807,0.0],[-76.2476,17.9885,4.253],[-76.251,17.9915,5.8641],[-76.2487,17.9943,0.0],[-76.2557,17.9993,1.1937],[-76.2585,17.999,0.0],[-76.2574,18.0029,0.0],[-76.2604,18.0043,0.0],[-76.2618,18.0076,0.0],[-76.2661,17.9962,56.4738],[-76.2798,17.988,181.5452],[-76.2983,17.9872,522.0844],[-76.3557,18.002,662.7645],[-76.3687,18.0101,427.9659],[-76.3798,18.0148,314.5722],[-76.3806,18.0211,285.7536],[-76.3837,18.0228,244.2476],[-76.4438,18.0321,897.6914],[-76.45,18.0402,752.8994],[-76.463,18.0443,714.0045],[-76.4671,18.0436,674.0114],[-76.473,18.0375,745.3412],[-76.4841,18.0365,826.5636],[-76.4924,18.0381,657.2108],[-76.5074,18.0458,1284.3179],[-76.5088,18.0442,1145.9238],[-76.5082,18.0409,1276.0696],[-76.5115,18.0371,1433.4595],[-76.5226,18.0305,1361.7361],[-76.5286,18.0304,1266.7493],[-76.5354,18.0333,1598.0898],[-76.54,18.0286,1525.3857],[-76.5446,18.0283,1550.4353],[-76.5585,18.0361,1838.0586],[-76.5677,18.035,1858.585],[-76.5749,18.0392,2065.6714],[-76.5798,18.0445,2152.3667],[-76.595,18.0455,1859.9454],[-76.5989,18.0501,1592.5967],[-76.6198,18.0633,1547.9241],[-76.6258,18.0795,1863.5775],[-76.6357,18.0872,1750.8104]]],
[[[-76.0001,18.0001,0.0],[-76.0001,17.9999,0.0],[-75.9999,17.9999,0.0],[-75.9999,18.0001,0.0],[-76.0001,18.0001,0.0]]]]}
,"properties": {"GID_1": "JAM.12_1","GID_0": "JAM","country": "Jamaica","province": "SaintThomas","VARNAME_1": "NA","NL_NAME_1": "NA","TYPE_1": "Parish","ENGTYPE_1": "Parish","CC_1": "NA","HASC_1": "JM.ST","ISO_1": "JM-03","name": "Saint_Thomas.province","area_km2": 739.4812,"hist_schema_id": "Elevation0-9000","hist_area_km2": {"0": 73.8227,"25": 56.51,"50": 43.5764,"75": 37.1995,"100": 33.285,"125": 28.7865,"150": 26.6479,"175": 25.3768,"200": 25.8201,"225": 26.1022,"250": 20.9986,"275": 19.3441,"300": 17.5689,"325": 14.6035,"350": 14.5023,"375": 12.9489,"400": 12.0814,"425": 11.9198,"450": 11.5362,"475": 12.5646,"500": 11.4148,"525": 11.5557,"550": 10.769,"575": 10.8294,"600": 10.4461,"625": 10.2444,"650": 9.5585,"675": 9.3366,"700": 8.3281,"725": 8.2072,"750": 7.824,"775": 7.7231,"800": 6.9164,"825": 6.634,"850": 5.5047,"875": 5.4846,"900": 5.182,"925": 4.6577,"950": 4.5166,"975": 4.1132,"1000": 3.4276,"1025": 3.1654,"1050": 3.5889,"1075": 3.0041,"1100": 2.9437,"1125": 3.0243,"1150": 2.9839,"1175": 2.3791,"1200": 2.6008,"1225": 1.9758,"1250": 1.754,"1275": 1.875,"1300": 1.6935,"1325": 1.3709,"1350": 1.3911,"1375": 1.3105,"1400": 1.2902,"1425": 1.1491,"1450": 1.0282,"1475": 1.1088,"1500": 1.1895,"1525": 1.0281,"1550": 1.1693,"1575": 0.7661,"1600": 0.7056,"1625": 0.9072,"1650": 0.6653,"1675": 0.4637,"1700": 0.6652,"1725": 0.5846,"1750": 0.5846,"1775": 0.5645,"1800": 0.2419,"1825": 0.4435,"1850": 0.4032,"1875": 0.2419,"1900": 0.2016,"1925": 0.3629,"1950": 0.1411,"1975": 0.121,"2000": 0.0605,"2025": 0.0806,"2050": 0.121,"2075": 0.0806,"2100": 0.0202,"2125": 0.0605,"2150": 0.0403,"2175": 0.0605}}}