{"type": "Feature","bbox": [-81.0809,22.1178,-80.7353,22.6213],"geometry": {"type": "MultiPolygon","coordinates": [[[[-80.8842,22.1868,2.2715],[-80.8954,22.2174,3.965],[-80.9058,22.2237,1.9247],[-80.9149,22.2424,1.9724],[-80.9154,22.2519,5.7585],[-80.9129,22.2658,6.0527],[-80.9003,22.3087,6.4859],[-80.9006,22.3231,9.0545],[-80.9045,22.3281,9.5544],[-80.9349,22.3276,5.5599],[-80.9369,22.332,5.8502],[-80.937,22.3367,6.0546],[-80.9338,22.3477,12.9339],[-80.9259,22.3596,8.6406],[-80.9239,22.3655,9.5552],[-80.9219,22.3756,9.796],[-80.9214,22.3957,10.8075],[-80.9178,22.4034,10.514],[-80.9019,22.4175,15.4477],[-80.8733,22.4318,18.5046],[-80.8358,22.4562,28.8398],[-80.8241,22.4605,34.8612],[-80.8107,22.461,36.6808],[-80.802,22.4597,33.4812],[-80.7823,22.4435,40.2289],[-80.7715,22.4409,41.3925],[-80.7641,22.45,41.8514],[-80.753,22.4698,29.8049],[-80.7447,22.4942,47.8278],[-80.742,22.5134,50.4257],[-80.7361,22.5268,47.2677],[-80.7353,22.5582,45.9425],[-80.7379,22.5661,51.3574],[-80.746,22.5754,48.4204],[-80.7587,22.5858,51.7702],[-80.7743,22.5938,55.807],[-80.7843,22.6041,57.0305],[-80.8668,22.6056,54.1121],[-80.9109,22.6213,41.9935],[-81.005,22.6212,27.3106],[-81.003,22.5812,32.1956],[-80.9648,22.5415,27.9355],[-80.9655,22.5351,27.0432],[-80.9843,22.5003,14.8288],[-80.9862,22.493,14.0208],[-80.9848,22.4834,12.8305],[-80.9713,22.4602,10.8662],[-80.9709,22.4537,10.2043],[-80.9996,22.4362,8.0905],[-81.0283,22.3956,8.2165],[-81.0471,22.3867,3.1453],[-81.0781,22.3772,4.9434],[-81.0809,22.3576,2.4575],[-81.0795,22.2616,2.0913],[-81.0727,22.2441,1.7634],[-81.069,22.223,3.157],[-81.0465,22.1837,3.0343],[-80.9969,22.1379,11.2552],[-80.9718,22.1261,12.3478],[-80.927,22.1178,14.0065],[-80.9109,22.1235,13.2281],[-80.8885,22.127,6.4025],[-80.8477,22.1443,3.195],[-80.8593,22.153,6.6854],[-80.8713,22.165,3.3379],[-80.8783,22.1731,2.2696],[-80.8842,22.1868,2.2715]]]]}
,"properties": {"GID_2": "CUB.11.1_1","GID_0": "CUB","country": "Cuba","GID_1": "CUB.11_1","province": "Matanzas","NL_NAME_1": "NA","county": "Calimete","VARNAME_2": "NA","NL_NAME_2": "NA","TYPE_2": "Municipio","ENGTYPE_2": "Municipality","CC_2": "NA","HASC_2": "CU.MA.CM","name": "Calimete.county","area_km2": 996.5486,"hist_schema_id": "Elevation0-9000","hist_area_km2": {"0": 526.0798,"25": 331.6141,"50": 135.703,"75": 3.1517}}}