{"type":"Feature","properties":{"ISO3166-1-Alpha-3":"BHS","country":"The Bahamas","fill":"#FF0","id":"5027","name":"North Eleuthera"},
"geometry":{"type": "Polygon","coordinates": [[[-76.314,25.2996,0.0],[-76.33576,25.32709,0.0],[-76.35163,25.33861,0.0],[-76.36828,25.34272,-2.0],[-76.41454,25.34447,0.0],[-76.46093,25.35456,2.68],[-76.49763,25.37348,0.0],[-76.62458,25.46247,0.0],[-76.64391,25.46735,0.0],[-76.65298,25.47797,0.0],[-76.66198,25.49726,0.0],[-76.67317,25.50666,0.3037],[-76.68887,25.48786,0.9147],[-76.69131,25.50886,1.2362],[-76.69099,25.52595,0.0],[-76.68615,25.54133,0.0],[-76.6752,25.55679,0.0],[-76.68676,25.56208,0.0],[-76.7023,25.56395,0.0],[-76.73668,25.56363,0.0],[-76.72985,25.56363,0.0],[-76.74551,25.48924,4.3505],[-76.75951,25.45002,-0.1008],[-76.78449,25.42642,0.0],[-76.7694,25.42406,3.753],[-76.73428,25.44184,0.934],[-76.71276,25.44693,0.6583],[-76.69367,25.44477,0.0],[-76.65233,25.43537,0.0],[-76.63052,25.43325,0.0],[-76.59122,25.42255,4.8212],[-76.53083,25.37043,15.584],[-76.48961,25.3513,0.0],[-76.40954,25.33519,3.6355],[-76.37157,25.3225,0.0],[-76.34626,25.30353,0.0],[-76.33255,25.28528,6.127],[-76.314,25.2996,0.0]]]}}