{"type":"Feature","properties":{"GID_1":"BHS.24_1","GID_0":"BHS","country":"Bahamas","state":"NorthEleuthera","VARNAME_1":"NA","NL_NAME_1":"NA","TYPE_1":"District","ENGTYPE_1":"District","CC_1":"NA","HASC_1":"BS.NE","ISO_1":"BS-NE","name":"NorthEleuthera.state"},
"geometry":{"type": "MultiPolygon","coordinates": [[[[-76.2671,25.2118,2.5204],[-76.2685,25.2124,0.0],[-76.2707,25.2101,0.0],[-76.2676,25.2099,0.437],[-76.2657,25.206,0.6802],[-76.2654,25.211,2.5204],[-76.2671,25.2118,2.5204]]],
[[[-76.3371,25.279,0.0],[-76.3399,25.2796,0.8343],[-76.3404,25.2785,4.1052],[-76.3379,25.2749,0.0],[-76.3354,25.2787,0.0],[-76.3371,25.279,0.0]]],
[[[-76.2484,25.2021,3.4335],[-76.2451,25.2146,2.2585],[-76.2599,25.2215,3.2935],[-76.2715,25.2326,14.0355],[-76.2721,25.2363,4.3985],[-76.2751,25.2396,0.0],[-76.2815,25.2421,0.0],[-76.2857,25.2457,2.557],[-76.2935,25.2571,0.0],[-76.3032,25.2613,3.7258],[-76.3107,25.2707,0.0],[-76.3138,25.2718,6.242],[-76.3221,25.2851,0.0],[-76.3276,25.2901,6.9777],[-76.3313,25.2999,0.0],[-76.3346,25.3024,0.0],[-76.3371,25.301,1.5348],[-76.3404,25.304,0.0],[-76.3396,25.3104,0.0],[-76.3429,25.3126,2.2256],[-76.3468,25.324,0.0],[-76.3504,25.3279,0.4805],[-76.3526,25.3338,0.0],[-76.3679,25.3496,0.0],[-76.3737,25.3524,0.0],[-76.374,25.3482,-1.2356],[-76.3788,25.3476,0.0],[-76.3812,25.341,0.0],[-76.3868,25.3385,3.5188],[-76.399,25.3371,0.0],[-76.4074,25.3379,0.0],[-76.4124,25.3363,0.6298],[-76.4182,25.3365,2.6553],[-76.4218,25.3385,3.8454],[-76.429,25.3382,3.4907],[-76.441,25.3424,0.0],[-76.4635,25.3574,0.0],[-76.4701,25.3601,1.5101],[-76.4771,25.3607,2.5598],[-76.4851,25.3668,0.0],[-76.4999,25.3693,4.6537],[-76.5035,25.3721,0.0],[-76.519,25.3774,0.0],[-76.5268,25.3829,8.0824],[-76.5268,25.3846,0.0],[-76.5312,25.3851,9.0979],[-76.5651,25.4196,0.0],[-76.5832,25.4262,8.099],[-76.5974,25.4335,3.7635],[-76.6051,25.4396,3.1203],[-76.6049,25.4413,0.0],[-76.6082,25.4424,0.0],[-76.6093,25.446,0.0],[-76.6132,25.4493,5.9202],[-76.6168,25.4596,0.0],[-76.626,25.4751,0.2449],[-76.6274,25.4749,0.0],[-76.6282,25.4696,3.5117],[-76.6224,25.4635,0.0],[-76.6221,25.4596,0.2839],[-76.626,25.4571,0.0],[-76.6349,25.456,1.1681],[-76.6443,25.4601,7.3847],[-76.6496,25.4646,1.7864],[-76.6629,25.4829,0.9227],[-76.6632,25.489,0.0],[-76.6649,25.4901,0.4908],[-76.6632,25.4932,0.0],[-76.664,25.4949,0.0],[-76.666,25.4949,0.3203],[-76.6668,25.4974,2.4451],[-76.6651,25.5007,0.0],[-76.6671,25.5021,0.7548],[-76.6674,25.5082,0.1935],[-76.6721,25.5085,0.1754],[-76.6715,25.5104,0.0],[-76.676,25.5113,0.1926],[-76.6771,25.5151,0.1504],[-76.679,25.5149,0.0],[-76.6799,25.5113,0.1411],[-76.6815,25.5129,0.0],[-76.684,25.509,0.0],[-76.6907,25.5088,0.0438],[-76.6935,25.511,0.0],[-76.6979,25.511,0.0],[-76.6971,25.5079,0.0],[-76.6935,25.5054,0.0],[-76.6915,25.5076,1.2837],[-76.6857,25.5065,0.0],[-76.686,25.5043,0.0],[-76.6829,25.5012,0.0],[-76.6851,25.4985,3.1205],[-76.6893,25.4988,0.0],[-76.6943,25.4965,0.0],[-76.6926,25.4949,0.0],[-76.6899,25.4965,0.0619],[-76.6865,25.4963,0.6306],[-76.6904,25.4954,-0.0985],[-76.6904,25.494,-0.0985],[-76.6874,25.4938,0.0905],[-76.6888,25.4915,0.2243],[-76.6971,25.489,0.0],[-76.7004,25.4896,0.0],[-76.6999,25.4921,-0.4089],[-76.6946,25.4926,0.0],[-76.6935,25.494,0.3935],[-76.696,25.4951,0.6991],[-76.6951,25.4982,0.0],[-76.7001,25.4999,0.0657],[-76.6982,25.5018,0.0],[-76.7049,25.504,0.0],[-76.7074,25.5088,0.0],[-76.7051,25.5113,0.0],[-76.7004,25.5085,0.0],[-76.7018,25.5151,2.0518],[-76.7063,25.5179,-0.0103],[-76.706,25.5199,-0.0169],[-76.7074,25.5204,-0.0169],[-76.7068,25.5238,0.0828],[-76.7049,25.5238,0.0],[-76.7015,25.5362,0.1026],[-76.7051,25.5371,0.0],[-76.7082,25.5301,-0.0325],[-76.7132,25.5299,0.0512],[-76.7138,25.5321,-0.07],[-76.7107,25.5329,-0.0505],[-76.7082,25.5374,0.0],[-76.7104,25.5387,-0.0889],[-76.7079,25.5396,0.0263],[-76.7071,25.5385,0.0],[-76.7051,25.5401,0.0],[-76.7051,25.5415,0.0],[-76.7071,25.5413,0.0201],[-76.7068,25.5443,-0.0505],[-76.7004,25.5426,0.1935],[-76.6932,25.5435,0.0],[-76.6913,25.5413,0.0],[-76.6901,25.544,4.0519],[-76.6871,25.5435,0.0],[-76.6829,25.5476,7.1534],[-76.6782,25.5485,0.0],[-76.6765,25.5474,0.3494],[-76.6754,25.549,3.038],[-76.669,25.5482,0.0],[-76.6654,25.5499,0.0],[-76.6712,25.5513,0.0],[-76.6726,25.5499,1.1436],[-76.6735,25.5518,0.0],[-76.6824,25.5537,3.3696],[-76.6874,25.5565,4.0167],[-76.6865,25.559,0.0],[-76.6946,25.5588,0.0],[-76.7201,25.5629,0.0],[-76.7226,25.5621,0.0],[-76.7246,25.5585,1.3272],[-76.739,25.5579,0.0],[-76.7376,25.556,0.9914],[-76.7387,25.5521,0.0],[-76.7443,25.5482,0.2327],[-76.7363,25.5507,5.1116],[-76.7329,25.5468,0.0],[-76.7274,25.5443,2.3419],[-76.7246,25.5401,0.3791],[-76.7249,25.5326,0.4088],[-76.7276,25.5226,5.7764],[-76.7365,25.5079,0.0],[-76.744,25.501,4.0878],[-76.7526,25.4813,6.476],[-76.7571,25.4763,0.0],[-76.7618,25.4671,0.7579],[-76.7646,25.4421,1.7589],[-76.7668,25.4415,0.1814],[-76.7726,25.4301,2.4066],[-76.7937,25.4051,2.1132],[-76.7926,25.403199999999998,0.865],[-76.799,25.3985,0.0],[-76.8001,25.3913,5.5525],[-76.8129,25.3768,0.3705],[-76.8174,25.3674,0.0],[-76.8404,25.3393,1.2484],[-76.8515,25.3229,1.1829],[-76.8554,25.3132,4.3052],[-76.8543,25.3101,0.0],[-76.8435,25.3218,1.076],[-76.8279,25.3443,5.478],[-76.8076,25.3646,1.1358],[-76.804,25.3671,2.1382],[-76.8007,25.3662,0.5855],[-76.7979,25.3679,0.0],[-76.8001,25.3726,0.0],[-76.7988,25.3804,0.7614],[-76.7999,25.3829,0.0],[-76.7943,25.3829,1.8284],[-76.7929,25.3868,0.966],[-76.7887,25.3907,4.5753],[-76.7868,25.399,0.0],[-76.7876,25.4001,0.0],[-76.7896,25.3974,0.0],[-76.7921,25.4029,0.865],[-76.7862,25.4026,0.0],[-76.7815,25.4049,0.0],[-76.7779,25.4093,0.0],[-76.7787,25.4126,0.2246],[-76.7726,25.4185,0.4624],[-76.7476,25.434,1.0655],[-76.7182,25.4449,1.3043],[-76.7018,25.4476,1.1586],[-76.6865,25.4446,0.4153],[-76.6557,25.4351,0.0],[-76.6438,25.4346,0.0],[-76.6249,25.4387,0.0],[-76.6087,25.4399,2.9427],[-76.6032,25.4363,3.4605],[-76.6026,25.4335,0.0],[-76.5979,25.429,2.8217],[-76.599,25.4257,0.0],[-76.5957,25.4254,2.3979],[-76.5912,25.4193,0.6996],[-76.5899,25.4118,6.312],[-76.5912,25.409,3.1959],[-76.5857,25.4082,5.4732],[-76.5821,25.4035,0.0],[-76.5726,25.3999,0.7592],[-76.5687,25.3943,5.9764],[-76.5574,25.3899,0.0],[-76.5437,25.3796,0.0],[-76.5393,25.3779,10.6263],[-76.5349,25.3721,0.0],[-76.5296,25.3693,7.5647],[-76.5285,25.3657,0.0],[-76.5185,25.3618,0.0],[-76.5149,25.3565,2.7037],[-76.5038,25.3501,0.0],[-76.5015,25.3504,0.0],[-76.4849,25.3429,1.312],[-76.4835,25.3435,1.312],[-76.4837,25.3454,4.486],[-76.4774,25.3493,4.9507],[-76.4743,25.3493,2.8094],[-76.4729,25.3476,2.5798],[-76.4679,25.3479,2.8992],[-76.4649,25.3449,0.0],[-76.4554,25.344,2.3523],[-76.454,25.341,0.8903],[-76.4515,25.341,4.4727],[-76.4465,25.3368,0.0],[-76.4343,25.3357,5.6426],[-76.4313,25.3332,1.5469],[-76.4315,25.331,0.0912],[-76.4229,25.3318,0.0],[-76.3799,25.3296,1.9153],[-76.361,25.3226,2.4108],[-76.3463,25.3079,3.3136],[-76.3429,25.2982,0.7066],[-76.3365,25.2899,2.8998],[-76.3357,25.2824,0.0],[-76.3293,25.2807,4.4043],[-76.3276,25.2771,0.0],[-76.3199,25.271,5.1074],[-76.3176,25.2657,2.2562],[-76.3179,25.2601,2.7253],[-76.3196,25.2576,1.9173],[-76.3232,25.2579,1.4856],[-76.3232,25.2563,2.1952],[-76.316,25.2546,0.6232],[-76.3146,25.2518,0.0],[-76.3146,25.2504,0.0],[-76.3168,25.2501,0.0],[-76.3157,25.249,0.0],[-76.3107,25.2526,4.0124],[-76.3049,25.2526,3.8876],[-76.3037,25.2488,17.5423],[-76.2979,25.2468,16.5955],[-76.2937,25.2426,8.3425],[-76.2946,25.2393,5.1316],[-76.2932,25.2376,5.8868],[-76.2899,25.2376,8.689],[-76.2882,25.2349,0.0],[-76.2854,25.2346,19.1629],[-76.281,25.2301,0.0],[-76.276,25.2218,0.0],[-76.2712,25.2182,0.0],[-76.2649,25.2174,10.0617],[-76.2621,25.2124,3.2019],[-76.2557,25.2101,0.3647],[-76.2579,25.2062,2.5219],[-76.2574,25.204,1.7108],[-76.2521,25.2018,0.0],[-76.2484,25.2021,3.4335]]],
[[[-76.6343,25.5232,1.746],[-76.6363,25.5238,0.0],[-76.6382,25.5221,0.0],[-76.6385,25.5168,1.2674],[-76.6371,25.5149,6.3059],[-76.6382,25.5082,3.908],[-76.6418,25.5038,0.0],[-76.6396,25.5035,7.5304],[-76.6376,25.499,0.3247],[-76.6385,25.4968,0.852],[-76.636,25.4946,1.8442],[-76.6382,25.4901,0.0],[-76.6363,25.4865,0.0],[-76.6338,25.4854,0.0],[-76.6332,25.4768,2.6568],[-76.6301,25.4754,0.0],[-76.6276,25.4779,0.8235],[-76.6307,25.4863,0.0],[-76.6315,25.5054,13.8897],[-76.6349,25.5185,3.208],[-76.6343,25.5232,1.746]]],
[[[-76.664,25.5204,0.0],[-76.6665,25.521,0.0],[-76.6668,25.5199,0.0],[-76.6651,25.5182,0.0],[-76.664,25.5204,0.0]]],
[[[-76.6949,25.541,0.0],[-76.6951,25.5421,0.0],[-76.6976,25.5415,0.0],[-76.6988,25.5379,0.0],[-76.6951,25.5382,0.0],[-76.6949,25.541,0.0]]],
[[[-76.6585,25.5565,2.2757],[-76.6632,25.5574,0.0],[-76.6624,25.5551,0.0],[-76.6562,25.5549,0.0],[-76.6565,25.5565,1.1694],[-76.6585,25.5565,2.2757]]],
[[[-76.6346,25.5301,0.0],[-76.6368,25.531,0.0],[-76.6371,25.5287,4.6487],[-76.636,25.5257,0.0],[-76.634,25.5249,0.0],[-76.6338,25.5301,0.0],[-76.6346,25.5301,0.0]]],
[[[-76.6363,25.534,0.0894],[-76.6374,25.5346,0.0894],[-76.6349,25.5318,0.0],[-76.6349,25.5335,0.1953],[-76.6363,25.534,0.0894]]],
[[[-76.6507,25.5551,1.6976],[-76.6537,25.5546,0.0],[-76.6476,25.5515,7.9582],[-76.6462,25.5479,1.1982],[-76.6426,25.5471,8.5717],[-76.6413,25.5435,0.0],[-76.6382,25.5418,3.8361],[-76.6376,25.5368,0.0],[-76.6351,25.5357,0.0],[-76.6349,25.5443,0.0],[-76.6382,25.5446,1.1682],[-76.6407,25.5504,3.6993],[-76.6507,25.5551,1.6976]]],
[[[-76.8974,25.281,0.9785],[-76.8976,25.2829,0.0],[-76.9043,25.2757,0.0],[-76.9026,25.2754,0.0],[-76.8974,25.281,0.9785]]],
[[[-76.8793,25.3137,0.2057],[-76.8799,25.3143,0.0],[-76.8832,25.3096,0.0],[-76.8812,25.3099,0.0],[-76.8793,25.3137,0.2057]]],
[[[-76.854,25.3543,0.2561],[-76.8549,25.3554,0.2561],[-76.864,25.3376,0.0],[-76.8682,25.331,0.0],[-76.8704,25.3301,0.0],[-76.8776,25.3163,0.0],[-76.8737,25.3196,0.0],[-76.8671,25.3299,0.0],[-76.854,25.3543,0.2561]]],
[[[-76.8507,25.3996,0.0],[-76.8524,25.4001,0.0],[-76.8518,25.3976,0.0],[-76.8507,25.3976,0.0],[-76.8507,25.3996,0.0]]],
[[[-76.7685,25.4649,0.0],[-76.7721,25.465699999999998,0.0],[-76.7704,25.464,0.3625],[-76.7685,25.4638,0.0],[-76.7685,25.4649,0.0]]],
[[[-76.7674,25.4874,0.0],[-76.769,25.4904,0.0],[-76.7693,25.4874,0.0],[-76.7665,25.486,0.0],[-76.7674,25.4874,0.0]]],
[[[-76.7693,25.4946,0.4435],[-76.7707,25.4965,0.0],[-76.7704,25.4918,0.0],[-76.7685,25.4932,0.0],[-76.7693,25.4946,0.4435]]],
[[[-76.6771,25.5176,0.2301],[-76.6771,25.519,0.0],[-76.6779,25.5196,0.0],[-76.6768,25.5165,0.0],[-76.6771,25.5176,0.2301]]],
[[[-76.7849,25.464,0.0],[-76.7868,25.4646,0.0],[-76.7879,25.4632,0.0],[-76.784,25.4624,0.4942],[-76.7849,25.464,0.0]]],
[[[-76.7724,25.5085,2.0971],[-76.7749,25.5093,0.0],[-76.7699,25.504,0.2506],[-76.7693,25.5054,0.2506],[-76.7724,25.5085,2.0971]]],
[[[-76.7799,25.521,1.2758],[-76.781,25.5224,0.0],[-76.7804,25.5088,0.0],[-76.7771,25.5068,0.0],[-76.776,25.5082,0.4107],[-76.7787,25.5101,0.5814],[-76.7787,25.5135,0.0],[-76.7804,25.5151,0.9166],[-76.7799,25.521,1.2758]]]]}}