{"type": "Feature","id": "1440","bbox": [-61.41601,15.31281,-61.32744,15.40495],"geometry": {"type": "Polygon","coordinates": [[[-61.32757,15.34552,871.9272],[-61.32744,15.38777,630.6536],[-61.33457,15.40495,420.8801],[-61.36803,15.38973,376.3963],[-61.37113,15.38935,360.8446],[-61.37547,15.38994,462.4593],[-61.39255,15.39392,366.5644],[-61.40488,15.39361,307.0304],[-61.41599,15.39015,39.979],[-61.41601,15.39014,39.979],[-61.41568,15.38764,25.3753],[-61.41373,15.38056,0.0],[-61.39957,15.35114,0.0],[-61.39501,15.33308,2.1929],[-61.3936,15.31356,0.0],[-61.39359,15.31356,0.0],[-61.38196,15.31289,41.4798],[-61.38165,15.31292,41.4798],[-61.37987,15.31281,39.1723],[-61.37927,15.31286,73.9379],[-61.37736,15.31336,73.9379],[-61.37684,15.31338,107.4941],[-61.3764,15.31336,107.4941],[-61.37596,15.31323,107.4941],[-61.37555,15.31317,107.4941],[-61.37485,15.31333,183.9682],[-61.37408,15.31354,183.9682],[-61.3726,15.3148,298.2722],[-61.37167,15.31635,271.03],[-61.36945,15.32341,336.6492],[-61.36927,15.32382,310.1484],[-61.36912,15.32418,310.1484],[-61.36881,15.3249,412.6881],[-61.32757,15.34552,871.9272]]]}
,"properties": {"ISO3166-1-Alpha-3": "DMA","country": "Dominica","fill": "#F00","name": "Saint Paul","area_km2": 61.72248,"hist_schema_id": "Elevation0-9000","hist_area_km2": {"0": 4.23222,"25": 1.41075,"50": 1.63565,"75": 1.4108,"100": 1.55388,"125": 1.63566,"150": 1.77876,"175": 1.49248,"200": 1.77871,"225": 1.6151199999999999,"250": 2.12622,"275": 2.20798,"300": 2.18751,"325": 2.08532,"350": 1.53336,"375": 1.77867,"400": 2.14662,"425": 2.719,"450": 2.82125,"475": 2.71904,"500": 2.67819,"525": 2.73957,"550": 1.94223,"575": 1.51291,"600": 1.12446,"625": 1.18579,"650": 1.08358,"675": 1.18581,"700": 1.28803,"725": 0.79736,"750": 0.92002,"775": 0.85869,"800": 0.47023,"825": 0.368,"850": 0.368,"875": 0.24533,"900": 0.12267,"925": 0.22489,"950": 0.22489,"975": 0.184,"1000": 0.10222,"1025": 0.06133,"1050": 0.184,"1075": 0.08178,"1100": 0.16355,"1125": 0.04089,"1150": 0.08177,"1175": 0.04089,"1200": 0.08177,"1225": 0.08178,"1250": 0.02044,"1275": 0.08178,"1300": 0.10222,"1325": 0.12266,"1350": 0.08178}}}