{"type": "Feature","bbox": [-61.4207,15.3172,-61.3202,15.4119],"geometry": {"type": "MultiPolygon","coordinates": [[[[-61.3289,15.4119,548.9343],[-61.3427,15.4072,311.8726],[-61.3639,15.3958,432.3564],[-61.3692,15.3954,525.3496],[-61.3841,15.4009,477.8978],[-61.4028,15.4007,210.5653],[-61.4207,15.3898,0.0],[-61.4135,15.3868,23.2845],[-61.411,15.3832,34.8539],[-61.4115,15.3804,0.0],[-61.406,15.3746,29.3228],[-61.4043,15.3674,0.9276],[-61.3951,15.3582,60.8462],[-61.396,15.3565,0.0],[-61.3935,15.3538,26.8956],[-61.3921,15.3368,1.4886],[-61.3974,15.329,0.5638],[-61.3957,15.3279,14.0458],[-61.3957,15.3235,26.3489],[-61.3929,15.3185,0.0],[-61.3904,15.3172,7.4325],[-61.3871,15.3198,132.129],[-61.3748,15.3188,104.5054],[-61.3653,15.3202,199.0997],[-61.3622,15.3229,208.7867],[-61.3602,15.3315,254.9963],[-61.3467,15.3396,449.0878],[-61.335,15.3405,554.5986],[-61.3239,15.348,963.5082],[-61.3202,15.3542,979.177],[-61.3202,15.3602,1172.4774],[-61.3237,15.3647,1276.3864],[-61.3238,15.369,1308.6932],[-61.3264,15.3718,1365.8588],[-61.3271,15.377,1268.6917],[-61.3225,15.3894,603.1977],[-61.3214,15.3982,422.115],[-61.3223,15.4028,434.6137],[-61.3289,15.4119,548.9343]]]]}
,"properties": {"GID_1": "DMA.9_1","GID_0": "DMA","country": "Dominica","province": "SaintPaul","VARNAME_1": "NA","NL_NAME_1": "NA","TYPE_1": "Parish","ENGTYPE_1": "Parish","CC_1": "NA","HASC_1": "DM.PL","ISO_1": "DM-10","name": "Saint_Paul.province","area_km2": 68.0381,"hist_schema_id": "Elevation0-9000","hist_area_km2": {"0": 1.14498,"25": 1.34941,"50": 1.53339,"75": 1.36988,"100": 1.51296,"125": 1.5334,"150": 1.6765,"175": 1.55378,"200": 1.67645,"225": 1.67645,"250": 2.20796,"275": 2.18751,"300": 2.37145,"325": 2.49414,"350": 2.53498,"375": 2.49411,"400": 3.18913,"425": 4.25207,"450": 3.78198,"475": 3.18915,"500": 3.02569,"525": 3.04618,"550": 2.18753,"575": 1.59467,"600": 1.26755,"625": 1.26755,"650": 1.16536,"675": 1.2267,"700": 1.28803,"725": 0.8178,"750": 0.94047,"775": 0.87913,"800": 0.49067,"825": 0.368,"850": 0.40889,"875": 0.32712,"900": 0.28623,"925": 0.44979,"950": 0.28622,"975": 0.28622,"1000": 0.22489,"1025": 0.14311,"1050": 0.24533,"1075": 0.16356,"1100": 0.22489,"1125": 0.08178,"1150": 0.14311,"1175": 0.08178,"1200": 0.16355,"1225": 0.12267,"1250": 0.06133,"1275": 0.20445,"1300": 0.24533,"1325": 0.34755,"1350": 0.184,"1375": 0.06133}}}