{"type":"Feature","properties":{"ISO3166-1-Alpha-3":"JAM","country":"Jamaica","fill":"#F00","id":"1380","name":"Saint Catherine"},
"geometry":{"type": "Polygon","coordinates": [[[-76.87282,18.1483,299.6405],[-76.89641,18.15739,338.1835],[-76.90701,18.16724,553.2879],[-76.91868,18.18253,379.558],[-76.92085,18.1868,289.0025],[-76.9221,18.1953,423.8756],[-76.92421,18.20339,286.9111],[-76.92806,18.21116,272.7867],[-76.93233,18.21558,371.0234],[-76.94023,18.22108,456.9807],[-76.94362,18.22548,399.0375],[-76.94964,18.2392,425.785],[-76.95264,18.24281,493.8554],[-76.95592,18.24509,526.1394],[-76.97509,18.24708,438.0043],[-76.97819,18.24692,468.6605],[-76.98106,18.24638,499.8303],[-76.99641,18.24196,528.9521],[-77.05643,18.20977,535.9955],[-77.07676,18.2023,372.3388],[-77.21086,18.1861,639.9496],[-77.18247,18.11755,442.3922],[-77.17851,18.09975,449.2515],[-77.18223,18.09264,466.162],[-77.1851,18.08329,464.2996],[-77.18743,18.06882,393.9803],[-77.18712,18.06391,330.0516],[-77.18627,18.06032,360.8002],[-77.18223,18.05425,523.8048],[-77.18061,18.05241,566.6522],[-77.17495,18.04435,366.3692],[-77.16939,18.03451,286.4985],[-77.16699,18.02789,351.4191],[-77.16567,18.02285,382.444],[-77.16539,17.98795,241.0024],[-77.16459,17.9803,174.3077],[-77.16342,17.97448,172.1715],[-77.16224,17.97172,170.4637],[-77.16094,17.96939,148.5867],[-77.14156,17.94485,34.8383],[-77.13983,17.94038,30.2309],[-77.13893,17.93619,26.7952],[-77.13929,17.93294,25.0561],[-77.1346,17.8851,0.0],[-77.11911,17.8938,0.0],[-77.09301,17.90249,0.0],[-77.0642,17.89948,0.0],[-77.05199,17.89496,0.0],[-77.04149,17.88715,0.0],[-77.02798,17.86982,0.94],[-77.0172,17.86083,1.0608],[-77.03832,17.85399,1.4104],[-77.03832,17.84658,0.5261],[-76.98306,17.84658,0.5137],[-76.97208,17.84243,0.0],[-76.96402,17.83723,0.0],[-76.95531,17.83344,0.0],[-76.94213,17.83356,0.0],[-76.9261,17.84333,0.0],[-76.91283,17.86129,0.0],[-76.89494,17.92168,5.8391],[-76.89104,17.9445,54.6411],[-76.88716,17.95186,157.7287],[-76.874,17.95035,0.0],[-76.87017,17.95805,2.7218],[-76.85776,17.9714,0.0],[-76.85307,17.98197,0.0],[-76.84997,17.99228,2.2457],[-76.85321,18.00384,2.3355],[-76.86003,18.01285,0.9759],[-76.86269,18.01231,1.0756],[-76.86783,18.01014,2.7758],[-76.87034,18.0096,4.8729],[-76.87311,18.0096,5.1057],[-76.87546,18.01045,5.6798],[-76.87729,18.012,8.0283],[-76.87864,18.01412,7.2597],[-76.8805,18.01867,9.5551],[-76.88153,18.02024,10.628],[-76.88241,18.0213,8.3905],[-76.88964,18.0275,3.9712],[-76.88977,18.03316,2.5665],[-76.8884,18.04187,122.6904],[-76.88246,18.06208,489.4278],[-76.879,18.07042,611.3],[-76.87592,18.07569,597.6164],[-76.87393,18.07714,628.3754],[-76.87205,18.07879,576.9406],[-76.87037,18.08071,535.9003],[-76.86908,18.08288,450.612],[-76.86569,18.09008,405.992],[-76.86554,18.09388,308.6844],[-76.86649,18.09882,291.3704],[-76.87311,18.11192,261.1243],[-76.87468,18.11822,237.5199],[-76.87517,18.1221,244.3925],[-76.87282,18.1483,299.6405]]]}}