{"type": "Feature","bbox": [-77.2121,17.7943,-76.8396,18.2595],"geometry": {"type": "MultiPolygon","coordinates": [[[[-77.0724,17.7988,0.0],[-77.0743,17.799,0.0],[-77.0779,17.7962,0.0],[-77.0721,17.7943,0.0],[-77.0713,17.7974,0.0],[-77.0724,17.7988,0.0]]],
[[[-77.0632,17.8913,0.5262],[-77.0718,17.8876,2.0073],[-77.0751,17.8888,0.0],[-77.0824,17.8857,0.0],[-77.0785,17.884,0.0],[-77.0785,17.881,0.0],[-77.0738,17.8813,0.3627],[-77.0663,17.8751,0.0],[-77.0643,17.8754,0.4492],[-77.0521,17.8618,0.0],[-77.0488,17.8601,0.0],[-77.0437,17.8649,1.6177],[-77.0432,17.8713,1.978],[-77.0482,17.8776,0.8631],[-77.0537,17.879,1.1985],[-77.0596,17.8829,2.1592],[-77.0593,17.8849,0.0],[-77.0632,17.8913,0.5262]]],
[[[-77.044,17.8943,0.0],[-77.0424,17.8954,0.5589],[-77.0474,17.8949,0.0],[-77.046,17.8937,0.0],[-77.044,17.8943,0.0]]],
[[[-77.1386,17.8845,3.1753999999999998],[-77.1374,17.8838,0.0],[-77.136,17.8857,3.7594],[-77.1332,17.8838,0.0],[-77.1343,17.8871,3.1656],[-77.1332,17.889,2.1501],[-77.1293,17.889,0.0],[-77.1299,17.8913,0.5001],[-77.1221,17.8971,7.6181],[-77.1082,17.8985,0.5193],[-77.1065,17.8951,0.0],[-77.1057,17.8988,3.6824],[-77.0976,17.904,0.8253],[-77.0932,17.9046,0.3542],[-77.0926,17.9007,0.0],[-77.0904,17.899,0.2982],[-77.0829,17.899,0.9123],[-77.0846,17.9062,0.264],[-77.079,17.9121,2.2129],[-77.0765,17.9126,1.0365],[-77.0732,17.911,3.0494],[-77.0726,17.9037,0.0],[-77.0704,17.901,0.0],[-77.0668,17.9015,0.0],[-77.0646,17.906,0.7747],[-77.0582,17.9079,2.1954],[-77.0557,17.9054,0.0],[-77.0529,17.9057,0.6595],[-77.0443,17.8954,0.0],[-77.0421,17.8963,2.3208],[-77.0387,17.8918,0.6613],[-77.0326,17.8885,7.0783],[-77.0301,17.8801,0.0],[-77.0285,17.8799,1.7437],[-77.0268,17.8715,0.0],[-77.0285,17.8704,0.94],[-77.0293,17.8657,0.2954],[-77.0315,17.8715,0.0],[-77.034,17.8715,0.6918],[-77.034,17.8635,0.8426],[-77.0365,17.8618,1.0439],[-77.0374,17.866,0.3175],[-77.0421,17.8674,0.0],[-77.039,17.861,0.0],[-77.0396,17.859,0.3339],[-77.0424,17.8579,0.2164],[-77.041,17.8574,0.2164],[-77.0421,17.8549,0.2278],[-77.0399,17.8518,0.5476],[-77.0415,17.8485,0.0],[-77.0401,17.8451,0.0],[-77.0371,17.8451,0.0],[-77.0265,17.8524,0.5479],[-77.0104,17.8532,0.0],[-77.0035,17.8482,2.0766],[-76.9979,17.841,0.4777],[-76.994,17.840699999999998,0.3728],[-76.9935,17.8429,0.9758],[-76.9868,17.8454,0.0],[-76.981,17.841,0.0],[-76.9796,17.8432,0.0],[-76.9815,17.8438,1.7035],[-76.9824,17.8479,1.5133],[-76.9737,17.8526,4.4282],[-76.9687,17.8507,13.4961],[-76.9646,17.8401,0.0],[-76.9543,17.8374,0.0],[-76.9465,17.8401,0.0],[-76.9399,17.8454,0.0],[-76.9268,17.8482,0.0],[-76.9274,17.8493,0.6515],[-76.9254,17.8496,0.0],[-76.9187,17.8574,0.0],[-76.9154,17.8646,12.372],[-76.9137,17.866,6.4706],[-76.9096,17.8657,1.2068],[-76.9074,17.8699,1.9878],[-76.9076,17.874,3.0473],[-76.9032,17.8762,2.6345],[-76.9029,17.881,0.0],[-76.8999,17.8838,0.0],[-76.901,17.8868,1.326],[-76.8957,17.891,6.1235],[-76.8962,17.896,1.4227],[-76.8924,17.8971,0.0],[-76.8924,17.9026,0.0],[-76.8851,17.9088,2.2836],[-76.8796,17.9174,3.5169],[-76.8768,17.9165,0.0],[-76.876,17.9179,0.0],[-76.8782,17.9285,0.0],[-76.8712,17.9413,0.0],[-76.874,17.9501,0.0],[-76.8662,17.9576,1.3006],[-76.8571,17.9635,0.0],[-76.846,17.9662,0.2932],[-76.8457,17.9674,0.0],[-76.8521,17.9665,1.81],[-76.8399,17.9737,0.0],[-76.8396,17.9754,0.0],[-76.8418,17.9768,0.0],[-76.8429,17.9735,1.1629],[-76.8526,17.9685,2.7864],[-76.859,17.9696,1.7031],[-76.8618,17.9718,0.533],[-76.8599,17.9782,2.6502],[-76.8574,17.9796,0.0],[-76.8604,17.9846,0.4924],[-76.8554,17.9854,0.0],[-76.8529,17.9912,1.3185],[-76.8493,17.9929,0.0],[-76.849,17.9951,2.3261],[-76.8485,17.9937,0.0],[-76.8472,17.9949,0.0],[-76.8544,18.0156,2.6005],[-76.8568,18.0177,1.6143],[-76.8602,18.0175,1.3046],[-76.8644,18.0198,1.4532],[-76.8707,18.0194,2.4157],[-76.8782,18.0238,5.4267],[-76.885,18.0322,2.2588],[-76.8892,18.0342,1.416],[-76.8851,18.0563,377.0385],[-76.8777,18.0707,593.8873],[-76.8894,18.0751,608.3939],[-76.8862,18.0814,607.89],[-76.8727,18.08,580.0952],[-76.863,18.1069,274.4094],[-76.8652,18.114,253.2945],[-76.8755,18.1173,237.5199],[-76.8696,18.1193,263.4055],[-76.8716,18.1216,226.5355],[-76.8708,18.1295,240.4415],[-76.8679,18.1337,290.7817],[-76.8709,18.1358,268.0414],[-76.8713,18.1388,300.5924],[-76.8693,18.1563,529.0666],[-76.8735,18.1543,373.2866],[-76.8771,18.1608,392.1901],[-76.8798,18.1626,360.7432],[-76.8914,18.156,338.0882],[-76.8938,18.1563,323.4555],[-76.8996,18.1716,393.8549],[-76.9131,18.1819,521.2695],[-76.9215,18.1947,500.4062],[-76.9222,18.2038,275.6255],[-76.9177,18.2111,258.1372],[-76.9237,18.2205,266.4425],[-76.93,18.2253,326.7035],[-76.9451,18.2267,379.7578],[-76.9451,18.2306,391.9792],[-76.9424,18.2349,390.1404],[-76.9478,18.253,455.8252],[-76.957,18.2541,486.244],[-76.9612,18.259,545.5197],[-76.9639,18.2595,544.9028],[-76.9743,18.2534,566.9096],[-76.9858,18.2525,565.2007],[-76.9981,18.2479,576.816],[-77.0819,18.2063,418.926],[-77.2121,18.1907,502.368],[-77.1782,18.1158,412.5186],[-77.1796,18.1104,282.5817],[-77.1849,18.1073,303.9849],[-77.1815,18.1022,439.7321],[-77.1811,18.098,498.9828],[-77.1858,18.0879,406.3324],[-77.1845,18.0711,387.5144],[-77.1864,18.062,317.1784],[-77.1802,18.0588,501.5775],[-77.1758,18.0606,346.0739],[-77.1727,18.0588,429.9727],[-77.1686,18.0511,566.3632],[-77.1632,18.0472,595.1768],[-77.1633,18.0422,450.2949],[-77.159,18.0336,391.1669],[-77.1599,18.0265,414.2983],[-77.1648,18.0163,413.2542],[-77.1649,17.9992,329.6929],[-77.1562,17.9753,220.6078],[-77.1403,17.9472,38.8283],[-77.1449,17.9433,37.486],[-77.1451,17.9325,38.862],[-77.1431,17.9265,25.9517],[-77.1456,17.9164,12.411],[-77.1429,17.9076,9.0395],[-77.1436,17.9021,7.0037],[-77.1377,17.8951,3.6959],[-77.1406,17.8945,2.6811],[-77.1404,17.8907,2.2716],[-77.1422,17.8889,1.9942],[-77.1386,17.8845,3.1753999999999998]]]]}
,"properties": {"GID_1": "JAM.8_1","GID_0": "JAM","country": "Jamaica","province": "SaintCatherine","VARNAME_1": "NA","NL_NAME_1": "NA","TYPE_1": "Parish","ENGTYPE_1": "Parish","CC_1": "NA","HASC_1": "JM.SC","ISO_1": "JM-14","name": "Saint_Catherine.province","area_km2": 1194.5276,"hist_schema_id": "Elevation0-9000","hist_area_km2": {"0": 165.549,"25": 141.0637,"50": 50.947,"75": 45.0765,"100": 60.9903,"125": 63.0937,"150": 61.4594,"175": 58.6342,"200": 43.917,"225": 38.2495,"250": 38.6907,"275": 36.2317,"300": 31.2953,"325": 28.2521,"350": 33.3897,"375": 35.2435,"400": 29.4799,"425": 30.2051,"450": 31.3526,"475": 30.6664,"500": 27.8256,"525": 23.1713,"550": 19.8061,"575": 17.7914,"600": 14.1463,"625": 9.9149,"650": 6.1258,"675": 4.9364,"700": 3.8077,"725": 1.6521,"750": 1.3902,"775": 1.1283,"800": 1.2893,"825": 1.4503,"850": 1.692,"875": 1.7524,"900": 1.269,"925": 1.3092,"950": 0.2216,"975": 0.0604}}}