{"type": "Feature","id": "5116","bbox": [-63.07263,18.20276,-63.06131,18.21915],"geometry": {"type": "Polygon","coordinates": [[[-63.06133,18.21248,47.4899],[-63.06131,18.21915,28.8378],[-63.07263,18.21213,41.244],[-63.07212,18.20276,45.78],[-63.06545,18.20582,55.5485],[-63.06133,18.21248,47.4899]]]}
,"properties": {"ISO3166-1-Alpha-3": "AIA","country": "Anguilla","fill": "#FF0","name": "George Hill","area_km2": 1.389678,"hist_schema_id": "Elevation0-9000","hist_area_km2": {"25": 0.08056,"50": 1.168137,"75": 0.140981}}}