{"type": "Feature","bbox": [-63.079,18.1821,-63.0501,18.2128],"geometry": {"type": "MultiPolygon","coordinates": [[[[-63.0731,18.1821,9.8116],[-63.0687,18.1864,1.7653],[-63.0543,18.1907,2.3133],[-63.0501,18.2057,29.1104],[-63.0516,18.2109,30.784],[-63.0693,18.2052,52.2612],[-63.0687,18.2112,45.9959],[-63.0758,18.2128,0.0],[-63.079,18.21,53.8022],[-63.0765,18.2045,44.6699],[-63.0784,18.2005,28.63],[-63.0765,18.1963,47.0339],[-63.0763,18.1863,18.3745],[-63.0731,18.1821,9.8116]]]]}
,"properties": {"GID_1": "AIA.3_1","GID_0": "AIA","country": "Anguilla","state": "GeorgeHill","VARNAME_1": "NA","NL_NAME_1": "NA","TYPE_1": "District","ENGTYPE_1": "District","CC_1": "NA","HASC_1": "AI.GH","ISO_1": "NA","name": "GeorgeHill.state","area_km2": 6.626603,"hist_schema_id": "Elevation0-9000","hist_area_km2": {"0": 1.510685,"25": 3.303231,"50": 1.752266,"75": 0.060421}}}