{"type": "Feature","bbox": [-70.8995,19.3329,-70.6068,19.6404],"geometry": {"type": "MultiPolygon","coordinates": [[[[-70.6321,19.354,242.2331],[-70.637,19.3581,231.0666],[-70.6424,19.3671,219.3403],[-70.6436,19.3816,211.8907],[-70.6403,19.3849,197.0165],[-70.6303,19.3885,183.5183],[-70.6168,19.3894,171.9569],[-70.6171,19.3991,166.9319],[-70.6148,19.4032,169.3877],[-70.622,19.4046,168.3572],[-70.6265,19.4135,175.3143],[-70.6313,19.4163,177.8953],[-70.6348,19.4265,184.6999],[-70.6328,19.4288,187.5185],[-70.6233,19.4295,186.5209],[-70.6179,19.4324,191.4261],[-70.6147,19.4376,196.8432],[-70.6105,19.4511,210.5653],[-70.6068,19.4568,217.5664],[-70.628,19.457,212.0915],[-70.6354,19.4549,210.2863],[-70.6381,19.4577,213.4516],[-70.6351,19.4687,224.5619],[-70.6346,19.4929,270.2628],[-70.6267,19.5008,330.8967],[-70.6247,19.5114,434.7444],[-70.6125,19.5209,530.3435],[-70.6095,19.5304,637.2939],[-70.6137,19.5379,734.8975],[-70.6194,19.5431,694.0929],[-70.6211,19.5532,550.6303],[-70.6287,19.5596,653.066],[-70.6284,19.5641,598.0908],[-70.6232,19.5696,483.1424],[-70.623,19.5782,437.812],[-70.6285,19.5878,431.7565],[-70.6296,19.6008,658.371],[-70.6358,19.6086,754.1478],[-70.6577,19.6129,533.5867],[-70.665,19.6174,439.5561],[-70.6738,19.6191,380.3291],[-70.6813,19.631,473.7968],[-70.6916,19.6404,447.797],[-70.6972,19.6404,483.5725],[-70.7033,19.6353,457.3265],[-70.7016,19.6268,502.4451],[-70.7057,19.6164,837.7451],[-70.6986,19.6042,517.3723],[-70.7038,19.5904,653.6573],[-70.7178,19.5798,785.6288],[-70.739,19.5706,963.1503],[-70.738,19.563,684.2402],[-70.7299,19.5585,591.3535],[-70.7274,19.5555,615.6266],[-70.7274,19.5292,193.4342],[-70.7304,19.526,175.4803],[-70.746,19.5225,158.2007],[-70.7502,19.5192,149.6736],[-70.7561,19.5109,143.2546],[-70.7565,19.5067,141.679],[-70.7541,19.5032,144.1867],[-70.7469,19.4987,144.6255],[-70.7465,19.4956,147.5612],[-70.7485,19.4923,147.6584],[-70.7529,19.49,142.6392],[-70.7642,19.4883,144.3552],[-70.7698,19.482,122.0615],[-70.7721,19.4818,122.8465],[-70.7742,19.4838,121.5779],[-70.7756,19.4936,122.2056],[-70.7856,19.4929,124.0505],[-70.7864,19.4951,131.6662],[-70.7849,19.5002,113.6172],[-70.7869,19.5026,111.7183],[-70.7942,19.5013,114.0955],[-70.8058,19.5056,107.8311],[-70.8167,19.5019,130.252],[-70.8256,19.5084,111.4544],[-70.8355,19.5099,117.3735],[-70.8385,19.5168,113.6538],[-70.8489,19.5129,121.6443],[-70.8599,19.5229,116.9053],[-70.8673,19.5222,111.9641],[-70.8858,19.5276,112.1998],[-70.8913,19.5069,152.5697],[-70.8995,19.4895,228.2452],[-70.8994,19.4752,382.6083],[-70.8952,19.4637,236.055],[-70.8874,19.4593,229.315],[-70.8762,19.4573,280.8163],[-70.8606,19.4479,417.601],[-70.8499,19.4467,467.2256],[-70.8427,19.4422,429.5641],[-70.8319,19.4406,301.8936],[-70.8235,19.4261,464.0797],[-70.813,19.4234,399.5148],[-70.7997,19.414,278.0551],[-70.7954,19.4045,255.8598],[-70.7959,19.3998,348.8637],[-70.7984,19.3961,450.5251],[-70.797,19.3939,429.6534],[-70.7816,19.3933,309.0494],[-70.7746,19.3947,214.8199],[-70.7673,19.3909,256.3908],[-70.7602,19.3896,307.5065],[-70.7517,19.3821,278.3959],[-70.7492,19.3768,309.5961],[-70.7503,19.3744,274.0307],[-70.7405,19.3697,305.9557],[-70.736,19.3697,295.7217],[-70.7312,19.3746,293.752],[-70.7256,19.3749,264.8283],[-70.723,19.3671,313.344],[-70.7155,19.3671,286.2939],[-70.708,19.363,318.9348],[-70.7062,19.3537,346.1027],[-70.6976,19.3507,359.16],[-70.6901,19.3518,360.8687],[-70.6774,19.3615,341.033],[-70.6632,19.3619,257.5238],[-70.6491,19.3329,282.1864],[-70.6383,19.3399,262.2634],[-70.6326,19.3502,252.0171],[-70.6321,19.354,242.2331]]]]}
,"properties": {"GID_2": "DOM.30.6_1","GID_0": "DOM","country": "DominicanRepublic","GID_1": "DOM.30_1","province": "Santiago","NL_NAME_1": "NA","county": "SantiagodelosCaballeros","VARNAME_2": "NA","NL_NAME_2": "NA","TYPE_2": "Municipio","ENGTYPE_2": "Municipality","CC_2": "NA","HASC_2": "DO.ST.SC","name": "Santiagodelos_Caballeros.county","area_km2": 483.6147,"hist_schema_id": "Elevation0-9000","hist_area_km2": {"100": 1.4989,"125": 18.0679,"150": 45.5933,"175": 66.29,"200": 85.4872,"225": 55.4212,"250": 39.1111,"275": 22.8357,"300": 12.7573,"325": 10.4368,"350": 9.096,"375": 7.4352,"400": 7.2937,"425": 7.3733,"450": 8.7921,"475": 8.212,"500": 7.5316,"525": 8.091,"550": 7.5116,"575": 7.1719,"600": 6.293,"625": 6.7125,"650": 5.6336,"675": 4.7347,"700": 5.5139,"725": 4.2154,"750": 3.9556,"775": 3.0766,"800": 2.3774,"825": 2.1376,"850": 1.2386,"875": 0.7791,"900": 0.5793,"925": 0.2397,"950": 0.0999,"975": 0.02}}}