{"type": "Feature","bbox": [-80.937,21.8199,-80.0279,22.5494],"geometry": {"type": "MultiPolygon","coordinates": [[[[-80.217,22.3468,113.5059],[-80.2244,22.3567,121.0002],[-80.2281,22.3702,112.9756],[-80.2257,22.3732,111.6249],[-80.2145,22.3749,114.9363],[-80.2108,22.3773,110.8465],[-80.2095,22.3882,105.3199],[-80.2112,22.3982,116.0499],[-80.2138,22.4038,111.894],[-80.226,22.4195,98.6534],[-80.2251,22.436,87.7369],[-80.2228,22.4461,79.9201],[-80.2242,22.4555,78.013],[-80.2315,22.4634,79.4095],[-80.2491,22.4699,77.0062],[-80.252,22.474,75.0896],[-80.252,22.4763,72.7489],[-80.248,22.4805,73.3058],[-80.2445,22.4897,68.6093],[-80.2462,22.4976,67.3747],[-80.2699,22.5327,61.3936],[-80.2806,22.539,62.6151],[-80.2878,22.5392,64.6446],[-80.2933,22.5364,68.5656],[-80.3094,22.5173,58.7213],[-80.3139,22.5063,56.0399],[-80.3148,22.4889,51.1688],[-80.3183,22.48,59.6619],[-80.3254,22.4761,54.4919],[-80.3335,22.4765,54.2311],[-80.3566,22.4821,53.0711],[-80.3681,22.4816,51.6479],[-80.3765,22.478,46.17],[-80.386,22.4701,45.3988],[-80.3952,22.4673,43.6757],[-80.4011,22.4676,39.736],[-80.4065,22.4731,35.1194],[-80.4091,22.4783,40.4008],[-80.4092,22.4825,42.7022],[-80.3946,22.4995,48.1198],[-80.3927,22.5107,53.5628],[-80.3943,22.5137,52.0154],[-80.4074,22.5176,56.4999],[-80.4103,22.5199,56.8843],[-80.4181,22.536,60.1163],[-80.4254,22.5438,71.9219],[-80.4345,22.5487,70.1068],[-80.4463,22.5494,73.5272],[-80.46,22.5477,73.7139],[-80.4692,22.5432,68.5703],[-80.4857,22.5288,70.3734],[-80.4959,22.5227,61.3619],[-80.5295,22.5168,63.2385],[-80.5346,22.5145,59.0001],[-80.5419,22.5067,63.4978],[-80.5458,22.4971,60.0195],[-80.5467,22.481,61.8112],[-80.5533,22.4676,61.7531],[-80.5688,22.452,63.5406],[-80.5857,22.4432,51.7834],[-80.7023,22.4364,50.4142],[-80.7304,22.4437,40.0558],[-80.7537,22.4401,45.0877],[-80.767,22.4399,42.5528],[-80.7823,22.4435,40.2289],[-80.7979,22.4574,39.1034],[-80.802,22.4597,33.4812],[-80.8107,22.461,36.6808],[-80.8241,22.4605,34.8612],[-80.8358,22.4562,28.8398],[-80.8733,22.4318,18.5046],[-80.9019,22.4175,15.4477],[-80.9178,22.4034,10.514],[-80.9214,22.3957,10.8075],[-80.9219,22.3756,9.796],[-80.9239,22.3655,9.5552],[-80.9259,22.3596,8.6406],[-80.9338,22.3477,12.9339],[-80.937,22.3367,6.0546],[-80.9349,22.3276,5.5599],[-80.9045,22.3281,9.5544],[-80.9006,22.3231,9.0545],[-80.9003,22.3087,6.4859],[-80.9129,22.2658,6.0527],[-80.9154,22.2519,5.7585],[-80.9149,22.2424,1.9724],[-80.9058,22.2237,1.9247],[-80.8954,22.2174,3.965],[-80.8783,22.1731,2.2696],[-80.8593,22.153,6.6854],[-80.8143,22.1154,1.7925],[-80.8099,22.1131,1.6884],[-80.8,22.1121,6.7997],[-80.7856,22.1232,1.6806],[-80.7797,22.1242,1.7518],[-80.7756,22.121,1.7345],[-80.7754,22.1101,2.0539],[-80.7718,22.1028,2.3618],[-80.7558,22.0965,6.553],[-80.7476,22.0914,5.6199],[-80.7425,22.0847,3.7725],[-80.7369,22.0836,2.201],[-80.7273,22.089,1.5968],[-80.6918,22.1031,1.7542],[-80.632,22.0996,1.7499],[-80.6195,22.0968,2.8297],[-80.6029,22.09,2.7192],[-80.5975,22.0836,12.2435],[-80.5926,22.0713,12.9217],[-80.5911,22.0479,0.0],[-80.5796,22.0546,0.8115],[-80.5599,22.0601,0.4267],[-80.544,22.0618,0.0],[-80.5201,22.0618,0.413],[-80.5026,22.0554,0.0],[-80.4979,22.0529,0.3861],[-80.4899,22.0451,0.0],[-80.4804,22.0421,7.8372],[-80.4774,22.0393,0.0],[-80.4626,22.0399,0.0],[-80.4604,22.041,0.0],[-80.4612,22.0471,3.7512],[-80.4596,22.0501,0.4892],[-80.461,22.0574,0.0],[-80.464,22.0626,2.6787],[-80.4601,22.071,0.0],[-80.4629,22.0743,11.1275],[-80.4662,22.0751,7.6553],[-80.4612,22.0757,0.0],[-80.4615,22.079,0.0],[-80.4762,22.0938,0.0],[-80.4807,22.094,0.0],[-80.4826,22.0926,0.0],[-80.4821,22.090699999999998,2.2498],[-80.4843,22.0924,4.9672],[-80.4829,22.0971,0.0],[-80.4887,22.1021,0.0],[-80.489,22.109,0.0],[-80.4851,22.1121,0.1863],[-80.4815,22.1085,0.0],[-80.4807,22.1096,0.0],[-80.4837,22.1132,0.1863],[-80.4876,22.1113,0.2469],[-80.4921,22.1113,3.6723],[-80.5046,22.1224,0.0],[-80.5096,22.1229,6.3273],[-80.5096,22.1274,5.6515],[-80.5071,22.1296,2.6211],[-80.5115,22.1318,15.0424],[-80.5137,22.1301,12.634],[-80.5132,22.1365,4.2305],[-80.5204,22.1354,19.0835],[-80.5221,22.1371,0.0],[-80.5207,22.141,4.9533],[-80.5215,22.144,0.0],[-80.5251,22.1437,34.2272],[-80.5312,22.1463,4.1857],[-80.5324,22.1488,0.0],[-80.5382,22.1524,0.0],[-80.5393,22.1579,1.921],[-80.5471,22.1562,1.4614],[-80.5488,22.1585,0.8183],[-80.5493,22.1707,0.0],[-80.5432,22.1765,4.3213],[-80.5404,22.1763,0.0],[-80.5399,22.181,1.1918],[-80.5376,22.1832,1.2216],[-80.5296,22.184,7.3843],[-80.524,22.1776,3.5237],[-80.5154,22.1754,0.3048],[-80.5135,22.1738,0.0],[-80.514,22.1704,0.0],[-80.5124,22.1674,0.0],[-80.5115,22.1685,0.0],[-80.5129,22.1757,1.2648],[-80.5115,22.1771,4.6297],[-80.5021,22.1793,6.7815],[-80.4993,22.1776,0.4845],[-80.4982,22.1796,6.3604],[-80.4868,22.1796,2.3343],[-80.4849,22.1765,3.0822],[-80.4871,22.1738,1.8464],[-80.4868,22.1699,2.0357],[-80.4846,22.1693,1.1268],[-80.4826,22.171,1.5838],[-80.4815,22.1699,0.0],[-80.4824,22.1679,0.0],[-80.4799,22.1674,1.7223],[-80.4788,22.164,0.0],[-80.4779,22.166,0.0],[-80.4724,22.1651,0.0],[-80.4713,22.1685,6.0957],[-80.4682,22.1693,1.8437],[-80.4696,22.1674,0.0],[-80.4687,22.1649,0.4421],[-80.4587,22.1601,1.307],[-80.4568,22.1557,0.0],[-80.4521,22.1593,3.7844],[-80.4518,22.1579,1.0946],[-80.4474,22.1562,0.0],[-80.4476,22.154,0.5092],[-80.4507,22.1537,0.0],[-80.4521,22.1501,3.7231],[-80.4535,22.151,0.0],[-80.4543,22.1499,1.7281],[-80.4554,22.1526,0.0],[-80.459,22.1526,0.0],[-80.4601,22.151,0.0],[-80.4582,22.1485,0.9245],[-80.4593,22.1454,2.542],[-80.4599,22.1476,0.0],[-80.4624,22.149,0.0],[-80.4651,22.1471,0.0],[-80.4676,22.1485,0.0],[-80.4668,22.1451,2.0923],[-80.4687,22.1437,0.0],[-80.4651,22.1426,0.0],[-80.466,22.1396,0.0],[-80.4638,22.1346,0.0],[-80.4618,22.1351,0.0],[-80.4607,22.1399,0.0],[-80.4501,22.141,3.9168],[-80.4515,22.1388,0.8242],[-80.4493,22.1379,1.6094],[-80.4496,22.1335,1.8875],[-80.4518,22.1318,1.3177],[-80.4518,22.1274,1.616],[-80.4538,22.1243,0.678],[-80.4535,22.1174,0.5288],[-80.4501,22.1213,0.0],[-80.4501,22.1235,0.0],[-80.4463,22.1251,0.0],[-80.4468,22.1268,1.9112],[-80.4451,22.1251,0.0],[-80.4349,22.1235,0.0],[-80.4362,22.1296,10.4157],[-80.4343,22.1279,0.6844],[-80.4304,22.1282,2.3881],[-80.4293,22.1251,0.0],[-80.4232,22.1251,2.8158],[-80.4232,22.1238,2.8158],[-80.4282,22.1218,0.0],[-80.4271,22.119,1.8098],[-80.4293,22.119,0.0],[-80.4313,22.1154,4.5691],[-80.4337,22.1162,1.4412],[-80.4351,22.1135,0.7927],[-80.4315,22.111,1.5507],[-80.4215,22.1126,3.3266],[-80.4165,22.1101,1.8717],[-80.4129,22.106,1.3804],[-80.4101,22.1065,0.8202],[-80.4082,22.1029,2.2687],[-80.4085,22.0974,1.5106],[-80.4026,22.0943,1.7939],[-80.4032,22.0918,1.2243],[-80.4068,22.089,0.6248],[-80.4151,22.0882,0.0],[-80.4101,22.0846,0.0],[-80.4096,22.0762,0.0],[-80.3993,22.0779,0.0],[-80.4018,22.0751,0.0],[-80.401,22.0707,8.4752],[-80.4065,22.0718,4.6978],[-80.4071,22.069,3.8943],[-80.4096,22.0704,0.0],[-80.4124,22.0688,2.8851],[-80.4129,22.0707,0.903],[-80.4182,22.0713,0.5816],[-80.4212,22.0685,13.4394],[-80.426,22.0693,0.0],[-80.4274,22.0663,6.7052],[-80.4282,22.0679,4.9051],[-80.4362,22.071,0.7952],[-80.4393,22.0699,0.0],[-80.4365,22.0676,0.0],[-80.4382,22.066,2.5168],[-80.4435,22.0679,1.578],[-80.446,22.071,0.0],[-80.456,22.0729,0.0],[-80.456,22.0699,5.2304],[-80.4615,22.0624,0.8944],[-80.4612,22.0607,2.6349],[-80.454,22.0521,11.6884],[-80.4535,22.0451,0.5647],[-80.4518,22.0424,2.0613],[-80.4435,22.0326,2.4545],[-80.441,22.0321,2.5771],[-80.4376,22.0357,10.2961],[-80.4326,22.0357,0.7558],[-80.429,22.0385,0.5367],[-80.4271,22.0371,6.5537],[-80.4224,22.0376,2.8137],[-80.4207,22.0349,0.0],[-80.4165,22.0343,2.6156],[-80.416,22.028199999999998,0.0],[-80.4096,22.0318,3.1612],[-80.406,22.0313,2.2062],[-80.4029,22.0265,11.2755],[-80.4054,22.0251,0.0],[-80.4068,22.0187,10.7795],[-80.411,22.0168,0.0],[-80.4101,22.0146,0.0],[-80.3865,21.9954,2.2491],[-80.3851,21.9912,0.0],[-80.3821,21.989,6.8451],[-80.3782,21.9824,1.7717],[-80.3646,21.9751,0.0],[-80.3601,21.9746,0.0],[-80.3599,21.9724,0.0],[-80.3562,21.9705,8.4665],[-80.354,21.965699999999998,0.0],[-80.3493,21.9665,2.0647],[-80.3407,21.9621,9.3928],[-80.3282,21.9415,0.6931],[-80.3257,21.9396,0.0],[-80.3187,21.939,24.2079],[-80.3151,21.9349,0.0],[-80.3107,21.9196,0.0],[-80.2893,21.8968,0.0],[-80.2776,21.8946,15.8213],[-80.2715,21.8907,2.3824],[-80.2674,21.8935,25.8882],[-80.2685,21.8885,0.9747],[-80.2635,21.8832,0.0],[-80.2496,21.8785,0.9093],[-80.2471,21.874,0.0],[-80.2404,21.8687,0.0],[-80.2332,21.8671,3.5287],[-80.2301,21.8638,4.8536],[-80.221,21.8651,1.1225],[-80.2135,21.8599,0.8278],[-80.2107,21.8618,2.8354],[-80.209,21.8604,0.9566],[-80.2101,21.8563,0.0],[-80.2043,21.8504,0.0],[-80.184,21.840699999999998,0.3861],[-80.1632,21.8346,1.968],[-80.1576,21.8307,1.3204],[-80.1507,21.8321,8.802],[-80.1518,21.8288,3.4635],[-80.1488,21.8237,0.0],[-80.1326,21.8207,1.226],[-80.1168,21.8207,1.4158],[-80.1129,21.8251,6.2431],[-80.1121,21.8229,5.2874],[-80.1069,21.8199,22.2404],[-80.1045,21.8405,36.0762],[-80.0967,21.8657,132.9019],[-80.0891,21.8767,175.1501],[-80.0781,21.8851,492.6927],[-80.061,21.8889,765.4108],[-80.0328,21.8911,570.1908],[-80.0279,21.8971,732.743],[-80.028,21.9033,716.174],[-80.0313,21.9135,725.9959],[-80.0463,21.9443,694.0741],[-80.0555,21.9719,537.8334],[-80.0623,21.9832,760.7859],[-80.0826,22.0042,738.5491],[-80.09,22.0156,683.082],[-80.0941,22.0314,657.4674],[-80.0924,22.0388,598.3844],[-80.0861,22.0513,461.7342],[-80.0884,22.0598,363.0],[-80.1007,22.0691,714.6038],[-80.1023,22.072,681.9034],[-80.1026,22.0847,487.3059],[-80.0909,22.1081,214.6882],[-80.0884,22.1223,300.7364],[-80.0919,22.1403,146.5483],[-80.1001,22.1593,104.2215],[-80.0919,22.1851,109.738],[-80.0902,22.1969,147.0114],[-80.0933,22.2116,182.6198],[-80.0995,22.223,186.321],[-80.1151,22.2407,130.7778],[-80.1238,22.258,101.6052],[-80.1273,22.2615,103.4433],[-80.1423,22.2666,83.1229],[-80.1468,22.2715,79.1062],[-80.1472,22.2759,77.0787],[-80.1442,22.2798,76.9081],[-80.1367,22.2826,90.2552],[-80.1101,22.2859,116.5897],[-80.1067,22.2892,114.5173],[-80.1068,22.2936,122.3988],[-80.1091,22.2977,118.5269],[-80.1141,22.2991,110.4862],[-80.1312,22.3004,81.0934],[-80.1881,22.3139,104.7545],[-80.2001,22.3223,94.3001],[-80.217,22.3468,113.5059]]],
[[[-80.4424,22.0771,0.0],[-80.4446,22.0768,0.1176],[-80.4429,22.0735,0.0],[-80.4418,22.0738,0.0],[-80.4424,22.0771,0.0]]],
[[[-80.4235,22.0812,0.0],[-80.4249,22.0821,0.0],[-80.4246,22.0776,0.0],[-80.4196,22.074,0.0],[-80.4174,22.0801,0.0],[-80.4221,22.0799,6.1755],[-80.4235,22.0812,0.0]]],
[[[-80.4574,22.0893,1.3726],[-80.4626,22.0888,0.0],[-80.4626,22.0851,0.0],[-80.4587,22.0846,0.0],[-80.4571,22.0865,4.6837],[-80.4574,22.0893,1.3726]]],
[[[-80.5007,22.1301,2.5357],[-80.5046,22.1304,0.7521],[-80.5029,22.1271,2.1628],[-80.5007,22.1274,2.2095],[-80.5007,22.1301,2.5357]]]]}
,"properties": {"GID_1": "CUB.3_1","GID_0": "CUB","country": "Cuba","province": "Cienfuegos","VARNAME_1": "NA","NL_NAME_1": "NA","TYPE_1": "Provincia","ENGTYPE_1": "Province","CC_1": "NA","HASC_1": "CU.CF","ISO_1": "CU-06","name": "Cienfuegos.province","area_km2": 4010.373,"hist_schema_id": "Elevation0-9000","hist_area_km2": {"0": 568.81,"25": 1068.832,"50": 1028.625,"75": 495.448,"100": 212.206,"125": 74.151,"150": 47.603,"175": 42.549,"200": 33.71,"225": 26.654,"250": 22.547,"275": 19.068,"300": 16.868,"325": 13.782,"350": 13.212,"375": 13.584,"400": 11.226,"425": 10.735,"450": 9.81,"475": 10.125,"500": 10.263,"525": 10.872,"550": 12.857,"575": 13.093,"600": 12.956,"625": 14.746,"650": 16.575,"675": 15.611,"700": 15.357,"725": 14.08,"750": 16.401,"775": 20.51,"800": 19.999,"825": 17.147,"850": 14.728,"875": 13.154,"900": 9.241,"925": 7.157,"950": 5.367,"975": 4.542,"1000": 2.713,"1025": 1.887,"1050": 0.963,"1075": 0.374,"1100": 0.236}}}