{"type":"Feature","properties":{"GID_2":"BLM.1.13_1","GID_0":"BLM","country":"Saint-Barthélemy","GID_1":"BLM.1_1","province":"AuVent","NL_NAME_1":"NA","county":"MontJean","VARNAME_2":"NA","NL_NAME_2":"NA","TYPE_2":"Quartier","ENGTYPE_2":"Quarter","CC_2":"NA","HASC_2":"NA","name":"Mont_Jean.county"},
"geometry":{"type": "MultiPolygon","coordinates": [[[[-62.8081,17.9156,2.8394],[-62.8085,17.9179,0.0],[-62.8104,17.9157,0.0],[-62.8127,17.9159,5.2777],[-62.8137,17.913,64.4858],[-62.8109,17.9127,65.0729],[-62.8081,17.9156,2.8394]]]]}}