{"type":"Feature","properties":{"GID_2":"MTQ.3.2_1","GID_0":"MTQ","country":"Martinique","GID_1":"MTQ.3_1","province":"LeTrinité","NL_NAME_1":"NA","county":"Gros-Morne","VARNAME_2":"NA","NL_NAME_2":"NA","TYPE_2":"Commune","ENGTYPE_2":"Commune","CC_2":"NA","HASC_2":"MQ.TR.GM","name":"Gros-Morne.county"},
"geometry":{"type": "MultiPolygon","coordinates": [[[[-60.9817,14.6915,217.4509],[-60.9757,14.6988,190.0435],[-61.0018,14.7294,187.4867],[-61.0359,14.7349,311.05],[-61.0585,14.7406,484.7904],[-61.0796,14.7268,746.1642],[-61.082,14.7272,719.2523],[-61.0864,14.7211,652.6214],[-61.0513,14.6969,400.5555],[-61.0416,14.6989,305.2904],[-61.016,14.6834,142.2489],[-60.9965,14.6755,56.2501],[-60.9817,14.6915,217.4509]]]]}}