{"type":"Feature","properties":{"GID_1":"AIA.17_1","GID_0":"AIA","country":"Anguilla","state":"ScrubIsland","VARNAME_1":"NA","NL_NAME_1":"NA","TYPE_1":"Island","ENGTYPE_1":"Island","CC_1":"NA","HASC_1":"NA","ISO_1":"NA","name":"ScrubIsland.state"},
"geometry":{"type": "MultiPolygon","coordinates": [[[[-62.9449,18.2961,1.7194],[-62.9575,18.2887,9.4725],[-62.9565,18.2829,0.0],[-62.9595,18.277,8.6409],[-62.9544,18.2753,0.0],[-62.949,18.2787,0.0],[-62.9464,18.2837,0.0],[-62.9336,18.2855,1.9071],[-62.9267,18.2898,0.0],[-62.9307,18.2944,0.0],[-62.9449,18.2961,1.7194]]]]}}