{"type": "Feature","bbox": [-62.8248,17.9006,-62.8185,17.9082],"geometry": {"type": "MultiPolygon","coordinates": [[[[-62.8215,17.9082,4.5063],[-62.8245,17.9068,5.9037],[-62.8248,17.9046,13.7599],[-62.823,17.9011,32.6645],[-62.8202,17.9006,45.8825],[-62.8185,17.9059,31.3045],[-62.8208,17.9063,13.6409],[-62.8215,17.9082,4.5063]]]]}
,"properties": {"GID_2": "BLM.1.11_1","GID_0": "BLM","country": "Saint-Barthélemy","GID_1": "BLM.1_1","province": "AuVent","NL_NAME_1": "NA","county": "Lorient","VARNAME_2": "NA","NL_NAME_2": "NA","TYPE_2": "Quartier","ENGTYPE_2": "Quarter","CC_2": "NA","HASC_2": "NA","name": "Lorient.county","area_km2": 0.3228069,"hist_schema_id": "Elevation0-9000","hist_area_km2": {"0": 0.0605254,"25": 0.0605264,"50": 0.080702,"75": 0.080702,"100": 0.0403511}}}