{"type":"Feature","properties":{"GID_2":"DOM.3.2_1","GID_0":"DOM","country":"DominicanRepublic","GID_1":"DOM.3_1","province":"Barahona","NL_NAME_1":"NA","county":"ElPeñón","VARNAME_2":"NA","NL_NAME_2":"NA","TYPE_2":"Distritomunicipal","ENGTYPE_2":"Municipaldistrict","CC_2":"NA","HASC_2":"DO.BH.EP","name":"El_Peñón.county"},
"geometry":{"type": "MultiPolygon","coordinates": [[[[-71.2011,18.3238,9.5762],[-71.2233,18.3152,5.5],[-71.226,18.312,31.2954],[-71.2235,18.3043,4.763],[-71.2096,18.3033,5.9858],[-71.2081,18.2939,5.5164],[-71.2041,18.2872,6.2231],[-71.2079,18.278,8.5337],[-71.2066,18.2717,7.9529],[-71.2189,18.266,6.4931],[-71.2229,18.2564,6.3506],[-71.2222,18.2537,7.0084],[-71.2168,18.2508,11.6738],[-71.2122,18.252,8.903],[-71.2099,18.2603,6.726],[-71.1972,18.2658,11.7571],[-71.1918,18.2727,6.9439],[-71.1857,18.2888,8.9485],[-71.1787,18.2922,9.2634],[-71.1697,18.2936,9.2364],[-71.157,18.2994,7.2891],[-71.1555,18.3052,8.9621],[-71.1605,18.3107,10.5965],[-71.1606,18.3141,11.0515],[-71.1497,18.3192,10.9201],[-71.144,18.3307,10.2981],[-71.1496,18.3312,10.9998],[-71.1554,18.3277,11.6288],[-71.1568,18.3243,11.5373],[-71.1598,18.3236,12.7953],[-71.2011,18.3238,9.5762]]]]}}