{"type": "Feature","bbox": [-62.8445,17.8707,-62.7893,17.9456],"geometry": {"type": "MultiPolygon","coordinates": [[[[-62.8346,17.8831,11.5893],[-62.8313,17.885,7.4182],[-62.828,17.8801,0.0],[-62.8262,17.8835,0.0],[-62.8242,17.8825,4.7633],[-62.8235,17.8863,0.0],[-62.8192,17.8879,5.8686],[-62.8177,17.8857,13.8001],[-62.8157,17.886,13.8001],[-62.8134,17.8817,0.0],[-62.8103,17.8833,10.8286],[-62.8088,17.8916,0.0],[-62.7962,17.8975,3.5866],[-62.7925,17.8941,0.0],[-62.7923,17.901,0.0],[-62.7893,17.9047,11.0347],[-62.7893,17.9107,0.0],[-62.796,17.9054,16.4502],[-62.7977,17.9126,0.0],[-62.8009,17.9085,6.4915],[-62.8034,17.9104,18.5365],[-62.8023,17.914,0.0],[-62.8084,17.9103,26.4184],[-62.8098,17.9115,32.9116],[-62.8069,17.9148,0.0],[-62.808,17.9176,0.0],[-62.8125,17.9155,5.2777],[-62.8147,17.9196,0.8666],[-62.8175,17.9173,16.7005],[-62.8174,17.9137,50.1568],[-62.8215,17.908,4.5063],[-62.8262,17.9069,7.492],[-62.8275,17.9096,0.0],[-62.8289,17.9094,3.1005],[-62.8337,17.9058,14.3048],[-62.8332,17.9035,10.6972],[-62.8365,17.9031,4.5321],[-62.8371,17.8981,12.3559],[-62.8329,17.8933,87.9276],[-62.8362,17.893,101.5179],[-62.8445,17.8865,43.916],[-62.8381,17.8784,0.0],[-62.8363,17.8785,0.0],[-62.8346,17.8831,11.5893]]],
[[[-62.8116,17.8709,0.0],[-62.8108,17.8707,0.0],[-62.8108,17.8709,0.0],[-62.812,17.8716,0.0],[-62.8116,17.8709,0.0]]],
[[[-62.8125,17.8749,1.4121],[-62.8139,17.8743,0.0],[-62.8111,17.8719,0.0],[-62.8117,17.8727,0.1089],[-62.8125,17.8749,1.4121]]],
[[[-62.8301,17.9412,13.8985],[-62.8321,17.9421,0.0],[-62.8351,17.9399,5.6024],[-62.8368,17.9404,0.0],[-62.8376,17.9375,0.0],[-62.8307,17.9397,1.0963],[-62.8301,17.9412,13.8985]]],
[[[-62.8176,17.944,0.0],[-62.819,17.9439,1.2775],[-62.8199,17.9427,0.0],[-62.8174,17.9423,0.0],[-62.8176,17.944,0.0]]],
[[[-62.7973,17.9187,0.0],[-62.7974,17.9213,2.9119],[-62.7989,17.9209,2.9119],[-62.8003,17.9175,0.0],[-62.7997,17.9184,0.0],[-62.7973,17.9187,0.0]]],
[[[-62.8184,17.9411,0.0],[-62.8177,17.9405,0.0],[-62.8173,17.9409,0.0],[-62.8178,17.9415,0.0],[-62.8184,17.9411,0.0]]],
[[[-62.8182,17.9455,0.0],[-62.8188,17.9456,0.0],[-62.8193,17.9444,1.2775],[-62.8183,17.9442,1.2775],[-62.8182,17.9455,0.0]]]]}
,"properties": {"GID_1": "BLM.1_1","GID_0": "BLM","country": "Saint-Barthélemy","province": "AuVent","VARNAME_1": "NA","NL_NAME_1": "NA","TYPE_1": "Paroisse","ENGTYPE_1": "Parish","CC_1": "NA","HASC_1": "NA","ISO_1": "NA","name": "Au_Vent.province","area_km2": 12.791581,"hist_schema_id": "Elevation0-9000","hist_area_km2": {"0": 2.421076,"25": 2.683393,"50": 2.118493,"75": 1.876357,"100": 1.29127,"125": 1.170235,"150": 0.564941,"175": 0.383352,"200": 0.181586,"225": 0.080703,"275": 0.020176}}}