{"type":"Feature","properties":{"GID_2":"DOM.28.3_1","GID_0":"DOM","country":"DominicanRepublic","GID_1":"DOM.28_1","province":"SánchezRamírez","NL_NAME_1":"NA","county":"Fantino","VARNAME_2":"NA","NL_NAME_2":"NA","TYPE_2":"Municipio","ENGTYPE_2":"Municipality","CC_2":"NA","HASC_2":"DO.SZ.FA","name":"Fantino.county"},
"geometry":{"type": "MultiPolygon","coordinates": [[[[-70.2485,19.1559,40.6054],[-70.2589,19.1537,49.8932],[-70.2645,19.158,47.3031],[-70.2673,19.1575,44.0332],[-70.2753,19.1504,45.4703],[-70.2713,19.1458,45.0847],[-70.2673,19.144,47.0311],[-70.2666,19.1408,51.1654],[-70.2747,19.1371,51.7759],[-70.2833,19.1393,48.2986],[-70.294,19.1367,47.93],[-70.2955,19.1384,48.9448],[-70.2944,19.1423,47.1288],[-70.2959,19.1441,48.5809],[-70.3087,19.1476,49.4766],[-70.3135,19.1463,49.3328],[-70.324,19.1378,50.4117],[-70.3312,19.1218,54.7965],[-70.3304,19.1187,57.1395],[-70.3247,19.1129,57.2796],[-70.3244,19.1101,56.5332],[-70.3312,19.1026,61.318],[-70.3354,19.0928,76.1134],[-70.3399,19.0884,75.3471],[-70.342,19.0824,79.1713],[-70.3527,19.0763,86.0645],[-70.3499,19.071,94.4286],[-70.3494,19.0644,92.5899],[-70.3531,19.0506,148.5909],[-70.3582,19.0474,167.0865],[-70.3659,19.0463,334.2765],[-70.367,19.0442,371.3197],[-70.3655,19.0414,306.465],[-70.3607,19.0385,338.1138],[-70.3517,19.043,252.9916],[-70.3409,19.0414,191.2502],[-70.3219,19.0573,94.0849],[-70.3101,19.0546,84.3517],[-70.3034,19.055,81.6968],[-70.3023,19.0596,78.3972],[-70.3078,19.0682,73.4421],[-70.305,19.0773,70.8055],[-70.299,19.0744,69.524],[-70.2889,19.0595,83.9669],[-70.278,19.0517,95.948],[-70.2636,19.0528,126.1326],[-70.261,19.0589,196.0142],[-70.2716,19.0643,172.8279],[-70.2779,19.078,257.2563],[-70.2784,19.0858,114.8552],[-70.2751,19.0883,101.5842],[-70.27,19.0841,168.8229],[-70.2666,19.0857,137.745],[-70.2625,19.0971,82.6478],[-70.2552,19.1083,53.6317],[-70.2537,19.1161,46.6992],[-70.2462,19.1279,41.682],[-70.243,19.1371,51.982],[-70.2411,19.1516,41.111],[-70.2485,19.1559,40.6054]]]]}}