{"type":"Feature","properties":{"GID_1":"BHS.2_1","GID_0":"BHS","country":"Bahamas","state":"BerryIslands","VARNAME_1":"NA","NL_NAME_1":"NA","TYPE_1":"District","ENGTYPE_1":"District","CC_1":"NA","HASC_1":"BS.BR","ISO_1":"NA","name":"BerryIslands.state"},
"geometry":{"type": "MultiPolygon","coordinates": [[[[-77.806,25.4135,0.0],[-77.8115,25.4149,0.8709],[-77.814,25.4121,1.0946],[-77.8087,25.4112,0.0],[-77.806,25.4135,0.0]]],
[[[-77.7574,25.4436,0.0],[-77.7568,25.4449,0.0],[-77.7582,25.4449,0.0],[-77.7643,25.4418,0.0],[-77.7635,25.4382,0.0],[-77.7676,25.4307,0.0],[-77.7657,25.429,0.0],[-77.7651,25.4235,1.8941],[-77.7676,25.4188,0.0],[-77.7832,25.4135,0.0],[-77.7821,25.4118,0.0],[-77.786,25.4068,0.7005],[-77.7937,25.4062,0.7037],[-77.7982,25.4096,0.0],[-77.8001,25.4068,2.466],[-77.7988,25.4013,0.0],[-77.8021,25.3999,1.7916],[-77.7996,25.3973,3.5134],[-77.801,25.394,0.0],[-77.7926,25.3968,0.0],[-77.7887,25.4004,1.6037],[-77.7829,25.4015,0.0],[-77.7796,25.4085,0.0],[-77.7712,25.4154,0.0],[-77.764,25.4171,3.4035],[-77.7585,25.4151,0.0],[-77.7613,25.4387,7.5625],[-77.7574,25.4436,0.0]]],
[[[-77.7712,25.4346,0.0],[-77.7729,25.4354,0.3393],[-77.7743,25.4332,0.0],[-77.7718,25.4293,0.0],[-77.7701,25.4318,0.0],[-77.7712,25.4346,0.0]]],
[[[-77.7551,25.4513,0.5436],[-77.7543,25.4527,0.0],[-77.7612,25.4507,0.0],[-77.7624,25.4482,0.0],[-77.7599,25.446,1.5982],[-77.7571,25.446,1.0699],[-77.7579,25.4476,2.029],[-77.7551,25.4513,0.5436]]],
[[[-77.7876,25.4665,0.0],[-77.7871,25.4676,0.0],[-77.7885,25.4676,0.0],[-77.7912,25.4643,0.8236],[-77.801,25.4604,0.0],[-77.7957,25.4596,3.1083],[-77.794,25.4568,0.0],[-77.7937,25.4585,0.0],[-77.7915,25.4588,0.8654],[-77.7876,25.4665,0.0]]],
[[[-77.7812,25.4747,0.0],[-77.7807,25.4774,0.0],[-77.7818,25.4774,0.0],[-77.7832,25.4754,0.0],[-77.7824,25.474,0.0],[-77.7812,25.4747,0.0]]],
[[[-77.8138,25.4971,0.5059],[-77.8126,25.4971,0.5059],[-77.8129,25.5007,0.0],[-77.8157,25.499,0.0],[-77.8157,25.4968,0.0],[-77.8138,25.4971,0.5059]]],
[[[-77.799,25.5028,0.2638],[-77.8018,25.5041,0.0],[-77.8093,25.5027,0.0],[-77.8112,25.501,0.0],[-77.7937,25.4988,0.5834],[-77.789,25.4996,0.1832],[-77.7896,25.5012,0.0],[-77.7971,25.5007,0.0],[-77.799,25.5028,0.2638]]],
[[[-77.7143,25.5187,0.0],[-77.7151,25.5238,0.0],[-77.7174,25.5204,8.609],[-77.7246,25.5185,6.6415],[-77.7265,25.5115,0.0],[-77.724,25.5101,12.2777],[-77.7251,25.5054,1.5663],[-77.7235,25.5027,4.9596],[-77.7243,25.4896,0.7243],[-77.7304,25.4824,0.0],[-77.7393,25.4799,0.0],[-77.7393,25.4757,0.0],[-77.7424,25.4726,0.0],[-77.7393,25.4721,1.7085],[-77.7401,25.4696,2.705],[-77.739,25.4682,0.0],[-77.7357,25.4679,0.0],[-77.7315,25.4779,2.8301],[-77.7243,25.4819,0.0],[-77.721,25.4874,3.8113],[-77.7193,25.4871,0.5237],[-77.7213,25.5026,3.1254],[-77.7185,25.5149,12.1836],[-77.7143,25.5187,0.0]]],
[[[-77.7112,25.5532,0.483],[-77.7107,25.5546,0.0],[-77.7146,25.551,1.3247],[-77.7149,25.5421,2.262],[-77.7135,25.5396,1.3172],[-77.7157,25.5396,0.0],[-77.7157,25.5432,2.262],[-77.7193,25.5407,0.0],[-77.716,25.5371,1.3052],[-77.7149,25.529,0.0],[-77.7135,25.529,0.0],[-77.7112,25.5532,0.483]]],
[[[-77.7232,25.5776,1.9356],[-77.7237,25.579,9.0615],[-77.7249,25.5765,0.0],[-77.7237,25.5732,1.1945],[-77.7262,25.5707,0.0],[-77.721,25.5674,0.4158],[-77.7213,25.5654,0.0],[-77.7193,25.5637,0.0],[-77.719,25.5685,0.0],[-77.721,25.5701,1.1289],[-77.7232,25.5776,1.9356]]],
[[[-77.729,25.5821,4.0754],[-77.7296,25.5843,0.0],[-77.731,25.5843,0.0],[-77.7324,25.5785,0.0],[-77.7276,25.5726,0.0],[-77.7262,25.5782,3.7493],[-77.729,25.5821,4.0754]]],
[[[-77.726,25.5923,0.0],[-77.7274,25.5929,0.0],[-77.7282,25.590699999999998,0.0],[-77.7262,25.5896,0.0],[-77.7259,25.5852,2.3293],[-77.7229,25.5829,5.9916],[-77.7243,25.5799,0.0],[-77.7226,25.579,9.0615],[-77.7201,25.5701,1.1289],[-77.7187,25.5699,0.0],[-77.7187,25.5654,1.4204],[-77.7171,25.564,8.6483],[-77.7135,25.5643,0.0],[-77.7121,25.5663,1.6997],[-77.7157,25.5707,0.0],[-77.7193,25.5854,0.0],[-77.7232,25.5893,0.0],[-77.7226,25.5915,0.0],[-77.7254,25.591,1.0533],[-77.726,25.5923,0.0]]],
[[[-77.7274,25.6057,1.0791],[-77.7285,25.6071,0.0],[-77.7318,25.606,0.6358],[-77.731,25.5979,0.0],[-77.7285,25.594,0.0],[-77.724,25.5929,0.0],[-77.7234,25.5951,0.0],[-77.7274,25.6057,1.0791]]],
[[[-77.736,25.6065,0.0],[-77.7379,25.6074,0.0],[-77.7374,25.6038,0.0],[-77.7357,25.604,0.0],[-77.736,25.6065,0.0]]],
[[[-77.7335,25.6099,0.0],[-77.734,25.611,0.0],[-77.736,25.6101,4.9618],[-77.7321,25.606,0.6358],[-77.7315,25.6071,0.0],[-77.7335,25.6099,0.0]]],
[[[-77.8771,25.396,0.0],[-77.8757,25.3977,0.0],[-77.8801,25.3965,0.0],[-77.8796,25.3957,0.0],[-77.8771,25.396,0.0]]],
[[[-77.9187,25.4082,0.0],[-77.9193,25.409,0.0],[-77.9235,25.4071,0.0],[-77.9201,25.4071,0.0],[-77.9187,25.4082,0.0]]],
[[[-77.9049,25.4229,0.1361],[-77.904,25.4246,0.2925],[-77.9065,25.4246,0.3818],[-77.9074,25.4226,3.8617],[-77.9124,25.4232,0.0],[-77.9101,25.4218,2.4132],[-77.9085,25.4149,0.0],[-77.8976,25.4218,0.0102],[-77.8982,25.4229,0.0203],[-77.9049,25.4229,0.1361]]],
[[[-77.8249,25.4403,0.0],[-77.8257,25.4415,0.0],[-77.8285,25.4396,2.0626],[-77.8346,25.4401,0.3405],[-77.8368,25.4385,0.194],[-77.8384,25.4279,1.4494],[-77.8407,25.4241,6.2763],[-77.8426,25.4241,0.0],[-77.8468,25.4168,3.1911],[-77.8515,25.4149,0.8806],[-77.8579,25.4176,0.0],[-77.866,25.4165,0.4048],[-77.8943,25.4218,0.096],[-77.9096,25.4135,0.0],[-77.9074,25.4093,0.0],[-77.9107,25.406,0.0],[-77.8979,25.4105,4.7219],[-77.8863,25.4118,1.1873],[-77.8799,25.4093,1.5436],[-77.8793,25.4054,0.0],[-77.8765,25.4071,3.0204],[-77.8676,25.4074,0.4069],[-77.8657,25.4046,0.0],[-77.8532,25.4085,0.0],[-77.851,25.4085,0.0],[-77.8499,25.4051,0.0],[-77.8482,25.4051,0.0],[-77.8465,25.4124,0.6171],[-77.8393,25.4188,1.7958],[-77.8379,25.4235,0.0],[-77.8362,25.4232,0.0],[-77.834,25.4271,1.374],[-77.8335,25.4318,0.0],[-77.8288,25.4337,0.0],[-77.8249,25.4403,0.0]]],
[[[-77.8121,25.4096,0.0],[-77.8149,25.4115,0.0],[-77.8185,25.3987,1.5474],[-77.8271,25.3971,0.0],[-77.8332,25.3935,0.0],[-77.8349,25.3901,0.0],[-77.819,25.3976,0.6147],[-77.8132,25.3974,0.3023],[-77.8076,25.3999,0.0],[-77.809,25.4021,1.7033],[-77.8084,25.4049,0.0],[-77.811,25.4057,1.8597],[-77.8121,25.4096,0.0]]],
[[[-77.846,25.4507,0.0],[-77.8518,25.4507,0.0],[-77.8565,25.4471,0.0],[-77.846,25.4488,0.0],[-77.846,25.4507,0.0]]],
[[[-77.8407,25.4689,0.0],[-77.8457,25.4682,0.0],[-77.8468,25.4649,0.0],[-77.8443,25.465699999999998,0.1878],[-77.8407,25.4689,0.0]]],
[[[-77.8301,25.4765,0.0],[-77.8324,25.4771,0.0],[-77.8337,25.4749,0.3692],[-77.8399,25.4721,0.1459],[-77.8349,25.471,0.0],[-77.831,25.4732,0.0],[-77.8301,25.4765,0.0]]],
[[[-77.9263,25.4298,0.8005],[-77.9296,25.4301,0.0],[-77.9249,25.4276,0.3156],[-77.9232,25.4285,0.0],[-77.9234,25.4293,0.0],[-77.9263,25.4298,0.8005]]],
[[[-77.851,25.4615,0.3278],[-77.8501,25.4638,0.0],[-77.854,25.4621,0.0],[-77.8604,25.4524,0.0],[-77.8582,25.4526,0.5027],[-77.851,25.4615,0.3278]]],
[[[-78.0318,25.4674,0.0],[-78.0324,25.4699,0.0],[-78.0335,25.4699,0.0],[-78.0335,25.4671,0.2601],[-78.0318,25.4674,0.0]]],
[[[-77.8756,25.7627,0.0],[-77.8779,25.7624,0.0],[-77.8749,25.759,0.0],[-77.8732,25.7596,0.0],[-77.8732,25.7613,0.0],[-77.8756,25.7627,0.0]]],
[[[-77.8174,25.4926,0.401],[-77.8162,25.4946,0.0],[-77.8187,25.4938,0.0],[-77.819,25.4921,0.0],[-77.8174,25.4926,0.401]]],
[[[-77.8349,25.6755,0.0],[-77.8365,25.6763,1.8739],[-77.8376,25.671,1.2953],[-77.8446,25.6707,0.2382],[-77.8449,25.6685,0.9882],[-77.8426,25.6638,0.6645],[-77.8354,25.6638,0.4698],[-77.8374,25.6626,0.0],[-77.8335,25.659,0.0],[-77.8349,25.6565,0.0],[-77.8254,25.6465,0.0],[-77.8246,25.6504,0.4834],[-77.829,25.6551,1.9738],[-77.8288,25.6557,0.8019],[-77.8268,25.6543,0.0],[-77.8265,25.6551,0.0],[-77.831,25.661,0.0],[-77.8349,25.6755,0.0]]],
[[[-77.8307,25.6876,0.0],[-77.831,25.6899,0.0],[-77.8326,25.6904,0.9824],[-77.8396,25.6901,0.6714],[-77.8429,25.6885,0.9756],[-77.844,25.6824,0.0],[-77.8368,25.6807,3.5055],[-77.8365,25.6771,0.0],[-77.8354,25.6771,0.0],[-77.8343,25.6832,1.2175],[-77.8307,25.6876,0.0]]],
[[[-77.8349,25.699,1.6125],[-77.8337,25.6999,1.6125],[-77.8382,25.699,0.3445],[-77.8382,25.6977,1.0279],[-77.836,25.6971,1.2716],[-77.8379,25.696,0.4666],[-77.8365,25.6929,0.0],[-77.8329,25.6946,1.3414],[-77.8318,25.6924,1.8098],[-77.829,25.6921,3.8217],[-77.8268,25.6946,0.0],[-77.8306,25.6974,0.0],[-77.8337,25.6974,1.2011],[-77.8349,25.699,1.6125]]],
[[[-77.7312,25.6153,1.1725],[-77.7332,25.6149,0.0],[-77.7301,25.6099,0.0],[-77.7304,25.6141,1.1725],[-77.7312,25.6153,1.1725]]],
[[[-77.749,25.6546,1.738],[-77.7515,25.6549,1.0197],[-77.751,25.6365,0.0],[-77.7465,25.6354,3.2376],[-77.7457,25.6307,0.0],[-77.7421,25.6274,0.6668],[-77.7412,25.6187,0.0],[-77.739,25.6182,0.0],[-77.7387,25.6149,0.0],[-77.7354,25.6151,0.7708],[-77.7348,25.6171,10.7867],[-77.7329,25.6163,0.0],[-77.7333,25.6185,0.0],[-77.7382,25.631,0.0],[-77.7454,25.6379,11.1311],[-77.749,25.6546,1.738]]],
[[[-77.7524,25.6615,0.0],[-77.7543,25.6635,0.0],[-77.7549,25.6615,0.0],[-77.7532,25.659,0.0],[-77.7524,25.6615,0.0]]],
[[[-77.7588,25.6774,0.0],[-77.7604,25.6785,0.7665],[-77.761,25.6757,4.3938],[-77.7565,25.6669,1.569],[-77.7588,25.6632,0.8138],[-77.7554,25.6626,0.9383],[-77.754,25.6651,1.349],[-77.7588,25.6774,0.0]]],
[[[-77.7749,25.6763,0.6997],[-77.7765,25.6771,0.0],[-77.7768,25.6749,1.1257],[-77.7712,25.6735,0.0],[-77.7718,25.6755,0.0],[-77.7735,25.6749,2.4362],[-77.7749,25.6763,0.6997]]],
[[[-77.7832,25.6765,0.5123],[-77.7846,25.6771,0.0],[-77.784,25.6746,0.0],[-77.7804,25.6741,0.6008],[-77.7804,25.6757,0.0],[-77.7832,25.6765,0.5123]]],
[[[-77.8271,25.7035,7.0938],[-77.8332,25.7043,0.0],[-77.8229,25.6968,0.0],[-77.8243,25.6954,0.0],[-77.8182,25.696,0.0],[-77.8185,25.6974,0.0],[-77.8226,25.6988,0.0267],[-77.824,25.7018,0.7191],[-77.8271,25.7035,7.0938]]],
[[[-77.819,25.7482,1.1738],[-77.8182,25.7499,0.0],[-77.8218,25.7491,0.0],[-77.8204,25.7474,1.1738],[-77.821,25.744,0.0],[-77.8179,25.7407,0.0],[-77.8179,25.7443,1.9354],[-77.8163,25.7463,0.0],[-77.8185,25.7457,0.0],[-77.819,25.7482,1.1738]]],
[[[-77.8879,25.8157,0.0],[-77.8904,25.8162,0.0],[-77.8852,25.8082,0.0],[-77.8871,25.7982,0.0],[-77.886,25.7868,1.5353],[-77.8871,25.7857,2.3914],[-77.8885,25.7913,0.0],[-77.8896,25.7871,0.4745],[-77.8918,25.7896,0.0],[-77.8968,25.8068,0.0],[-77.8982,25.8071,0.0],[-77.899,25.8051,0.0],[-77.8965,25.7901,0.0],[-77.8943,25.7857,0.5611],[-77.8918,25.7849,9.1528],[-77.8929,25.7818,0.0],[-77.8904,25.7804,7.5821],[-77.8893,25.7774,2.898],[-77.8904,25.7735,0.0],[-77.8885,25.7718,4.5379],[-77.8893,25.7696,0.0],[-77.8879,25.7676,0.0],[-77.889,25.7629,0.0],[-77.8865,25.766,2.8852],[-77.8829,25.7668,0.0],[-77.8812,25.7707,0.9838],[-77.8796,25.7707,2.3997],[-77.8735,25.7629,1.2239],[-77.8712,25.7624,0.0],[-77.8785,25.7771,8.3481],[-77.879,25.7843,0.1695],[-77.881,25.7857,1.7377],[-77.8796,25.7885,0.3566],[-77.8815,25.7899,1.1235],[-77.8796,25.7913,1.1376],[-77.8782,25.7896,4.7587],[-77.8785,25.7804,4.5466],[-77.8757,25.7832,4.1673],[-77.8729,25.7804,1.5301],[-77.8721,25.7754,1.007],[-77.8668,25.7687,3.9017],[-77.8618,25.7585,7.2266],[-77.8621,25.7554,3.0475],[-77.864,25.7568,1.0036],[-77.8651,25.7549,0.5975],[-77.8621,25.7526,1.5649],[-77.8604,25.7474,0.7064],[-77.8635,25.7474,0.0],[-77.8643,25.7504,2.4008],[-77.8679,25.7499,2.4483],[-77.8665,25.7515,0.0],[-77.8676,25.7538,1.2906],[-77.8654,25.7546,0.5975],[-77.8654,25.7565,1.0036],[-77.8685,25.7568,8.3394],[-77.8668,25.7585,0.1141],[-77.8682,25.7596,2.0274],[-77.8668,25.7615,0.0],[-77.8685,25.7626,2.6972],[-77.8668,25.7635,0.0],[-77.8701,25.7649,1.2726],[-77.8685,25.7676,1.0006],[-77.8724,25.7754,1.9408],[-77.8746,25.7765,0.7019],[-77.8696,25.7607,3.6157],[-77.8712,25.756,0.6689],[-77.8737,25.7574,0.0],[-77.8726,25.7501,0.0],[-77.8682,25.7474,4.2643],[-77.8685,25.7446,0.0],[-77.8623,25.7441,6.8281],[-77.8535,25.7365,1.2011],[-77.8568,25.736,0.0],[-77.8582,25.7335,10.9526],[-77.8615,25.7346,0.7265],[-77.8624,25.7318,0.0],[-77.8562,25.7283,0.6188],[-77.8554,25.7232,1.084],[-77.8526,25.7221,8.893],[-77.851,25.7182,0.0],[-77.846,25.7187,0.0],[-77.8437,25.7152,0.0],[-77.8409,25.7163,1.4327],[-77.8365,25.7154,0.0],[-77.8354,25.7074,0.0],[-77.8251,25.7038,0.5743],[-77.8207,25.6988,0.8678],[-77.8185,25.6993,0.0],[-77.8204,25.7015,0.2037],[-77.8174,25.7013,0.0],[-77.8143,25.6951,5.0464],[-77.8099,25.6924,0.0],[-77.8163,25.7126,3.7214],[-77.8182,25.7399,0.0],[-77.8221,25.7405,0.0],[-77.8215,25.7365,1.776],[-77.8274,25.7301,0.5235],[-77.8276,25.7319,0.2539],[-77.8299,25.7321,0.9461],[-77.8238,25.7365,0.7171],[-77.8238,25.7385,1.2446],[-77.8329,25.7376,0.0],[-77.8435,25.7438,4.2209],[-77.8493,25.7546,0.0],[-77.849,25.7641,0.0],[-77.8587,25.7682,5.7393],[-77.8671,25.7743,0.0],[-77.8665,25.7757,0.0],[-77.8687,25.7765,4.9521],[-77.8804,25.7985,0.9404],[-77.8821,25.806,0.0],[-77.8812,25.8085,0.0],[-77.8826,25.809,5.2377],[-77.8818,25.8115,0.0],[-77.8879,25.8157,0.0]]],
[[[-77.8324,25.7732,0.0],[-77.8357,25.7743,0.0],[-77.8379,25.7726,0.0],[-77.8362,25.7701,0.0],[-77.8346,25.7704,1.2367],[-77.8349,25.7679,0.0],[-77.8329,25.7676,0.2735],[-77.8324,25.769,0.0],[-77.8329,25.7671,0.2735],[-77.8299,25.7663,0.0],[-77.8315,25.7726,0.0],[-77.8324,25.7732,0.0]]],
[[[-77.8799,25.7668,0.0],[-77.8812,25.7674,0.0],[-77.8824,25.766,0.7635],[-77.8782,25.7657,0.0],[-77.8799,25.7668,0.0]]],
[[[-77.9032,25.8118,1.4511],[-77.9046,25.8124,0.0],[-77.9046,25.8099,0.0],[-77.9013,25.8082,0.0],[-77.9004,25.811,0.0],[-77.9032,25.8118,1.4511]]],
[[[-77.9307,25.8212,0.0],[-77.9296,25.8224,0.0],[-77.9401,25.8201,3.0195],[-77.9493,25.8151,0.0],[-77.9471,25.8137,0.0],[-77.9435,25.8157,6.2714],[-77.936,25.8154,0.0],[-77.9321,25.8174,0.0],[-77.934,25.8204,2.5938],[-77.9307,25.8212,0.0]]],
[[[-77.9088,25.8276,0.0],[-77.9151,25.8279,0.0],[-77.9135,25.8271,0.0],[-77.9143,25.8243,4.2906],[-77.9196,25.8249,0.9348],[-77.9265,25.8218,0.0],[-77.914,25.8201,0.0],[-77.9146,25.8226,5.3035],[-77.9074,25.8235,0.0],[-77.9001,25.8213,4.4056],[-77.899,25.8185,0.0],[-77.8971,25.8182,0.0],[-77.8976,25.8196,3.0679],[-77.8949,25.8196,0.0],[-77.8962,25.8201,0.0],[-77.8946,25.8207,0.0],[-77.8954,25.8227,2.7847],[-77.8932,25.8224,0.0],[-77.9088,25.8276,0.0]]]]}}