{"type":"Feature","properties":{"ISO3166-1-Alpha-3":"BHS","country":"The Bahamas","fill":"#F0F","id":"5018","name":"Berry Islands"},
"geometry":{"type": "MultiPolygon","coordinates": [[[[-77.84215,25.42324,0.0],[-77.83682,25.43452,0.6375],[-77.83959,25.43496,0.0],[-77.84728,25.42585,0.0],[-77.85912,25.41926,0.0],[-77.87483,25.41828,0.3171],[-77.8863,25.41918,0.605],[-77.8924,25.41869,0.4874],[-77.90001,25.41547,3.4602],[-77.90587,25.41096,2.2199],[-77.90673,25.40908,3.1874],[-77.88842,25.40876,0.0],[-77.87951,25.40786,0.0],[-77.86413,25.4079,0.7372],[-77.85204,25.41275,3.699],[-77.84215,25.42324,0.0]]],
[[[-77.82087,25.71662,1.3445],[-77.85827,25.77729,0.0],[-77.86803,25.78742,0.0],[-77.88069,25.78954,1.1235],[-77.88732,25.78144,11.9408],[-77.88048,25.76899,0.0],[-77.8601,25.74852,0.7064],[-77.84406,25.72207,1.0217],[-77.83145,25.70869,1.8143],[-77.8192,25.70759,1.6759],[-77.82087,25.71662,1.3445]]]]}}