{"type": "Feature","bbox": [-72.6002,18.9142,-72.2196,19.2248],"geometry": {"type": "MultiPolygon","coordinates": [[[[-72.2259,18.9582,193.2723],[-72.2343,18.9643,244.0131],[-72.2382,18.9702,324.186],[-72.241,18.985,568.8873],[-72.237,18.993,540.8298],[-72.2378,19.002,478.0214],[-72.2445,19.0104,734.866],[-72.2445,19.0172,1003.5806],[-72.2485,19.0268,804.2748],[-72.2454,19.033,907.7934],[-72.2385,19.0367,933.16],[-72.2414,19.0434,916.2032],[-72.2401,19.0497,1089.7205],[-72.2325,19.0558,1261.7169],[-72.2288,19.0627,1516.3022],[-72.2267,19.0725,1381.7606],[-72.2218,19.0803,1161.0626],[-72.2217,19.0833,1139.1475],[-72.2385,19.0998,1058.5968],[-72.2406,19.1156,656.2697],[-72.2394,19.1179,609.8057],[-72.2208,19.1271,464.2905],[-72.2196,19.1309,502.7168],[-72.2312,19.1419,720.7504],[-72.2425,19.1561,537.8043],[-72.255,19.161,399.022],[-72.2544,19.1669,342.4552],[-72.257,19.1702,396.5035],[-72.2618,19.1696,395.9804],[-72.2686,19.1626,449.4851],[-72.2736,19.1621,516.9338],[-72.2749,19.1567,495.4439],[-72.2837,19.1589,515.4831],[-72.2931,19.1537,487.7207],[-72.2982,19.1529,565.7866],[-72.3029,19.149,539.0621],[-72.3067,19.1428,549.6015],[-72.3096,19.1284,619.6304],[-72.3126,19.1227,601.9195],[-72.3181,19.1188,783.5508],[-72.3228,19.1209,825.078],[-72.3214,19.1141,748.1143],[-72.3347,19.1098,404.0833],[-72.3419,19.1173,655.9826],[-72.3547,19.1198,501.5283],[-72.3606,19.1254,555.1276],[-72.3667,19.1281,471.1987],[-72.3705,19.1325,485.2867],[-72.3754,19.1319,310.6112],[-72.3782,19.1349,248.2911],[-72.382,19.1347,254.0108],[-72.3898,19.1379,261.2908],[-72.3968,19.143,239.7992],[-72.4042,19.1347,434.5301],[-72.4137,19.1312,432.0358],[-72.4218,19.1302,416.7509],[-72.4278,19.1336,320.131],[-72.4342,19.1311,138.429],[-72.4402,19.1324,126.4418],[-72.4426,19.1314,55.1859],[-72.4514,19.1409,173.5386],[-72.4493,19.148,121.1724],[-72.4458,19.1518,194.2898],[-72.4459,19.1546,132.8907],[-72.4523,19.1689,230.5674],[-72.4569,19.1728,180.0771],[-72.4715,19.1762,17.9765],[-72.4908,19.1758,21.6928],[-72.4935,19.177,18.0146],[-72.4963,19.1843,18.5228],[-72.5006,19.1891,16.741],[-72.507,19.1879,17.0386],[-72.5112,19.1912,15.7245],[-72.5142,19.1964,15.5797],[-72.5181,19.1931,13.6923],[-72.5227,19.1935,12.8743],[-72.5246,19.1987,13.0492],[-72.5276,19.199,12.0577],[-72.5311,19.204,13.5671],[-72.5394,19.2104,10.9305],[-72.5403,19.2149,10.681],[-72.5363,19.2221,10.4743],[-72.539,19.2248,10.705],[-72.549,19.2184,9.5976],[-72.5525,19.187,11.4081],[-72.6002,19.167,12.1189],[-72.6,19.1585,13.0758],[-72.5974,19.1502,16.3491],[-72.588,19.1483,14.313],[-72.5825,19.1528,15.7225],[-72.5796,19.1496,15.7363],[-72.5806,19.1448,16.289],[-72.5794,19.1422,16.8803],[-72.5737,19.1392,17.4056],[-72.5656,19.1408,16.1153],[-72.5632,19.146,16.5098],[-72.5591,19.1443,19.4024],[-72.5526,19.1489,18.3463],[-72.5393,19.1406,15.7905],[-72.5325,19.1481,16.511],[-72.5248,19.1507,16.8286],[-72.5211,19.1544,18.1846],[-72.513,19.1526,19.086],[-72.5122,19.148,17.6521],[-72.5161,19.1482,17.2903],[-72.5181,19.1466,22.314],[-72.5188,19.1438,19.840699999999998],[-72.514,19.1386,18.1192],[-72.519,19.1362,17.5912],[-72.5195,19.1307,17.1044],[-72.5155,19.1299,20.4087],[-72.5136,19.1329,17.4509],[-72.5064,19.1355,23.0893],[-72.5073,19.1316,18.9394],[-72.5043,19.1286,18.7286],[-72.5045,19.1249,19.1421],[-72.4989,19.1205,20.4747],[-72.4945,19.12,19.8242],[-72.4931,19.1249,20.9917],[-72.488,19.1264,21.1108],[-72.492,19.1224,19.7219],[-72.4914,19.1197,20.0742],[-72.4902,19.1187,23.4712],[-72.4817,19.12,20.1559],[-72.4764,19.1167,20.6429],[-72.4751,19.108,21.4262],[-72.4797,19.1013,20.5065],[-72.479,19.0996,21.4205],[-72.4745,19.0982,22.9371],[-72.4732,19.0934,22.3779],[-72.4795,19.0922,23.3731],[-72.4834,19.097,23.7495],[-72.4861,19.0971,24.8747],[-72.4891,19.0931,25.2372],[-72.4879,19.0915,24.4771],[-72.4814,19.0908,23.7661],[-72.4808,19.0866,25.674],[-72.4827,19.0833,24.5705],[-72.4802,19.0815,22.0721],[-72.4793,19.077,27.4062],[-72.4769,19.0782,24.3669],[-72.4782,19.0807,24.9617],[-72.4774,19.0829,21.8782],[-72.474,19.0846,24.4273],[-72.4702,19.0841,27.9428],[-72.4684,19.0811,26.8102],[-72.4715,19.0795,22.978],[-72.473,19.0757,24.3351],[-72.4684,19.0722,23.6249],[-72.4643,19.0759,31.8314],[-72.4652,19.0782,25.6818],[-72.463,19.0831,26.6374],[-72.4507,19.0836,28.369],[-72.45,19.0767,29.6811],[-72.4522,19.0703,36.1557],[-72.4484,19.0644,38.6708],[-72.4409,19.0627,36.7008],[-72.4403,19.0571,30.8004],[-72.4351,19.0534,31.906],[-72.4364,19.048,30.9422],[-72.4349,19.045,31.0414],[-72.4309,19.044,32.2127],[-72.4266,19.0459,33.8618],[-72.4217,19.0369,36.5787],[-72.4186,19.0349,33.9278],[-72.4176,19.0366,32.0],[-72.4198,19.044,34.0404],[-72.4191,19.0462,34.1008],[-72.4163,19.0458,39.5012],[-72.4144,19.0444,34.8647],[-72.4135,19.0388,32.375],[-72.4086,19.0404,33.3345],[-72.4049,19.036,34.3287],[-72.401,19.0358,35.2455],[-72.3972,19.0332,36.7995],[-72.3912,19.0338,37.7991],[-72.3797,19.0254,39.1971],[-72.3799,19.0232,38.8284],[-72.3861,19.0161,39.7511],[-72.3821,19.0148,39.6304],[-72.3808,19.0121,39.125],[-72.3768,19.0114,41.2841],[-72.3733,19.005,39.243],[-72.3685,19.0039,40.5587],[-72.3685,18.996,40.0],[-72.3736,18.992,43.6529],[-72.3728,18.9891,46.2588],[-72.3673,18.9912,43.3888],[-72.3612,18.9886,44.8998],[-72.3562,18.9901,45.5622],[-72.3543,18.9881,45.6521],[-72.3545,18.9844,46.5466],[-72.3576,18.9823,46.8764],[-72.3661,18.9846,44.6465],[-72.3659,18.9779,47.153],[-72.357,18.9694,48.5554],[-72.3542,18.9756,48.8767],[-72.3514,18.9748,48.6787],[-72.3514,18.9691,47.5159],[-72.3494,18.9679,48.8019],[-72.3459,18.9702,50.379],[-72.3437,18.9761,51.4813],[-72.3412,18.9755,58.6363],[-72.3429,18.973,50.9203],[-72.3383,18.97,49.7805],[-72.3408,18.9574,55.4799],[-72.3256,18.9423,58.8298],[-72.3202,18.9386,63.9202],[-72.3177,18.9397,57.1602],[-72.3071,18.9301,61.8078],[-72.2886,18.9199,64.1113],[-72.2853,18.9232,64.2417],[-72.283,18.923,64.3644],[-72.2797,18.9181,62.8412],[-72.2717,18.9142,64.2786],[-72.2668,18.9215,63.971],[-72.2599,18.9168,66.8732],[-72.246,18.9199,69.3682],[-72.2439,18.9181,65.6906],[-72.2428,18.9244,222.4151],[-72.2375,18.9324,384.5754],[-72.2368,18.9398,426.879],[-72.2268,18.9482,193.6035],[-72.2249,18.9563,236.8208],[-72.2259,18.9582,193.2723]]]]}
,"properties": {"GID_3": "HTI.3.1.4_1","GID_0": "HTI","country": "Haiti","GID_1": "HTI.3_1","province": "L'Artibonite","NL_NAME_1": "NA","GID_2": "HTI.3.1_1","county": "Dessalines","NL_NAME_2": "NA","city": "PetiteRivièredel'Artibonite","VARNAME_3": "NA","NL_NAME_3": "NA","TYPE_3": "Commune","ENGTYPE_3": "Commune","CC_3": "NA","HASC_3": "NA","name": "Petite_Rivièredel'Artibonite.city","area_km2": 507.5973,"hist_schema_id": "Elevation0-9000","hist_area_km2": {"0": 20.726,"25": 66.9996,"50": 29.5212,"75": 22.9107,"100": 21.5849,"125": 13.8281,"150": 10.4018,"175": 8.4582,"200": 8.9191,"225": 8.6589,"250": 9.8212,"275": 10.603,"300": 11.2238,"325": 12.666,"350": 11.8044,"375": 10.9425,"400": 10.5018,"425": 8.8782,"450": 8.7179,"475": 7.6152,"500": 6.8536,"525": 6.6733,"550": 7.1939,"575": 7.4342,"600": 7.4342,"625": 7.9749,"650": 8.7164,"675": 8.516,"700": 8.8968,"725": 7.895,"750": 8.0151,"775": 8.1757,"800": 7.0937,"825": 7.3144,"850": 6.9937,"875": 7.4748,"900": 6.7536,"925": 5.6516,"950": 4.4691,"975": 4.1485,"1000": 3.7075,"1025": 3.5071,"1050": 3.3267,"1075": 3.0661,"1100": 2.6453,"1125": 2.9458,"1150": 2.5851,"1175": 2.6653,"1200": 2.024,"1225": 1.8837,"1250": 1.543,"1275": 2.0839,"1300": 1.8234,"1325": 1.5028,"1350": 1.5429,"1375": 1.3826,"1400": 1.1422,"1425": 0.9218,"1450": 1.062,"1475": 1.042,"1500": 0.9418,"1525": 0.9618,"1550": 0.7815,"1575": 0.7815,"1600": 0.7013,"1625": 0.4408,"1650": 0.6011,"1675": 0.4609,"1700": 0.4008,"1725": 0.4408,"1750": 0.1803,"1775": 0.0401}}}