{"type":"Feature","properties":{"GID_3":"HTI.7.1.1_1","GID_0":"HTI","country":"Haiti","GID_1":"HTI.7_1","province":"Nord","NL_NAME_1":"NA","GID_2":"HTI.7.1_1","county":"Borgne","NL_NAME_2":"NA","city":"Borgne","VARNAME_3":"NA","NL_NAME_3":"NA","TYPE_3":"Commune","ENGTYPE_3":"Commune","CC_3":"NA","HASC_3":"NA","name":"Borgne.city"},
"geometry":{"type": "MultiPolygon","coordinates": [[[[-72.5813,19.7672,230.6419],[-72.5745,19.7658,153.2392],[-72.5786,19.7541,604.5922],[-72.5715,19.7467,629.4049],[-72.5739,19.7428,675.5326],[-72.5717,19.7393,717.4965],[-72.5655,19.739,699.521],[-72.5576,19.7343,775.5774],[-72.5555,19.7368,879.4462],[-72.5535,19.7363,891.8475],[-72.5494,19.7329,944.1852],[-72.5432,19.7343,764.7141],[-72.5333,19.7331,741.8894],[-72.5323,19.7369,698.1416],[-72.5289,19.7387,762.6517],[-72.5174,19.7391,937.0823],[-72.5128,19.7514,907.4275],[-72.5142,19.759,930.9306],[-72.5099,19.7642,827.5199],[-72.5039,19.763,632.8346],[-72.5018,19.7639,717.706],[-72.5089,19.768,844.6327],[-72.5072,19.7765,843.2405],[-72.5107,19.7857,966.4457],[-72.5086,19.7868,998.1572],[-72.5084,19.7905,1135.4937],[-72.5127,19.7973,1086.1163],[-72.4994,19.7941,1133.7666],[-72.4879,19.7954,958.3103],[-72.4855,19.7912,949.7846],[-72.477,19.7913,789.5294],[-72.4776,19.796,634.1385],[-72.464,19.808,156.3319],[-72.4683,19.8122,6.7855],[-72.4753,19.8153,22.1971],[-72.4866,19.8149,20.997],[-72.49,19.8191,0.0],[-72.4894,19.8209,0.7362],[-72.4938,19.8196,45.5912],[-72.496,19.8229,0.0],[-72.5001,19.8246,45.5552],[-72.4985,19.836,0.0],[-72.5018,19.8376,0.0],[-72.504,19.836,4.8064],[-72.5074,19.8471,0.0],[-72.5115,19.8482,16.4472],[-72.5137,19.8404,36.8452],[-72.5182,19.8399,42.989],[-72.5212,19.8439,0.0],[-72.5218,19.8501,0.0],[-72.5277,19.8474,0.0],[-72.5321,19.8494,0.0],[-72.5387,19.8563,25.2057],[-72.5413,19.8629,0.0],[-72.544,19.8632,11.5892],[-72.5446,19.8649,0.0],[-72.5546,19.8701,9.8702],[-72.5554,19.8721,45.6434],[-72.5521,19.8754,0.0],[-72.5576,19.8796,11.8161],[-72.5613,19.8797,92.9188],[-72.5615,19.8774,65.3066],[-72.567,19.8775,149.3506],[-72.5683,19.8748,172.5853],[-72.5719,19.8743,258.3532],[-72.5833,19.8661,547.0535],[-72.583,19.858,499.2644],[-72.5809,19.8556,447.2277],[-72.58,19.8497,529.5154],[-72.5838,19.8517,557.5776],[-72.5893,19.8511,420.6334],[-72.5902,19.8497,345.7173],[-72.5955,19.8398,256.1095],[-72.5932,19.8325,173.7443],[-72.5909,19.8314,164.9922],[-72.5944,19.8302,126.3439],[-72.5981,19.8373,247.2247],[-72.6015,19.8382,186.5874],[-72.6041,19.8387,127.7246],[-72.6107,19.8361,138.8495],[-72.6135,19.834,161.5001],[-72.6159,19.8278,239.5038],[-72.615,19.8179,621.8728],[-72.6193,19.8148,717.5501],[-72.6224,19.8154,734.5143],[-72.6233,19.8135,718.9414],[-72.6272,19.8135,668.5209],[-72.63,19.8116,567.002],[-72.6318,19.8168,623.8829],[-72.6391,19.8184,532.5632],[-72.6401,19.8212,599.7399],[-72.6379,19.8266,817.3359],[-72.6389,19.8293,626.2808],[-72.6517,19.8279,579.6412],[-72.6609,19.8286,270.4749],[-72.67,19.8321,459.7708],[-72.6788,19.8328,327.3069],[-72.6846,19.8315,176.5371],[-72.6838,19.8262,213.7127],[-72.6772,19.8138,378.4539],[-72.678,19.8088,609.5681],[-72.6814,19.8037,793.076],[-72.6736,19.7786,536.6039],[-72.6683,19.7762,561.1294],[-72.6533,19.7766,951.537],[-72.6563,19.7856,941.6898],[-72.6432,19.7854,725.5643],[-72.6385,19.7779,717.8758],[-72.6374,19.7737,830.0851],[-72.6396,19.7722,923.6541],[-72.6314,19.7712,725.4038],[-72.631,19.7659,870.7177],[-72.6243,19.7635,892.1583],[-72.6188,19.7645,1008.954],[-72.597,19.7587,540.4787],[-72.5883,19.7639,350.11],[-72.5833,19.7638,310.4656],[-72.5813,19.7672,230.6419]]]]}}