{"type": "Feature","bbox": [-73.78,18.3979,-73.5635,18.5892],"geometry": {"type": "MultiPolygon","coordinates": [[[[-73.7757,18.4485,740.4661],[-73.7758,18.4421,842.4801],[-73.7789,18.4412,873.6298],[-73.78,18.4239,1086.592],[-73.7738,18.4183,1165.7173],[-73.771,18.4176,1145.0215],[-73.7591,18.4234,913.87],[-73.7435,18.4205,884.8099],[-73.7378,18.4159,715.5153],[-73.7214,18.4146,792.5858],[-73.7069,18.421,459.3206],[-73.7023,18.42,552.2526],[-73.6978,18.4141,504.2778],[-73.6819,18.4,547.9243],[-73.6767,18.3979,548.1161],[-73.6715,18.4028,604.3901],[-73.672,18.4306,628.625],[-73.6699,18.4301,552.9741],[-73.6681,18.4332,510.2808],[-73.6655,18.4451,540.7853],[-73.6656,18.4491,398.7964],[-73.6724,18.4606,24.687],[-73.6714,18.4618,25.0391],[-73.666,18.462,93.6234],[-73.6544,18.4508,550.6254],[-73.6491,18.4488,538.6765],[-73.645,18.4413,720.9514],[-73.6418,18.4388,700.1835],[-73.6312,18.4477,545.8184],[-73.6189,18.454,557.5069],[-73.6,18.4544,643.2774],[-73.5867,18.4586,740.1603],[-73.5874,18.4658,487.5876],[-73.5936,18.4693,369.6606],[-73.5954,18.4728,225.7654],[-73.5947,18.4787,124.7168],[-73.5903,18.4838,59.4843],[-73.5798,18.4888,123.1931],[-73.5748,18.5014,6.283],[-73.5697,18.5068,1.7273],[-73.5749,18.5071,0.0],[-73.5757,18.5057,0.144],[-73.574,18.5124,0.0],[-73.5757,18.5126,0.0],[-73.5765,18.5074,0.0],[-73.5768,18.511,0.0],[-73.5801,18.5096,0.0],[-73.5785,18.5049,13.1562],[-73.5801,18.5046,10.9309],[-73.581,18.5071,0.0],[-73.5843,18.504,0.201],[-73.5865,18.5042,0.0],[-73.5876,18.5018,44.8755],[-73.5926,18.504,0.0],[-73.5946,18.5021,0.0],[-73.5976,18.5035,0.0],[-73.5986,18.5021,1.2077],[-73.5968,18.5054,0.9341],[-73.5979,18.5057,0.0],[-73.5999,18.5035,1.2077],[-73.6068,18.5015,9.8806],[-73.6079,18.5035,4.1015],[-73.611,18.501,7.0377],[-73.6114,18.5031,0.0],[-73.6142,18.501,37.9856],[-73.619,18.5026,0.0],[-73.6218,18.5007,6.6051],[-73.6231,18.504,0.0],[-73.6249,18.5032,20.6663],[-73.6273,18.5046,0.0],[-73.6268,18.5021,14.5557],[-73.629,18.5026,0.0],[-73.6296,18.5046,3.7343],[-73.6338,18.504,1.0039],[-73.6363,18.5063,0.7562],[-73.6387,18.504,0.7688],[-73.6473,18.5023,2.434],[-73.6471,18.501,57.0966],[-73.6629,18.4999,1.1294],[-73.6646,18.5029,0.4188],[-73.6636,18.506,0.0],[-73.6724,18.5085,8.7894],[-73.6724,18.5115,15.8323],[-73.6706,18.5133,12.8219],[-73.672,18.5168,0.0],[-73.6699,18.5174,0.0],[-73.6674,18.5243,3.4122],[-73.6643,18.5244,1.9243],[-73.6651,18.5287,0.0],[-73.6596,18.5335,0.0],[-73.6596,18.5351,0.0],[-73.6626,18.536,8.1578],[-73.6629,18.541,0.0],[-73.6707,18.5426,0.0],[-73.6746,18.5404,53.2608],[-73.6782,18.5457,0.0],[-73.6799,18.5457,0.0],[-73.6821,18.5438,6.8442],[-73.6826,18.5379,49.4419],[-73.6846,18.5376,5.9258],[-73.6843,18.5449,0.0],[-73.6899,18.5449,5.022],[-73.6899,18.5429,2.9976],[-73.6937,18.5399,51.7181],[-73.6931,18.544,19.3565],[-73.6943,18.5457,0.0],[-73.6976,18.5451,0.0],[-73.6996,18.5418,22.7253],[-73.7018,18.5435,1.1],[-73.7038,18.5421,0.0],[-73.7107,18.5432,1.437],[-73.7146,18.5418,32.6204],[-73.7158,18.5439,0.0],[-73.7176,18.5435,7.6064],[-73.721,18.5461,0.7125],[-73.721,18.5434,18.3668],[-73.7234,18.5424,5.1974],[-73.7246,18.5454,2.7487],[-73.7166,18.551,11.1432],[-73.7165,18.5474,3.821],[-73.7104,18.5439,1.4093],[-73.7079,18.547,0.0],[-73.6999,18.5496,0.0],[-73.6988,18.5529,0.0],[-73.6965,18.5501,0.0],[-73.6923,18.5512,0.0],[-73.6924,18.5535,0.0],[-73.6879,18.5518,0.0],[-73.6859,18.554,7.6261],[-73.6832,18.5532,0.0],[-73.6804,18.5573,2.0895],[-73.6801,18.561,0.0],[-73.687,18.5618,4.7879],[-73.6907,18.564,0.0752],[-73.6882,18.5654,0.0],[-73.681,18.5635,0.0],[-73.6743,18.564,0.8337],[-73.6662,18.5571,0.1297],[-73.6621,18.5593,0.2234],[-73.6624,18.5576,0.0],[-73.6665,18.5546,0.0],[-73.6657,18.5529,6.0585],[-73.6615,18.5542,7.5927],[-73.6443,18.5543,0.438],[-73.6432,18.5563,0.0],[-73.6446,18.5579,0.1431],[-73.6318,18.5591,1.7582],[-73.6188,18.556,2.2166],[-73.617,18.5539,0.0],[-73.6124,18.5551,1.0937],[-73.6071,18.5524,0.5845],[-73.5985,18.5534,0.617],[-73.5915,18.5521,1.0062],[-73.5765,18.5615,0.0],[-73.5698,18.5729,13.3208],[-73.5635,18.5796,3.1177],[-73.5641,18.5841,0.0],[-73.5674,18.5871,0.0],[-73.5777,18.5892,0.0],[-73.6021,18.5855,0.0],[-73.6172,18.5853,8.2941],[-73.6349,18.5818,4.0667],[-73.6562,18.5723,0.0],[-73.6696,18.5735,1.4782],[-73.6871,18.5782,1.229],[-73.6982,18.5779,1.0432],[-73.7079,18.5762,0.0],[-73.7185,18.5715,1.1713],[-73.7201,18.5696,0.0],[-73.7201,18.5654,0.3057],[-73.727,18.5665,0.4914],[-73.7262,18.5643,0.2287],[-73.7288,18.5649,0.1443],[-73.7282,18.5626,0.1265],[-73.731,18.5633,0.1421],[-73.7315,18.5596,0.2154],[-73.7343,18.5574,0.0844],[-73.7207,18.5574,0.0],[-73.7207,18.5535,2.8359],[-73.7271,18.551,0.4383],[-73.731,18.5515,4.0085],[-73.733,18.5472,56.2388],[-73.7355,18.5458,68.2513],[-73.7314,18.5428,2.0011],[-73.7315,18.5406,14.7566],[-73.7374,18.536,139.8833],[-73.7433,18.5231,315.3116],[-73.7539,18.517,329.1968],[-73.7576,18.5117,366.6922],[-73.7653,18.506,370.8011],[-73.7688,18.4989,413.9645],[-73.7673,18.4964,393.5909],[-73.7617,18.4941,354.0577],[-73.7423,18.4892,303.3923],[-73.7385,18.4862,342.8564],[-73.739,18.4814,236.2983],[-73.7462,18.4752,238.5621],[-73.7654,18.4654,403.8486],[-73.7663,18.4594,568.6419],[-73.7724,18.4568,665.6496],[-73.7748,18.4541,701.1531],[-73.7757,18.4485,740.4661]]],
[[[-73.5726,18.5107,0.0],[-73.5735,18.5121,0.0],[-73.5729,18.5088,0.0],[-73.5707,18.509,0.0545],[-73.5707,18.5104,0.0545],[-73.5726,18.5107,0.0]]],
[[[-73.6487,18.524,0.0],[-73.6501,18.5246,0.0],[-73.6501,18.5218,28.361],[-73.654,18.5226,4.2763],[-73.6557,18.5215,37.9265],[-73.6574,18.5232,3.2205],[-73.6588,18.5201,25.9648],[-73.6632,18.5204,14.1649],[-73.6651,18.5185,0.8185],[-73.6649,18.5171,0.8185],[-73.6637,18.5179,21.2865],[-73.6643,18.5138,0.0],[-73.6557,18.5154,0.0],[-73.6551,18.5176,15.616],[-73.6546,18.5163,0.0],[-73.6515,18.5163,0.9571],[-73.6499,18.5213,28.361],[-73.6476,18.5213,0.0],[-73.6487,18.524,0.0]]],
[[[-73.6593,18.541,6.3455],[-73.6615,18.5415,3.6667],[-73.6599,18.5382,1.1811],[-73.6588,18.5385,1.1811],[-73.6593,18.541,6.3455]]],
[[[-73.6776,18.5579,9.598],[-73.6799,18.5563,7.7455],[-73.6793,18.5529,1.9289],[-73.6768,18.5563,29.7567],[-73.6776,18.5579,9.598]]]]}
,"properties": {"GID_3": "HTI.4.1.2_1","GID_0": "HTI","country": "Haiti","GID_1": "HTI.4_1","province": "Nippes","NL_NAME_1": "NA","GID_2": "HTI.4.1_1","county": "l'Anse-à-Veau","NL_NAME_2": "NA","city": "Baraderes","VARNAME_3": "NA","NL_NAME_3": "NA","TYPE_3": "Commune","ENGTYPE_3": "Commune","CC_3": "NA","HASC_3": "NA","name": "Baraderes.city","area_km2": 235.074,"hist_schema_id": "Elevation0-9000","hist_area_km2": {"0": 33.5096,"25": 27.6403,"50": 14.6348,"75": 6.6552,"100": 6.5148,"125": 8.2239,"150": 8.1636,"175": 7.8622,"200": 7.7215,"225": 7.5004,"250": 8.9885,"275": 8.9483,"300": 8.4657,"325": 6.8369,"350": 6.4749,"375": 6.0728,"400": 5.9724,"425": 4.3841,"450": 4.4445,"475": 4.8671,"500": 4.3041,"525": 4.2238,"550": 3.9422,"575": 3.6606,"600": 3.4997,"625": 2.9969,"650": 2.4136,"675": 2.3332,"700": 2.2125,"725": 2.0516,"750": 1.3878,"775": 1.2873,"800": 0.885,"825": 1.0862,"850": 0.704,"875": 0.523,"900": 0.4023,"925": 0.2615,"950": 0.3822,"975": 0.3218,"1000": 0.2615,"1025": 0.2011,"1050": 0.342,"1075": 0.342,"1100": 0.3822,"1125": 0.2414,"1150": 0.2213,"1175": 0.1207,"1200": 0.1207,"1225": 0.0603,"1250": 0.0201}}}