{"type": "Feature","bbox": [-71.1788,19.4259,-70.8729,19.745],"geometry": {"type": "MultiPolygon","coordinates": [[[[-71.1766,19.5283,301.1924],[-71.1784,19.5238,331.1549],[-71.1774,19.5169,194.9376],[-71.1788,19.5073,159.5576],[-71.1712,19.498,203.9515],[-71.1674,19.4871,226.3445],[-71.1705,19.4698,236.4514],[-71.1489,19.4658,381.6925],[-71.134,19.4686,362.8597],[-71.1213,19.4684,379.2443],[-71.1178,19.4664,364.9247],[-71.112799999999993,19.4593,309.9263],[-71.1083,19.4573,192.2181],[-71.0992,19.4598,150.3906],[-71.0826,19.4602,130.2644],[-71.0754,19.4645,296.6809],[-71.0721,19.4648,300.6283],[-71.0645,19.457,346.3972],[-71.0507,19.4531,393.489],[-71.0373,19.4411,253.7194],[-71.0295,19.4375,210.9873],[-71.014,19.4432,183.7661],[-71.0105,19.4478,146.8087],[-70.9978,19.4476,415.9686],[-70.9916,19.4436,290.7303],[-70.9891,19.4387,246.9834],[-70.9879,19.4307,216.9571],[-70.9839,19.4259,202.8303],[-70.9761,19.4317,182.4008],[-70.9676,19.4467,157.6642],[-70.9652,19.4478,136.7313],[-70.953,19.4463,232.7335],[-70.9461,19.4478,309.7975],[-70.9384,19.4472,389.416],[-70.9275,19.4417,373.9182],[-70.9148,19.4315,334.2516],[-70.9111,19.4305,415.8881],[-70.9039,19.4312,423.0175],[-70.9006,19.4373,453.3286],[-70.8947,19.4401,427.1447],[-70.8916,19.4443,464.5766],[-70.8878,19.4441,479.3655],[-70.8795,19.4401,493.9162],[-70.8759,19.4427,483.6762],[-70.8762,19.4573,280.8163],[-70.8874,19.4593,229.315],[-70.8939,19.4623,224.8345],[-70.8994,19.4752,382.6083],[-70.8991,19.4917,205.6574],[-70.8913,19.5069,152.5697],[-70.8858,19.5276,112.1998],[-70.8889,19.5312,110.9165],[-70.8949,19.5313,110.6206],[-70.8993,19.5367,108.0611],[-70.9063,19.5367,100.7843],[-70.9097,19.5426,84.1929],[-70.9124,19.5421,85.3928],[-70.9155,19.5384,106.9622],[-70.919,19.5384,108.5759],[-70.9211,19.546,99.1054],[-70.9249,19.551,81.7151],[-70.9149,19.566,105.7499],[-70.916,19.5685,107.8133],[-70.9231,19.5707,114.754],[-70.923,19.5744,120.1237],[-70.9195,19.5773,134.0816],[-70.9133,19.5762,124.3246],[-70.9016,19.5653,111.6828],[-70.8877,19.5553,107.0914],[-70.885,19.5561,114.4596],[-70.8834,19.5603,117.0135],[-70.8791,19.5649,126.1183],[-70.8782,19.5733,127.1854],[-70.873,19.59,189.2334],[-70.8729,19.5973,224.2381],[-70.8764,19.6135,280.4085],[-70.8811,19.6197,303.3854],[-70.89,19.6377,656.1802],[-70.8908,19.6435,804.7818],[-70.8947,19.6443,797.5404],[-70.9009,19.6424,828.3349],[-70.9111,19.6456,801.3861],[-70.9166,19.6522,900.2622],[-70.9294,19.6613,868.5343],[-70.9367,19.6595,785.2427],[-70.9416,19.6601,725.5406],[-70.9584,19.6748,721.6216],[-70.9716,19.6827,698.5237],[-70.9779,19.6924,794.6857],[-70.9858,19.6945,554.425],[-70.992,19.7013,578.7593],[-70.996,19.7017,534.9897],[-71.0046,19.6992,474.3723],[-71.0227,19.6989,553.4656],[-71.0479,19.7056,537.8817],[-71.0551,19.7091,400.269],[-71.0587,19.7126,434.8145],[-71.0636,19.7262,337.6192],[-71.0729,19.7302,481.5614],[-71.0836,19.7313,448.0697],[-71.0996,19.7388,477.8645],[-71.1126,19.7397,378.138],[-71.1225,19.745,586.9713],[-71.1334,19.7448,404.269],[-71.1395,19.7399,437.0675],[-71.1458,19.7273,259.8171],[-71.1497,19.7066,166.1161],[-71.1549,19.6986,145.2521],[-71.1498,19.6861,110.9155],[-71.1572,19.6778,98.0241],[-71.1583,19.6731,89.1317],[-71.1575,19.6637,66.9234],[-71.1494,19.6527,48.3781],[-71.1521,19.6436,46.5671],[-71.1506,19.6352,50.1539],[-71.1521,19.6227,48.1937],[-71.1605,19.6167,49.69],[-71.1717,19.6204,48.9586],[-71.1738,19.6142,49.6878],[-71.1787,19.6085,53.9067],[-71.1784,19.6055,55.2318],[-71.174,19.6017,59.3808],[-71.1706,19.5956,64.4917],[-71.1695,19.5855,73.7944],[-71.1648,19.5785,82.577],[-71.1613,19.5647,107.6212],[-71.1648,19.5509,134.5529],[-71.1723,19.5419,182.7539],[-71.1766,19.5283,301.1924]]]]}
,"properties": {"GID_1": "DOM.32_1","GID_0": "DOM","country": "DominicanRepublic","province": "Valverde","VARNAME_1": "NA","NL_NAME_1": "NA","TYPE_1": "Provincia","ENGTYPE_1": "Province","CC_1": "NA","HASC_1": "DO.VA","ISO_1": "DO-27","name": "Valverde.province","area_km2": 797.0712,"hist_schema_id": "Elevation0-9000","hist_area_km2": {"50": 99.821,"75": 121.6704,"100": 126.1163,"125": 117.798,"150": 80.0239,"175": 47.9131,"200": 33.0045,"225": 26.3103,"250": 21.9755,"275": 16.381,"300": 14.9222,"325": 14.7826,"350": 14.8239,"375": 12.3663,"400": 9.1878,"425": 7.49,"450": 5.9509,"475": 4.3723,"500": 3.8131,"525": 3.0146,"550": 2.4356,"575": 2.2161,"600": 1.8567,"625": 1.6371,"650": 1.4175,"675": 1.0582,"700": 0.8586,"725": 0.7587,"750": 0.7787,"775": 0.6589,"800": 0.3394,"825": 0.4992,"850": 0.3993,"875": 0.3394,"900": 0.0799}}}