{"type":"Feature","properties":{"GID_3":"HTI.7.7.1_1","GID_0":"HTI","country":"Haiti","GID_1":"HTI.7_1","province":"Nord","NL_NAME_1":"NA","GID_2":"HTI.7.7_1","county":"Saint-Raphaël","NL_NAME_2":"NA","city":"Dondon","VARNAME_3":"NA","NL_NAME_3":"NA","TYPE_3":"Commune","ENGTYPE_3":"Commune","CC_3":"NA","HASC_3":"NA","name":"Dondon.city"},
"geometry":{"type": "MultiPolygon","coordinates": [[[[-72.3209,19.4856,878.1571],[-72.3222,19.4767,765.5353],[-72.3231,19.4773,774.4343],[-72.3257,19.4732,652.0427],[-72.329,19.4652,592.8366],[-72.3288,19.4629,590.4155],[-72.3204,19.4597,580.7158],[-72.3068,19.4654,594.3735],[-72.297,19.4657,803.847],[-72.2907,19.4676,861.3387],[-72.2821,19.4672,866.6036],[-72.2756,19.4639,991.3008],[-72.2732,19.4697,963.5215],[-72.2654,19.4706,1051.5137],[-72.2607,19.4758,1033.7133],[-72.2495,19.4769,1029.4791],[-72.246,19.4839,841.1069],[-72.2409,19.4889,826.0187],[-72.2315,19.4888,689.6368],[-72.2232,19.485,634.5624],[-72.2183,19.4871,446.2709],[-72.2161,19.4895,395.0368],[-72.2158,19.4967,606.7648],[-72.2108,19.511,790.2514],[-72.2143,19.5203,693.5433],[-72.2199,19.5251,537.6285],[-72.2137,19.5571,547.7393],[-72.2138,19.5661,521.0466],[-72.2181,19.5686,462.0458],[-72.221,19.5787,693.6202],[-72.2251,19.5815,552.4544],[-72.2343,19.5749,572.5616],[-72.2413,19.5731,745.6624],[-72.244,19.5704,762.7098],[-72.2473,19.572,653.0632],[-72.2511,19.5704,562.8052],[-72.2636,19.5741,534.5922],[-72.2667,19.5785,597.7477],[-72.2715,19.5779,544.1512],[-72.2702,19.5653,479.1065],[-72.2757,19.5664,483.2694],[-72.2759,19.565,497.502],[-72.2781,19.566,497.983],[-72.2849,19.5646,518.9009],[-72.2856,19.5618,536.6105],[-72.2881,19.5616,531.3172],[-72.2879,19.5585,543.8374],[-72.2918,19.558,543.7941],[-72.3047,19.5596,621.3083],[-72.3191,19.5586,931.5298],[-72.323,19.5542,844.6874],[-72.3232,19.5448,648.1724],[-72.3253,19.5433,638.8629],[-72.325,19.5394,574.3357],[-72.3312,19.5324,781.7664],[-72.328,19.5275,799.0345],[-72.3254,19.5265,703.8717],[-72.3221,19.5109,597.5599],[-72.3271,19.5104,685.5735],[-72.3316,19.5054,870.92],[-72.326,19.5004,905.6848],[-72.3254,19.4896,1017.6572],[-72.3187,19.4872,895.7003],[-72.3209,19.4856,878.1571]]]]}}