{"type":"Feature","properties":{"GID_2":"CUB.7.11_1","GID_0":"CUB","country":"Cuba","GID_1":"CUB.7_1","province":"Holguín","NL_NAME_1":"NA","county":"Moa","VARNAME_2":"NA","NL_NAME_2":"NA","TYPE_2":"Municipio","ENGTYPE_2":"Municipality","CC_2":"NA","HASC_2":"CU.HO.MO","name":"Moa.county"},
"geometry":{"type": "MultiPolygon","coordinates": [[[[-74.7565,20.5628,22.7534],[-74.7492,20.5741,39.4565],[-74.7408,20.5829,3.154],[-74.741,20.5843,2.7837],[-74.739,20.5846,0.0],[-74.7382,20.5918,0.0],[-74.7421,20.5949,0.0],[-74.7385,20.5957,8.377],[-74.739,20.5979,3.8128],[-74.7346,20.5982,0.0],[-74.7371,20.606,0.2559],[-74.734,20.6021,0.6594],[-74.7326,20.5954,0.0],[-74.7299,20.6001,0.0],[-74.7288,20.6101,3.4078],[-74.7299,20.6143,0.9199],[-74.7371,20.6212,3.8135],[-74.7465,20.6249,4.1651],[-74.7568,20.6262,0.0],[-74.764,20.6232,0.584],[-74.7643,20.6207,0.215],[-74.766,20.6204,1.517],[-74.7768,20.6224,0.0],[-74.781,20.6249,1.3071],[-74.7887,20.6207,1.2732],[-74.7974,20.6215,2.0519],[-74.8012,20.6246,0.3318],[-74.8037,20.6221,1.8249],[-74.8093,20.6218,11.3814],[-74.8129,20.6235,11.4519],[-74.8129,20.626,0.4749],[-74.816,20.6288,0.0],[-74.8232,20.6282,0.0],[-74.8376,20.6226,1.3267],[-74.8432,20.6238,0.0],[-74.844,20.6257,0.0],[-74.851,20.6257,0.0],[-74.8538,20.6312,22.4511],[-74.8538,20.6368,2.7037],[-74.866,20.6354,4.7165],[-74.8674,20.6446,0.0],[-74.8732,20.6437,18.4865],[-74.8785,20.6476,0.4649],[-74.8774,20.6579,0.222],[-74.8826,20.6582,1.9632],[-74.8893,20.6612,0.5289],[-74.904,20.659,0.0],[-74.9062,20.6618,3.2182],[-74.9062,20.6651,0.8143],[-74.9088,20.6668,0.5463],[-74.9163,20.6635,0.5633],[-74.9276,20.6621,0.0],[-74.9329,20.659,0.0],[-74.934,20.6621,0.0],[-74.939,20.6649,3.4254],[-74.9457,20.6743,0.0],[-74.951,20.6785,2.7498],[-74.9485,20.684,1.1559],[-74.9457,20.6857,0.0],[-74.9465,20.6879,1.0711],[-74.9549,20.6838,1.6774],[-74.959,20.6835,0.8076],[-74.9624,20.6854,0.6842],[-74.9671,20.6854,2.7406],[-74.9693,20.6885,0.6622],[-74.9762,20.6893,0.5074],[-74.9774,20.6918,0.8199],[-74.9793,20.6915,0.2462],[-74.9807,20.6935,0.3094],[-74.979,20.6954,0.0],[-74.9812,20.6963,0.2235],[-74.9924,20.6974,0.0],[-75.0154,20.6924,0.2608],[-75.0232,20.6929,0.9115],[-75.0263,20.6963,0.0],[-75.0354,20.6831,6.4563],[-75.0443,20.6568,18.6517],[-75.0476,20.6358,37.187],[-75.0573,20.6201,49.556399999999996],[-74.9789,20.5482,202.9395],[-74.9686,20.5294,458.8932],[-74.95,20.5255,677.6162],[-74.9348,20.5256,810.3411],[-74.9217,20.5279,789.0778],[-74.9139,20.5262,861.3143],[-74.9091,20.5162,923.7972],[-74.9105,20.5071,1119.0538],[-74.9089,20.503,981.8015],[-74.8879,20.4932,881.3722],[-74.8615,20.4749,755.2764],[-74.8329,20.4508,486.2555],[-74.8206,20.4382,236.5663],[-74.8162,20.4351,221.0693],[-74.8081,20.4331,301.5755],[-74.8015,20.4332,329.9543],[-74.7982,20.4364,268.9267],[-74.796,20.4553,239.1231],[-74.7896,20.464,402.6607],[-74.7806,20.47,298.5248],[-74.7574,20.4791,449.9864],[-74.7519,20.4842,502.6768],[-74.7505,20.4954,237.7938],[-74.7597,20.5454,294.5367],[-74.7565,20.5628,22.7534]]],
[[[-74.7299,20.5918,0.2282],[-74.7326,20.590699999999998,0.0],[-74.7324,20.5882,0.0],[-74.7276,20.5835,0.0],[-74.7257,20.5846,0.0],[-74.726,20.5874,0.8454],[-74.7299,20.5918,0.2282]]],
[[[-74.9168,20.699,0.0],[-74.924,20.696,0.0],[-74.9193,20.6924,1.6614],[-74.911,20.691,1.2748],[-74.9099,20.689,0.2267],[-74.8985,20.6846,0.8039],[-74.8971,20.6818,0.6912],[-74.8996,20.6815,0.0],[-74.8982,20.6804,0.2407],[-74.899,20.6785,0.0],[-74.8938,20.6815,0.0],[-74.8926,20.6843,0.2698],[-74.8982,20.6907,0.0],[-74.9168,20.699,0.0]]],
[[[-74.9307,20.699,2.7582],[-74.9326,20.6996,0.8556],[-74.9271,20.6974,0.0],[-74.9276,20.6982,3.8932],[-74.9307,20.699,2.7582]]],
[[[-75.0029,20.711,0.9617],[-75.0068,20.7115,1.735],[-75.0113,20.7082,1.3192],[-75.0065,20.7107,1.735],[-75.0029,20.711,0.9617]]]]}}