{"type": "Feature","bbox": [-60.8937,14.3882,-60.8087,14.4734],"geometry": {"type": "MultiPolygon","coordinates": [[[[-60.8665,14.3907,0.0],[-60.8668,14.3929,0.0],[-60.869,14.3924,1.0529],[-60.8682,14.3885,0.0],[-60.8662,14.3882,0.0],[-60.8665,14.3907,0.0]]],
[[[-60.8301,14.419,0.0],[-60.8318,14.419,0.0],[-60.8332,14.4163,0.0],[-60.8312,14.4157,1.5554],[-60.8301,14.419,0.0]]],
[[[-60.8254,14.4318,0.9086],[-60.8293,14.4318,7.552],[-60.8301,14.4299,0.0],[-60.8262,14.4285,0.0],[-60.8249,14.4293,0.0],[-60.8254,14.4318,0.9086]]],
[[[-60.8248,14.4716,11.0392],[-60.8434,14.4734,78.6102],[-60.8676,14.4601,0.0],[-60.8674,14.4571,3.9335],[-60.8649,14.4551,1.681],[-60.8715,14.456,5.4784],[-60.8721,14.4585,0.0],[-60.8746,14.4521,0.0],[-60.876,14.4518,0.0],[-60.8754,14.4501,0.0],[-60.8735,14.451,4.1126],[-60.8735,14.4485,25.9161],[-60.876,14.4496,0.0],[-60.8782,14.4471,0.0],[-60.8818,14.4518,1.7603],[-60.884,14.4518,0.0],[-60.884,14.4457,0.0],[-60.881,14.4426,4.3469],[-60.8801,14.4385,13.6641],[-60.8851,14.4318,6.1093],[-60.8868,14.4265,5.1554],[-60.891,14.4218,10.1104],[-60.8932,14.4218,7.234],[-60.8937,14.4193,15.1225],[-60.886,14.4138,0.4034],[-60.8857,14.4113,0.0],[-60.8879,14.4113,0.0],[-60.8879,14.4093,0.0],[-60.8851,14.4085,0.8246],[-60.8857,14.4051,0.0],[-60.8763,14.4015,1.9468],[-60.8757,14.3988,1.1496],[-60.8785,14.3982,0.772],[-60.8785,14.3968,0.0],[-60.8746,14.396,2.8785],[-60.8729,14.3971,1.748],[-60.8682,14.3951,0.0],[-60.8635,14.399,-0.4088],[-60.8621,14.3988,6.3572],[-60.8629,14.396,0.0],[-60.8607,14.3974,3.3839],[-60.8596,14.396,0.9432],[-60.8587,14.3979,2.5128],[-60.8557,14.3968,0.0],[-60.8532,14.3999,0.0],[-60.8551,14.401,3.5876],[-60.8543,14.4043,0.0],[-60.8471,14.4129,2.6714],[-60.8437,14.4129,1.0053],[-60.8421,14.4104,0.0],[-60.8379,14.4113,0.0],[-60.8374,14.4149,1.48],[-60.8446,14.416,1.1062],[-60.8432,14.4213,0.0],[-60.8471,14.4204,1.625],[-60.8471,14.4232,0.0],[-60.8493,14.4221,4.1726],[-60.8482,14.4271,1.0638],[-60.8424,14.4265,0.0],[-60.841,14.4232,0.0],[-60.8426,14.4229,0.0],[-60.8407,14.4218,0.0],[-60.8346,14.4232,0.0],[-60.8338,14.4254,0.0],[-60.8351,14.4268,0.0],[-60.8335,14.4268,0.0],[-60.8324,14.4293,3.183],[-60.8332,14.4329,1.2016],[-60.8312,14.4329,0.0],[-60.8296,14.4354,0.0],[-60.8265,14.4354,0.0],[-60.8249,14.4382,0.0],[-60.8226,14.4454,0.0],[-60.8237,14.4521,8.0925],[-60.8213,14.4532,0.7405],[-60.8218,14.4554,32.3794],[-60.8185,14.4585,0.0],[-60.8149,14.4585,0.0],[-60.8157,14.4604,2.7047],[-60.8087,14.459,0.0],[-60.8093,14.4607,0.0],[-60.814,14.4607,2.232],[-60.8182,14.4683,0.0],[-60.8248,14.4716,11.0392]]]]}
,"properties": {"GID_2": "MTQ.2.11_1","GID_0": "MTQ","country": "Martinique","GID_1": "MTQ.2_1","province": "LeMarin","NL_NAME_1": "NA","county": "Sainte-Anne","VARNAME_2": "NA","NL_NAME_2": "NA","TYPE_2": "Commune","ENGTYPE_2": "Commune","CC_2": "NA","HASC_2": "MQ.MA.SA","name": "Sainte-Anne.county","area_km2": 41.47615,"hist_schema_id": "Elevation0-9000","hist_area_km2": {"0": 13.0595,"25": 11.99114,"50": 8.35651,"75": 4.37333,"100": 2.17637,"125": 1.04709,"150": 0.43116,"175": 0.04106}}}