{"type": "Feature","bbox": [-72.2477,18.5626,-71.993,18.7737],"geometry": {"type": "MultiPolygon","coordinates": [[[[-72.0031,18.6279,236.6895],[-72.0008,18.6276,289.4926],[-72.0026,18.6319,325.1586],[-72.0002,18.6352,253.1555],[-72.0114,18.6409,454.9485],[-72.0139,18.6464,280.2974],[-72.018,18.646,279.1593],[-72.0286,18.658,355.057],[-72.0348,18.6591,239.6182],[-72.0394,18.6639,303.7632],[-72.0451,18.6623,293.4843],[-72.0467,18.6652,275.3707],[-72.0573,18.6695,193.3543],[-72.0574,18.6808,264.1247],[-72.0547,18.6867,344.0824],[-72.0406,18.6917,512.0743],[-72.0363,18.6974,630.7372],[-72.0191,18.7096,766.131],[-72.009,18.7141,687.6516],[-72.0067,18.7112,707.0667],[-72.0076,18.7059,769.9229],[-72.0011,18.7029,721.2616],[-71.9987,18.7054,893.8608],[-72.0014,18.7086,944.7522],[-71.999,18.7166,913.0541],[-72.0039,18.7188,689.4199],[-72.008,18.7276,390.4541],[-72.0053,18.73,394.0737],[-72.0059,18.735,357.8578],[-72.0094,18.7369,324.1698],[-72.014,18.732,310.621],[-72.0171,18.7241,354.933],[-72.022,18.7266,482.4661],[-72.0276,18.7268,582.7953],[-72.0352,18.7241,753.8481],[-72.0375,18.7209,962.9684],[-72.0567,18.7187,1050.1487],[-72.0681,18.7207,946.5314],[-72.0735,18.7366,403.4717],[-72.084,18.727,561.7138],[-72.0869,18.7136,826.2397],[-72.0917,18.7105,767.6292],[-72.0979,18.7114,819.4547],[-72.1098,18.7082,841.8869],[-72.1155,18.7035,831.8553],[-72.1229,18.7036,807.8064],[-72.1272,18.7063,814.2064],[-72.1472,18.6946,698.0359],[-72.1666,18.7026,810.462],[-72.1899,18.7238,738.9186],[-72.1973,18.7321,808.1223],[-72.2011,18.7417,769.2949],[-72.1971,18.7448,653.2438],[-72.1939,18.7514,592.3357],[-72.1963,18.7551,500.7102],[-72.1998,18.7584,469.2744],[-72.2031,18.7561,526.649],[-72.2068,18.7579,552.2463],[-72.2101,18.7648,412.4374],[-72.2178,18.7737,333.0769],[-72.225,18.7723,381.0915],[-72.2265,18.7669,515.2426],[-72.2215,18.759,621.631],[-72.2216,18.7568,622.537],[-72.231,18.7527,585.7325],[-72.2306,18.738,755.465],[-72.2373,18.7336,757.7532],[-72.2391,18.7302,784.9467],[-72.2397,18.7261,782.5091],[-72.2364,18.7225,829.3031],[-72.2354,18.7183,715.4448],[-72.2374,18.7166,788.7325],[-72.2381,18.7069,871.4716],[-72.2418,18.7032,727.334],[-72.2407,18.6971,603.6221],[-72.2443,18.6928,418.4393],[-72.2434,18.6803,170.1728],[-72.2403,18.6674,87.6372],[-72.2477,18.646,19.3011],[-72.2211,18.6495,20.8463],[-72.1936,18.6351,24.7273],[-72.1863,18.6101,28.3614],[-72.1734,18.6137,29.3776],[-72.1733,18.6107,29.3626],[-72.1552,18.6089,33.198],[-72.1529,18.6017,37.846],[-72.1545,18.5888,43.1326],[-72.1565,18.5867,44.8174],[-72.1534,18.5836,47.324],[-72.1511,18.5641,62.4411],[-72.1444,18.5626,66.1803],[-72.1419,18.5878,44.5916],[-72.1294,18.5861,43.8034],[-72.1313,18.5719,58.5821],[-72.1238,18.5711,54.2337],[-72.1234,18.5724,53.1874],[-72.1177,18.5734,47.2998],[-72.1182,18.5699,49.2957],[-72.1071,18.5686,43.2274],[-72.1036,18.5698,43.7853],[-72.0931,18.5628,51.003],[-72.0909,18.5675,51.0362],[-72.0919,18.5719,47.1486],[-72.0894,18.5759,41.2988],[-72.0907,18.5816,41.381],[-72.0858,18.5906,31.2849],[-72.0895,18.5969,33.1969],[-72.087,18.6009,32.2794],[-72.0818,18.6049,29.7343],[-72.0833,18.6124,27.299],[-72.0935,18.6108,29.0487],[-72.0934,18.6163,28.3128],[-72.0746,18.6209,23.4354],[-72.0711,18.62,20.4275],[-72.0699,18.6121,22.878],[-72.0606,18.6122,20.0],[-72.0518,18.6052,20.0],[-72.0474,18.6041,20.0],[-72.049,18.6014,20.0],[-72.0479,18.5943,20.0],[-72.0384,18.5891,20.0],[-71.993,18.6202,148.0094],[-71.9956,18.6193,166.0571],[-72.0039,18.6267,151.8878],[-72.0031,18.6279,236.6895]]]]}
,"properties": {"GID_3": "HTI.8.1.5_1","GID_0": "HTI","country": "Haiti","GID_1": "HTI.8_1","province": "Ouest","NL_NAME_1": "NA","GID_2": "HTI.8.1_1","county": "Croix-des-Bouquets","NL_NAME_2": "NA","city": "Thomazeau","VARNAME_3": "NA","NL_NAME_3": "NA","TYPE_3": "Commune","ENGTYPE_3": "Commune","CC_3": "NA","HASC_3": "NA","name": "Thomazeau.city","area_km2": 299.3043,"hist_schema_id": "Elevation0-9000","hist_area_km2": {"25": 109.2981,"50": 30.6215,"75": 9.7629,"100": 6.9704,"125": 6.5886,"150": 6.0461,"175": 4.4191,"200": 3.4348,"225": 3.1536,"250": 3.1134,"275": 3.2941,"300": 3.0931,"325": 3.2537,"350": 2.9925,"375": 3.0527,"400": 3.7557,"425": 3.595,"450": 3.5749,"475": 4.1572,"500": 4.117,"525": 4.5588,"550": 5.0006,"575": 5.4021,"600": 5.5828,"625": 6.2655,"650": 5.9642,"675": 6.3457,"700": 5.442,"725": 4.3977,"750": 4.2572,"775": 3.9359,"800": 3.3536,"825": 2.3094,"850": 1.968,"875": 1.7271,"900": 1.6869,"925": 1.2651,"950": 1.1447,"975": 1.0643,"1000": 0.8434,"1025": 0.8836,"1050": 1.0242,"1075": 0.7631,"1100": 1.1647,"1125": 0.8836,"1150": 0.5422,"1175": 0.502,"1200": 0.4418,"1225": 0.5221,"1250": 0.3414,"1275": 0.4016,"1300": 0.482,"1325": 0.3213,"1350": 0.2008,"1375": 0.0201}}}