{"type": "Feature","bbox": [-70.1977,19.4484,-69.9572,19.6792],"geometry": {"type": "MultiPolygon","coordinates": [[[[-70.128,19.4504,283.8613],[-70.1189,19.4484,308.9213],[-70.0936,19.4492,71.5892],[-70.0881,19.4564,121.8481],[-70.0765,19.4663,69.0543],[-70.0735,19.4716,62.3823],[-70.0723,19.4796,50.9791],[-70.0669,19.487,41.2472],[-70.0598,19.4855,39.6715],[-70.053,19.4874,35.2275],[-70.0466,19.487,31.2183],[-70.0303,19.4788,27.6756],[-70.0247,19.4735,19.88],[-70.0107,19.4687,32.6062],[-69.9979,19.4753,26.4975],[-69.9929,19.4745,17.5457],[-69.9675,19.4763,10.0524],[-69.9582,19.4866,4.6261],[-69.9572,19.4898,4.3486],[-69.9794,19.4933,8.7191],[-69.9809,19.4954,8.3364],[-69.9815,19.5038,7.9257],[-69.9842,19.5083,10.8277],[-69.9962,19.5077,18.6442],[-70.003,19.5114,16.7566],[-70.0086,19.5202,18.3147],[-70.0174,19.5224,32.3719],[-70.0193,19.525,26.7705],[-70.0206,19.5344,24.7713],[-70.0323,19.5394,33.6061],[-70.0383,19.5486,42.3544],[-70.0491,19.5521,56.1481],[-70.0517,19.5555,66.5255],[-70.0533,19.5639,64.5214],[-70.061,19.5691,74.3183],[-70.064,19.573,75.1635],[-70.0636,19.5766,76.2605],[-70.0591,19.5787,67.6046],[-70.0562,19.583,70.4516],[-70.0576,19.5898,87.0148],[-70.0568,19.5927,91.9101],[-70.0505,19.5958,101.6467],[-70.0466,19.6022,142.4373],[-70.0371,19.6041,166.6997],[-70.0264,19.6123,233.092],[-70.0162,19.6299,272.6631],[-70.0082,19.6342,248.353],[-70.0051,19.6405,230.3498],[-70.0043,19.6527,228.6255],[-69.9991,19.6608,155.688],[-70.0017,19.6762,40.4729],[-70.0143,19.6765,20.6361],[-70.026,19.6792,9.9851],[-70.0279,19.6771,19.3937],[-70.0299,19.6785,0.0],[-70.0312,19.6771,0.0],[-70.0338,19.679,0.0],[-70.0357,19.6774,14.2542],[-70.039,19.6779,0.0],[-70.0396,19.676,7.808],[-70.0415,19.6757,5.4623],[-70.0454,19.6785,10.1199],[-70.0479,19.6771,0.0],[-70.0493,19.6735,22.3639],[-70.0574,19.6732,4.2268],[-70.0638,19.6688,0.0],[-70.0685,19.6649,6.4865],[-70.0682,19.6621,2.7403],[-70.0704,19.6626,0.0],[-70.0713,19.6571,0.0],[-70.0762,19.656,1.1192],[-70.0765,19.6518,5.3343],[-70.0824,19.6446,0.0],[-70.081,19.6421,0.4426],[-70.0832,19.6379,2.2267],[-70.0882,19.6351,0.0],[-70.0909,19.6302,8.5902],[-70.0836,19.6272,5.9101],[-70.0802,19.6208,11.0052],[-70.0821,19.6163,41.8007],[-70.0865,19.6118,8.2689],[-70.0825,19.6053,37.6726],[-70.0819,19.6003,33.343],[-70.0853,19.5799,43.2486],[-70.0868,19.578,31.6962],[-70.1181,19.5661,69.2898],[-70.1274,19.5565,148.9194],[-70.1365,19.5505,186.2154],[-70.1517,19.5499,122.2432],[-70.1593,19.546,308.2329],[-70.1652,19.5495,236.1308],[-70.1779,19.5447,321.3809],[-70.1829,19.5453,349.1741],[-70.1934,19.5501,271.114],[-70.1976,19.5474,314.7275],[-70.1977,19.5428,378.8146],[-70.1951,19.5361,490.0094],[-70.1949,19.5126,611.9767],[-70.1866,19.5082,491.4328],[-70.1759,19.5077,467.3407],[-70.1547,19.5026,429.2924],[-70.1438,19.5049,248.534],[-70.1392,19.5025,198.6543],[-70.1359,19.4956,269.4034],[-70.1349,19.4837,301.7018],[-70.1259,19.4784,341.2647],[-70.1238,19.475,308.1304],[-70.1239,19.4586,306.2858],[-70.128,19.4504,283.8613]]]]}
,"properties": {"GID_2": "DOM.15.4_1","GID_0": "DOM","country": "DominicanRepublic","GID_1": "DOM.15_1","province": "MaríaTrinidadSánchez","NL_NAME_1": "NA","county": "RioSanJuan","VARNAME_2": "NA","NL_NAME_2": "NA","TYPE_2": "Municipio","ENGTYPE_2": "Municipality","CC_2": "NA","HASC_2": "DO.MT.RS","name": "Rio_San_Juan.county","area_km2": 243.0198,"hist_schema_id": "Elevation0-9000","hist_area_km2": {"0": 16.1057,"25": 47.5179,"50": 44.2754,"75": 23.6148,"100": 16.6825,"125": 12.6476,"150": 11.5477,"175": 11.2672,"200": 10.208,"225": 9.129,"250": 7.4915,"275": 5.1945,"300": 3.7171,"325": 3.3176,"350": 3.4773,"375": 2.4781,"400": 1.7785,"425": 1.8385,"450": 1.3589,"475": 1.2589,"500": 1.219,"525": 1.3389,"550": 1.259,"575": 1.3989,"600": 1.3989,"625": 0.6994,"650": 0.4596,"675": 0.2598,"700": 0.0799}}}