{"type":"Feature","properties":{"GID_2":"DOM.8.2_1","GID_0":"DOM","country":"DominicanRepublic","GID_1":"DOM.8_1","province":"Espaillat","NL_NAME_1":"NA","county":"GasparHernández","VARNAME_2":"NA","NL_NAME_2":"NA","TYPE_2":"Municipio","ENGTYPE_2":"Municipality","CC_2":"NA","HASC_2":"DO.ES.GH","name":"Gaspar_Hernández.county"},
"geometry":{"type": "MultiPolygon","coordinates": [[[[-70.1949,19.5126,611.9767],[-70.1951,19.5361,490.0094],[-70.198,19.5448,360.1199],[-70.196,19.5494,304.8905],[-70.1921,19.5499,245.728],[-70.1829,19.5453,349.1741],[-70.1779,19.5447,321.3809],[-70.1652,19.5495,236.1308],[-70.1593,19.546,308.2329],[-70.1517,19.5499,122.2432],[-70.1365,19.5505,186.2154],[-70.1274,19.5565,148.9194],[-70.1181,19.5661,69.2898],[-70.0859,19.5788,30.7685],[-70.0819,19.6003,33.343],[-70.0825,19.6053,37.6726],[-70.0865,19.6118,8.2689],[-70.0802,19.6203,34.8693],[-70.0836,19.6272,5.9101],[-70.0909,19.6302,8.5902],[-70.0886,19.6343,0.0],[-70.0976,19.629,3.4955],[-70.1026,19.6293,0.0],[-70.1118,19.626,4.333],[-70.1188,19.6262,0.0],[-70.1318,19.6224,0.6909],[-70.1404,19.6226,2.8096],[-70.1518,19.6199,6.8458],[-70.1576,19.6201,8.7609],[-70.164,19.6226,0.0],[-70.1715,19.621,3.7556],[-70.1762,19.6226,0.0],[-70.1826,19.6282,3.2993],[-70.189,19.6276,4.2451],[-70.2029,19.6324,0.0],[-70.2171,19.6349,7.989],[-70.2279,19.6404,2.5545],[-70.2412,19.6424,0.0],[-70.2518,19.641,2.272],[-70.2693,19.6415,4.2571],[-70.2957,19.6501,2.8313],[-70.3087,19.6568,5.7472],[-70.3318,19.676,0.0],[-70.3337,19.6754,5.9345],[-70.334,19.6776,0.0],[-70.3401,19.6826,0.0],[-70.3554,19.6924,4.9153],[-70.3632,19.7015,0.7979],[-70.3724,19.6973,4.5618],[-70.3786,19.6859,3.7784],[-70.3711,19.6826,5.6523],[-70.3676,19.6713,5.7395],[-70.3679,19.6673,8.7954],[-70.3743,19.6618,8.3965],[-70.3886,19.6607,9.8353],[-70.3964,19.6522,12.1855],[-70.3997,19.651,16.85],[-70.4029,19.6369,147.0547],[-70.4032,19.6147,211.8996],[-70.4025,19.6112,211.2137],[-70.3999,19.6085,217.9892],[-70.3855,19.6046,260.1375],[-70.3764,19.5996,243.4389],[-70.3687,19.592,366.5296],[-70.3649,19.584,383.3113],[-70.3666,19.5808,343.1342],[-70.375,19.575,210.3371],[-70.3783,19.5644,341.0178],[-70.3805,19.5644,329.4205],[-70.3842,19.5681,347.1],[-70.3886,19.5687,328.7778],[-70.4044,19.5649,248.183],[-70.4041,19.5616,294.7934],[-70.4085,19.5581,190.1645],[-70.4096,19.5496,302.3799],[-70.4033,19.5377,294.219],[-70.3916,19.5299,341.4782],[-70.3743,19.5285,524.5099],[-70.3555,19.5194,541.1531],[-70.351,19.5106,615.6136],[-70.3452,19.509,608.3033],[-70.3411,19.5121,626.2838],[-70.3381,19.5212,589.9205],[-70.3374,19.5328,581.8939],[-70.3341,19.5442,339.8654],[-70.3202,19.5488,135.6109],[-70.3165,19.5563,97.5066],[-70.3074,19.5568,170.1058],[-70.2992,19.5535,202.1187],[-70.2943,19.5491,210.5837],[-70.2879,19.5338,293.1915],[-70.2866,19.5259,196.7246],[-70.2831,19.523,204.1786],[-70.2673,19.5223,304.8491],[-70.2557,19.5144,417.1752],[-70.2409,19.5144,475.45],[-70.2356,19.5116,440.7405],[-70.2257,19.5107,498.3892],[-70.209,19.506,366.1854],[-70.1949,19.5126,611.9767]]]]}}