{"type": "Feature","id": "1438","bbox": [-61.37613,15.20181,-61.34638,15.2438],"geometry": {"type": "Polygon","coordinates": [[[-61.34638,15.2117,135.2966],[-61.35566,15.2438,490.7033],[-61.37284,15.23592,0.0],[-61.37294,15.23589,0.0],[-61.37297,15.23588,0.0],[-61.37613,15.21284,0.0],[-61.37409,15.20482,0.0],[-61.36286,15.20181,0.0],[-61.35074,15.20515,0.0],[-61.34638,15.2117,135.2966],[-61.34638,15.2117,135.2966]]]}
,"properties": {"ISO3166-1-Alpha-3": "DMA","country": "Dominica","fill": "#F0F","name": "Saint Mark","area_km2": 10.57703,"hist_schema_id": "Elevation0-9000","hist_area_km2": {"0": 5.237434,"25": 0.184126,"50": 0.593279,"75": 0.470538,"100": 0.225036,"125": 0.265959,"150": 0.286411,"175": 0.388707,"200": 0.409166,"225": 0.368245,"250": 0.511456,"275": 0.286419,"300": 0.22504,"325": 0.225043,"350": 0.122742,"375": 0.245503,"400": 0.163669,"425": 0.143213,"450": 0.061374,"475": 0.102295,"500": 0.040918,"525": 0.020459}}}