{"type":"Feature","properties":{"GID_1":"DMA.7_1","GID_0":"DMA","country":"Dominica","province":"SaintMark","VARNAME_1":"NA","NL_NAME_1":"NA","TYPE_1":"Parish","ENGTYPE_1":"Parish","CC_1":"NA","HASC_1":"DM.MA","ISO_1":"DM-08","name":"Saint_Mark.province"},
"geometry":{"type": "MultiPolygon","coordinates": [[[[-61.3645,15.2335,0.0],[-61.3599,15.231,69.2813],[-61.361,15.2232,37.7055],[-61.3665,15.2137,20.6323],[-61.3699,15.2129,0.0],[-61.3732,15.2154,0.0],[-61.374,15.2132,0.0],[-61.3554,15.2063,0.0],[-61.3507,15.2071,21.4317],[-61.3479,15.2096,26.5289],[-61.3429,15.2085,0.0],[-61.3426,15.2107,86.4872],[-61.3399,15.2115,22.8328],[-61.3343,15.2113,6.6131],[-61.3368,15.225,611.7608],[-61.3444,15.241,548.4727],[-61.3453,15.2499,911.9073],[-61.3514,15.2484,741.9615],[-61.3643,15.2405,221.817],[-61.3645,15.2335,0.0]]]]}}