{"type":"Feature","properties":{"GID_3":"HTI.8.2.1_1","GID_0":"HTI","country":"Haiti","GID_1":"HTI.8_1","province":"Ouest","NL_NAME_1":"NA","GID_2":"HTI.8.2_1","county":"l'Arcahaie","NL_NAME_2":"NA","city":"Arcahaie","VARNAME_3":"NA","NL_NAME_3":"NA","TYPE_3":"Commune","ENGTYPE_3":"Commune","CC_3":"NA","HASC_3":"NA","name":"Arcahaie.city"},
"geometry":{"type": "MultiPolygon","coordinates": [[[[-72.5026,18.8049,81.1247],[-72.4989,18.8075,99.8418],[-72.4962,18.7991,85.8583],[-72.4891,18.7905,62.709],[-72.4777,18.7849,57.8006],[-72.4699,18.7945,110.7398],[-72.4688,18.8074,163.9812],[-72.4665,18.8103,186.4265],[-72.4667,18.8188,325.2696],[-72.4623,18.8194,419.0894],[-72.4567,18.8155,375.496],[-72.4428,18.8205,340.6901],[-72.4413,18.8236,356.8922],[-72.4368,18.8245,462.6382],[-72.435,18.8286,530.0219],[-72.425299999999993,18.8352,1017.0927],[-72.4225,18.8347,1045.9695],[-72.421,18.8366,1000.1807],[-72.423,18.840699999999998,1159.995],[-72.4111,18.8351,722.762],[-72.4075,18.8397,860.9208],[-72.4087,18.8431,949.729],[-72.4007,18.842,944.0059],[-72.3987,18.8447,780.8946],[-72.3893,18.8392,695.0036],[-72.3867,18.8409,647.0223],[-72.3867,18.8458,766.1879],[-72.385,18.8472,848.6922],[-72.3807,18.8411,888.045],[-72.3757,18.8418,762.7155],[-72.3807,18.8508,910.4074],[-72.3783,18.8533,865.0121],[-72.3694,18.8561,908.6328],[-72.3603,18.8559,816.3459],[-72.3633,18.8589,854.9546],[-72.3618,18.8641,939.4151],[-72.3695,18.8683,1139.9292],[-72.3748,18.8751,1133.9709],[-72.3815,18.8792,1211.3037],[-72.3873,18.885,1334.661],[-72.3922,18.8931,1216.259],[-72.3968,18.8942,1370.2891],[-72.4039,18.9018,1277.9423],[-72.406,18.9011,1327.8846],[-72.4148,18.9035,1262.3931],[-72.4204,18.9126,1207.5756],[-72.4234,18.9116,1337.0308],[-72.4281,18.9147,1333.0597],[-72.4285,18.9172,1275.3833],[-72.4371,18.9202,1311.3826],[-72.4356,18.9234,1194.3202],[-72.443,18.9239,1216.448],[-72.4549,18.9197,1205.1427],[-72.4568,18.9208,1152.2047],[-72.4595,18.9272,1257.7874],[-72.4624,18.9276,1281.2445],[-72.4644,18.9251,1177.5597],[-72.467,18.9257,1178.6306],[-72.4957,18.9588,1119.585],[-72.5038,18.9577,790.0059],[-72.509,18.9595,794.5281],[-72.5145,18.9553,701.3525],[-72.5182,18.9558,777.5675],[-72.521,18.9584,770.0098],[-72.5252,18.9577,744.9179],[-72.5308,18.9595,696.5717],[-72.5365,18.9572,600.397],[-72.5413,18.9616,565.5189],[-72.5546,18.9614,534.0598],[-72.5585,18.9649,515.6183],[-72.5661,18.9648,487.7162],[-72.5727,18.9692,483.8256],[-72.5803,18.9685,454.995],[-72.586,18.9697,430.3193],[-72.591,18.9732,489.3346],[-72.5947,18.9738,456.9768],[-72.5981,18.9715,412.674],[-72.6016,18.972,425.0554],[-72.6009,18.9729,387.566],[-72.6034,18.9752,382.5442],[-72.6081,18.9744,374.1206],[-72.6164,18.9763,364.0197],[-72.6188,18.9749,436.2625],[-72.6185,18.9727,411.1334],[-72.6202,18.9708,370.1681],[-72.6232,18.9707,368.2732],[-72.6233,18.9728,342.1749],[-72.6267,18.9723,344.6161],[-72.6282,18.9771,401.3297],[-72.6318,18.9729,308.0877],[-72.6334,18.976,282.7138],[-72.6354,18.9759,379.5902],[-72.6351,18.9733,268.0446],[-72.638,18.9708,236.785],[-72.6462,18.9728,227.5593],[-72.65,18.9722,319.3486],[-72.6538,18.9711,298.0212],[-72.6576,18.9673,205.3946],[-72.6611,18.9679,192.0171],[-72.6643,18.9721,186.6201],[-72.6706,18.9685,166.0016],[-72.6786,18.9685,192.1972],[-72.6768,18.9712,142.6822],[-72.6787,18.9739,153.8887],[-72.6816,18.973,111.5431],[-72.6845,18.9674,121.2109],[-72.6886,18.967,93.9957],[-72.6918,18.9626,77.1884],[-72.6993,18.9584,50.4989],[-72.6998,18.956,50.0906],[-72.7051,18.9522,30.9459],[-72.7058,18.949,21.6793],[-72.7082,18.948,15.7021],[-72.71,18.9422,2.6625],[-72.7115,18.9432,0.0],[-72.7104,18.9418,0.0],[-72.7038,18.9404,0.0],[-72.6965,18.9424,2.8332],[-72.6903,18.941,5.5816],[-72.6829,18.9351,0.0],[-72.6641,18.9282,1.0934],[-72.6621,18.9251,0.0],[-72.6588,18.9249,0.0],[-72.6557,18.9212,3.8706],[-72.6485,18.9185,2.7272],[-72.641,18.9071,13.0517],[-72.6354,18.9057,0.6274],[-72.6351,18.9018,0.0],[-72.6312,18.9007,0.0],[-72.6304,18.8957,9.2134],[-72.6257,18.8929,0.0],[-72.6249,18.8893,1.8047],[-72.6204,18.8876,9.3137],[-72.6171,18.8824,0.8271],[-72.6161,18.879,2.995],[-72.6174,18.8712,0.0],[-72.6121,18.8636,1.5249],[-72.6113,18.8596,0.235],[-72.6024,18.8599,0.0],[-72.5985,18.8576,0.0],[-72.5937,18.8471,9.4529],[-72.5846,18.8388,2.0641],[-72.5765,18.8343,3.7528],[-72.5735,18.8224,1.8342],[-72.5652,18.8096,3.6229],[-72.5607,18.7957,1.0109],[-72.5551,18.7946,0.0],[-72.5488,18.7898,1.3797],[-72.5413,18.7754,0.0],[-72.5368,18.7726,0.0],[-72.5305,18.7721,1.8872],[-72.5221,18.7674,0.627],[-72.5035,18.7673,3.2987],[-72.4957,18.7637,0.0],[-72.496,18.7676,6.2712],[-72.5026,18.7795,26.004],[-72.5065,18.8003,68.4415],[-72.5026,18.8049,81.1247]]],
[[[-72.7118,18.9432,0.0],[-72.7115,18.9432,0.0],[-72.7118,18.9434,0.0],[-72.7118,18.9432,0.0]]]]}}