{"type":"Feature","properties":{"GID_2":"CUB.7.7_1","GID_0":"CUB","country":"Cuba","GID_1":"CUB.7_1","province":"Holguín","NL_NAME_1":"NA","county":"FrakPaís","VARNAME_2":"NA","NL_NAME_2":"NA","TYPE_2":"Municipio","ENGTYPE_2":"Municipality","CC_2":"NA","HASC_2":"CU.HO.FP","name":"Frak_País.county"},
"geometry":{"type": "MultiPolygon","coordinates": [[[[-75.0476,20.6358,37.187],[-75.0443,20.6568,18.6517],[-75.0354,20.6831,6.4563],[-75.0263,20.6974,0.3721],[-75.0243,20.6982,0.3721],[-75.0257,20.6996,0.0],[-75.0315,20.7001,0.0],[-75.0332,20.6976,0.2856],[-75.0379,20.6988,0.0],[-75.041,20.6929,0.3838],[-75.0476,20.6879,0.9716],[-75.0582,20.6904,0.4794],[-75.0704,20.6896,0.0],[-75.0715,20.6857,0.705],[-75.0618,20.6832,0.0],[-75.0649,20.681,0.4132],[-75.0643,20.6765,0.0],[-75.0601,20.6762,0.2889],[-75.0654,20.6724,1.0099],[-75.0626,20.6704,0.0],[-75.0629,20.6682,1.5775],[-75.0685,20.6696,1.2503],[-75.0685,20.6679,6.5734],[-75.0713,20.6693,0.0],[-75.076,20.6679,1.0276],[-75.0779,20.6718,1.7441],[-75.0821,20.6707,1.2167],[-75.0835,20.6718,1.2167],[-75.081,20.6735,3.49],[-75.0738,20.6721,1.3055],[-75.0713,20.6757,0.0],[-75.0746,20.6765,0.448],[-75.0785,20.6751,8.5735],[-75.0804,20.6771,0.0],[-75.079,20.681,0.0],[-75.0854,20.6799,0.1376],[-75.0879,20.6815,0.0],[-75.0876,20.6838,0.408],[-75.0751,20.6857,0.4122],[-75.0732,20.6887,0.0],[-75.0882,20.6896,0.0],[-75.0935,20.6885,1.0035],[-75.0946,20.6863,1.0577],[-75.0937,20.6815,3.0431],[-75.0968,20.674,0.6625],[-75.094,20.6682,4.3758],[-75.0993,20.6629,1.6635],[-75.1038,20.6612,0.9272],[-75.1038,20.6638,3.3359],[-75.0965,20.6668,0.0],[-75.0979,20.6762,0.0],[-75.1054,20.6782,10.2195],[-75.1035,20.6835,0.0],[-75.1043,20.6849,0.0],[-75.114,20.6865,3.0381],[-75.1226,20.6938,0.0],[-75.1421,20.6957,0.0],[-75.1451,20.6935,1.4956],[-75.1418,20.6926,1.1068],[-75.1446,20.6899,0.5948],[-75.1438,20.6835,0.0],[-75.1371,20.6843,0.0],[-75.1368,20.686,0.0],[-75.1399,20.6851,1.3506],[-75.1415,20.6868,0.8539],[-75.1418,20.6913,0.8377],[-75.1401,20.6932,0.4517],[-75.1365,20.6926,3.2137],[-75.1346,20.6943,4.2951],[-75.1335,20.694,4.2951],[-75.1343,20.6915,0.0],[-75.129,20.6893,8.1845],[-75.1315,20.6874,0.0],[-75.1296,20.684,0.2498],[-75.1429,20.6829,0.3539],[-75.146,20.6774,0.0],[-75.1454,20.6715,12.5849],[-75.1501,20.6715,0.0],[-75.1518,20.6696,2.4191],[-75.1532,20.6699,0.0],[-75.154,20.6762,2.2481],[-75.1524,20.6765,0.0],[-75.1487,20.6821,3.8587],[-75.1499,20.6865,2.8552],[-75.1479,20.6904,3.9486],[-75.151,20.691,0.0],[-75.1515,20.6851,1.939],[-75.1526,20.6851,4.0682],[-75.1535,20.6893,0.0],[-75.1571,20.6879,0.0],[-75.1579,20.6913,0.0],[-75.1599,20.6913,0.0],[-75.1618,20.6871,0.898],[-75.1565,20.684,1.7521],[-75.161,20.6846,0.0],[-75.1615,20.6801,2.8171],[-75.1643,20.6793,2.0716],[-75.1665,20.6718,1.9839],[-75.169,20.6704,10.1482],[-75.1704,20.671,15.5041],[-75.1674,20.674,3.0752],[-75.1657,20.6779,6.805],[-75.1668,20.679,5.7626],[-75.1632,20.6813,0.0],[-75.1738,20.6857,0.0],[-75.1796,20.6854,9.876],[-75.1821,20.6826,11.6756],[-75.1843,20.6826,1.2134],[-75.1876,20.6865,1.6499],[-75.1862,20.6885,0.3697],[-75.184,20.686,2.1666],[-75.181,20.6876,9.4429],[-75.1743,20.6879,2.4547],[-75.1721,20.6918,0.0],[-75.1679,20.6915,0.0],[-75.1621,20.6938,3.6848],[-75.1582,20.6929,0.4137],[-75.1551,20.6949,0.0],[-75.1585,20.6946,1.8649],[-75.1746,20.7035,0.5115],[-75.1982,20.7076,0.9134],[-75.2315,20.7207,0.0],[-75.2343,20.7204,1.4924],[-75.2363,20.7174,0.0],[-75.2429,20.714,1.0534],[-75.249,20.7137,2.0678],[-75.2485,20.7085,2.5102],[-75.2524,20.7149,0.0],[-75.2613,20.7207,0.0],[-75.2737,20.721,0.0],[-75.2893,20.7115,5.6161],[-75.2965,20.7126,2.1663],[-75.3079,20.7188,0.0],[-75.319,20.7201,0.581],[-75.324,20.7151,5.3118],[-75.3246,20.7104,6.5247],[-75.3299,20.7101,2.9954],[-75.3296,20.7062,16.8317],[-75.3315,20.704,7.9521],[-75.324,20.699,15.7279],[-75.3207,20.7004,1.5],[-75.3224,20.706,11.3482],[-75.3207,20.7032,5.4015],[-75.3182,20.704,17.4659],[-75.3124,20.7021,10.0912],[-75.3151,20.6999,1.5],[-75.3082,20.6985,7.234],[-75.309,20.6971,1.5],[-75.3071,20.6943,2.0289],[-75.3093,20.694,1.5],[-75.3099,20.6918,1.5],[-75.3074,20.6932,6.1948],[-75.3054,20.6915,42.5015],[-75.3054,20.6851,10.2516],[-75.304,20.6838,20.3696],[-75.3018,20.6838,4.1623],[-75.2993,20.6868,5.3718],[-75.2943,20.6874,6.5985],[-75.2901,20.6907,23.3028],[-75.2882,20.6904,1.9179],[-75.2846,20.6824,2.2607],[-75.2893,20.6721,3.6693],[-75.2843,20.6696,1.5],[-75.2801,20.6704,1.5],[-75.2754,20.679,4.6231],[-75.266,20.6829,2.5211],[-75.2529,20.6774,2.127],[-75.2438,20.6682,2.174],[-75.2496,20.671,2.7557],[-75.2546,20.6704,3.8342],[-75.2554,20.6724,1.5],[-75.2588,20.6707,2.6184],[-75.2593,20.6735,2.697],[-75.2576,20.6749,1.8004],[-75.2588,20.6776,1.5],[-75.2674,20.6815,2.0804],[-75.276,20.6768,1.7432],[-75.2785,20.6685,3.2047],[-75.2812,20.6696,1.5],[-75.2879,20.6685,1.8278],[-75.2954,20.6635,2.8492],[-75.299,20.6638,1.5],[-75.2999,20.6618,1.7848],[-75.3024,20.6654,1.5],[-75.311,20.6582,3.4152],[-75.3176,20.6585,3.1226],[-75.3196,20.6554,4.1978],[-75.3221,20.6549,3.4563],[-75.3246,20.6596,1.5],[-75.3304,20.6599,4.7399],[-75.3304,20.6626,3.3351],[-75.324,20.6632,1.5],[-75.324,20.6643,1.5],[-75.3265,20.6671,3.721],[-75.3274,20.6712,4.5348],[-75.3307,20.6743,1.5],[-75.3354,20.6751,18.5063],[-75.3357,20.6787,6.8606],[-75.3382,20.681,4.4992],[-75.3376,20.6865,6.7986],[-75.3465,20.684,1.5],[-75.3457,20.6824,7.9202],[-75.3424,20.6832,1.5],[-75.3401,20.674,5.7195],[-75.3418,20.6738,3.2521],[-75.3435,20.676,1.5],[-75.3451,20.6707,2.0773],[-75.349,20.669,1.5],[-75.3515,20.6704,8.8856],[-75.3507,20.6735,2.6802],[-75.3557,20.6743,11.9034],[-75.3565,20.6829,1.5],[-75.3593,20.6849,1.5],[-75.359,20.6871,8.0134],[-75.3554,20.6882,1.5],[-75.3532,20.6918,1.5],[-75.3549,20.6935,4.2258],[-75.3629,20.6929,5.3078],[-75.3662,20.6896,10.8046],[-75.3685,20.6896,12.3169],[-75.3743,20.6976,6.7352],[-75.3746,20.7026,5.5871],[-75.3721,20.7049,2.8421],[-75.3685,20.7051,1.8734],[-75.3665,20.7012,4.0356],[-75.3637,20.7001,1.5],[-75.3626,20.7007,1.5],[-75.3646,20.7021,8.5213],[-75.3621,20.7029,2.9003],[-75.3607,20.7012,1.7298],[-75.3593,20.7038,13.6472],[-75.349,20.7018,1.5],[-75.3479,20.7057,1.5],[-75.3515,20.7068,20.8927],[-75.3499,20.7074,10.44],[-75.3504,20.7088,5.5343],[-75.3535,20.7088,7.0139],[-75.3521,20.7101,7.0139],[-75.3487,20.7099,13.3318],[-75.3479,20.7065,1.5],[-75.3446,20.7054,1.5],[-75.3396,20.7099,3.3082],[-75.3332,20.7101,2.0744],[-75.3279,20.7124,3.1177],[-75.3271,20.7149,3.0543],[-75.3362,20.719,1.7377],[-75.3365,20.7207,0.0],[-75.3457,20.7246,3.3842],[-75.3485,20.7274,0.0],[-75.3518,20.7279,0.5787],[-75.3482,20.726,2.9922],[-75.3501,20.7249,2.2153],[-75.3538,20.7265,2.3215],[-75.3524,20.7274,0.5787],[-75.3532,20.7282,0.5787],[-75.3688,20.7318,4.0692],[-75.3724,20.734,0.0],[-75.379,20.7335,5.3268],[-75.3879,20.7357,0.0],[-75.3885,20.7343,1.5116],[-75.3968,20.7337,5.6614],[-75.4032,20.7351,1.2625],[-75.406,20.7329,3.1864],[-75.4107,20.7321,1.6214],[-75.4124,20.7232,3.4786],[-75.4135,20.7232,3.945],[-75.4126,20.7296,2.2689],[-75.4146,20.7299,2.4028],[-75.4146,20.7313,2.1481],[-75.4112,20.7346,4.6514],[-75.404,20.7349,1.2625],[-75.404,20.7382,1.7767],[-75.4093,20.741,0.0],[-75.4199,20.741,2.5918],[-75.429,20.7457,0.0],[-75.436,20.7449,1.5482],[-75.4376,20.7432,2.6158],[-75.446,20.7432,1.9782],[-75.4507,20.7401,2.0807],[-75.4699,20.7382,1.3682],[-75.4724,20.734,2.5596],[-75.4721,20.7318,0.6199],[-75.4685,20.7293,3.4665],[-75.4679,20.7237,2.6846],[-75.4701,20.7221,0.0],[-75.4701,20.7196,1.7671],[-75.4629,20.7221,5.2148],[-75.4629,20.7204,1.2855],[-75.4601,20.7188,2.5758],[-75.4635,20.7199,1.2855],[-75.4649,20.7168,0.0],[-75.4587,20.7143,3.2522],[-75.4554,20.7151,11.7294],[-75.4507,20.7121,19.0273],[-75.4435,20.711,28.6433],[-75.441,20.7085,9.8681],[-75.441,20.699,3.2191],[-75.4435,20.6951,14.5346],[-75.444,20.6885,7.62],[-75.4465,20.6857,1.593],[-75.4488,20.6857,3.1913],[-75.4493,20.691,0.0],[-75.4532,20.6932,1.3072],[-75.4615,20.6926,0.0],[-75.4612,20.6963,0.859],[-75.464,20.6982,0.0],[-75.4689,20.6979,2.4311],[-75.4562,20.6739,32.3189],[-75.4514,20.6574,121.8051],[-75.426,20.6102,143.7141],[-75.4139,20.5932,259.6906],[-75.3465,20.6167,87.011],[-75.3051,20.6186,44.6872],[-75.2786,20.626,82.4426],[-75.1412,20.6267,63.6104],[-75.1049,20.6188,15.4431],[-75.0573,20.6201,49.556399999999996],[-75.0476,20.6358,37.187]]],
[[[-75.301,20.6715,3.3159],[-75.3021,20.6724,1.5],[-75.3035,20.6696,4.1787],[-75.2996,20.6693,1.5],[-75.301,20.6715,3.3159]]],
[[[-75.2937,20.6729,1.5],[-75.2946,20.6749,4.0764],[-75.2965,20.6707,1.9539],[-75.296,20.6707,1.9539],[-75.2937,20.6729,1.5]]],
[[[-75.1637,20.6907,0.0],[-75.1676,20.6887,4.9584],[-75.171,20.6904,4.1061],[-75.1732,20.6871,2.4547],[-75.1671,20.6868,0.0],[-75.1637,20.6907,0.0]]],
[[[-75.3151,20.6707,2.5045],[-75.3138,20.6732,6.6016],[-75.3157,20.6726,1.5],[-75.3157,20.6699,1.5],[-75.3151,20.6707,2.5045]]],
[[[-75.3176,20.6796,7.3527],[-75.3204,20.6799,20.628],[-75.321,20.6762,14.1091],[-75.3251,20.6776,1.5],[-75.3238,20.6754,21.6157],[-75.3249,20.6718,1.5],[-75.3226,20.6732,13.9567],[-75.3182,20.6715,1.5],[-75.3193,20.6754,14.5844],[-75.3174,20.6776,15.194],[-75.3154,20.6762,1.5],[-75.3107,20.6765,1.5],[-75.3168,20.6779,15.194],[-75.3176,20.6796,7.3527]]],
[[[-75.3524,20.6851,9.0556],[-75.3535,20.6857,1.5],[-75.354,20.6821,1.5],[-75.3521,20.6801,1.5],[-75.3515,20.6813,3.4042],[-75.3529,20.6829,6.7863],[-75.3524,20.6851,9.0556]]],
[[[-75.3171,20.6874,3.2742],[-75.3187,20.6868,1.5],[-75.3182,20.6849,1.5],[-75.3171,20.6851,1.5],[-75.3171,20.6874,3.2742]]],
[[[-75.3172,20.694,1.5],[-75.3182,20.6943,1.5],[-75.3176,20.6904,1.5],[-75.3149,20.6921,9.4798],[-75.3126,20.6899,1.5],[-75.3107,20.6921,3.3222],[-75.3121,20.6935,3.3222],[-75.3138,20.6926,7.6834],[-75.3172,20.694,1.5]]],
[[[-75.3437,20.7007,4.679],[-75.3418,20.7038,1.5],[-75.3468,20.7001,3.5326],[-75.3449,20.699,7.3775],[-75.3451,20.694,15.4476],[-75.3432,20.6929,4.7128],[-75.3401,20.701,1.5],[-75.3437,20.7007,4.679]]],
[[[-75.3337,20.7051,3.9933],[-75.336,20.7057,1.5],[-75.3365,20.7043,2.9052],[-75.3335,20.7043,3.9933],[-75.3337,20.7051,3.9933]]]]}}