{"type": "Feature","bbox": [-71.9378,19.424,-71.7839,19.7146],"geometry": {"type": "MultiPolygon","coordinates": [[[[-71.8964,19.4607,556.6614],[-71.8938,19.4622,560.1565],[-71.8812,19.4525,611.2858],[-71.8747,19.444,825.1337],[-71.8732,19.4363,1075.3602],[-71.8668,19.4267,923.5155],[-71.8613,19.4269,883.7356],[-71.8532,19.424,673.9362],[-71.8458,19.4275,823.3076],[-71.8417,19.4267,976.9449],[-71.8412,19.4314,809.7399],[-71.8438,19.4354,823.7314],[-71.8394,19.4395,665.2261],[-71.8457,19.4455,891.8685],[-71.8466,19.4503,844.3306],[-71.8391,19.4627,293.6874],[-71.8294,19.4713,166.6747],[-71.8281,19.4755,156.2497],[-71.8282,19.4781,173.0392],[-71.8371,19.4825,391.5272],[-71.8382,19.4853,376.22],[-71.836,19.4897,432.7027],[-71.8379,19.4951,410.7117],[-71.8385,19.5055,119.1345],[-71.836,19.5099,120.3021],[-71.8366,19.5169,89.964],[-71.8334,19.5251,82.0196],[-71.828,19.527,78.1805],[-71.8225,19.5333,59.744],[-71.8207,19.5402,52.1946],[-71.8218,19.5425,50.6551],[-71.8246,19.5427,59.0429],[-71.822,19.5456,51.6864],[-71.8226,19.5499,41.2369],[-71.8197,19.5509,40.9961],[-71.8206,19.555,42.9987],[-71.8157,19.5543,43.851],[-71.8162,19.5574,35.8942],[-71.8135,19.5593,32.538],[-71.8098,19.5569,31.9548],[-71.8091,19.5602,37.9413],[-71.8064,19.5613,37.3442],[-71.8053,19.5638,30.8439],[-71.8093,19.564,36.1267],[-71.8094,19.5695,30.8911],[-71.8168,19.5736,42.2675],[-71.8183,19.5848,49.8292],[-71.8119,19.5897,54.6066],[-71.8045,19.5924,32.6715],[-71.8058,19.6022,36.925],[-71.7972,19.6132,28.5234],[-71.7892,19.6203,25.7624],[-71.7963,19.6365,13.1056],[-71.7903,19.6465,9.7227],[-71.7853,19.6474,4.9507],[-71.7839,19.6523,3.3617],[-71.7845,19.655,1.7577],[-71.7883,19.6583,3.1394],[-71.7976,19.6594,16.6759],[-71.7908,19.7088,0.0],[-71.811,19.7132,0.0],[-71.831,19.7145,1.0808],[-71.8363,19.7146,0.7937],[-71.8446,19.7118,0.6459],[-71.8421,19.7082,3.7503],[-71.8429,19.7049,4.7505],[-71.8399,19.701,3.8087],[-71.8426,19.6979,8.8669],[-71.8407,19.6907,5.5985],[-71.8415,19.6876,3.168],[-71.8394,19.6871,6.3158],[-71.8365,19.689,8.2968],[-71.8349,19.6865,0.0],[-71.8317,19.688,3.0927],[-71.8288,19.6835,0.0],[-71.8261,19.684,6.0573],[-71.823,19.6808,0.0],[-71.822,19.6821,7.8926],[-71.8199,19.6812,0.0],[-71.8187,19.684,6.161],[-71.8104,19.6746,0.0],[-71.811,19.6711,0.9255],[-71.8157,19.6731,0.4815],[-71.8185,19.6726,0.0],[-71.8107,19.6693,0.6426],[-71.8121,19.6671,0.6724],[-71.8191,19.6693,0.0],[-71.8204,19.6674,0.0],[-71.8203,19.6662,1.3883],[-71.8182,19.6663,1.3616],[-71.8187,19.6646,0.0],[-71.8168,19.6632,0.0],[-71.8196,19.6615,2.0674],[-71.8196,19.659,2.0039],[-71.8157,19.6588,2.6709],[-71.8189,19.6555,0.0],[-71.8163,19.6516,0.0],[-71.8195,19.6488,0.0],[-71.8247,19.6485,1.7063],[-71.8249,19.6504,1.7964],[-71.8225,19.6523,0.7639],[-71.8254,19.6536,3.4684],[-71.8251,19.6565,2.4735],[-71.8277,19.6588,1.2026],[-71.8259,19.6622,0.0],[-71.8384,19.6688,0.0],[-71.8415,19.6727,0.0],[-71.8409,19.6756,0.0],[-71.8468,19.6693,0.7118],[-71.8545,19.6688,0.0],[-71.8587,19.6712,0.3438],[-71.8616,19.6685,4.7292],[-71.8618,19.6699,2.3593],[-71.8643,19.6701,1.4573],[-71.8662,19.666,1.0088],[-71.8732,19.6649,1.0268],[-71.8774,19.6607,0.7838],[-71.884,19.664,0.0],[-71.884,19.6674,0.0],[-71.8882,19.669,0.0],[-71.8887,19.6724,0.0],[-71.8943,19.6704,3.6596],[-71.8938,19.6701,3.6596],[-71.8926,19.6707,0.0],[-71.894,19.6527,23.8956],[-71.8922,19.6473,25.1104],[-71.8981,19.6374,43.7889],[-71.8978,19.6345,51.396],[-71.9008,19.6302,71.8559],[-71.9012,19.6254,99.3987],[-71.8941,19.6135,336.6461],[-71.8965,19.6133,291.8677],[-71.9038,19.6074,134.7375],[-71.9065,19.6022,95.0923],[-71.8955,19.5861,62.5149],[-71.8951,19.581,75.8694],[-71.8997,19.5752,196.525],[-71.8961,19.571,135.731],[-71.8912,19.5696,100.2757],[-71.8838,19.5606,69.3246],[-71.8845,19.5544,46.8366],[-71.8829,19.5509,46.1485],[-71.8862,19.5475,52.1233],[-71.8827,19.5465,58.3937],[-71.8942,19.5434,60.5654],[-71.8951,19.5403,64.9993],[-71.8945,19.5262,69.4855],[-71.8909,19.5226,78.8284],[-71.8917,19.516,83.1993],[-71.8948,19.5125,92.9724],[-71.8956,19.5068,88.4513],[-71.8941,19.5026,89.8849],[-71.8951,19.5003,93.2011],[-71.9042,19.4977,98.3606],[-71.9065,19.4984,104.9728],[-71.908,19.4967,99.0144],[-71.911,19.4996,102.4661],[-71.9149,19.498,115.692],[-71.9187,19.4986,112.8311],[-71.9211,19.4939,116.6172],[-71.9267,19.4926,133.0508],[-71.9378,19.4795,587.8081],[-71.9101,19.4586,547.3551],[-71.8964,19.4607,556.6614]]]]}
,"properties": {"GID_3": "HTI.5.1.1_1","GID_0": "HTI","country": "Haiti","GID_1": "HTI.5_1","province": "Nord-Est","NL_NAME_1": "NA","GID_2": "HTI.5.1_1","county": "Fort-Liberté","NL_NAME_2": "NA","city": "Fort-Liberté","VARNAME_3": "NA","NL_NAME_3": "NA","TYPE_3": "Commune","ENGTYPE_3": "Commune","CC_3": "NA","HASC_3": "NA","name": "Fort-Liberté.city","area_km2": 238.5853,"hist_schema_id": "Elevation0-9000","hist_area_km2": {"0": 44.783,"25": 53.2427,"50": 33.4604,"75": 28.7904,"100": 16.9447,"125": 10.492,"150": 6.4153,"175": 4.7967,"200": 3.6577,"225": 2.9782,"250": 2.3186,"275": 2.5784,"300": 2.1587,"325": 1.8989,"350": 1.8989,"375": 1.9989,"400": 1.4592,"425": 1.5192,"450": 1.4393,"475": 1.0395,"500": 1.0595,"525": 0.8796,"550": 1.0195,"575": 0.6197,"600": 0.5198,"625": 0.3398,"650": 0.4198,"675": 0.4798,"700": 0.8197,"725": 0.8597,"750": 0.8597,"775": 0.9597,"800": 0.5998,"825": 0.8397,"850": 0.8597,"875": 0.6398,"900": 0.7798,"925": 0.5398,"950": 0.4998,"975": 0.3399,"1000": 0.2399,"1025": 0.2799,"1050": 0.1,"1075": 0.06,"1100": 0.08,"1125": 0.02}}}