{"type":"Feature","properties":{"GID_1":"PRI.76_1","GID_0":"PRI","country":"PuertoRico","province":"Villalba","VARNAME_1":"NA","NL_NAME_1":"NA","TYPE_1":"Municipio","ENGTYPE_1":"Municipality","CC_1":"NA","HASC_1":"PR.VL","ISO_1":"-","name":"Villalba.province"},
"geometry":{"type": "MultiPolygon","coordinates": [[[[-66.4446,18.1766,979.1349],[-66.4525,18.1784,974.704],[-66.4585,18.177,906.8147],[-66.4705,18.1779,838.3232],[-66.4732,18.1721,945.7017],[-66.4774,18.1697,1056.5229],[-66.4884,18.1663,971.2867],[-66.4968,18.1668,1069.975],[-66.4995,18.1648,953.9541],[-66.506,18.1639,827.6512],[-66.5138,18.1557,881.6387],[-66.5221,18.1518,1035.3427],[-66.5234,18.1452,922.6801],[-66.5266,18.1408,915.4487],[-66.5284,18.1318,794.2195],[-66.5233,18.1223,608.7517],[-66.5269,18.1098,299.2395],[-66.5302,18.107,330.9894],[-66.5222,18.0898,435.299],[-66.518,18.0851,342.7899],[-66.5074,18.0808,111.1737],[-66.5019,18.0876,103.5],[-66.5056,18.0918,103.5],[-66.5052,18.0937,103.5],[-66.5019,18.0957,103.5],[-66.4918,18.0962,142.2363],[-66.4793,18.0877,501.0148],[-66.4599,18.0835,531.0522],[-66.4391,18.085,200.7663],[-66.4303,18.0822,171.4576],[-66.429,18.0913,219.4103],[-66.4216,18.0975,329.3025],[-66.4305,18.1151,613.9682],[-66.4245,18.1323,306.7234],[-66.4213,18.1361,325.7182],[-66.4195,18.1457,342.8093],[-66.4293,18.1566,386.3807],[-66.4288,18.1647,600.7795],[-66.4446,18.1766,979.1349]]]]}}