{"type": "Feature","bbox": [-74.4812,18.4183,-74.3044,18.5109],"geometry": {"type": "MultiPolygon","coordinates": [[[[-74.3874,18.4483,534.7733],[-74.3811,18.4521,323.129],[-74.3699,18.4468,217.4048],[-74.3696,18.4447,218.6226],[-74.3659,18.444,221.0582],[-74.3658,18.4416,170.9318],[-74.3626,18.4398,224.501],[-74.3619,18.4359,171.8054],[-74.351,18.4297,323.389],[-74.3442,18.4195,217.4897],[-74.3343,18.4186,291.2462],[-74.3307,18.4254,417.4818],[-74.3275,18.4277,544.4644],[-74.314,18.4286,641.4857],[-74.3151,18.4388,430.281],[-74.308,18.4459,283.7252],[-74.3074,18.4538,564.0913],[-74.3044,18.4585,458.3141],[-74.3109,18.4615,309.636],[-74.3241,18.4599,189.1626],[-74.327,18.4625,132.7615],[-74.3343,18.4593,146.4266],[-74.3427,18.4654,348.2338],[-74.3459,18.4633,370.1311],[-74.3511,18.4654,391.0186],[-74.3586,18.4634,440.1903],[-74.3593,18.4703,348.5181],[-74.3562,18.4782,340.9145],[-74.3638,18.4844,287.9164],[-74.3702,18.4864,216.777],[-74.3722,18.4887,206.2351],[-74.3689,18.4907,210.5759],[-74.3732,18.4963,218.6787],[-74.3735,18.5008,205.8373],[-74.3682,18.5057,214.5504],[-74.3748,18.5109,390.7431],[-74.3794,18.5102,421.0377],[-74.391,18.5004,256.7236],[-74.3946,18.4993,209.7106],[-74.3961,18.497,122.5519],[-74.3943,18.4935,143.9017],[-74.4146,18.5014,191.8433],[-74.4202,18.5018,264.4879],[-74.4245,18.4984,177.0176],[-74.4281,18.4998,183.8784],[-74.4351,18.4969,143.0956],[-74.4519,18.5002,41.9667],[-74.4537,18.4983,38.5069],[-74.4558,18.499,11.3655],[-74.4569,18.4958,16.9421],[-74.4599,18.4949,0.0],[-74.4628,18.4907,0.0],[-74.4601,18.4907,31.4367],[-74.4529,18.486,1.4233],[-74.454,18.4829,13.8292],[-74.4527,18.4799,17.4398],[-74.4546,18.476,3.6011],[-74.4529,18.4749,2.6677],[-74.4532,18.4712,2.2459],[-74.4618,18.4651,14.7457],[-74.4596,18.4632,3.9234],[-74.4599,18.4613,3.7245],[-74.4654,18.459,0.0],[-74.4651,18.4532,3.0997],[-74.4682,18.4496,11.1644],[-74.4709,18.4495,0.0],[-74.4693,18.4468,13.8515],[-74.4718,18.4457,0.0],[-74.4696,18.445,5.1196],[-74.4701,18.4421,19.5771],[-74.4715,18.4407,0.9272],[-74.4749,18.441,0.0],[-74.4729,18.4349,0.0],[-74.4812,18.4279,0.0],[-74.4751,18.4268,0.0],[-74.4737,18.4235,0.0],[-74.4751,18.4221,0.0],[-74.4727,18.42,14.664],[-74.4655,18.4183,34.21],[-74.4534,18.4208,141.214],[-74.4507,18.42,74.1159],[-74.4501,18.4225,67.3905],[-74.4474,18.4215,54.1769],[-74.4467,18.4249,101.0488],[-74.4411,18.4243,101.867],[-74.4428,18.4297,139.5041],[-74.4353,18.4384,138.1873],[-74.432,18.4385,133.1292],[-74.4287,18.4363,316.1663],[-74.4182,18.4396,394.7328],[-74.4151,18.4389,400.7424],[-74.411,18.4418,370.0017],[-74.4093,18.4416,370.0017],[-74.4081,18.4364,242.2869],[-74.3973,18.427,196.5968],[-74.3957,18.428,195.032],[-74.395,18.4316,212.5034],[-74.398,18.4367,220.8196],[-74.3976,18.4387,285.7416],[-74.3874,18.4483,534.7733]]]]}
,"properties": {"GID_3": "HTI.2.1.1_1","GID_0": "HTI","country": "Haiti","GID_1": "HTI.2_1","province": "Grand'Anse","NL_NAME_1": "NA","GID_2": "HTI.2.1_1","county": "Ansed'Hainault","NL_NAME_2": "NA","city": "Ansed'Hainault","VARNAME_3": "NA","NL_NAME_3": "NA","TYPE_3": "Commune","ENGTYPE_3": "Commune","CC_3": "NA","HASC_3": "NA","name": "Ansed'Hainault.city","area_km2": 97.80062,"hist_schema_id": "Elevation0-9000","hist_area_km2": {"0": 2.37313,"25": 5.83226,"50": 4.42452,"75": 3.70046,"100": 5.51001,"125": 6.47549,"150": 7.7226,"175": 5.63104,"200": 6.13381,"225": 4.86684,"250": 5.04784,"275": 4.38418,"300": 4.54511,"325": 4.18321,"350": 4.48486,"375": 3.59998,"400": 3.74081,"425": 3.41902,"450": 2.9162,"475": 2.39333,"500": 2.03131,"525": 1.60899,"550": 1.14641,"575": 0.60341,"600": 0.26148,"625": 0.20114,"650": 0.24137,"675": 0.1408,"700": 0.14079,"725": 0.04023}}}