{"type": "Feature","bbox": [-72.3647,18.7514,-72.155,18.9054],"geometry": {"type": "MultiPolygon","coordinates": [[[[-72.1585,18.8317,166.7143],[-72.1623,18.8387,116.7269],[-72.155,18.8447,86.5502],[-72.1571,18.8462,88.698],[-72.1571,18.8513,88.1355],[-72.163,18.8522,85.7741],[-72.1644,18.8632,85.0729],[-72.1801,18.8639,83.447],[-72.1843,18.8691,84.8143],[-72.1857,18.8766,81.2604],[-72.1958,18.8771,82.2611],[-72.2004,18.8795,81.1176],[-72.2008,18.8829,82.0987],[-72.1983,18.8879,82.7633],[-72.213,18.8882,79.6815],[-72.2139,18.8902,89.6842],[-72.2181,18.8915,76.2156],[-72.2235,18.8895,74.5958],[-72.2244,18.8976,74.4777],[-72.2326,18.8984,79.677],[-72.2408,18.9048,70.8807],[-72.2436,18.9054,71.5948],[-72.2468,18.9053,113.7351],[-72.2436,18.8996,121.0932],[-72.2481,18.8807,307.7205],[-72.2468,18.8717,448.1373],[-72.2533,18.858,663.7499],[-72.2568,18.8572,633.0061],[-72.2646,18.8619,702.2553],[-72.2788,18.86,963.3231],[-72.2892,18.8637,876.9762],[-72.3009,18.8637,840.4309],[-72.305,18.8636,774.7075],[-72.3109,18.8591,623.9383],[-72.3154,18.858,602.174],[-72.325,18.8627,635.063],[-72.3324,18.8631,649.452],[-72.3379,18.8664,704.9667],[-72.3415,18.8673,685.8732],[-72.3446,18.8661,735.8349],[-72.3562,18.8701,900.8309],[-72.3647,18.8658,1038.418],[-72.3618,18.8641,939.4151],[-72.3633,18.8589,854.9546],[-72.3603,18.8559,816.3459],[-72.3513,18.8513,810.3789],[-72.3357,18.8383,1057.2845],[-72.3336,18.8328,1103.3209],[-72.3243,18.8221,1001.5267],[-72.3232,18.8155,1053.8518],[-72.3194,18.8116,1132.9448],[-72.3139,18.8127,1064.4277],[-72.3092,18.8164,867.7892],[-72.3031,18.8181,778.615],[-72.2817,18.8165,564.5273],[-72.2789,18.8087,617.0153],[-72.2746,18.8074,550.9783],[-72.2724,18.804,580.2637],[-72.2744,18.7999,544.291],[-72.279,18.7974,626.4153],[-72.2621,18.7892,476.2366],[-72.2573,18.789,454.9962],[-72.2455,18.7805,460.4634],[-72.2372,18.7774,459.7525],[-72.229,18.778,374.8501],[-72.2258,18.7762,374.0027],[-72.225,18.7723,381.0915],[-72.2178,18.7737,333.0769],[-72.2101,18.7648,412.4374],[-72.2068,18.7579,552.2463],[-72.2031,18.7561,526.649],[-72.1998,18.7584,469.2744],[-72.1939,18.7514,592.3357],[-72.1899,18.7564,466.9963],[-72.1869,18.7651,387.2945],[-72.1839,18.7652,352.6476],[-72.1766,18.7602,429.5808],[-72.1744,18.7621,367.1542],[-72.1769,18.7674,345.5117],[-72.1751,18.7719,251.7374],[-72.1792,18.7733,261.668],[-72.182,18.7782,237.1654],[-72.1773,18.7846,211.1924],[-72.1775,18.7932,199.4909],[-72.1755,18.797,181.5473],[-72.1654,18.7982,163.2449],[-72.1619,18.8017,157.1597],[-72.1614,18.8051,169.1497],[-72.1585,18.8064,178.0254],[-72.1591,18.8144,212.4264],[-72.1565,18.8177,212.2171],[-72.1575,18.8231,209.6187],[-72.1553,18.8285,167.2744],[-72.1585,18.8317,166.7143]]]]}
,"properties": {"GID_3": "HTI.1.4.3_1","GID_0": "HTI","country": "Haiti","GID_1": "HTI.1_1","province": "Centre","NL_NAME_1": "NA","GID_2": "HTI.1.4_1","county": "Mirebalais","NL_NAME_2": "NA","city": "Saut-d'Eau","VARNAME_3": "NA","NL_NAME_3": "NA","TYPE_3": "Commune","ENGTYPE_3": "Commune","CC_3": "NA","HASC_3": "NA","name": "Saut-d'Eau.city","area_km2": 172.1982,"hist_schema_id": "Elevation0-9000","hist_area_km2": {"75": 2.5678,"100": 6.8215,"125": 6.4807,"150": 7.5646,"175": 7.4247,"200": 7.7062,"225": 6.2214,"250": 6.0207,"275": 5.9808,"300": 6.7233,"325": 8.1486,"350": 6.543,"375": 5.9607,"400": 5.9207,"425": 5.9606,"450": 6.1813,"475": 4.114,"500": 3.2109,"525": 5.4585,"550": 6.3211,"575": 5.1971,"600": 3.8727,"625": 3.4914,"650": 3.1704,"675": 3.0098,"700": 2.7891,"725": 2.769,"750": 2.6888,"775": 2.6085,"800": 3.05,"825": 2.769,"850": 2.5885,"875": 1.9664,"900": 2.0668,"925": 1.7056,"950": 1.7257,"975": 1.2642,"1000": 0.8829,"1025": 0.8629,"1050": 0.7425,"1075": 0.5619,"1100": 0.4816,"1125": 0.4415,"1150": 0.1204,"1175": 0.0401}}}