{"type":"Feature","properties":{"featurecla":"River","scalerank":12,"rivernum":22262,"dissolve":"22262River","name":"null989","name_alt":null,"note":"ID is link back to CEC data","name_full":null,"min_zoom":7.0,"strokeweig":0.15,"uident":2016501,"min_label":8.0},
"geometry":{"type": "LineString","coordinates": [[-70.666615363666239,19.183213608848206,578.3802],[-70.624582486062067,19.122422593223206,545.9199],[-70.619252082416239,19.107245184369035,561.8109],[-70.6168513662704,19.100368556764863,579.7792],[-70.612660285541239,19.088405666139863,825.1764],[-70.621896939187067,19.061102606244035,1009.8912],[-70.635812954812067,19.033229884889863,1231.3552],[-70.654530402728739,19.013373114056535,1252.0125],[-70.657704230853739,18.996608791139863,1434.0593],[-70.6517634756454,18.983262436973206,1241.8413]]}}