{"type":"Feature","properties":{"GID_1":"TTO.2_1","GID_0":"TTO","country":"TrinidadandTobago","province":"Chaguanas","VARNAME_1":"NA","NL_NAME_1":"NA","TYPE_1":"Borough","ENGTYPE_1":"Borough","CC_1":"NA","HASC_1":"TT.CH","ISO_1":"TT-CHA","name":"Chaguanas.province"},
"geometry":{"type": "MultiPolygon","coordinates": [[[[-61.4687,10.5229,0.0],[-61.4488,10.5229,4.6967],[-61.444,10.5208,5.3439],[-61.4376,10.5132,7.337],[-61.4338,10.5164,8.3529],[-61.4257,10.5185,10.8241],[-61.4242,10.5077,12.022],[-61.4152,10.4996,14.7375],[-61.4076,10.4996,16.6984],[-61.3937,10.506,19.9991],[-61.3926,10.5038,19.8396],[-61.3739,10.5032,25.3811],[-61.3712,10.5048,28.6603],[-61.3744,10.5102,22.9074],[-61.3685,10.5129,17.6332],[-61.3679,10.5172,22.956],[-61.37,10.5193,21.0363],[-61.3759,10.521,20.9523],[-61.3775,10.5242,20.4824],[-61.3775,10.5307,19.509],[-61.3731,10.5318,17.4262],[-61.3645,10.5398,13.5708],[-61.3639,10.5468,13.9407],[-61.3639,10.5495,13.3825],[-61.3666,10.5528,13.0215],[-61.369,10.5657,9.6928],[-61.4132,10.5643,3.5647],[-61.4384,10.5655,8.8581],[-61.4475,10.5623,14.0333],[-61.4583,10.5408,11.3018],[-61.4643,10.5404,2.9867],[-61.4649,10.5279,8.5149],[-61.4687,10.5229,0.0]]]]}}