{"type":"Feature","properties":{"ISO3166-1-Alpha-3":"TTO","country":"Trinidad and Tobago","fill":"#F0F","id":"63","name":"Chaguanas"},
"geometry":{"type": "Polygon","coordinates": [[[-61.36896,10.56551,9.6928],[-61.40976,10.56628,4.3549],[-61.44102,10.56499,9.4024],[-61.46061,10.53812,7.7634],[-61.46221,10.53812,11.5911],[-61.46223,10.53812,11.5911],[-61.46229,10.52261,13.3536],[-61.46226,10.52261,13.3536],[-61.46221,10.52261,13.3536],[-61.44826,10.52117,4.6162],[-61.4417,10.51951,5.9465],[-61.43428,10.51486,7.9527],[-61.42477,10.51305,11.0862],[-61.4172,10.50685,12.7335],[-61.40506,10.50313,15.9724],[-61.3795,10.50494,22.2524],[-61.37253,10.51119,25.5392],[-61.37131,10.52117,21.5895],[-61.36449,10.54427,14.2272],[-61.36896,10.56551,9.6928]]]}}