{"type":"Feature","properties":{"GID_3":"HTI.6.3.2_1","GID_0":"HTI","country":"Haiti","GID_1":"HTI.6_1","province":"Nord-Ouest","NL_NAME_1":"NA","GID_2":"HTI.6.3_1","county":"Saint-LouisduNord","NL_NAME_2":"NA","city":"SaintLouisduNord","VARNAME_3":"NA","NL_NAME_3":"NA","TYPE_3":"Commune","ENGTYPE_3":"Commune","CC_3":"NA","HASC_3":"NA","name":"Saint_Louisdu_Nord.city"},
"geometry":{"type": "MultiPolygon","coordinates": [[[[-72.6837,19.8087,740.5853],[-72.678,19.8088,609.5681],[-72.6772,19.8138,378.4539],[-72.6838,19.8262,213.7127],[-72.6846,19.8315,176.5371],[-72.6772,19.8327,314.5892],[-72.6791,19.8402,188.1512],[-72.6775,19.8442,449.7716],[-72.6787,19.8492,320.2849],[-72.6754,19.8556,251.3424],[-72.6693,19.8595,322.6733],[-72.6617,19.8705,698.4045],[-72.6665,19.877,433.2701],[-72.653,19.8899,232.8485],[-72.6466,19.9062,1.485],[-72.6426,19.9063,7.8499],[-72.6408,19.9087,6.1345],[-72.6363,19.9082,0.7297],[-72.6418,19.909,0.0],[-72.6435,19.9065,1.4305],[-72.6457,19.9065,1.485],[-72.6521,19.914,0.0],[-72.6588,19.9146,16.3265],[-72.661,19.9176,0.0],[-72.6682,19.9163,1.1385],[-72.6707,19.9182,1.6797],[-72.6712,19.9212,0.364],[-72.6813,19.9232,1.3737],[-72.6846,19.9204,3.1106],[-72.6885,19.9224,0.0],[-72.6885,19.9251,0.0],[-72.6924,19.9237,1.3647],[-72.6968,19.9254,2.0068],[-72.7024,19.9307,0.0],[-72.7076,19.9279,1.5657],[-72.7143,19.9326,0.0],[-72.7187,19.9335,2.2246],[-72.7218,19.9368,1.84],[-72.7321,19.9357,0.0],[-72.7382,19.939,0.0],[-72.741,19.9387,7.3694],[-72.7458,19.9425,0.0],[-72.751,19.9436,5.3443],[-72.7538,19.9424,5.1522],[-72.7559,19.9377,8.6972],[-72.7541,19.9375,38.6995],[-72.7608,19.9259,167.7242],[-72.7605,19.9203,247.5372],[-72.7713,19.908,259.3471],[-72.7707,19.9048,330.2654],[-72.7723,19.9007,432.6187],[-72.7712,19.8993,490.7074],[-72.7672,19.9002,474.6336],[-72.7665,19.8942,534.2907],[-72.7639,19.8945,531.9487],[-72.763,19.891,705.9878],[-72.7498,19.8848,771.2808],[-72.7485,19.8795,797.9464],[-72.7418,19.88,876.4097],[-72.7436,19.8753,774.9846],[-72.7486,19.8735,830.8074],[-72.7513,19.8695,816.3157],[-72.7473,19.8659,745.5645],[-72.7482,19.8609,820.3832],[-72.7453,19.8539,852.4663],[-72.7373,19.8499,836.9619],[-72.7355,19.8512,795.4675],[-72.7352,19.8484,813.3201],[-72.7324,19.8461,801.4077],[-72.7363,19.8434,859.0902],[-72.7349,19.8405,761.2365],[-72.7382,19.837,792.2201],[-72.7385,19.8325,635.0168],[-72.734,19.8281,757.1291],[-72.7311,19.8207,641.3186],[-72.7302,19.8123,417.2722],[-72.7246,19.8095,463.3267],[-72.7197,19.8119,520.7257],[-72.7122,19.8116,703.1588],[-72.6993,19.8156,742.0538],[-72.6912,19.8092,695.792],[-72.6837,19.8087,740.5853]]]]}}