{"type": "Feature","bbox": [-72.7102,18.1707,-72.221,18.4056],"geometry": {"type": "MultiPolygon","coordinates": [[[[-72.638,18.1902,0.1304],[-72.6382,18.1904,0.1304],[-72.6382,18.1901,0.1304],[-72.638,18.1902,0.1304]]],
[[[-72.6371,18.1943,23.1261],[-72.6362,18.1904,0.1192],[-72.6376,18.1899,0.1304],[-72.6332,18.1901,0.0],[-72.6301,18.1868,0.0],[-72.6224,18.1876,24.2653],[-72.6215,18.1846,1.3225],[-72.619,18.1829,0.0],[-72.6132,18.184,15.4367],[-72.6068,18.1821,6.4925],[-72.6035,18.1829,5.5153],[-72.5987,18.1782,0.0],[-72.5937,18.1771,14.636],[-72.5896,18.1779,0.0],[-72.5893,18.1799,7.2191],[-72.5871,18.1807,32.0381],[-72.5832,18.1799,2.3612],[-72.5793,18.1765,31.6162],[-72.579,18.1738,0.0],[-72.571,18.1754,0.0],[-72.5674,18.1707,4.0015],[-72.5526,18.1712,0.0],[-72.5429,18.1757,0.0],[-72.5407,18.1829,3.5647],[-72.5407,18.1896,6.6927],[-72.5418,18.1918,0.0],[-72.5462,18.1938,0.0],[-72.5468,18.1968,5.08],[-72.5524,18.1974,0.0],[-72.5532,18.204,23.7561],[-72.5512,18.2082,0.0],[-72.5574,18.2224,13.032],[-72.5498,18.2307,2.1842],[-72.5404,18.2321,5.2078],[-72.5343,18.2304,24.4371],[-72.5332,18.2279,3.8442],[-72.5274,18.2243,4.5609],[-72.5254,18.2207,1.5959],[-72.5235,18.2204,12.1466],[-72.5207,18.2146,0.0],[-72.5182,18.2135,0.0],[-72.5079,18.2143,0.0],[-72.4946,18.2193,1.9034],[-72.4918,18.2232,15.7316],[-72.4879,18.2243,9.6403],[-72.4765,18.2188,0.9682],[-72.4751,18.2207,7.2271],[-72.4726,18.2199,0.0],[-72.4721,18.2218,0.0],[-72.4679,18.2235,0.0],[-72.4551,18.2213,0.0],[-72.4346,18.2272,6.3038],[-72.4231,18.2248,0.7813],[-72.4099,18.2282,0.0],[-72.3935,18.2293,0.0],[-72.3788,18.234,9.4547],[-72.3718,18.234,8.421],[-72.3668,18.2321,6.3679],[-72.3604,18.2343,10.0697],[-72.3574,18.2307,0.9172],[-72.3515,18.234,21.9867],[-72.3493,18.2337,0.0],[-72.3474,18.231,0.0],[-72.3443,18.231,1.3268],[-72.3368,18.234,12.452],[-72.3349,18.2324,0.0],[-72.3282,18.2318,0.0],[-72.3268,18.2296,0.0],[-72.3149,18.2304,0.0],[-72.3057,18.2226,2.3013],[-72.3004,18.2213,0.0],[-72.2924,18.2226,0.6711],[-72.2915,18.2246,1.829],[-72.2862,18.2268,0.4633],[-72.2818,18.2254,0.0],[-72.2751,18.2282,3.7996],[-72.2704,18.2265,0.0],[-72.2632,18.2271,19.6674],[-72.2626,18.2257,0.0],[-72.2603,18.2281,23.1674],[-72.2496,18.2257,0.0],[-72.2454,18.2271,22.5516],[-72.2421,18.2229,0.0],[-72.2371,18.2235,10.9929],[-72.234,18.2215,0.0],[-72.2279,18.2237,8.5086],[-72.224,18.2221,19.5144],[-72.2222,18.2288,270.0374],[-72.2225,18.243,609.6527],[-72.221,18.2513,737.9791],[-72.2279,18.2611,929.3733],[-72.2306,18.2681,1085.2513],[-72.2269,18.2795,1275.5662],[-72.2293,18.2833,1286.6835],[-72.2303,18.2931,1436.6599],[-72.2323,18.2965,1473.3455],[-72.2324,18.299,1499.8218],[-72.2303,18.3007,1512.9048],[-72.2293,18.3043,1544.5378],[-72.2324,18.3123,1642.5596],[-72.2384,18.3194,1749.1289],[-72.2379,18.323,1790.2281],[-72.2405,18.3274,1876.4332],[-72.2357,18.3364,2139.6375],[-72.2483,18.3469,2140.8848],[-72.2543,18.3533,2168.6167],[-72.2542,18.3573,1985.0532],[-72.2573,18.3582,2175.9202],[-72.268,18.3569,2156.5312],[-72.2761,18.3536,2123.1321],[-72.2806,18.3543,2140.6064],[-72.2869,18.3438,1959.1758],[-72.2911,18.3414,1882.4419],[-72.3043,18.342,1853.3279],[-72.308,18.3401,1867.0588],[-72.3147,18.3399,1751.1104],[-72.3268,18.341,1646.0967],[-72.3395,18.348,1665.5133],[-72.3525,18.3488,1805.7375],[-72.363,18.3535,1899.0709],[-72.3647,18.3529,1913.8832],[-72.3639,18.3551,1818.9677],[-72.3669,18.3571,1574.0917],[-72.3697,18.3663,1439.5607],[-72.3671,18.378,1351.7725],[-72.3707,18.3813,1105.3505],[-72.3796,18.3791,933.7246],[-72.3834,18.38,814.3248],[-72.3838,18.3877,1021.1022],[-72.389,18.3915,1010.5517],[-72.394,18.3917,945.6548],[-72.3963,18.3861,980.2925],[-72.4044,18.3839,807.1675],[-72.4098,18.3787,885.3673],[-72.4271,18.3739,666.6077],[-72.4305,18.3763,705.8126],[-72.435,18.3732,670.2064],[-72.4363,18.3795,888.2103],[-72.4277,18.3949,1220.91],[-72.4221,18.3975,1186.7761],[-72.4235,18.401,1174.6516],[-72.4425,18.399,926.1665],[-72.4452,18.3965,806.0421],[-72.4825,18.4,510.0325],[-72.4984,18.4054,424.4632],[-72.5029,18.4056,634.5211],[-72.5073,18.3988,447.7383],[-72.52,18.3949,720.735],[-72.5223,18.3884,626.2538],[-72.5312,18.3824,550.2043],[-72.5346,18.3707,228.5667],[-72.5509,18.3651,579.0791],[-72.55,18.3587,720.0313],[-72.5536,18.354,646.254],[-72.5527,18.3518,588.2431],[-72.5559,18.3515,626.9849],[-72.5602,18.3546,674.4091],[-72.5636,18.3546,556.2894],[-72.5643,18.3469,320.8626],[-72.5799,18.3526,664.7606],[-72.587,18.352,821.6522],[-72.5962,18.3416,691.5601],[-72.5999,18.3334,664.2857],[-72.6014,18.3241,592.2047],[-72.6082,18.3228,468.2498],[-72.6115,18.3264,409.1129],[-72.6173,18.3387,628.3868],[-72.6223,18.3443,587.6639],[-72.6419,18.3455,477.9005],[-72.6419,18.3305,402.9261],[-72.6436,18.3279,356.5474],[-72.6511,18.3237,268.5196],[-72.6557,18.3234,334.6546],[-72.6629,18.3253,324.1572],[-72.6653,18.3283,304.1996],[-72.6698,18.33,324.6075],[-72.6824,18.3253,454.0948],[-72.6834,18.322,466.5059],[-72.6929,18.3208,689.8388],[-72.6953,18.3188,711.697],[-72.6971,18.3114,792.467],[-72.6993,18.3086,837.5629],[-72.7034,18.3074,843.3815],[-72.7034,18.3003,706.0645],[-72.7102,18.2937,689.8567],[-72.7055,18.2892,593.2933],[-72.6988,18.2909,485.5896],[-72.6964,18.2896,461.2549],[-72.6906,18.2958,579.415],[-72.6802,18.2919,483.2148],[-72.6718,18.2935,527.912],[-72.6658,18.2973,380.5652],[-72.6628,18.2939,359.9038],[-72.6603,18.2936,336.6018],[-72.6602,18.2952,358.0643],[-72.6584,18.2955,332.5049],[-72.655,18.2946,328.8412],[-72.6542,18.2922,333.0246],[-72.6484,18.2981,234.2483],[-72.6453,18.2993,250.8512],[-72.6308,18.2965,165.9044],[-72.6303,18.2949,206.1348],[-72.6364,18.2855,363.5052],[-72.6531,18.2782,589.0017],[-72.6523,18.2767,658.625],[-72.6493,18.2774,559.0729],[-72.6482,18.2746,634.1296],[-72.6466,18.2755,611.3915],[-72.6419,18.2692,634.4814],[-72.6482,18.2671,699.7172],[-72.6502,18.2642,655.3213],[-72.6395,18.2595,584.9298],[-72.6459,18.2502,401.2313],[-72.6514,18.2454,345.008],[-72.6507,18.2382,281.2954],[-72.6532,18.2361,272.3916],[-72.6508,18.2307,196.2373],[-72.6475,18.2311,214.0474],[-72.6448,18.2258,154.3102],[-72.6426,18.2268,148.6092],[-72.6427,18.2254,152.226],[-72.6409,18.2254,201.3196],[-72.6422,18.2247,152.226],[-72.6404,18.2233,178.8648],[-72.6416,18.2158,112.2148],[-72.6397,18.2142,105.1028],[-72.6386,18.2074,67.6323],[-72.6398,18.2067,76.9533],[-72.6378,18.2015,26.2891],[-72.6392,18.1984,33.2947],[-72.6371,18.1943,23.1261]]]]}
,"properties": {"GID_2": "HTI.9.3_1","GID_0": "HTI","country": "Haiti","GID_1": "HTI.9_1","province": "Sud-Est","NL_NAME_1": "NA","county": "Jacmel","VARNAME_2": "NA","NL_NAME_2": "NA","TYPE_2": "Arrondissement","ENGTYPE_2": "District","CC_2": "NA","HASC_2": "HT.SE.JC","name": "Jacmel.county","area_km2": 746.2145,"hist_schema_id": "Elevation0-9000","hist_area_km2": {"0": 11.9625,"25": 24.7695,"50": 27.99,"75": 17.3571,"100": 17.3562,"125": 17.3759,"150": 17.9591,"175": 17.1332,"200": 19.4882,"225": 19.3467,"250": 19.5678,"275": 20.1913,"300": 20.8551,"325": 21.1169,"350": 21.4188,"375": 22.767,"400": 24.3178,"425": 26.4921,"450": 29.6133,"475": 27.3176,"500": 23.0895,"525": 21.9218,"550": 20.4922,"575": 19.0628,"600": 18.6603,"625": 17.5326,"650": 15.6001,"675": 14.6741,"700": 13.0637,"725": 10.4871,"750": 9.9032,"775": 9.3999,"800": 7.7698,"825": 7.0449,"850": 5.9178,"875": 5.0725,"900": 4.4282,"925": 4.3074,"950": 3.7034,"975": 3.0192,"1000": 3.7236,"1025": 3.0796,"1050": 2.5161,"1075": 2.8985,"1100": 2.4959,"1125": 2.6568,"1150": 2.3549,"1175": 2.1336,"1200": 2.355,"1225": 2.5362,"1250": 2.3349,"1275": 1.8719,"1300": 1.6505,"1325": 1.5902,"1350": 1.8719,"1375": 1.5901,"1400": 1.8921,"1425": 1.7512,"1450": 1.9725,"1475": 1.7713,"1500": 2.0128,"1525": 2.3752,"1550": 1.5297,"1575": 1.6505,"1600": 1.3888,"1625": 1.892,"1650": 2.2341,"1675": 2.2945,"1700": 2.2341,"1725": 1.4692,"1750": 1.3887,"1775": 1.5699,"1800": 1.6302,"1825": 2.0931,"1850": 2.395,"1875": 1.8314,"1900": 1.6503,"1925": 1.288,"1950": 0.6843,"1975": 0.8654,"2000": 0.9861,"2025": 0.7647,"2050": 0.9459,"2075": 0.966,"2100": 1.1874,"2125": 1.0666,"2150": 0.6641,"2175": 0.2415,"2200": 0.1811,"2225": 0.0805,"2250": 0.0604}}}