{"type":"Feature","properties":{"GID_2":"CUB.7.8_1","GID_0":"CUB","country":"Cuba","GID_1":"CUB.7_1","province":"Holguín","NL_NAME_1":"NA","county":"Gibara","VARNAME_2":"NA","NL_NAME_2":"NA","TYPE_2":"Municipio","ENGTYPE_2":"Municipality","CC_2":"NA","HASC_2":"CU.HO.GI","name":"Gibara.county"},
"geometry":{"type": "MultiPolygon","coordinates": [[[[-76.4079,20.9986,111.8713],[-76.2899,20.9983,79.9682],[-76.2556,21.0124,63.2128],[-76.2209,21.0224,87.0364],[-76.2072,21.0215,53.2276],[-76.187,21.0145,31.4876],[-76.1854,21.0626,17.2187],[-76.1667,21.0901,59.5566],[-76.1531,21.1052,75.4297],[-76.1299,21.1045,0.0],[-76.1296,21.1076,4.0254],[-76.1249,21.1087,0.0],[-76.1249,21.1115,0.0],[-76.1279,21.1129,1.7476],[-76.1301,21.1221,0.0],[-76.1285,21.126,0.3144],[-76.1254,21.1279,1.8732],[-76.126,21.1313,0.5231],[-76.1312,21.1368,0.0],[-76.1312,21.1413,0.0],[-76.1285,21.1471,0.0],[-76.1296,21.1518,1.2276],[-76.144,21.1579,2.7688],[-76.146,21.1612,1.7216],[-76.1457,21.1663,0.0],[-76.149,21.1704,2.739],[-76.1654,21.1754,1.8486],[-76.1785,21.1832,0.0],[-76.1857,21.1832,2.4547],[-76.1935,21.1854,3.5996],[-76.204,21.1979,0.3301],[-76.214,21.2049,1.5045],[-76.2296,21.2096,0.0],[-76.2429,21.2099,1.6064],[-76.2513,21.2143,0.3461],[-76.2568,21.2201,0.4549],[-76.2774,21.2274,0.0],[-76.2896,21.236,0.0],[-76.296,21.2365,0.8622],[-76.3005,21.2404,1.8478],[-76.3043,21.1891,8.796],[-76.3177,21.1692,23.9465],[-76.3176,21.1633,21.0334],[-76.307,21.1587,23.0014],[-76.306,21.1561,19.3954],[-76.3084,21.1505,27.3242],[-76.3183,21.1459,22.8145],[-76.3431,21.1424,29.4122],[-76.3514,21.1376,32.3274],[-76.3652,21.1262,44.4791],[-76.3835,21.1174,27.4642],[-76.4096,21.1186,32.7556],[-76.4283,21.101,39.4512],[-76.4656,21.0575,46.6864],[-76.476,21.0488,48.476],[-76.4981,21.0413,46.6807],[-76.4553,21.0277,60.1044],[-76.4311,21.008,97.9994],[-76.4079,20.9986,111.8713]]]]}}