{"type": "Feature","bbox": [-73.8946,18.0218,-71.7618,19.0351],"geometry": {"type": "MultiPolygon","coordinates": [[[[-73.8899,18.0254,0.7575],[-73.8908,18.0256,4.6507],[-73.8923,18.0269,4.6507],[-73.8913,18.0254,0.0],[-73.8899,18.0254,0.7575]]],
[[[-73.8926,18.0268,0.0],[-73.8923,18.0269,4.6507],[-73.8926,18.0271,5.033],[-73.8926,18.0268,0.0]]],
[[[-73.8937,18.0281,5.033],[-73.8946,18.0293,1.8001],[-73.894,18.0279,5.033],[-73.8926,18.0271,5.033],[-73.8931,18.0276,5.033],[-73.8937,18.0281,5.033]]],
[[[-73.8867,18.0284,17.8363],[-73.8874,18.0249,2.7674],[-73.8899,18.0251,0.7575],[-73.8771,18.0218,0.0],[-73.8671,18.0226,0.4894],[-73.8654,18.0246,0.3721],[-73.8502,18.026,9.1696],[-73.8293,18.0249,0.0],[-73.8278,18.0265,2.89],[-73.8167,18.0223,3.1366],[-73.8054,18.0224,1.5691],[-73.8022,18.0263,5.881],[-73.8001,18.0256,3.7752],[-73.8004,18.0235,0.0],[-73.7985,18.0238,4.2081],[-73.7971,18.0276,6.315],[-73.791,18.0263,0.7825],[-73.7868,18.0329,0.0],[-73.7899,18.0349,5.414],[-73.7907,18.0385,3.5205],[-73.7872,18.0415,0.0],[-73.7846,18.0415,0.0],[-73.7832,18.039,0.0],[-73.7818,18.0418,0.8843],[-73.7832,18.0454,0.2684],[-73.781,18.0471,0.0],[-73.7821,18.0482,0.0],[-73.7835,18.0465,1.0322],[-73.7829,18.0499,0.2039],[-73.7846,18.0501,0.8007],[-73.7862,18.0551,0.0],[-73.7901,18.0587,0.7103],[-73.7915,18.059,0.0],[-73.791,18.0565,0.6358],[-73.793,18.056,1.1585],[-73.7962,18.0599,3.4848],[-73.8004,18.0617,7.767],[-73.8012,18.0654,0.9639],[-73.7982,18.066,0.9187],[-73.7985,18.0674,0.0],[-73.801,18.0679,0.0],[-73.804,18.0654,3.9106],[-73.8074,18.0676,5.2719],[-73.8093,18.0713,0.7908],[-73.8085,18.0751,1.7783],[-73.8129,18.079,0.0],[-73.8138,18.0821,0.0],[-73.8238,18.0904,0.0],[-73.8307,18.0929,0.0],[-73.8363,18.1012,0.0],[-73.8401,18.1026,0.0],[-73.8435,18.1107,6.5848],[-73.8422,18.1155,0.4691],[-73.8447,18.1181,1.5381],[-73.854,18.1222,3.8395],[-73.8527,18.1086,83.0573],[-73.8557,18.1029,126.6337],[-73.8612,18.099,257.3178],[-73.8612,18.0956,260.9695],[-73.8698,18.0916,225.6136],[-73.8724,18.084,226.3097],[-73.8804,18.0749,153.4896],[-73.8819,18.0653,143.6728],[-73.8785,18.0619,131.3718],[-73.8774,18.0564,116.9609],[-73.8809,18.051,115.225],[-73.8824,18.0351,54.0],[-73.8867,18.0284,17.8363]]],
[[[-71.7639,19.0347,260.4456],[-71.7623,19.032,223.8013],[-71.7618,19.0315,223.8013],[-71.7634,19.0351,260.4456],[-71.7639,19.0347,260.4456]]]]}
,"properties": {"GID_3": "HTI.10.5.3_1","GID_0": "HTI","country": "Haiti","GID_1": "HTI.10_1","province": "Sud","NL_NAME_1": "NA","GID_2": "HTI.10.5_1","county": "Port-Salut","NL_NAME_2": "NA","city": "Saint-JeanduSud","VARNAME_3": "NA","NL_NAME_3": "NA","TYPE_3": "Commune","ENGTYPE_3": "Commune","CC_3": "NA","HASC_3": "NA","name": "Saint-Jeandu_Sud.city","area_km2": 70.39108,"hist_schema_id": "Elevation0-9000","hist_area_km2": {"0": 8.40628,"25": 13.64732,"50": 10.94584,"75": 9.0105,"100": 9.51451,"125": 6.45044,"150": 4.47486,"175": 2.68081,"200": 1.79387,"225": 1.55197,"250": 0.80619,"275": 0.58448,"300": 0.40309,"325": 0.12092}}}