{"type": "Feature","bbox": [-81.3066,19.2626,-81.2515,19.2824],"geometry": {"type": "MultiPolygon","coordinates": [[[[-81.2515,19.2752,0.0],[-81.2719,19.2805,6.4345],[-81.2896,19.2824,2.435],[-81.3066,19.2699,0.0],[-81.3012,19.2654,0.0],[-81.296,19.2671,6.7332],[-81.2879,19.2626,4.4301],[-81.2746,19.2632,0.0],[-81.2613,19.2665,0.0],[-81.2515,19.2752,0.0]]]]}
,"properties": {"GID_1": "CYM.1_1","GID_0": "CYM","country": "CaymanIslands","province": "BoddenTown","VARNAME_1": "NA","NL_NAME_1": "NA","TYPE_1": "District","ENGTYPE_1": "District","CC_1": "NA","HASC_1": "KY.BT","ISO_1": "NA","name": "Bodden_Town.province","area_km2": 8.105695,"hist_schema_id": "Elevation0-9000","hist_area_km2": {"0": 7.865522,"25": 0.240173}}}