{"type":"Feature","properties":{"GID_2":"DOM.23.2_1","GID_0":"DOM","country":"DominicanRepublic","GID_1":"DOM.23_1","province":"Samaná","NL_NAME_1":"NA","county":"Sánchez","VARNAME_2":"NA","NL_NAME_2":"NA","TYPE_2":"Municipio","ENGTYPE_2":"Municipality","CC_2":"NA","HASC_2":"DO.SM.SA","name":"Sánchez.county"},
"geometry":{"type": "MultiPolygon","coordinates": [[[[-69.7431,19.15,4.6506],[-69.7461,19.1472,4.7301],[-69.7457,19.1425,3.145],[-69.7429,19.1367,2.7424],[-69.7295,19.1146,4.0403],[-69.7194,19.1078,8.1878],[-69.7202,19.0999,10.3402],[-69.7328,19.0942,100.8082],[-69.7263,19.0862,123.13],[-69.7166,19.0872,120.9251],[-69.71,19.0843,164.623],[-69.7057,19.0802,176.2505],[-69.6989,19.0671,194.2368],[-69.6984,19.0469,189.471],[-69.6956,19.0414,198.092],[-69.6894,19.0375,223.3175],[-69.681,19.0363,181.9733],[-69.6745,19.0332,206.5652],[-69.6607,19.0126,271.0659],[-69.6453,19.0079,287.7591],[-69.6212,18.9926,299.1747],[-69.6178,19.0158,261.2016],[-69.612799999999993,19.0261,233.9238],[-69.5985,19.081,7.3022],[-69.601,19.0818,0.5723],[-69.601,19.0801,38.3306],[-69.6057,19.0793,0.0],[-69.6082,19.0818,13.1434],[-69.6176,19.0815,0.0],[-69.6185,19.0779,24.1717],[-69.6207,19.0776,50.3313],[-69.6204,19.0832,0.0303],[-69.6268,19.0824,1.9594],[-69.6288,19.084,3.3805],[-69.6368,19.0979,17.6219],[-69.6335,19.0996,14.3597],[-69.6315,19.1035,5.9788],[-69.6346,19.1093,4.3233],[-69.6304,19.1151,5.79],[-69.6332,19.1132,14.7383],[-69.6365,19.1171,3.9551],[-69.6401,19.136,5.6736],[-69.6371,19.1368,0.0],[-69.6315,19.1607,0.0],[-69.6315,19.1662,2.019],[-69.6288,19.1699,0.0],[-69.6263,19.1796,0.0],[-69.6251,19.191,11.7989],[-69.6265,19.1926,9.7],[-69.6243,19.1946,0.0],[-69.6274,19.1982,6.7991],[-69.624,19.1979,0.0],[-69.6235,19.2001,0.0],[-69.6251,19.2018,12.6891],[-69.624,19.2143,0.0],[-69.6274,19.2185,8.2269],[-69.6271,19.2204,3.588],[-69.6199,19.2251,0.4189],[-69.6146,19.2235,0.0],[-69.6096,19.2254,0.0],[-69.5946,19.2201,1.3581],[-69.5912,19.2168,0.0],[-69.5815,19.2187,0.0],[-69.5774,19.2174,17.3471],[-69.5768,19.215699999999998,4.1671],[-69.5635,19.2149,0.81],[-69.5546,19.2115,0.0],[-69.5479,19.2115,0.0],[-69.5462,19.2132,0.8247],[-69.5407,19.214,1.9444],[-69.5326,19.211,0.8327],[-69.529,19.2138,8.5427],[-69.5254,19.2135,1.3027],[-69.5199,19.2104,0.0],[-69.5154,19.211,5.5906],[-69.5135,19.2076,0.0],[-69.5062,19.2129,3.3246],[-69.504,19.2129,2.3251],[-69.4965,19.2065,0.0],[-69.4918,19.2085,0.0],[-69.4874,19.2057,1.5342],[-69.4843,19.206,2.6276],[-69.4814,19.2082,3.036],[-69.4814,19.2167,34.3908],[-69.476,19.2255,177.7899],[-69.4759,19.2322,260.693],[-69.4808,19.2408,254.1878],[-69.4922,19.2475,276.6342],[-69.4934,19.2502,297.5986],[-69.4926,19.2532,292.4324],[-69.4852,19.2615,271.0914],[-69.4838,19.2695,254.085],[-69.4789,19.279,158.6457],[-69.4792,19.2826,171.7002],[-69.483,19.2853,163.6882],[-69.4878,19.2818,189.9234],[-69.4966,19.2802,217.6919],[-69.499,19.2773,270.8488],[-69.5001,19.2703,340.4356],[-69.5027,19.2676,340.8434],[-69.5182,19.2619,321.8535],[-69.5337,19.2599,407.3798],[-69.5422,19.2543,477.1814],[-69.5461,19.245,304.0969],[-69.5852,19.2449,410.4963],[-69.5933,19.2425,351.3741],[-69.6054,19.2419,366.2815],[-69.6162,19.2371,118.5433],[-69.6179,19.2393,188.7009],[-69.6153,19.2424,263.0757],[-69.613,19.25,353.5375],[-69.6196,19.2629,419.1987],[-69.6268,19.2671,380.8313],[-69.6419,19.2684,351.9141],[-69.6493,19.2724,291.0258],[-69.6566,19.2858,174.2549],[-69.6565,19.2926,34.4423],[-69.6599,19.2899,19.2078],[-69.6696,19.2865,10.3876],[-69.6712,19.2843,10.0082],[-69.6796,19.2824,0.0],[-69.6854,19.2829,0.0],[-69.6935,19.2787,3.9588],[-69.7007,19.2785,1.0867],[-69.7057,19.2763,1.1405],[-69.7204,19.2763,0.6855],[-69.7395,19.281,0.0],[-69.7428,19.2724,1.4097],[-69.7435,19.2618,2.0816],[-69.7458,19.2555,3.523],[-69.7463,19.2343,5.4604],[-69.7506,19.2209,3.7358],[-69.7208,19.2204,1.9518],[-69.71,19.2176,2.5992],[-69.6876,19.2171,1.7532],[-69.6675,19.2005,10.497],[-69.6641,19.1946,0.8858],[-69.6668,19.1889,0.9671],[-69.6742,19.1804,3.169],[-69.6757,19.1673,0.7514],[-69.6855,19.1595,0.8589],[-69.6913,19.1634,2.5557],[-69.6947,19.1629,2.6195],[-69.697,19.1577,2.6321],[-69.7037,19.1523,4.5939],[-69.706,19.1447,2.6963],[-69.7161,19.1408,3.5738],[-69.7225,19.1365,4.159],[-69.7252,19.1364,4.9339],[-69.7305,19.1394,5.0106],[-69.7364,19.1487,7.4912],[-69.7431,19.15,4.6506]]],
[[[-69.6565,19.2926,34.4423],[-69.6563,19.2932,34.4423],[-69.6565,19.2932,34.4423],[-69.6565,19.2926,34.4423]]]]}}