{"type": "Feature","id": "1997","bbox": [-59.65292,13.23723,-59.56897,13.30439],"geometry": {"type": "Polygon","coordinates": [[[-59.56897,13.28967,0.0],[-59.57592,13.30439,0.0],[-59.57592,13.30439,0.0],[-59.57682,13.30384,4.5987],[-59.63049,13.28679,53.7921],[-59.64899,13.27469,0.0],[-59.65289,13.27387,0.0],[-59.65292,13.27386,0.0],[-59.65081,13.23884,0.0],[-59.65077,13.23883,0.0],[-59.64449,13.23723,6.5938],[-59.62772,13.24493,77.6348],[-59.60605,13.24209,237.2134],[-59.60545,13.27583,159.6342],[-59.60413,13.27841,155.4617],[-59.60318,13.28276,145.2907],[-59.60258,13.28296,145.2907],[-59.60225,13.28317,145.2907],[-59.60196,13.28327,145.2907],[-59.60171,13.28317,145.2907],[-59.6014,13.28307,155.1664],[-59.60109,13.28276,155.1664],[-59.60047,13.28245,155.1664],[-59.59977,13.28219,155.1664],[-59.59894,13.28193,157.7638],[-59.59845,13.28193,157.7638],[-59.59793,13.28208,157.7638],[-59.59752,13.28219,149.3501],[-59.59705,13.28224,157.3278],[-59.59628,13.28214,157.3278],[-59.596,13.28214,157.3278],[-59.59566,13.28219,157.3278],[-59.5954,13.28224,157.3278],[-59.59504,13.28214,168.1882],[-59.59447,13.28172,178.323],[-59.59297,13.28188,188.4604],[-59.59059,13.28281,198.2136],[-59.58633,13.28684,177.0934],[-59.58406,13.28813,150.3144],[-59.58261,13.28854,139.1255],[-59.58212,13.28828,139.1255],[-59.5816,13.28813,139.1255],[-59.58124,13.28808,139.1255],[-59.58091,13.28782,137.0908],[-59.58044,13.28777,137.0908],[-59.57985,13.28782,137.0908],[-59.57819,13.28927,115.1774],[-59.57799,13.28927,115.1774],[-59.57788,13.28916,115.1774],[-59.57649,13.28885,106.7372],[-59.57067,13.28906,2.7646],[-59.56897,13.28967,0.0]]]}
,"properties": {"ISO3166-1-Alpha-3": "BRB","country": "Barbados","fill": "#00F","name": "Saint Peter","area_km2": 30.54144,"hist_schema_id": "Elevation0-9000","hist_area_km2": {"0": 5.17987,"25": 2.00172,"50": 6.12896,"75": 3.46681,"100": 2.29055,"125": 5.1381,"150": 3.17795,"175": 1.73347,"200": 0.96995,"225": 0.45404}}}