{"type": "Feature","id": "5020","bbox": [-78.14086,24.15217,-77.68244,24.64899],"geometry": {"type": "MultiPolygon","coordinates": [[[[-77.8024,24.24445,0.0],[-77.7987,24.25458,0.0],[-77.83967,24.25458,0.3148],[-77.85001,24.25145,0.264],[-77.86628,24.24274,0.0],[-77.871,24.24091,0.3733],[-77.92593,24.20645,0.0],[-77.93586,24.20307,0.0],[-77.94058,24.19359,-0.5671],[-77.95173,24.194,0.1959],[-77.96422,24.19717,0.0],[-77.97338,24.19619,0.0],[-77.97623,24.18684,0.3827],[-77.97419,24.17284,-1.0],[-77.96906,24.15957,0.3202],[-77.96255,24.15217,0.0252],[-77.94457,24.15424,0.3968],[-77.89367,24.17764,1.1029],[-77.88069,24.18627,-1.0],[-77.87047,24.1979,0.1742],[-77.86083,24.22525,-0.3332],[-77.85391,24.23469,0.0],[-77.84358,24.23969,0.0],[-77.83853,24.23794,0.0],[-77.83422,24.23456,0.0],[-77.826,24.23469,0.0],[-77.80842,24.23945,0.0],[-77.8024,24.24445,0.0]]],
[[[-77.94188,24.24046,0.0],[-77.94262,24.25312,-0.5],[-77.93639,24.26154,0.379],[-77.92162,24.26203,0.0],[-77.9322,24.2757,0.0],[-77.95287,24.27045,0.0],[-77.97875,24.25922,0.0],[-78.00475,24.25458,0.0],[-78.01692,24.24844,0.2788],[-78.01293,24.23965,0.0],[-78.00133,24.23143,0.0],[-77.99047,24.22724,-0.7858],[-77.97558,24.22712,0.2397],[-77.95027,24.23054,0.0],[-77.93586,24.22724,0.0],[-77.94188,24.24046,0.0]]],
[[[-77.84862,24.32758,1.9483],[-77.83703,24.34219,0.283],[-77.83283,24.34955,0.2803],[-77.83975,24.35008,0.2588],[-77.86921,24.34683,0.5903],[-77.88362,24.34113,0.321],[-77.8837,24.32734,0.0547],[-77.8673,24.31948,0.9857],[-77.84862,24.32758,1.9483]]],
[[[-77.68244,24.35277,0.0],[-77.6881,24.36079,0.0],[-77.69616,24.36709,3.9473],[-77.70311,24.37059,7.1594],[-77.71923,24.37173,2.2527],[-77.73925,24.36713,0.4351],[-77.75805,24.35936,-0.5],[-77.77668,24.34715,0.4272],[-77.7987,24.3371,0.0963],[-77.80443,24.32722,0.073],[-77.79979,24.31729,0.4861],[-77.78685,24.3146,0.0],[-77.76769,24.32661,0.774],[-77.74804,24.34593,0.5113],[-77.73754,24.34968,0.0],[-77.71984,24.35078,1.3751],[-77.71125,24.34748,0.0703],[-77.70059,24.3415,6.1284],[-77.69034,24.33845,7.4027],[-77.68261,24.34394,0.0],[-77.68244,24.35277,0.0]]],
[[[-78.01781,24.27505,0.0],[-78.01171,24.28189,0.6058],[-78.01244,24.28925,0.0],[-78.01578,24.29735,0.0],[-78.01781,24.3061,0.0],[-78.01277,24.31415,0.1201],[-77.97338,24.34052,0.0],[-77.96142,24.34553,0.438],[-77.92663,24.34577,0.6741],[-77.90856,24.35078,0.0852],[-77.87206,24.37377,0.0],[-77.8601,24.38491,0.0],[-77.87169,24.40681,0.0],[-77.86384,24.41543,0.0],[-77.83349,24.41909,0.0],[-77.82331,24.42731,0.0],[-77.81456,24.43871,0.1976],[-77.80411,24.4488,0.4309],[-77.78873,24.45319,0.7711],[-77.75109,24.45848,0.0],[-77.72789,24.47419,4.7105],[-77.71874,24.49982,1.9578],[-77.72354,24.5351,0.0],[-77.74547,24.57758,0.0],[-77.75357,24.60204,0.0],[-77.74779,24.62108,0.0],[-77.74181,24.63471,0.0],[-77.83405,24.64899,1.5771],[-77.94244,24.6385,0.5621],[-78.02986,24.61752,0.9704],[-78.07181,24.59655,0.7024],[-78.09979,24.54759,0.3276],[-78.13443,24.50161,0.0775],[-78.14086,24.4335,0.4003],[-78.13414,24.40396,0.0991],[-78.10342,24.39175,1.1992],[-78.08015,24.37946,1.6715],[-78.06969,24.35041,0.121],[-78.0633,24.31623,0.3751],[-78.05191,24.28872,0.7147],[-78.04552,24.28197,0.2907],[-78.03698,24.27595,0.271],[-78.02746,24.27285,0.0],[-78.01781,24.27505,0.0]]]]}
,"properties": {"ISO3166-1-Alpha-3": "BHS","country": "The Bahamas","fill": "#F0F","name": "Central Andros","area_km2": 1237.9372,"hist_schema_id": "Elevation0-9000","hist_area_km2": {"0": 1237.4935,"25": 0.4437}}}