{"type": "Feature","bbox": [-78.1815,24.1457,-77.6749,24.6045],"geometry": {"type": "MultiPolygon","coordinates": [[[[-77.8807,24.2701,0.2942],[-77.8821,24.271,0.0],[-77.8865,24.2649,0.1933],[-77.896,24.264,0.0],[-77.8979,24.2621,0.0],[-77.8996,24.2585,0.0],[-77.8976,24.2526,0.0],[-77.8996,24.2515,0.0257],[-77.9007,24.2468,0.3256],[-77.9057,24.2407,0.0],[-77.9071,24.2365,0.8922],[-77.9101,24.2343,0.0669],[-77.9115,24.229,0.0],[-77.9165,24.2246,0.5251],[-77.9201,24.2243,0.0],[-77.921,24.2224,0.0],[-77.9201,24.221,0.0],[-77.9143,24.2243,0.3957],[-77.9007,24.2396,0.1526],[-77.8957,24.2412,0.1205],[-77.8915,24.2449,0.1413],[-77.8854,24.2429,0.053],[-77.8801,24.2485,0.0],[-77.8735,24.2515,0.0901],[-77.8724,24.2488,0.0],[-77.8743,24.2446,0.0],[-77.8732,24.2426,0.0838],[-77.8771,24.2382,0.0583],[-77.8913,24.2332,0.0554],[-77.8893,24.2285,0.1566],[-77.8938,24.2207,0.0],[-77.8943,24.2138,0.0],[-77.8918,24.2043,0.1915],[-77.8924,24.2001,0.2799],[-77.8968,24.201,0.0],[-77.9088,24.199,0.0],[-77.9204,24.2018,0.2018],[-77.9274,24.1976,0.2646],[-77.9262,24.1887,0.0],[-77.9232,24.1863,0.1412],[-77.9285,24.1879,0.0],[-77.9307,24.1863,0.1898],[-77.9349,24.1957,0.4291],[-77.9224,24.206,0.0],[-77.9299,24.2035,0.2615],[-77.9315,24.206,0.0],[-77.9321,24.2032,0.0],[-77.936,24.2004,0.2599],[-77.939,24.2001,0.215],[-77.9424,24.2024,0.0],[-77.9488,24.2007,0.0],[-77.9496,24.196,0.1073],[-77.9546,24.1946,0.0],[-77.9549,24.1879,0.0],[-77.9571,24.1821,0.0],[-77.9668,24.1815,0.2215],[-77.9701,24.1826,0.0],[-77.9729,24.1868,0.0],[-77.9796,24.1899,0.133],[-77.9871,24.1901,0.3938],[-77.9901,24.1863,0.0],[-77.9907,24.1815,0.1814],[-77.9949,24.174,0.2985],[-77.9876,24.1726,0.2974],[-77.9807,24.1679,0.6352],[-77.9746,24.156,0.1922],[-77.9679,24.1535,0.0],[-77.9615,24.1457,0.5197],[-77.9413,24.1488,0.4555],[-77.9354,24.156,0.0],[-77.9365,24.1588,0.482],[-77.9301,24.1621,1.1721],[-77.9254,24.1626,0.6603],[-77.9176,24.1607,0.5153],[-77.8904,24.1712,0.0525],[-77.8801,24.1732,0.0],[-77.8776,24.1751,0.0],[-77.869,24.1746,0.2382],[-77.8646,24.1779,0.0957],[-77.8624,24.1776,0.0],[-77.8587,24.1821,0.5352],[-77.8554,24.1921,0.0],[-77.8618,24.2004,0.1753],[-77.8626,24.2065,0.1765],[-77.851,24.2118,0.0],[-77.8518,24.2154,0.2309],[-77.8499,24.2207,0.1607],[-77.844,24.2224,0.505],[-77.8446,24.224,0.0],[-77.8507,24.2268,0.1081],[-77.8557,24.2263,0.0],[-77.8557,24.2301,0.0],[-77.8654,24.2335,0.1094],[-77.8699,24.2332,0.0356],[-77.8718,24.2304,0.1251],[-77.8735,24.2335,0.0],[-77.8712,24.241,0.3733],[-77.8671,24.2404,0.0],[-77.8587,24.244,0.2095],[-77.8526,24.2424,0.7005],[-77.849,24.2465,0.0],[-77.8446,24.2482,0.0883],[-77.8382,24.2443,0.159],[-77.8351,24.2376,0.2108],[-77.8268,24.236,0.0],[-77.8254,24.2329,0.0],[-77.8235,24.2329,0.0603],[-77.819,24.2349,0.1274],[-77.8132,24.244,0.679],[-77.809,24.2468,0.1054],[-77.8068,24.2515,0.5307],[-77.804,24.2524,0.0],[-77.8024,24.2557,0.0],[-77.8207,24.2635,0.0],[-77.8268,24.264,0.0],[-77.8337,24.2621,0.0],[-77.8418,24.2635,0.0],[-77.846,24.2599,0.7076],[-77.8532,24.2601,0.1781],[-77.8599,24.2629,0.0],[-77.8668,24.2554,0.1969],[-77.8699,24.2624,0.0643],[-77.8665,24.2646,0.0],[-77.8704,24.2649,0.0518],[-77.8774,24.2613,0.0488],[-77.8793,24.2638,0.8272],[-77.8737,24.2696,0.0],[-77.8807,24.2701,0.2942]]],
[[[-77.9276,24.2129,0.0],[-77.9238,24.2154,0.129],[-77.9215,24.2193,0.0],[-77.9293,24.2165,0.1941],[-77.9318,24.2138,0.1237],[-77.9351,24.214,0.0],[-77.9399,24.2062,0.1509],[-77.9313,24.209,0.4809],[-77.9287,24.2062,0.0989],[-77.9293,24.2107,0.7238],[-77.9276,24.2129,0.0]]],
[[[-77.9568,24.2804,0.4309],[-77.9565,24.2818,0.0],[-77.9596,24.2812,0.0989],[-77.9632,24.2787,0.6766],[-77.966,24.2815,0.0878],[-77.9701,24.2796,0.1672],[-77.9729,24.281,0.0],[-77.9779,24.2804,0.1782],[-77.994,24.2704,0.1861],[-78.0018,24.2707,0.0],[-78.0062,24.2696,0.0747],[-78.0085,24.2665,0.2727],[-78.014,24.2657,0.2544],[-78.0218,24.2563,0.077],[-78.021,24.2526,0.0973],[-78.016,24.2496,0.3532],[-78.024,24.2482,0.3806],[-78.0282,24.241,0.0837],[-78.0304,24.2415,0.0],[-78.0287,24.244,0.0],[-78.0326,24.2468,0.0],[-78.0315,24.251,0.0],[-78.0335,24.2543,0.0],[-78.0329,24.2576,0.0713],[-78.0376,24.2604,0.2573],[-78.0385,24.2624,0.2991],[-78.0365,24.2635,0.0],[-78.0404,24.2682,0.0],[-78.046,24.2679,0.1178],[-78.0479,24.254,0.0],[-78.0407,24.2468,0.0],[-78.0371,24.246,0.2665],[-78.0368,24.2424,0.2463],[-78.0335,24.241,0.4173],[-78.0335,24.2374,0.435],[-78.0312,24.2357,0.5459],[-78.0346,24.2329,1.5227],[-78.0332,24.2307,0.4173],[-78.0299,24.2301,0.0],[-78.0282,24.2321,0.6777],[-78.0229,24.2301,0.1639],[-78.0168,24.2229,0.0],[-78.0126,24.2221,0.6859],[-78.011,24.2196,0.0],[-78.009,24.2201,0.1044],[-78.0001,24.211,0.0],[-77.9979,24.2115,0.0916],[-77.994,24.2096,0.2196],[-77.9857,24.1985,0.0],[-77.9821,24.199,0.2695],[-77.9793,24.2012,0.0892],[-77.9796,24.2051,0.0866],[-77.9774,24.2088,0.3853],[-77.9718,24.2126,0.1313],[-77.9687,24.2126,0.0],[-77.9657,24.215699999999998,0.2944],[-77.9651,24.2149,0.0686],[-77.9657,24.2132,0.0541],[-77.9679,24.2096,0.0],[-77.9604,24.2101,0.0],[-77.9568,24.2082,0.0],[-77.9512,24.2085,0.0],[-77.944,24.2143,0.3145],[-77.9368,24.2129,0.1234],[-77.9343,24.2165,0.1778],[-77.936,24.2199,0.1873],[-77.9321,24.2218,0.1325],[-77.9307,24.2246,0.0],[-77.9357,24.2213,0.0],[-77.9446,24.221,0.0628],[-77.9504,24.2276,0.2271],[-77.9521,24.2337,0.0],[-77.9332,24.2426,0.0],[-77.9362,24.2463,0.1338],[-77.9349,24.2515,0.0963],[-77.9326,24.2532,0.0364],[-77.9238,24.2546,0.2815],[-77.9179,24.2588,0.5457],[-77.9171,24.261,0.0],[-77.9254,24.2585,0.1404],[-77.9285,24.259,-0.0018],[-77.9285,24.2621,0.1696],[-77.9251,24.2632,0.0],[-77.9282,24.2671,0.0],[-77.9374,24.2651,0.2373],[-77.9382,24.2713,0.0],[-77.9418,24.2687,0.3497],[-77.9454,24.2685,0.0797],[-77.9454,24.2713,0.0],[-77.9471,24.2724,0.0],[-77.9504,24.2693,0.0],[-77.964,24.2632,0.0],[-77.9665,24.2582,0.0],[-77.9604,24.2601,0.1894],[-77.9615,24.2549,0.3043],[-77.981,24.2437,0.1967],[-77.9871,24.2357,0.1543],[-77.9912,24.2335,0.0],[-78.0004,24.2324,0.0663],[-78.0026,24.2349,0.3416],[-78.0024,24.239,0.2032],[-78.0065,24.236,0.1714],[-78.0096,24.2357,0.2069],[-78.0135,24.2379,0.0773],[-78.0163,24.2376,0.4168],[-78.0154,24.2401,0.0],[-78.0174,24.2396,0.2318],[-78.0193,24.2424,0.3245],[-78.0129,24.2454,0.0],[-78.0126,24.2476,0.2672],[-78.0076,24.2482,0.0],[-78.0054,24.2501,0.0],[-78.0074,24.2543,0.0],[-78.0049,24.2582,0.3085],[-77.996,24.2615,0.4913],[-77.9826,24.259,0.2193],[-77.9793,24.2618,0.123],[-77.9799,24.2663,0.0],[-77.9746,24.271,0.5592],[-77.964,24.2779,0.6766],[-77.9587,24.2779,0.2052],[-77.9568,24.2804,0.4309]]],
[[[-78.0271,24.2576,0.1207],[-78.0285,24.2585,0.1207],[-78.0315,24.2582,0.1263],[-78.0296,24.256,0.2189],[-78.0271,24.2576,0.1207]]],
[[[-77.9101,24.2649,0.0],[-77.9126,24.2654,0.2771],[-77.9157,24.2629,0.0],[-77.9146,24.2624,0.0],[-77.9101,24.2649,0.0]]],
[[[-77.9413,24.2893,0.0],[-77.9443,24.2899,0.2594],[-77.9476,24.2862,0.0],[-77.9443,24.2849,0.0],[-77.941,24.2876,0.3615],[-77.9413,24.2893,0.0]]],
[[[-77.8901,24.3113,0.0],[-77.8935,24.3121,0.0],[-77.9018,24.3093,0.1625],[-77.9062,24.3068,0.1181],[-77.911,24.301,0.1399],[-77.9235,24.2996,0.1824],[-77.9357,24.2921,0.0],[-77.9246,24.2932,0.0],[-77.9168,24.2982,0.0],[-77.9099,24.2979,0.1772],[-77.8893,24.3015,0.2237],[-77.8801,24.306,0.0],[-77.8857,24.3063,0.0801],[-77.8876,24.3054,0.4326],[-77.8915,24.3071,0.0],[-77.8901,24.3113,0.0]]],
[[[-77.9229,24.3251,0.1903],[-77.9299,24.326,0.0],[-77.9393,24.3232,0.1483],[-77.9415,24.3221,0.1591],[-77.9418,24.3188,0.4839],[-77.9382,24.3182,0.0],[-77.9371,24.3154,0.0],[-77.931,24.3174,0.0601],[-77.9271,24.3165,0.2052],[-77.9262,24.3101,0.0],[-77.9207,24.311,0.182],[-77.914,24.3154,0.0],[-77.9124,24.319,0.0],[-77.9163,24.3199,0.1504],[-77.916,24.3221,0.0],[-77.9187,24.3235,0.3062],[-77.919,24.3257,0.0],[-77.9229,24.3251,0.1903]]],
[[[-77.8418,24.2793,0.1791],[-77.8457,24.2799,0.0618],[-77.849,24.2768,0.6951],[-77.8524,24.2768,0.0],[-77.8526,24.2746,0.0],[-77.8474,24.2749,0.0],[-77.8454,24.2765,0.2047],[-77.8435,24.2735,0.0],[-77.8404,24.2729,0.0],[-77.8376,24.2749,0.0877],[-77.8376,24.2771,0.0],[-77.8418,24.2793,0.1791]]],
[[[-77.8662,24.2882,0.0978],[-77.8679,24.2888,0.0],[-77.8743,24.2824,0.0],[-77.8768,24.284,0.0],[-77.8765,24.2793,0.0],[-77.8749,24.2779,0.0833],[-77.8776,24.2751,0.0],[-77.8643,24.2801,0.0],[-77.8651,24.2851,0.0],[-77.8607,24.2879,0.1635],[-77.8649,24.2871,0.0],[-77.8662,24.2882,0.0978]]],
[[[-77.8285,24.3099,0.1405],[-77.8335,24.3087,0.0],[-77.8354,24.306,0.0],[-77.8349,24.299,0.2276],[-77.8371,24.294,0.1337],[-77.8362,24.2932,0.0],[-77.8288,24.2957,0.0],[-77.8296,24.2974,0.0],[-77.8335,24.2982,0.0974],[-77.8318,24.3035,0.0],[-77.8343,24.3037,0.4886],[-77.8346,24.3051,0.1715],[-77.8285,24.3099,0.1405]]],
[[[-77.8365,24.3188,0.0],[-77.8388,24.3201,0.5133],[-77.8404,24.3182,0.5241],[-77.8382,24.3165,0.0],[-77.8365,24.3188,0.0]]],
[[[-77.8437,24.3532,0.312],[-77.846,24.3543,0.0],[-77.8543,24.3487,0.286],[-77.8618,24.3487,0.7772],[-77.8643,24.3468,0.5248],[-77.8746,24.3482,0.07],[-77.8804,24.3432,0.2932],[-77.8851,24.3426,0.7639],[-77.8801,24.3485,0.0],[-77.8829,24.3496,0.0],[-77.8885,24.3421,0.0872],[-77.8876,24.3379,0.0],[-77.886,24.3371,0.174],[-77.8874,24.3296,0.0],[-77.881,24.3271,0.1914],[-77.8771,24.3174,0.0],[-77.8674,24.3154,0.0],[-77.8557,24.3204,0.0],[-77.8549,24.3224,0.1609],[-77.8463,24.3257,0.1841],[-77.8443,24.3279,0.3699],[-77.8396,24.3288,0.1397],[-77.8399,24.3324,0.3147],[-77.8371,24.3329,0.0],[-77.8354,24.3354,0.1841],[-77.8349,24.3476,0.1459],[-77.8324,24.3485,0.1483],[-77.8304,24.3468,0.0],[-77.8268,24.3535,0.0],[-77.8301,24.3515,0.4064],[-77.8315,24.3529,0.0],[-77.8357,24.3526,0.0],[-77.839,24.3501,0.6219],[-77.8437,24.3532,0.312]]],
[[[-77.8685,24.3551,0.4027],[-77.8693,24.3563,0.0977],[-77.8712,24.3546,0.1573],[-77.8696,24.3543,0.4027],[-77.8685,24.3551,0.4027]]],
[[[-77.8487,24.3671,0.0],[-77.8479,24.3676,0.0],[-77.8501,24.3674,0.0],[-77.8538,24.3638,0.0],[-77.864,24.3629,0.0],[-77.866,24.3601,0.0751],[-77.8571,24.3599,0.0],[-77.8487,24.3671,0.0]]],
[[[-77.836,24.3785,0.1796],[-77.8418,24.3788,0.0],[-77.8471,24.3749,0.3843],[-77.8474,24.3729,0.2061],[-77.8457,24.3726,0.2061],[-77.8412,24.3774,0.076],[-77.836,24.3785,0.1796]]],
[[[-77.7482,24.2968,0.0],[-77.7487,24.2982,0.1152],[-77.7543,24.2946,1.1425],[-77.7682,24.2929,0.147],[-77.7804,24.2868,2.237],[-77.7876,24.2899,0.0],[-77.7971,24.2874,0.0],[-77.8012,24.2832,0.1687],[-77.8049,24.2838,0.0],[-77.8065,24.2801,0.0721],[-77.8099,24.2787,0.1088],[-77.8046,24.2726,0.0],[-77.8107,24.2718,0.2029],[-77.8124,24.274,0.0],[-77.8196,24.2751,0.1904],[-77.8249,24.278199999999998,0.0754],[-77.8315,24.2776,0.0],[-77.8326,24.2763,0.3142],[-77.8304,24.274,0.8777],[-77.8213,24.2721,0.5547],[-77.8085,24.2665,0.0],[-77.8054,24.2679,0.4379],[-77.7965,24.2674,0.383],[-77.791,24.2724,1.0642],[-77.7851,24.2749,0.0],[-77.7821,24.279,3.451],[-77.7729,24.2835,0.0],[-77.7682,24.2885,0.0],[-77.764,24.2882,0.0],[-77.7513,24.2926,1.2401],[-77.7482,24.2968,0.0]]],
[[[-77.8163,24.2962,0.163],[-77.8229,24.2965,0.0],[-77.8301,24.291,0.099],[-77.834,24.2901,0.2417],[-77.8362,24.2904,0.0576],[-77.8385,24.2932,0.1436],[-77.8421,24.2924,0.0],[-77.8435,24.296,0.0],[-77.8446,24.296,0.0],[-77.8449,24.2929,0.0],[-77.8388,24.2913,0.4292],[-77.8315,24.2851,0.0],[-77.8262,24.2849,0.0],[-77.8285,24.2893,0.1884],[-77.8229,24.2918,0.3744],[-77.8176,24.2915,0.1374],[-77.8149,24.294,0.8113],[-77.8163,24.2962,0.163]]],
[[[-77.7732,24.2965,0.1094],[-77.7751,24.2976,0.0],[-77.7765,24.2962,0.1526],[-77.7826,24.2962,0.0],[-77.7835,24.2949,0.0],[-77.7757,24.2938,0.3205],[-77.7732,24.2946,0.0],[-77.7732,24.2965,0.1094]]],
[[[-77.7729,24.2979,0.1192],[-77.7718,24.2968,0.1094],[-77.7682,24.3001,0.0],[-77.7718,24.2993,0.0],[-77.7729,24.2979,0.1192]]],
[[[-77.7901,24.3054,0.3021],[-77.7926,24.3068,0.0991],[-77.8004,24.3037,0.6919],[-77.8068,24.3051,0.0],[-77.8101,24.3032,0.2063],[-77.8138,24.304,0.0],[-77.824,24.3024,0.0],[-77.8271,24.2999,0.0],[-77.8132,24.2999,0.0],[-77.8115,24.3013,0.0657],[-77.804,24.3015,0.431],[-77.7932,24.2993,0.1039],[-77.7904,24.3024,0.4016],[-77.7901,24.3054,0.3021]]],
[[[-77.8238,24.3143,0.2305],[-77.8229,24.3165,0.0],[-77.8254,24.3149,0.0],[-77.8251,24.3129,0.0],[-77.8238,24.3143,0.2305]]],
[[[-77.7999,24.3679,0.0],[-77.8015,24.3688,0.0],[-77.8057,24.3626,0.3507],[-77.8087,24.3629,0.0],[-77.8157,24.3599,0.0],[-77.8193,24.3538,0.0],[-77.819,24.3451,0.0],[-77.8082,24.3529,0.0],[-77.8032,24.3593,0.1768],[-77.7999,24.3607,0.1571],[-77.7999,24.3679,0.0]]],
[[[-77.764,24.4046,0.0544],[-77.7696,24.4051,0.9847],[-77.7721,24.4024,0.0],[-77.7718,24.3993,0.0],[-77.7771,24.3971,0.1289],[-77.7757,24.3904,0.0],[-77.7721,24.3907,0.7685],[-77.7737,24.3876,0.0],[-77.771,24.3874,0.0],[-77.7654,24.3913,0.2194],[-77.7668,24.396,0.1776],[-77.764,24.3968,0.0],[-77.7668,24.399,0.413],[-77.7637,24.3999,0.0626],[-77.7626,24.403199999999998,0.1134],[-77.764,24.4046,0.0544]]],
[[[-77.7143,24.3288,0.24],[-77.714,24.3307,0.0],[-77.7282,24.3274,0.0],[-77.7363,24.329,0.0],[-77.7412,24.3271,0.0],[-77.7412,24.3249,0.0],[-77.7351,24.3246,0.1771],[-77.7351,24.3224,0.1124],[-77.741,24.3218,0.2446],[-77.7479,24.3185,1.0963],[-77.7521,24.3188,0.0],[-77.7568,24.3154,0.3816],[-77.7501,24.3124,0.5172],[-77.7399,24.3171,0.4846],[-77.726,24.3182,0.0],[-77.7226,24.3207,0.2075],[-77.7226,24.3254,0.0],[-77.7143,24.3288,0.24]]],
[[[-77.6796,24.3312,0.0],[-77.6835,24.3318,0.0],[-77.6862,24.331,0.0],[-77.6871,24.329,0.0],[-77.6851,24.3265,0.0],[-77.6818,24.3263,0.0],[-77.6774,24.3274,0.1926],[-77.6749,24.3299,0.3291],[-77.6796,24.3312,0.0]]],
[[[-77.7121,24.4246,0.5919],[-77.7162,24.4254,0.4278],[-77.7368,24.4085,0.0],[-77.7424,24.4101,0.4215],[-77.746,24.4088,0.0],[-77.7462,24.4074,0.2785],[-77.7418,24.4065,0.0709],[-77.7424,24.4037,0.0],[-77.7382,24.403199999999998,0.1036],[-77.7407,24.399,0.0],[-77.744,24.3974,0.0776],[-77.7443,24.3946,0.2176],[-77.7499,24.3926,0.0403],[-77.7504,24.3896,0.3564],[-77.7535,24.3921,0.2826],[-77.7521,24.3963,0.0],[-77.7538,24.3968,0.0876],[-77.7613,24.3896,0.0],[-77.7649,24.3832,0.1635],[-77.7679,24.3876,0.0],[-77.7701,24.3871,0.0],[-77.7715,24.3835,0.0611],[-77.7735,24.3826,0.0],[-77.776,24.3826,0.0852],[-77.7763,24.3843,0.0],[-77.7801,24.3863,0.0],[-77.781,24.3849,0.0],[-77.7787,24.3826,0.2617],[-77.7787,24.379,0.1358],[-77.7815,24.3793,0.0],[-77.7829,24.3826,0.0],[-77.7862,24.3801,0.0649],[-77.7896,24.3751,0.0],[-77.7832,24.3751,0.0475],[-77.7815,24.3732,0.0],[-77.7796,24.3749,0.1383],[-77.7771,24.374,0.186],[-77.7707,24.3768,0.0],[-77.7615,24.379,0.6186],[-77.751,24.3774,0.1383],[-77.7504,24.3754,0.0],[-77.7479,24.3762,0.0],[-77.7485,24.3793,0.1917],[-77.7449,24.3765,0.0],[-77.7365,24.3785,0.1021],[-77.7346,24.3774,0.0],[-77.7474,24.3721,0.0],[-77.7576,24.374,0.0],[-77.7565,24.371,0.1298],[-77.7604,24.3696,0.1451],[-77.7643,24.371,0.1362],[-77.7635,24.3726,0.2734],[-77.7615,24.3726,0.0618],[-77.7637,24.3746,0.1048],[-77.7715,24.3743,0.0],[-77.7776,24.3693,0.0],[-77.7757,24.3657,0.0],[-77.7763,24.3638,0.0],[-77.781,24.3651,0.0758],[-77.7851,24.3646,0.0849],[-77.7862,24.3629,0.059],[-77.786,24.3612,0.0],[-77.7826,24.361,0.6253],[-77.7824,24.3563,0.0],[-77.7804,24.356,0.1406],[-77.781,24.3532,0.1123],[-77.7874,24.3549,0.0957],[-77.7868,24.3574,0.0],[-77.7904,24.3632,0.0801],[-77.794,24.3601,0.2128],[-77.7968,24.3635,0.0],[-77.7979,24.3565,0.0],[-77.7929,24.3585,0.0],[-77.7907,24.3579,0.2295],[-77.7932,24.3576,0.0],[-77.806,24.3476,0.6311],[-77.8107,24.3468,0.3048],[-77.8174,24.3371,0.0],[-77.8115,24.3338,0.2382],[-77.811,24.3312,0.0],[-77.8085,24.3312,0.0805],[-77.8043,24.3335,0.0],[-77.8026,24.3379,0.0825],[-77.8004,24.3388,0.2523],[-77.7999,24.3371,0.0963],[-77.7976,24.3371,0.1709],[-77.7968,24.3399,0.4039],[-77.7921,24.3399,0.0],[-77.7907,24.3424,0.1647],[-77.7887,24.3424,0.129],[-77.7882,24.3385,0.0763],[-77.8024,24.3307,0.0],[-77.8063,24.326,0.2903],[-77.8074,24.3232,0.0],[-77.8057,24.3171,0.3278],[-77.8032,24.3154,0.0],[-77.7974,24.316,0.1532],[-77.7965,24.3149,0.0],[-77.7907,24.3168,0.0],[-77.7885,24.3104,0.0],[-77.7846,24.3068,0.0],[-77.7829,24.3096,0.0],[-77.7874,24.314,0.0],[-77.7857,24.3151,0.1617],[-77.7821,24.3129,0.0],[-77.7793,24.3079,0.2219],[-77.7765,24.3074,0.3293],[-77.7588,24.3174,0.1088],[-77.7538,24.324,0.2936],[-77.7449,24.3288,1.2769],[-77.7382,24.3296,0.0],[-77.7357,24.3318,0.0],[-77.7282,24.3312,0.1258],[-77.7138,24.3343,0.2597],[-77.7043,24.3338,0.2042],[-77.7057,24.336,0.0],[-77.716,24.3399,0.0],[-77.7226,24.3404,0.6097],[-77.7293,24.3385,0.0755],[-77.7304,24.3362,0.0],[-77.7374,24.3343,0.0],[-77.7387,24.3321,0.0],[-77.7412,24.3326,0.0],[-77.7501,24.3293,0.0],[-77.7471,24.3326,0.0],[-77.7529,24.3354,0.3169],[-77.7496,24.3379,0.0],[-77.7501,24.3396,0.1325],[-77.7479,24.3382,0.0579],[-77.7462,24.3346,0.0],[-77.7224,24.3415,0.1057],[-77.7154,24.341,0.1645],[-77.7085,24.3374,0.1959],[-77.7063,24.3382,0.0],[-77.7099,24.3412,0.1315],[-77.724,24.3463,0.0],[-77.7315,24.3468,0.4434],[-77.7401,24.3499,0.0408],[-77.7493,24.3493,0.0],[-77.7601,24.344,0.0],[-77.7693,24.3438,0.0],[-77.7629,24.3515,0.0562],[-77.7604,24.3518,0.2172],[-77.7635,24.349,0.0851],[-77.7643,24.3451,0.0],[-77.7607,24.3482,0.0],[-77.7538,24.3501,0.0],[-77.749,24.3549,0.0906],[-77.7476,24.3521,0.0],[-77.7396,24.3529,0.2201],[-77.726,24.3515,0.2608],[-77.7215,24.3499,0.133],[-77.721,24.3482,0.0],[-77.7162,24.3479,0.1057],[-77.7154,24.346,0.0826],[-77.7176,24.3449,0.0],[-77.7087,24.3424,1.5301],[-77.7007,24.334,0.4225],[-77.6826,24.3371,0.0],[-77.6815,24.3404,0.0],[-77.6862,24.349,0.9695],[-77.6896,24.3688,0.0],[-77.6957,24.3749,1.2811],[-77.6965,24.3824,0.0],[-77.7035,24.3976,2.2671],[-77.7046,24.4088,0.0],[-77.7065,24.4099,0.3438],[-77.7121,24.4246,0.5919]]],
[[[-77.7654,24.376,0.0712],[-77.7676,24.3771,0.2487],[-77.7696,24.3754,0.0617],[-77.766,24.3754,0.2172],[-77.7654,24.376,0.0712]]],
[[[-77.7957,24.4224,0.0],[-77.7962,24.4246,0.0585],[-77.804,24.4221,0.0],[-77.8065,24.4229,0.0],[-77.8118,24.421,0.0],[-77.8121,24.4185,0.0755],[-77.8101,24.4176,0.044],[-77.8065,24.419,0.4316],[-77.8046,24.4162,0.0642],[-77.7996,24.4193,0.1064],[-77.8018,24.4151,0.1421],[-77.7996,24.4138,0.3251],[-77.7954,24.4188,0.0],[-77.7957,24.4224,0.0]]],
[[[-77.8107,24.4235,0.0],[-77.8107,24.4249,0.1328],[-77.8163,24.4243,0.0],[-77.8135,24.4218,0.0],[-77.8107,24.4235,0.0]]],
[[[-77.7818,24.4415,0.5024],[-77.7843,24.4426,0.0],[-77.7962,24.4396,0.1431],[-77.8112,24.4399,0.0],[-77.829,24.4299,0.0],[-77.8235,24.431,0.149],[-77.8215,24.4271,0.1948],[-77.8157,24.4304,0.0724],[-77.8121,24.4304,0.0],[-77.8107,24.4332,0.1009],[-77.8063,24.4357,0.2832],[-77.8021,24.4346,0.1111],[-77.799,24.4357,0.1761],[-77.7968,24.4326,0.0],[-77.7893,24.4321,0.4153],[-77.7854,24.4351,0.0],[-77.7818,24.4415,0.5024]]],
[[[-77.8265,24.4121,0.0],[-77.8251,24.4151,0.0785],[-77.8282,24.414,0.0],[-77.8301,24.409,0.0692],[-77.836,24.409,0.0],[-77.8388,24.4004,0.1819],[-77.8454,24.399,0.0],[-77.8463,24.3963,0.0688],[-77.8424,24.3974,0.1267],[-77.8424,24.3946,0.0],[-77.8407,24.3932,0.0],[-77.8343,24.394,0.1215],[-77.8318,24.3929,0.0],[-77.8279,24.3963,0.0667],[-77.8285,24.3982,0.0],[-77.8262,24.4004,0.0],[-77.8207,24.4007,0.0],[-77.8215,24.4046,0.1755],[-77.8168,24.4065,0.317],[-77.8163,24.409,0.0],[-77.8185,24.4088,0.0],[-77.8193,24.4115,0.0689],[-77.8251,24.4107,0.0809],[-77.8265,24.4121,0.0]]],
[[[-77.8732,24.4035,0.0],[-77.8732,24.4054,0.0557],[-77.876,24.4049,0.193],[-77.8749,24.4037,0.0],[-77.8732,24.4035,0.0]]],
[[[-77.8296,24.4274,0.0],[-77.8315,24.4285,0.1951],[-77.8385,24.4235,0.0],[-77.8288,24.4254,0.0],[-77.8296,24.4274,0.0]]],
[[[-77.8935,24.3321,0.0],[-77.9018,24.3312,0.2659],[-77.909,24.3254,0.5673],[-77.9118,24.321,0.0],[-77.9104,24.3204,0.0],[-77.9079,24.3226,0.1127],[-77.901,24.3182,0.1505],[-77.8974,24.3185,0.0],[-77.8918,24.3271,0.0],[-77.8935,24.3321,0.0]]],
[[[-77.8901,24.4096,0.0378],[-77.8926,24.4096,0.0931],[-77.8921,24.4068,0.0],[-77.8874,24.4068,0.0],[-77.8851,24.4051,0.0461],[-77.8849,24.4088,0.0],[-77.8901,24.4096,0.0378]]],
[[[-77.7585,24.6035,0.0],[-77.7607,24.6045,0.7683],[-77.7708,24.6033,5.5285],[-77.7851,24.595,3.6832],[-77.8167,24.587,0.5],[-77.8426,24.5855,2.4093],[-77.8613,24.5821,3.8538],[-77.921,24.5809,2.9421],[-77.948,24.5724,1.1713],[-77.9937,24.5679,0.6419],[-78.048,24.5577,-1.0],[-78.0845,24.5447,1.0342],[-78.0998,24.5375,-1.0],[-78.1118,24.5286,0.4213],[-78.121,24.5187,0.2099],[-78.1218,24.5057,0.0],[-78.1276,24.4796,0.0789],[-78.1368,24.4704,0.4168],[-78.1537,24.4596,0.2626],[-78.1721,24.4382,0.4685],[-78.176,24.4321,0.0],[-78.1801,24.4199,0.368],[-78.1815,24.4115,0.0],[-78.1796,24.4051,0.0],[-78.1663,24.3921,0.3236],[-78.1554,24.3868,0.3913],[-78.1335,24.3707,0.2446],[-78.1318,24.3715,0.2446],[-78.1279,24.3696,0.0],[-78.1196,24.369,0.0],[-78.1199,24.3721,0.3597],[-78.1179,24.3735,0.0708],[-78.1157,24.381,0.1486],[-78.1151,24.3915,0.7728],[-78.1113,24.3963,0.168],[-78.1126,24.3932,0.3851],[-78.1132,24.3771,0.0],[-78.1113,24.3746,0.4882],[-78.1115,24.3696,0.1715],[-78.1096,24.364,0.0],[-78.1071,24.3629,0.0],[-78.1038,24.364,0.0956],[-78.0985,24.371,0.368],[-78.0921,24.3729,0.0671],[-78.089,24.376,1.1454],[-78.0821,24.3771,0.9493],[-78.0882,24.3754,0.255],[-78.0965,24.3688,0.0],[-78.1015,24.3615,0.3042],[-78.1015,24.3582,0.0746],[-78.096,24.3482,0.0],[-78.0907,24.346,0.2992],[-78.0893,24.3418,0.0],[-78.0826,24.3365,0.256],[-78.081,24.3321,0.0],[-78.079,24.331,0.1084],[-78.0774,24.324,0.2961],[-78.0699,24.3207,0.1919],[-78.0676,24.3163,0.5164],[-78.0657,24.3046,0.1199],[-78.0665,24.299,0.3181],[-78.064,24.296,0.0],[-78.0626,24.2896,0.0],[-78.0568,24.2862,0.602],[-78.0563,24.2779,0.1025],[-78.0521,24.2776,0.324],[-78.0496,24.2757,0.6443],[-78.0476,24.2696,0.1367],[-78.0393,24.2687,0.0],[-78.0335,24.2704,0.0],[-78.0326,24.2743,0.3083],[-78.0212,24.2729,0.0],[-78.0171,24.2779,0.2005],[-78.0149,24.2779,0.1177],[-78.014,24.2738,0.263],[-78.0154,24.2701,0.0786],[-78.0121,24.269,0.0],[-78.0104,24.2763,0.3297],[-78.0038,24.2815,0.0],[-78.0088,24.2804,0.2595],[-78.0149,24.286,0.0],[-78.0282,24.289,0.0628],[-78.0293,24.294,0.2449],[-78.0276,24.2979,0.2498],[-78.034,24.2982,0.2692],[-78.0376,24.3026,0.1273],[-78.0299,24.3057,0.3113],[-78.0229,24.3063,0.2321],[-78.0201,24.309,0.2419],[-78.0146,24.3093,0.2724],[-78.004,24.3221,0.228],[-77.9887,24.3235,0.0],[-77.9785,24.3296,0.0],[-77.9751,24.3382,0.2816],[-77.9765,24.3435,0.0714],[-77.9735,24.3438,0.1456],[-77.9721,24.3463,0.0],[-77.9704,24.3454,0.2054],[-77.9704,24.3424,0.0],[-77.9626,24.340699999999998,0.2655],[-77.964,24.3379,0.0],[-77.9629,24.334,0.0],[-77.9563,24.3335,0.0],[-77.9632,24.3326,0.0],[-77.9632,24.329,0.0],[-77.9585,24.3274,0.1439],[-77.9549,24.3279,0.1661],[-77.9521,24.3207,0.258],[-77.9496,24.3232,0.0661],[-77.9435,24.3215,0.0],[-77.9296,24.329,0.2012],[-77.924,24.3307,0.5992],[-77.9207,24.3296,0.1053],[-77.919,24.3324,0.4059],[-77.8993,24.3426,0.1107],[-77.8996,24.3482,0.0],[-77.8957,24.3501,0.1228],[-77.896,24.3551,0.5679],[-77.894,24.3563,0.1305],[-77.8935,24.3593,0.9336],[-77.8915,24.359,0.0],[-77.8907,24.3549,0.0799],[-77.8946,24.354,0.0],[-77.8943,24.3524,0.0656],[-77.8843,24.3565,0.0],[-77.8846,24.3579,0.0],[-77.8868,24.3576,0.2131],[-77.8885,24.3593,0.0],[-77.8901,24.3651,0.0],[-77.8838,24.3701,0.0],[-77.8754,24.3735,0.0],[-77.8712,24.3801,0.0712],[-77.864,24.3832,0.4858],[-77.864,24.3843,0.0],[-77.8707,24.3863,0.0],[-77.8651,24.3887,0.0],[-77.8643,24.3926,0.0965],[-77.8718,24.3949,-0.1981],[-77.871,24.3982,0.0632],[-77.8732,24.4021,0.0],[-77.8796,24.3974,0.0],[-77.8815,24.3937,0.3178],[-77.8846,24.3929,0.1816],[-77.876,24.4018,0.1058],[-77.8768,24.4035,0.1155],[-77.8838,24.4007,0.054],[-77.8857,24.4018,0.148],[-77.8826,24.4024,0.0599],[-77.8835,24.4043,0.0],[-77.8929,24.4051,0.0],[-77.8949,24.4024,0.1334],[-77.8971,24.4037,-0.0563],[-77.9029,24.401,0.2157],[-77.9021,24.4026,0.0],[-77.9043,24.4037,0.2389],[-77.9049,24.409,0.2044],[-77.8999,24.4107,0.244],[-77.8951,24.4093,0.0631],[-77.894,24.4129,0.0685],[-77.8904,24.411,0.0901],[-77.8863,24.4118,0.0],[-77.8885,24.4146,0.0],[-77.8874,24.419,0.0918],[-77.8913,24.4226,0.0555],[-77.8913,24.426,0.1349],[-77.8826,24.4229,0.043],[-77.8818,24.4168,0.0249],[-77.8849,24.4168,0.0],[-77.8849,24.4154,0.0],[-77.8818,24.4124,0.0],[-77.8771,24.4118,0.0],[-77.8763,24.4101,0.2093],[-77.8804,24.409,0.0325],[-77.8804,24.4074,0.0814],[-77.8768,24.4063,0.0988],[-77.8726,24.4082,0.0489],[-77.8743,24.4126,0.1309],[-77.8704,24.4118,0.0],[-77.8693,24.4204,0.054],[-77.8671,24.4199,0.1717],[-77.8685,24.4124,0.0],[-77.8665,24.4121,0.0],[-77.8662,24.414,0.0966],[-77.8624,24.4165,0.0],[-77.8604,24.4207,0.0725],[-77.8613,24.4265,0.0428],[-77.8554,24.4282,0.295],[-77.8546,24.4207,0.0],[-77.8482,24.4251,0.0],[-77.8476,24.4274,0.3127],[-77.8418,24.4293,0.2741],[-77.8346,24.436,0.2012],[-77.826,24.4399,0.0563],[-77.8282,24.4424,0.2503],[-77.8251,24.4435,0.0681],[-77.824,24.4418,0.0],[-77.8232,24.4435,0.1125],[-77.8185,24.4443,0.1074],[-77.8135,24.4432,0.0],[-77.8107,24.4446,0.1124],[-77.8096,24.4435,0.0],[-77.809,24.4451,0.2328],[-77.8068,24.4437,0.0],[-77.791,24.4449,0.0],[-77.789,24.4465,0.0745],[-77.786,24.4463,0.0288],[-77.7874,24.4479,0.1051],[-77.7735,24.449,0.3681],[-77.7704,24.4532,0.0],[-77.7682,24.4535,0.0939],[-77.7704,24.4501,0.0],[-77.7693,24.4496,0.0],[-77.7649,24.4526,0.0],[-77.764,24.4562,0.3795],[-77.761,24.4538,0.0],[-77.7588,24.4579,0.0],[-77.7457,24.4651,0.0],[-77.7399,24.464,0.187],[-77.7426,24.4618,0.0],[-77.7407,24.4596,0.0],[-77.7387,24.461,0.3181],[-77.7335,24.459,0.7613],[-77.7307,24.4668,0.1825],[-77.719,24.4776,0.1788],[-77.7201,24.486,1.5756],[-77.7151,24.4874,0.0],[-77.7182,24.4971,2.3451],[-77.7176,24.5154,0.0],[-77.7204,24.5204,0.9854],[-77.7235,24.5213,0.0],[-77.7265,24.531,0.0],[-77.7312,24.5285,0.0],[-77.7299,24.5271,0.1617],[-77.7304,24.5251,0.0],[-77.7351,24.5249,0.0],[-77.7415,24.5426,0.0],[-77.7485,24.5504,0.0],[-77.7485,24.559,0.0],[-77.7454,24.5635,0.1887],[-77.746,24.5651,0.1548],[-77.744,24.5637,0.0],[-77.7418,24.566,0.0],[-77.7376,24.5637,0.0],[-77.7379,24.5665,0.5111],[-77.7443,24.5674,0.0],[-77.7468,24.566,0.4168],[-77.749,24.5749,0.4841],[-77.7438,24.5713,0.0],[-77.7426,24.5729,0.0],[-77.7446,24.5765,0.0],[-77.749,24.5771,0.4358],[-77.7507,24.5849,0.0],[-77.7496,24.5874,0.1816],[-77.7476,24.586,0.0],[-77.7454,24.5893,0.0],[-77.7426,24.5896,0.0],[-77.7415,24.5926,0.0],[-77.7443,24.594,0.0],[-77.7457,24.5915,0.0],[-77.749,24.5913,0.9884],[-77.7554,24.5935,0.0],[-77.7579,24.5963,0.1315],[-77.7585,24.6035,0.0]]],
[[[-77.759,24.4051,0.0],[-77.7593,24.409,0.3621],[-77.7576,24.4112,0.0],[-77.7632,24.4104,0.0],[-77.764,24.4088,0.0],[-77.7607,24.4085,0.1687],[-77.7621,24.403199999999998,0.1134],[-77.759,24.4051,0.0]]],
[[[-77.7546,24.4107,0.0],[-77.7546,24.4121,0.0],[-77.7538,24.4132,0.0],[-77.7565,24.4124,0.0],[-77.7546,24.4107,0.0]]],
[[[-77.7271,24.5454,0.0],[-77.7268,24.5471,0.0],[-77.7276,24.5476,0.0],[-77.729,24.5451,0.0],[-77.7271,24.5454,0.0]]],
[[[-77.7204,24.5696,0.0],[-77.7196,24.569,0.3418],[-77.7193,24.5726,0.0],[-77.7213,24.5704,0.0],[-77.7204,24.5696,0.0]]],
[[[-77.691,24.5851,0.0],[-77.6926,24.5854,0.0],[-77.6924,24.5824,0.0],[-77.691,24.5829,0.0],[-77.691,24.5851,0.0]]]]}
,"properties": {"GID_1": "BHS.7_1","GID_0": "BHS","country": "Bahamas","state": "CentralAndros","VARNAME_1": "NA","NL_NAME_1": "NA","TYPE_1": "District","ENGTYPE_1": "District","CC_1": "NA","HASC_1": "BS.CN","ISO_1": "NA","name": "CentralAndros.state","area_km2": 1213.8219,"hist_schema_id": "Elevation0-9000","hist_area_km2": {"0": 1213.2045,"25": 0.6174}}}