{"type": "Feature","bbox": [-69.7627,18.4841,-69.5662,18.6686],"geometry": {"type": "MultiPolygon","coordinates": [[[[-69.7159,18.6435,12.2526],[-69.7231,18.641,16.5104],[-69.7395,18.6251,13.9085],[-69.7436,18.6066,7.4591],[-69.7477,18.5967,16.9979],[-69.7408,18.5973,9.51],[-69.7377,18.5957,9.2109],[-69.7345,18.5755,16.4266],[-69.7386,18.5695,25.0632],[-69.751,18.5687,29.9105],[-69.7546,18.566,26.7151],[-69.758,18.5578,26.8027],[-69.7559,18.5467,15.4117],[-69.7627,18.5381,11.197],[-69.7603,18.5343,15.6476],[-69.7571,18.5327,14.2587],[-69.7437,18.5324,15.6004],[-69.7407,18.5309,9.6624],[-69.7401,18.5073,29.6941],[-69.7374,18.4989,36.3525],[-69.7363,18.4852,35.6578],[-69.729,18.4841,36.5718],[-69.7153,18.487,38.7877],[-69.6956,18.4869,39.1105],[-69.6944,18.4904,33.0002],[-69.6919,18.4919,31.675],[-69.6839,18.4897,33.9325],[-69.6614,18.49,33.7988],[-69.6599,18.4922,29.6858],[-69.6595,18.5048,20.8965],[-69.6573,18.5115,18.6139],[-69.6598,18.5209,21.2962],[-69.6573,18.5233,23.7073],[-69.6417,18.5196,22.9408],[-69.624,18.5097,21.4332],[-69.6126,18.5083,19.8066],[-69.5949,18.5017,27.7014],[-69.5951,18.5171,19.3369],[-69.5978,18.5198,19.4899],[-69.6073,18.524,20.021],[-69.6089,18.5271,19.7025],[-69.5924,18.5368,21.1737],[-69.5892,18.5429,21.3048],[-69.5879,18.5509,23.0097],[-69.5684,18.585,31.4281],[-69.5687,18.5882,27.1298],[-69.5758,18.5958,26.887],[-69.5796,18.604,25.0035],[-69.5784,18.6085,27.4989],[-69.5713,18.6161,28.707],[-69.5711,18.6215,29.0721],[-69.5744,18.6263,27.9974],[-69.5836,18.6246,33.5308],[-69.5859,18.6288,28.076],[-69.5848,18.6332,28.4838],[-69.578,18.6378,29.7013],[-69.5725,18.6478,34.7454],[-69.5662,18.6532,35.4218],[-69.5731,18.6553,38.0081],[-69.5906,18.6559,39.2882],[-69.6037,18.6634,43.1961],[-69.6143,18.6646,40.1889],[-69.6242,18.6686,33.4896],[-69.6349,18.6639,28.1353],[-69.6405,18.6564,25.3653],[-69.6537,18.6553,24.1982],[-69.6721,18.6453,20.629],[-69.6827,18.6444,22.3843],[-69.6971,18.6398,15.6208],[-69.7159,18.6435,12.2526]]]]}
,"properties": {"GID_2": "DOM.31.2_1","GID_0": "DOM","country": "DominicanRepublic","GID_1": "DOM.31_1","province": "SantoDomingo","NL_NAME_1": "NA","county": "Guerra","VARNAME_2": "NA","NL_NAME_2": "NA","TYPE_2": "Distritomunicipal","ENGTYPE_2": "Municipaldistrict","CC_2": "NA","HASC_2": "DO.SD.GU","name": "Guerra.county","area_km2": 286.3092,"hist_schema_id": "Elevation0-9000","hist_area_km2": {"0": 14.7904,"25": 263.6632,"50": 7.8556}}}