{"type":"Feature","properties":{"GID_2":"DOM.24.8_1","GID_0":"DOM","country":"DominicanRepublic","GID_1":"DOM.24_1","province":"SanCristóbal","NL_NAME_1":"NA","county":"VillaAltagracia","VARNAME_2":"NA","NL_NAME_2":"NA","TYPE_2":"Municipio","ENGTYPE_2":"Municipality","CC_2":"NA","HASC_2":"DO.CR.VA","name":"Villa_Altagracia.county"},
"geometry":{"type": "MultiPolygon","coordinates": [[[[-70.3198,18.7135,1088.1492],[-70.3221,18.7105,1150.3121],[-70.3226,18.7065,1288.0729],[-70.3156,18.6816,1342.0554],[-70.3137,18.6784,1273.4868],[-70.3021,18.6722,1203.8765],[-70.2967,18.6623,1090.417],[-70.2896,18.643,1003.5419],[-70.2796,18.6292,893.676],[-70.2847,18.6098,1094.578],[-70.2892,18.6037,924.9893],[-70.29,18.5998,913.6344],[-70.2859,18.5911,977.2322],[-70.2769,18.58,929.348],[-70.2696,18.5741,818.8497],[-70.2696,18.5674,803.2975],[-70.2751,18.5537,741.3076],[-70.2744,18.5475,833.0713],[-70.2572,18.5389,750.7574],[-70.2472,18.5384,601.9058],[-70.2296,18.5441,463.3969],[-70.2244,18.5487,464.3834],[-70.2174,18.5503,450.929],[-70.2115,18.5572,618.7314],[-70.2048,18.5574,387.3697],[-70.1946,18.5539,282.4359],[-70.1815,18.5445,347.4929],[-70.1751,18.5381,309.5327],[-70.169,18.5276,344.6031],[-70.162,18.5242,330.58],[-70.1549,18.5229,290.6199],[-70.1521,18.5143,232.4512],[-70.1442,18.5099,155.4254],[-70.1261,18.5038,181.4198],[-70.1149,18.5139,162.8307],[-70.1068,18.5157,183.9668],[-70.1059,18.5205,90.9961],[-70.1116,18.5209,95.5827],[-70.1175,18.5251,59.5039],[-70.1175,18.5331,106.3006],[-70.1134,18.5391,110.428],[-70.1134,18.5414,108.4963],[-70.1242,18.5614,151.0564],[-70.1299,18.5613,88.6794],[-70.1318,18.5627,87.5809],[-70.1325,18.5664,81.4983],[-70.1306,18.5746,127.5871],[-70.1402,18.5846,117.8075],[-70.146,18.5934,126.66],[-70.1357,18.6095,153.5886],[-70.1361,18.6135,148.3352],[-70.141,18.6222,162.192],[-70.1407,18.6252,158.247],[-70.1383,18.6267,175.9483],[-70.1298,18.6254,134.9615],[-70.1248,18.6278,105.1455],[-70.1237,18.6305,105.9349],[-70.1246,18.6327,113.5559],[-70.1308,18.6354,105.3066],[-70.1311,18.6395,118.706],[-70.1362,18.65,132.1825],[-70.1431,18.6553,135.488],[-70.1496,18.6675,160.3727],[-70.1475,18.6765,241.2143],[-70.1478,18.6862,281.8424],[-70.1527,18.6912,298.2056],[-70.1572,18.7045,344.4875],[-70.1651,18.7121,332.9879],[-70.1646,18.7158,431.4477],[-70.1602,18.7225,796.6237],[-70.1597,18.7342,785.5318],[-70.1745,18.7524,733.2119],[-70.1916,18.7627,706.6005],[-70.206,18.7639,738.6407],[-70.2115,18.7668,686.5292],[-70.2145,18.7763,412.1058],[-70.2274,18.7916,490.9439],[-70.2438,18.8071,630.1477],[-70.2482,18.7985,380.487],[-70.2809,18.7861,309.2033],[-70.2856,18.7786,333.9609],[-70.2948,18.7733,423.9519],[-70.2962,18.7695,488.4604],[-70.2959,18.7629,691.5065],[-70.2884,18.7505,714.0961],[-70.2907,18.7389,614.9294],[-70.2947,18.7318,779.5601],[-70.3079,18.7191,780.4261],[-70.3198,18.7135,1088.1492]]]]}}