{"type":"Feature","properties":{"GID_2":"MTQ.4.2_1","GID_0":"MTQ","country":"Martinique","GID_1":"MTQ.4_1","province":"Saint-Pierre","NL_NAME_1":"NA","county":"Case-Pilote","VARNAME_2":"NA","NL_NAME_2":"NA","TYPE_2":"Commune","ENGTYPE_2":"Commune","CC_2":"NA","HASC_2":"MQ.SP.CP","name":"Case-Pilote.county"},
"geometry":{"type": "MultiPolygon","coordinates": [[[[-61.1188,14.6918,741.5285],[-61.1237,14.6912,599.5983],[-61.1315,14.6744,367.0967],[-61.1299,14.6692,404.3279],[-61.154,14.656,12.04],[-61.1524,14.6538,52.5796],[-61.1526,14.6487,0.0],[-61.1401,14.6429,2.5407],[-61.1393,14.6371,0.0],[-61.1357,14.6324,0.0],[-61.1299,14.6335,21.5052],[-61.1299,14.6318,0.0],[-61.1249,14.6305,46.8313],[-61.1199,14.6453,203.7744],[-61.1116,14.6602,392.0587],[-61.1095,14.6833,584.4327],[-61.1188,14.6918,741.5285]]]]}}