{"type":"Feature","properties":{"ISO3166-1-Alpha-3":"DOM","country":"Dominican Republic","fill":"#F00","id":"1396","name":"San Pedro de Macorís"},
"geometry":{"type": "Polygon","coordinates": [[[-69.35375,18.52197,35.017],[-69.36899,18.55473,10.9377],[-69.38292,18.58812,18.7727],[-69.40576,18.62111,9.5691],[-69.42855,18.65411,28.5305],[-69.43558,18.69483,37.4782],[-69.44126,18.73627,59.6777],[-69.45917,18.76792,79.9933],[-69.45911,18.80257,123.8607],[-69.51831,18.74343,74.4215],[-69.57533,18.64822,43.3872],[-69.58781,18.63517,30.1555],[-69.59355,18.61979,27.7837],[-69.58792,18.61935,26.9795],[-69.58254,18.62163,29.8933],[-69.57805,18.59659,25.9062],[-69.57991,18.57153,23.3489],[-69.60047,18.54618,25.1562],[-69.61657,18.51998,21.341],[-69.57696,18.47975,30.3792],[-69.51826,18.46854,46.9768],[-69.52467,18.4366,46.3521],[-69.5281,18.41035,9.1736],[-69.52811,18.41031,9.1736],[-69.52526,18.40843,11.6598],[-69.50475,18.40892,11.9874],[-69.46593,18.42255,9.0792],[-69.33601,18.43207,12.095],[-69.31509,18.45051,1.5984],[-69.29503,18.43903,2.5772],[-69.27522,18.44033,3.3132],[-69.2556,18.44668,4.0366],[-69.23632,18.45051,5.0946],[-69.21422,18.44514,0.0],[-69.18529,18.4217,0.0],[-69.16804,18.41633,6.5965],[-69.14818,18.41323,7.7948],[-69.10436,18.39912,7.1282],[-69.08544,18.3959,0.8685],[-69.08454,18.39594,0.8685],[-69.09056,18.42381,33.3864],[-69.10301,18.45265,27.4959],[-69.115,18.46239,55.761],[-69.12177,18.47562,67.0237],[-69.10875,18.50213,54.7534],[-69.0927,18.52734,74.0647],[-69.08531,18.55342,58.7934],[-69.08017,18.57649,76.4555],[-69.10952,18.57941,61.8242],[-69.14094,18.57512,62.9412],[-69.16939,18.59504,27.7433],[-69.19368,18.62039,60.1217],[-69.21001,18.6247,64.6003],[-69.22675,18.6231,57.8634],[-69.24047,18.63109,56.4331],[-69.25357,18.64023,39.1129],[-69.28768,18.61757,37.3865],[-69.3039,18.58024,24.4296],[-69.3253,18.55378,12.2185],[-69.35375,18.52197,35.017]]]}}