{"type": "Feature","bbox": [-69.6089,18.394,-69.0661,18.8238],"geometry": {"type": "MultiPolygon","coordinates": [[[[-69.3392,18.5318,28.5488],[-69.3444,18.5284,26.6649],[-69.3502,18.5369,25.1513],[-69.3546,18.5472,30.4304],[-69.362,18.5529,32.0922],[-69.3633,18.5608,32.5769],[-69.3665,18.5671,26.2486],[-69.3736,18.5749,7.5999],[-69.3745,18.5837,25.9881],[-69.3718,18.5935,17.474],[-69.3775,18.6046,16.045],[-69.3945,18.6146,23.1431],[-69.4007,18.6236,7.4704],[-69.399,18.6345,29.7422],[-69.4048,18.6457,21.4663],[-69.4097,18.65,24.3924],[-69.4169,18.6609,15.409],[-69.4326,18.6739,22.4655],[-69.4302,18.6804,21.606],[-69.4196,18.6919,30.1008],[-69.4249,18.7019,29.0219],[-69.4251,18.7334,40.002],[-69.4286,18.7418,47.6379],[-69.4366,18.7514,50.6308],[-69.4344,18.7603,63.0464],[-69.4357,18.7631,74.6722],[-69.4468,18.7657,72.9707],[-69.4543,18.7706,80.6127],[-69.4548,18.776,88.2726],[-69.4518,18.7859,103.0526],[-69.4541,18.7937,94.2046],[-69.4543,18.8027,119.3891],[-69.4488,18.8098,119.2963],[-69.4487,18.8173,187.3831],[-69.4504,18.8225,204.7113],[-69.4559,18.8238,239.1488],[-69.4616,18.8136,228.5182],[-69.4687,18.8118,226.0717],[-69.4739,18.8047,189.471],[-69.4869,18.7973,119.1143],[-69.488,18.7885,103.0677],[-69.4944,18.7687,88.1068],[-69.5066,18.7662,84.6214],[-69.5152,18.7519,80.8503],[-69.5277,18.7409,71.4901],[-69.5267,18.7259,67.8616],[-69.5357,18.6921,56.7547],[-69.5429,18.6836,54.179],[-69.5449,18.6747,49.5244],[-69.5518,18.6667,43.0958],[-69.5556,18.6584,38.855],[-69.5698,18.6506,35.023],[-69.578,18.6378,29.7013],[-69.5851,18.6327,28.4838],[-69.5848,18.6252,30.3391],[-69.5817,18.6245,33.5308],[-69.5749,18.6266,27.9974],[-69.5711,18.6215,29.0721],[-69.5713,18.6161,28.707],[-69.5784,18.6085,27.4989],[-69.5796,18.604,25.0035],[-69.5758,18.5958,26.887],[-69.5687,18.5882,27.1298],[-69.5684,18.585,31.4281],[-69.5879,18.5509,23.0097],[-69.5892,18.5429,21.3048],[-69.5924,18.5368,21.1737],[-69.6089,18.5271,19.7025],[-69.6073,18.524,20.021],[-69.5978,18.5198,19.4899],[-69.5951,18.5171,19.3369],[-69.5949,18.5017,27.7014],[-69.5792,18.4938,27.8541],[-69.5682,18.4842,31.311],[-69.5616,18.4809,29.8948],[-69.5526,18.4776,37.4347],[-69.5066,18.4772,48.3297],[-69.5091,18.4704,51.1766],[-69.5131,18.4679,52.4943],[-69.5143,18.4647,49.4851],[-69.5141,18.4517,48.5174],[-69.5114,18.443,50.1381],[-69.5112,18.4283,46.4001],[-69.515,18.4035,0.0],[-69.5032,18.4051,0.0],[-69.4993,18.4079,3.4212],[-69.4826,18.4112,0.0],[-69.4662,18.4168,0.0],[-69.4574,18.4176,0.9005],[-69.4479,18.4221,7.3745],[-69.4335,18.4243,8.0073],[-69.4257,18.4229,0.0],[-69.424,18.4251,1.0761],[-69.4013,18.4274,8.4821],[-69.379,18.4263,2.9616],[-69.3579,18.4232,0.0],[-69.3504,18.4237,0.0],[-69.3501,18.426,3.2489],[-69.3479,18.424,1.8346],[-69.336,18.426,3.7593],[-69.331,18.4249,0.0],[-69.3218,18.4293,0.0],[-69.3229,18.4329,0.5354],[-69.3218,18.4346,0.6819],[-69.319,18.4332,0.0],[-69.3168,18.4354,0.591],[-69.3174,18.4371,0.0],[-69.3215,18.4374,0.5512],[-69.3213,18.4432,0.7057],[-69.3154,18.4471,2.1546],[-69.3107,18.446,0.0],[-69.3126,18.4418,1.4169],[-69.3112,18.4382,0.0],[-69.3104,18.4399,1.4744],[-69.3051,18.4404,0.5988],[-69.3037,18.4387,0.0],[-69.2982,18.4376,1.9165],[-69.2976,18.4351,1.5687],[-69.2996,18.4338,1.5687],[-69.296,18.4335,0.0],[-69.2874,18.4365,0.3034],[-69.2757,18.4382,0.0],[-69.2676,18.4421,4.6571],[-69.2557,18.441,0.0],[-69.2346,18.4426,0.0],[-69.2279,18.4457,2.2961],[-69.2257,18.4487,0.6439],[-69.2176,18.449,3.4162],[-69.2096,18.4526,1.9229],[-69.2012,18.4501,2.5879],[-69.1974,18.4471,2.5619],[-69.1971,18.4387,0.0],[-69.1951,18.4385,0.6598],[-69.1932,18.4329,5.5268],[-69.1943,18.4315,3.8119],[-69.1979,18.4315,1.4789],[-69.1979,18.4301,0.0],[-69.1837,18.4201,0.0],[-69.1776,18.4176,0.7508],[-69.1729,18.4182,1.5023],[-69.1732,18.4151,0.0],[-69.1368,18.4049,0.0],[-69.119,18.4046,0.0],[-69.1079,18.399,1.6543],[-69.0915,18.394,3.1551],[-69.0802,18.4043,9.4843],[-69.083,18.4162,9.6653],[-69.0774,18.4247,29.867],[-69.0847,18.4342,34.0098],[-69.0819,18.4425,47.1707],[-69.084,18.4457,51.4944],[-69.0884,18.448,57.5534],[-69.0909,18.4562,65.8797],[-69.1088,18.4676,46.8949],[-69.1108,18.4734,66.3227],[-69.1153,18.4764,58.3099],[-69.1159,18.4803,36.9092],[-69.1118,18.4887,37.9726],[-69.1047,18.4959,64.5056],[-69.1002,18.5063,64.4489],[-69.0872,18.5179,81.5169],[-69.0827,18.5281,54.9351],[-69.0779,18.5339,76.3834],[-69.0802,18.5397,67.7081],[-69.0779,18.5495,74.9613],[-69.0801,18.5569,63.9601],[-69.0788,18.565,68.4767],[-69.08,18.5719,62.9885],[-69.0775,18.5755,70.3688],[-69.0671,18.581,76.1356],[-69.0661,18.5918,78.413],[-69.0689,18.5933,76.5258],[-69.1062,18.5934,71.9748],[-69.1154,18.5961,72.4408],[-69.1297,18.5963,49.438],[-69.1417,18.5931,52.534],[-69.1468,18.5885,44.9553],[-69.1503,18.5884,28.8962],[-69.1516,18.5911,18.552],[-69.1494,18.5981,42.7514],[-69.1539,18.6063,23.0621],[-69.1559,18.6141,10.055],[-69.1758,18.6252,44.1154],[-69.1828,18.6324,61.5043],[-69.1853,18.6408,58.1261],[-69.1888,18.642,52.5568],[-69.2087,18.6417,57.4367],[-69.2135,18.6435,68.191],[-69.2139,18.6697,60.7056],[-69.2174,18.6753,50.9785],[-69.2229,18.6759,43.1234],[-69.224,18.6712,41.9315],[-69.2302,18.6696,34.0077],[-69.2333,18.6651,38.2165],[-69.2425,18.6611,32.5349],[-69.2407,18.648,49.0425],[-69.2446,18.6402,31.8908],[-69.2678,18.6288,23.5032],[-69.2844,18.628,14.0036],[-69.2896,18.6244,15.7081],[-69.2908,18.6213,18.4887],[-69.2886,18.6103,44.4325],[-69.2943,18.5998,23.4595],[-69.2916,18.5896,28.9567],[-69.2934,18.5843,22.9227],[-69.2927,18.5801,41.9822],[-69.2947,18.5782,25.1611],[-69.3021,18.5767,9.7619],[-69.3042,18.5674,7.5566],[-69.3117,18.5638,13.7827],[-69.3195,18.5539,32.3171],[-69.3365,18.5458,8.4297],[-69.3376,18.5434,6.8273],[-69.3359,18.5327,24.1984],[-69.3392,18.5318,28.5488]]]]}
,"properties": {"GID_1": "DOM.27_1","GID_0": "DOM","country": "DominicanRepublic","province": "SanPedrodeMacorís","VARNAME_1": "NA","NL_NAME_1": "NA","TYPE_1": "Provincia","ENGTYPE_1": "Province","CC_1": "NA","HASC_1": "DO.PM","ISO_1": "NA","name": "San_Pedrode_Macorís.province","area_km2": 1267.2239,"hist_schema_id": "Elevation0-9000","hist_area_km2": {"0": 122.8218,"25": 520.591,"50": 462.413,"75": 145.3807,"100": 6.4235,"125": 3.9541,"150": 2.1677,"175": 1.8264,"200": 1.1039,"225": 0.4616,"250": 0.0602,"275": 0.0201}}}