{"type":"Feature","properties":{"GID_2":"CUB.3.6_1","GID_0":"CUB","country":"Cuba","GID_1":"CUB.3_1","province":"Cienfuegos","NL_NAME_1":"NA","county":"Lajas","VARNAME_2":"NA","NL_NAME_2":"NA","TYPE_2":"Municipio","ENGTYPE_2":"Municipality","CC_2":"NA","HASC_2":"CU.CF.LA","name":"Lajas.county"},
"geometry":{"type": "MultiPolygon","coordinates": [[[[-80.224,22.3561,119.4436],[-80.2281,22.3702,112.9756],[-80.2257,22.3732,111.6249],[-80.2145,22.3749,114.9363],[-80.2108,22.3773,110.8465],[-80.2094,22.3817,105.0741],[-80.2112,22.3982,116.0499],[-80.2138,22.4038,111.894],[-80.226,22.4195,98.6534],[-80.2251,22.436,87.7369],[-80.2228,22.4461,79.9201],[-80.2242,22.4555,78.013],[-80.2315,22.4634,79.4095],[-80.2491,22.4699,77.0062],[-80.252,22.474,75.0896],[-80.252,22.4763,72.7489],[-80.248,22.4805,73.3058],[-80.2445,22.4897,68.6093],[-80.2462,22.4976,67.3747],[-80.2699,22.5327,61.3936],[-80.2806,22.539,62.6151],[-80.2878,22.5392,64.6446],[-80.2933,22.5364,68.5656],[-80.3094,22.5173,58.7213],[-80.3139,22.5063,56.0399],[-80.3148,22.4889,51.1688],[-80.3183,22.48,59.6619],[-80.3254,22.4761,54.4919],[-80.3335,22.4765,54.2311],[-80.3566,22.4821,53.0711],[-80.3681,22.4816,51.6479],[-80.3765,22.478,46.17],[-80.386,22.4701,45.3988],[-80.3952,22.4673,43.6757],[-80.4011,22.4676,39.736],[-80.4065,22.4731,35.1194],[-80.4091,22.4783,40.4008],[-80.4092,22.4825,42.7022],[-80.3946,22.4995,48.1198],[-80.3927,22.5107,53.5628],[-80.3943,22.5137,52.0154],[-80.4074,22.5176,56.4999],[-80.4103,22.5199,56.8843],[-80.4181,22.536,60.1163],[-80.4254,22.5438,71.9219],[-80.4345,22.5487,70.1068],[-80.4463,22.5494,73.5272],[-80.46,22.5477,73.7139],[-80.4692,22.5432,68.5703],[-80.4857,22.5288,70.3734],[-80.496,22.5227,61.3619],[-80.4777,22.5028,54.4351],[-80.4581,22.4738,50.6194],[-80.4661,22.438,30.0844],[-80.4726,22.4236,24.9596],[-80.4306,22.4017,51.8878],[-80.4228,22.394,54.7611],[-80.42,22.353,45.6759],[-80.4127,22.3331,53.2083],[-80.4119,22.3007,68.2831],[-80.4085,22.2918,54.7723],[-80.3416,22.2788,65.2502],[-80.2976,22.292,73.6864],[-80.2701,22.3091,77.0727],[-80.2519,22.3243,89.5498],[-80.224,22.3561,119.4436]]]]}}