{"type":"Feature","properties":{"GID_2":"DOM.3.3_1","GID_0":"DOM","country":"DominicanRepublic","GID_1":"DOM.3_1","province":"Barahona","NL_NAME_1":"NA","county":"Enriquillo","VARNAME_2":"NA","NL_NAME_2":"NA","TYPE_2":"Municipio","ENGTYPE_2":"Municipality","CC_2":"NA","HASC_2":"DO.BH.EN","name":"Enriquillo.county"},
"geometry":{"type": "MultiPolygon","coordinates": [[[[-71.1829,17.957,0.0],[-71.1971,17.965,287.223],[-71.206,17.9667,377.4188],[-71.2149,17.9736,501.5598],[-71.226,17.9757,698.2617],[-71.2318,17.9859,772.1871],[-71.2348,17.9977,1036.1506],[-71.2299,18.0062,1132.6281],[-71.23,18.0108,838.0304],[-71.2439,18.0232,1124.51],[-71.2387,18.0344,682.987],[-71.2398,18.0389,832.2456],[-71.2508,18.0437,1141.9863],[-71.2537,18.0376,967.7842],[-71.2582,18.0347,1188.3171],[-71.2679,18.0343,1360.7369],[-71.291,18.0553,975.8618],[-71.3006,18.0572,894.8665],[-71.3106,18.0619,931.3161],[-71.322,18.0632,883.5014],[-71.3516,18.0902,865.91],[-71.3792,18.1009,985.1266],[-71.3857,18.1049,924.5098],[-71.3905,18.1045,872.6617],[-71.395,18.1017,831.6072],[-71.3952,18.0988,808.4133],[-71.3918,18.0928,725.6179],[-71.3761,18.0801,791.6105],[-71.3781,18.0608,698.1757],[-71.3729,18.054,805.0536],[-71.3728,18.0515,876.1061],[-71.3927,18.0155,484.6003],[-71.4004,18.0124,538.4188],[-71.4033,18.0137,551.2485],[-71.4088,18.0202,560.7421],[-71.4197,18.0178,745.5562],[-71.42,17.9996,792.0294],[-71.4232,17.9937,688.0854],[-71.4283,17.9886,611.5745],[-71.4281,17.9758,568.6599],[-71.4253,17.9732,566.3299],[-71.4158,17.9702,512.6672],[-71.3987,17.9695,474.186],[-71.3879,17.9631,485.6281],[-71.3819,17.9536,459.6645],[-71.3701,17.9434,403.2339],[-71.3683,17.9309,302.9738],[-71.3554,17.9296,250.6474],[-71.3474,17.9218,178.019],[-71.3298,17.9187,177.3782],[-71.3206,17.9215,149.2122],[-71.319,17.9233,155.7104],[-71.3178,17.9329,170.3979],[-71.313,17.9409,150.8521],[-71.3066,17.946,192.7442],[-71.2995,17.9438,195.3053],[-71.2957,17.9384,206.0904],[-71.2914,17.927,156.6929],[-71.2776,17.9067,68.3049],[-71.2771,17.8882,25.4185],[-71.2798,17.8774,17.7715],[-71.2721,17.8678,4.9401],[-71.2699,17.8607,0.5438],[-71.2635,17.8713,3.5714],[-71.2551,17.8785,0.7241],[-71.2524,17.8829,1.4731],[-71.2504,17.8826,1.4731],[-71.244,17.8885,0.0],[-71.2396,17.8901,0.0],[-71.2374,17.8949,0.0],[-71.2229,17.9026,0.0],[-71.221,17.9082,7.746],[-71.216,17.9124,8.8821],[-71.2126,17.9193,33.8516],[-71.2085,17.9201,0.0],[-71.1996,17.9301,0.0],[-71.1829,17.957,0.0]]]]}}