{"type":"Feature","properties":{"ISO3166-1-Alpha-3":"CYM","country":"Cayman Islands","id":null,"name":"Cayman Islands"},
"geometry":{"type": "MultiPolygon","coordinates": [[[[-81.36404,19.31995,0.0],[-81.36059,19.3401,0.0],[-81.369,19.35908,0.0],[-81.37859,19.37582,0.0],[-81.37572,19.38898,2.4314],[-81.39412,19.39476,1.8763],[-81.40835,19.39021,0.0],[-81.41424,19.38235,9.4516],[-81.41654,19.37003,0.0],[-81.40582,19.36337,0.0],[-81.39033,19.35226,0.0],[-81.3855,19.33886,0.0],[-81.38543,19.32431,0.0],[-81.3889,19.30751,0.0],[-81.3924,19.2963,0.0],[-81.39592,19.28956,0.0],[-81.39794,19.27416,0.0],[-81.38749,19.26386,0.0],[-81.37572,19.27228,5.6187],[-81.35788,19.27409,0.0],[-81.34127,19.27306,0.0],[-81.27636,19.26484,7.2146],[-81.26647,19.26606,8.8006],[-81.24882,19.2791,6.5319],[-81.23346,19.28923,2.3392],[-81.21451,19.29267,0.0],[-81.19319,19.29611,1.9104],[-81.1695,19.29956,0.0],[-81.1351,19.29074,0.0],[-81.10668,19.29532,0.0],[-81.08659,19.30993,0.0],[-81.08951,19.33539,2.0792],[-81.09952,19.34732,2.0757],[-81.11754,19.35277,8.8579],[-81.1361,19.35489,0.0],[-81.15779,19.35505,0.0],[-81.21182,19.34805,2.3333],[-81.23156,19.35155,0.0],[-81.26814,19.36628,0.4376],[-81.28628,19.36848,0.0],[-81.28075,19.35627,2.346],[-81.2779,19.35187,0.0],[-81.2733,19.34805,0.0],[-81.27798,19.34406,0.0],[-81.2777,19.34138,0.0],[-81.27522,19.33857,0.0],[-81.2733,19.33438,0.0],[-81.27953,19.34178,0.0],[-81.27489,19.33527,0.0],[-81.27343,19.3321,0.0],[-81.2733,19.32758,0.8835],[-81.28808,19.33137,2.7599],[-81.29381,19.33438,0.0],[-81.30126,19.32062,0.0],[-81.3035,19.30905,0.0],[-81.32244,19.30225,0.0],[-81.34972,19.30211,0.0],[-81.36404,19.31995,0.0]]],
[[[-79.96426,19.7049,3.2972],[-79.98103,19.7143,0.0],[-80.00874,19.70395,0.0],[-80.03783,19.70404,0.0],[-80.06209,19.70068,0.0],[-80.08154,19.68593,0.0],[-80.09855,19.67686,0.0],[-80.11316,19.65866,0.0],[-80.07797,19.65402,0.0],[-80.00392,19.69027,0.0],[-79.97794,19.69746,0.0],[-79.96817,19.70319,4.075],[-79.96426,19.7049,3.2972]]],
[[[-79.855,19.69092,0.642],[-79.77389,19.71336,0.0],[-79.72664,19.73706,0.0],[-79.73152,19.7521,45.2331],[-79.7459,19.75763,0.0],[-79.7689,19.75204,0.0],[-79.80284,19.73283,0.0],[-79.87189,19.70464,0.0],[-79.89375,19.67967,0.0],[-79.855,19.69092,0.642]]]]}}