{"type": "Feature","bbox": [-70.8574,18.6317,-70.6573,18.8047],"geometry": {"type": "MultiPolygon","coordinates": [[[[-70.6573,18.6627,1712.2543],[-70.6715,18.6771,1706.6772],[-70.6736,18.6818,1598.3579],[-70.681,18.679,1352.6735],[-70.6854,18.6809,1241.0803],[-70.6847,18.685,1163.8669],[-70.6803,18.6888,1337.9602],[-70.6765,18.6998,1742.8767],[-70.671,18.7027,1596.4651],[-70.6681,18.7079,1664.2197],[-70.679,18.7277,1919.2494],[-70.6708,18.7425,2076.1021],[-70.6709,18.7486,2120.9336],[-70.674,18.754,2139.009],[-70.6817,18.7587,2120.2349],[-70.6872,18.768,2288.6387],[-70.6924,18.7718,2299.667],[-70.7046,18.7725,2330.833],[-70.7191,18.7776,2179.8638],[-70.7249,18.7781,2032.3689],[-70.7299,18.7775,1898.5891],[-70.7437,18.771,1520.1656],[-70.7467,18.7714,1538.2653],[-70.7529,18.7778,1611.119],[-70.7603,18.7977,1428.0647],[-70.767,18.8047,1553.9896],[-70.7691,18.7982,1472.8004],[-70.7719,18.7958,1476.5332],[-70.7858,18.7982,1709.2427],[-70.7947,18.7961,1359.6194],[-70.8006,18.7901,1223.806],[-70.8086,18.7748,894.9924],[-70.8201,18.7635,869.9761],[-70.8248,18.7565,809.2569],[-70.8535,18.7378,1070.5881],[-70.8574,18.7336,1232.2391],[-70.8554,18.7282,1409.8971],[-70.8439,18.7197,1299.7628],[-70.8424,18.7084,1607.0575],[-70.8351,18.7,1541.6475],[-70.8303,18.6852,1371.8619],[-70.8206,18.6684,1548.2058],[-70.8134,18.6707,1477.8101],[-70.806,18.6635,1185.1978],[-70.7948,18.6602,1346.835],[-70.7931,18.6586,1429.6147],[-70.7911,18.6508,1339.8738],[-70.779,18.6431,1391.0438],[-70.7701,18.6408,1266.6321],[-70.7666,18.6502,1254.6581],[-70.7576,18.6536,1470.5425],[-70.7363,18.6476,1605.4559],[-70.7197,18.6363,1433.9456],[-70.708,18.6366,1663.9594],[-70.6959,18.6317,1608.3527],[-70.6829,18.6366,1698.6967],[-70.6726,18.6343,1471.6351],[-70.6706,18.6375,1420.8052],[-70.6735,18.6453,1412.0192],[-70.673,18.6561,1495.953],[-70.6651,18.6612,1589.2102],[-70.6573,18.6627,1712.2543]]]]}
,"properties": {"GID_2": "DOM.1.3_1","GID_0": "DOM","country": "DominicanRepublic","GID_1": "DOM.1_1","province": "Azua","NL_NAME_1": "NA","county": "Guayabal","VARNAME_2": "NA","NL_NAME_2": "NA","TYPE_2": "Distritomunicipal","ENGTYPE_2": "Municipaldistrict","CC_2": "NA","HASC_2": "DO.AZ.GU","name": "Guayabal.county","area_km2": 249.43,"hist_schema_id": "Elevation0-9000","hist_area_km2": {"700": 0.1004,"725": 0.522,"750": 0.763,"775": 0.8232,"800": 1.0843,"825": 1.3855,"850": 1.8072,"875": 2.3895,"900": 2.1686,"925": 2.9718,"950": 3.2531,"975": 3.4338,"1000": 4.1367,"1025": 4.1367,"1050": 4.7591,"1075": 5.1608,"1100": 5.0404,"1125": 5.9441,"1150": 5.7634,"1175": 6.3859,"1200": 6.4864,"1225": 6.3257,"1250": 7.0486,"1275": 6.8478,"1300": 6.687,"1325": 6.7877,"1350": 7.2694,"1375": 6.8276,"1400": 7.2497,"1425": 7.1893,"1450": 7.1492,"1475": 7.2497,"1500": 7.1895,"1525": 7.2701,"1550": 8.4953,"1575": 7.8327,"1600": 7.2504,"1625": 6.266,"1650": 6.1254,"1675": 5.4423,"1700": 5.1209,"1725": 4.5586,"1750": 4.1367,"1775": 3.8153,"1800": 3.1927,"1825": 3.6143,"1850": 2.7107,"1875": 2.3292,"1900": 2.0078,"1925": 2.1082,"1950": 1.7066,"1975": 1.7066,"2000": 1.6464,"2025": 1.1845,"2050": 1.044,"2075": 1.0239,"2100": 0.6023,"2125": 0.7629,"2150": 0.542,"2175": 0.522,"2200": 0.4818,"2225": 0.4818,"2250": 0.3212,"2275": 0.3413,"2300": 0.522,"2325": 0.4818,"2350": 0.3212,"2375": 0.3011,"2400": 0.3011,"2425": 0.1807,"2450": 0.1204,"2475": 0.1004,"2500": 0.0803,"2525": 0.0201,"2550": 0.0201}}}