{"type":"Feature","properties":{"GID_2":"HTI.7.4_1","GID_0":"HTI","country":"Haiti","GID_1":"HTI.7_1","province":"Nord","NL_NAME_1":"NA","county":"leCap-Haïtien","VARNAME_2":"NA","NL_NAME_2":"NA","TYPE_2":"Arrondissement","ENGTYPE_2":"District","CC_2":"NA","HASC_2":"HT.ND.CH","name":"le_Cap-Haïtien.county"},
"geometry":{"type": "MultiPolygon","coordinates": [[[[-72.11,19.6312,344.858],[-72.1101,19.6344,399.4912],[-72.1061,19.6346,371.4688],[-72.0935,19.6261,310.3546],[-72.0789,19.6315,62.7976],[-72.0716,19.6308,53.1309],[-72.0656,19.6353,43.4502],[-72.0641,19.6447,33.3439],[-72.0672,19.6487,30.8039],[-72.0645,19.6515,26.7034],[-72.0665,19.6556,22.5146],[-72.0612,19.6627,15.9372],[-72.0587,19.6731,7.4221],[-72.0628,19.6853,1.4555],[-72.0565,19.696,0.0],[-72.0587,19.6979,0.0],[-72.0646,19.6965,0.7334],[-72.0646,19.6976,0.3266],[-72.0551,19.7038,1.1943],[-72.0468,19.7013,0.1308],[-72.0404,19.7018,0.0],[-72.0368,19.7051,0.3047],[-72.0354,19.7087,0.0],[-72.0371,19.7121,1.0285],[-72.0368,19.7166,0.8481],[-72.0396,19.721,0.2624],[-72.0374,19.7224,0.4622],[-72.0363,19.7264,0.0],[-72.0392,19.7321,0.0],[-72.0453,19.7369,0.4656],[-72.0507,19.7371,0.0],[-72.0474,19.7313,0.0],[-72.0524,19.7276,0.3683],[-72.0565,19.7185,0.5169],[-72.0624,19.7176,0.0],[-72.0621,19.7115,0.1237],[-72.0674,19.7113,0.0],[-72.066,19.7093,0.1993],[-72.0624,19.709,0.3382],[-72.0624,19.7076,0.0],[-72.0676,19.7071,0.0],[-72.0676,19.704,0.2189],[-72.0706,19.7029,0.9081],[-72.0743,19.7043,0.0],[-72.0779,19.7035,0.773],[-72.076,19.7085,0.333],[-72.0799,19.7099,0.8648],[-72.0801,19.7121,1.1213],[-72.0782,19.714,0.5232],[-72.071,19.7118,0.0],[-72.064,19.7132,0.0],[-72.0632,19.7154,0.7895],[-72.0646,19.7195,0.3012],[-72.0576,19.722,0.0],[-72.0543,19.7288,0.1867],[-72.0557,19.7318,0.6115],[-72.0615,19.7308,0.4036],[-72.0645,19.7329,0.2504],[-72.0715,19.7326,0.0],[-72.0793,19.7304,0.4427],[-72.0799,19.729,0.0],[-72.0901,19.7285,0.0],[-72.0937,19.7265,0.7071],[-72.1135,19.7299,1.7341],[-72.1232,19.7377,1.5231],[-72.1265,19.7445,0.2944],[-72.1269,19.7504,0.2289],[-72.1296,19.7524,0.0],[-72.1523,19.7571,0.6394],[-72.1549,19.7557,0.4203],[-72.1518,19.7558,0.5611],[-72.151,19.7524,0.163],[-72.1451,19.7493,0.7783],[-72.1462,19.743,0.9014],[-72.1498,19.7435,0.7868],[-72.1521,19.746,0.161],[-72.1612,19.7476,0.0],[-72.166,19.746,0.4106],[-72.1725,19.7477,0.0],[-72.1754,19.746,0.1436],[-72.1729,19.7434,0.1352],[-72.1735,19.7418,0.3564],[-72.1932,19.7418,4.7086],[-72.2001,19.746,0.0],[-72.202,19.7507,2.5131],[-72.2001,19.756,1.1279],[-72.1929,19.7582,0.0],[-72.1954,19.7612,3.3505],[-72.1954,19.7637,4.6308],[-72.1907,19.7749,0.0],[-72.1914,19.7799,3.5913],[-72.1888,19.7826,28.2881],[-72.1899,19.7849,0.0],[-72.1999,19.7885,24.3062],[-72.204,19.7849,17.9416],[-72.2129,19.786,0.0],[-72.2154,19.784,0.0],[-72.2201,19.7855,0.0],[-72.2282,19.7829,12.1455],[-72.2385,19.7887,43.9582],[-72.2418,19.7887,12.2171],[-72.2424,19.7865,3.1745],[-72.2477,19.7887,1.5926],[-72.2485,19.786,0.0],[-72.2449,19.7849,0.0],[-72.2457,19.7829,0.0],[-72.2432,19.7835,3.0328],[-72.2462,19.7804,22.3202],[-72.2462,19.7771,2.4425],[-72.2438,19.7768,21.5282],[-72.2432,19.7746,22.7401],[-72.2465,19.7729,27.2529],[-72.2521,19.7765,0.0],[-72.2596,19.7757,0.0],[-72.2585,19.761,39.8367],[-72.2605,19.7604,34.8948],[-72.2571,19.7571,77.3888],[-72.2567,19.7474,444.8754],[-72.2608,19.745,580.5049],[-72.2642,19.7464,512.6379],[-72.2672,19.745,483.3345],[-72.2687,19.7411,658.2589],[-72.2615,19.7391,666.0646],[-72.251,19.7399,668.7404],[-72.248,19.7296,124.6394],[-72.2451,19.7288,117.7825],[-72.2482,19.7249,43.158],[-72.2477,19.722,29.0706],[-72.2521,19.7191,23.2007],[-72.2443,19.7081,4.478],[-72.2403,19.7095,4.1785],[-72.239,19.7124,3.5321],[-72.2359,19.7124,4.2171],[-72.2338,19.7183,3.0868],[-72.2235,19.723,3.8372],[-72.2072,19.7167,3.7077],[-72.1989,19.7099,6.4562],[-72.1986,19.7034,7.538],[-72.1861,19.699,9.6123],[-72.1866,19.686,13.949],[-72.1885,19.6815,15.258],[-72.1874,19.6771,16.8635],[-72.1932,19.6633,21.4525],[-72.1928,19.6577,27.1355],[-72.1874,19.6566,26.4478],[-72.1871,19.6544,26.7841],[-72.1887,19.6476,31.4325],[-72.1951,19.6465,36.726],[-72.1978,19.6238,56.2411],[-72.1888,19.6226,51.7831],[-72.189,19.621,57.6856],[-72.2003,19.6126,92.5183],[-72.1985,19.6098,129.8086],[-72.1993,19.6069,164.881],[-72.207,19.6038,227.9539],[-72.2044,19.5961,563.1168],[-72.1991,19.6007,363.6606],[-72.1826,19.6097,328.1425],[-72.1812,19.6127,324.5219],[-72.1746,19.6173,149.5335],[-72.1737,19.6205,46.1558],[-72.167,19.6239,35.4792],[-72.1633,19.622,71.3864],[-72.1591,19.6108,246.0737],[-72.1513,19.5987,540.3815],[-72.1472,19.5986,546.0082],[-72.1453,19.5952,541.3626],[-72.1383,19.597,410.6027],[-72.1327,19.5894,400.7473],[-72.1188,19.5892,345.8148],[-72.1138,19.5915,368.9995],[-72.1123,19.5955,433.0631],[-72.1069,19.5997,417.3929],[-72.1057,19.6029,462.4823],[-72.1124,19.6106,264.0108],[-72.1115,19.6144,123.5664],[-72.1134,19.6186,72.6561],[-72.1083,19.6227,227.4693],[-72.11,19.6312,344.858]]]]}}