{"type": "Feature","id": "5075","bbox": [-61.68213,12.17669,-61.58047,12.31538],"geometry": {"type": "MultiPolygon","coordinates": [[[[-61.60277,12.18293,0.0],[-61.60456,12.19746,0.0],[-61.61295,12.21442,22.2192],[-61.60668,12.22028,0.0],[-61.60603,12.22337,24.5024],[-61.62767,12.23672,0.0],[-61.6505,12.23973,0.0],[-61.67146,12.23607,0.0],[-61.68213,12.22333,0.0],[-61.66911,12.21371,80.5591],[-61.65924,12.19973,234.752],[-61.65595,12.17916,352.3549],[-61.63127,12.17916,140.499],[-61.60322,12.17669,0.0],[-61.60277,12.18293,0.0]]],
[[[-61.58292,12.30085,53.9997],[-61.58515,12.30675,96.5987],[-61.58047,12.31155,1.1376],[-61.58735,12.31538,0.0],[-61.59183,12.31293,0.0],[-61.59415,12.3072,0.0],[-61.5998,12.29971,0.0],[-61.60062,12.29759,0.0],[-61.59569,12.2945,0.0],[-61.59101,12.29088,0.0],[-61.58857,12.28974,0.0],[-61.58292,12.30085,53.9997]]]]}
,"properties": {"ISO3166-1-Alpha-3": "GRD","country": "Grenada","fill": "#FF0","name": "Saint Patrick","area_km2": 44.53191,"hist_schema_id": "Elevation0-9000","hist_area_km2": {"0": 10.25659,"25": 5.82289,"50": 6.00946,"75": 5.03548,"100": 4.51752,"125": 3.75084,"150": 2.56969,"175": 2.21741,"200": 1.4092,"225": 1.13981,"250": 0.66317,"275": 0.43521,"300": 0.2487,"325": 0.20725,"350": 0.1658,"375": 0.06217,"400": 0.02073}}}