{"type":"Feature","properties":{"GID_1":"GRD.7_1","GID_0":"GRD","country":"Grenada","province":"SaintPatrick","VARNAME_1":"NA","NL_NAME_1":"NA","TYPE_1":"Parish","ENGTYPE_1":"Parish","CC_1":"NA","HASC_1":"GD.PA","ISO_1":"GD-06","name":"Saint_Patrick.province"},
"geometry":{"type": "MultiPolygon","coordinates": [[[[-61.6059,12.172,19.6095],[-61.6029,12.1728,3.0703],[-61.6043,12.1854,2.7707],[-61.6018,12.1921,0.0],[-61.6046,12.1926,6.3447],[-61.6057,12.1946,0.0],[-61.6057,12.2024,0.0],[-61.609,12.2054,35.8166],[-61.6101,12.2101,7.2102],[-61.6076,12.2199,0.0],[-61.6049,12.2218,0.0],[-61.6057,12.2251,0.0],[-61.6087,12.2246,2.5485],[-61.6085,12.2268,0.1584],[-61.6124,12.2274,1.4286],[-61.6154,12.2301,0.0],[-61.6249,12.2301,6.1763],[-61.6354,12.2251,5.626],[-61.641,12.2268,2.128],[-61.6429,12.2251,1.1487],[-61.6482,12.2282,1.6223],[-61.6546,12.2351,3.2777],[-61.6587,12.2335,76.8315],[-61.661,12.2351,12.795],[-61.6621,12.2338,0.0],[-61.6637,12.2343,0.0],[-61.6649,12.231,17.0074],[-61.6757,12.2251,49.032],[-61.681,12.2199,3.7466],[-61.6762,12.2141,24.5218],[-61.6707,12.2105,46.7272],[-61.6711,12.2055,99.8756],[-61.6691,12.1997,142.5076],[-61.6714,12.1898,316.3798],[-61.6723,12.1674,609.5983],[-61.6649,12.1695,473.3343],[-61.6566,12.1688,382.9574],[-61.645,12.1706,215.976],[-61.6361,12.1694,178.4942],[-61.6059,12.172,19.6095]]],
[[[-61.5865,12.224,0.0],[-61.5876,12.2246,0.0],[-61.5874,12.2224,0.0],[-61.5851,12.2199,0.0],[-61.5846,12.2226,2.6678],[-61.5865,12.224,0.0]]],
[[[-61.5949,12.2299,32.9027],[-61.596,12.2332,0.7773],[-61.5971,12.2304,9.9024],[-61.5951,12.2268,0.0],[-61.5924,12.2293,4.0987],[-61.5949,12.2299,32.9027]]],
[[[-61.6043,12.2312,0.0],[-61.6057,12.2329,0.0],[-61.6076,12.231,22.0791],[-61.6068,12.2279,3.261],[-61.6046,12.2282,0.0],[-61.6043,12.2312,0.0]]],
[[[-61.5485,12.2088,0.0],[-61.5513,12.2079,0.0],[-61.5499,12.2063,0.0],[-61.551,12.2049,0.0],[-61.5482,12.2074,32.9018],[-61.5485,12.2088,0.0]]],
[[[-61.5729,12.2901,0.0],[-61.574,12.2918,0.0],[-61.5768,12.2918,3.2753],[-61.5821,12.2888,26.0937],[-61.586,12.2899,2.143],[-61.5865,12.2843,3.7754],[-61.5788,12.2801,0.0],[-61.5788,12.2821,0.0],[-61.5774,12.2824,0.0],[-61.5782,12.2854,0.0],[-61.5754,12.2851,0.0],[-61.5751,12.2835,0.0],[-61.5718,12.2849,0.0],[-61.5737,12.286,0.0],[-61.5715,12.2876,0.0],[-61.5729,12.2901,0.0]]],
[[[-61.5435,12.3174,0.0],[-61.5451,12.3179,2.1708],[-61.5476,12.3157,1.0433],[-61.5454,12.3149,0.0],[-61.5435,12.3174,0.0]]],
[[[-61.5526,12.321,0.0],[-61.5549,12.321,0.9053],[-61.5565,12.3138,0.0],[-61.5524,12.314,16.2206],[-61.5504,12.3118,0.0],[-61.549,12.3151,8.6573],[-61.5518,12.3163,3.3635],[-61.5512,12.3193,0.0],[-61.5526,12.321,0.0]]],
[[[-61.5846,12.319,0.0],[-61.5885,12.3176,6.6394],[-61.5862,12.3143,17.7295],[-61.5876,12.3085,33.3596],[-61.5957,12.3001,6.0922],[-61.5946,12.2979,3.1688],[-61.5899,12.2974,31.2173],[-61.5851,12.2921,8.0679],[-61.5832,12.2926,8.0679],[-61.5818,12.2993,0.0],[-61.5799,12.3015,0.0],[-61.5796,12.2988,0.0],[-61.5768,12.3001,0.0],[-61.5782,12.3032,0.0],[-61.5765,12.306,0.0],[-61.5812,12.3079,0.0],[-61.5818,12.3112,0.0],[-61.5776,12.3115,0.0],[-61.5754,12.3151,0.0],[-61.5771,12.3185,0.0],[-61.5788,12.3182,0.0],[-61.5785,12.3149,20.9929],[-61.5829,12.3146,0.6453],[-61.5846,12.319,0.0]]],
[[[-61.5818,12.331,0.0],[-61.584,12.3307,0.0],[-61.584,12.3279,74.2342],[-61.5857,12.3274,0.0],[-61.584,12.3249,0.0],[-61.5818,12.3251,0.0],[-61.5801,12.3276,0.0],[-61.5801,12.3304,0.0],[-61.5818,12.331,0.0]]]]}}