{"type": "Feature","bbox": [-66.1271,18.2963,-65.9913,18.4732],"geometry": {"type": "MultiPolygon","coordinates": [[[[-66.0662,18.303,84.7739],[-66.0528,18.303,75.3709],[-66.0487,18.2978,62.3325],[-66.0454,18.2992,86.0548],[-66.0473,18.3092,151.7148],[-66.0454,18.3116,240.1598],[-66.0413,18.3121,231.4078],[-66.0352,18.3197,111.415],[-66.0366,18.3235,123.2412],[-66.0339,18.335,159.8662],[-66.0371,18.3459,152.5854],[-66.0334,18.3564,72.1295],[-66.0357,18.3683,52.1158],[-66.0251,18.3798,69.8834],[-66.0079,18.3788,91.4534],[-65.9991,18.3803,65.7295],[-66.0029,18.3855,60.5103],[-66.0024,18.395,22.256],[-65.9913,18.3984,16.2317],[-65.9931,18.4074,8.1671],[-66.0089,18.4131,4.9938],[-66.0288,18.4265,0.5],[-66.0325,18.4365,0.5],[-66.0432,18.4441,5.071],[-66.0365,18.4504,3.7981],[-66.039,18.4546,1.4743],[-66.0485,18.4526,0.9875],[-66.0535,18.4549,2.0519],[-66.0607,18.4546,5.5178],[-66.066,18.4579,0.0],[-66.0724,18.4574,0.0],[-66.0754,18.4601,2.3089],[-66.0826,18.4615,0.3936],[-66.0832,18.4599,1.0],[-66.0768,18.4579,5.2809],[-66.0765,18.4554,4.3705],[-66.0785,18.4551,5.3889],[-66.0801,18.4571,1.0],[-66.086,18.4588,1.7592],[-66.0863,18.4607,2.8426],[-66.0837,18.4635,3.5937],[-66.0865,18.4649,2.5998],[-66.086,18.4671,0.0],[-66.0888,18.4687,1.9024],[-66.0912,18.4668,4.4428],[-66.099,18.4662,8.5886],[-66.1015,18.469,0.0],[-66.1046,18.4676,5.6248],[-66.1071,18.469,0.0],[-66.1132,18.4687,24.3903],[-66.1204,18.4701,12.2841],[-66.126,18.4732,0.0],[-66.1271,18.471,0.0],[-66.1254,18.4707,0.0],[-66.124,18.4674,11.4582],[-66.1199,18.4654,8.7052],[-66.1165,18.4585,0.0],[-66.1146,18.4601,0.0],[-66.1151,18.4621,1.1695],[-66.1132,18.4615,0.0],[-66.1113,18.4635,0.0],[-66.1099,18.4601,0.0],[-66.1085,18.4626,0.0],[-66.1065,18.4626,0.3006],[-66.099,18.4604,1.2316],[-66.0943,18.4615,1.3871],[-66.0907,18.4599,0.0],[-66.0896,18.4574,0.9369],[-66.0924,18.4571,1.7229],[-66.0924,18.459,0.0],[-66.0982,18.4596,1.2316],[-66.0996,18.4585,2.0862],[-66.1015,18.4607,0.8348],[-66.1051,18.4604,1.8309],[-66.1071,18.4562,1.419],[-66.1035,18.4526,2.154],[-66.1035,18.4496,0.0],[-66.0993,18.451,1.0661],[-66.0918,18.4454,0.0],[-66.0882,18.4479,0.4526],[-66.0851,18.4474,5.5244],[-66.0829,18.4446,3.6917],[-66.0837,18.4407,0.0],[-66.0899,18.4399,0.0],[-66.0924,18.4363,1.1709],[-66.0965,18.4351,0.7182],[-66.0996,18.4318,3.2638],[-66.1049,18.4287,6.0243],[-66.1081,18.4287,2.047],[-66.0992,18.4193,7.982],[-66.095,18.4036,35.9804],[-66.0969,18.4002,44.5476],[-66.1071,18.4016,16.7998],[-66.108,18.3888,45.9911],[-66.1061,18.3826,67.5574],[-66.1024,18.3797,57.5399],[-66.095,18.3778,60.3258],[-66.0885,18.3573,85.7379],[-66.0964,18.3535,45.3077],[-66.0996,18.3426,129.7442],[-66.0963,18.3378,107.8386],[-66.0866,18.3321,170.7896],[-66.0885,18.3197,192.0825],[-66.0824,18.3078,134.2276],[-66.0852,18.3002,132.2097],[-66.0769,18.2963,157.6164],[-66.0662,18.303,84.7739]]]]}
,"properties": {"GID_1": "PRI.65_1","GID_0": "PRI","country": "PuertoRico","province": "SanJuan","VARNAME_1": "NA","NL_NAME_1": "NA","TYPE_1": "Municipio|SenatorialDistrict","ENGTYPE_1": "Municipality","CC_1": "NA","HASC_1": "PR.SJ","ISO_1": "-","name": "San_Juan.province","area_km2": 129.16901,"hist_schema_id": "Elevation0-9000","hist_area_km2": {"0": 38.55989,"25": 28.62751,"50": 17.14271,"75": 13.80424,"100": 10.38446,"125": 7.00392,"150": 5.31343,"175": 2.93858,"200": 2.15366,"225": 1.79138,"250": 0.88563,"275": 0.34218,"300": 0.16102,"325": 0.06038}}}