{"type":"Feature","properties":{"GID_2":"CUB.10.6_1","GID_0":"CUB","country":"Cuba","GID_1":"CUB.10_1","province":"LasTunas","NL_NAME_1":"NA","county":"Majibacoa","VARNAME_2":"NA","NL_NAME_2":"NA","TYPE_2":"Municipio","ENGTYPE_2":"Municipality","CC_2":"NA","HASC_2":"CU.LT.MJ","name":"Majibacoa.county"},
"geometry":{"type": "MultiPolygon","coordinates": [[[[-76.6885,20.7193,34.6596],[-76.6761,20.7281,37.7817],[-76.6731,20.7349,39.3499],[-76.6748,20.7428,39.1241],[-76.6925,20.7644,46.6301],[-76.712,20.7957,51.6751],[-76.7145,20.8013,53.3376],[-76.7146,20.8087,56.0468],[-76.6847,20.8456,87.2979],[-76.6808,20.8568,94.4442],[-76.673,20.8953,134.3911],[-76.6796,20.9202,117.8308],[-76.6807,20.932,119.1533],[-76.6791,20.9474,120.4272],[-76.674,20.9598,117.5],[-76.6697,20.9655,125.5531],[-76.6601,20.9691,136.748],[-76.6496,20.9701,134.4787],[-76.639,20.9685,142.2547],[-76.6162,20.9605,161.7409],[-76.6062,20.9615,184.3125],[-76.5796,20.9712,135.5845],[-76.5716,20.9725,132.2997],[-76.5302,20.9724,130.9082],[-76.5238,20.9769,136.3119],[-76.5168,20.9912,110.0536],[-76.5121,21.0155,63.1352],[-76.5459,20.9984,86.2282],[-76.6223,20.9966,148.8841],[-76.6415,20.9904,144.8188],[-76.6638,20.9873,143.5575],[-76.6765,20.9808,140.0454],[-76.682,20.9691,120.092],[-76.6811,20.906,113.4981],[-76.707,20.9071,136.6364],[-76.7292,20.8997,86.072],[-76.7458,20.8995,78.0009],[-76.7554,20.9038,75.349],[-76.7834,20.9275,77.7978],[-76.8038,20.9378,85.7735],[-76.8457,20.9495,102.6841],[-76.8607,20.9591,116.7061],[-76.9066,20.9459,81.0895],[-76.9242,20.9382,81.8051],[-76.9371,20.9278,97.8175],[-76.9407,20.9189,108.879],[-76.9049,20.8505,59.9126],[-76.8818,20.8249,47.7665],[-76.8554,20.7761,38.8152],[-76.8384,20.7356,26.205],[-76.8193,20.7361,31.1852],[-76.8083,20.7321,31.8672],[-76.7964,20.7237,28.3185],[-76.7894,20.7161,24.5512],[-76.7834,20.7056,27.2031],[-76.7769,20.6871,22.6842],[-76.767,20.673,22.9461],[-76.7604,20.669,23.3341],[-76.7545,20.6676,23.4884],[-76.747,20.6668,23.3083],[-76.7436,20.668,22.4945],[-76.734,20.6911,27.8325],[-76.7254,20.7003,28.6687],[-76.7128,20.709,29.8396],[-76.6885,20.7193,34.6596]]]]}}