{"type": "Feature","bbox": [-71.8108,18.4934,-71.6723,18.6955],"geometry": {"type": "MultiPolygon","coordinates": [[[[-71.7098,18.4934,-16.9341],[-71.7058,18.4993,-37.0],[-71.7044,18.5072,-37.0],[-71.6937,18.5365,-37.0],[-71.6929,18.5481,-37.0],[-71.6896,18.5606,16.491],[-71.687,18.5633,143.8072],[-71.6737,18.5696,460.3414],[-71.6723,18.5723,656.8362],[-71.674,18.5793,622.0182],[-71.6856,18.5878,440.8542],[-71.6873,18.5913,472.8748],[-71.6864,18.5952,462.5374],[-71.679,18.6062,619.142],[-71.678,18.6185,949.5223],[-71.6739,18.6252,1142.9105],[-71.6754,18.6363,1439.429],[-71.6727,18.6442,1511.115],[-71.6732,18.6515,1541.1121],[-71.6789,18.6609,1924.7399],[-71.6839,18.6645,1978.839],[-71.6905,18.6675,2128.2827],[-71.7018,18.6689,2109.8447],[-71.7091,18.6734,2089.9849],[-71.7217,18.6765,2065.7344],[-71.7339,18.6773,1966.756],[-71.7432,18.6813,1952.4705],[-71.7536,18.6774,1950.8483],[-71.7598,18.6769,1901.5845],[-71.7715,18.6803,1866.7114],[-71.776,18.6853,1896.2273],[-71.7854,18.6828,1914.4069],[-71.7848,18.6882,1892.3909],[-71.7816,18.6943,1800.7471],[-71.7839,18.6924,1894.5295],[-71.7886,18.6924,1911.509],[-71.7922,18.6955,1739.2874],[-71.7988,18.6889,1856.9044],[-71.7961,18.6842,1890.5402],[-71.798,18.6729,1479.0874],[-71.8047,18.6644,1346.5721],[-71.8015,18.6477,1070.459],[-71.8015,18.6383,761.0612],[-71.8062,18.6376,836.3356],[-71.81,18.6337,991.7233],[-71.8006,18.6309,788.6715],[-71.7978,18.6263,603.9089],[-71.7976,18.6217,677.4383],[-71.8042,18.6094,459.5167],[-71.8108,18.6039,413.429],[-71.8041,18.593,488.7488],[-71.8009,18.584,574.8176],[-71.7989,18.5693,539.8491],[-71.7874,18.559,395.4117],[-71.7809,18.5586,184.4885],[-71.7726,18.5611,374.9269],[-71.7678,18.5609,408.6176],[-71.7619,18.552,146.9016],[-71.7619,18.5425,94.9693],[-71.7686,18.5295,26.1628],[-71.7713,18.5255,16.0986],[-71.7818,18.5189,-15.6458],[-71.7819,18.5082,-37.0],[-71.7791,18.5056,-37.0],[-71.7703,18.5028,-37.0],[-71.7301,18.4938,-27.3261],[-71.7098,18.4934,-16.9341]]]]}
,"properties": {"GID_2": "DOM.10.4_1","GID_0": "DOM","country": "DominicanRepublic","GID_1": "DOM.10_1","province": "Independencia","NL_NAME_1": "NA","county": "LaDescubierta","VARNAME_2": "NA","NL_NAME_2": "NA","TYPE_2": "Municipio","ENGTYPE_2": "Municipality","CC_2": "NA","HASC_2": "DO.IN.LD","name": "La_Descubierta.county","area_km2": 224.1403,"hist_schema_id": "Elevation0-9000","hist_area_km2": {"-25": 41.8553,"0": 7.8196,"25": 4.2614,"50": 3.2764,"75": 2.7335,"100": 2.0501,"125": 1.9496,"150": 1.7284,"175": 1.8088,"200": 1.7887,"225": 1.849,"250": 1.5876,"275": 1.5876999999999999,"300": 1.5474,"325": 2.0498,"350": 2.2106,"375": 2.1503,"400": 3.2555,"425": 3.778,"450": 4.1397,"475": 4.18,"500": 4.8431,"525": 5.0842,"550": 4.5617,"575": 4.6621,"600": 3.9387,"625": 2.4515,"650": 2.4515,"675": 1.9893,"700": 2.2907,"725": 1.7481,"750": 2.2102,"775": 2.0897,"800": 1.8486,"825": 1.6677,"850": 1.969,"875": 1.8886,"900": 1.6475,"925": 1.6274,"950": 1.4064,"975": 1.4667,"1000": 1.768,"1025": 1.9288,"1050": 1.6475,"1075": 1.6274,"1100": 1.3059,"1125": 1.3059,"1150": 0.7835,"1175": 1.0246,"1200": 1.0246,"1225": 0.8237,"1250": 1.2858,"1275": 1.5068,"1300": 1.4063,"1325": 1.5469,"1350": 1.9688,"1375": 2.3906,"1400": 1.6875,"1425": 1.9888,"1450": 2.4108,"1475": 2.25,"1500": 2.6518,"1525": 2.471,"1550": 2.5714,"1575": 1.6875,"1600": 1.8683,"1625": 2.0892,"1650": 1.6874,"1675": 2.0089,"1700": 1.5669,"1725": 2.049,"1750": 1.2053,"1775": 1.145,"1800": 1.0847,"1825": 1.5065,"1850": 1.7074,"1875": 2.1492,"1900": 2.5509,"1925": 3.3946,"1950": 1.8278,"1975": 0.9039,"2000": 0.4419,"2025": 0.7432,"2050": 0.8035,"2075": 1.5266,"2100": 0.7432,"2125": 0.3817,"2150": 0.241}}}