{"type":"Feature","properties":{"GID_2":"DOM.13.1_1","GID_0":"DOM","country":"DominicanRepublic","GID_1":"DOM.13_1","province":"LaRomana","NL_NAME_1":"NA","county":"Guaymate","VARNAME_2":"NA","NL_NAME_2":"NA","TYPE_2":"Municipio","ENGTYPE_2":"Municipality","CC_2":"NA","HASC_2":"DO.RO.GU","name":"Guaymate.county"},
"geometry":{"type": "MultiPolygon","coordinates": [[[[-69.0779,18.5339,76.3834],[-69.0827,18.5281,54.9351],[-69.0868,18.5184,81.5169],[-69.0912,18.5141,52.5472],[-69.0922,18.5048,61.2915],[-69.0915,18.5004,72.6689],[-69.0857,18.4891,72.8497],[-69.0752,18.4832,72.824],[-69.0718,18.4847,72.8831],[-69.0691,18.4932,78.8525],[-69.0607,18.497,80.0884],[-69.0359,18.4972,66.8991],[-69.0249,18.4998,83.1978],[-69.0167,18.4946,82.7793],[-69.0053,18.4927,77.1096],[-69.0015,18.494,81.9572],[-68.9971,18.4986,84.0657],[-68.9964,18.5123,83.3559],[-68.9868,18.5144,83.609],[-68.9842,18.5196,81.4839],[-68.9813,18.5215,76.6207],[-68.9708,18.5167,73.1622],[-68.9632,18.5215,80.6554],[-68.9512,18.5223,83.8934],[-68.9438,18.5246,87.2501],[-68.9285,18.5221,77.5237],[-68.9209,18.5288,84.0897],[-68.9155,18.5303,80.4115],[-68.8624,18.5299,73.1454],[-68.8546,18.5273,42.1555],[-68.8405,18.5264,68.3821],[-68.8447,18.5418,15.451],[-68.8424,18.5517,56.3252],[-68.8434,18.5612,69.87],[-68.8494,18.5711,60.8306],[-68.8594,18.5758,28.2737],[-68.8678,18.5828,50.6451],[-68.873,18.5912,44.497],[-68.8801,18.5957,43.111],[-68.8887,18.613,44.1535],[-68.9013,18.6161,50.7004],[-68.9018,18.632,59.0948],[-68.9004,18.6407,82.742],[-68.9053,18.6473,70.9924],[-68.9108,18.6514,63.4971],[-68.9117,18.6563,94.1908],[-68.9259,18.6643,65.7841],[-68.9337,18.6632,102.4478],[-68.9408,18.6679,103.2902],[-68.951,18.6712,162.4179],[-68.9606,18.669,107.9849],[-68.9694,18.6711,137.4669],[-68.9725,18.6691,151.2632],[-68.9732,18.6659,137.6864],[-68.9712,18.657,119.9424],[-68.9742,18.6488,112.5104],[-68.9787,18.6444,106.6345],[-68.983,18.6262,93.2502],[-68.9976,18.6014,89.3697],[-69.0081,18.588,81.5443],[-69.0139,18.5828,77.3997],[-69.0339,18.5716,66.2344],[-69.0387,18.558,79.5573],[-69.0436,18.5537,65.1713],[-69.048,18.5463,82.2696],[-69.0584,18.5379,68.2587],[-69.067,18.5341,71.0172],[-69.0779,18.5339,76.3834]]]]}}