{"type": "Feature","bbox": [-66.3131,18.241,-66.2055,18.3338],"geometry": {"type": "MultiPolygon","coordinates": [[[[-66.2664,18.2455,640.531],[-66.2447,18.2493,600.3937],[-66.2419,18.2546,626.3385],[-66.2285,18.2537,564.8912],[-66.2193,18.2742,153.5313],[-66.2064,18.2766,76.2323],[-66.2115,18.2918,71.4954],[-66.2134,18.3066,80.4453],[-66.206,18.3066,59.3169],[-66.2055,18.3166,67.0877],[-66.2074,18.3238,66.5983],[-66.2139,18.3247,90.5326],[-66.2171,18.3338,61.4361],[-66.2213,18.3328,98.2579],[-66.2328,18.3237,60.1407],[-66.2384,18.3328,52.0],[-66.2463,18.3313,68.5555],[-66.2486,18.3261,87.5732],[-66.2588,18.3322,201.3397],[-66.2629,18.3298,230.7438],[-66.2782,18.3298,146.9532],[-66.2851,18.304,410.8514],[-66.2873,18.273,586.8499],[-66.2937,18.2606,473.3086],[-66.3131,18.2491,505.8556],[-66.3066,18.241,703.4055],[-66.296,18.2458,573.3448],[-66.2798,18.2435,640.1829],[-66.2664,18.2455,640.531]]]]}
,"properties": {"GID_1": "PRI.54_1","GID_0": "PRI","country": "PuertoRico","province": "Naranjito","VARNAME_1": "NA","NL_NAME_1": "NA","TYPE_1": "Municipio","ENGTYPE_1": "Municipality","CC_1": "NA","HASC_1": "PR.NR","ISO_1": "-","name": "Naranjito.province","area_km2": 71.78825,"hist_schema_id": "Elevation0-9000","hist_area_km2": {"50": 1.67058,"75": 2.15371,"100": 2.5362,"125": 3.62324,"150": 3.7641,"175": 3.82449,"200": 3.94523,"225": 3.80432,"250": 2.5161,"275": 2.3149,"300": 1.3286,"325": 1.55008,"350": 1.48971,"375": 1.65076,"400": 2.21447,"425": 2.57682,"450": 2.8788299999999998,"475": 3.20103,"500": 4.28836,"525": 4.99311,"550": 3.98653,"575": 3.20141,"600": 3.08067,"625": 2.8391,"650": 1.87263,"675": 0.44299,"700": 0.04027}}}