{"type":"Feature","properties":{"ISO3166-1-Alpha-3":"CUB","country":"Cuba","fill":"#F00","id":"1431","name":"Villa Clara"},
"geometry":{"type": "MultiPolygon","coordinates": [[[[-79.56998,22.8041,0.0],[-79.58654,22.81122,0.0],[-79.60692,22.81025,0.0],[-79.63532,22.80215,0.0],[-79.63366,22.78384,2.6009],[-79.62035,22.78315,1.6308],[-79.59065,22.79466,0.7117],[-79.57177,22.78828,0.0],[-79.5631,22.77424,0.0],[-79.55797,22.76016,0.0],[-79.54967,22.75373,0.0],[-79.54483,22.75141,0.2016],[-79.52888,22.7403,1.7184],[-79.52546,22.7364,0.5562],[-79.52404,22.725,1.0533],[-79.52009,22.72069,0.6736],[-79.51358,22.71841,0.4326],[-79.49083,22.70205,0.0],[-79.47374,22.69432,0.9377],[-79.45539,22.69229,1.0533],[-79.43737,22.69847,0.9648],[-79.4038,22.66364,0.8808],[-79.38891,22.65131,0.0],[-79.37556,22.64322,0.0],[-79.36636,22.63935,0.0],[-79.35753,22.63768,0.0],[-79.34948,22.63532,3.0065],[-79.32681,22.61652,1.6698],[-79.3356,22.63467,1.1005],[-79.35192,22.65729,0.0],[-79.37198,22.67666,0.0],[-79.41291,22.69135,0.2888],[-79.45027,22.71992,0.0],[-79.49633,22.73314,1.1006],[-79.51797,22.74958,0.1896],[-79.56998,22.8041,0.0]]],
[[[-79.68008,22.85944,0.0],[-79.68586,22.8653,0.0],[-79.69201,22.87393,0.0],[-79.71129,22.87783,0.0],[-79.71833,22.88003,0.9305],[-79.71544,22.89614,0.2903],[-79.72216,22.90721,3.5939],[-79.72753,22.90396,0.0],[-79.72826,22.89533,0.0],[-79.72619,22.88898,0.0],[-79.73876,22.88581,0.0],[-79.73986,22.8758,1.6129],[-79.73087,22.86612,0.5986],[-79.71154,22.85346,1.044],[-79.70458,22.85175,2.4354],[-79.69909,22.85248,0.0],[-79.69518,22.85049,0.0],[-79.69229,22.84715,0.0],[-79.69237,22.84016,1.2267],[-79.68529,22.83369,2.0327],[-79.66983,22.83625,0.0],[-79.6608,22.84516,2.6966],[-79.66637,22.85212,0.0],[-79.68008,22.85944,0.0]]],
[[[-79.911,22.96638,0.0],[-79.92724,22.96629,0.0],[-79.94302,22.96113,0.0],[-79.95743,22.95303,2.547],[-79.9497,22.92841,0.0],[-79.93981,22.93285,4.0144],[-79.92935,22.94648,2.6249],[-79.91983,22.94929,2.0381],[-79.89855,22.93671,2.412],[-79.88785,22.94628,2.8195],[-79.88712,22.9597,0.0],[-79.89538,22.95917,1.7691],[-79.911,22.96638,0.0]]],
[[[-79.83495,22.91181,3.0784],[-79.82738,22.91913,4.008],[-79.82901,22.92475,2.1238],[-79.83764,22.92617,0.0],[-79.84215,22.93179,0.0],[-79.83507,22.93895,4.3776],[-79.82311,22.94245,4.9634],[-79.81705,22.94725,4.2526],[-79.81847,22.95433,0.0],[-79.82628,22.96467,3.602],[-79.83853,22.96809,2.2611],[-79.86107,22.96259,0.0],[-79.87116,22.9477,3.8564],[-79.86189,22.94294,0.0],[-79.85294,22.94164,0.0],[-79.8553,22.93671,0.0],[-79.86148,22.93195,0.0],[-79.86449,22.92597,1.5985],[-79.85802,22.91694,0.825],[-79.84651,22.91035,3.5493],[-79.83495,22.91181,3.0784]]],
[[[-80.25162,22.98652,0.0],[-80.24669,22.98945,0.0],[-80.23697,22.9973,0.1544],[-80.2318,23.00015,0.0],[-80.24975,23.01093,2.3509],[-80.27188,23.00869,0.5015],[-80.32055,22.98652,0.361],[-80.32897,22.99225,0.0],[-80.33576,22.99335,0.0],[-80.3417,22.99103,0.0],[-80.34781,22.98652,0.0],[-80.33251,22.97533,1.1843],[-80.2318,22.95917,0.0],[-80.23253,22.96894,0.0],[-80.23607,22.97675,0.0],[-80.2425,22.98257,0.0],[-80.25162,22.98652,0.0]]],
[[[-80.45507,22.97207,0.0],[-80.46451,22.98029,0.0],[-80.47985,22.98566,0.0],[-80.52038,22.99291,0.0],[-80.53624,22.99396,0.0],[-80.55679,23.00739,0.0],[-80.59309,23.06802,0.0],[-80.5931,23.06803,0.0],[-80.59929,23.06567,0.0],[-80.61531,23.03717,4.8448],[-80.61817,23.01428,10.7919],[-80.61743,23.00395,10.639099999999999],[-80.61802,22.98731,16.7061],[-80.62301,22.97942,35.1929],[-80.63019,22.97397,31.6333],[-80.64032,22.9711,27.8385],[-80.64613,22.97048,26.7475],[-80.6507,22.97136,25.8674],[-80.65936,22.97702,25.2183],[-80.66344,22.9788,24.1749],[-80.66732,22.97942,24.3372],[-80.67267,22.97909,28.0935],[-80.67747,22.97803,33.1747],[-80.69153,22.97307,35.6423],[-80.69579,22.9726,34.9088],[-80.72073,22.97328,24.8884],[-80.72595,22.97072,21.8711],[-80.72938,22.9664,23.0355],[-80.7321,22.95695,21.9452],[-80.73279,22.94899,21.8321],[-80.73222,22.93783,28.7916],[-80.72827,22.92261,29.7449],[-80.72706,22.91449,28.287],[-80.72967,22.9,29.836],[-80.73509,22.89276,32.7622],[-80.74013,22.88801,33.4604],[-80.74716,22.88429,30.1436],[-80.74842,22.88052,31.4912],[-80.74685,22.87765,31.5026],[-80.74305,22.87574,32.8123],[-80.73933,22.87331,32.6],[-80.73737,22.87008,34.9512],[-80.73633,22.86351,33.3627],[-80.73439,22.85886,34.4507],[-80.73093,22.85406,31.3888],[-80.72073,22.8437,36.9913],[-80.71442,22.83527,36.3026],[-80.71142,22.82982,37.5171],[-80.70853,22.82589,40.2294],[-80.7044,22.82241,42.9372],[-80.68773,22.81225,41.3236],[-80.66747,22.79597,45.9474],[-80.6514,22.79701,47.6313],[-80.64412,22.79995,49.7105],[-80.6243,22.81341,61.1367],[-80.60471,22.82034,71.9182],[-80.59505,22.82049,80.7486],[-80.58766,22.81747,88.5829],[-80.58492,22.81365,89.4672],[-80.58076,22.80494,94.1013],[-80.57957,22.80158,93.4693],[-80.57523,22.79285,99.2852],[-80.56807,22.77218,101.1034],[-80.55298,22.74822,93.2653],[-80.55032,22.74071,91.3584],[-80.5518,22.73559,86.4991],[-80.55702,22.73272,86.2466],[-80.56637,22.72895,79.2936],[-80.57195,22.72143,82.9832],[-80.57314,22.71572,80.9872],[-80.57143,22.7113,80.0718],[-80.56417,22.70425,82.3532],[-80.55963,22.6974,82.7733],[-80.558,22.69081,84.7079],[-80.55753,22.68213,81.8221],[-80.56265,22.63516,78.1451],[-80.56172,22.62782,80.9124],[-80.55931,22.62366,80.1487],[-80.55484,22.61898,84.2703],[-80.54994,22.61118,82.4812],[-80.54761,22.59152,78.0579],[-80.54477,22.58139,72.2953],[-80.54035,22.57141,70.4879],[-80.5341,22.56508,69.4],[-80.51968,22.54201,60.5],[-80.47816,22.56451,70.2214],[-80.46591,22.57751,72.0042],[-80.4632,22.58141,69.9495],[-80.45942,22.58464,67.5978],[-80.45462,22.5871,68.2046],[-80.44622,22.58643,72.9524],[-80.44108,22.5848,72.6432],[-80.41718,22.56645,74.7553],[-80.39235,22.57087,75.238],[-80.38398,22.56932,75.0006],[-80.37927,22.56397,72.3457],[-80.37982,22.54945,61.6625],[-80.38175,22.54007,58.0085],[-80.38669,22.52671,52.6709],[-80.38746,22.52237,51.361],[-80.38677,22.51963,49.1366],[-80.38522,22.51741,48.6171],[-80.38082,22.51604,48.7889],[-80.37537,22.51625,47.6844],[-80.36406,22.51981,57.1627],[-80.3576,22.52273,55.8972],[-80.34646,22.52958,57.5429],[-80.34183,22.53126,58.5221],[-80.33641,22.5317,55.4776],[-80.32866,22.53139,61.565],[-80.32315,22.53165,66.4849],[-80.31998,22.53333,66.3235],[-80.31801,22.53604,65.6027],[-80.31049,22.55831,71.5438],[-80.3068,22.56493,67.8196],[-80.30352,22.56857,67.3339],[-80.29995,22.56986,68.3969],[-80.29414,22.57004,63.9004],[-80.28016,22.5688,60.6109],[-80.27373,22.56888,58.0698],[-80.26776,22.56986,56.2858],[-80.26479,22.5717,52.7679],[-80.26013,22.57661,51.2714],[-80.25755,22.57854,50.8659],[-80.25541,22.5756,52.6034],[-80.25398,22.56904,52.183],[-80.25401,22.55136,57.8607],[-80.25548,22.54286,58.628],[-80.25794,22.53798,60.3738],[-80.26081,22.53661,61.2438],[-80.26479,22.53558,59.5385],[-80.26801,22.53418,60.7437],[-80.27109,22.53165,62.9816],[-80.2714,22.52648,67.0571],[-80.27024,22.5178,70.649],[-80.2591,22.49359,73.9198],[-80.25556,22.48847,74.1487],[-80.23652,22.47847,73.4824],[-80.23352,22.46829,77.5563],[-80.23737,22.45956,81.932],[-80.239,22.4524,84.8667],[-80.23848,22.44669,88.25],[-80.2344,22.43951,85.5946],[-80.22724,22.43602,87.9713],[-80.22352,22.43215,88.2405],[-80.22081,22.4278,92.824],[-80.22399,22.41468,99.2755],[-80.243,22.39538,98.4659],[-80.24249,22.38465,102.9778],[-80.23905,22.37817,99.8703],[-80.23295,22.37031,111.1047],[-80.1966,22.33737,110.6031],[-80.18427,22.33135,123.2169],[-80.17709,22.33011,122.4621],[-80.16998,22.33063,139.0695],[-80.15497,22.33492,136.797],[-80.14991,22.33538,129.4875],[-80.1457,22.33455,137.2225],[-80.14329,22.33264,137.0046],[-80.14159,22.3291,137.1284],[-80.13841,22.30673,101.948],[-80.1357,22.29768,79.364],[-80.13022,22.28621,85.0216],[-80.12143,22.27143,108.4785],[-80.10919,22.25642,107.7572],[-80.08407,22.24562,144.0584],[-80.09498,22.21342,154.3443],[-80.09857,22.20761,137.7755],[-80.10242,22.19927,155.5022],[-80.10358,22.1902,106.6426],[-80.09981,22.15159,110.6931],[-80.10048,22.13188,181.9621],[-80.09986,22.1234,204.0409],[-80.08937,22.08377,408.3681],[-80.08412,22.07026,670.5858],[-80.07738,22.05788,363.0],[-80.05878,22.04344,457.6772],[-80.05338,22.03654,585.9506],[-80.05084,22.02832,366.4615],[-80.04927,22.00181,735.296],[-80.04989,21.9868,801.5164],[-80.04842,21.97721,617.6262],[-80.04501,21.96861,495.3258],[-80.02475,21.95422,660.5676],[-80.02328,21.95212,693.8126],[-80.02405,21.93851,603.1357],[-79.9886,21.95391,669.5901],[-79.96989,21.96809,704.8428],[-79.96307,21.96982,742.0471],[-79.94829,21.96876,406.0891],[-79.9432,21.97173,458.9641],[-79.94049,21.97682,484.3967],[-79.93832,21.98533,524.8654],[-79.93452,21.99323,364.8419],[-79.92465,22.00499,396.78],[-79.9145,22.00899,264.2885],[-79.90496,22.01023,272.4182],[-79.84688,21.99726,141.3039],[-79.83959,21.99437,129.8439],[-79.83473,21.99091,100.5573],[-79.82055,21.98393,226.4747],[-79.79071,21.98179,123.3169],[-79.76593,22.00155,158.1748],[-79.74626,22.03152,111.456],[-79.72978,22.06237,112.7228],[-79.72448,22.08087,110.9247],[-79.72355,22.09387,114.6503],[-79.72745,22.09937,121.1518],[-79.73182,22.10144,118.4062],[-79.73769,22.1017,108.8603],[-79.74272,22.10121,97.8526],[-79.74714,22.10206,89.9223],[-79.75024,22.10503,98.3624],[-79.75378,22.11157,110.1481],[-79.7583,22.12281,127.0792],[-79.77288,22.14929,110.8322],[-79.77926,22.16653,131.1356],[-79.77965,22.17692,145.1265],[-79.77753,22.18371,151.3258],[-79.76662,22.19283,161.5995],[-79.7336,22.19208,155.4645],[-79.722,22.18317,145.6012],[-79.71831,22.17661,139.1698],[-79.71332,22.16978,150.4282],[-79.70286,22.16126,168.1323],[-79.69242,22.1588,166.7343],[-79.68384,22.15927,174.6807],[-79.67658,22.16296,188.3834],[-79.66224,22.17193,183.182],[-79.64901,22.17332,182.2698],[-79.63973,22.17265,177.4453],[-79.59881,22.16105,142.8826],[-79.57837,22.16723,131.8365],[-79.56483,22.16144,134.7099],[-79.55617,22.15601,139.889],[-79.54196,22.15069,123.539],[-79.52785,22.15229,118.8615],[-79.51672,22.15671,106.3362],[-79.50773,22.16431,99.4943],[-79.49925,22.17498,119.1929],[-79.49181,22.1889,122.429],[-79.48669,22.20157,111.474],[-79.48127,22.21945,104.0819],[-79.46339,22.23655,114.4629],[-79.45145,22.24242,122.159],[-79.43383,22.24849,147.5638],[-79.42158,22.24931,152.9823],[-79.41174,22.24717,146.4814],[-79.38691,22.23503,170.665],[-79.36112,22.2312,175.3437],[-79.35804,22.24918,175.4016],[-79.35913,22.26505,192.7189],[-79.35665,22.27704,240.9015],[-79.3527,22.28954,221.3798],[-79.35347,22.29683,207.686],[-79.38184,22.33326,130.6169],[-79.41535,22.39548,70.2016],[-79.4237,22.40806,45.4903],[-79.43538,22.41646,32.6021],[-79.41685,22.44845,6.5],[-79.41737,22.47145,2.227],[-79.41674,22.47248,0.0],[-79.42471,22.47875,7.162],[-79.42984,22.49022,4.0625],[-79.45653,22.52847,0.0],[-79.46801,22.5314,0.0],[-79.49694,22.53197,3.2565],[-79.51183,22.53461,3.1332],[-79.51749,22.53913,2.5111],[-79.54284,22.56566,2.6378],[-79.55211,22.58027,8.302],[-79.56583,22.61115,3.4067],[-79.57726,22.6271,0.0],[-79.58853,22.6385,10.2806],[-79.59935,22.64655,3.335],[-79.61148,22.65233,3.7246],[-79.62645,22.65693,2.0996],[-79.62702,22.6575,2.4818],[-79.65172,22.75878,3.2092],[-79.66031,22.76386,0.0],[-79.68309,22.76118,0.0],[-79.68419,22.75898,0.0],[-79.68863,22.7541,0.0],[-79.69465,22.74917,2.4653],[-79.70018,22.74689,2.036],[-79.70617,22.74877,0.0],[-79.70995,22.75308,0.0],[-79.71312,22.7578,0.0],[-79.77188,22.79662,0.0],[-79.78954,22.80215,0.0],[-79.83072,22.80565,0.0],[-79.84138,22.80834,0.0],[-79.8509,22.81411,0.0],[-79.85717,22.82071,2.3809],[-79.86803,22.83625,2.5998],[-79.85497,22.87254,1.5776],[-79.84386,22.88068,0.0],[-79.82091,22.87043,0.4444],[-79.80236,22.88215,0.9815],[-79.79296,22.89012,2.0588],[-79.79296,22.89777,4.7515],[-79.80175,22.89973,0.0],[-79.86315,22.88369,0.0],[-79.89574,22.85517,0.0],[-79.91649,22.84931,2.9995],[-79.91641,22.85155,0.8815],[-79.91698,22.85643,0.0],[-79.91983,22.86131,0.0],[-79.92675,22.86359,0.7256],[-79.94457,22.86278,0.6219],[-79.95002,22.86359,3.064],[-79.98786,22.8841,6.0737],[-79.99006,22.89061,4.8018],[-80.01268,22.92845,0.4716],[-80.0161,22.93806,1.9117],[-80.02457,22.94668,0.0],[-80.03551,22.95384,0.0],[-80.04621,22.95917,0.0],[-80.05004,22.93525,0.0],[-80.07006,22.93179,1.3221],[-80.09362,22.93854,0.0],[-80.14672,22.96308,0.0],[-80.16356,22.96255,0.0],[-80.15608,22.93871,0.0],[-80.21569,22.91706,0.0],[-80.24669,22.91104,0.0],[-80.27961,22.91201,0.0],[-80.2967,22.91568,1.1898],[-80.31334,22.92129,2.2118],[-80.32942,22.92984,5.0238],[-80.34447,22.94208,0.0],[-80.35692,22.94562,2.6717],[-80.41332,22.9455,0.0],[-80.43151,22.94994,0.7422],[-80.44473,22.96039,0.0],[-80.45507,22.97207,0.0]]],
[[[-80.06461,23.05801,2.6203],[-80.07677,23.06989,0.8018],[-80.08764,23.06745,0.0],[-80.08947,23.05549,2.7537],[-80.09105,23.04999,2.1273],[-80.09447,23.05069,2.0254],[-80.0948,23.04833,0.0],[-80.09122,23.04287,0.0],[-80.08536,23.03832,0.0],[-80.0773,23.0373,2.7519],[-80.07071,23.03856,0.0],[-80.06656,23.03889,4.4469],[-80.06192,23.03425,0.0],[-80.0563,23.02668,0.0],[-80.05358,23.0292,5.0377],[-80.05761,23.04243,0.0],[-80.06139,23.04979,0.0],[-80.06461,23.05801,2.6203]]],
[[[-80.1424,23.07587,0.3666],[-80.1341,23.08283,0.0],[-80.13126,23.08698,2.6567],[-80.13659,23.08902,3.4357],[-80.15266,23.08954,0.0],[-80.16649,23.09247,0.0],[-80.17984,23.10025,0.0],[-80.19074,23.1114,0.0],[-80.19701,23.12425,0.0],[-80.20446,23.12425,0.0],[-80.2108,23.11445,6.0875],[-80.2174,23.10712,0.0],[-80.22265,23.09976,1.1423],[-80.22496,23.08954,0.9728],[-80.18273,23.07095,0.9488],[-80.16242,23.06733,0.709],[-80.1424,23.07587,0.3666]]],
[[[-80.24462,23.08527,0.6137],[-80.23941,23.09101,1.7276],[-80.23815,23.09764,0.0],[-80.24218,23.10432,0.0],[-80.2447,23.10749,4.921],[-80.25088,23.1153,2.3787],[-80.26553,23.12743,1.4738],[-80.27257,23.13447,0.0],[-80.27245,23.14004,0.2455],[-80.28112,23.14232,0.0],[-80.28856,23.14175,0.0],[-80.29601,23.14045,0.0],[-80.30573,23.13451,0.179],[-80.30297,23.12641,1.0084],[-80.29646,23.12263,0.0],[-80.29475,23.12043,0.0],[-80.29304,23.11587,0.0],[-80.28856,23.11408,4.1359],[-80.27379,23.10627,0.0],[-80.26586,23.10375,1.6279],[-80.26179,23.09618,0.0],[-80.25707,23.0893,0.0],[-80.25031,23.08487,0.0],[-80.24462,23.08527,0.6137]]],
[[[-80.378,23.14769,0.2281],[-80.37629,23.15217,2.0156],[-80.39,23.15449,0.4522],[-80.40144,23.15461,0.0],[-80.42447,23.15278,0.0],[-80.43179,23.15253,0.0],[-80.44612,23.15062,0.0],[-80.45108,23.14509,0.0],[-80.44945,23.13622,0.0],[-80.4584,23.13719,0.0],[-80.46223,23.1352,0.1725],[-80.45979,23.12861,0.0],[-80.45808,23.12678,0.0],[-80.44441,23.13019,0.5988],[-80.42927,23.13622,0.0],[-80.41967,23.14338,0.0],[-80.39395,23.14643,0.3174],[-80.3861,23.14582,0.1052],[-80.378,23.14769,0.2281]]]]}}