{"type":"Feature","properties":{"GID_2":"DOM.24.6_1","GID_0":"DOM","country":"DominicanRepublic","GID_1":"DOM.24_1","province":"SanCristóbal","NL_NAME_1":"NA","county":"SanCristóbal","VARNAME_2":"NA","NL_NAME_2":"NA","TYPE_2":"Municipio","ENGTYPE_2":"Municipality","CC_2":"NA","HASC_2":"DO.CR.SC","name":"San_Cristóbal.county"},
"geometry":{"type": "MultiPolygon","coordinates": [[[[-70.0553,18.4609,45.6453],[-70.0579,18.4655,16.618],[-70.0589,18.4791,31.8484],[-70.062,18.4806,46.6921],[-70.071,18.4807,22.2318],[-70.0732,18.4839,16.0105],[-70.0702,18.4865,16.861],[-70.0642,18.4835,48.9904],[-70.0583,18.4899,27.1421],[-70.0566,18.4952,32.5979],[-70.0608,18.4988,30.112],[-70.063,18.5032,30.9288],[-70.0604,18.5103,33.1219],[-70.0668,18.5124,30.2082],[-70.0775,18.5193,30.3942],[-70.0806,18.5339,45.3602],[-70.0896,18.534,42.4321],[-70.0861,18.5267,34.1209],[-70.0872,18.5242,37.7511],[-70.1025,18.5255,43.4647],[-70.1052,18.5229,77.9659],[-70.1068,18.5157,183.9668],[-70.1149,18.5139,162.8307],[-70.1244,18.5045,181.191],[-70.1274,18.5037,168.2639],[-70.1507,18.513,223.3653],[-70.1527,18.5154,232.4512],[-70.1544,18.5226,290.6199],[-70.169,18.5276,344.6031],[-70.1775,18.541,274.7399],[-70.1946,18.5539,282.4359],[-70.2097,18.5577,551.2726],[-70.2125,18.5565,546.6656],[-70.2174,18.5503,450.929],[-70.2148,18.5418,405.4192],[-70.208,18.5398,293.1396],[-70.2031,18.5316,236.8482],[-70.1878,18.5221,237.004],[-70.1751,18.5043,269.1821],[-70.1744,18.4969,379.3728],[-70.1797,18.485,178.0027],[-70.1768,18.4819,269.8151],[-70.1697,18.4809,158.3226],[-70.1683,18.4777,216.5225],[-70.1695,18.4746,247.928],[-70.1758,18.4685,284.9366],[-70.1764,18.4657,278.1219],[-70.1603,18.4613,303.3109],[-70.1572,18.4589,236.2258],[-70.1564,18.442,116.4394],[-70.1609,18.4328,86.5744],[-70.1584,18.4305,85.0773],[-70.1489,18.4271,73.3313],[-70.1473,18.4244,71.7712],[-70.1484,18.4172,75.9324],[-70.1561,18.4137,218.0643],[-70.1651,18.4032,281.4431],[-70.1738,18.4016,312.5022],[-70.1818,18.397,256.9313],[-70.1961,18.398,414.4402],[-70.1972,18.3914,309.1754],[-70.1887,18.3805,227.384],[-70.1729,18.3795,158.3626],[-70.1602,18.376,124.6752],[-70.1554,18.3694,94.8818],[-70.151,18.367,77.4943],[-70.148,18.3615,74.7861],[-70.1469,18.3546,58.0688],[-70.1442,18.3519,52.5862],[-70.1378,18.3515,44.5235],[-70.1304,18.3536,49.7101],[-70.124,18.3483,51.0186],[-70.1213,18.3417,73.3748],[-70.126,18.3342,65.4279],[-70.1264,18.3302,80.7606],[-70.1185,18.3162,72.1157],[-70.1199,18.3104,64.5132],[-70.1191,18.3058,56.8877],[-70.1217,18.3036,43.2013],[-70.1354,18.3002,87.9881],[-70.1417,18.2973,101.6896],[-70.1432,18.2949,91.5883],[-70.1409,18.2913,67.6777],[-70.1339,18.2861,60.3319],[-70.1305,18.2855,43.6436],[-70.1204,18.2753,0.0],[-70.1099,18.2899,0.0],[-70.1099,18.2968,0.0],[-70.1021,18.3051,0.0],[-70.0969,18.3032,0.0],[-70.0999,18.306,12.1124],[-70.0945,18.3146,32.6839],[-70.0941,18.3186,34.1408],[-70.0961,18.3218,48.1993],[-70.1046,18.3276,99.6407],[-70.106,18.3335,117.952],[-70.1037,18.3388,127.7333],[-70.0923,18.3431,112.3239],[-70.0909,18.345,108.2051],[-70.0918,18.3504,83.3313],[-70.1006,18.355,117.4184],[-70.1023,18.3576,119.171],[-70.0967,18.3718,53.203],[-70.0905,18.3739,88.7557],[-70.0786,18.3708,27.338],[-70.0733,18.3752,51.013],[-70.0743,18.3803,50.816],[-70.0792,18.3845,90.5728],[-70.086,18.3874,45.0555],[-70.099,18.3886,123.0069],[-70.0995,18.396,52.3176],[-70.0952,18.399,25.1564],[-70.0788,18.3988,47.4434],[-70.069,18.3907,10.9196],[-70.063,18.3888,30.0973],[-70.0559,18.3934,37.1091],[-70.0597,18.4023,73.377],[-70.0542,18.4109,25.9169],[-70.0501,18.4124,32.4854],[-70.0434,18.41,61.9543],[-70.0436,18.4226,49.1983],[-70.0468,18.4296,30.6406],[-70.0624,18.4382,48.0381],[-70.0641,18.4407,61.2754],[-70.0625,18.4453,54.5692],[-70.0526,18.4514,56.1118],[-70.0524,18.4565,54.2735],[-70.0553,18.4609,45.6453]]]]}}