{"type":"Feature","properties":{"GID_2":"DOM.31.4_1","GID_0":"DOM","country":"DominicanRepublic","GID_1":"DOM.31_1","province":"SantoDomingo","NL_NAME_1":"NA","county":"PedroBrand","VARNAME_2":"NA","NL_NAME_2":"NA","TYPE_2":"Distritomunicipal","ENGTYPE_2":"Municipaldistrict","CC_2":"NA","HASC_2":"DO.SD.PB","name":"Pedro_Brand.county"},
"geometry":{"type": "MultiPolygon","coordinates": [[[[-70.1602,18.7225,796.6237],[-70.1646,18.7158,431.4477],[-70.1651,18.7121,332.9879],[-70.1572,18.7045,344.4875],[-70.1527,18.6912,298.2056],[-70.1478,18.6862,281.8424],[-70.1475,18.6765,241.2143],[-70.1496,18.6675,160.3727],[-70.1431,18.6553,135.488],[-70.1362,18.65,132.1825],[-70.1311,18.6395,118.706],[-70.1308,18.6354,105.3066],[-70.1239,18.6317,105.9349],[-70.1244,18.6283,104.8499],[-70.1298,18.6254,134.9615],[-70.1383,18.6267,175.9483],[-70.1407,18.6252,158.247],[-70.141,18.6222,162.192],[-70.1361,18.6135,148.3352],[-70.1357,18.6095,153.5886],[-70.1461,18.594,117.558],[-70.1402,18.5846,117.8075],[-70.1306,18.5746,127.5871],[-70.1325,18.5664,81.4983],[-70.1318,18.5627,87.5809],[-70.1299,18.5613,88.6794],[-70.1242,18.5614,151.0564],[-70.1134,18.5414,108.4963],[-70.1134,18.5391,110.428],[-70.1175,18.5331,106.3006],[-70.1169,18.524,59.5039],[-70.1116,18.5209,95.5827],[-70.1059,18.5205,90.9961],[-70.1046,18.5239,53.5262],[-70.1012,18.5259,47.3012],[-70.0955,18.5257,39.8906],[-70.0902,18.5235,63.3377],[-70.0865,18.525,37.7511],[-70.0896,18.534,42.4321],[-70.0997,18.5377,107.7649],[-70.1051,18.5425,89.1085],[-70.1057,18.5478,110.419],[-70.1018,18.5512,96.1255],[-70.09,18.5517,91.7415],[-70.0683,18.5595,79.1106],[-70.0559,18.5596,81.1188],[-70.0532,18.5587,76.7688],[-70.0438,18.5491,67.7191],[-70.0348,18.5475,52.8211],[-70.0282,18.5432,38.274],[-70.0159,18.5397,33.6609],[-70.0099,18.543,18.1261],[-70.0025,18.5524,9.5177],[-69.9956,18.5548,6.6734],[-69.9993,18.5608,9.4955],[-70.0038,18.5631,16.8064],[-70.0124,18.5727,13.0267],[-70.0155,18.5782,36.8392],[-70.0152,18.588,35.4802],[-70.0191,18.5923,35.6474],[-70.0203,18.6003,27.3901],[-70.0255,18.6067,41.7352],[-70.0246,18.6105,72.8288],[-70.02,18.6148,91.2737],[-70.0198,18.6206,123.8784],[-70.0234,18.625,118.7444],[-70.0319,18.6301,143.2002],[-70.034,18.6333,126.5221],[-70.0326,18.6358,150.1104],[-70.0232,18.6398,98.0471],[-70.0215,18.6471,105.2243],[-70.0127,18.6594,176.3038],[-70.0276,18.6614,290.9929],[-70.0343,18.6643,371.7949],[-70.0622,18.6834,221.3015],[-70.0759,18.6837,442.7371],[-70.0835,18.6815,434.2845],[-70.0907,18.6843,545.5878],[-70.0981,18.6949,518.1688],[-70.116,18.7026,446.264],[-70.1358,18.7259,542.3074],[-70.1481,18.7265,553.6955],[-70.1602,18.7225,796.6237]]]]}}