{"type":"Feature","properties":{"GID_2":"CUB.15.4_1","GID_0":"CUB","country":"Cuba","GID_1":"CUB.15_1","province":"SantiagodeCuba","NL_NAME_1":"NA","county":"PalmaSoriano","VARNAME_2":"NA","NL_NAME_2":"NA","TYPE_2":"Municipio","ENGTYPE_2":"Municipality","CC_2":"NA","HASC_2":"CU.SC.PS","name":"Palma_Soriano.county"},
"geometry":{"type": "MultiPolygon","coordinates": [[[[-76.1315,20.4285,100.9265],[-76.124,20.4093,114.4401],[-76.1134,20.3957,129.2952],[-76.1042,20.3774,173.4887],[-76.1038,20.3257,158.5762],[-76.1305,20.2763,172.1567],[-76.1446,20.2684,161.49],[-76.1662,20.2627,168.3135],[-76.1786,20.2539,147.3998],[-76.1797,20.1962,214.1681],[-76.1569,20.1715,300.9289],[-76.1551,20.1606,326.3046],[-76.1625,20.153,244.9357],[-76.2044,20.1343,427.1022],[-76.2124,20.1269,446.9561],[-76.222,20.1047,531.0812],[-76.2218,20.0497,727.1453],[-76.2038,20.0394,632.687],[-76.1792,20.0303,416.4234],[-76.0757,20.0313,625.0909],[-76.0473,20.0866,298.0079],[-76.0371,20.094,318.3742],[-75.9951,20.0794,210.7493],[-75.8629,20.0779,159.0621],[-75.8696,20.0984,419.5811],[-75.8885,20.1178,305.3073],[-75.8961,20.1307,311.4026],[-75.9149,20.1503,207.5992],[-75.9236,20.1647,174.5594],[-75.9715,20.209,185.9314],[-75.9764,20.2159,157.5484],[-75.9729,20.225,175.1393],[-75.9455,20.2501,179.1803],[-75.9387,20.2591,149.1149],[-75.9299,20.2855,118.917],[-75.9274,20.3127,98.3165],[-75.9174,20.3385,112.3999],[-76.0038,20.4166,86.7473],[-76.0189,20.4243,87.8011],[-76.0348,20.4357,85.4998],[-76.0597,20.447,81.1221],[-76.0603,20.4254,92.9716],[-76.0633,20.4162,102.1561],[-76.0676,20.4133,108.1711],[-76.0919,20.4147,109.4396],[-76.1047,20.4193,106.2095],[-76.1207,20.4288,98.0713],[-76.1315,20.4285,100.9265]]]]}}