{"type":"Feature","properties":{"GID_2":"CUB.9.7_1","GID_0":"CUB","country":"Cuba","GID_1":"CUB.9_1","province":"LaHabana","NL_NAME_1":"NA","county":"Mariel","VARNAME_2":"NA","NL_NAME_2":"NA","TYPE_2":"Municipio","ENGTYPE_2":"Municipality","CC_2":"NA","HASC_2":"CU.LH.MR","name":"Mariel.county"},
"geometry":{"type": "MultiPolygon","coordinates": [[[[-82.7794,22.8869,92.7444],[-82.7647,22.898,103.5022],[-82.7495,22.906,115.7073],[-82.7287,22.9235,98.5066],[-82.6851,22.9437,114.0303],[-82.6667,22.955,144.6103],[-82.6756,22.9849,86.556],[-82.661,23.0163,45.7594],[-82.6589,23.0338,0.0],[-82.6701,23.034,0.0],[-82.6807,23.0313,1.1362],[-82.6837,23.024,2.7377],[-82.6846,23.0251,2.7377],[-82.6837,23.0271,0.0],[-82.6879,23.0287,1.4072],[-82.7076,23.0263,1.2284],[-82.7185,23.0218,0.0],[-82.7176,23.0157,1.3664],[-82.7204,23.0215,1.0683],[-82.7363,23.0199,4.5024],[-82.749,23.0246,0.0],[-82.7551,23.0251,1.6164],[-82.7565,23.0204,0.0],[-82.749,23.0143,5.5503],[-82.7479,23.0124,0.8172],[-82.7493,23.0104,0.0],[-82.7474,23.009,1.0017],[-82.7471,23.0065,0.0],[-82.7487,23.0032,4.6683],[-82.7518,23.0015,0.0],[-82.7507,22.9993,0.9598],[-82.7521,22.9957,2.06],[-82.7543,22.9954,2.0334],[-82.7551,22.9968,0.8614],[-82.7582,22.9954,0.5614],[-82.7574,22.9921,0.5458],[-82.7599,22.9937,0.4739],[-82.7596,22.9835,2.9414],[-82.7618,22.9815,1.7588],[-82.7657,22.9824,0.9927],[-82.7671,22.9879,0.0],[-82.7696,22.9865,0.9537],[-82.7746,22.9904,2.0143],[-82.7751,22.9932,0.4455],[-82.7715,22.9943,0.0],[-82.7715,22.996,0.0],[-82.776,22.9935,4.1498],[-82.7804,22.9935,5.509],[-82.7807,22.9949,0.9762],[-82.7749,22.9974,0.0],[-82.7729,23.0012,0.0],[-82.7704,23.0012,0.0],[-82.7585,23.0104,0.0],[-82.766,23.0124,0.0],[-82.7668,23.0093,1.2583],[-82.7701,23.0085,5.3012],[-82.7718,23.0096,6.9255],[-82.771,23.0115,2.2591],[-82.7782,23.0112,2.5777],[-82.7771,23.0135,1.799],[-82.7751,23.0129,0.0],[-82.7729,23.0151,0.0],[-82.7646,23.0163,0.8844],[-82.759,23.0149,0.0],[-82.7615,23.0185,5.1517],[-82.7593,23.0212,0.0],[-82.7596,23.0235,1.2145],[-82.764,23.0254,3.3779],[-82.7754,23.0263,1.2795],[-82.7818,23.0285,1.7125],[-82.7901,23.028199999999998,0.4459],[-82.794,23.0274,0.0],[-82.7982,23.024,0.5391],[-82.8037,23.0243,0.4247],[-82.8149,23.0201,4.6864],[-82.8238,23.0232,0.3509],[-82.8351,23.0199,0.7769],[-82.8351,23.0218,0.0],[-82.8382,23.0238,0.0],[-82.8482,23.0243,0.0],[-82.8643,23.0199,2.2517],[-82.8732,23.0196,1.7957],[-82.8749,23.0215,0.2183],[-82.8807,23.0204,1.5248],[-82.8907,23.0221,0.0],[-82.9029,23.0182,1.7332],[-82.9085,23.019,0.0],[-82.9101,23.0174,0.2517],[-82.9135,23.0185,0.5439],[-82.9143,23.0163,0.6575],[-82.9163,23.0165,1.2177],[-82.9171,23.0187,0.3694],[-82.9254,23.0174,0.0],[-82.9265,23.016,1.5219],[-82.9285,23.0165,2.1657],[-82.9271,23.0187,0.0],[-82.9446,23.0174,0.0],[-82.9438,23.0062,3.7298],[-82.941,22.9999,0.0],[-82.9374,22.9988,4.1211],[-82.9376,22.9965,0.0],[-82.9163,22.9915,1.0896],[-82.9193,22.9899,0.3221],[-82.9144,22.9839,1.5683],[-82.9128,22.9692,36.9793],[-82.919,22.9485,73.5363],[-82.9199,22.9355,33.0628],[-82.9175,22.9078,73.4825],[-82.9124,22.8899,80.4453],[-82.8763,22.9007,35.646],[-82.8204,22.9014,84.5445],[-82.8064,22.8996,70.2793],[-82.7794,22.8869,92.7444]]]]}}