{"type":"Feature","properties":{"GID_3":"HTI.1.1.2_1","GID_0":"HTI","country":"Haiti","GID_1":"HTI.1_1","province":"Centre","NL_NAME_1":"NA","GID_2":"HTI.1.1_1","county":"CercaLaSource","NL_NAME_2":"NA","city":"Thomasique","VARNAME_3":"NA","NL_NAME_3":"NA","TYPE_3":"Commune","ENGTYPE_3":"Commune","CC_3":"NA","HASC_3":"NA","name":"Thomasique.city"},
"geometry":{"type": "MultiPolygon","coordinates": [[[[-71.7243,19.0547,242.414],[-71.7285,19.0589,293.975],[-71.728,19.0681,310.7056],[-71.7332,19.0708,266.8953],[-71.7398,19.0807,254.5847],[-71.7417,19.0969,288.4275],[-71.7487,19.1005,311.3909],[-71.753,19.1077,317.6925],[-71.7638,19.1118,321.6351],[-71.7701,19.1242,336.2386],[-71.774,19.1245,346.6274],[-71.7777,19.1226,337.0822],[-71.789,19.1308,337.7501],[-71.7981,19.1304,317.3104],[-71.8114,19.1324,330.7133],[-71.8118,19.134,336.9604],[-71.8018,19.1448,404.2233],[-71.803,19.1467,438.5116],[-71.808,19.1516,572.1143],[-71.8145,19.1528,565.0741],[-71.8276,19.1588,690.5217],[-71.8532,19.1886,871.8184],[-71.8572,19.1901,786.6971],[-71.8656,19.1866,698.7161],[-71.8645,19.1822,696.2486],[-71.8604,19.1785,688.5123],[-71.8615,19.1693,534.2594],[-71.855,19.1609,460.9437],[-71.8546,19.1574,428.0053],[-71.867,19.1402,323.8538],[-71.8739,19.1363,305.423],[-71.8817,19.1204,294.0523],[-71.8826,19.1136,303.3445],[-71.8884,19.1062,300.2805],[-71.9045,19.0997,236.8067],[-71.9125,19.0988,234.1434],[-71.919,19.0947,206.9505],[-71.9197,19.0914,210.5809],[-71.9188,19.0874,224.4948],[-71.9151,19.0869,217.6488],[-71.9156,19.0835,210.9901],[-71.9097,19.08,218.3297],[-71.9129,19.0753,208.3031],[-71.9137,19.0701,224.8083],[-71.9083,19.0689,213.7403],[-71.9047,19.0642,223.3976],[-71.9047,19.0618,220.2437],[-71.9109,19.0551,232.7072],[-71.9007,19.0549,217.2555],[-71.8981,19.0498,223.0054],[-71.9056,19.0468,209.5934],[-71.9038,19.0421,202.0044],[-71.9011,19.0413,206.2909],[-71.9004,19.0379,209.4058],[-71.8971,19.0355,217.0132],[-71.8931,19.0361,213.9928],[-71.8909,19.0394,198.6898],[-71.8894,19.0385,211.5323],[-71.8879,19.0327,213.2699],[-71.8827,19.0359,227.4186],[-71.8778,19.0353,196.9469],[-71.8764,19.0267,250.7601],[-71.8727,19.0281,234.6941],[-71.8709,19.0346,195.0443],[-71.8649,19.0348,209.103],[-71.8648,19.024,210.7196],[-71.8603,19.0261,217.7073],[-71.8564,19.0218,192.952],[-71.8575,19.0174,217.4517],[-71.8667,19.0131,192.0921],[-71.8663,19.0069,219.3777],[-71.8705,19.0053,201.7263],[-71.8707,19.0025,195.656],[-71.868,19.0015,188.4996],[-71.8689,18.9985,206.1934],[-71.8723,18.9955,198.4348],[-71.871,18.9938,184.2727],[-71.8662,18.9945,204.33],[-71.8696,18.9909,221.886],[-71.869,18.9879,204.6965],[-71.875,18.9858,187.0459],[-71.8721,18.9826,188.1312],[-71.863,18.9831,181.7254],[-71.8623,18.9776,201.266],[-71.8584,18.9765,191.4097],[-71.8557,18.9784,183.7723],[-71.8563,18.9804,190.6715],[-71.8511,18.9815,214.0644],[-71.8523,18.9862,187.4012],[-71.8476,18.9908,186.0538],[-71.8484,18.9967,211.314],[-71.841,18.9947,198.4731],[-71.839,18.9999,192.5749],[-71.835,19.0008,190.3582],[-71.8345,19.0034,189.4854],[-71.8323,19.0041,192.3904],[-71.8305,19.0041,205.6499],[-71.829,18.9955,198.937],[-71.8261,18.9935,220.7814],[-71.8192,18.9969,199.2217],[-71.8144,18.996,202.0725],[-71.8062,18.9983,207.0258],[-71.8046,18.9993,197.4815],[-71.8054,19.0015,198.8915],[-71.8021,19.0022,207.5432],[-71.8006,19.0034,212.6158],[-71.801,19.0051,204.1623],[-71.7991,19.0051,204.1495],[-71.7962,18.9996,204.0595],[-71.7984,18.9961,217.172],[-71.7917,18.9929,209.739],[-71.7891,18.9932,237.3568],[-71.7868,18.9968,224.3146],[-71.7833,18.9976,274.5871],[-71.7825,19.0014,247.2298],[-71.7872,19.0049,226.3392],[-71.7865,19.0115,214.5217],[-71.7806,19.0162,215.6335],[-71.7771,19.0143,214.029],[-71.7712,19.0174,265.8652],[-71.7731,19.0201,249.0798],[-71.7771,19.0201,238.3809],[-71.7786,19.0221,216.4323],[-71.7705,19.0317,218.7586],[-71.768,19.0318,218.7515],[-71.7647,19.0262,227.2834],[-71.7611,19.0273,220.6021],[-71.7607,19.0303,223.1982],[-71.7571,19.0314,229.6227],[-71.7563,19.0341,245.8717],[-71.7598,19.0388,227.442],[-71.7495,19.0473,235.0326],[-71.7405,19.0433,247.3139],[-71.7377,19.0478,233.985],[-71.7363,19.047,235.9737],[-71.7342,19.0499,231.6421],[-71.7233,19.0536,253.6674],[-71.7243,19.0547,242.414]],
[[-71.7618,19.0315,223.8013],[-71.7639,19.0347,260.4456],[-71.7634,19.0351,260.4456],[-71.7624,19.0329,228.718],[-71.7618,19.0315,223.8013]]]]}}