{"type": "Feature","bbox": [-70.9679,18.2476,-70.7361,18.434],"geometry": {"type": "MultiPolygon","coordinates": [[[[-70.8412,18.3301,1.5535],[-70.8524,18.3299,0.0],[-70.8521,18.3282,1.9619],[-70.8549,18.3279,0.678],[-70.8582,18.3229,0.0],[-70.8574,18.3215,0.0],[-70.859,18.3221,0.0],[-70.8596,18.3196,0.0],[-70.861,18.3204,0.0],[-70.8615,18.3171,0.701],[-70.8629,18.3185,0.701],[-70.8643,18.3171,0.0],[-70.8646,18.3099,0.0],[-70.8621,18.3157,0.6533],[-70.8557,18.3215,0.0],[-70.8532,18.3263,1.0716],[-70.8471,18.3288,0.7887],[-70.8404,18.3288,0.0],[-70.8412,18.3301,1.5535]]],
[[[-70.7989,18.4092,26.5576],[-70.8011,18.4096,30.4646],[-70.8026,18.3852,7.2976],[-70.8057,18.3812,7.6918],[-70.8173,18.3755,12.8726],[-70.8231,18.3755,13.6667],[-70.8267,18.3802,18.4454],[-70.8366,18.3837,22.2444],[-70.8554,18.3838,29.1374],[-70.8675,18.3785,34.0688],[-70.8848,18.3833,63.2804],[-70.895,18.3816,81.3422],[-70.9094,18.3867,133.4727],[-70.9171,18.3871,160.5486],[-70.9342,18.384,303.3246],[-70.9403,18.3814,416.6837],[-70.9484,18.3736,703.7589],[-70.959,18.3676,1033.076],[-70.9495,18.3615,723.6492],[-70.9471,18.3555,684.6085],[-70.9516,18.3464,781.9915],[-70.9558,18.3431,833.7128],[-70.9604,18.3419,1069.4868],[-70.9613,18.3393,1006.8015],[-70.9536,18.3335,785.7878],[-70.936,18.303,661.0352],[-70.9351,18.297,616.3365],[-70.9365,18.2932,661.5523],[-70.9439,18.2849,651.0484],[-70.9466,18.2792,462.5908],[-70.9477,18.2719,356.3608],[-70.9534,18.2615,345.9192],[-70.9592,18.2581,338.4723],[-70.9679,18.2567,19.0186],[-70.9676,18.2529,0.0],[-70.9649,18.2501,0.0],[-70.9632,18.2507,123.1335],[-70.9571,18.2476,0.0],[-70.9451,18.254,20.1658],[-70.9315,18.2543,27.3795],[-70.9285,18.2576,7.1096],[-70.9238,18.259,11.6801],[-70.9229,18.2618,0.0],[-70.9149,18.2629,0.0],[-70.9137,18.2657,29.8155],[-70.9057,18.2724,119.3501],[-70.9032,18.2724,0.0],[-70.9026,18.2751,0.0],[-70.9007,18.2749,0.0],[-70.899,18.2793,175.8785],[-70.8943,18.2815,0.0],[-70.8924,18.2857,140.0042],[-70.8885,18.2862,0.0],[-70.8829,18.2935,5.4281],[-70.8807,18.294,8.0542],[-70.8765,18.3029,1.7744],[-70.8676,18.3107,0.0],[-70.8696,18.3115,0.8001],[-70.8693,18.3154,0.0],[-70.8662,18.321,0.3021],[-70.8668,18.3246,0.8008],[-70.8651,18.3271,2.2601],[-70.8601,18.3321,4.9825],[-70.8585,18.3365,0.4786],[-70.8568,18.3382,1.6041],[-70.8546,18.3379,1.2365],[-70.8526,18.3412,4.794],[-70.8449,18.3418,0.0],[-70.8443,18.3432,1.9252],[-70.8468,18.344,3.1559],[-70.8429,18.3479,0.5534],[-70.8385,18.3485,0.9148],[-70.8365,18.3457,0.5198],[-70.8332,18.3474,1.831],[-70.8324,18.344,0.9034],[-70.8285,18.3432,5.09],[-70.8318,18.3399,0.4184],[-70.8315,18.3374,0.1373],[-70.8351,18.3354,0.0],[-70.8343,18.3338,0.7365],[-70.8293,18.3357,1.6713],[-70.8282,18.3349,1.4738],[-70.824,18.3388,2.3939],[-70.8257,18.3354,1.7815],[-70.8315,18.3318,0.2807],[-70.8301,18.3299,0.0],[-70.8257,18.3312,0.2131],[-70.8251,18.3338,1.7815],[-70.8232,18.3332,0.0],[-70.8201,18.336,0.0],[-70.8193,18.339,0.1619],[-70.8204,18.341,3.4741],[-70.8168,18.3396,0.3701],[-70.811,18.3415,0.1466],[-70.8104,18.3446,3.2326],[-70.8126,18.3471,1.9449],[-70.8126,18.3499,3.6203],[-70.8093,18.3529,4.8559],[-70.8043,18.3546,2.5749],[-70.7951,18.3526,7.227],[-70.7935,18.3479,2.4105],[-70.7957,18.3463,0.0],[-70.7943,18.3451,0.0],[-70.7821,18.3454,0.0],[-70.7836,18.3496,53.2742],[-70.7564,18.3644,57.9521],[-70.7488,18.3716,10.9186],[-70.7394,18.3897,75.9895],[-70.7387,18.3986,22.6164],[-70.7361,18.4059,17.6057],[-70.7362,18.4211,25.9252],[-70.7487,18.4332,38.7372],[-70.7552,18.434,37.9776],[-70.7638,18.4301,38.831],[-70.77,18.4244,35.8381],[-70.7711,18.4214,34.1172],[-70.7695,18.4146,27.9531],[-70.7762,18.4068,23.4469],[-70.779,18.4009,20.5137],[-70.7835,18.4008,18.5529],[-70.7989,18.4092,26.5576]]]]}
,"properties": {"GID_2": "DOM.1.8_1","GID_0": "DOM","country": "DominicanRepublic","GID_1": "DOM.1_1","province": "Azua","NL_NAME_1": "NA","county": "PuebloViejo","VARNAME_2": "NA","NL_NAME_2": "NA","TYPE_2": "Distritomunicipal","ENGTYPE_2": "Municipaldistrict","CC_2": "NA","HASC_2": "DO.AZ.PV","name": "Pueblo_Viejo.county","area_km2": 179.4889,"hist_schema_id": "Elevation0-9000","hist_area_km2": {"0": 43.747,"25": 38.9129,"50": 8.513,"75": 7.9494,"100": 6.903,"125": 5.9775,"150": 4.3472,"175": 3.985,"200": 3.8242,"225": 3.7235,"250": 4.0858,"275": 4.408,"300": 4.3677,"325": 4.388,"350": 4.5087,"375": 3.6432,"400": 2.3951,"425": 2.214,"450": 2.0529,"475": 2.1535,"500": 2.2945,"525": 1.8517,"550": 2.1335,"575": 2.0731,"600": 1.751,"625": 1.3485,"650": 1.3485,"675": 1.0465,"700": 0.7648,"725": 0.4226,"750": 0.5232,"775": 0.4025,"800": 0.2214,"825": 0.2012,"850": 0.2415,"875": 0.2012,"900": 0.161,"925": 0.0604,"950": 0.1006,"975": 0.1409,"1000": 0.0402,"1025": 0.0604}}}