{"type": "Feature","id": "1391","bbox": [-71.51506,19.17017,-71.06871,19.56054],"geometry": {"type": "Polygon","coordinates": [[[-71.3522,19.53764,130.4881],[-71.38259,19.54837,99.6521],[-71.3998,19.56054,63.703],[-71.41305,19.54454,64.4631],[-71.43633,19.50809,98.5987],[-71.44866,19.46581,137.8818],[-71.44646,19.44323,169.714],[-71.45408,19.4222,242.4446],[-71.46617,19.35864,310.4978],[-71.51506,19.33802,886.2975],[-71.50514,19.31642,816.3605],[-71.48827,19.29885,952.5396],[-71.44682,19.2736,1066.1288],[-71.41589,19.23449,1485.5183],[-71.37127,19.21327,1241.078],[-71.32737,19.19108,1438.0916],[-71.28409,19.17069,1466.1082],[-71.23084,19.17017,1705.1123],[-71.22554,19.20159,1312.7256],[-71.22694,19.23203,947.7657],[-71.24348,19.24686,882.7382],[-71.24704,19.26789,811.7823],[-71.24422,19.29872,585.4546],[-71.24089,19.32898,502.642],[-71.22686,19.34717,391.0131],[-71.20862,19.36151,521.119],[-71.19629,19.37507,425.4801],[-71.1809,19.38476,277.7122],[-71.16208,19.3829,413.1857],[-71.1432,19.38386,274.5],[-71.10702,19.40019,324.231],[-71.06871,19.41246,254.2662],[-71.07728,19.42233,155.0695],[-71.09049,19.43119,150.6085],[-71.08834,19.45101,149.8253],[-71.07517,19.46806,275.3514],[-71.1488,19.48059,267.1963],[-71.1842,19.53651,257.3593],[-71.20151,19.54206,255.8878],[-71.21632,19.53222,302.8473],[-71.24776,19.53501,316.2359],[-71.27895,19.55232,281.2767],[-71.30029,19.54971,148.6705],[-71.31975,19.54025,166.8023],[-71.3522,19.53764,130.4881]]]}
,"properties": {"ISO3166-1-Alpha-3": "DOM","country": "Dominican Republic","fill": "#F00","name": "Santiago Rodríguez","area_km2": 1100.1051,"hist_schema_id": "Elevation0-9000","hist_area_km2": {"50": 1.1189,"75": 14.4275,"100": 41.4903,"125": 47.9114,"150": 51.7699,"175": 60.9848,"200": 55.4335,"225": 56.5576,"250": 54.0415,"275": 53.5446,"300": 44.4869,"325": 40.2301,"350": 38.475,"375": 37.4374,"400": 31.8413,"425": 32.0038,"450": 27.3051,"475": 25.8063,"500": 25.1471,"525": 19.9666,"550": 18.2467,"575": 17.9067,"600": 22.9889,"625": 21.2694,"650": 17.1285,"675": 15.4283,"700": 12.7474,"725": 13.5485,"750": 13.6491,"775": 13.6894,"800": 13.7299,"825": 13.1097,"850": 11.749,"875": 11.4292,"900": 9.728,"925": 8.5272,"950": 7.3064,"975": 7.5669,"1000": 6.7062,"1025": 6.1859,"1050": 6.0459,"1075": 5.6656,"1100": 4.7247,"1125": 5.1452,"1150": 5.1853,"1175": 5.1053,"1200": 3.864,"1225": 4.1043,"1250": 4.0443,"1275": 3.5639,"1300": 2.703,"1325": 2.7831,"1350": 2.5229,"1375": 2.0824,"1400": 1.8421,"1425": 1.8221,"1450": 1.9223,"1475": 1.5418,"1500": 1.3616,"1525": 1.4417,"1550": 1.2615,"1575": 1.0212,"1600": 1.0212,"1625": 0.801,"1650": 0.7209,"1675": 0.7409,"1700": 0.6808,"1725": 0.5006,"1750": 0.6408,"1775": 0.3805,"1800": 0.4406,"1825": 0.3204,"1850": 0.3605,"1875": 0.2603,"1900": 0.2603,"1925": 0.1001,"1950": 0.2804,"1975": 0.1202,"2000": 0.1001}}}