{"type":"Feature","properties":{"GID_1":"DOM.29_1","GID_0":"DOM","country":"DominicanRepublic","province":"SantiagoRodríguez","VARNAME_1":"SantiagoRodriguez","NL_NAME_1":"NA","TYPE_1":"Provincia","ENGTYPE_1":"Province","CC_1":"NA","HASC_1":"DO.SR","ISO_1":"NA","name":"Santiago_Rodríguez.province"},
"geometry":{"type": "MultiPolygon","coordinates": [[[[-71.5045,19.3146,883.5393],[-71.5075,19.3136,1025.7179],[-71.5054,19.3087,1028.2676],[-71.4979,19.3052,1143.9006],[-71.4924,19.2994,1042.7483],[-71.4996,19.2895,810.8955],[-71.4996,19.2799,851.1743],[-71.4955,19.27,697.3826],[-71.4889,19.267,816.2425],[-71.4838,19.2606,820.1182],[-71.4807,19.2484,922.7309],[-71.4682,19.2479,853.8217],[-71.457,19.2503,933.9019],[-71.4344,19.2369,1190.6903],[-71.4287,19.2364,1229.9636],[-71.421,19.2383,1436.7966],[-71.4159,19.2316,1279.0194],[-71.4057,19.2284,1255.1307],[-71.3964,19.2172,1259.871],[-71.3838,19.2113,1320.1725],[-71.3714,19.2093,1301.5745],[-71.3476,19.1859,1480.0842],[-71.3417,19.1851,1492.2832],[-71.3354,19.1871,1468.0918],[-71.3322,19.183,1550.5784],[-71.3242,19.184,1542.2379],[-71.3132,19.1768,1801.1592],[-71.3038,19.1651,1459.4637],[-71.2906,19.1652,1405.0625],[-71.2764,19.1704,1548.0142],[-71.2672,19.1653,1695.8313],[-71.2536,19.162,1732.0558],[-71.2075,19.1707,1831.0862],[-71.2093,19.1925,1618.8857],[-71.213,19.1993,1539.8523],[-71.2198,19.2058,1226.7358],[-71.2176,19.2132,1262.5295],[-71.2182,19.2207,1245.132],[-71.2255,19.2265,1064.3462],[-71.2276,19.2341,1114.282],[-71.235,19.2365,891.5399],[-71.247,19.2528,914.2907],[-71.2465,19.2554,942.8723],[-71.2441,19.2573,911.3992],[-71.2337,19.2554,862.8728],[-71.2299,19.2612,896.5201],[-71.2348,19.272,833.1609],[-71.2355,19.2777,822.2902],[-71.2352,19.2872,707.0385],[-71.2308,19.2999,699.2964],[-71.2403,19.3132,511.8129],[-71.2407,19.3186,558.8005],[-71.2362,19.323,693.1941],[-71.2311,19.3332,510.9482],[-71.2276,19.3332,419.2578],[-71.2248,19.3309,474.7328],[-71.2164,19.3309,677.8633],[-71.2136,19.3324,671.5669],[-71.2129,19.3345,607.6989],[-71.2167,19.3522,557.8903],[-71.2098,19.3545,502.5124],[-71.2069,19.3631,568.4296],[-71.1981,19.368,514.0978],[-71.1929,19.3729,463.3743],[-71.1871,19.3753,400.0254],[-71.1785,19.3739,491.7966],[-71.171,19.3803,308.7354],[-71.1679,19.3811,398.0844],[-71.1645,19.3783,373.7024],[-71.1639,19.3689,312.8313],[-71.1614,19.3651,314.4338],[-71.1552,19.3627,401.2493],[-71.1451,19.3646,505.1116],[-71.1417,19.369,399.9287],[-71.1417,19.3751,379.1721],[-71.1341,19.3766,367.8112],[-71.1252,19.3834,274.5],[-71.116,19.3823,298.4787],[-71.1112,19.3845,430.1322],[-71.1083,19.3897,384.9959],[-71.109,19.3963,364.6351],[-71.1051,19.4,265.7607],[-71.0918,19.406,289.4638],[-71.0759,19.4067,280.9776],[-71.0639,19.4125,258.3536],[-71.0631,19.4152,290.1297],[-71.0651,19.4174,258.0554],[-71.0797,19.4183,170.73],[-71.0801,19.4206,171.0072],[-71.0761,19.4255,157.1842],[-71.0756,19.4287,213.9284],[-71.0811,19.4386,208.579],[-71.0858,19.4408,137.2647],[-71.0866,19.4433,152.7749],[-71.0853,19.4455,187.4362],[-71.0799,19.4471,158.159],[-71.0752,19.4534,171.9974],[-71.0645,19.457,346.3972],[-71.0728,19.4649,300.6283],[-71.0826,19.4602,130.2644],[-71.0992,19.4598,150.3906],[-71.1083,19.4573,192.2181],[-71.112799999999993,19.4593,309.9263],[-71.1178,19.4664,364.9247],[-71.1213,19.4684,379.2443],[-71.134,19.4686,362.8597],[-71.1489,19.4658,381.6925],[-71.1705,19.4698,236.4514],[-71.1674,19.4871,226.3445],[-71.1712,19.498,203.9515],[-71.1786,19.5066,164.5181],[-71.1774,19.5169,194.9376],[-71.1784,19.5238,331.1549],[-71.193,19.5291,233.6919],[-71.1975,19.537,291.8607],[-71.2013,19.5395,297.3559],[-71.2055,19.5392,244.1689],[-71.2095,19.5363,239.1114],[-71.2141,19.531,314.4142],[-71.2204,19.5189,283.613],[-71.223,19.5177,256.8128],[-71.2386,19.525,258.3571],[-71.2458,19.5235,223.1508],[-71.2531,19.5262,207.737],[-71.2678,19.5363,331.8283],[-71.2812,19.543,314.603],[-71.2862,19.548,300.4704],[-71.301,19.5524,205.0522],[-71.3071,19.5593,270.2872],[-71.3191,19.5624,274.8187],[-71.3217,19.5603,274.207],[-71.32,19.5516,235.308],[-71.3218,19.5467,190.4574],[-71.3267,19.5409,170.4218],[-71.3306,19.5387,176.388],[-71.3363,19.5409,148.7779],[-71.342,19.5458,156.7856],[-71.3596,19.5491,128.8859],[-71.3736,19.5465,110.1806],[-71.3837,19.5498,96.6526],[-71.3889,19.5545,86.1369],[-71.3988,19.5545,74.1531],[-71.4044,19.5508,69.0436],[-71.4033,19.5431,62.193],[-71.405,19.5375,85.193],[-71.4118,19.5277,96.63],[-71.4157,19.5265,97.1388],[-71.4174,19.5196,98.4525],[-71.4222,19.5145,100.8734],[-71.4237,19.5052,104.15],[-71.4319,19.5034,112.6928],[-71.4433,19.4982,143.5454],[-71.4547,19.4874,176.7314],[-71.4493,19.4749,142.2885],[-71.4508,19.4708,138.8018],[-71.4571,19.468,156.2711],[-71.4532,19.4587,151.0087],[-71.4553,19.4525,165.29],[-71.4555,19.4434,190.7718],[-71.4499,19.4315,170.4617],[-71.4493,19.4254,230.4871],[-71.4502,19.4213,216.3547],[-71.4546,19.4183,240.4406],[-71.454,19.4109,227.8322],[-71.4613,19.3978,259.3766],[-71.4611,19.3904,276.8353],[-71.4585,19.383,292.0561],[-71.4585,19.3688,397.7989],[-71.4604,19.3665,377.8707],[-71.4689,19.3647,254.1958],[-71.4728,19.3605,287.0255],[-71.4729,19.354,306.6087],[-71.4678,19.3479,380.6537],[-71.4721,19.3365,326.7945],[-71.4794,19.3302,374.1407],[-71.4955,19.3235,559.7465],[-71.4992,19.317,690.683],[-71.5045,19.3146,883.5393]]]]}}