{"type": "Feature","bbox": [-76.2536,20.6565,-75.8651,20.9679],"geometry": {"type": "MultiPolygon","coordinates": [[[[-75.8958,20.9679,135.2809],[-75.9199,20.9595,104.5948],[-75.9405,20.9569,118.7824],[-75.9702,20.9476,113.6792],[-75.9893,20.9382,130.5034],[-76.0112,20.9195,143.9165],[-76.028,20.9125,170.0341],[-76.0466,20.9184,304.1523],[-76.0864,20.9394,93.425],[-76.1074,20.9318,70.4226],[-76.1463,20.9124,115.9103],[-76.1512,20.9022,102.8169],[-76.1504,20.8565,147.8725],[-76.1533,20.8458,152.1319],[-76.186,20.8265,175.9826],[-76.206,20.7958,126.3028],[-76.2533,20.7725,113.9852],[-76.2536,20.7421,73.4745],[-76.2445,20.7307,72.8746],[-76.2115,20.7156,76.9478],[-76.2016,20.7138,80.2952],[-76.1611,20.7232,101.9577],[-76.1471,20.7289,111.6384],[-76.135,20.7289,124.273],[-76.1258,20.7225,117.7386],[-76.0993,20.6847,110.5326],[-76.0138,20.6575,69.0185],[-75.9892,20.6565,63.9757],[-75.9775,20.6594,69.077],[-75.9683,20.6739,55.1483],[-75.9558,20.7149,33.665],[-75.9312,20.7591,30.3805],[-75.925,20.7656,31.498],[-75.9156,20.7873,36.4773],[-75.9084,20.8062,50.3117],[-75.9064,20.8317,51.5472],[-75.8971,20.8599,50.486],[-75.8751,20.9021,218.2933],[-75.8651,20.9319,232.3411],[-75.8658,20.9396,246.1399],[-75.8697,20.9465,230.7076],[-75.8958,20.9679,135.2809]]]]}
,"properties": {"GID_2": "CUB.7.2_1","GID_0": "CUB","country": "Cuba","GID_1": "CUB.7_1","province": "Holguín","NL_NAME_1": "NA","county": "Báguanos","VARNAME_2": "NA","NL_NAME_2": "NA","TYPE_2": "Municipio","ENGTYPE_2": "Municipality","CC_2": "NA","HASC_2": "CU.HO.BG","name": "Báguanos.county","area_km2": 807.2388,"hist_schema_id": "Elevation0-9000","hist_area_km2": {"25": 24.7232,"50": 122.8184,"75": 96.6535,"100": 88.1571,"125": 105.0058,"150": 112.9225,"175": 110.3913,"200": 68.0921,"225": 39.0616,"250": 20.1732,"275": 8.8774,"300": 6.1427,"325": 2.7343,"350": 0.8123,"375": 0.416,"400": 0.1981,"425": 0.0594}}}