{"type": "Feature","bbox": [-72.0793,19.324,-71.9702,19.3798],"geometry": {"type": "MultiPolygon","coordinates": [[[[-71.9822,19.3332,457.8858],[-71.982,19.3348,454.7882],[-71.9775,19.3351,456.3143],[-71.9785,19.3404,471.5751],[-71.9717,19.3387,490.9459],[-71.9702,19.3432,501.2464],[-71.9745,19.3507,623.6329],[-71.9796,19.354,772.7279],[-71.9859,19.3611,630.2173],[-71.9857,19.3659,490.9715],[-71.9895,19.3664,482.5443],[-71.9967,19.3613,465.7343],[-72.0022,19.3594,457.8111],[-72.0047,19.3591,455.6912],[-72.005,19.3618,468.2158],[-72.0075,19.3632,487.1146],[-72.0136,19.3606,458.2415],[-72.0144,19.363,461.1875],[-72.0165,19.3599,446.5067],[-72.0261,19.3637,467.7365],[-72.0308,19.363,455.9462],[-72.0355,19.3582,440.5699],[-72.0437,19.3573,421.7333],[-72.0489,19.361,418.7481],[-72.0537,19.3756,432.4535],[-72.0586,19.3798,424.3389],[-72.0704,19.37,381.3073],[-72.0793,19.3687,360.2352],[-72.0793,19.3584,392.5188],[-72.075,19.3591,448.2128],[-72.0688,19.3547,394.2989],[-72.0647,19.354,443.6039],[-72.057,19.3445,385.2989],[-72.0527,19.3424,374.6878],[-72.0487,19.3438,393.2227],[-72.0464,19.3434,383.7742],[-72.0451,19.3414,393.3771],[-72.04,19.3422,400.7325],[-72.0392,19.3406,402.903],[-72.0364,19.3409,412.4818],[-72.0346,19.3358,403.8575],[-72.0177,19.3361,421.0435],[-72.0103,19.3322,429.0966],[-72.0073,19.3253,417.2385],[-72.0045,19.324,400.7189],[-71.9986,19.3259,413.4862],[-71.9915,19.333,432.918],[-71.9871,19.3346,446.5331],[-71.9822,19.3332,457.8858]]]]}
,"properties": {"GID_3": "HTI.7.1.2_1","GID_0": "HTI","country": "Haiti","GID_1": "HTI.7_1","province": "Nord","NL_NAME_1": "NA","GID_2": "HTI.7.1_1","county": "Borgne","NL_NAME_2": "NA","city": "LaVictoire","VARNAME_3": "NA","NL_NAME_3": "NA","TYPE_3": "Commune","ENGTYPE_3": "Commune","CC_3": "NA","HASC_3": "NA","name": "La_Victoire.city","area_km2": 30.56679,"hist_schema_id": "Elevation0-9000","hist_area_km2": {"350": 0.02,"375": 0.84014,"400": 5.44111,"425": 7.6817,"450": 5.20126,"475": 3.30079,"500": 2.00046,"525": 1.54035,"550": 1.28027,"575": 0.72015,"600": 0.64014,"625": 0.9202,"650": 0.54012,"675": 0.22005,"700": 0.10002,"725": 0.04001,"750": 0.06001,"800": 0.02}}}