{"type":"Feature","properties":{"ISO3166-1-Alpha-3":"DOM","country":"Dominican Republic","fill":"#FF0","id":"1977","name":"Peravia"},
"geometry":{"type": "Polygon","coordinates": [[[-70.18039,18.23413,1.3367],[-70.18039,18.23413,1.3367],[-70.18659,18.25343,8.4626],[-70.19083,18.27594,19.194],[-70.20364,18.28648,23.9445],[-70.21672,18.29868,31.7721],[-70.22421,18.31121,42.1419],[-70.23126,18.32397,39.5412],[-70.25131,18.3465,92.0303],[-70.26974,18.3688,107.8113],[-70.26478,18.39469,389.2557],[-70.23889,18.4089,149.6548],[-70.23697,18.43301,207.1508],[-70.26873,18.44722,298.5719],[-70.30821,18.48357,830.8705],[-70.35655,18.50357,558.8135],[-70.37805,18.48143,725.804],[-70.40314,18.46492,1332.402],[-70.45205,18.45125,700.0531],[-70.47908,18.41322,284.1404],[-70.47246,18.39482,178.9687],[-70.48218,18.3765,156.7069],[-70.48998,18.34958,129.3638],[-70.4874,18.32116,103.0363],[-70.5237,18.28193,51.2833],[-70.57933,18.27178,100.1875],[-70.57938,18.27177,100.1875],[-70.57331,18.26801,111.5988],[-70.56574,18.25821,5.422],[-70.55871,18.25438,3.2787],[-70.55191,18.24844,0.0],[-70.54906,18.23762,0.0],[-70.5537,18.23151,0.0],[-70.56306,18.22565,0.0],[-70.5703,18.21894,0.0],[-70.56892,18.21035,0.7008],[-70.55285,18.20425,0.8083],[-70.48355,18.20409,7.2459],[-70.46019,18.20893,2.7293],[-70.41906,18.23115,15.6181],[-70.39757,18.23762,19.0129],[-70.2696,18.2381,7.8325],[-70.2508,18.23432,5.5173],[-70.23314,18.22394,0.6678],[-70.22077,18.23054,3.3937],[-70.20214,18.23355,1.7808],[-70.18039,18.23413,1.3367]]]}}