{"type":"Feature","properties":{"GID_1":"DOM.20_1","GID_0":"DOM","country":"DominicanRepublic","province":"Peravia","VARNAME_1":"JoséTrujilloValdez","NL_NAME_1":"NA","TYPE_1":"Provincia","ENGTYPE_1":"Province","CC_1":"NA","HASC_1":"DO.PV","ISO_1":"DO-17","name":"Peravia.province"},
"geometry":{"type": "MultiPolygon","coordinates": [[[[-70.5082,18.2229,5.6696],[-70.5099,18.2218,2.7318],[-70.5076,18.2207,7.9708],[-70.5068,18.2224,0.5],[-70.5082,18.2229,5.6696]]],
[[[-70.2037,18.3066,34.3464],[-70.2099,18.3067,25.8705],[-70.211,18.3113,36.5564],[-70.2181,18.3139,33.8823],[-70.2215,18.3234,57.0029],[-70.233,18.3308,47.2008],[-70.2363,18.3423,85.4601],[-70.2369,18.3567,164.6851],[-70.2403,18.3625,188.9685],[-70.2475,18.3631,59.3823],[-70.2566,18.3558,145.3179],[-70.2591,18.3556,181.2778],[-70.2606,18.3583,180.5439],[-70.2605,18.3723,114.4225],[-70.2638,18.3801,270.7284],[-70.2693,18.3832,196.2952],[-70.2729,18.3784,134.1663],[-70.2759,18.3777,87.0474],[-70.2807,18.383,88.2699],[-70.279,18.386,95.3622],[-70.2723,18.386,267.7649],[-70.2685,18.3989,145.0],[-70.2657,18.3993,145.0],[-70.2587,18.3955,201.7545],[-70.253,18.4011,150.6904],[-70.2464,18.4038,181.8404],[-70.2374,18.4104,208.2574],[-70.2337,18.4155,263.2146],[-70.2352,18.4213,236.432],[-70.2399,18.4248,150.0287],[-70.2505,18.4264,145.8987],[-70.2517,18.4324,224.7278],[-70.2566,18.4357,185.111],[-70.2524,18.4439,385.5013],[-70.2562,18.4463,519.3552],[-70.2584,18.4498,340.5073],[-70.2659,18.4517,260.57],[-70.2711,18.4558,359.5939],[-70.2775,18.4523,380.6967],[-70.2802,18.4531,444.6947],[-70.2829,18.4594,388.4059],[-70.2788,18.4671,736.5838],[-70.2816,18.4733,579.347],[-70.2846,18.4757,593.0267],[-70.2921,18.4774,270.996],[-70.2944,18.4828,531.2644],[-70.3,18.4886,342.4821],[-70.3094,18.4922,321.1411],[-70.3155,18.4997,532.5991],[-70.3222,18.5035,445.0315],[-70.3369,18.4997,366.0833],[-70.3423,18.5025,418.4603],[-70.3436,18.5049,508.7783],[-70.3465,18.5049,494.8588],[-70.3509,18.5033,497.8105],[-70.3593,18.4929,834.4378],[-70.3621,18.4828,919.515],[-70.3648,18.4802,918.7911],[-70.382,18.4763,862.4869],[-70.407,18.4634,1431.3113],[-70.4226,18.4626,1409.3376],[-70.4301,18.4525,1140.5809],[-70.4401,18.4544,723.0772],[-70.4583,18.4472,651.2164],[-70.4605,18.4348,395.5267],[-70.4676,18.427,271.5769],[-70.472,18.4187,207.7625],[-70.4612,18.4138,251.5345],[-70.4579,18.4063,267.0522],[-70.4622,18.3913,224.775],[-70.4634,18.3812,199.0712],[-70.4668,18.3749,162.6502],[-70.4781,18.364,190.3256],[-70.4802,18.3603,139.3579],[-70.4803,18.3395,160.2678],[-70.4777,18.3321,136.5096],[-70.4758,18.3168,100.9702],[-70.4798,18.3102,105.3946],[-70.481,18.3001,88.5035],[-70.4872,18.2883,95.7142],[-70.4954,18.2837,116.2509],[-70.504,18.2851,68.5757],[-70.5158,18.2825,58.023],[-70.5274,18.2776,52.7263],[-70.5344,18.2778,45.0798],[-70.5428,18.2803,36.1163],[-70.5526,18.2755,30.6981],[-70.5592,18.2774,22.8513],[-70.564,18.277,58.0196],[-70.5717,18.2742,37.5752],[-70.5776,18.2618,0.0],[-70.5743,18.259,7.7431],[-70.5729,18.2599,2.5855],[-70.5679,18.2574,7.1881],[-70.5604,18.2571,10.3857],[-70.5568,18.2526,0.9848],[-70.5504,18.251,2.2086],[-70.5496,18.2463,0.3496],[-70.5471,18.246,0.9972],[-70.5426,18.241,1.5778],[-70.5429,18.2382,0.4151],[-70.5393,18.2371,7.7432],[-70.5332,18.2301,0.0],[-70.531,18.2301,0.0],[-70.5299,18.2329,2.3743],[-70.5271,18.2321,5.5825],[-70.5271,18.2301,0.0],[-70.5221,18.2304,0.0],[-70.5193,18.2282,0.1815],[-70.5188,18.2301,0.7469],[-70.5062,18.2243,7.5213],[-70.5026,18.221,1.9667],[-70.506,18.2196,0.5],[-70.5035,18.2179,0.5356],[-70.5043,18.2168,7.7839],[-70.5101,18.2174,0.7288],[-70.5118,18.224,1.2673],[-70.5168,18.2271,0.5],[-70.5113,18.2185,0.7288],[-70.5176,18.2162,0.0],[-70.5196,18.2135,3.308],[-70.5299,18.2132,1.927],[-70.5354,18.216,0.8984],[-70.5371,18.2115,0.5],[-70.5396,18.2107,0.9518],[-70.5421,18.2126,1.1613],[-70.5488,18.2135,1.9756],[-70.551,18.2182,-0.0814],[-70.5507,18.2132,1.9756],[-70.5532,18.2149,1.0199],[-70.5565,18.2146,0.41],[-70.5551,18.2135,-0.5],[-70.5554,18.2096,2.619],[-70.561,18.2121,-0.5],[-70.5576,18.2213,0.9574],[-70.5515,18.2235,-0.0745],[-70.5518,18.2204,0.1314],[-70.5504,18.2193,0.0],[-70.5501,18.2243,0.659],[-70.5474,18.2282,0.5049],[-70.5504,18.2251,0.659],[-70.5585,18.2221,0.0],[-70.5649,18.2079,8.2631],[-70.546,18.2049,1.2313],[-70.5387,18.2076,5.0153],[-70.5279,18.2074,3.7672],[-70.5218,18.2046,5.2803],[-70.5137,18.1949,0.4349],[-70.5118,18.1963,3.3035],[-70.5068,18.194,6.7336],[-70.4871,18.2018,3.2679],[-70.4674,18.2054,2.2366],[-70.4635,18.2076,4.115],[-70.4629,18.2096,12.5912],[-70.4543,18.2107,3.1518],[-70.4299,18.2257,8.9596],[-70.3929,18.2374,12.9049],[-70.384,18.2368,4.8392],[-70.3712,18.2307,2.6303],[-70.3554,18.2313,2.7352],[-70.3326,18.226,0.0],[-70.3093,18.2279,0.0],[-70.2821,18.2376,8.9097],[-70.2704,18.2374,7.8325],[-70.2529,18.2299,0.0],[-70.2462,18.229,3.9886],[-70.2363,18.2221,3.6263],[-70.2235,18.2301,1.2582],[-70.2093,18.2357,5.7567],[-70.1896,18.2282,0.0],[-70.1785,18.2332,0.1391],[-70.1817,18.2415,4.7074],[-70.1775,18.2471,24.756],[-70.1739,18.2739,88.0367],[-70.1834,18.2806,52.6944],[-70.1946,18.2853,20.1354],[-70.1976,18.2906,27.5428],[-70.1985,18.3008,29.7593],[-70.2037,18.3066,34.3464]]]]}}