{"type":"Feature","properties":{"GID_2":"HTI.10.1_1","GID_0":"HTI","country":"Haiti","GID_1":"HTI.10_1","province":"Sud","NL_NAME_1":"NA","county":"Aquin","VARNAME_2":"NA","NL_NAME_2":"NA","TYPE_2":"Arrondissement","ENGTYPE_2":"District","CC_2":"NA","HASC_2":"HT.SD.AQ","name":"Aquin.county"},
"geometry":{"type": "MultiPolygon","coordinates": [[[[-73.1085,18.1893,2.3788],[-73.0967,18.1882,0.0],[-73.086,18.1851,0.0],[-73.0668,18.1868,1.1226],[-73.056,18.1821,0.9158],[-73.0486,18.1829,1.0887],[-73.0413,18.1812,0.0],[-73.039,18.1826,4.5877],[-73.0204,18.1812,0.0],[-73.0121,18.1865,1.4045],[-73.0035,18.1857,3.1363],[-73.0102,18.1932,9.245],[-73.0039,18.1993,13.9413],[-73.0091,18.2041,18.9647],[-73.0089,18.2068,21.4502],[-73.0023,18.206,41.1991],[-73.0011,18.2074,38.1555],[-73.0104,18.2087,108.2497],[-73.0079,18.2121,43.529],[-73.0085,18.2166,59.9161],[-73.0072,18.2184,160.7072],[-73.0099,18.2199,183.4833],[-73.0094,18.2236,77.0369],[-73.0158,18.2214,92.4816],[-73.0167,18.2241,69.9756],[-73.0141,18.2255,67.8653],[-73.0148,18.2277,73.5332],[-73.0201,18.2244,116.0776],[-73.0228,18.2251,136.2871],[-73.0182,18.2303,89.8878],[-73.0206,18.2327,137.7831],[-73.0167,18.2365,96.3582],[-73.0193,18.2365,105.1117],[-73.0231,18.2393,100.14],[-73.03,18.2396,105.2329],[-73.0314,18.2418,106.625],[-73.029,18.2462,109.6294],[-73.0299,18.251,123.3699],[-73.033,18.2511,118.8019],[-73.033,18.2546,117.3688],[-73.0378,18.2564,128.2964],[-73.0359,18.2593,122.8988],[-73.0416,18.2596,125.4111],[-73.0386,18.2626,123.9064],[-73.0398,18.2661,126.2414],[-73.0377,18.2694,140.4928],[-73.043,18.2706,129.1872],[-73.0408,18.2716,132.9842],[-73.0423,18.2771,154.0476],[-73.0484,18.28,145.549],[-73.05,18.2849,153.0694],[-73.0523,18.2869,146.5392],[-73.0438,18.2943,204.7],[-73.0468,18.2967,242.4678],[-73.0422,18.3002,234.9064],[-73.0461,18.3006,171.3999],[-73.0469,18.3024,203.2101],[-73.0499,18.2996,187.0055],[-73.0523,18.3028,209.3423],[-73.0559,18.3005,177.9584],[-73.0571,18.3032,184.1069],[-73.0593,18.3029,190.8634],[-73.0644,18.3145,197.7666],[-73.067,18.3155,203.6518],[-73.0683,18.3228,202.7465],[-73.072,18.3227,210.332],[-73.0696,18.3271,229.4361],[-73.0707,18.3309,207.364],[-73.0734,18.3298,214.7188],[-73.0723,18.3272,205.1532],[-73.08,18.3293,208.2317],[-73.0805,18.3346,210.4417],[-73.0858,18.3363,209.1453],[-73.0867,18.3388,207.0157],[-73.0968,18.3449,244.2536],[-73.1004,18.353,208.808],[-73.1082,18.3583,209.5728],[-73.1104,18.3618,212.9284],[-73.1146,18.3604,211.0607],[-73.1186,18.3629,212.9279],[-73.1204,18.3613,213.4507],[-73.122,18.3619,215.1594],[-73.1252,18.3588,216.22],[-73.1338,18.3637,227.7663],[-73.1416,18.3646,227.9495],[-73.1566,18.3501,237.7265],[-73.1645,18.3505,265.5932],[-73.1732,18.356,256.4524],[-73.1794,18.3565,258.1538],[-73.1868,18.3628,281.3759],[-73.1951,18.364,285.5289],[-73.2046,18.3621,287.4732],[-73.2176,18.3624,299.556],[-73.2281,18.3522,283.363],[-73.2472,18.3541,307.3022],[-73.2592,18.3527,268.8469],[-73.2627,18.3538,271.7729],[-73.2668,18.3598,251.3938],[-73.27,18.3587,285.9725],[-73.277,18.3611,245.0302],[-73.2868,18.3676,243.6718],[-73.2951,18.3677,224.7619],[-73.294,18.3657,225.3727],[-73.2963,18.3654,243.9251],[-73.2994,18.3685,223.0061],[-73.3014,18.3665,223.5834],[-73.3051,18.3667,224.2775],[-73.3063,18.3652,235.4154],[-73.3187,18.3626,221.2621],[-73.3222,18.3638,217.1615],[-73.3248,18.3677,203.9637],[-73.3275,18.3671,202.9458],[-73.3306,18.3707,223.3086],[-73.3318,18.3687,213.0472],[-73.333,18.3699,201.5916],[-73.3352,18.368,206.2768],[-73.3364,18.3693,199.3897],[-73.3484,18.3485,231.5857],[-73.3552,18.3424,187.1971],[-73.363,18.3452,278.5847],[-73.3858,18.347,319.3301],[-73.4011,18.3459,719.6646],[-73.4045,18.3475,711.8253],[-73.4122,18.3419,748.8861],[-73.4184,18.3414,943.9186],[-73.4292,18.3444,827.447],[-73.4588,18.3378,1092.8838],[-73.4704,18.3375,1064.5156],[-73.4718,18.3406,1203.6052],[-73.4821,18.3422,1150.9215],[-73.4894,18.3406,1216.5042],[-73.4932,18.338,1204.6482],[-73.5045,18.3364,1250.2327],[-73.5546,18.336,877.4631],[-73.5615,18.3472,545.4474],[-73.5643,18.3444,634.0874],[-73.5643,18.3465,547.4626],[-73.5563,18.3497,830.6975],[-73.5572,18.3583,636.0804],[-73.5549,18.3699,454.0576],[-73.5462,18.3753,563.7446],[-73.543,18.3757,565.4875],[-73.5418,18.3736,506.0827],[-73.5386,18.3845,475.8293],[-73.5438,18.3862,448.7751],[-73.5463,18.3892,477.8279],[-73.5486,18.3874,488.9577],[-73.5526,18.3904,503.591],[-73.5589,18.3911,517.9965],[-73.5594,18.3993,594.3403],[-73.5622,18.4013,555.8101],[-73.5739,18.4011,528.2023],[-73.5789,18.4071,504.8514],[-73.5794,18.4165,344.7047],[-73.578,18.4204,328.489],[-73.5852,18.4208,414.7292],[-73.5915,18.4188,545.7237],[-73.6016,18.4203,379.6355],[-73.6096,18.427,422.9119],[-73.6261,18.4256,359.2691],[-73.6315,18.4219,418.3113],[-73.6389,18.4249,372.4841],[-73.6435,18.4301,415.843],[-73.6479,18.4297,586.3645],[-73.6534,18.4257,679.3358],[-73.6681,18.4332,510.2808],[-73.6699,18.4301,552.9741],[-73.672,18.4306,628.625],[-73.671,18.4254,632.7036],[-73.6726,18.4157,674.2314],[-73.671,18.4056,684.6884],[-73.6739,18.4,507.3129],[-73.6767,18.3979,548.1161],[-73.6797,18.3988,527.0443],[-73.691,18.409,448.6588],[-73.6965,18.4041,579.6842],[-73.6972,18.3991,615.6134],[-73.6913,18.3895,578.9135],[-73.6977,18.3786,480.1079],[-73.6973,18.3727,401.5002],[-73.6933,18.3668,181.1368],[-73.6867,18.3653,132.3861],[-73.6884,18.3601,75.7101],[-73.6865,18.3521,31.1844],[-73.6879,18.3499,34.2592],[-73.6945,18.3486,39.1386],[-73.6998,18.3375,248.6077],[-73.6984,18.332,209.7285],[-73.6958,18.3298,186.0636],[-73.6953,18.3248,144.336],[-73.6884,18.3194,96.6078],[-73.6891,18.3137,62.0214],[-73.6875,18.3118,52.4675],[-73.6837,18.312,71.8183],[-73.6828,18.3083,50.8778],[-73.6852,18.303,46.683],[-73.6821,18.2902,69.0307],[-73.6888,18.2819,18.0216],[-73.6841,18.2663,6.0894],[-73.6806,18.264,2.8999],[-73.6807,18.2602,3.7218],[-73.6843,18.2572,0.9579],[-73.6839,18.2539,0.736],[-73.6888,18.2557,28.6116],[-73.6925,18.2549,3.5649],[-73.6926,18.253,6.988],[-73.6892,18.2514,5.1094],[-73.6856,18.2445,0.6013],[-73.6849,18.2385,1.1987],[-73.6793,18.2385,0.0],[-73.6754,18.2365,0.0],[-73.6751,18.2321,0.0],[-73.6774,18.226,0.0],[-73.6751,18.2251,0.0],[-73.6746,18.2229,0.0],[-73.6729,18.2229,0.0],[-73.6699,18.2268,0.0],[-73.6675,18.2332,9.1106],[-73.6583,18.2358,8.0002],[-73.6544,18.239,5.9701],[-73.6496,18.2526,0.0],[-73.6466,18.2532,0.5501],[-73.6418,18.2454,0.0],[-73.6451,18.2404,26.7224],[-73.6482,18.2393,3.2941],[-73.6513,18.2276,1.3199],[-73.6612,18.2274,0.0],[-73.6607,18.2235,0.0],[-73.6624,18.2218,0.0],[-73.6612,18.2185,5.1137],[-73.6643,18.2154,0.0],[-73.6643,18.2124,0.4936],[-73.6621,18.2099,0.0],[-73.6574,18.2105,0.5654],[-73.6518,18.2154,0.9032],[-73.6454,18.2142,0.5163],[-73.6396,18.2171,4.0782],[-73.6387,18.2213,0.7441],[-73.6329,18.2235,0.0],[-73.6338,18.2326,16.3004],[-73.6315,18.2354,8.4739],[-73.634,18.2387,7.0584],[-73.6324,18.2499,4.7675],[-73.6265,18.2471,6.4267],[-73.6215,18.249,0.0],[-73.6185,18.2529,3.5089],[-73.613,18.2513,2.0745],[-73.6099,18.2554,0.0],[-73.6053,18.254,7.1695],[-73.6046,18.2518,0.0],[-73.6015,18.2506,0.6196],[-73.6028,18.2474,2.5196],[-73.6012,18.2429,0.1121],[-73.6043,18.241,15.9344],[-73.6085,18.2418,9.0871],[-73.6091,18.2376,0.0],[-73.6126,18.2371,0.0],[-73.6162,18.2326,1.6236],[-73.615,18.2232,1.4334],[-73.6198,18.2195,0.2389],[-73.6196,18.2168,0.0],[-73.6176,18.2155,7.94],[-73.6116,18.2143,8.9531],[-73.6105,18.2128,0.7465],[-73.6017,18.2122,0.459],[-73.5989,18.2145,0.8381],[-73.5954,18.2145,0.0],[-73.5904,18.219,43.836],[-73.5867,18.2201,0.0],[-73.5846,18.2243,0.0],[-73.5888,18.2321,7.3348],[-73.5876,18.2349,0.0],[-73.5851,18.2354,7.1412],[-73.5875,18.233,8.697],[-73.581,18.2286,0.0],[-73.5793,18.2179,1.4336],[-73.5755,18.2159,1.2215],[-73.5676,18.2154,0.0],[-73.5646,18.2182,0.0],[-73.5651,18.2207,0.9433],[-73.5596,18.2229,1.4732],[-73.5588,18.2274,0.0],[-73.5632,18.2363,0.0],[-73.5687,18.2399,3.2047],[-73.5743,18.2471,2.5466],[-73.5749,18.2508,2.2524],[-73.5715,18.2554,0.0],[-73.5635,18.2593,15.7679],[-73.5577,18.2567,0.0],[-73.5575,18.2589,5.5125],[-73.5554,18.2603,1.1254],[-73.5523,18.259,0.379],[-73.546,18.2607,4.6037],[-73.5429,18.2589,4.5126],[-73.5421,18.2551,0.8969],[-73.5371,18.2507,0.0],[-73.5382,18.2479,0.0],[-73.5362,18.2468,3.3483],[-73.5315,18.2324,0.9503],[-73.5208,18.2342,1.0778],[-73.5195,18.236,2.277],[-73.5173,18.2337,0.0],[-73.5138,18.2351,0.6467],[-73.5074,18.2324,1.9616],[-73.5013,18.2337,0.0],[-73.4943,18.2401,1.8624],[-73.5028,18.2418,17.6026],[-73.5076,18.245,0.0],[-73.5008,18.2465,0.1434],[-73.4972,18.2505,3.4609],[-73.4934,18.2517,0.0],[-73.4918,18.2561,11.5373],[-73.4896,18.2567,1.8789],[-73.4851,18.2546,0.0],[-73.4816,18.2571,5.7221],[-73.4788,18.2555,12.262],[-73.4783,18.25,0.0],[-73.4754,18.2496,0.3388],[-73.4746,18.2512,0.2131],[-73.477,18.2554,4.8063],[-73.4752,18.2572,12.6886],[-73.459,18.2616,0.0],[-73.4516,18.2551,0.0],[-73.4546,18.263,3.5264],[-73.4533,18.2662,4.5561],[-73.4505,18.2668,0.0],[-73.4483,18.2664,0.0],[-73.4435,18.2587,0.0],[-73.4445,18.2632,1.3714],[-73.443,18.2651,0.0],[-73.4393,18.2629,0.0],[-73.4376,18.2629,0.0],[-73.4365,18.265,0.0],[-73.4312,18.2636,0.0],[-73.4297,18.2581,0.0],[-73.4315,18.2571,0.0],[-73.4307,18.2538,0.0],[-73.4282,18.2556,1.7264],[-73.4174,18.255,0.0],[-73.4092,18.2525,0.776],[-73.4097,18.2503,0.0],[-73.4081,18.2488,0.2284],[-73.4039,18.2562,0.1822],[-73.3971,18.2526,0.1484],[-73.3962,18.2554,0.3714],[-73.3976,18.2557,0.2178],[-73.3982,18.2615,0.1163],[-73.3996,18.2615,0.111],[-73.3993,18.2585,0.2311],[-73.4018,18.2596,0.0992],[-73.3999,18.2565,0.2522],[-73.4026,18.2576,0.0],[-73.4067,18.2557,0.0865],[-73.409,18.256,0.9291],[-73.4099,18.261,0.9402],[-73.4068,18.2621,1.4182],[-73.4058,18.2597,0.0],[-73.4031,18.2606,0.6008],[-73.4049,18.2628,1.4182],[-73.4046,18.2658,0.9794],[-73.4024,18.2665,0.7005],[-73.4023,18.2646,0.111],[-73.3977,18.2638,0.1619],[-73.3968,18.2663,0.5622],[-73.3932,18.2668,0.0],[-73.3962,18.2682,0.7076],[-73.3939,18.2698,0.4662],[-73.3918,18.267,0.2866],[-73.3938,18.2643,0.1061],[-73.3938,18.2604,0.331],[-73.3914,18.2599,0.0],[-73.3899,18.2648,0.0],[-73.3924,18.2787,0.0],[-73.39,18.2803,0.6433],[-73.386,18.2696,0.0],[-73.384,18.2679,0.0],[-73.382,18.268,0.0],[-73.3821,18.2721,0.5149],[-73.3779,18.2674,0.3616],[-73.3701,18.2649,0.0],[-73.3705,18.2624,0.0],[-73.368,18.2625,0.0],[-73.3667,18.2587,0.0],[-73.3555,18.2565,0.0],[-73.3529,18.254,0.0],[-73.3535,18.2512,0.0],[-73.3568,18.2488,0.0],[-73.3571,18.242,6.5057],[-73.361,18.2424,0.0],[-73.3657,18.2388,0.0],[-73.3671,18.2357,3.3106],[-73.3679,18.2296,0.0],[-73.3715,18.2221,0.0],[-73.3693,18.2168,0.0],[-73.364,18.2182,0.0],[-73.3624,18.2159,7.8916],[-73.3576,18.2168,0.0],[-73.3547,18.2242,1.9446],[-73.3487,18.224,24.7416],[-73.3478,18.2201,0.0],[-73.3433,18.2192,0.0],[-73.3412,18.2215,1.3238],[-73.3397,18.2203,0.0],[-73.3343,18.222,0.0],[-73.3318,18.2204,0.0],[-73.3276,18.2235,0.0],[-73.3238,18.2226,0.0],[-73.3086,18.2301,0.9477],[-73.3049,18.2296,0.0],[-73.2935,18.2325,3.2929],[-73.2783,18.232,0.0],[-73.2718,18.2283,0.0],[-73.2695,18.2229,0.0],[-73.2705,18.2174,1.3136],[-73.2666,18.2151,0.0],[-73.2571,18.2165,1.5045],[-73.2533,18.2148,0.0],[-73.2414,18.2164,1.0841],[-73.2393,18.2126,0.0],[-73.2361,18.2118,0.0],[-73.2248,18.2126,1.668],[-73.223,18.2112,0.0],[-73.2114,18.2132,1.7923],[-73.2074,18.2099,0.0],[-73.2035,18.2113,1.3205],[-73.1963,18.2099,0.0],[-73.1854,18.2111,1.9597],[-73.1781,18.209,0.361],[-73.1762,18.2107,0.8682],[-73.1712,18.211,3.3233],[-73.1674,18.2093,2.4023],[-73.1646,18.2051,0.0],[-73.1521,18.2035,0.0],[-73.1415,18.1971,0.4309],[-73.1373,18.1972,3.7045],[-73.1215,18.1921,3.1302],[-73.1112,18.1913,2.0115],[-73.1085,18.1893,2.3788]]],
[[[-73.396,18.2615,0.0],[-73.3976,18.2626,0.0],[-73.394,18.2562,0.0],[-73.3935,18.259,0.331],[-73.396,18.2615,0.0]]],
[[[-73.5143,18.2151,0.2875],[-73.5165,18.215699999999998,0.0],[-73.5151,18.2135,1.0084],[-73.5201,18.2149,0.0],[-73.5207,18.2121,0.0],[-73.5113,18.2124,0.4518],[-73.5115,18.2149,0.3813],[-73.5143,18.2151,0.2875]]],
[[[-73.4585,18.2179,6.2201],[-73.4601,18.219,0.0],[-73.4676,18.2165,0.0],[-73.459,18.2165,0.0],[-73.4585,18.2179,6.2201]]],
[[[-73.3968,18.234,0.8375],[-73.3979,18.2357,0.0],[-73.3987,18.2307,1.6626],[-73.4018,18.229,0.4008],[-73.4004,18.2263,21.3814],[-73.4029,18.226,13.6935],[-73.4096,18.2299,10.925],[-73.4165,18.2307,0.3529],[-73.4207,18.2276,28.0192],[-73.4176,18.2254,19.2326],[-73.4185,18.2213,6.2146],[-73.4129,18.2199,0.0],[-73.4085,18.2224,18.5643],[-73.404,18.2193,1.0186],[-73.4026,18.2199,55.8753],[-73.4035,18.2171,0.0],[-73.4021,18.2182,8.5654],[-73.3935,18.2174,0.0],[-73.3929,18.2204,0.0],[-73.3863,18.2176,0.0],[-73.3879,18.2226,0.9254],[-73.3924,18.2235,0.4891],[-73.3935,18.2299,0.0],[-73.3968,18.234,0.8375]]],
[[[-73.5393,18.2179,1.6058],[-73.5413,18.2185,0.4719],[-73.5401,18.2162,3.8512],[-73.5312,18.2129,0.3396],[-73.5312,18.2146,0.4332],[-73.5393,18.2179,1.6058]]],
[[[-73.5512,18.2507,0.9786],[-73.5507,18.2526,0.0],[-73.5529,18.2529,0.9143],[-73.5521,18.2493,0.0],[-73.5512,18.2507,0.9786]]]]}}