{"type": "Feature","bbox": [-73.2668,18.2214,-72.9949,18.4613],"geometry": {"type": "MultiPolygon","coordinates": [[[[-73.0147,18.3668,485.1902],[-73.0256,18.3746,340.5582],[-73.019,18.383,159.1842],[-73.0256,18.3883,193.3403],[-73.0338,18.3887,148.7482],[-73.0494,18.3848,112.0304],[-73.0501,18.3832,177.5117],[-73.0714,18.3855,89.9353],[-73.0728,18.3918,17.6897],[-73.0635,18.3958,17.0],[-73.0605,18.4082,17.0],[-73.0589,18.4113,17.0],[-73.0555,18.4129,17.0],[-73.0499,18.4253,17.0],[-73.0513,18.4307,71.6042],[-73.054,18.4332,41.8132],[-73.0519,18.4354,112.9635],[-73.0483,18.4353,126.5037],[-73.0445,18.4374,198.2168],[-73.0486,18.4454,213.4244],[-73.0523,18.4479,233.023],[-73.0547,18.4523,162.3306],[-73.0501,18.4613,2.0659],[-73.0566,18.4611,0.0],[-73.0632,18.4571,0.0],[-73.0698,18.458,0.0],[-73.0726,18.4547,0.0],[-73.0706,18.4535,0.0],[-73.0735,18.4474,21.4859],[-73.0801,18.4474,0.0],[-73.0848,18.4494,0.0],[-73.0873,18.4468,12.5863],[-73.0902,18.4469,0.0],[-73.0921,18.4437,9.0599],[-73.0983,18.4458,0.0],[-73.0985,18.4447,6.5853],[-73.1039,18.4477,0.0],[-73.1051,18.4465,15.9139],[-73.1071,18.4497,3.6411],[-73.1148,18.4474,63.3057],[-73.1349,18.447,220.3796],[-73.1368,18.4436,265.3539],[-73.133,18.4415,303.0594],[-73.1337,18.4396,325.6921],[-73.137,18.4385,369.8615],[-73.1387,18.4336,401.9073],[-73.1419,18.4331,446.9418],[-73.142,18.4267,573.5531],[-73.1452,18.433,428.2521],[-73.1515,18.4368,521.2305],[-73.1674,18.4379,382.584],[-73.1827,18.4366,508.2325],[-73.1938,18.4429,337.9834],[-73.1973,18.4339,696.7396],[-73.1966,18.4314,774.2942],[-73.1871,18.4259,777.5534],[-73.1905,18.4191,824.8073],[-73.1941,18.4193,891.3367],[-73.1966,18.4241,894.4376],[-73.2019,18.4236,918.095],[-73.2058,18.4258,872.3155],[-73.2191,18.4252,874.9242],[-73.2212,18.4233,873.8107],[-73.2182,18.4203,850.64],[-73.2206,18.4187,865.4943],[-73.2254,18.4231,816.1517],[-73.2282,18.4235,769.3045],[-73.2386,18.4201,848.5235],[-73.2481,18.4286,643.8502],[-73.2493,18.4281,608.83],[-73.2518,18.4165,816.2731],[-73.2546,18.4164,827.1478],[-73.2549,18.4141,835.5715],[-73.258,18.4121,850.1926],[-73.2586,18.4081,831.7778],[-73.2624,18.4051,794.6045],[-73.2654,18.3963,375.8535],[-73.2614,18.3814,335.2382],[-73.2642,18.3768,276.9305],[-73.2649,18.3702,261.4587],[-73.2627,18.3649,261.6149],[-73.2661,18.3641,249.2845],[-73.2668,18.3598,251.3938],[-73.2608,18.3529,266.5539],[-73.2472,18.3541,307.3022],[-73.2281,18.3522,283.363],[-73.2176,18.3624,299.556],[-73.2046,18.3621,287.4732],[-73.1951,18.364,285.5289],[-73.1868,18.3628,281.3759],[-73.1794,18.3565,258.1538],[-73.1732,18.356,256.4524],[-73.1645,18.3505,265.5932],[-73.1566,18.3501,237.7265],[-73.1416,18.3646,227.9495],[-73.1338,18.3637,227.7663],[-73.1252,18.3588,216.22],[-73.122,18.3619,215.1594],[-73.1204,18.3613,213.4507],[-73.1186,18.3629,212.9279],[-73.1146,18.3604,211.0607],[-73.1104,18.3618,212.9284],[-73.1082,18.3583,209.5728],[-73.1004,18.353,208.808],[-73.0968,18.3449,244.2536],[-73.0867,18.3388,207.0157],[-73.0858,18.3363,209.1453],[-73.0805,18.3346,210.4417],[-73.08,18.3293,208.2317],[-73.0723,18.3272,205.1532],[-73.0734,18.3298,214.7188],[-73.0707,18.3309,207.364],[-73.0696,18.3271,229.4361],[-73.072,18.3227,210.332],[-73.0683,18.3228,202.7465],[-73.067,18.3155,203.6518],[-73.0644,18.3145,197.7666],[-73.0593,18.3029,190.8634],[-73.0571,18.3032,184.1069],[-73.0559,18.3005,177.9584],[-73.0523,18.3028,209.3423],[-73.0499,18.2996,187.0055],[-73.0469,18.3024,203.2101],[-73.0461,18.3006,171.3999],[-73.0422,18.3002,234.9064],[-73.0468,18.2967,242.4678],[-73.0438,18.2943,204.7],[-73.0523,18.2869,146.5392],[-73.05,18.2849,153.0694],[-73.0484,18.28,145.549],[-73.0423,18.2771,154.0476],[-73.0408,18.2716,132.9842],[-73.043,18.2706,129.1872],[-73.038,18.2701,140.4928],[-73.0398,18.2661,126.2414],[-73.0386,18.2626,123.9064],[-73.0416,18.2596,125.4111],[-73.0359,18.2593,122.8988],[-73.0378,18.2564,128.2964],[-73.033,18.2546,117.3688],[-73.033,18.2511,118.8019],[-73.0299,18.251,123.3699],[-73.0288,18.2474,111.5706],[-73.0313,18.2426,104.4601],[-73.0307,18.2405,106.625],[-73.0167,18.2365,96.3582],[-73.0206,18.2327,137.7831],[-73.0182,18.2303,89.8878],[-73.0228,18.2251,136.2871],[-73.0201,18.2244,116.0776],[-73.0142,18.2275,73.5332],[-73.0141,18.2255,67.8653],[-73.0167,18.2241,69.9756],[-73.0158,18.2214,92.4816],[-73.0112,18.2226,61.186],[-73.0131,18.2267,76.6246],[-73.01,18.231,126.3567],[-73.0088,18.2405,290.2419],[-73.0108,18.2426,334.4954],[-73.012,18.2477,449.3692],[-73.009,18.2523,469.0417],[-73.0134,18.2555,370.0698],[-73.0156,18.261,249.4283],[-73.0131,18.2667,330.4156],[-73.0129,18.2792,436.8794],[-73.0101,18.2879,409.3107],[-72.998,18.2986,550.6681],[-72.9949,18.3058,560.4194],[-72.9967,18.3239,578.9299],[-73.0006,18.329,600.7977],[-73.0131,18.3361,417.4939],[-73.0201,18.3484,530.8142],[-73.0187,18.351,491.9747],[-73.0137,18.3524,587.3859],[-73.0109,18.3606,479.6272],[-73.0147,18.3668,485.1902]]],
[[[-73.0987,18.4507,0.3409],[-73.0999,18.4524,0.0],[-73.1001,18.4504,0.0],[-73.0965,18.4488,0.0],[-73.0965,18.4496,0.0],[-73.0987,18.4507,0.3409]]]]}
,"properties": {"GID_3": "HTI.4.2.1_1","GID_0": "HTI","country": "Haiti","GID_1": "HTI.4_1","province": "Nippes","NL_NAME_1": "NA","GID_2": "HTI.4.2_1","county": "Miragoâne","NL_NAME_2": "NA","city": "Miragoâne","VARNAME_3": "NA","NL_NAME_3": "NA","TYPE_3": "Commune","ENGTYPE_3": "Commune","CC_3": "NA","HASC_3": "NA","name": "Miragoâne.city","area_km2": 276.0428,"hist_schema_id": "Elevation0-9000","hist_area_km2": {"0": 1.7498,"25": 8.1671,"50": 6.5175,"75": 5.2102,"100": 5.8143,"125": 7.6661,"150": 7.2037,"175": 6.1575,"200": 7.4458,"225": 15.4544,"250": 14.4283,"275": 19.2179,"300": 19.3788,"325": 16.602,"350": 15.3945,"375": 12.4164,"400": 11.8528,"425": 9.6188,"450": 8.5521,"475": 6.6804,"500": 5.4127,"525": 5.3722,"550": 4.2653,"575": 3.8025,"600": 4.0841,"625": 2.7361,"650": 2.897,"675": 2.394,"700": 2.8769,"725": 4.0839,"750": 3.3194,"775": 3.8425,"800": 2.6756,"825": 4.2247,"850": 4.627,"875": 3.601,"900": 3.1181,"925": 2.3335,"950": 2.072,"975": 1.3478,"1000": 1.2473,"1025": 0.1408,"1050": 0.0402}}}