{"type":"Feature","properties":{"GID_2":"CUB.7.9_1","GID_0":"CUB","country":"Cuba","GID_1":"CUB.7_1","province":"Holguín","NL_NAME_1":"NA","county":"Holguín","VARNAME_2":"NA","NL_NAME_2":"NA","TYPE_2":"Municipio","ENGTYPE_2":"Municipality","CC_2":"NA","HASC_2":"CU.HO.HO","name":"Holguín.county"},
"geometry":{"type": "MultiPolygon","coordinates": [[[[-76.0864,20.9394,93.425],[-76.0976,20.9586,76.6605],[-76.1022,20.975,130.3056],[-76.1121,20.9893,40.0],[-76.1267,20.9968,40.0],[-76.2072,21.0215,53.2276],[-76.2209,21.0224,87.0364],[-76.2556,21.0124,63.2128],[-76.2899,20.9983,79.9682],[-76.4079,20.9986,111.8713],[-76.429,20.9601,82.6705],[-76.4287,20.8963,110.7769],[-76.4126,20.8862,112.4872],[-76.3863,20.882,155.6366],[-76.3322,20.8572,104.5564],[-76.313,20.8405,115.5286],[-76.2969,20.8176,103.8928],[-76.2784,20.8045,90.3344],[-76.2683,20.784,125.3859],[-76.2533,20.7725,113.9852],[-76.206,20.7958,126.3028],[-76.186,20.8265,175.9826],[-76.1533,20.8458,152.1319],[-76.1504,20.8565,147.8725],[-76.1512,20.9022,102.8169],[-76.1463,20.9124,115.9103],[-76.1074,20.9318,70.4226],[-76.0864,20.9394,93.425]]]]}}