{"type":"Feature","properties":{"GID_2":"DOM.2.1_1","GID_0":"DOM","country":"DominicanRepublic","GID_1":"DOM.2_1","province":"Bahoruco","NL_NAME_1":"NA","county":"Galvan","VARNAME_2":"NA","NL_NAME_2":"NA","TYPE_2":"Distritomunicipal","ENGTYPE_2":"Municipaldistrict","CC_2":"NA","HASC_2":"DO.BR.GA","name":"Galvan.county"},
"geometry":{"type": "MultiPolygon","coordinates": [[[[-71.4325,18.4176,-24.7979],[-71.4244,18.4111,-21.4086],[-71.4184,18.4005,-14.8442],[-71.4088,18.3921,-9.9042],[-71.4073,18.3761,-0.8526],[-71.4042,18.3722,-4.2305],[-71.4004,18.3706,-2.5453],[-71.3719,18.3807,0.8831],[-71.3646,18.3819,2.7629],[-71.3512,18.3949,0.6235],[-71.319,18.407,2.3571],[-71.3124,18.4142,2.7748],[-71.2899,18.4144,6.0398],[-71.2763,18.4025,8.7712],[-71.2665,18.39,10.0188],[-71.2643,18.3843,10.3059],[-71.2577,18.3756,11.4386],[-71.2583,18.369,12.0327],[-71.2554,18.3646,13.1632],[-71.251,18.3623,13.9131],[-71.2466,18.3493,15.6064],[-71.242,18.3467,16.486],[-71.2351,18.3474,17.323],[-71.2302,18.3501,17.7165],[-71.2277,18.3551,18.7656],[-71.237,18.3755,13.7927],[-71.2223,18.3873,20.3018],[-71.2178,18.3962,22.0265],[-71.2175,18.4542,27.2325],[-71.2188,18.4574,34.0942],[-71.2216,18.4592,26.8837],[-71.2459,18.46,13.6839],[-71.2476,18.467,14.5652],[-71.2464,18.47,18.6043],[-71.2419,18.4722,27.2755],[-71.237,18.4802,47.4637],[-71.2156,18.5041,139.3994],[-71.2151,18.5174,281.4883],[-71.2215,18.5212,338.6891],[-71.2329,18.5224,528.3858],[-71.2401,18.529,414.0199],[-71.2414,18.5331,449.0443],[-71.2415,18.5503,648.9825],[-71.2457,18.5636,818.114],[-71.2512,18.5665,1018.84],[-71.2612,18.5673,958.2721],[-71.2721,18.5722,1044.774],[-71.2904,18.5732,1138.8857],[-71.295,18.5851,995.7481],[-71.3041,18.5955,982.4252],[-71.3233,18.6038,1232.0262],[-71.325,18.6031,1230.5115],[-71.3351,18.5962,1304.7446],[-71.3409,18.5949,1392.2748],[-71.3426,18.5918,1258.7863],[-71.343,18.589,1367.1794],[-71.3373,18.5846,1106.1505],[-71.3334,18.5736,753.2659],[-71.3341,18.5675,615.3821],[-71.3449,18.5412,343.0733],[-71.3379,18.5285,161.8529],[-71.3395,18.5246,132.3183],[-71.347,18.5196,112.6909],[-71.3573,18.5221,162.5139],[-71.3649,18.5198,160.4498],[-71.3749,18.5196,212.6629],[-71.3906,18.5269,487.3481],[-71.4052,18.519,312.9099],[-71.4075,18.516,278.7119],[-71.4082,18.5044,117.5534],[-71.4107,18.4987,92.6898],[-71.4094,18.4948,76.7678],[-71.3999,18.4943,70.9708],[-71.3852,18.4973,181.8779],[-71.3786,18.4957,188.595],[-71.3781,18.4697,3.49],[-71.3755,18.4624,1.8012],[-71.3757,18.4588,-2.5648],[-71.3916,18.4531,-10.0172],[-71.4135,18.4327,-19.7792],[-71.4219,18.4274,-23.2519],[-71.4325,18.4176,-24.7979]]]]}}