{"type":"Feature","properties":{"GID_2":"DOM.21.6_1","GID_0":"DOM","country":"DominicanRepublic","GID_1":"DOM.21_1","province":"PuertoPlata","NL_NAME_1":"NA","county":"Luperon","VARNAME_2":"NA","NL_NAME_2":"NA","TYPE_2":"Municipio","ENGTYPE_2":"Municipality","CC_2":"NA","HASC_2":"DO.PP.LU","name":"Luperon.county"},
"geometry":{"type": "MultiPolygon","coordinates": [[[[-70.8862,19.819,122.1923],[-70.8877,19.8253,140.9115],[-70.8859,19.8295,139.0703],[-70.8731,19.8385,89.5396],[-70.8631,19.8434,147.8798],[-70.8503,19.8602,34.25],[-70.8428,19.8642,58.6921],[-70.835,19.8637,72.941],[-70.831,19.8559,105.3399],[-70.8185,19.8462,75.3185],[-70.8125,19.8395,74.5772],[-70.8007,19.8458,123.3633],[-70.7912,19.8561,5.9153],[-70.7974,19.8563,0.0],[-70.7985,19.859,2.1044],[-70.7943,19.8613,1.4611],[-70.7954,19.8649,0.0],[-70.8015,19.8651,1.7851],[-70.7996,19.8687,0.0],[-70.8024,19.8699,5.2308],[-70.8043,19.8757,0.0],[-70.8076,19.8768,0.6938],[-70.8115,19.8826,0.0],[-70.8163,19.8835,4.3359],[-70.8196,19.8821,0.0],[-70.8215,19.8835,11.305],[-70.8243,19.8824,2.7467],[-70.8313,19.8882,3.5587],[-70.8357,19.8899,5.4767],[-70.8385,19.8935,2.1483],[-70.8365,19.901,0.0],[-70.8396,19.9021,1.7852],[-70.839,19.9057,0.0],[-70.846,19.9043,2.5396],[-70.8479,19.9054,6.8291],[-70.8471,19.9079,1.6675],[-70.8487,19.9082,1.6675],[-70.8504,19.9057,2.4073],[-70.8568,19.906,0.4163],[-70.8626,19.9018,7.7998],[-70.8662,19.9018,14.6855],[-70.8718,19.9054,11.4963],[-70.8746,19.9054,5.3067],[-70.8754,19.903199999999998,8.8359],[-70.8776,19.9035,7.4622],[-70.8782,19.9001,2.7043],[-70.881,19.8999,2.2488],[-70.8846,19.901,6.0361],[-70.884,19.904,0.0],[-70.886,19.9051,1.8769],[-70.8885,19.9035,6.8125],[-70.8954,19.9051,7.6806],[-70.9082,19.9037,11.5105],[-70.9082,19.9065,0.0],[-70.9182,19.9085,6.9376],[-70.9257,19.9146,0.9043],[-70.9321,19.9165,0.8179],[-70.9404,19.9068,0.0],[-70.941,19.9026,2.2166],[-70.9396,19.9004,0.0],[-70.931,19.8968,7.9322],[-70.9318,19.8937,5.7143],[-70.9332,19.8954,1.7117],[-70.9368,19.8932,6.1349],[-70.9413,19.8951,3.7948],[-70.9399,19.8974,6.806],[-70.9429,19.901,1.8712],[-70.9518,19.8979,7.4578],[-70.954,19.8946,9.7634],[-70.9557,19.8946,2.2774],[-70.9596,19.8979,3.3584],[-70.9565,19.8999,11.0212],[-70.9535,19.8996,0.7452],[-70.9532,19.9026,5.3166],[-70.9454,19.9015,1.825],[-70.944,19.9046,4.8926],[-70.9449,19.9063,1.2432],[-70.9532,19.9093,2.2595],[-70.9604,19.9149,3.0464],[-70.9679,19.9168,8.3919],[-70.9899,19.9307,0.0],[-70.996,19.9318,3.0352],[-71.0249,19.9312,0.0],[-71.0296,19.9282,4.5967],[-71.0351,19.9282,3.4947],[-71.0429,19.9229,5.1073],[-71.061,19.9185,6.207],[-71.064,19.9107,0.0],[-71.0746,19.9063,1.3139],[-71.0826,19.8971,0.0],[-71.081,19.8932,1.8784],[-71.0813,19.8879,1.1645],[-71.079,19.8846,8.9699],[-71.0846,19.8774,0.0],[-71.0883,19.876,0.0],[-71.0781,19.8739,2.2265],[-71.0665,19.8674,6.1878],[-71.0586,19.8684,6.3394],[-71.049,19.8654,9.5456],[-71.0482,19.8635,10.2533],[-71.0511,19.8595,8.8223],[-71.0506,19.8572,10.2143],[-71.0436,19.8524,11.93],[-71.022,19.8288,19.1724],[-71.0216,19.8193,32.717],[-71.0271,19.8013,57.2774],[-71.0268,19.7954,93.4268],[-71.0229,19.7871,140.5814],[-71.0147,19.7854,162.7363],[-71.0107,19.777,134.0638],[-71.0011,19.7712,119.392],[-71.0006,19.7668,121.7502],[-71.0032,19.7599,144.7597],[-71.0004,19.756,159.3714],[-70.9831,19.7617,92.494],[-70.9795,19.768,150.0659],[-70.9773,19.7689,104.3206],[-70.9748,19.7675,156.7118],[-70.9699,19.7591,249.8026],[-70.9613,19.7546,183.2632],[-70.9604,19.7473,189.18],[-70.9524,19.7474,254.0507],[-70.9477,19.7509,200.0334],[-70.9342,19.7751,130.9346],[-70.9267,19.7794,97.8589],[-70.9273,19.7826,111.9606],[-70.9316,19.7847,92.4194],[-70.9323,19.7885,72.0724],[-70.9307,19.7913,78.6541],[-70.9236,19.7938,69.7228],[-70.9233,19.809,57.0537],[-70.9212,19.8136,63.3588],[-70.9156,19.817,80.6807],[-70.8939,19.817,106.7755],[-70.8862,19.819,122.1923]]]]}}