{"type":"Feature","properties":{"GID_1":"TTO.15_1","GID_0":"TTO","country":"TrinidadandTobago","province":"Tunapuna/Piarco","VARNAME_1":"Tunapuna","NL_NAME_1":"NA","TYPE_1":"Region","ENGTYPE_1":"Region","CC_1":"NA","HASC_1":"TT.TP","ISO_1":"NA","name":"Tunapuna_Piarco.province"},
"geometry":{"type": "MultiPolygon","coordinates": [[[[-61.369,10.5657,9.6928],[-61.3658,10.5813,6.3734],[-61.3595,10.5759,8.3195],[-61.3562,10.578,7.8362],[-61.3531,10.5683,9.167],[-61.3375,10.5683,9.8358],[-61.3354,10.5688,9.6035],[-61.3316,10.5747,11.6791],[-61.3235,10.5757,10.6964],[-61.3251,10.5817,11.6804],[-61.3208,10.5849,12.849],[-61.3057,10.5848,20.1095],[-61.2972,10.5805,22.4358],[-61.2849,10.5831,22.2614],[-61.2806,10.5793,17.4202],[-61.2752,10.582,21.7244],[-61.2682,10.5831,23.0066],[-61.2597,10.5792,25.6881],[-61.2548,10.5792,30.3573],[-61.2451,10.5889,36.0618],[-61.2387,10.5905,31.0732],[-61.2289,10.6018,44.4352],[-61.2149,10.6027,38.8548],[-61.2123,10.6001,34.0019],[-61.208,10.6,43.5569],[-61.2058,10.6092,38.0414],[-61.202,10.6129,43.9569],[-61.1992,10.6205,49.9277],[-61.1992,10.6237,48.1306],[-61.2045,10.6286,47.1181],[-61.2029,10.6318,51.5133],[-61.2028,10.6393,46.1905],[-61.2146,10.6507,59.6976],[-61.2248,10.6523,66.8818],[-61.2258,10.6566,73.2791],[-61.2226,10.663,103.8967],[-61.2263,10.6652,106.1152],[-61.2258,10.6674,188.3653],[-61.2214,10.6695,225.9702],[-61.2177,10.6738,349.8552],[-61.2176,10.6786,362.2487],[-61.2139,10.6808,376.7033],[-61.2106,10.6877,294.2443],[-61.2106,10.6909,369.1917],[-61.2132,10.6947,484.9933],[-61.2094,10.7108,713.4808],[-61.2126,10.714,763.6511],[-61.2207,10.7151,781.1851],[-61.2218,10.7172,713.2173],[-61.225,10.7183,728.6679],[-61.2341,10.7173,726.1793],[-61.2416,10.7205,881.4614],[-61.2449,10.7243,914.9951],[-61.2421,10.7307,850.4617],[-61.2379,10.7307,785.5812],[-61.2319,10.7253,763.931],[-61.2304,10.728,782.044],[-61.2271,10.7285,774.0963],[-61.2115,10.7274,719.336],[-61.1981,10.7295,627.7164],[-61.1921,10.7343,394.5565],[-61.1895,10.7423,313.2095],[-61.183,10.7471,311.4627],[-61.1786,10.7535,323.6979],[-61.1786,10.7578,428.7837],[-61.176,10.7599,434.2497],[-61.1668,10.7615,535.2474],[-61.1577,10.761,548.6151],[-61.1534,10.7695,539.6514],[-61.1528,10.7743,328.3511],[-61.156,10.7882,239.5317],[-61.1614,10.7962,292.0521],[-61.1669,10.7973,336.0812],[-61.1674,10.7957,287.5353],[-61.1701,10.7957,288.3063],[-61.1707,10.8099,0.0],[-61.1765,10.809,0.0],[-61.1838,10.804,0.0],[-61.1849,10.7999,36.9887],[-61.1885,10.7999,0.0],[-61.1907,10.7979,10.2282],[-61.1974,10.8004,3.8435],[-61.2021,10.7974,0.0],[-61.2129,10.7963,0.0],[-61.2179,10.7993,0.0],[-61.2212,10.7943,15.0077],[-61.2351,10.7957,0.0],[-61.2363,10.7935,70.7066],[-61.2418,10.7932,32.408],[-61.2496,10.796,0.0],[-61.2529,10.7924,3.0828],[-61.2643,10.7954,11.3252],[-61.2757,10.794,13.8323],[-61.2774,10.7963,5.9887],[-61.2801,10.796,10.5746],[-61.286,10.7988,0.0],[-61.2887,10.7971,5.166],[-61.2935,10.7979,0.0],[-61.2954,10.796,9.7041],[-61.301,10.796,7.1612],[-61.3074,10.7993,0.0],[-61.3304,10.8015,12.3287],[-61.3346,10.8046,2.0133],[-61.344,10.8057,0.0],[-61.3455,10.8071,0.0],[-61.346,10.8004,27.6632],[-61.3502,10.7914,52.7285],[-61.3529,10.7893,29.2545],[-61.3524,10.7861,54.8557],[-61.3593,10.7802,130.9398],[-61.3593,10.7343,377.0674],[-61.3668,10.7392,473.9409],[-61.3749,10.7414,541.8779],[-61.3797,10.736,486.8329],[-61.3888,10.7318,770.6858],[-61.4151,10.7431,672.1455],[-61.4221,10.7421,636.6699],[-61.4301,10.7347,467.9606],[-61.4398,10.7304,635.149],[-61.4339,10.7224,480.3704],[-61.4334,10.7181,473.7416],[-61.4312,10.7154,396.1183],[-61.4328,10.71,289.7644],[-61.4307,10.7052,365.9769],[-61.4329,10.7004,495.398],[-61.4286,10.6907,672.9585],[-61.4297,10.6833,601.519],[-61.4265,10.6789,571.2477],[-61.4265,10.6725,321.4464],[-61.4217,10.6639,171.2357],[-61.4244,10.6601,110.7718],[-61.4201,10.6564,48.9413],[-61.4191,10.6531,30.0198],[-61.4282,10.6397,9.2347],[-61.4283,10.6343,6.749],[-61.4257,10.6176,3.0991],[-61.4215,10.6036,0.6045],[-61.4155,10.5643,3.7208],[-61.369,10.5657,9.6928]],
[[-61.2713,10.6062,28.9738],[-61.2761,10.6051,25.3529],[-61.2879,10.6079,27.9839],[-61.2975,10.6144,30.7971],[-61.2969,10.6171,31.982],[-61.2921,10.6176,33.0823],[-61.2905,10.623,37.18],[-61.2899,10.6262,37.6825],[-61.2926,10.6321,48.2568],[-61.2898,10.6364,49.1812],[-61.2914,10.6413,57.395],[-61.2887,10.6434,64.4832],[-61.2919,10.6531,132.6261],[-61.2897,10.6553,127.3683],[-61.286,10.6553,99.4423],[-61.2683,10.6444,67.4884],[-61.2694,10.6342,51.4249],[-61.2678,10.631,49.8874],[-61.2679,10.6208,38.4402],[-61.2658,10.6159,33.2253],[-61.2626,10.6132,31.8142],[-61.2626,10.6105,30.7554],[-61.2632,10.6083,29.6613],[-61.2713,10.6062,28.9738]]]]}}