{"type": "Feature","bbox": [-82.3011,22.8006,-81.9631,23.0489],"geometry": {"type": "MultiPolygon","coordinates": [[[[-82.2501,22.9357,218.844],[-82.2525,22.9261,236.7915],[-82.2773,22.8789,95.9709],[-82.29,22.863,77.7894],[-82.3011,22.8411,59.9694],[-82.2694,22.8239,53.4745],[-82.2566,22.812,48.3131],[-82.248,22.8006,40.0437],[-82.2309,22.8119,41.1793],[-82.2135,22.8197,48.4889],[-82.196,22.824,63.8273],[-82.1164,22.8614,112.6019],[-82.0998,22.8621,101.3736],[-82.0795,22.8552,58.7871],[-82.0587,22.8541,55.7909],[-82.0197,22.8831,101.9023],[-81.9959,22.9258,80.8135],[-81.9801,22.9345,83.484],[-81.9634,22.9373,88.9669],[-81.9631,22.9906,105.8417],[-82.0238,23.0027,135.5315],[-82.0311,23.0084,173.7001],[-82.0461,23.0323,201.7884],[-82.0821,23.0489,120.382],[-82.0957,23.0426,234.0704],[-82.097,23.0341,204.9419],[-82.1014,23.0252,200.6749],[-82.108,23.0239,212.659],[-82.1127,23.0265,201.2767],[-82.1238,23.0384,176.2393],[-82.1327,23.0454,196.6402],[-82.1455,23.0487,138.7268],[-82.1563,23.0482,114.4484],[-82.179,23.0441,131.8158],[-82.1992,23.0458,115.6372],[-82.2051,23.0416,115.8819],[-82.2069,23.038,110.8956],[-82.2082,23.0103,98.5266],[-82.2061,23.0018,102.8825],[-82.2007,22.9945,112.5916],[-82.1986,22.9845,124.83],[-82.2022,22.9783,129.0461],[-82.2308,22.9625,139.2685],[-82.2308,22.9451,206.4609],[-82.2322,22.9395,185.9675],[-82.2366,22.9368,213.7986],[-82.2501,22.9357,218.844]]]]}
,"properties": {"GID_2": "CUB.12.9_1","GID_0": "CUB","country": "Cuba","GID_1": "CUB.12_1","province": "Mayabeque","NL_NAME_1": "NA","county": "SanJosédelasLajas","VARNAME_2": "NA","NL_NAME_2": "NA","TYPE_2": "Municipio","ENGTYPE_2": "Municipality","CC_2": "NA","HASC_2": "CU.LH.SJ","name": "San_Josédelas_Lajas.county","area_km2": 548.3621,"hist_schema_id": "Elevation0-9000","hist_area_km2": {"25": 0.0782,"50": 23.0588,"75": 57.4337,"100": 113.2641,"125": 136.4907,"150": 89.2404,"175": 54.4339,"200": 36.9975,"225": 23.5445,"250": 12.0446,"275": 1.7759}}}