{"type": "Feature","bbox": [-62.8376,17.8709,-62.797,17.9456],"geometry": {"type": "MultiPolygon","coordinates": [[[[-62.8108,17.8709,0.0],[-62.8112,17.8716,0.0],[-62.8122,17.8713,0.0],[-62.8116,17.8709,0.0],[-62.8108,17.8709,0.0]]],
[[[-62.8126,17.8753,1.4121],[-62.8139,17.8743,0.0],[-62.8111,17.8719,0.0],[-62.8129,17.875,1.4121],[-62.8126,17.8753,1.4121]]],
[[[-62.797,17.9188,1.0152],[-62.7974,17.9213,2.9119],[-62.7989,17.9209,2.9119],[-62.8003,17.9175,0.0],[-62.7997,17.9184,0.0],[-62.797,17.9188,1.0152]]],
[[[-62.8305,17.9418,13.8985],[-62.8368,17.9404,0.0],[-62.8376,17.9375,0.0],[-62.8307,17.9397,1.0963],[-62.8305,17.9418,13.8985]]],
[[[-62.8182,17.9408,0.0],[-62.8177,17.9405,0.0],[-62.8173,17.9409,0.0],[-62.8178,17.9415,0.0],[-62.8182,17.9408,0.0]]],
[[[-62.8176,17.944,0.0],[-62.819,17.9439,1.2775],[-62.8199,17.9427,0.0],[-62.8174,17.9423,0.0],[-62.8176,17.944,0.0]]],
[[[-62.8182,17.9455,0.0],[-62.8188,17.9456,0.0],[-62.8193,17.9444,1.2775],[-62.8183,17.9442,1.2775],[-62.8182,17.9455,0.0]]]]}
,"properties": {"GID_2": "BLM.1.10_1","GID_0": "BLM","country": "Saint-Barthélemy","GID_1": "BLM.1_1","province": "AuVent","NL_NAME_1": "NA","county": "Isles","VARNAME_2": "NA","NL_NAME_2": "NA","TYPE_2": "Quartier","ENGTYPE_2": "Quarter","CC_2": "NA","HASC_2": "NA","name": "Isles.county","area_km2": 0.3227629,"hist_schema_id": "Elevation0-9000","hist_area_km2": {"0": 0.2219017,"25": 0.1008612}}}