{"type":"Feature","properties":{"GID_2":"CUB.4.15_1","GID_0":"CUB","country":"Cuba","GID_1":"CUB.4_1","province":"CiudaddelaHabana","NL_NAME_1":"NA","county":"SanMigueldelPadrón","VARNAME_2":"NA","NL_NAME_2":"NA","TYPE_2":"Municipio","ENGTYPE_2":"Municipality","CC_2":"NA","HASC_2":"CU.CH.SM","name":"San_Migueldel_Padrón.county"},
"geometry":{"type": "MultiPolygon","coordinates": [[[[-82.208,23.0277,104.8292],[-82.2069,23.038,110.8956],[-82.2051,23.0416,115.8819],[-82.1992,23.0458,115.6372],[-82.1816,23.0445,139.0391],[-82.1819,23.059,93.7084],[-82.1898,23.0733,83.4612],[-82.2296,23.1127,36.0432],[-82.2566,23.1217,58.1341],[-82.2952,23.1223,39.9458],[-82.2955,23.0877,45.2441],[-82.2575,23.0702,90.9113],[-82.2526,23.0647,93.3597],[-82.2435,23.0455,115.2765],[-82.208,23.0277,104.8292]]]]}}