{"type":"Feature","properties":{"GID_1":"JAM.6_1","GID_0":"JAM","country":"Jamaica","province":"SaintAndrew","VARNAME_1":"NA","NL_NAME_1":"NA","TYPE_1":"Parish","ENGTYPE_1":"Parish","CC_1":"NA","HASC_1":"JM.SD","ISO_1":"JM-02","name":"Saint_Andrew.province"},
"geometry":{"type": "MultiPolygon","coordinates": [[[[-76.7196,17.9457,1.1199],[-76.7035,17.9485,0.0],[-76.6982,17.9449,2.6221],[-76.6974,17.9424,0.0],[-76.6896,17.9418,0.0],[-76.6882,17.9385,0.0],[-76.6804,17.9376,0.0],[-76.6707,17.9401,0.0],[-76.6693,17.9385,0.0],[-76.6635,17.9374,59.7298],[-76.661,17.9338,0.8622],[-76.657,17.9441,43.423],[-76.6484,17.9472,104.8914],[-76.646,17.9509,136.5976],[-76.6485,17.9667,414.869],[-76.6531,17.9791,707.7714],[-76.6526,17.9828,838.6927],[-76.6485,17.9781,660.0216],[-76.6449,17.977,614.5352],[-76.63,17.977,494.3129],[-76.6198,17.9816,261.2439],[-76.6259,17.9869,386.803],[-76.6268,17.9939,280.6663],[-76.6376,18.0027,391.6466],[-76.6288,18.0115,633.8297],[-76.6291,18.0163,458.1815],[-76.6416,18.0249,535.969],[-76.6529,18.04,688.1594],[-76.652,18.0416,745.0165],[-76.6477,18.0428,745.9121],[-76.6468,18.0472,735.4319],[-76.6403,18.0496,892.0869],[-76.6389,18.0537,793.9117],[-76.639,18.0562,811.988],[-76.6451,18.0614,1067.6826],[-76.6451,18.0633,993.3102],[-76.6415,18.065,979.8798],[-76.6438,18.076,1355.7441],[-76.6404,18.0899,1715.3048],[-76.647,18.0923,1716.1919],[-76.6575,18.0902,1460.0117],[-76.6658,18.0912,1501.4709],[-76.6724,18.0934,1569.6046],[-76.6837,18.101,1339.311],[-76.6865,18.0993,1282.8093],[-76.6928,18.0837,1171.2642],[-76.7036,18.0752,1283.8829],[-76.7069,18.0751,1200.5049],[-76.7153,18.0795,1300.9359],[-76.7243,18.0801,1223.6105],[-76.7366,18.093,1160.2695],[-76.7447,18.1071,1366.0303],[-76.7463,18.1212,1047.6464],[-76.753,18.128,946.7881],[-76.7531,18.1331,1069.1725],[-76.7609,18.1473,1163.8976],[-76.7728,18.1469,747.2062],[-76.7879,18.1543,704.6215],[-76.7952,18.1597,723.0543],[-76.8014,18.1679,629.093],[-76.8145,18.1739,379.2546],[-76.8225,18.1745,133.0421],[-76.821,18.1666,235.2168],[-76.8248,18.1604,267.6384],[-76.8298,18.161,182.44],[-76.8434,18.1708,317.2513],[-76.8514,18.1739,269.4927],[-76.8525,18.1683,309.7589],[-76.8488,18.1675,330.1615],[-76.8502,18.1581,327.3992],[-76.861,18.1536,442.2473],[-76.8685,18.1563,529.0666],[-76.8701,18.1543,429.1141],[-76.8713,18.1388,300.5924],[-76.8709,18.1358,268.0414],[-76.8679,18.1337,290.7817],[-76.8708,18.1295,240.4415],[-76.8716,18.1216,226.5355],[-76.8696,18.1198,263.4055],[-76.8755,18.1173,237.5199],[-76.8652,18.114,253.2945],[-76.863,18.1069,274.4094],[-76.8727,18.08,580.0952],[-76.8862,18.0814,607.89],[-76.8894,18.0751,608.3939],[-76.8777,18.0707,593.8873],[-76.8851,18.0563,377.0385],[-76.8892,18.0342,1.416],[-76.885,18.0322,2.2588],[-76.8782,18.0238,5.4267],[-76.8707,18.0194,2.4157],[-76.8644,18.0198,1.4532],[-76.8555,18.0169,2.6005],[-76.8477,17.9989,1.9422],[-76.8472,17.9949,0.0],[-76.846,18.0032,1.1636],[-76.8446,18.0018,2.1638],[-76.8451,17.9976,1.9591],[-76.8354,17.9965,1.1551],[-76.8351,17.9946,4.4338],[-76.8404,17.9879,1.5467],[-76.8412,17.9793,3.0582],[-76.836,17.9793,1.6694],[-76.8343,17.9749,0.0],[-76.8301,17.9735,0.0],[-76.8282,17.976,0.0],[-76.8313,17.9807,0.0],[-76.8376,17.9837,2.3502],[-76.8365,17.9882,0.6774],[-76.8304,17.9843,2.4614],[-76.8251,17.9785,0.0],[-76.8199,17.9776,1.0122],[-76.8215,17.974,0.5117],[-76.8174,17.9715,0.0],[-76.8145,17.9724,0.1804],[-76.8152,17.9789,4.4548],[-76.811,17.9858,21.1269],[-76.8044,17.9794,16.1396],[-76.8018,17.9809,24.3816],[-76.7972,17.9793,25.5898],[-76.7927,17.9856,42.8591],[-76.7886,17.986,49.3203],[-76.7821,17.9848,44.2944],[-76.7805,17.9826,42.5544],[-76.778,17.9834,42.8509],[-76.7778,17.9794,33.8548],[-76.7552,17.9823,119.8281],[-76.7239,17.9716,117.6285],[-76.7201,17.9716,104.1075],[-76.7226,17.9627,176.2845],[-76.7217,17.9583,44.2913],[-76.7246,17.9507,0.3425],[-76.7196,17.9457,1.1199]]]]}}