{"type":"Feature","properties":{"GID_2":"DOM.29.3_1","GID_0":"DOM","country":"DominicanRepublic","GID_1":"DOM.29_1","province":"SantiagoRodríguez","NL_NAME_1":"NA","county":"SanIgnaciodeSabaneta","VARNAME_2":"NA","NL_NAME_2":"NA","TYPE_2":"Municipio","ENGTYPE_2":"Municipality","CC_2":"NA","HASC_2":"DO.SR.SI","name":"San_Ignaciode_Sabaneta.county"},
"geometry":{"type": "MultiPolygon","coordinates": [[[[-71.4509,19.434,177.6151],[-71.4263,19.4443,137.8388],[-71.4233,19.4441,130.7801],[-71.4201,19.4392,181.2644],[-71.4199,19.4352,168.4045],[-71.428,19.4229,192.7039],[-71.4283,19.4171,204.3684],[-71.4249,19.4151,220.3105],[-71.4166,19.419,186.6042],[-71.4104,19.4189,195.8831],[-71.4052,19.4156,223.1163],[-71.3995,19.4052,243.4343],[-71.399,19.3936,243.4673],[-71.4025,19.3831,386.6284],[-71.4059,19.3804,243.8938],[-71.4134,19.3793,278.3468],[-71.4177,19.3755,308.1063],[-71.4235,19.3733,336.0702],[-71.4257,19.3702,294.5807],[-71.4259,19.3663,301.425],[-71.4243,19.3636,307.4861],[-71.4197,19.3631,320.5154],[-71.4114,19.3673,351.1644],[-71.4042,19.3663,341.5665],[-71.3955,19.3679,294.2857],[-71.3904,19.3647,335.1502],[-71.3818,19.3514,455.4948],[-71.3795,19.3404,498.7866],[-71.381,19.3339,459.1456],[-71.3809,19.3229,473.2986],[-71.3758,19.3092,520.4494],[-71.376,19.3061,532.9118],[-71.3798,19.3009,586.7924],[-71.3985,19.2907,619.8409],[-71.4049,19.2898,699.9288],[-71.4078,19.287,697.2581],[-71.406,19.283,753.895],[-71.3973,19.2766,807.9817],[-71.3917,19.2664,792.7023],[-71.3829,19.2625,761.5544],[-71.3773,19.2538,788.5312],[-71.365,19.2528,731.1575],[-71.3618,19.2509,756.2108],[-71.3655,19.2365,910.0938],[-71.3586,19.2162,977.4466],[-71.3609,19.208,1051.9496],[-71.3648,19.2026,1406.4148],[-71.3471,19.1855,1480.0842],[-71.3417,19.1851,1492.2832],[-71.3354,19.1871,1468.0918],[-71.3322,19.183,1550.5784],[-71.3255,19.1843,1613.3011],[-71.3226,19.183,1628.9133],[-71.3132,19.1768,1801.1592],[-71.3038,19.1651,1459.4637],[-71.2906,19.1652,1405.0625],[-71.2764,19.1704,1548.0142],[-71.2672,19.1653,1695.8313],[-71.2536,19.162,1732.0558],[-71.2071,19.1709,1867.7139],[-71.2093,19.1925,1618.8857],[-71.213,19.1993,1539.8523],[-71.2198,19.2058,1226.7358],[-71.2176,19.2132,1262.5295],[-71.2182,19.2207,1245.132],[-71.2255,19.2265,1064.3462],[-71.2276,19.2341,1114.282],[-71.235,19.2365,891.5399],[-71.247,19.2528,914.2907],[-71.2465,19.2554,942.8723],[-71.2441,19.2573,911.3992],[-71.2337,19.2554,862.8728],[-71.23,19.2606,896.5201],[-71.235,19.2727,832.0636],[-71.2355,19.2777,822.2902],[-71.2352,19.2872,707.0385],[-71.2311,19.3011,730.0537],[-71.2379,19.3091,581.9784],[-71.2446,19.3076,568.9086],[-71.2503,19.2999,707.2902],[-71.2544,19.2988,674.2798],[-71.2614,19.3111,568.8061],[-71.2623,19.3192,569.1559],[-71.2527,19.3394,567.7214],[-71.2428,19.3531,511.7131],[-71.2463,19.3643,515.2169],[-71.2375,19.37,540.4653],[-71.2214,19.3687,334.5563],[-71.2109,19.3962,438.6225],[-71.2078,19.4005,405.1535],[-71.2003,19.4027,416.1997],[-71.2,19.409,347.4145],[-71.2055,19.4233,320.2007],[-71.2019,19.4356,276.6006],[-71.1965,19.4403,262.2935],[-71.1833,19.4413,292.2582],[-71.1795,19.4466,260.9324],[-71.1785,19.4567,250.2532],[-71.175,19.4663,233.7321],[-71.1705,19.4698,236.4514],[-71.1673,19.4851,249.7024],[-71.1712,19.498,203.9515],[-71.1786,19.5066,164.5181],[-71.1774,19.5169,194.9376],[-71.1784,19.5238,331.1549],[-71.1925,19.5288,160.2398],[-71.1984,19.538,294.8672],[-71.2027,19.5396,297.3559],[-71.2068,19.5385,266.1281],[-71.2125,19.5332,294.8216],[-71.2218,19.5178,256.8128],[-71.2386,19.525,258.3571],[-71.2471,19.5236,216.7554],[-71.259,19.5292,266.6618],[-71.2678,19.5363,331.8283],[-71.2812,19.543,314.603],[-71.2862,19.548,300.4704],[-71.301,19.5524,205.0522],[-71.3071,19.5593,270.2872],[-71.3191,19.5624,274.8187],[-71.3217,19.5603,274.207],[-71.32,19.5516,235.308],[-71.3218,19.5467,190.4574],[-71.3267,19.5409,170.4218],[-71.3306,19.5387,176.388],[-71.3363,19.5409,148.7779],[-71.342,19.5458,156.7856],[-71.3596,19.5491,128.8859],[-71.3736,19.5465,110.1806],[-71.3837,19.5498,96.6526],[-71.3889,19.5545,86.1369],[-71.3988,19.5545,74.1531],[-71.4044,19.5508,69.0436],[-71.4033,19.5431,62.193],[-71.405,19.5375,85.193],[-71.4118,19.5277,96.63],[-71.4157,19.5265,97.1388],[-71.4174,19.5196,98.4525],[-71.4222,19.5145,100.8734],[-71.4237,19.5052,104.15],[-71.4319,19.5034,112.6928],[-71.4433,19.4982,143.5454],[-71.4547,19.4874,176.7314],[-71.4544,19.4842,161.7563],[-71.4494,19.4762,140.2911],[-71.4503,19.4713,138.8018],[-71.4571,19.468,156.2711],[-71.4532,19.4587,151.0087],[-71.4553,19.4525,165.29],[-71.4552,19.4412,199.6699],[-71.4509,19.434,177.6151]]]]}}