{"type": "Feature","bbox": [-72.8246,18.9422,-72.5473,19.2612],"geometry": {"type": "MultiPolygon","coordinates": [[[[-72.7029,19.1087,2.0038],[-72.7065,19.1015,2.9889],[-72.7128,19.096,0.8235],[-72.7207,19.0943,0.0],[-72.7296,19.0885,49.9434],[-72.7515,19.0893,0.0],[-72.7596,19.0932,1.1241],[-72.7718,19.0935,2.5814],[-72.8096,19.079,0.0],[-72.8215,19.0674,0.3088],[-72.8246,19.0587,0.0],[-72.8207,19.0421,0.0],[-72.8104,19.0301,0.0],[-72.8032,19.0279,0.0],[-72.7988,19.0282,0.0],[-72.7921,19.0243,0.0],[-72.7796,19.0203,0.0],[-72.7757,19.0171,0.0],[-72.7629,19.0135,0.0],[-72.7593,19.0068,0.0],[-72.7465,18.9977,0.0],[-72.7426,18.9926,0.6963],[-72.7387,18.9912,0.0],[-72.7379,18.9835,0.0],[-72.736,18.9826,10.1798],[-72.7291,18.9718,0.0],[-72.7299,18.9646,1.5267],[-72.7274,18.9532,1.4518],[-72.7151,18.949,7.6064],[-72.71,18.9422,2.6625],[-72.7082,18.948,15.7021],[-72.7058,18.949,21.6793],[-72.7051,18.9522,30.9459],[-72.6998,18.956,50.0906],[-72.6993,18.9584,50.4989],[-72.6918,18.9626,77.1884],[-72.6886,18.967,93.9957],[-72.6845,18.9674,121.2109],[-72.6816,18.973,111.5431],[-72.679,18.9739,153.8887],[-72.6768,18.9712,142.6822],[-72.6786,18.9685,192.1972],[-72.6706,18.9685,166.0016],[-72.6643,18.9721,186.6201],[-72.6611,18.9679,192.0171],[-72.6576,18.9673,205.3946],[-72.6538,18.9711,298.0212],[-72.65,18.9722,319.3486],[-72.6462,18.9728,227.5593],[-72.638,18.9708,236.785],[-72.6351,18.9733,268.0446],[-72.6354,18.9759,379.5902],[-72.6334,18.976,282.7138],[-72.6318,18.9729,308.0877],[-72.6282,18.9771,401.3297],[-72.627,18.9726,344.6161],[-72.6233,18.9728,342.1749],[-72.6232,18.9707,368.2732],[-72.6198,18.9711,370.1681],[-72.6173,18.9762,384.0197],[-72.6081,18.9744,374.1206],[-72.6034,18.9752,382.5442],[-72.6009,18.9729,387.566],[-72.6016,18.972,425.0554],[-72.5981,18.9715,412.674],[-72.5941,18.9737,404.4617],[-72.5923,18.9844,787.5735],[-72.5889,18.9912,811.6241],[-72.5892,18.9964,1016.2028],[-72.5835,19.0031,1025.5254],[-72.5838,19.0117,1151.6217],[-72.5799,19.0179,1116.8496],[-72.5866,19.0293,856.4282],[-72.5848,19.035,627.3047],[-72.5768,19.0437,491.5358],[-72.5687,19.047,349.7538],[-72.5634,19.0536,310.0178],[-72.5604,19.0621,252.4827],[-72.5559,19.0663,254.1327],[-72.5562,19.069,214.1915],[-72.5532,19.0703,203.0514],[-72.5537,19.0753,191.136],[-72.5475,19.0772,319.514],[-72.5473,19.0791,322.9799],[-72.5546,19.0832,235.9244],[-72.558,19.0899,173.7289],[-72.558,19.0944,153.5833],[-72.5528,19.1013,97.1914],[-72.5546,19.1062,98.4694],[-72.5856,19.1259,110.2177],[-72.6061,19.1333,135.4228],[-72.6086,19.1374,107.9555],[-72.6078,19.1493,13.8947],[-72.6167,19.1572,16.8601],[-72.621,19.1575,14.7333],[-72.6252,19.1632,16.9169],[-72.6289,19.1652,15.7761],[-72.6261,19.17,14.9052],[-72.6225,19.1691,14.8243],[-72.6195,19.1649,15.2926],[-72.617,19.1655,14.3723],[-72.6195,19.1712,12.7088],[-72.6253,19.1714,16.728],[-72.6265,19.1733,14.2693],[-72.6245,19.1822,13.0647],[-72.6196,19.1805,13.9133],[-72.6147,19.1843,13.8795],[-72.617,19.1882,13.4771],[-72.6242,19.1886,13.4827],[-72.6226,19.1966,11.3056],[-72.6208,19.1962,12.3249],[-72.62,19.192,12.0617],[-72.6155,19.1924,10.5376],[-72.6107,19.1847,12.2428],[-72.6078,19.1901,10.5079],[-72.6045,19.1915,11.6719],[-72.6074,19.199,10.5564],[-72.6006,19.2014,10.7023],[-72.6023,19.2036,10.9014],[-72.608,19.2036,10.7127],[-72.6106,19.2066,10.2655],[-72.6149,19.2057,11.7091],[-72.6144,19.2104,10.0933],[-72.6172,19.2122,9.4254],[-72.617,19.2147,9.6769],[-72.6155,19.2163,9.1991],[-72.6124,19.2151,9.3488],[-72.6103,19.2097,10.3311],[-72.6058,19.2087,10.6068],[-72.6033,19.2108,10.0691],[-72.6109,19.2163,9.0777],[-72.612,19.2196,9.6837],[-72.6166,19.2184,8.8349],[-72.6193,19.2212,9.3178],[-72.6211,19.2128,8.8746],[-72.6237,19.2127,9.0339],[-72.6282,19.2156,8.042],[-72.6345,19.2122,9.2809],[-72.6353,19.2166,9.2232],[-72.6293,19.2224,7.9034],[-72.6354,19.2246,8.5855],[-72.6348,19.2305,9.1242],[-72.6386,19.2289,8.1976],[-72.6424,19.2203,8.5695],[-72.6436,19.2213,8.5304],[-72.6425,19.2251,7.5092],[-72.6468,19.2288,6.6093],[-72.6539,19.228,8.0395],[-72.6594,19.2208,5.4293],[-72.6602,19.2242,7.2343],[-72.6666,19.2218,6.6474],[-72.6714,19.2264,6.4315],[-72.6681,19.2394,5.5566],[-72.663,19.2405,6.6181],[-72.6684,19.2418,5.8603],[-72.6709,19.2467,6.6225],[-72.6839,19.2497,5.7534],[-72.6856,19.2525,4.5821],[-72.6841,19.2565,6.4763],[-72.6858,19.2577,5.6381],[-72.6892,19.2543,4.8329],[-72.6882,19.251,4.1203],[-72.6886,19.2489,4.3289],[-72.6913,19.2475,5.0998],[-72.6906,19.2432,4.8646],[-72.6965,19.2484,4.3874],[-72.6964,19.2517,4.0968],[-72.6932,19.2549,5.679],[-72.6976,19.258,5.0258],[-72.7038,19.255,3.5923],[-72.7044,19.2501,3.2852],[-72.7064,19.2487,3.7688],[-72.7101,19.2498,5.1864],[-72.7129,19.2482,5.8438],[-72.7123,19.2455,4.9448],[-72.7069,19.2441,3.8941],[-72.7068,19.2422,2.588],[-72.709,19.2415,3.8369],[-72.7129,19.2432,3.6521],[-72.7165,19.248,4.0716],[-72.7181,19.2446,4.6767],[-72.7206,19.2441,3.4786],[-72.7209,19.25,5.0022],[-72.7263,19.2477,3.7945],[-72.7301,19.2537,2.3623],[-72.7306,19.2589,2.1111],[-72.7327,19.2583,1.9137],[-72.7328,19.2552,2.071],[-72.7366,19.2539,2.9153],[-72.7399,19.2558,2.965],[-72.7399,19.2575,2.0064],[-72.7459,19.2566,3.3148],[-72.7469,19.2612,1.7811],[-72.7491,19.2576,1.7054],[-72.7479,19.2514,0.8306],[-72.7503,19.2537,1.9484],[-72.752,19.2525,1.8049],[-72.7525,19.2488,1.2787],[-72.7546,19.2556,1.6233],[-72.7597,19.2567,1.2287],[-72.7608,19.2555,0.6937],[-72.7562,19.2479,0.6454],[-72.761,19.2505,0.297],[-72.7707,19.2483,0.0],[-72.7754,19.2397,0.1747],[-72.7795,19.2376,0.1247],[-72.7845,19.2375,0.0],[-72.7862,19.2346,0.048],[-72.7849,19.2313,0.0],[-72.7762,19.2263,0.0],[-72.7735,19.2301,0.5971],[-72.7737,19.233,1.3862],[-72.7704,19.2399,0.0],[-72.7635,19.2415,0.5152],[-72.7596,19.2379,0.8774],[-72.7571,19.2379,1.2052],[-72.756,19.2351,0.0],[-72.7529,19.2337,0.8366],[-72.7532,19.2323,0.8366],[-72.7578,19.231,0.913],[-72.7674,19.2321,0.0],[-72.7704,19.2301,1.583],[-72.7746,19.2229,1.3567],[-72.7793,19.2207,0.8537],[-72.7799,19.2253,0.1975],[-72.783,19.2201,0.5451],[-72.7866,19.2191,0.0],[-72.7906,19.2196,2.8695],[-72.7954,19.2232,5.5356],[-72.7999,19.221,0.0],[-72.7932,19.2149,3.6483],[-72.7938,19.211,0.0],[-72.7904,19.2096,0.0],[-72.7904,19.2065,0.0],[-72.7859,19.2063,0.0],[-72.7822,19.2023,0.6005],[-72.7825,19.2001,0.0],[-72.7774,19.1964,0.0],[-72.7764,19.1915,0.0],[-72.7718,19.1863,0.0],[-72.7646,19.171,6.5135],[-72.7651,19.1688,0.0],[-72.761,19.1632,0.0],[-72.7577,19.1618,0.0],[-72.7443,19.1482,4.3638],[-72.7304,19.1413,0.0],[-72.7229,19.1401,0.0],[-72.7149,19.1357,15.3852],[-72.7112,19.1354,6.9748],[-72.701,19.1285,49.3121],[-72.6999,19.1193,3.0691],[-72.7038,19.1099,0.0],[-72.7029,19.1087,2.0038]]]]}
,"properties": {"GID_3": "HTI.3.5.2_1","GID_0": "HTI","country": "Haiti","GID_1": "HTI.3_1","province": "L'Artibonite","NL_NAME_1": "NA","GID_2": "HTI.3.5_1","county": "Saint-Marc","NL_NAME_2": "NA","city": "Saint-Marc","VARNAME_3": "NA","NL_NAME_3": "NA","TYPE_3": "Commune","ENGTYPE_3": "Commune","CC_3": "NA","HASC_3": "NA","name": "Saint-Marc.city","area_km2": 560.445,"hist_schema_id": "Elevation0-9000","hist_area_km2": {"0": 125.5036,"25": 38.2429,"50": 25.6049,"75": 27.0083,"100": 30.6158,"125": 28.8734,"150": 26.168,"175": 24.4443,"200": 20.6377,"225": 19.1561,"250": 18.0541,"275": 15.6906,"300": 14.4284,"325": 13.5869,"350": 12.8456,"375": 9.0386,"400": 6.1732,"425": 4.0889,"450": 3.5278,"475": 3.4676,"500": 3.2473,"525": 3.7082,"550": 3.4276,"575": 3.0668,"600": 2.8263,"625": 3.0668,"650": 2.6659,"675": 2.6458,"700": 2.6859,"725": 2.5657,"750": 2.6257,"775": 2.6459,"800": 3.1069,"825": 2.706,"850": 2.6259,"875": 2.285,"900": 3.0267,"925": 2.3652,"950": 2.2249,"975": 2.6058,"1000": 2.3653,"1025": 2.4054,"1050": 3.2273,"1075": 3.8687,"1100": 4.4901,"1125": 4.4501,"1150": 4.2296,"1175": 3.989,"1200": 3.8488,"1225": 2.8064,"1250": 1.1627,"1275": 0.3208}}}