{"type": "Feature","bbox": [-70.8885,19.571,-70.6988,19.713],"geometry": {"type": "MultiPolygon","coordinates": [[[[-70.8885,19.6474,773.8558],[-70.8822,19.6468,721.2233],[-70.8701,19.64,525.8358],[-70.8611,19.6384,600.9911],[-70.8471,19.6319,496.1806],[-70.8364,19.6332,477.4741],[-70.8255,19.6298,575.9872],[-70.817,19.6222,476.853],[-70.8116,19.6225,527.0449],[-70.8065,19.6269,557.6566],[-70.7987,19.6241,566.7771],[-70.7842,19.6139,743.0347],[-70.766,19.5913,751.9408],[-70.7604,19.5889,774.5791],[-70.7518,19.5902,1126.8131],[-70.7478,19.5877,1070.8561],[-70.7453,19.5839,1059.0432],[-70.7444,19.5738,1055.4717],[-70.741,19.571,972.933],[-70.7232,19.5773,772.3666],[-70.7078,19.5861,627.05],[-70.7038,19.5904,653.6573],[-70.6988,19.6032,468.8368],[-70.7009,19.6097,729.9513],[-70.7057,19.6164,837.7451],[-70.7017,19.6274,474.5939],[-70.7033,19.6353,457.3265],[-70.7084,19.6406,530.0052],[-70.7117,19.6469,549.2616],[-70.7132,19.6611,560.0308],[-70.7258,19.674,336.4493],[-70.7304,19.685,297.2294],[-70.744,19.6882,299.5314],[-70.75,19.6945,320.2094],[-70.7513,19.7024,568.7493],[-70.7536,19.7059,628.4053],[-70.7685,19.713,407.8423],[-70.7755,19.7097,286.8407],[-70.7838,19.7119,316.9898],[-70.7923,19.7115,295.6205],[-70.8041,19.7046,163.8339],[-70.8107,19.7026,196.4686],[-70.8171,19.6961,264.0317],[-70.8204,19.6951,271.8849],[-70.8249,19.6958,303.8177],[-70.8309,19.7007,235.0281],[-70.8465,19.7012,231.0361],[-70.8626,19.7065,432.4509],[-70.8741,19.7068,292.6078],[-70.882,19.7034,264.0712],[-70.8846,19.6991,264.0498],[-70.8812,19.6853,323.8324],[-70.874,19.6794,386.1031],[-70.8729,19.6759,424.1484],[-70.8779,19.6699,459.3405],[-70.8794,19.6621,586.483],[-70.8866,19.6537,767.4123],[-70.8885,19.6474,773.8558]]]]}
,"properties": {"GID_2": "DOM.21.1_1","GID_0": "DOM","country": "DominicanRepublic","GID_1": "DOM.21_1","province": "PuertoPlata","NL_NAME_1": "NA","county": "Altamira","VARNAME_2": "NA","NL_NAME_2": "NA","TYPE_2": "Municipio","ENGTYPE_2": "Municipality","CC_2": "NA","HASC_2": "DO.PP.AL","name": "Altamira.county","area_km2": 178.4074,"hist_schema_id": "Elevation0-9000","hist_area_km2": {"150": 0.2994,"175": 1.4173,"200": 2.5352,"225": 4.0524,"250": 6.7475,"275": 8.8237,"300": 10.441,"325": 10.9004,"350": 11.6593,"375": 10.7812,"400": 10.3622,"425": 10.2627,"450": 9.7439,"475": 8.666,"500": 8.4067,"525": 6.9492,"550": 5.851,"575": 5.6913,"600": 5.5517,"625": 4.8728,"650": 3.7944,"675": 4.0143,"700": 3.6547,"725": 3.1755,"750": 3.1555,"775": 2.9759,"800": 2.1771,"825": 2.0174,"850": 1.6978,"875": 1.8576,"900": 1.3582,"925": 0.9987,"950": 0.9388,"975": 0.5593,"1000": 0.5992,"1025": 0.4594,"1050": 0.1598,"1075": 0.3396,"1100": 0.0999,"1125": 0.1798,"1150": 0.0799,"1175": 0.0999}}}