{"type":"Feature","properties":{"GID_2":"CUB.13.6_1","GID_0":"CUB","country":"Cuba","GID_1":"CUB.13_1","province":"PinardelRío","NL_NAME_1":"NA","county":"LosPalacios","VARNAME_2":"NA","NL_NAME_2":"NA","TYPE_2":"Municipio","ENGTYPE_2":"Municipality","CC_2":"NA","HASC_2":"CU.PR.LS","name":"Los_Palacios.county"},
"geometry":{"type": "MultiPolygon","coordinates": [[[[-83.2712,22.3377,0.294],[-83.2643,22.3465,1.2772],[-83.2538,22.3499,0.7844],[-83.2432,22.3504,0.0],[-83.2387,22.3493,0.6908],[-83.2296,22.341,0.379],[-83.2274,22.3415,0.0],[-83.2271,22.3432,1.6333],[-83.2324,22.3487,0.3267],[-83.229,22.3488,0.5707],[-83.2243,22.3432,0.3027],[-83.2215,22.3429,0.6044],[-83.2162,22.3329,0.0],[-83.2096,22.3299,0.0],[-83.1929,22.3276,0.4692],[-83.1899,22.3304,0.4921],[-83.1849,22.3296,0.0],[-83.1707,22.3324,0.2407],[-83.1668,22.3368,0.4596],[-83.1546,22.344,0.3367],[-83.144,22.3571,0.0],[-83.1415,22.3657,0.7212],[-83.1365,22.3726,0.1291],[-83.1321,22.3885,0.977],[-83.1235,22.3976,0.0],[-83.1215,22.411,0.4281],[-83.1132,22.426,1.2594],[-83.1074,22.4329,0.9236],[-83.104,22.4501,1.049],[-83.101,22.4501,0.0],[-83.0949,22.4582,1.348],[-83.0901,22.4618,0.0],[-83.0848,22.4701,1.4715],[-83.1101,22.5044,1.1198],[-83.1297,22.5252,5.8502],[-83.1482,22.5594,14.4758],[-83.1672,22.6119,30.1716],[-83.1697,22.6781,64.2724],[-83.1925,22.711,258.8623],[-83.2023,22.7189,260.7867],[-83.211,22.7213,478.8001],[-83.2268,22.7202,411.8748],[-83.2457,22.7135,450.4358],[-83.2691,22.7127,516.8504],[-83.2875,22.7141,475.797],[-83.304,22.7201,521.8162],[-83.3293,22.7225,413.0926],[-83.3898,22.7202,213.4895],[-83.4144,22.7092,164.8441],[-83.4274,22.6875,133.3369],[-83.4304,22.6583,384.8789],[-83.4408,22.6279,131.8869],[-83.3867,22.6535,108.5793],[-83.3748,22.6552,78.0804],[-83.3298,22.6443,64.1292],[-83.3181,22.6375,93.7341],[-83.3082,22.6229,65.498],[-83.3,22.6065,71.5991],[-83.298,22.5955,75.0309],[-83.2963,22.4293,12.1149],[-83.2887,22.4069,9.1498],[-83.286,22.374,7.4646],[-83.2746,22.3377,1.3091],[-83.2712,22.3377,0.294]]]]}}