{"type": "Feature","bbox": [-61.1693,14.656,-61.1237,14.6912],"geometry": {"type": "MultiPolygon","coordinates": [[[[-61.154,14.656,12.04],[-61.1299,14.6692,404.3279],[-61.1315,14.6744,367.0967],[-61.1237,14.6912,599.5983],[-61.1502,14.6909,287.5509],[-61.1569,14.6876,189.2342],[-61.1693,14.6774,12.23],[-61.1629,14.6707,30.577],[-61.161,14.664,2.0568],[-61.1585,14.6629,40.1544],[-61.1576,14.6562,0.0],[-61.154,14.656,12.04]]]]}
,"properties": {"GID_2": "MTQ.4.1_1","GID_0": "MTQ","country": "Martinique","GID_1": "MTQ.4_1","province": "Saint-Pierre","NL_NAME_1": "NA","county": "Bellefontaine","VARNAME_2": "NA","NL_NAME_2": "NA","TYPE_2": "Commune","ENGTYPE_2": "Commune","CC_2": "NA","HASC_2": "MQ.SP.BF","name": "Bellefontaine.county","area_km2": 11.75248,"hist_schema_id": "Elevation0-9000","hist_area_km2": {"0": 0.410221,"25": 0.656358,"50": 0.533288,"75": 0.553797,"100": 0.533286,"125": 0.697373,"150": 0.430723,"175": 0.615328,"200": 0.533279,"225": 0.369191,"250": 0.53328,"275": 0.471739,"300": 0.492254,"325": 0.574289,"350": 0.635815,"375": 0.55377,"400": 0.389689,"425": 0.430708,"450": 0.492235,"475": 0.348663,"500": 0.307646,"525": 0.328153,"550": 0.246113,"575": 0.184585,"600": 0.246112,"625": 0.102547,"650": 0.082038}}}