{"type": "Feature","id": "5100","bbox": [-62.86107,17.33015,-62.80762,17.38228],"geometry": {"type": "Polygon","coordinates": [[[-62.80762,17.36671,883.9343],[-62.83616,17.37255,247.9091],[-62.83487,17.37969,230.0285],[-62.8407,17.38228,153.3658],[-62.8446,17.37709,104.2443],[-62.85664,17.38043,46.185],[-62.86107,17.36229,0.0],[-62.83161,17.33015,0.0],[-62.82449,17.34141,78.3469],[-62.8193,17.35309,291.623],[-62.81476,17.35309,351.9407],[-62.80762,17.36671,883.9343]]]}
,"properties": {"ISO3166-1-Alpha-3": "KNA","country": "Saint Kitts and Nevis","fill": "#F0F","name": "Saint Anne Sandy Point","area_km2": 16.5737,"hist_schema_id": "Elevation0-9000","hist_area_km2": {"0": 2.26659,"25": 1.57851,"50": 1.86174,"75": 1.47725,"100": 1.15347,"125": 1.09277,"150": 0.93087,"175": 0.91063,"200": 0.7285,"225": 0.48568,"250": 0.30354,"275": 0.20237,"300": 0.34401,"325": 0.24284,"350": 0.14166,"375": 0.26307,"400": 0.20236,"425": 0.2226,"450": 0.14165,"475": 0.14165,"500": 0.16189,"525": 0.20236,"550": 0.16189,"575": 0.18212,"600": 0.14165,"625": 0.18212,"650": 0.10118,"675": 0.04047,"700": 0.10118,"725": 0.14165,"750": 0.10118,"775": 0.02024,"800": 0.04047,"825": 0.06071,"850": 0.06071,"875": 0.04047,"925": 0.10118,"950": 0.04047}}}