{"type": "Feature","bbox": [-62.864,17.3451,-62.8102,17.3908],"geometry": {"type": "MultiPolygon","coordinates": [[[[-62.8425,17.3451,0.0],[-62.8408,17.3492,53.6633],[-62.8266,17.3627,386.3372],[-62.8209,17.3629,541.2981],[-62.8119,17.3695,879.4175],[-62.8102,17.3724,871.9454],[-62.8332,17.3782,269.7742],[-62.8394,17.3825,166.7878],[-62.8456,17.383,110.4377],[-62.8458,17.3897,93.0197],[-62.8494,17.3902,82.8376],[-62.851,17.3856,83.8728],[-62.8621,17.3908,11.8356],[-62.864,17.3874,0.0],[-62.864,17.3701,0.0],[-62.8532,17.3624,0.0],[-62.8479,17.3543,3.0724],[-62.8479,17.3482,0.0],[-62.8425,17.3451,0.0]]]]}
,"properties": {"GID_1": "KNA.2_1","GID_0": "KNA","country": "SaintKittsandNevis","province": "SaintAnneSandyPoint","VARNAME_1": "NA","NL_NAME_1": "NA","TYPE_1": "Parish","ENGTYPE_1": "Parish","CC_1": "NA","HASC_1": "KN.AS","ISO_1": "KN-02","name": "Saint_Anne_Sandy_Point.province","area_km2": 13.27437,"hist_schema_id": "Elevation0-9000","hist_area_km2": {"0": 0.4452,"25": 1.90214,"50": 2.14494,"75": 1.61881,"100": 1.31527,"125": 0.72847,"150": 0.60706,"175": 0.50588,"200": 0.46541,"225": 0.20236,"250": 0.28329,"275": 0.20235,"300": 0.26306,"325": 0.08094,"350": 0.10118,"375": 0.16188,"400": 0.14165,"425": 0.14165,"450": 0.10118,"475": 0.10118,"500": 0.16188,"525": 0.12141,"550": 0.14165,"575": 0.22259,"600": 0.08094,"625": 0.10118,"650": 0.14165,"675": 0.10118,"700": 0.12141,"725": 0.16188,"750": 0.10118,"775": 0.02024,"800": 0.04047,"825": 0.06071,"850": 0.10118,"875": 0.08094}}}