{"type": "Feature","bbox": [-74.0423,18.3822,-73.6985,18.644],"geometry": {"type": "MultiPolygon","coordinates": [[[[-73.9751,18.4879,555.6123],[-73.9829,18.492,613.7358],[-73.9836,18.4951,556.9442],[-73.9817,18.4979,522.4829],[-73.9835,18.5035,501.9229],[-73.9897,18.5092,489.6867],[-73.9851,18.5098,482.6546],[-73.9824,18.5132,394.3261],[-73.9803,18.5112,411.1399],[-73.9703,18.5114,371.088],[-73.9671,18.5093,422.0574],[-73.9601,18.502,465.4918],[-73.9559,18.4942,567.3552],[-73.9522,18.4953,544.2258],[-73.9481,18.4914,621.9221],[-73.9414,18.4977,353.2285],[-73.9392,18.4927,478.1009],[-73.9303,18.4869,578.0377],[-73.9266,18.4874,517.0922],[-73.92,18.485,559.5981],[-73.914,18.4858,498.9599],[-73.8999,18.4919,369.7188],[-73.897,18.4865,515.5126],[-73.8892,18.4907,342.3972],[-73.8833,18.4869,417.679],[-73.8736,18.4916,311.4211],[-73.872,18.4928,250.6007],[-73.8714,18.5039,161.3345],[-73.8697,18.5078,211.7101],[-73.8651,18.5159,263.3817],[-73.8569,18.5231,310.4811],[-73.855,18.5266,306.8025],[-73.8553,18.5344,298.0325],[-73.8512,18.5419,309.6],[-73.851,18.5501,226.1189],[-73.8451,18.5587,94.063],[-73.8388,18.5624,65.3444],[-73.8361,18.569,0.0],[-73.8396,18.5671,3.6367],[-73.8402,18.5701,0.0],[-73.8424,18.5699,26.4707],[-73.8418,18.572,7.3663],[-73.8465,18.5699,24.8414],[-73.8464,18.5725,0.0],[-73.8491,18.5702,24.6459],[-73.8501,18.5661,46.7548],[-73.8524,18.5674,15.855],[-73.8512,18.5699,2.6047],[-73.8525,18.5725,0.0],[-73.8546,18.571,9.0317],[-73.856,18.5726,0.0],[-73.8585,18.5701,0.927],[-73.8664,18.5716,12.5381],[-73.8698,18.5694,8.4895],[-73.8724,18.5701,36.6062],[-73.8721,18.5724,0.0],[-73.8732,18.5724,0.0],[-73.8766,18.5697,20.5761],[-73.8815,18.5707,0.0],[-73.8901,18.5685,2.1982],[-73.9011,18.5691,0.0],[-73.9033,18.5665,2.1766],[-73.9045,18.571,0.2722],[-73.9024,18.5706,0.0],[-73.9023,18.5724,0.0],[-73.9046,18.5739,0.1282],[-73.9051,18.5776,0.0],[-73.9076,18.5735,0.1649],[-73.9096,18.5732,0.8417],[-73.9126,18.5746,0.0],[-73.9128,18.5761,0.0],[-73.9121,18.578,0.0],[-73.9118,18.5765,0.0],[-73.909,18.5771,0.0],[-73.9085,18.5796,0.0],[-73.9163,18.5793,0.0],[-73.9135,18.5829,0.5818],[-73.9147,18.5857,0.0],[-73.911,18.5857,0.0],[-73.9091,18.5878,0.0],[-73.9129,18.5876,0.2734],[-73.9149,18.586,0.0],[-73.9147,18.5875,0.0],[-73.9167,18.5879,0.0848],[-73.9163,18.5901,0.0],[-73.924,18.5901,1.5601],[-73.926,18.5938,0.0],[-73.9313,18.5949,0.4886],[-73.9365,18.5896,0.3649],[-73.9425,18.589,3.1569],[-73.9504,18.5963,11.5321],[-73.9546,18.5965,14.2023],[-73.9611,18.6006,0.0],[-73.9601,18.593,73.692],[-73.9576,18.5882,80.3799],[-73.9623,18.5819,229.2617],[-73.9621,18.5697,397.4644],[-73.9562,18.5621,157.0611],[-73.9516,18.5612,154.7779],[-73.9464,18.5559,226.8947],[-73.9457,18.5532,288.2104],[-73.9519,18.5471,308.8268],[-73.9525,18.5446,276.8797],[-73.9458,18.5342,98.4364],[-73.9461,18.5322,99.9837],[-73.9617,18.5245,154.3032],[-73.968,18.526,165.9502],[-73.9798,18.5208,235.5526],[-73.9891,18.5237,239.2961],[-73.996,18.5228,270.5116],[-74.0018,18.526,239.3685],[-74.0048,18.5223,264.6372],[-74.017,18.5178,361.7906],[-74.0245,18.509,423.8239],[-74.0386,18.5054,172.7367],[-74.0379,18.5034,172.2929],[-74.0415,18.501,190.2817],[-74.0409,18.4977,210.0971],[-74.0377,18.4952,252.4672],[-74.0351,18.4896,229.9487],[-74.0336,18.489,215.9954],[-74.0311,18.4915,225.7999],[-74.0296,18.4819,243.922],[-74.0308,18.4802,269.8591],[-74.0381,18.4787,259.1471],[-74.0417,18.4704,295.6174],[-74.0408,18.4607,308.0486],[-74.0423,18.4566,309.4656],[-74.0374,18.4532,339.2873],[-74.0339,18.4529,529.6052],[-74.0328,18.449,598.6553],[-74.0331,18.4439,690.8885],[-74.0378,18.4357,879.0392],[-74.0371,18.4326,880.9056],[-74.0296,18.434,920.1093],[-74.0277,18.4282,1050.7394],[-74.0304,18.4225,1187.5096],[-74.0315,18.41,928.5234],[-74.0407,18.3931,1722.218],[-74.0413,18.3875,2100.5283],[-74.0355,18.3874,2145.7559],[-74.0319,18.384,2290.3193],[-74.0229,18.3822,2280.1567],[-74.0027,18.3836,1922.7457],[-74.0032,18.3934,1296.3528],[-74.0013,18.4067,871.5568],[-73.9937,18.4228,1137.4816],[-73.9968,18.4316,778.2891],[-73.9966,18.4357,687.5193],[-73.9911,18.4407,705.6592],[-73.9892,18.4484,824.6867],[-73.9819,18.4532,1023.0316],[-73.9873,18.4608,853.4615],[-73.9867,18.4647,804.1439],[-73.9893,18.4677,779.4837],[-73.9878,18.4701,772.6002],[-73.9755,18.4683,826.5138],[-73.9716,18.469,730.0328],[-73.9702,18.4709,758.303],[-73.9804,18.4778,625.5823],[-73.9725,18.4837,609.0107],[-73.973,18.4867,546.7371],[-73.9751,18.4879,555.6123]]],
[[[-73.8854,18.5888,0.0],[-73.8899,18.5879,0.0],[-73.8899,18.5854,0.0],[-73.8874,18.5879,0.0],[-73.8854,18.5888,0.0]]],
[[[-73.8082,18.6151,18.7972],[-73.8104,18.6157,0.0],[-73.8107,18.6135,2.4822],[-73.8151,18.6096,3.8906],[-73.816,18.6057,1.2677],[-73.8121,18.6065,11.2477],[-73.8112,18.6049,0.0],[-73.8074,18.6049,0.0],[-73.804,18.6079,0.0],[-73.8018,18.6112,0.0],[-73.8021,18.6135,23.5743],[-73.8082,18.6151,18.7972]]],
[[[-73.757,18.644,0.6854],[-73.7688,18.6424,0.5345],[-73.771,18.6399,3.3894],[-73.7751,18.6388,0.0],[-73.7865,18.6285,22.0818],[-73.7935,18.6265,32.4626],[-73.7968,18.6204,10.3328],[-73.7971,18.6021,0.9766],[-73.7907,18.5971,22.1039],[-73.776,18.5946,0.5395],[-73.7712,18.5882,0.0],[-73.7699,18.5882,0.0],[-73.7701,18.5912,0.0581],[-73.7668,18.5932,0.0831],[-73.7671,18.5901,0.0855],[-73.7693,18.589,0.0],[-73.7688,18.5871,0.3369],[-73.7643,18.5882,0.1159],[-73.7621,18.5854,0.0],[-73.7593,18.5857,0.1326],[-73.7576,18.5838,0.6709],[-73.7474,18.5843,0.3712],[-73.7435,18.5815,0.0],[-73.7349,18.5835,0.0],[-73.7229,18.5888,0.6749],[-73.709,18.5982,0.0],[-73.701,18.6082,0.0],[-73.6988,18.6135,0.0],[-73.6985,18.6201,0.0],[-73.6999,18.6249,0.0],[-73.7029,18.6276,0.0],[-73.7138,18.6318,10.2278],[-73.726,18.6332,16.997],[-73.7421,18.6396,4.5561],[-73.744,18.6429,0.0],[-73.757,18.644,0.6854]]],
[[[-73.9115,18.5926,0.2713],[-73.914,18.5915,0.1486],[-73.9137,18.5893,0.0],[-73.911,18.5901,0.0],[-73.9115,18.5926,0.2713]]]]}
,"properties": {"GID_3": "HTI.2.2.2_1","GID_0": "HTI","country": "Haiti","GID_1": "HTI.2_1","province": "Grand'Anse","NL_NAME_1": "NA","GID_2": "HTI.2.2_1","county": "Corail","NL_NAME_2": "NA","city": "Corail","VARNAME_3": "NA","NL_NAME_3": "NA","TYPE_3": "Commune","ENGTYPE_3": "Commune","CC_3": "NA","HASC_3": "NA","name": "Corail.city","area_km2": 234.1404,"hist_schema_id": "Elevation0-9000","hist_area_km2": {"0": 16.4384,"25": 11.7152,"50": 11.8564,"75": 23.4162,"100": 14.1694,"125": 11.9183,"150": 10.2305,"175": 10.1703,"200": 10.2308,"225": 7.8397,"250": 7.1969,"275": 9.187,"300": 7.0562,"325": 3.5987,"350": 2.8148,"375": 3.2973,"400": 2.9957,"425": 2.2718,"450": 1.9302,"475": 4.0616,"500": 3.9812,"525": 3.6797,"550": 3.3379,"575": 2.7951,"600": 2.9158,"625": 3.1975,"650": 2.9563,"675": 2.9564,"700": 2.3732,"725": 2.5543,"750": 2.1923,"775": 2.0515,"800": 1.8102,"825": 2.0717,"850": 2.0113,"875": 2.1119,"900": 1.8907,"925": 1.408,"950": 1.2672,"975": 1.2874,"1000": 1.2471,"1025": 1.0862,"1050": 0.9857,"1075": 0.4828,"1100": 0.4627,"1125": 0.4225,"1150": 0.3018,"1175": 0.3219,"1200": 0.3621,"1225": 0.1811,"1250": 0.0805,"1275": 0.1811,"1300": 0.1811,"1325": 0.2414,"1350": 0.1408,"1375": 0.2213,"1400": 0.1207,"1425": 0.2012,"1450": 0.2615,"1475": 0.1006,"1500": 0.2817,"1525": 0.1408,"1550": 0.2817,"1575": 0.1811,"1600": 0.2817,"1625": 0.1811,"1650": 0.1811,"1675": 0.1207,"1700": 0.2213,"1725": 0.161,"1750": 0.1408,"1775": 0.2213,"1800": 0.1811,"1825": 0.1811,"1850": 0.1811,"1875": 0.1207,"1900": 0.2213,"1925": 0.1207,"1950": 0.1006,"1975": 0.2012,"2000": 0.2213,"2025": 0.0805,"2050": 0.1811,"2075": 0.0604,"2100": 0.0402,"2125": 0.1408,"2150": 0.1207,"2175": 0.0805,"2200": 0.1207,"2225": 0.1006,"2250": 0.1811,"2275": 0.1408,"2300": 0.1207,"2325": 0.0201}}}