{"type": "Feature","bbox": [-75.117,20.2615,-74.6897,20.5299],"geometry": {"type": "MultiPolygon","coordinates": [[[[-74.791,20.462,306.7574],[-74.796,20.4553,239.1231],[-74.7982,20.4364,268.9267],[-74.8015,20.4332,329.9543],[-74.8162,20.4351,221.0693],[-74.8615,20.4749,755.2764],[-74.8879,20.4932,881.3722],[-74.9089,20.503,981.8015],[-74.9105,20.5071,1119.0538],[-74.9091,20.5162,923.7972],[-74.9139,20.5262,861.3143],[-74.9174,20.5276,855.3824],[-74.95,20.5255,677.6162],[-74.9724,20.5299,355.9812],[-74.979,20.5298,138.8685],[-74.9802,20.5275,155.2461],[-74.9798,20.5219,191.3124],[-74.9756,20.5134,290.3137],[-74.969,20.5061,262.8295],[-74.9505,20.4951,715.1686],[-74.9451,20.4907,663.0473],[-74.9413,20.4849,960.2184],[-74.9407,20.4663,630.5833],[-74.9438,20.463,632.871],[-74.9528,20.465,514.2133],[-74.9719,20.4754,557.2216],[-74.9915,20.4967,417.1289],[-74.9971,20.4969,376.1471],[-75.0008,20.4948,387.5239],[-75.0038,20.4892,431.324],[-75.007,20.4891,473.2476],[-75.0215,20.5025,247.4265],[-75.0296,20.5071,368.014],[-75.0581,20.5177,350.8945],[-75.0724,20.5208,315.5502],[-75.082,20.5207,283.5306],[-75.0898,20.5188,264.8021],[-75.1111,20.5085,237.6485],[-75.117,20.5073,331.6534],[-75.0704,20.4668,694.9235],[-75.0702,20.4405,484.8517],[-75.0774,20.4185,735.121],[-75.079,20.3875,698.7076],[-75.0947,20.3432,858.3929],[-75.0948,20.3082,689.1138],[-75.0868,20.2953,541.0762],[-75.0456,20.2759,440.2314],[-75.0374,20.2686,626.2712],[-75.021,20.2679,662.1315],[-75.003,20.2615,483.2056],[-74.9928,20.2619,514.855],[-74.9835,20.267,636.9402],[-74.9567,20.2908,560.6849],[-74.918,20.3018,434.6922],[-74.8999,20.3011,427.3769],[-74.8834,20.2951,538.204],[-74.8629,20.2925,440.0987],[-74.8346,20.2817,387.9363],[-74.8104,20.3084,623.5296],[-74.7901,20.3247,312.6083],[-74.7677,20.328,664.3676],[-74.7492,20.3343,197.7028],[-74.7022,20.3354,435.5906],[-74.7045,20.399,171.7586],[-74.6897,20.4322,294.3954],[-74.6918,20.4401,373.5736],[-74.7057,20.4473,571.8771],[-74.7281,20.4502,700.4273],[-74.7429,20.4555,609.8395],[-74.7782,20.4576,297.3525],[-74.791,20.462,306.7574]]]]}
,"properties": {"GID_2": "CUB.6.10_1","GID_0": "CUB","country": "Cuba","GID_1": "CUB.6_1","province": "Guantánamo","NL_NAME_1": "NA","county": "Yateras","VARNAME_2": "NA","NL_NAME_2": "NA","TYPE_2": "Municipio","ENGTYPE_2": "Municipality","CC_2": "NA","HASC_2": "CU.GU.YA","name": "Yateras.county","area_km2": 823.54,"hist_schema_id": "Elevation0-9000","hist_area_km2": {"50": 0.4373,"75": 1.9876,"100": 3.0011,"125": 5.1474,"150": 6.8564,"175": 8.744,"200": 10.1148,"225": 10.9491,"250": 12.3995,"275": 12.7173,"300": 14.1477,"325": 15.4802,"350": 20.1119,"375": 23.7292,"400": 28.0626,"425": 37.4455,"450": 41.6004,"475": 39.3341,"500": 36.2325,"525": 36.7302,"550": 36.2717,"575": 32.9512,"600": 34.3031,"625": 37.0055,"650": 40.0859,"675": 38.3957,"700": 40.423,"725": 44.5782,"750": 41.6373,"775": 25.1,"800": 19.5929,"825": 19.5327,"850": 13.6311,"875": 13.0931,"900": 7.4097,"925": 4.4489,"950": 3.2573,"975": 2.4428,"1000": 1.7477,"1025": 1.132,"1050": 0.8143,"1075": 0.278,"1100": 0.0794,"1125": 0.0596,"1150": 0.0397}}}