{"type":"Feature","properties":{"GID_2":"CUB.11.9_1","GID_0":"CUB","country":"Cuba","GID_1":"CUB.11_1","province":"Matanzas","NL_NAME_1":"NA","county":"Martí","VARNAME_2":"NA","NL_NAME_2":"NA","TYPE_2":"Municipio","ENGTYPE_2":"Municipality","CC_2":"NA","HASC_2":"CU.MA.MR","name":"Martí.county"},
"geometry":{"type": "MultiPolygon","coordinates": [[[[-81.1113,23.0351,0.0],[-81.1115,23.0336,0.574],[-81.044,23.0023,0.9521],[-81.0371,22.9961,0.9409],[-81.034,22.9844,7.2875],[-81.0333,22.9185,16.6276],[-81.0137,22.9292,26.7866],[-80.9932,22.9321,18.1517],[-80.9821,22.9368,17.8009],[-80.9754,22.9356,20.6304],[-80.966,22.9136,23.7087],[-80.9627,22.8923,34.1157],[-80.9523,22.8644,36.891],[-80.9131,22.8254,35.4192],[-80.8779,22.8551,31.1919],[-80.8378,22.8734,27.4432],[-80.8236,22.8715,28.4281],[-80.7959,22.8506,35.9402],[-80.7571,22.8487,32.7178],[-80.7586,22.8563,31.221],[-80.7581,22.8634,30.2557],[-80.756,22.8667,32.123],[-80.7344,22.8747,37.8413],[-80.7233,22.8828,40.9861],[-80.721,22.8914,46.8373],[-80.726,22.9087,36.5802],[-80.7385,22.9389,32.5059],[-80.7386,22.9475,23.4174],[-80.7357,22.9543,22.591],[-80.7308,22.9576,19.2885],[-80.7252,22.9586,24.1591],[-80.678,22.9499,55.4843],[-80.6616,22.9513,35.262],[-80.6474,22.9574,33.3018],[-80.641,22.9637,35.1941],[-80.637,22.9959,19.827],[-80.6431,23.0238,11.8755],[-80.641,23.0421,7.5731],[-80.6389,23.0457,10.9515],[-80.6309,23.0523,10.0518],[-80.5926,23.0613,1.9006],[-80.5987,23.0632,1.5058],[-80.599,23.061,0.99],[-80.6021,23.0657,0.0],[-80.6099,23.0671,0.471],[-80.6135,23.0707,6.8953],[-80.616,23.0782,2.309],[-80.6188,23.0782,3.3051],[-80.6179,23.0801,0.9066],[-80.6235,23.0804,6.5902],[-80.6251,23.0879,0.0],[-80.6301,23.0918,0.7256],[-80.6274,23.0963,0.0],[-80.6204,23.0965,0.0],[-80.6176,23.1013,0.0],[-80.6104,23.106,0.6175],[-80.5985,23.106,0.7743],[-80.5974,23.109,0.1706],[-80.5999,23.1082,0.6294],[-80.6007,23.1093,0.0],[-80.599,23.1135,0.7913],[-80.601,23.1157,0.0],[-80.6038,23.116,1.7441],[-80.6035,23.1215,3.7133],[-80.6015,23.1221,0.0],[-80.604,23.126,0.5858],[-80.6018,23.1324,0.0],[-80.6035,23.1335,0.6874],[-80.604,23.1374,0.6018],[-80.601,23.1365,0.4029],[-80.6024,23.1357,0.4029],[-80.601,23.1324,0.0],[-80.5987,23.1357,0.3794],[-80.5904,23.1329,0.0],[-80.5901,23.1354,0.0],[-80.5868,23.1354,0.0],[-80.586,23.1399,0.0],[-80.5871,23.1404,0.0],[-80.5874,23.1382,0.5879],[-80.5907,23.1404,0.5894],[-80.5935,23.1396,0.6192],[-80.5935,23.1418,0.0],[-80.5971,23.1432,0.1891],[-80.5999,23.1415,0.497],[-80.6004,23.1429,0.0],[-80.6026,23.1421,0.3467],[-80.6038,23.1432,0.0],[-80.6049,23.1413,0.8053],[-80.6043,23.1457,0.0],[-80.6079,23.1482,0.4099],[-80.6129,23.1474,0.4913],[-80.6157,23.149,0.0],[-80.6185,23.1479,0.4309],[-80.6212,23.1501,0.0],[-80.6251,23.1451,0.7028],[-80.636,23.1429,0.3853],[-80.6363,23.1379,0.0],[-80.6343,23.1404,0.5016],[-80.6321,23.1407,0.843],[-80.6271,23.1379,0.0],[-80.6226,23.1388,0.1484],[-80.6185,23.1357,0.7696],[-80.6199,23.1321,0.0],[-80.614,23.1315,0.4374],[-80.6137,23.1299,0.0],[-80.6085,23.1279,1.6227],[-80.6074,23.121,1.7048],[-80.6101,23.121,2.256],[-80.6121,23.1176,2.5763],[-80.6143,23.1193,0.4892],[-80.614,23.114,1.1077],[-80.6179,23.1132,1.0148],[-80.6176,23.1096,1.7735],[-80.6207,23.111,0.5292],[-80.6215,23.1149,1.5499],[-80.6263,23.1165,2.389],[-80.6265,23.1154,0.0],[-80.6237,23.1146,0.5709],[-80.6218,23.109,0.0],[-80.6263,23.1071,0.2853],[-80.6279,23.1024,1.0053],[-80.634,23.101,0.0],[-80.6343,23.0976,0.3264],[-80.6376,23.096,6.1819],[-80.6371,23.0943,4.491],[-80.6393,23.0951,1.7504],[-80.6387,23.0918,0.2243],[-80.634,23.0904,0.0],[-80.6338,23.0882,2.8346],[-80.6399,23.0885,0.0],[-80.6415,23.0857,1.0173],[-80.6449,23.0863,0.9602],[-80.6574,23.0785,2.4591],[-80.6643,23.0793,0.6957],[-80.6679,23.0821,0.2771],[-80.6779,23.0963,0.8799],[-80.6799,23.0937,1.2919],[-80.6768,23.0932,0.1853],[-80.6743,23.0901,0.0],[-80.6732,23.0863,0.0],[-80.6693,23.0829,0.1373],[-80.6696,23.0799,0.6327],[-80.6735,23.0782,1.8271],[-80.6787,23.0838,0.0],[-80.679,23.0788,0.0],[-80.6815,23.0818,0.1703],[-80.6829,23.0804,0.6825],[-80.6815,23.0774,0.8339],[-80.684,23.0757,0.0],[-80.6888,23.0782,0.0],[-80.6874,23.0821,0.336],[-80.6854,23.0818,0.0],[-80.6899,23.0868,0.3758],[-80.6913,23.0865,0.3758],[-80.691,23.084,0.4852],[-80.6882,23.0824,0.336],[-80.6888,23.0801,0.0],[-80.6957,23.0785,0.4904],[-80.6982,23.0793,0.4524],[-80.6988,23.0812,0.0889],[-80.7018,23.0807,0.3955],[-80.701,23.0818,0.0],[-80.6971,23.0832,0.0],[-80.6974,23.0843,0.4227],[-80.6999,23.0849,0.328],[-80.7026,23.0826,0.0],[-80.7099,23.0854,0.0],[-80.7104,23.0843,0.0],[-80.706,23.0835,0.0],[-80.7054,23.0815,0.7294],[-80.711,23.0768,2.0137],[-80.7132,23.0871,0.0],[-80.7199,23.0926,0.2237],[-80.7229,23.091,0.0],[-80.7204,23.0918,0.0],[-80.7193,23.0888,0.0911],[-80.7176,23.0893,0.5725],[-80.7162,23.0876,0.4291],[-80.7174,23.0846,0.0],[-80.7199,23.0851,0.1444],[-80.7213,23.0826,0.0],[-80.7274,23.0838,0.1436],[-80.7288,23.0874,0.0],[-80.7312,23.0851,0.888],[-80.734,23.0863,0.0],[-80.7374,23.0912,0.0],[-80.751,23.090699999999998,0.0],[-80.7513,23.0924,0.3759],[-80.7449,23.0937,0.3533],[-80.751,23.0957,0.0],[-80.7515,23.0929,0.3759],[-80.7565,23.0901,0.185],[-80.7579,23.0876,0.0],[-80.7668,23.0868,0.0],[-80.7707,23.0835,0.0],[-80.7763,23.0846,0.0],[-80.7793,23.0812,0.0],[-80.7849,23.079,0.0],[-80.7874,23.0799,0.1553],[-80.7901,23.0754,1.5607],[-80.7957,23.0729,1.8455],[-80.8043,23.0726,0.2444],[-80.8115,23.0771,0.0],[-80.819,23.0735,0.5514],[-80.8262,23.0746,0.0],[-80.836,23.0721,0.0],[-80.8576,23.0732,0.7623],[-80.8613,23.0707,1.2557],[-80.8671,23.0721,0.0],[-80.8771,23.0685,1.3792],[-80.8824,23.0629,3.017],[-80.889,23.061,0.0],[-80.8924,23.0579,7.3063],[-80.8943,23.0593,6.6188],[-80.8918,23.0646,1.5291],[-80.906,23.0604,2.6216],[-80.9085,23.0568,4.5846],[-80.9126,23.0546,2.752],[-80.9365,23.0496,2.8114],[-80.9443,23.0515,1.246],[-80.956,23.0493,3.5764],[-80.9651,23.0554,1.5651],[-80.9696,23.0543,2.7398],[-80.9718,23.0563,1.6212],[-80.976,23.056,1.8271],[-80.9782,23.0576,0.638],[-80.9843,23.0685,3.6426],[-80.9874,23.0815,0.3004],[-80.9849,23.0851,0.6168],[-80.9779,23.0857,2.6522],[-80.9754,23.0885,2.4053],[-80.9754,23.0915,2.7778],[-80.9926,23.1118,4.2901],[-80.9962,23.111,4.0129],[-80.9968,23.1146,0.0],[-80.999,23.1154,3.4171],[-80.9999,23.1118,0.5582],[-80.9976,23.111,4.0129],[-80.9962,23.1074,4.4747],[-80.9982,23.1054,0.0],[-80.9918,23.1065,0.6667],[-80.9915,23.1029,0.4487],[-80.9887,23.1018,1.263],[-80.9874,23.099,1.7342],[-80.9899,23.0924,0.0],[-80.9974,23.0904,2.6711],[-81.0038,23.0915,1.3787],[-81.0121,23.0893,1.5879],[-81.0149,23.0904,2.8302],[-81.0135,23.0929,0.0],[-81.0174,23.0957,3.6851],[-81.0188,23.1004,3.6194],[-81.0274,23.1018,0.8796],[-81.0396,23.0999,2.4848],[-81.0418,23.0976,0.0],[-81.0546,23.0951,2.4726],[-81.0604,23.0926,0.0],[-81.0621,23.089,0.0],[-81.0665,23.0874,0.4746],[-81.0704,23.0868,1.8281],[-81.0718,23.0896,0.5474],[-81.0743,23.089,0.0],[-81.0776,23.0868,0.0],[-81.0754,23.0821,2.7061],[-81.0796,23.0801,1.5646],[-81.0793,23.0763,1.7609],[-81.0826,23.0732,0.4203],[-81.0888,23.0582,0.8359],[-81.099,23.0507,0.0],[-81.0996,23.0485,0.0],[-81.0968,23.0462,2.4457],[-81.1018,23.0471,0.0],[-81.1038,23.0421,0.0],[-81.109,23.0388,0.0],[-81.109,23.0362,4.1645],[-81.1113,23.0351,0.0]]],
[[[-80.8288,23.1874,0.0],[-80.8293,23.1893,0.5199],[-80.8326,23.1893,1.0997],[-80.8354,23.1846,0.2755],[-80.8432,23.1824,0.0],[-80.8421,23.1807,0.0],[-80.8396,23.1807,0.2919],[-80.8393,23.1824,0.2115],[-80.8365,23.1832,0.2944],[-80.8343,23.181,0.2991],[-80.8385,23.1796,0.3309],[-80.8404,23.1757,0.0],[-80.8388,23.174,0.6127],[-80.8401,23.1729,0.2726],[-80.8468,23.171,0.3482],[-80.8493,23.1746,0.0],[-80.8551,23.174,0.2549],[-80.8509,23.1701,0.0],[-80.849,23.1715,0.6011],[-80.8476,23.1707,0.3482],[-80.8468,23.1676,1.2965],[-80.8507,23.1632,0.4781],[-80.8554,23.1663,0.2134],[-80.866,23.1676,0.7971],[-80.8654,23.1701,0.2915],[-80.8613,23.1721,0.0],[-80.8671,23.1757,0.3375],[-80.8668,23.1782,0.0848],[-80.8715,23.1751,0.1809],[-80.8712,23.1729,0.0],[-80.8735,23.1707,0.3789],[-80.8757,23.1721,0.0],[-80.8771,23.1688,0.0],[-80.8796,23.1688,0.0],[-80.8829,23.1649,0.1238],[-80.8793,23.1629,0.1215],[-80.8796,23.1601,0.0],[-80.8754,23.1632,0.3939],[-80.8724,23.1624,0.3454],[-80.8721,23.1585,0.0],[-80.8696,23.1571,0.8023],[-80.8696,23.1515,0.4064],[-80.8729,23.1521,0.0],[-80.874,23.1551,0.0],[-80.8788,23.1546,0.0],[-80.8804,23.153199999999998,0.272],[-80.8796,23.1513,0.0],[-80.881,23.1485,0.4253],[-80.8838,23.1479,0.3184],[-80.8857,23.1454,1.6102],[-80.9057,23.1413,0.0],[-80.9143,23.1329,1.3412],[-80.9207,23.1296,0.0],[-80.9235,23.1249,5.1534],[-80.9262,23.126,0.0],[-80.9262,23.1232,3.5393],[-80.931,23.121,0.0],[-80.934,23.1204,1.5279],[-80.936,23.1232,0.0],[-80.939,23.1232,1.2952],[-80.9399,23.1279,0.7803],[-80.9426,23.1268,1.3668],[-80.9429,23.1224,0.7744],[-80.9451,23.1235,0.0],[-80.9465,23.1224,0.0],[-80.9454,23.1196,0.3255],[-80.9479,23.1157,0.5469],[-80.9571,23.1146,0.0],[-80.969,23.1068,5.5684],[-80.9743,23.1071,0.0],[-80.9785,23.1051,4.1068],[-80.9812,23.1071,4.0971],[-80.9801,23.1096,2.6694],[-80.9821,23.1104,3.5579],[-80.9857,23.1068,0.0],[-80.9776,23.0963,0.0],[-80.971,23.090699999999998,0.0],[-80.9646,23.0974,3.54],[-80.9579,23.0996,0.0],[-80.9512,23.1093,1.0195],[-80.9446,23.1129,1.8036],[-80.9407,23.1113,0.0],[-80.9399,23.1138,0.0],[-80.9413,23.1174,0.515],[-80.9388,23.1143,0.0],[-80.9371,23.1174,2.5336],[-80.9329,23.1193,1.5279],[-80.9262,23.1185,0.0],[-80.9185,23.1212,0.0],[-80.9096,23.1285,3.082],[-80.9037,23.1293,0.4157],[-80.9018,23.1318,0.1521],[-80.8899,23.1301,0.9918],[-80.8893,23.1285,0.0],[-80.8782,23.1251,0.0],[-80.8804,23.1282,0.0],[-80.8874,23.1301,1.3828],[-80.8826,23.1338,0.3611],[-80.8715,23.1363,0.0],[-80.8682,23.1363,0.0],[-80.8668,23.1346,0.0],[-80.8599,23.1349,0.5398],[-80.8551,23.1299,0.0],[-80.8487,23.1296,0.2401],[-80.8526,23.124,0.0],[-80.8596,23.1251,0.0],[-80.8593,23.1238,0.0],[-80.8571,23.1243,0.4871],[-80.8526,23.1221,0.0],[-80.8504,23.1238,0.4155],[-80.8449,23.1224,0.2009],[-80.8429,23.1238,0.8914],[-80.8396,23.1232,0.0],[-80.8376,23.1257,0.5804],[-80.8262,23.1271,0.1712],[-80.8207,23.1329,1.2581],[-80.8135,23.1318,0.0],[-80.8049,23.1329,0.9999],[-80.8029,23.1346,1.1138],[-80.7951,23.1338,0.0],[-80.796,23.1374,0.0],[-80.7974,23.1374,0.0],[-80.7976,23.1354,0.5844],[-80.8007,23.1357,0.602],[-80.8035,23.1399,0.3897],[-80.8057,23.1396,1.8766],[-80.8068,23.1437,0.1774],[-80.8046,23.1426,0.185],[-80.8046,23.1443,0.2524],[-80.8018,23.146,0.532],[-80.8035,23.1415,1.9394],[-80.7976,23.1421,0.0],[-80.7996,23.1388,0.2183],[-80.7968,23.1404,0.3393],[-80.7943,23.1396,0.0],[-80.7929,23.1407,0.0],[-80.7935,23.1426,0.0],[-80.7954,23.1413,0.235],[-80.7973,23.1457,0.0],[-80.8001,23.1454,0.2131],[-80.8018,23.1479,0.8509],[-80.8107,23.1482,0.612],[-80.8221,23.1574,0.1438],[-80.821,23.159,1.0429],[-80.8235,23.1671,0.476],[-80.8204,23.1696,0.0],[-80.8254,23.171,0.0],[-80.8301,23.169,0.1359],[-80.836,23.1724,0.8374],[-80.8368,23.1768,0.0],[-80.8354,23.1787,0.8767],[-80.8274,23.181,0.9601],[-80.8268,23.1835,0.0],[-80.8288,23.1874,0.0]]],
[[[-80.9204,23.1774,1.4677],[-80.9218,23.1785,0.0],[-80.9246,23.1749,1.0931],[-80.9224,23.1699,0.8696],[-80.9185,23.1729,0.0],[-80.9187,23.1765,0.0],[-80.9204,23.1774,1.4677]]],
[[[-80.8818,23.1757,0.0],[-80.8838,23.1768,0.6053],[-80.8854,23.1754,0.0],[-80.8821,23.1754,0.0],[-80.8818,23.1757,0.0]]],
[[[-81.0038,23.1063,0.0],[-81.0038,23.1082,0.0],[-81.0054,23.1082,3.7738],[-81.006,23.1063,1.4531],[-81.0038,23.1063,0.0]]],
[[[-81.0057,23.1082,3.7738],[-81.006,23.1101,1.369],[-81.009,23.1087,0.0],[-81.0079,23.1074,1.0733],[-81.0057,23.1082,3.7738]]],
[[[-81.0021,23.1107,3.2333],[-81.0032,23.1132,0.0],[-81.0046,23.1129,1.3168],[-81.0035,23.1087,0.0],[-81.0018,23.109,0.0],[-81.0021,23.1107,3.2333]]],
[[[-81.0062,23.1107,4.9357],[-81.006,23.1121,1.3168],[-81.0076,23.1126,0.8086],[-81.0107,23.1113,0.0],[-81.0093,23.1099,0.0],[-81.0062,23.1107,4.9357]]],
[[[-81.0071,23.1171,1.965],[-81.0088,23.1185,2.1229],[-81.0135,23.1168,2.0879],[-81.0143,23.1135,0.0],[-81.0088,23.1138,3.0752],[-81.0071,23.1171,1.965]]],
[[[-80.9626,23.1599,0.0],[-80.9626,23.1624,0.0],[-80.9643,23.1626,0.0],[-80.9643,23.1582,0.0],[-80.9626,23.1599,0.0]]],
[[[-81.0757,23.1732,0.0],[-81.0757,23.1751,0.0],[-81.0782,23.1751,0.0],[-81.0782,23.1738,0.0],[-81.0757,23.1732,0.0]]],
[[[-80.9829,23.1871,0.3611],[-80.9865,23.1882,0.2581],[-80.994,23.1868,0.0],[-80.9957,23.1837,0.0],[-80.9943,23.1807,0.0],[-80.9871,23.1774,0.1532],[-80.9874,23.174,0.2856],[-80.9849,23.1715,0.0],[-80.9793,23.1743,0.0],[-80.9829,23.1871,0.3611]]],
[[[-80.9204,23.1846,0.8959],[-80.9201,23.186,1.0235],[-80.9232,23.1857,0.7644],[-80.9218,23.1799,0.0],[-80.921,23.1807,0.5355],[-80.9204,23.1846,0.8959]]],
[[[-80.874,23.1863,0.0],[-80.8757,23.1874,0.0],[-80.876,23.1849,0.2767],[-80.8735,23.1829,0.2175],[-80.8729,23.1843,0.6641],[-80.874,23.1863,0.0]]],
[[[-80.8562,23.1854,0.0],[-80.856,23.1876,0.1806],[-80.8587,23.1865,0.0],[-80.8585,23.1849,0.0],[-80.8562,23.1854,0.0]]],
[[[-80.851,23.1854,0.0],[-80.8501,23.1863,0.8445],[-80.8504,23.1876,0.0],[-80.8526,23.1857,0.3001],[-80.851,23.1854,0.0]]],
[[[-80.6365,23.104,2.5631],[-80.636,23.1074,0.0],[-80.6415,23.1063,0.6822],[-80.6415,23.1046,0.0],[-80.6365,23.104,2.5631]]],
[[[-80.6626,23.1157,1.018],[-80.6632,23.1174,0.0],[-80.6663,23.1174,0.0],[-80.6663,23.1146,0.0],[-80.6621,23.1143,0.0],[-80.6626,23.1157,1.018]]],
[[[-80.6371,23.1415,0.2827],[-80.6374,23.1435,0.3853],[-80.6399,23.144,0.0],[-80.639,23.1404,0.0],[-80.6371,23.1415,0.2827]]],
[[[-80.6446,23.1521,0.0],[-80.6476,23.153199999999998,0.5838],[-80.6518,23.1499,1.6132],[-80.6482,23.146,0.0],[-80.6501,23.1435,0.7513],[-80.6482,23.1424,0.7513],[-80.6465,23.1435,0.0],[-80.6474,23.1463,0.0],[-80.6454,23.1476,0.0],[-80.6446,23.1521,0.0]]],
[[[-80.706,23.1143,0.1953],[-80.7071,23.1154,0.1953],[-80.7063,23.1246,0.0],[-80.7079,23.1246,0.0],[-80.7107,23.1212,0.0],[-80.711,23.1182,0.128],[-80.716,23.116,0.1641],[-80.7199,23.1118,0.2728],[-80.7307,23.109,0.0],[-80.7379,23.0982,0.0],[-80.7315,23.1018,0.0],[-80.731,23.1054,0.0],[-80.7296,23.1043,0.0],[-80.7265,23.1065,0.235],[-80.7251,23.106,0.0],[-80.7204,23.1104,0.1128],[-80.7187,23.1101,0.0],[-80.7182,23.1068,0.0],[-80.716,23.1057,0.6703],[-80.716,23.104,0.6602],[-80.7196,23.1029,0.3895],[-80.7193,23.101,0.0],[-80.7176,23.101,0.0],[-80.709,23.1057,0.1496],[-80.7082,23.1079,0.1812],[-80.6968,23.1101,0.0],[-80.6946,23.1096,0.091],[-80.6935,23.1068,0.0],[-80.6926,23.1093,0.0],[-80.694,23.111,0.1102],[-80.6926,23.1124,0.2424],[-80.6874,23.1132,0.0],[-80.6874,23.1113,0.6737],[-80.6896,23.1096,0.3385],[-80.6874,23.1093,0.0],[-80.6854,23.1126,1.0905],[-80.6882,23.116,0.0],[-80.691,23.1135,0.4534],[-80.6937,23.1135,0.0],[-80.6954,23.1107,0.1102],[-80.7021,23.1107,0.3636],[-80.7054,23.1121,0.0],[-80.706,23.1143,0.1953]]],
[[[-80.7843,23.1426,0.8123],[-80.7846,23.1446,0.9288],[-80.7896,23.1435,1.2469],[-80.7893,23.1418,0.0],[-80.7843,23.1426,0.8123]]],
[[[-80.7801,23.1718,0.0],[-80.7815,23.1726,0.0],[-80.7801,23.1707,0.0],[-80.7763,23.1696,0.0],[-80.7679,23.1693,0.2145],[-80.7649,23.1643,0.5882],[-80.7724,23.1635,0.0],[-80.7718,23.1579,0.0],[-80.779,23.1457,0.0],[-80.7824,23.1437,0.0],[-80.7815,23.1418,0.0],[-80.779,23.1424,1.0382],[-80.779,23.1446,1.7593],[-80.7743,23.146,0.6681],[-80.7746,23.1501,0.0],[-80.7688,23.1574,0.0],[-80.7685,23.1601,0.9411],[-80.7657,23.1596,0.2777],[-80.7632,23.1615,0.2965],[-80.7607,23.159,0.1502],[-80.754,23.1593,1.1302],[-80.7396,23.164,0.1751],[-80.7379,23.1674,0.0614],[-80.7393,23.1696,0.0],[-80.7507,23.1632,0.0],[-80.7554,23.1626,0.0],[-80.7565,23.1607,0.3252],[-80.7613,23.161,0.2965],[-80.761,23.1679,0.0],[-80.7626,23.1701,0.272],[-80.7671,23.1721,0.0],[-80.7721,23.1718,0.0],[-80.7737,23.1701,0.0],[-80.7801,23.1718,0.0]]],
[[[-80.7249,23.1715,0.0],[-80.7257,23.174,0.206],[-80.7279,23.1738,0.0],[-80.7268,23.1707,0.0],[-80.7249,23.1715,0.0]]],
[[[-80.6385,23.156,1.8973],[-80.6407,23.1571,0.0],[-80.641,23.1521,0.0],[-80.6371,23.1546,0.0],[-80.6368,23.1565,0.0],[-80.6385,23.156,1.8973]]],
[[[-80.634,23.1568,0.0],[-80.6351,23.1596,0.0],[-80.6365,23.1596,0.3905],[-80.6363,23.1563,0.0],[-80.634,23.1568,0.0]]],
[[[-80.6629,23.1604,0.0],[-80.6618,23.1607,0.0],[-80.6626,23.1621,0.0],[-80.6651,23.161,0.0],[-80.6646,23.1596,0.0],[-80.6629,23.1604,0.0]]],
[[[-80.6537,23.1643,0.0],[-80.6535,23.1663,0.0],[-80.6557,23.1668,3.2675],[-80.6574,23.1632,0.0],[-80.656,23.1626,0.0],[-80.6537,23.1643,0.0]]],
[[[-80.7196,23.1749,0.2588],[-80.7207,23.1771,0.0],[-80.7246,23.1757,0.0],[-80.7246,23.1718,0.0],[-80.7132,23.1718,0.0],[-80.714,23.1743,0.2026],[-80.7185,23.1724,0.3424],[-80.7196,23.1749,0.2588]]],
[[[-80.7007,23.1779,1.6817],[-80.7032,23.1785,0.9687],[-80.6999,23.1757,0.0],[-80.7007,23.1718,0.0],[-80.6996,23.1718,0.0],[-80.6982,23.1746,0.6875],[-80.7007,23.1779,1.6817]]],
[[[-80.704,23.1776,0.5826],[-80.7046,23.1804,1.368],[-80.706,23.1804,1.2644],[-80.7063,23.1743,1.2853],[-80.7096,23.1743,0.0],[-80.7107,23.1724,0.0],[-80.7057,23.1721,0.0],[-80.7032,23.1754,0.0],[-80.704,23.1776,0.5826]]],
[[[-80.7171,23.1785,0.0],[-80.716,23.1785,0.0],[-80.7162,23.1807,0.0],[-80.7182,23.1804,0.0],[-80.7201,23.1774,0.0],[-80.7182,23.1771,0.0],[-80.7171,23.1785,0.0]]],
[[[-80.7374,23.2038,1.842],[-80.7371,23.2068,1.9041],[-80.7401,23.2062,0.5635],[-80.7401,23.2043,1.9469],[-80.746,23.2004,0.0],[-80.7465,23.1971,0.0],[-80.7476,23.1988,0.5421],[-80.7468,23.2024,0.0],[-80.7554,23.2012,0.4474],[-80.7607,23.2043,0.0],[-80.7649,23.2043,0.9921],[-80.7657,23.2018,1.5267],[-80.7685,23.2015,0.6972],[-80.7671,23.1988,1.468],[-80.7715,23.1915,0.2937],[-80.764,23.1951,0.0],[-80.7635,23.1976,0.0],[-80.754,23.1965,0.965],[-80.7538,23.1926,0.2893],[-80.7568,23.1899,0.3801],[-80.7568,23.1879,0.9732],[-80.7565,23.1865,0.5019],[-80.754,23.1863,0.6311],[-80.7543,23.1899,0.7396],[-80.7515,23.196,0.7385],[-80.7496,23.1968,0.2571],[-80.7487,23.1907,1.0837],[-80.7504,23.1879,0.5513],[-80.7485,23.1874,0.0],[-80.7449,23.194,0.8182],[-80.7404,23.1957,1.1931],[-80.7401,23.199,0.0],[-80.7374,23.2038,1.842]]],
[[[-80.6849,23.2015,0.9384],[-80.6843,23.2057,1.4101],[-80.6854,23.2065,0.7708],[-80.6915,23.201,2.3951],[-80.694,23.2018,2.296],[-80.7024,23.1996,0.8012],[-80.7046,23.1951,2.4136],[-80.7035,23.1893,1.8665],[-80.6996,23.1882,0.6887],[-80.6988,23.1899,0.0],[-80.7004,23.1918,1.5717],[-80.696,23.1918,0.5212],[-80.6937,23.1943,2.358],[-80.6924,23.1887,0.0],[-80.689,23.1882,0.0],[-80.6874,23.1893,3.4735],[-80.6876,23.1918,2.1666],[-80.6829,23.1954,0.0],[-80.6837,23.1985,3.6066],[-80.6862,23.1976,1.0704],[-80.6849,23.2015,0.9384]]],
[[[-80.8015,23.1979,0.0],[-80.7999,23.1979,0.0],[-80.7999,23.1993,1.0452],[-80.8026,23.1999,0.3621],[-80.8029,23.199,0.3621],[-80.8015,23.1979,0.0]]],
[[[-80.6771,23.2062,2.5416],[-80.6779,23.2088,0.1753],[-80.6813,23.2088,0.0],[-80.6832,23.2051,3.4443],[-80.6776,23.2007,0.5536],[-80.6771,23.2062,2.5416]]],
[[[-80.649,23.2012,1.4319],[-80.6474,23.2012,0.0],[-80.6474,23.2026,0.0],[-80.6496,23.2026,0.0],[-80.6504,23.1996,0.0],[-80.6493,23.2001,0.0],[-80.649,23.2012,1.4319]]],
[[[-80.654,23.2057,0.516],[-80.6562,23.2079,0.0],[-80.6562,23.2018,2.0341],[-80.6585,23.2015,0.0],[-80.6588,23.1996,0.0],[-80.6513,23.2001,0.0],[-80.651,23.2038,0.7588],[-80.654,23.2057,0.516]]],
[[[-80.666,23.214,1.0298],[-80.6687,23.2146,0.7991],[-80.6712,23.2118,1.1142],[-80.6704,23.2088,2.9652],[-80.6685,23.2082,0.9798],[-80.6687,23.2062,0.8368],[-80.6724,23.2062,0.7258],[-80.6721,23.2096,0.7367],[-80.6757,23.2093,0.5666],[-80.6757,23.2015,0.0],[-80.6738,23.2012,0.5224],[-80.6754,23.2001,0.0],[-80.6754,23.1971,0.0],[-80.6718,23.2024,1.4839],[-80.6715,23.1999,1.658],[-80.6685,23.2021,0.3403],[-80.6671,23.2068,0.6637],[-80.6649,23.2062,0.3982],[-80.6615,23.2088,1.5459],[-80.6601,23.2124,0.0],[-80.6615,23.2113,2.1863],[-80.666,23.214,1.0298]]],
[[[-80.6279,23.2143,0.8557],[-80.6276,23.216,0.7143],[-80.6288,23.2171,0.0],[-80.6293,23.2154,0.8557],[-80.6279,23.2143,0.8557]]],
[[[-81.0521,23.1807,2.673],[-81.0518,23.1829,1.7561],[-81.0535,23.1837,0.6726],[-81.0565,23.1826,0.0],[-81.0576,23.1801,0.0],[-81.0532,23.1793,0.0],[-81.0521,23.1807,2.673]]],
[[[-81.0299,23.1976,0.9119],[-81.031,23.1993,1.1145],[-81.0371,23.1985,0.0],[-81.0346,23.1957,1.7965],[-81.0318,23.1957,0.9521],[-81.0299,23.1976,0.9119]]],
[[[-81.0124,23.1988,1.2357],[-81.0124,23.2007,0.747],[-81.014,23.201,0.747],[-81.0165,23.1963,0.0],[-81.0113,23.1957,1.1302],[-81.0124,23.1988,1.2357]]],
[[[-80.929,23.199,2.5612],[-80.9287,23.2012,1.7928],[-80.9307,23.2021,0.0],[-80.9313,23.1988,0.4467],[-80.929,23.199,2.5612]]],
[[[-80.9176,23.1874,1.2346],[-80.9135,23.1876,0.1927],[-80.9121,23.1901,0.2481],[-80.9171,23.189,0.2771],[-80.9176,23.1874,1.2346]]],
[[[-80.8962,23.194,2.0268],[-80.8957,23.1957,1.3885],[-80.8971,23.196,0.342],[-80.9007,23.1935,1.4138],[-80.9001,23.1885,1.4307],[-80.8985,23.1868,0.0],[-80.8935,23.1876,2.1732],[-80.891,23.1907,1.5879],[-80.8915,23.1924,0.0],[-80.8962,23.1921,0.2929],[-80.8962,23.194,2.0268]]],
[[[-80.804,23.1982,0.0],[-80.8037,23.1999,0.3621],[-80.8076,23.1999,0.3247],[-80.8079,23.1963,0.5136],[-80.8063,23.1963,0.0],[-80.804,23.1982,0.0]]],
[[[-80.8626,23.2049,2.6448],[-80.8643,23.206,0.4485],[-80.8651,23.2035,4.2986],[-80.8685,23.2026,0.0],[-80.8674,23.1976,0.0],[-80.8568,23.1921,0.7705],[-80.8571,23.1985,0.0],[-80.8624,23.2007,2.6618],[-80.8626,23.2049,2.6448]]],
[[[-80.9124,23.2024,1.4477],[-80.916,23.2029,1.5591],[-80.9157,23.1982,0.9472],[-80.911,23.2015,1.4733],[-80.9124,23.2024,1.4477]]],
[[[-80.886,23.2043,2.9985],[-80.8851,23.2057,0.0],[-80.8882,23.2054,2.9964],[-80.8874,23.2035,0.6378],[-80.886,23.2043,2.9985]]],
[[[-80.829,23.2046,0.0],[-80.8282,23.2043,0.0],[-80.8282,23.2074,0.0],[-80.831,23.2057,2.3816],[-80.829,23.2046,0.0]]],
[[[-80.8554,23.2071,0.0],[-80.8554,23.2082,0.0],[-80.8599,23.2088,0.0],[-80.859,23.2062,0.1069],[-80.8568,23.2057,0.3999],[-80.8554,23.2071,0.0]]],
[[[-81.0154,23.2143,0.0],[-81.016,23.2232,0.0],[-81.0171,23.2232,0.0],[-81.0188,23.2199,1.905],[-81.0338,23.2121,0.0],[-81.0349,23.2079,0.8546],[-81.0401,23.2049,1.2898],[-81.0404,23.2015,0.87],[-81.0379,23.2004,0.0],[-81.0296,23.2021,0.667],[-81.0315,23.2038,2.9297],[-81.0271,23.2088,8.1218],[-81.0221,23.2088,0.7834],[-81.019,23.2129,6.1668],[-81.0154,23.2143,0.0]]],
[[[-80.9604,23.2313,0.0],[-80.9635,23.2326,0.0],[-80.961,23.226,0.0],[-80.9599,23.2268,0.0],[-80.9604,23.2313,0.0]]],
[[[-80.9979,23.2554,1.1235],[-81.0024,23.2563,1.0078],[-81.0043,23.254,0.0],[-81.0062,23.2401,0.0],[-81.011,23.2304,0.6292],[-81.0107,23.2279,0.0],[-81.014,23.2243,6.3033],[-81.0115,23.2204,0.0],[-81.0043,23.2221,5.4039],[-81.0032,23.2265,1.5786],[-81.0013,23.2279,1.8546],[-81.0029,23.2304,5.0031],[-81.0021,23.2318,4.2469],[-80.9996,23.2324,3.8731],[-80.9982,23.2304,0.0],[-80.9957,23.2315,0.0],[-80.9962,23.2424,3.849],[-80.9924,23.2449,2.4309],[-80.991,23.2507,2.9539],[-80.9924,23.2529,3.9077],[-80.9949,23.2529,4.5471],[-80.9979,23.2554,1.1235]]],
[[[-80.9707,23.2415,0.0],[-80.9701,23.2429,0.0],[-80.9724,23.2432,0.5338],[-80.9735,23.239,0.0],[-80.9713,23.2351,0.0],[-80.9685,23.2346,0.0],[-80.9668,23.236,0.0],[-80.9668,23.2393,0.0],[-80.9713,23.2376,0.2194],[-80.9707,23.2415,0.0]]],
[[[-80.5649,23.0471,0.0],[-80.5676,23.0485,0.9905],[-80.5701,23.0465,0.0],[-80.5665,23.044,0.6176],[-80.5646,23.0454,0.0],[-80.5649,23.0471,0.0]]],
[[[-80.5818,23.0701,0.0],[-80.5813,23.0726,0.0],[-80.5826,23.0735,0.134],[-80.5901,23.0718,0.6488],[-80.591,23.0665,0.4579],[-80.5932,23.0637,0.5841],[-80.589,23.0629,0.0],[-80.5788,23.066,0.0],[-80.5818,23.0701,0.0]]],
[[[-80.5585,23.081,0.0],[-80.5615,23.0821,0.0],[-80.5638,23.0793,0.0],[-80.5574,23.076,0.0],[-80.5554,23.0729,0.2661],[-80.556,23.0701,0.0],[-80.5537,23.0693,0.2442],[-80.5529,23.0715,0.0],[-80.5585,23.081,0.0]]],
[[[-80.5612,23.091,0.2429],[-80.5607,23.0937,0.4911],[-80.5624,23.0943,0.0],[-80.5626,23.0874,0.6492],[-80.5612,23.0879,0.1831],[-80.5612,23.091,0.2429]]],
[[[-80.5493,23.064,0.0],[-80.5501,23.0657,0.0],[-80.5585,23.0654,0.6311],[-80.5601,23.0626,0.0],[-80.559,23.0613,0.5387],[-80.561,23.0613,0.0],[-80.5626,23.0557,0.0],[-80.5604,23.0546,0.3329],[-80.5574,23.056,1.3894],[-80.5563,23.0543,1.5073],[-80.5557,23.0557,1.3894],[-80.5535,23.0524,0.9698],[-80.5551,23.0521,0.9698],[-80.5554,23.0501,0.8068],[-80.5599,23.0515,0.0],[-80.5607,23.0501,0.0],[-80.5593,23.0488,0.0],[-80.551,23.049,0.0],[-80.554,23.0582,1.1386],[-80.5568,23.0576,0.4534],[-80.5576,23.0604,0.4834],[-80.5571,23.0632,0.0],[-80.5551,23.0637,0.2407],[-80.5535,23.0579,1.1386],[-80.5474,23.059,1.1728],[-80.5493,23.064,0.0]]],
[[[-80.5454,23.0596,0.1401],[-80.544,23.0596,0.3901],[-80.5435,23.061,0.4159],[-80.5462,23.0607,0.0],[-80.5454,23.0596,0.1401]]],
[[[-80.5557,23.1004,0.0],[-80.5546,23.1021,0.0],[-80.5576,23.1015,0.0],[-80.5571,23.1007,0.9777],[-80.5557,23.1004,0.0]]],
[[[-80.5057,23.1007,1.4345],[-80.5021,23.101,1.5137],[-80.501,23.1046,0.6962],[-80.5054,23.1021,0.0],[-80.5057,23.1007,1.4345]]],
[[[-80.5699,23.1207,0.0],[-80.5729,23.1218,0.6836],[-80.5735,23.1193,0.8759],[-80.5715,23.1193,0.4173],[-80.5649,23.114,0.3584],[-80.5615,23.1138,2.091],[-80.5615,23.1118,0.0],[-80.5582,23.1138,0.8543],[-80.5524,23.1099,0.4143],[-80.5537,23.1065,0.0],[-80.5526,23.1029,1.8316],[-80.5543,23.1024,0.0],[-80.5543,23.1004,0.0],[-80.5485,23.1004,0.0],[-80.5454,23.1076,1.525],[-80.5413,23.1057,0.8659],[-80.539,23.1065,0.0],[-80.5399,23.109,0.0],[-80.5437,23.1096,0.4487],[-80.5476,23.1126,0.3403],[-80.5488,23.1176,0.0],[-80.5507,23.1174,1.2504],[-80.5515,23.1146,2.7991],[-80.5535,23.1162,0.2924],[-80.5632,23.1154,1.4316],[-80.5668,23.1177,0.1084],[-80.5668,23.1201,0.0],[-80.5699,23.1207,0.0]]],
[[[-80.5207,23.1304,0.3833],[-80.5229,23.1326,0.0],[-80.5232,23.1288,0.5972],[-80.5207,23.1288,0.3833],[-80.5207,23.1304,0.3833]]],
[[[-80.5351,23.1326,0.2665],[-80.5368,23.1343,0.0],[-80.5365,23.1321,0.2665],[-80.5396,23.1307,0.0],[-80.5338,23.1307,0.16],[-80.5351,23.1326,0.2665]]],
[[[-80.5462,23.134,0.0],[-80.5457,23.1379,0.1833],[-80.5474,23.1382,0.0],[-80.5482,23.1346,0.0818],[-80.5468,23.1324,0.2422],[-80.5493,23.1282,0.0],[-80.5446,23.1299,0.0],[-80.5462,23.134,0.0]]],
[[[-80.584,23.1032,0.0],[-80.5918,23.104,0.0],[-80.5862,23.0999,1.15],[-80.5865,23.0951,0.0],[-80.5849,23.0951,0.0],[-80.584,23.0982,0.0],[-80.5813,23.1004,0.0],[-80.584,23.1032,0.0]]],
[[[-80.5904,23.1104,0.0],[-80.5918,23.1121,0.0],[-80.5957,23.1104,0.0],[-80.5957,23.1087,0.0],[-80.5943,23.1087,0.0],[-80.5904,23.1104,0.0]]],
[[[-80.5771,23.1368,0.3532],[-80.5793,23.1393,0.14],[-80.5793,23.136,0.131],[-80.5837,23.1371,0.0],[-80.5862,23.1349,0.0],[-80.5862,23.1329,0.7419],[-80.5815,23.1304,0.3609],[-80.5807,23.1276,0.0],[-80.576,23.124,0.0],[-80.5729,23.129,0.344],[-80.5699,23.1299,0.193],[-80.5687,23.1288,0.193],[-80.5679,23.1307,0.6494],[-80.569,23.1332,0.6084],[-80.5718,23.1338,0.0],[-80.5729,23.1388,0.1099],[-80.5743,23.1363,0.2884],[-80.5771,23.1368,0.3532]]],
[[[-80.5746,23.1426,0.0],[-80.579,23.1435,0.0],[-80.5771,23.1415,0.0],[-80.5777,23.139,0.1025],[-80.5765,23.139,0.1025],[-80.5762,23.1421,0.2696],[-80.5721,23.1401,0.1099],[-80.5715,23.1429,0.1328],[-80.5746,23.1426,0.0]]],
[[[-80.5062,23.146,0.0],[-80.5043,23.1446,0.3585],[-80.5038,23.1465,0.0],[-80.506,23.1465,0.2568],[-80.5062,23.146,0.0]]],
[[[-80.5043,23.1476,0.5786],[-80.5032,23.1499,0.0],[-80.5035,23.151,0.0],[-80.5071,23.149,0.0],[-80.5043,23.1476,0.5786]]],
[[[-80.5246,23.1526,0.0],[-80.5232,23.153199999999998,0.0],[-80.5237,23.1563,0.0],[-80.5249,23.1563,0.0],[-80.5246,23.1526,0.0]]],
[[[-80.5357,23.1574,0.3254],[-80.5385,23.1585,0.4793],[-80.5393,23.1571,0.0],[-80.536,23.1563,0.3094],[-80.5357,23.1574,0.3254]]],
[[[-80.5146,23.1585,2.2948],[-80.5168,23.1596,0.0],[-80.5126,23.156,0.6034],[-80.5093,23.1571,0.3637],[-80.5088,23.1557,0.1237],[-80.5065,23.156,1.6992],[-80.5071,23.1579,0.9883],[-80.5146,23.1585,2.2948]]],
[[[-80.5529,23.1596,0.5609],[-80.5529,23.1607,0.0],[-80.5574,23.1604,1.1731],[-80.5563,23.1574,0.8138],[-80.5529,23.1596,0.5609]]],
[[[-80.5421,23.1671,0.3116],[-80.5443,23.1682,0.2786],[-80.5451,23.166,0.1791],[-80.5421,23.1651,0.0],[-80.5421,23.1671,0.3116]]],
[[[-80.4832,23.1663,0.8812],[-80.4812,23.1654,2.2842],[-80.4801,23.1688,0.6902],[-80.4812,23.1688,0.6902],[-80.4832,23.1663,0.8812]]],
[[[-80.5632,23.1507,0.1194],[-80.5638,23.1493,0.1603],[-80.5615,23.1499,0.0],[-80.5601,23.1526,0.1668],[-80.5612,23.1526,0.1668],[-80.5632,23.1507,0.1194]]],
[[[-80.5607,23.1701,0.2015],[-80.5599,23.174,0.2095],[-80.5624,23.1721,0.5813],[-80.5618,23.1679,0.5623],[-80.5576,23.1676,0.3509],[-80.559,23.1629,0.6681],[-80.5571,23.1626,0.0],[-80.5565,23.1679,0.251],[-80.5607,23.1701,0.2015]]],
[[[-80.6001,23.1774,0.42],[-80.601,23.1804,1.8601],[-80.6026,23.1804,1.8601],[-80.6093,23.176,1.527],[-80.6132,23.1774,0.0],[-80.6196,23.1754,2.8642],[-80.6218,23.1763,0.0],[-80.6224,23.1679,0.7601],[-80.6282,23.1651,2.6131],[-80.6307,23.1657,0.0],[-80.6312,23.1618,2.4498],[-80.634,23.1604,0.0],[-80.6332,23.1576,0.5436],[-80.6282,23.1601,0.0],[-80.6274,23.164,0.6157],[-80.6201,23.1674,0.1576],[-80.6199,23.1707,1.238],[-80.6154,23.174,2.6171],[-80.6085,23.174,0.3977],[-80.6049,23.176,1.208],[-80.6035,23.1729,0.0],[-80.6015,23.1724,2.2306],[-80.5951,23.1763,3.1557],[-80.5901,23.1757,0.0],[-80.596,23.1787,3.255],[-80.6001,23.1774,0.42]]],
[[[-80.5804,23.1765,2.6648],[-80.5818,23.1793,0.8781],[-80.5879,23.1743,0.5305],[-80.5862,23.1738,1.8305],[-80.5865,23.1721,0.0],[-80.5821,23.1751,0.7571],[-80.5735,23.1732,0.0],[-80.5746,23.1749,1.9732],[-80.5804,23.1765,2.6648]]],
[[[-80.5488,23.1688,0.0],[-80.5515,23.1704,0.0],[-80.5524,23.1674,0.0],[-80.5496,23.1668,0.0],[-80.5488,23.1688,0.0]]],
[[[-80.5338,23.1726,1.8076],[-80.5329,23.1763,0.6543],[-80.5346,23.1765,0.6543],[-80.536,23.1726,0.8127],[-80.5382,23.1715,0.5702],[-80.5371,23.1685,0.9534],[-80.5393,23.1676,0.1435],[-80.539,23.164,1.2422],[-80.5365,23.1643,0.3172],[-80.5376,23.1663,1.4303],[-80.5362,23.1679,0.8955],[-80.5338,23.1651,0.0],[-80.5312,23.1682,0.1762],[-80.5338,23.1726,1.8076]]],
[[[-80.5496,23.1749,0.5791],[-80.5521,23.1765,0.1077],[-80.5551,23.1754,0.2321],[-80.5526,23.1746,0.0],[-80.5526,23.1724,0.0],[-80.5496,23.1749,0.5791]]],
[[[-80.556,23.1787,1.0107],[-80.5587,23.1804,0.4917],[-80.5565,23.1763,0.0],[-80.5546,23.1771,0.0],[-80.556,23.1787,1.0107]]],
[[[-80.6496,23.169,2.706],[-80.6476,23.1693,0.0],[-80.6474,23.1701,0.0],[-80.6504,23.1693,0.0],[-80.6496,23.169,2.706]]],
[[[-80.6776,23.1771,0.6838],[-80.6799,23.1779,1.8734],[-80.6793,23.1721,3.0606],[-80.676,23.1749,1.5961],[-80.6776,23.1771,0.6838]]],
[[[-80.6385,23.1782,0.0],[-80.6374,23.1799,0.0],[-80.6404,23.1799,1.5563],[-80.6418,23.1774,1.1755],[-80.6401,23.1774,1.1755],[-80.6385,23.1782,0.0]]],
[[[-80.659,23.1837,0.7741],[-80.6585,23.1868,3.5336],[-80.6649,23.184,0.0],[-80.6615,23.1826,0.4523],[-80.659,23.1837,0.7741]]],
[[[-80.6882,23.1824,0.0],[-80.6901,23.1835,3.7938],[-80.6882,23.1754,1.115],[-80.686,23.1743,3.954],[-80.6854,23.1757,4.2328],[-80.6882,23.1824,0.0]]],
[[[-80.754,23.1849,0.5363],[-80.7557,23.186,0.5019],[-80.7574,23.186,0.0],[-80.7551,23.1837,0.0],[-80.754,23.1849,0.5363]]],
[[[-80.7451,23.1868,0.0],[-80.7482,23.1874,0.0],[-80.7504,23.1854,0.0],[-80.7457,23.1843,0.0],[-80.7451,23.1868,0.0]]],
[[[-80.7038,23.1876,2.398],[-80.7057,23.1907,0.6545],[-80.706,23.184,0.0],[-80.7024,23.1824,2.5865],[-80.7024,23.1849,1.9874],[-80.7038,23.1876,2.398]]],
[[[-80.7357,23.1968,1.2424],[-80.7396,23.1979,0.0],[-80.739,23.1949,0.0],[-80.7418,23.1935,0.2018],[-80.7399,23.1915,0.7293],[-80.741,23.1896,0.0],[-80.7393,23.1865,0.0996],[-80.7418,23.184,0.825],[-80.7374,23.1785,0.0],[-80.7354,23.1799,3.1841],[-80.7349,23.184,2.0242],[-80.731,23.1863,0.1908],[-80.7318,23.1899,0.0],[-80.7371,23.191,1.1665],[-80.7346,23.1949,0.8224],[-80.7357,23.1968,1.2424]]],
[[[-80.7237,23.1938,0.0],[-80.7249,23.1951,0.21],[-80.7262,23.1949,0.21],[-80.7251,23.1921,0.3047],[-80.7237,23.1938,0.0]]],
[[[-80.7851,23.1938,1.3288],[-80.7835,23.1938,0.0],[-80.7832,23.1965,0.0],[-80.7854,23.1954,1.3288],[-80.7851,23.1938,1.3288]]],
[[[-80.729,23.2043,0.0],[-80.7354,23.2054,0.0925],[-80.7374,23.1988,0.2298],[-80.7357,23.1976,0.1708],[-80.7312,23.1985,0.0],[-80.736,23.1993,0.4455],[-80.7318,23.2032,0.4885],[-80.7299,23.2001,0.0],[-80.7251,23.2012,0.9076],[-80.7237,23.199,0.0],[-80.7224,23.2001,0.0],[-80.7218,23.1968,0.0],[-80.716,23.1979,1.0267],[-80.7143,23.196,0.0],[-80.7129,23.1971,0.8757],[-80.711,23.1954,1.1725],[-80.7115,23.194,1.1725],[-80.709,23.1932,0.3862],[-80.7107,23.1879,0.2443],[-80.7087,23.1863,1.2167],[-80.7063,23.1974,0.0],[-80.7101,23.1999,0.279],[-80.7154,23.1988,0.0],[-80.716,23.2004,0.0],[-80.7196,23.2001,1.2237],[-80.729,23.2043,0.0]]],
[[[-80.6751,23.189,0.4881],[-80.6782,23.1899,0.6646],[-80.6779,23.1882,0.0],[-80.676,23.189,0.4881],[-80.6765,23.1868,0.4742],[-80.6746,23.1874,2.2475],[-80.6732,23.1857,1.1773],[-80.6729,23.1865,1.1773],[-80.6751,23.189,0.4881]]],
[[[-80.636,23.1982,0.6135],[-80.6376,23.2001,0.3072],[-80.6382,23.1985,0.292],[-80.6415,23.1979,0.431],[-80.6387,23.1959,0.0],[-80.6415,23.1915,0.0],[-80.6379,23.1901,0.2497],[-80.6379,23.1887,0.0],[-80.6368,23.1901,0.5029],[-80.6343,23.1887,0.0],[-80.6329,23.1901,0.5066],[-80.6304,23.1857,0.3262],[-80.6276,23.1843,1.8934],[-80.6268,23.1882,0.2082],[-80.6307,23.1879,0.315],[-80.6315,23.1901,0.7896],[-80.6301,23.1924,0.6207],[-80.6332,23.194,0.5181],[-80.6324,23.1996,0.4661],[-80.6335,23.1976,0.5211],[-80.636,23.1982,0.6135]]],
[[[-80.6485,23.194,0.0],[-80.6507,23.1957,0.0],[-80.6501,23.191,0.6702],[-80.6474,23.1913,0.0],[-80.6485,23.194,0.0]]],
[[[-80.6756,23.1932,0.0],[-80.6738,23.194,0.5026],[-80.674,23.1965,0.0],[-80.6751,23.1965,0.1286],[-80.6756,23.1932,0.0]]],
[[[-80.5718,23.176,0.5988],[-80.5713,23.1776,0.0],[-80.5746,23.1774,0.0],[-80.5735,23.1757,2.6099],[-80.5718,23.176,0.5988]]],
[[[-80.574,23.1829,0.0],[-80.5749,23.1846,0.8078],[-80.576,23.1821,1.5742],[-80.5751,23.1818,0.0],[-80.574,23.1829,0.0]]],
[[[-80.6065,23.1876,0.3654],[-80.6068,23.1896,0.8164],[-80.6113,23.1885,0.0],[-80.611,23.1854,0.6807],[-80.609,23.1843,0.6807],[-80.6118,23.181,0.0],[-80.6082,23.1826,0.8516],[-80.6065,23.1876,0.3654]]],
[[[-80.6179,23.189,2.1787],[-80.6174,23.1907,0.0],[-80.6196,23.189,0.9764],[-80.619,23.184,0.2794],[-80.6176,23.1851,0.2794],[-80.619,23.1863,0.274],[-80.6179,23.189,2.1787]]],
[[[-80.6146,23.2215,3.4588],[-80.6185,23.2229,2.2747],[-80.6268,23.215699999999998,1.1894],[-80.6243,23.2101,2.8991],[-80.6271,23.2118,1.679],[-80.6293,23.211,1.4251],[-80.6304,23.214,0.492],[-80.6343,23.2154,3.6466],[-80.6385,23.2154,0.7854],[-80.6388,23.2121,2.4094],[-80.6404,23.2168,2.3668],[-80.6465,23.2168,3.0283],[-80.6471,23.2138,4.6251],[-80.6438,23.2115,0.7494],[-80.6432,23.2088,1.995],[-80.6413,23.2124,1.121],[-80.639,23.211,0.9374],[-80.6429,23.2029,0.0],[-80.6382,23.2068,1.7256],[-80.6346,23.2062,0.8739],[-80.6346,23.2079,0.8351],[-80.6379,23.2107,0.9374],[-80.6368,23.2121,3.6246],[-80.6315,23.211,2.9065],[-80.6304,23.209,0.8342],[-80.6279,23.2099,0.7771],[-80.6232,23.2068,1.4513],[-80.6268,23.201,0.5321],[-80.6218,23.204,2.0124],[-80.6221,23.1996,0.2707],[-80.6182,23.1988,1.5553],[-80.6193,23.2024,1.5956],[-80.6179,23.2079,0.9161],[-80.621,23.209,0.0],[-80.6193,23.2138,2.1054],[-80.6143,23.2126,1.6855],[-80.6129,23.209,0.546],[-80.6087,23.2115,1.2966],[-80.6076,23.209,0.0],[-80.6071,23.211,1.2966],[-80.6096,23.2132,1.3889],[-80.6124,23.2107,1.0248],[-80.6137,23.2138,0.0],[-80.6185,23.2154,3.3975],[-80.6188,23.2174,0.5262],[-80.619,23.2154,3.3975],[-80.6207,23.2151,2.1054],[-80.621,23.2171,2.2821],[-80.619,23.2193,2.1464],[-80.6157,23.2196,2.3042],[-80.6126,23.2149,0.9293],[-80.609,23.2138,2.0952],[-80.6057,23.2154,1.9027],[-80.6007,23.2088,1.1088],[-80.6032,23.2096,0.0],[-80.606,23.2051,0.5129],[-80.6049,23.201,0.0],[-80.6018,23.2007,0.956],[-80.6029,23.1982,1.9279],[-80.6068,23.1988,0.3396],[-80.6076,23.1971,0.3821],[-80.6062,23.1932,0.5721],[-80.6043,23.194,1.0374],[-80.6065,23.191,0.7289],[-80.6057,23.186,0.8662],[-80.6026,23.1876,0.4868],[-80.5979,23.1946,0.5093],[-80.5896,23.196,0.3329],[-80.5979,23.1865,1.8747],[-80.5979,23.1854,0.0],[-80.596,23.1868,0.2396],[-80.5926,23.1863,1.7653],[-80.5954,23.1793,1.3571],[-80.5907,23.1815,0.6765],[-80.5915,23.1832,1.8],[-80.5879,23.1871,2.938],[-80.5843,23.186,0.1553],[-80.5813,23.189,2.0412],[-80.5815,23.1924,1.3781],[-80.5832,23.1938,0.9476],[-80.5765,23.1926,0.8653],[-80.5751,23.1938,0.8876],[-80.5757,23.1854,0.8078],[-80.5726,23.1863,1.092],[-80.571,23.1851,0.2487],[-80.5687,23.1926,3.133],[-80.5665,23.1935,0.0],[-80.5615,23.1904,1.0605],[-80.5643,23.1846,1.1009],[-80.566,23.1849,1.0723],[-80.5649,23.1868,0.7481],[-80.569,23.1849,0.2274],[-80.566,23.176,0.0],[-80.571,23.1715,0.0],[-80.571,23.1696,0.0],[-80.5701,23.1685,0.0],[-80.5682,23.1693,0.484],[-80.5671,23.1649,0.0],[-80.5657,23.1654,0.0],[-80.5654,23.1712,0.5033],[-80.5629,23.1707,0.5621],[-80.5638,23.1743,1.2811],[-80.561,23.1765,0.4341],[-80.5629,23.1785,1.6982],[-80.5624,23.1826,1.3234],[-80.5587,23.1824,0.7704],[-80.559,23.1846,1.0659],[-80.5568,23.1843,1.0151],[-80.5554,23.186,2.0138],[-80.5543,23.1837,0.8123],[-80.5501,23.1835,1.8821],[-80.5521,23.1813,0.7912],[-80.5499,23.1807,1.952],[-80.5468,23.184,0.841],[-80.5476,23.1849,1.0375],[-80.5488,23.1837,1.1551],[-80.5485,23.1854,1.0375],[-80.5451,23.189,1.6426],[-80.5387,23.1868,3.5484],[-80.5396,23.1846,2.2836],[-80.5424,23.1849,0.4908],[-80.5421,23.1804,0.4155],[-80.5357,23.1846,0.0],[-80.5338,23.1837,0.3037],[-80.5354,23.181,0.6769],[-80.531,23.1818,0.8327],[-80.5312,23.1785,0.8422],[-80.5282,23.1807,1.6016],[-80.5254,23.1796,0.2185],[-80.5257,23.1774,0.8088],[-80.5271,23.1776,2.4172],[-80.5271,23.1796,1.8174],[-80.5285,23.1793,1.8174],[-80.5274,23.1763,1.5233],[-80.5221,23.1768,1.1001],[-80.5212,23.1721,1.1203],[-80.5232,23.1735,0.5959],[-80.5235,23.1701,0.777],[-80.5265,23.1721,0.0],[-80.5301,23.1704,1.626],[-80.5279,23.1699,0.6532],[-80.5279,23.1671,0.1904],[-80.5237,23.1654,1.5277],[-80.5237,23.1599,0.4245],[-80.521,23.1607,0.6498],[-80.5226,23.1624,1.495],[-80.5221,23.1649,1.8131],[-80.5182,23.1643,0.3144],[-80.5179,23.1688,1.1837],[-80.5221,23.1668,1.8019],[-80.5229,23.1693,0.777],[-80.5215,23.1685,0.7679],[-80.5182,23.1704,1.1837],[-80.5171,23.1688,1.1837],[-80.5163,23.1738,0.3362],[-80.5121,23.174,2.9176],[-80.5126,23.1721,0.2142],[-80.5088,23.1693,0.803],[-80.5099,23.166,1.1336],[-80.5135,23.1654,1.1594],[-80.5146,23.1629,0.9834],[-80.5171,23.1632,0.1677],[-80.5135,23.1604,0.0],[-80.5076,23.1601,0.0],[-80.5068,23.1621,1.9929],[-80.4993,23.1649,0.7182],[-80.4974,23.1643,2.1608],[-80.4968,23.1621,2.2221],[-80.4901,23.1638,2.0734],[-80.4863,23.1679,0.0],[-80.4868,23.1701,1.8743],[-80.4837,23.1696,0.0],[-80.4815,23.1718,2.1393],[-80.4765,23.169,3.9903],[-80.4768,23.1668,2.2826],[-80.4904,23.1615,0.0],[-80.496,23.1571,0.0],[-80.506,23.1563,1.9618],[-80.5021,23.1535,0.0],[-80.4871,23.161,1.3824],[-80.4785,23.1621,1.2208],[-80.4687,23.1693,0.0],[-80.4682,23.1738,0.0],[-80.4696,23.1774,1.0557],[-80.4765,23.1887,1.8365],[-80.4774,23.2057,1.4227],[-80.4796,23.2079,0.3144],[-80.4874,23.206,4.7521],[-80.4901,23.2068,0.0],[-80.4921,23.204,0.0],[-80.4885,23.2029,4.4608],[-80.4824,23.1954,0.8486],[-80.4832,23.1879,3.6083],[-80.5065,23.1771,0.0],[-80.5124,23.1774,1.2957],[-80.5179,23.1796,0.991],[-80.5182,23.1813,0.6145],[-80.5249,23.1863,1.2266],[-80.5385,23.1901,2.5787],[-80.5393,23.1938,0.637],[-80.5437,23.1963,4.6695],[-80.5451,23.1993,0.6521],[-80.5571,23.1963,0.9966],[-80.5682,23.1974,0.0],[-80.5699,23.1957,0.7676],[-80.5738,23.196,0.0],[-80.5779,23.1985,1.2135],[-80.5807,23.1951,1.1188],[-80.5793,23.2004,2.3539],[-80.5918,23.2021,0.6771],[-80.5915,23.2062,1.2751],[-80.5996,23.2199,2.7411],[-80.5982,23.2207,1.739],[-80.5949,23.219,1.8787],[-80.5943,23.2218,0.0],[-80.5985,23.221,1.739],[-80.6029,23.2224,0.0],[-80.6057,23.2174,1.4005],[-80.6115,23.2188,3.4081],[-80.6146,23.2215,3.4588]]],
[[[-80.6204,23.1957,0.0],[-80.6212,23.1971,0.1956],[-80.6226,23.1965,0.3869],[-80.6218,23.1926,0.3453],[-80.6229,23.1929,0.3453],[-80.624,23.1882,0.0],[-80.6235,23.1832,0.0],[-80.6232,23.1871,2.8641],[-80.6218,23.1874,2.8641],[-80.6196,23.1938,0.2201],[-80.6204,23.1957,0.0]]],
[[[-80.6257,23.1913,0.3856],[-80.6246,23.1913,0.082],[-80.6249,23.1963,0.164],[-80.6263,23.1951,0.39],[-80.6257,23.1913,0.3856]]],
[[[-80.6137,23.2018,0.0],[-80.6132,23.2068,0.0],[-80.6143,23.2071,0.0],[-80.6165,23.2024,0.7002],[-80.6137,23.2018,0.0]]],
[[[-80.8362,23.2237,1.7937],[-80.8393,23.2246,0.7634],[-80.846,23.2232,0.2121],[-80.8468,23.2201,0.6882],[-80.8437,23.219,0.3653],[-80.8443,23.2138,0.147],[-80.8471,23.2126,0.0],[-80.8468,23.2085,0.1262],[-80.8476,23.2099,0.2307],[-80.8499,23.2093,0.0],[-80.8507,23.2115,0.0],[-80.8507,23.206,0.0],[-80.8479,23.206,0.0],[-80.8388,23.211,0.0],[-80.8365,23.2143,0.3295],[-80.8337,23.2149,0.3136],[-80.8326,23.209,0.8147],[-80.829,23.2118,0.2793],[-80.826,23.2104,0.0],[-80.8218,23.2113,0.5461],[-80.8213,23.2071,0.0],[-80.8187,23.204,1.5383],[-80.819,23.2026,0.4088],[-80.821,23.2032,0.0],[-80.8207,23.1993,0.7045],[-80.8179,23.2024,0.887],[-80.8168,23.2007,0.3292],[-80.8151,23.2015,0.3292],[-80.8118,23.1976,0.1308],[-80.811,23.201,0.2864],[-80.814,23.2015,0.0],[-80.8138,23.2062,0.2892],[-80.8082,23.2049,0.1135],[-80.8079,23.2018,1.7836],[-80.8099,23.2001,1.2255],[-80.8087,23.1985,0.432],[-80.806,23.2024,0.4648],[-80.8071,23.2035,0.6682],[-80.8063,23.2057,0.0],[-80.8029,23.2049,0.0],[-80.8029,23.2062,0.1376],[-80.7962,23.2068,1.0894],[-80.7957,23.2046,0.747],[-80.7979,23.2035,1.7081],[-80.7993,23.1988,1.0452],[-80.7965,23.2026,1.7081],[-80.7935,23.2024,1.4018],[-80.7951,23.1971,0.8897],[-80.7871,23.1918,0.0],[-80.786,23.1938,0.0],[-80.789,23.1954,0.0937],[-80.7913,23.2001,2.1799],[-80.7893,23.2035,0.8391],[-80.7885,23.2035,0.8391],[-80.7893,23.201,0.0],[-80.7874,23.2024,1.0678],[-80.784,23.1974,0.0],[-80.784,23.2032,0.4464],[-80.7796,23.204,1.1762],[-80.7812,23.2024,0.3788],[-80.7796,23.201,0.639],[-80.7776,23.2046,2.4949],[-80.7763,23.1968,0.0],[-80.7751,23.1968,0.0],[-80.7743,23.2024,2.4533],[-80.771,23.2004,0.0],[-80.766,23.2054,0.322],[-80.7688,23.2079,0.1278],[-80.776,23.2085,1.9619],[-80.7851,23.2076,0.5583],[-80.7871,23.2057,0.7257],[-80.7854,23.2093,0.0],[-80.7876,23.2113,0.0],[-80.7951,23.2101,2.1274],[-80.8129,23.2138,0.0],[-80.8362,23.2237,1.7937]]],
[[[-80.8657,23.2096,0.0],[-80.8643,23.2115,0.0],[-80.8674,23.2115,0.0],[-80.8676,23.2099,0.0],[-80.8657,23.2096,0.0]]],
[[[-80.8512,23.2182,0.1761],[-80.8493,23.2182,0.0],[-80.8482,23.2204,0.0],[-80.8535,23.2174,0.3368],[-80.8512,23.2182,0.1761]]],
[[[-80.9018,23.2765,5.1288],[-80.9068,23.2774,0.0],[-80.914,23.2751,0.9652],[-80.9271,23.2654,2.9943],[-80.9365,23.2635,5.1171],[-80.9493,23.2646,0.0],[-80.9488,23.2596,0.0],[-80.9463,23.2565,0.0],[-80.9415,23.256,0.9293],[-80.9399,23.2543,0.7847],[-80.9301,23.2551,0.0],[-80.9204,23.2524,1.4371],[-80.9115,23.2482,0.0],[-80.9107,23.2451,0.8599],[-80.9124,23.2449,0.7038],[-80.9129,23.2474,0.0],[-80.9196,23.251,1.3466],[-80.9301,23.2532,2.2895],[-80.9388,23.2521,0.0],[-80.9376,23.2499,1.5326],[-80.9401,23.2488,0.9164],[-80.9443,23.2521,0.0],[-80.9449,23.2485,0.7994],[-80.9479,23.2463,0.8422],[-80.9476,23.2524,4.7459],[-80.9451,23.2518,0.0],[-80.9443,23.2532,0.0],[-80.9496,23.2582,2.1167],[-80.9499,23.2521,2.8769],[-80.9515,23.2518,1.6412],[-80.951,23.2474,0.0],[-80.9465,23.2451,0.0],[-80.9488,23.2429,0.3624],[-80.9482,23.241,0.0],[-80.9468,23.2424,1.1271],[-80.9454,23.2415,0.0],[-80.946,23.2326,0.0],[-80.9443,23.2315,3.0138],[-80.944,23.2279,0.0],[-80.9374,23.2282,0.0],[-80.9329,23.2257,1.0851],[-80.934,23.2293,0.5445],[-80.9326,23.2332,0.8195],[-80.9301,23.2329,0.0],[-80.931,23.2351,0.4614],[-80.9274,23.2307,2.2033],[-80.9226,23.2337,0.0],[-80.9226,23.236,0.0],[-80.924,23.2357,1.1182],[-80.9229,23.2368,0.0],[-80.9238,23.2401,0.0],[-80.9279,23.2418,2.9959],[-80.9318,23.2468,0.8911],[-80.934,23.2474,0.0],[-80.9337,23.249,1.0191],[-80.9279,23.244,0.5784],[-80.9221,23.2449,0.0],[-80.9196,23.241,0.0],[-80.9168,23.2412,0.2524],[-80.9151,23.2335,0.0],[-80.9093,23.2343,0.0],[-80.9115,23.236,3.3246],[-80.9101,23.239,0.1768],[-80.9057,23.2326,0.64],[-80.904,23.2346,1.4472],[-80.9043,23.2393,1.904],[-80.9021,23.241,1.7336],[-80.9018,23.2435,4.145],[-80.9001,23.2435,0.7535],[-80.8985,23.2424,1.6622],[-80.8985,23.2396,0.0],[-80.896,23.2393,0.4695],[-80.8951,23.2365,0.0],[-80.8929,23.2363,3.5274],[-80.8932,23.2332,0.0],[-80.8913,23.2335,0.0],[-80.8863,23.2296,0.0],[-80.8807,23.2337,0.0],[-80.8757,23.2326,0.2478],[-80.8788,23.2299,0.0],[-80.8793,23.2268,0.0],[-80.8779,23.2293,0.8863],[-80.8768,23.226,0.5161],[-80.8746,23.2296,4.2183],[-80.8735,23.2285,0.7467],[-80.8701,23.2315,2.0356],[-80.8696,23.2276,1.5757],[-80.8729,23.2263,0.175],[-80.8737,23.2226,0.7388],[-80.8704,23.226,0.3199],[-80.8665,23.2265,0.0],[-80.866,23.2254,2.1639],[-80.8618,23.2279,1.4513],[-80.8637,23.2254,1.6944],[-80.8676,23.2237,0.7475],[-80.8707,23.2246,0.0],[-80.8668,23.2221,0.7475],[-80.8729,23.2185,0.0],[-80.8732,23.2154,0.0],[-80.8607,23.2171,3.0489],[-80.8465,23.2229,0.2121],[-80.8454,23.2279,0.0],[-80.8529,23.2285,3.4367],[-80.8637,23.2351,0.9556],[-80.8629,23.2368,0.0],[-80.8662,23.236,1.6744],[-80.8654,23.2435,0.0],[-80.8679,23.249,1.8643],[-80.8662,23.2535,0.0],[-80.8696,23.2532,1.8735],[-80.8729,23.2554,1.4681],[-80.8743,23.2543,1.4681],[-80.8735,23.2532,1.8889],[-80.8779,23.2507,0.0],[-80.8788,23.2485,2.142],[-80.8887,23.2471,0.0],[-80.8899,23.2443,1.8414],[-80.8907,23.2476,0.0],[-80.8957,23.2504,3.7502],[-80.8968,23.2565,0.0],[-80.901,23.2626,0.0],[-80.9018,23.2765,5.1288]]],
[[[-80.9826,23.2432,3.2085],[-80.984,23.2449,1.2333],[-80.9868,23.2407,1.7558],[-80.9849,23.2374,0.7982],[-80.9807,23.2354,0.0],[-80.9782,23.2393,0.0],[-80.9826,23.2432,3.2085]]],
[[[-80.9565,23.249,0.6909],[-80.9571,23.2507,0.0],[-80.959,23.2504,0.0],[-80.9574,23.2488,1.3491],[-80.9571,23.2426,0.0],[-80.959,23.2415,1.2703],[-80.9612,23.2435,0.0],[-80.9604,23.2412,1.2703],[-80.9629,23.241,0.6407],[-80.9607,23.2374,0.7364],[-80.9607,23.2337,1.3192],[-80.9571,23.2301,0.0],[-80.9546,23.2329,0.0],[-80.9596,23.2371,0.7364],[-80.956,23.2371,2.6765],[-80.9526,23.2349,0.0],[-80.9529,23.2371,1.1862],[-80.9499,23.239,0.0],[-80.9512,23.2446,0.5042],[-80.9565,23.249,0.6909]]],
[[[-80.9793,23.2593,0.0],[-80.9821,23.2601,0.4162],[-80.9779,23.2538,1.469],[-80.9751,23.2526,3.0006],[-80.9765,23.2496,3.2745],[-80.979,23.2532,0.0],[-80.9804,23.2526,0.0],[-80.9776,23.2485,0.0],[-80.9782,23.241,0.0],[-80.9757,23.2424,0.7984],[-80.9765,23.2457,5.4992],[-80.9724,23.2457,2.9428],[-80.971,23.2479,2.5165],[-80.9682,23.2479,0.0],[-80.9671,23.2504,3.4304],[-80.9687,23.2501,3.4304],[-80.9676,23.2518,1.0517],[-80.9715,23.2512,7.8658],[-80.9726,23.254,1.9599],[-80.9793,23.2593,0.0]]],
[[[-80.9638,23.2596,2.3611],[-80.9668,23.2604,0.5355],[-80.9646,23.2576,0.6449],[-80.9668,23.2554,0.0],[-80.9707,23.2571,0.0],[-80.9729,23.2563,0.0],[-80.9713,23.2543,1.9599],[-80.9638,23.2554,0.0],[-80.964,23.2543,0.0],[-80.9612,23.2543,1.5227],[-80.9604,23.2524,1.0034],[-80.959,23.2551,1.0254],[-80.954,23.2535,0.0],[-80.9535,23.2571,0.3194],[-80.9601,23.2576,1.5931],[-80.9638,23.2596,2.3611]]]]}}