{"type": "Feature","bbox": [-65.8314,18.1743,-65.658,18.2966],"geometry": {"type": "MultiPolygon","coordinates": [[[[-65.6765,18.194,0.0],[-65.6776,18.1946,0.0],[-65.6776,18.1924,3.2367],[-65.6749,18.1918,0.0],[-65.6749,18.1935,0.0],[-65.6765,18.194,0.0]]],
[[[-65.7658,18.2793,932.7704],[-65.7743,18.2818,798.6901],[-65.7817,18.2885,769.3986],[-65.785,18.2942,762.6205],[-65.7887,18.2942,753.7052],[-65.7933,18.2966,817.5807],[-65.7947,18.2914,787.2021],[-65.8053,18.2881,813.3418],[-65.8118,18.29,960.5355],[-65.8243,18.2729,968.1851],[-65.8239,18.269,919.0038],[-65.8197,18.2676,895.8781],[-65.8155,18.2623,865.8765],[-65.8174,18.2523,597.6267],[-65.8281,18.2314,207.2938],[-65.8314,18.2142,115.7501],[-65.8258,18.2004,228.9208],[-65.8194,18.2056,111.1357],[-65.8069,18.2051,112.5947],[-65.7999,18.2027,118.442],[-65.7925,18.207,129.6837],[-65.7602,18.1955,101.2473],[-65.7662,18.1821,1.9334],[-65.7515,18.1764,14.2322],[-65.7482,18.1797,20.4063],[-65.7408,18.1821,6.653],[-65.739,18.1743,0.0],[-65.7346,18.181,7.9564],[-65.7285,18.1863,5.119],[-65.7201,18.1896,1.5473],[-65.7126,18.1893,14.4889],[-65.7082,18.1821,0.0],[-65.706,18.1843,7.041],[-65.7024,18.1838,6.4011],[-65.7015,18.1813,0.0],[-65.6996,18.1813,0.0],[-65.6979,18.184,3.4918],[-65.6946,18.1782,0.0],[-65.6913,18.1782,0.0],[-65.6915,18.1826,0.0],[-65.6949,18.1879,16.6495],[-65.6929,18.1887,0.0],[-65.6935,18.1901,0.0],[-65.6896,18.196,4.3502],[-65.6824,18.1988,8.163],[-65.6785,18.1971,0.9192],[-65.6749,18.2007,5.5812],[-65.671,18.1996,0.0],[-65.6643,18.2068,0.0],[-65.66,18.2065,0.0],[-65.6645,18.2147,11.3664],[-65.6603,18.2176,18.0743],[-65.658,18.2218,5.4198],[-65.6584,18.2247,3.2909],[-65.6621,18.2252,4.1698],[-65.6695,18.2228,7.9681],[-65.6802,18.2267,20.024],[-65.6885,18.2315,84.4874],[-65.6889,18.2363,40.1948],[-65.6931,18.2382,48.2017],[-65.6866,18.2463,78.6979],[-65.6838,18.2472,72.3736],[-65.6828,18.2525,94.0622],[-65.6842,18.2534,118.3709],[-65.6935,18.2511,195.6955],[-65.6949,18.2549,150.8161],[-65.7004,18.2568,165.8076],[-65.7027,18.2597,172.4683],[-65.7078,18.2559,154.464],[-65.712,18.2554,136.0709],[-65.7161,18.2578,163.1571],[-65.7217,18.2573,151.4908],[-65.7221,18.2521,182.2432],[-65.73,18.2531,220.0857],[-65.7392,18.2607,396.6154],[-65.7522,18.2636,805.6356],[-65.7623,18.2713,994.179],[-65.7658,18.2793,932.7704]]]]}
,"properties": {"GID_1": "PRI.53_1","GID_0": "PRI","country": "PuertoRico","province": "Naguabo","VARNAME_1": "NA","NL_NAME_1": "NA","TYPE_1": "Municipio","ENGTYPE_1": "Municipality","CC_1": "NA","HASC_1": "PR.NG","ISO_1": "-","name": "Naguabo.province","area_km2": 133.9174,"hist_schema_id": "Elevation0-9000","hist_area_km2": {"0": 23.102,"25": 23.8659,"50": 13.8555,"75": 9.2031,"100": 9.4248,"125": 5.4372,"150": 4.5913,"175": 2.497,"200": 2.2956,"225": 1.8526,"250": 1.8324,"275": 1.4901,"300": 1.7116,"325": 1.4901,"350": 1.7116,"375": 1.7317,"400": 1.2484,"425": 1.0873,"450": 0.9866,"475": 1.2887,"500": 0.9262,"525": 0.8658,"550": 1.0067,"575": 1.1879,"600": 0.8658,"625": 1.7919,"650": 3.1207,"675": 2.9797,"700": 2.1743,"725": 1.7918,"750": 1.2684,"775": 1.4496,"800": 0.6644,"825": 0.4631,"850": 0.5839,"875": 0.7852,"900": 0.3221,"925": 0.302,"950": 0.2819,"975": 0.3423,"1000": 0.0201,"1025": 0.0201}}}