{"type": "Feature","bbox": [-73.0336,19.709,-72.6199,20.0899],"geometry": {"type": "MultiPolygon","coordinates": [[[[-72.8774,19.709,628.9814],[-72.8581,19.7128,546.2822],[-72.8466,19.7132,723.3065],[-72.8402,19.7162,568.8964],[-72.8377,19.7209,573.7312],[-72.8384,19.7298,661.1903],[-72.8353,19.7319,651.236],[-72.8284,19.7314,484.8317],[-72.8244,19.7344,501.9804],[-72.8186,19.7346,396.8427],[-72.8122,19.7379,258.5208],[-72.8109,19.7394,232.5569],[-72.8116,19.7456,211.2473],[-72.8104,19.7519,198.8596],[-72.8079,19.7558,187.3241],[-72.7972,19.7643,129.5922],[-72.782,19.7729,188.1833],[-72.7754,19.7808,382.7886],[-72.7652,19.7883,467.476],[-72.7624,19.7888,447.0405],[-72.7485,19.7829,290.1839],[-72.7426,19.7835,261.3853],[-72.7394,19.786,309.6814],[-72.7393,19.7907,308.7031],[-72.7339,19.7939,288.2426],[-72.7289,19.7994,367.0851],[-72.7277,19.8057,428.3],[-72.7246,19.8095,463.3267],[-72.7302,19.8123,417.2722],[-72.7311,19.8207,641.3186],[-72.734,19.8281,757.1291],[-72.7385,19.8325,635.0168],[-72.7382,19.837,792.2201],[-72.7349,19.8405,761.2365],[-72.7363,19.8434,859.0902],[-72.7324,19.8461,801.4077],[-72.7352,19.8484,813.3201],[-72.7355,19.8512,795.4675],[-72.7373,19.8499,836.9619],[-72.7453,19.8539,852.4663],[-72.7482,19.8609,820.3832],[-72.7473,19.8659,745.5645],[-72.7513,19.8695,816.3157],[-72.7486,19.8735,830.8074],[-72.7436,19.8753,774.9846],[-72.7418,19.88,876.4097],[-72.7485,19.8795,797.9464],[-72.7498,19.8848,771.2808],[-72.763,19.891,705.9878],[-72.7639,19.8945,531.9487],[-72.7665,19.8942,534.2907],[-72.7672,19.9002,474.6336],[-72.7712,19.8993,490.7074],[-72.7723,19.9007,432.6187],[-72.7707,19.9048,330.2654],[-72.7713,19.908,259.3471],[-72.7605,19.9203,247.5372],[-72.7608,19.9259,167.7242],[-72.7541,19.9375,38.6995],[-72.7559,19.9377,8.6972],[-72.7538,19.9424,5.1522],[-72.751,19.9436,5.3443],[-72.7482,19.9421,0.0],[-72.7458,19.9425,0.0],[-72.7424,19.9399,3.7775],[-72.7446,19.9426,0.0],[-72.7485,19.9424,0.916],[-72.7504,19.944,0.0],[-72.7543,19.9432,5.1522],[-72.7621,19.9446,0.3354],[-72.7668,19.9493,0.0],[-72.7726,19.9476,0.6634],[-72.781,19.9518,0.0],[-72.7865,19.9504,2.2706],[-72.7935,19.951,0.0],[-72.7965,19.9487,5.9385],[-72.8007,19.9487,2.9399],[-72.8076,19.9518,0.0],[-72.8112,19.9487,1.7963],[-72.814,19.9518,0.0],[-72.8193,19.9535,0.6467],[-72.8251,19.9463,0.0],[-72.829,19.9451,0.0],[-72.8304,19.9418,4.1774],[-72.8335,19.941,1.3553],[-72.8343,19.9429,0.0],[-72.8399,19.9415,1.4463],[-72.8496,19.9443,0.0],[-72.8621,19.9407,0.0],[-72.8721,19.9313,0.9008],[-72.8768,19.9318,0.7944],[-72.879,19.9338,0.0],[-72.8885,19.9338,1.2014],[-72.8904,19.936,0.0],[-72.8943,19.9363,0.0],[-72.9451,19.9267,3.9317],[-72.95,19.9233,11.1626],[-72.9557,19.9226,3.6795],[-72.9574,19.9193,0.0],[-72.956,19.9134,21.1099],[-72.9587,19.9096,0.8698],[-72.9638,19.9107,0.0],[-72.9643,19.9161,0.0],[-72.9724,19.9243,0.0],[-72.9774,19.9243,0.0],[-72.9871,19.9211,5.799],[-72.994,19.9221,0.0],[-72.996,19.919,0.0],[-73.0004,19.9171,0.0],[-72.9995,19.9061,15.4813],[-73.0025,19.9008,23.2797],[-72.9997,19.8879,13.8242],[-72.9998,19.8806,16.3702],[-73.0063,19.8752,29.778],[-73.007,19.8728,32.9831],[-73.0035,19.8669,34.6076],[-73.0047,19.8543,57.0728],[-73.0127,19.8482,105.5357],[-73.014,19.837,74.7824],[-73.0182,19.8361,100.7331],[-73.0199,19.8375,80.4489],[-73.0248,19.8295,127.1359],[-73.0217,19.824,107.9725],[-73.0219,19.8162,146.8239],[-73.0203,19.8135,135.8951],[-73.0223,19.7954,187.2923],[-73.0206,19.7917,184.4931],[-73.0227,19.79,193.3545],[-73.0235,19.7836,232.1271],[-73.0288,19.7767,286.5592],[-73.0336,19.7741,300.4993],[-73.0321,19.7619,201.566],[-73.0297,19.7588,195.3983],[-73.0225,19.7556,157.8237],[-73.0217,19.7488,176.9364],[-73.0172,19.7395,183.5439],[-73.0119,19.7348,167.6678],[-73.0083,19.7274,179.7359],[-72.9922,19.7223,250.4468],[-72.9832,19.7236,381.2553],[-72.9785,19.7224,494.7899],[-72.9672,19.7283,638.2772],[-72.9613,19.7283,749.1774],[-72.953,19.7247,763.6663],[-72.9467,19.7262,738.6139],[-72.9375,19.7257,640.7902],[-72.9274,19.7292,553.4246],[-72.9244,19.7259,559.0342],[-72.9249,19.7176,586.8705],[-72.8971,19.7139,531.1642],[-72.8949,19.7103,673.4958],[-72.89,19.7094,819.2671],[-72.8774,19.709,628.9814]]],
[[[-72.9999,19.9999,0.0],[-72.9999,20.0001,0.0],[-73.0001,20.0001,0.0],[-73.0001,19.9999,0.0],[-72.9999,19.9999,0.0]]],
[[[-72.7651,20.0154,0.0],[-72.7613,20.0132,1.8811],[-72.761,20.0107,0.0],[-72.7571,20.0115,0.0],[-72.7532,20.009,1.5213],[-72.7454,20.0088,38.3989],[-72.7412,20.0068,0.0],[-72.73,20.0068,0.0],[-72.7268,20.0049,0.0],[-72.7108,20.0033,0.0],[-72.6957,19.9974,0.4842],[-72.6591,19.9968,0.0],[-72.6468,19.9921,6.4364],[-72.6376,19.9937,0.0],[-72.6288,19.9929,0.0],[-72.6199,19.9968,0.0],[-72.6279,20.0096,0.0],[-72.6401,20.0229,0.0],[-72.6654,20.0393,0.0],[-72.6757,20.044,0.0],[-72.7124,20.0529,4.7998],[-72.744,20.0657,0.0],[-72.7526,20.0671,0.0],[-72.7651,20.0735,3.3911],[-72.7818,20.0785,5.3738],[-72.8015,20.0896,0.0],[-72.8215,20.0899,2.0923],[-72.8388,20.0861,3.5717],[-72.8535,20.0863,0.0],[-72.8599,20.0882,0.0],[-72.8721,20.0857,0.0],[-72.8863,20.0854,0.0],[-72.8882,20.0838,0.0],[-72.8957,20.0832,0.0],[-72.9107,20.0784,10.6642],[-72.9304,20.0771,0.0],[-72.9535,20.0692,0.0],[-72.9621,20.0688,0.0],[-72.9713,20.0651,0.0],[-72.9699,20.061,0.7044],[-72.9646,20.0589,0.0],[-72.9585,20.0526,0.0],[-72.9401,20.0521,16.5007],[-72.9062,20.0411,0.3399],[-72.8905,20.0393,4.8783],[-72.8818,20.0335,0.0],[-72.8646,20.0328,0.0],[-72.8468,20.0299,0.0],[-72.8382,20.0307,22.9205],[-72.8326,20.0304,0.0],[-72.8318,20.029,0.0],[-72.8258,20.0301,0.0],[-72.8105,20.0285,0.0],[-72.8049,20.0251,0.0],[-72.7899,20.0227,0.0],[-72.789,20.0213,0.0],[-72.7737,20.0187,0.0],[-72.7651,20.0154,0.0]]]]}
,"properties": {"GID_2": "HTI.6.2_1","GID_0": "HTI","country": "Haiti","GID_1": "HTI.6_1","province": "Nord-Ouest","NL_NAME_1": "NA","county": "Port-de-Paix","VARNAME_2": "NA","NL_NAME_2": "NA","TYPE_2": "Arrondissement","ENGTYPE_2": "District","CC_2": "NA","HASC_2": "HT.NO.PD","name": "Port-de-Paix.county","area_km2": 810.9105,"hist_schema_id": "Elevation0-9000","hist_area_km2": {"0": 47.5871,"25": 56.2833,"50": 55.1685,"75": 46.6436,"100": 46.9681,"125": 53.829,"150": 58.9735,"175": 59.6948,"200": 49.8464,"225": 38.9377,"250": 34.2511,"275": 29.1894,"300": 24.8868,"325": 22.4197,"350": 18.892,"375": 18.214,"400": 17.4764,"425": 14.6636,"450": 13.4072,"475": 12.27,"500": 11.6522,"525": 12.051,"550": 9.5574,"575": 8.8591,"600": 6.8237,"625": 6.0651,"650": 4.5087,"675": 4.0896,"700": 3.1718,"725": 2.8325,"750": 2.8918,"775": 3.4701,"800": 2.9116,"825": 2.1738,"850": 1.7749,"875": 2.0341,"900": 1.1367,"925": 1.1766,"950": 0.9572,"975": 0.7977,"1000": 0.8575,"1025": 0.6381,"1050": 0.3988,"1075": 0.2592,"1100": 0.1396,"1125": 0.0399,"1150": 0.0199,"1175": 0.0199}}}