{"type": "Feature","bbox": [-73.0156,18.1563,-72.8593,18.3269],"geometry": {"type": "MultiPolygon","coordinates": [[[[-72.9324,18.1651,0.0],[-72.9324,18.1668,3.8438],[-72.931,18.1671,8.4667],[-72.9279,18.1632,0.0],[-72.9091,18.1577,0.0],[-72.9076,18.1588,18.992],[-72.9071,18.1563,0.0],[-72.9025,18.1575,15.545],[-72.9001,18.1632,42.454],[-72.9001,18.1692,117.062],[-72.8965,18.1775,196.1004],[-72.8915,18.1836,337.5914],[-72.8908,18.1889,396.6237],[-72.8867,18.1948,430.0271],[-72.8864,18.1996,439.9748],[-72.884,18.2023,464.5933],[-72.8853,18.206,454.4367],[-72.8897,18.2051,454.6175],[-72.8932,18.2107,459.109],[-72.8853,18.2142,412.737],[-72.8825,18.2137,416.7589],[-72.8784,18.2164,329.3385],[-72.8752,18.2216,257.4236],[-72.8721,18.2208,247.8848],[-72.868,18.2227,180.6642],[-72.86,18.2215,108.7589],[-72.8593,18.2231,151.1802],[-72.8769,18.235,166.0405],[-72.8851,18.2332,140.2037],[-72.8911,18.2353,150.1913],[-72.8987,18.2427,169.0309],[-72.8993,18.2505,206.007],[-72.9024,18.2561,267.75],[-72.9023,18.2594,226.5515],[-72.8903,18.2683,329.4544],[-72.8874,18.2754,362.3787],[-72.8838,18.2764,460.923],[-72.8831,18.2813,428.915],[-72.8911,18.2824,446.3348],[-72.8962,18.2877,740.2732],[-72.8903,18.2923,758.5782],[-72.8897,18.295,736.0692],[-72.8996,18.2915,644.8463],[-72.9135,18.2907,373.7872],[-72.9197,18.2885,361.7497],[-72.9231,18.2898,319.2341],[-72.9295,18.2866,343.338],[-72.9327,18.2876,478.9536],[-72.9348,18.2927,599.7599],[-72.9406,18.2904,735.4565],[-72.9428,18.2943,644.8127],[-72.9529,18.2934,489.4239],[-72.9582,18.2783,338.6384],[-72.9605,18.2769,340.6854],[-72.9646,18.2773,338.543],[-72.9751,18.2877,367.3805],[-72.9775,18.2924,372.8524],[-72.9774,18.2985,379.7563],[-72.9827,18.3021,490.5253],[-72.9845,18.3087,526.056],[-72.9868,18.3107,593.2739],[-72.9868,18.3207,708.3911],[-72.9937,18.3269,648.89],[-72.9967,18.3239,578.9299],[-72.9949,18.3058,560.4194],[-72.998,18.2986,550.6681],[-73.0101,18.2879,409.3107],[-73.0129,18.2792,436.8794],[-73.0131,18.2667,330.4156],[-73.0156,18.261,249.4283],[-73.0134,18.2555,370.0698],[-73.009,18.2523,469.0417],[-73.012,18.2477,449.3692],[-73.0108,18.2426,334.4954],[-73.0088,18.2405,290.2419],[-73.01,18.231,126.3567],[-73.0131,18.2267,76.6246],[-73.0112,18.2226,61.186],[-73.0094,18.2236,77.0369],[-73.0099,18.2199,183.4833],[-73.0072,18.2184,160.7072],[-73.0085,18.2166,59.9161],[-73.0079,18.2121,43.529],[-73.0104,18.2087,108.2497],[-73.0011,18.2074,38.1555],[-73.0023,18.206,41.1991],[-73.0089,18.2068,21.4502],[-73.0091,18.2041,18.9647],[-73.0039,18.1993,13.9413],[-73.0102,18.1932,9.245],[-73.0041,18.1869,0.0],[-73.0035,18.1857,3.1363],[-73.0049,18.1854,0.0],[-73.0026,18.1846,0.0],[-73.0001,18.1787,0.0],[-72.9974,18.1785,3.2806],[-72.9943,18.1754,0.0],[-72.9662,18.1704,0.0],[-72.9629,18.1668,0.0],[-72.9529,18.166,0.6672],[-72.9471,18.1674,10.1418],[-72.9443,18.1654,0.0],[-72.9324,18.1651,0.0]]],
[[[-73.0074,18.186,0.3818],[-73.0068,18.1857,0.3818],[-73.0052,18.1857,0.0],[-73.0088,18.1868,0.0],[-73.0074,18.186,0.3818]]]]}
,"properties": {"GID_3": "HTI.9.1.2_1","GID_0": "HTI","country": "Haiti","GID_1": "HTI.9_1","province": "Sud-Est","NL_NAME_1": "NA","GID_2": "HTI.9.1_1","county": "Bainet","NL_NAME_2": "NA","city": "Côtes-de-Fer","VARNAME_3": "NA","NL_NAME_3": "NA","TYPE_3": "Commune","ENGTYPE_3": "Commune","CC_3": "NA","HASC_3": "NA","name": "Côtes-de-Fer.city","area_km2": 177.0924,"hist_schema_id": "Elevation0-9000","hist_area_km2": {"0": 2.9612,"25": 6.1238,"50": 3.7467,"75": 4.0287,"100": 4.3508,"125": 6.3246,"150": 6.4655,"175": 6.1027,"200": 6.767,"225": 6.505,"250": 7.3305,"275": 8.3975,"300": 8.5583,"325": 9.1625,"350": 8.6187,"375": 8.6791,"400": 9.2429,"425": 9.867,"450": 9.3435,"475": 9.0009,"500": 6.8259,"525": 5.9599,"550": 5.4964,"575": 4.8924,"600": 3.6642,"625": 2.7378999999999998,"650": 2.1943,"675": 1.5098,"700": 1.0468,"725": 0.7247,"750": 0.3624,"775": 0.1007}}}