{"type": "Feature","id": "1442","bbox": [-61.22883,14.40811,-60.81041,14.8769],"geometry": {"type": "Polygon","coordinates": [[[-60.81041,14.46198,0.0],[-60.81041,14.46874,0.0],[-60.81664,14.4809,24.8611],[-60.81981,14.49665,0.0],[-60.82527,14.5104,6.1134],[-60.83837,14.51659,9.3874],[-60.83507,14.52119,1.2381],[-60.8334,14.52436,3.1228],[-60.83092,14.52709,0.7674],[-60.82478,14.53022,0.7804],[-60.833,14.541,21.9894],[-60.83642,14.55296,8.3377],[-60.83585,14.56566,0.0],[-60.83214,14.5786,0.0],[-60.8452,14.57123,9.185],[-60.84431,14.57949,0.0],[-60.84496,14.58861,0.0],[-60.84838,14.5961,0.0],[-60.85546,14.59911,0.0],[-60.86506,14.60171,0.0],[-60.86876,14.60761,0.0],[-60.87023,14.61445,0.0],[-60.87316,14.61961,0.0],[-60.89338,14.6308,10.0492],[-60.90103,14.63858,78.9226],[-60.9073,14.65375,52.0048],[-60.90168,14.65591,55.9302],[-60.8983,14.65803,33.5963],[-60.89436,14.65982,3.7879],[-60.88679,14.66055,28.8155],[-60.92028,14.67487,0.0],[-60.92886,14.66352,0.0],[-60.93749,14.66641,0.0],[-60.93928,14.67499,1.1437],[-60.92711,14.6811,13.2053],[-60.93456,14.68846,12.8852],[-60.9073,14.70283,0.0],[-60.91267,14.70856,3.021],[-60.91893,14.71223,0.0],[-60.92618,14.71271,0.0],[-60.93456,14.70897,6.7931],[-60.93668,14.73127,0.0],[-60.93383,14.75031,0.0],[-60.92618,14.75556,40.158],[-60.91413,14.73631,0.0],[-60.89297,14.75739,0.0],[-60.89538,14.76382,23.6469],[-60.89245,14.76777,20.7034],[-60.8863,14.77163,44.0285],[-60.8793,14.77729,0.0],[-60.90319,14.77709,0.0],[-60.92658,14.77114,0.0],[-60.94689,14.76138,0.0],[-60.96129,14.74995,0.0],[-60.97899,14.78474,0.0],[-60.99063,14.78791,0.0],[-60.99568,14.79536,0.0],[-60.99816,14.80419,0.0],[-61.00227,14.81143,0.0],[-61.01863,14.82172,0.0],[-61.05785,14.83869,0.0],[-61.10196,14.8662,0.0],[-61.13589,14.8769,0.0],[-61.17097,14.87637,6.9908],[-61.2106,14.85444,108.422],[-61.21947,14.8465,0.0],[-61.22619,14.83552,0.0],[-61.22883,14.82197,42.8701],[-61.22619,14.80777,19.2907],[-61.21911,14.79548,21.3975],[-61.19054,14.76634,35.9157],[-61.18297,14.75642,13.0821],[-61.17711,14.74494,6.5437],[-61.17479,14.7329,54.0517],[-61.17667,14.72614,57.3954],[-61.18004,14.71967,33.2286],[-61.18163,14.71304,45.4512],[-61.17789,14.70588,27.6096],[-61.17357,14.70124,34.6786],[-61.17024,14.69644,139.2326],[-61.16808,14.69107,152.6147],[-61.16735,14.68476,128.6547],[-61.15958,14.66694,4.1772],[-61.14159,14.65009,124.1952],[-61.10587,14.62645,88.3087],[-61.1022,14.62222,74.0178],[-61.09594,14.61026,23.3714],[-61.09162,14.60594,27.2344],[-61.08593,14.60464,48.3822],[-61.06493,14.60594,6.0195],[-61.05427,14.60513,31.0078],[-61.04357,14.60545,28.2175],[-61.0314,14.60781,9.0537],[-61.01647,14.61278,7.684],[-61.01431,14.59585,6.8516],[-61.00699,14.58185,3.1314],[-60.99938,14.57136,1.934],[-60.996,14.56501,7.5858],[-61.00333,14.55052,0.0],[-61.01773,14.54531,0.0],[-61.03327,14.54987,0.0],[-61.04381,14.56501,0.0],[-61.05232,14.55707,10.9239],[-61.07852,14.54458,0.0],[-61.10587,14.51659,0.0],[-61.09679,14.51154,54.2585],[-61.0924,14.50829,19.1916],[-61.09114,14.50422,0.0],[-61.09162,14.49677,0.0],[-61.06957,14.4667,0.0],[-61.06119,14.46198,106.3732],[-61.04638,14.46418,5.5696],[-61.0216,14.47403,0.0],[-61.00597,14.47626,0.5436],[-60.94762,14.46874,8.3773],[-60.92003,14.47337,52.2123],[-60.9134,14.47211,61.8163],[-60.91413,14.46198,0.0],[-60.8981,14.46088,185.5205],[-60.88223,14.47053,60.0628],[-60.86852,14.47598,101.1487],[-60.85888,14.46198,14.9508],[-60.85985,14.44672,29.3428],[-60.8695,14.44147,25.7482],[-60.88077,14.43797,13.6641],[-60.88679,14.4278,1.0677],[-60.88248,14.41328,31.4713],[-60.87059,14.40811,3.8489],[-60.85643,14.40937,57.9771],[-60.8452,14.41413,1.1394],[-60.83483,14.42756,8.2379],[-60.82266,14.45669,44.7503],[-60.81041,14.46198,0.0]]]}
,"properties": {"ISO3166-1-Alpha-3": "FRA","country": "France","fill": "#F0F","name": "Martinique","area_km2": 1101.7543,"hist_schema_id": "Elevation0-9000","hist_area_km2": {"0": 144.0276,"25": 116.7482,"50": 105.2129,"75": 87.9104,"100": 73.2167,"125": 63.9617,"150": 56.7181,"175": 50.7451,"200": 46.5388,"225": 42.3327,"250": 33.2046,"275": 29.0602,"300": 24.2196,"325": 22.9876,"350": 24.3593,"375": 21.7962,"400": 18.9042,"425": 16.6901,"450": 16.7306,"475": 14.2704,"500": 13.1018,"525": 11.8103,"550": 10.5594,"575": 9.3906,"600": 7.9964,"625": 6.0689,"650": 4.818,"675": 3.8545,"700": 3.8339,"725": 2.7471,"750": 2.2552,"775": 2.0911,"800": 1.435,"825": 1.1275,"850": 1.3326,"875": 1.0866,"900": 1.1275,"925": 0.7791,"950": 0.9636,"975": 1.0251,"1000": 0.6766,"1025": 0.8201,"1050": 0.4511,"1075": 0.4921,"1100": 0.2665,"1125": 0.3895,"1150": 0.3895,"1175": 0.1435,"1200": 0.3075,"1225": 0.1845,"1250": 0.246,"1275": 0.123,"1300": 0.082,"1325": 0.0615,"1350": 0.041,"1375": 0.041}}}