{"type": "Feature","bbox": [-61.5508,10.6394,-61.4942,10.6811],"geometry": {"type": "MultiPolygon","coordinates": [[[[-61.5508,10.6765,0.733],[-61.5382,10.6701,0.0],[-61.5376,10.6676,4.3873],[-61.539,10.666,0.0],[-61.5371,10.6585,7.3764],[-61.5288,10.6574,3.5894],[-61.5238,10.6526,0.0],[-61.5149,10.649,3.892],[-61.5137,10.6457,0.0],[-61.5107,10.6465,0.5308],[-61.5096,10.6451,0.0],[-61.5082,10.6465,0.8918],[-61.5096,10.6435,0.0],[-61.5088,10.641,0.9464],[-61.504,10.6399,0.0],[-61.504,10.6412,1.9091],[-61.4996,10.6412,0.0],[-61.4974,10.6394,0.0],[-61.4942,10.6395,2.8392],[-61.499,10.6481,9.9852],[-61.499,10.6524,64.0514],[-61.4942,10.6567,151.9812],[-61.4942,10.6594,157.214],[-61.4984,10.6664,68.9469],[-61.4989,10.6739,129.2689],[-61.5011,10.675,140.1806],[-61.5053,10.6713,39.3925],[-61.5086,10.6713,43.8364],[-61.5203,10.6784,34.4622],[-61.5241,10.6784,27.6777],[-61.5257,10.681,38.5823],[-61.5278,10.6811,43.6122],[-61.5284,10.6784,33.0734],[-61.5316,10.6773,35.8781],[-61.545,10.6779,17.9904],[-61.5508,10.6765,0.733]]]]}
,"properties": {"GID_1": "TTO.8_1","GID_0": "TTO","country": "TrinidadandTobago","province": "PortofSpain","VARNAME_1": "Port-of-Spain","NL_NAME_1": "NA","TYPE_1": "City","ENGTYPE_1": "City","CC_1": "NA","HASC_1": "TT.PS","ISO_1": "TT-POS","name": "Portof_Spain.province","area_km2": 13.87687,"hist_schema_id": "Elevation0-9000","hist_area_km2": {"0": 6.64682,"25": 5.39647,"50": 0.95845,"75": 0.39588,"100": 0.25004,"125": 0.12502,"150": 0.10418}}}