{"type": "Feature","id": "64","bbox": [-61.54907,10.63564,-61.49162,10.678],"geometry": {"type": "Polygon","coordinates": [[[-61.51141,10.67583,47.6582],[-61.52611,10.678,30.9857],[-61.53438,10.67738,30.6798],[-61.54505,10.66886,0.0],[-61.54907,10.66706,0.0],[-61.54906,10.66706,0.0],[-61.5288,10.6579,3.5894],[-61.49571,10.63564,2.154],[-61.4957,10.63568,2.154],[-61.49162,10.65661,151.4277],[-61.49324,10.66095,156.372],[-61.49717,10.66839,47.822],[-61.51141,10.67583,47.6582]]]}
,"properties": {"ISO3166-1-Alpha-3": "TTO","country": "Trinidad and Tobago","fill": "#FF0","name": "Port of Spain","area_km2": 14.54368,"hist_schema_id": "Elevation0-9000","hist_area_km2": {"0": 6.87604,"25": 5.18813,"50": 1.10431,"75": 0.50007,"100": 0.41673,"125": 0.16669,"150": 0.25004,"175": 0.04167}}}