{"type": "Feature","bbox": [-72.2657,18.9321,-71.8539,19.3346],"geometry": {"type": "MultiPolygon","coordinates": [[[[-71.8653,18.9777,222.8934],[-71.8624,18.9788,183.2799],[-71.863,18.9831,181.7254],[-71.8721,18.9826,188.1312],[-71.875,18.9858,187.0459],[-71.869,18.9879,204.6965],[-71.8696,18.9909,221.886],[-71.8662,18.9945,204.33],[-71.871,18.9938,184.2727],[-71.8723,18.9955,198.4348],[-71.8689,18.9985,206.1934],[-71.868,19.0015,188.4996],[-71.8707,19.0025,195.656],[-71.8705,19.0053,201.7263],[-71.8663,19.0069,219.3777],[-71.8667,19.0131,192.0921],[-71.8575,19.0174,217.4517],[-71.8564,19.0218,192.952],[-71.8603,19.0261,217.7073],[-71.8648,19.024,210.7196],[-71.8649,19.0348,209.103],[-71.8709,19.0346,195.0443],[-71.8727,19.0281,234.6941],[-71.8764,19.0267,250.7601],[-71.8778,19.0353,196.9469],[-71.8827,19.0359,227.4186],[-71.8879,19.0327,213.2699],[-71.8894,19.0385,211.5323],[-71.8909,19.0394,198.6898],[-71.8931,19.0361,213.9928],[-71.8971,19.0355,217.0132],[-71.9004,19.0379,209.4058],[-71.9011,19.0413,206.2909],[-71.9038,19.0421,202.0044],[-71.9056,19.0468,209.5934],[-71.8981,19.0498,223.0054],[-71.9007,19.0549,217.2555],[-71.9109,19.0551,232.7072],[-71.9047,19.0618,220.2437],[-71.9047,19.0642,223.3976],[-71.9083,19.0689,213.7403],[-71.9137,19.0701,224.8083],[-71.9129,19.0753,208.3031],[-71.9097,19.08,218.3297],[-71.9156,19.0835,210.9901],[-71.9151,19.0869,217.6488],[-71.9188,19.0874,224.4948],[-71.9197,19.0914,210.5809],[-71.919,19.0947,206.9505],[-71.9125,19.0988,234.1434],[-71.9045,19.0997,236.8067],[-71.8884,19.1062,300.2805],[-71.8826,19.1136,303.3445],[-71.8817,19.1204,294.0523],[-71.8739,19.1363,305.423],[-71.867,19.1402,323.8538],[-71.8546,19.1574,428.0053],[-71.855,19.1609,460.9437],[-71.8615,19.1693,534.2594],[-71.8604,19.1785,688.5123],[-71.8645,19.1822,696.2486],[-71.8656,19.1866,698.7161],[-71.8696,19.1874,718.4886],[-71.87,19.1889,714.8495],[-71.8749,19.1878,671.3973],[-71.8832,19.2001,761.6037],[-71.8865,19.2022,768.4324],[-71.8834,19.2075,795.397],[-71.8778,19.2082,791.0077],[-71.8776,19.2102,820.0319],[-71.8849,19.2194,838.1942],[-71.8847,19.222,875.4044],[-71.866,19.2391,739.2172],[-71.8607,19.2449,797.6447],[-71.8577,19.2509,913.811],[-71.8546,19.2611,948.1866],[-71.8539,19.2698,957.3691],[-71.8593,19.275,767.8059],[-71.8656,19.2798,969.5914],[-71.8725,19.2758,965.2281],[-71.8794,19.2746,963.3491],[-71.8876,19.2767,940.9161],[-71.893,19.2747,935.8046],[-71.9007,19.2754,837.0989],[-71.9028,19.2842,657.2479],[-71.9072,19.2885,515.5082],[-71.9092,19.2886,518.0138],[-71.9095,19.2908,575.7132],[-71.9069,19.294,612.5784],[-71.9139,19.3007,615.5914],[-71.914,19.3055,722.9209],[-71.9418,19.3081,806.946],[-71.9602,19.3127,551.2947],[-71.9789,19.3311,488.7573],[-71.9871,19.3346,446.5331],[-71.9919,19.3328,432.918],[-71.9986,19.3259,413.4862],[-72.0038,19.3238,400.7189],[-72.0087,19.3273,415.2975],[-72.0221,19.3244,425.4149],[-72.0233,19.3194,436.6762],[-72.0221,19.3162,445.5929],[-72.0303,19.3075,431.4639],[-72.0339,19.3051,438.8523],[-72.0435,19.3041,410.5209],[-72.0483,19.3001,411.4941],[-72.0563,19.2976,381.4094],[-72.0634,19.2904,361.491],[-72.0699,19.2877,352.1866],[-72.0709,19.2852,357.7661],[-72.0806,19.2812,330.3818],[-72.0814,19.2775,315.7429],[-72.0853,19.2765,307.9588],[-72.0902,19.2698,293.5565],[-72.0939,19.2688,297.4085],[-72.0946,19.2666,281.526],[-72.1079,19.2664,341.5606],[-72.1131,19.2644,350.8877],[-72.1187,19.2652,349.1931],[-72.1246,19.2629,362.9298],[-72.135,19.2549,397.8594],[-72.1421,19.2579,385.0021],[-72.1491,19.2564,376.3358],[-72.1548,19.2588,363.6209],[-72.1528,19.2686,361.1903],[-72.1586,19.2791,347.5684],[-72.1591,19.2827,349.4161],[-72.1658,19.2819,345.844],[-72.1738,19.2855,347.6177],[-72.183,19.2938,354.3043],[-72.1949,19.2988,355.2379],[-72.2033,19.3005,353.6219],[-72.2033,19.2984,352.5571],[-72.2179,19.2868,351.9695],[-72.2208,19.281,338.1042],[-72.2266,19.2748,333.7155],[-72.2311,19.275,338.4589],[-72.2383,19.2701,345.8694],[-72.242,19.2647,339.0041],[-72.2423,19.2617,328.3583],[-72.2391,19.2518,320.7842],[-72.2417,19.2321,292.456],[-72.2488,19.2314,300.7162],[-72.2562,19.2274,320.6881],[-72.2616,19.2186,328.2475],[-72.2657,19.216,351.4371],[-72.2575,19.2066,347.9509],[-72.2579,19.2023,347.4008],[-72.2633,19.1953,374.0767],[-72.2643,19.1916,410.2422],[-72.2609,19.1876,397.3813],[-72.2603,19.1766,399.2403],[-72.2544,19.1669,342.4552],[-72.255,19.161,399.022],[-72.2425,19.1561,537.8043],[-72.2312,19.1419,720.7504],[-72.2196,19.1309,502.7168],[-72.2208,19.1271,464.2905],[-72.2401,19.1171,609.8057],[-72.2385,19.0998,1058.5968],[-72.2217,19.0833,1139.1475],[-72.2143,19.08,1145.9709],[-72.2049,19.0809,1076.1165],[-72.2009,19.0781,1212.8884],[-72.1914,19.0806,1048.4554],[-72.1888,19.0776,1181.7156],[-72.1905,19.072,1184.7537],[-72.1765,19.0584,1162.5598],[-72.1723,19.0517,1188.9602],[-72.1665,19.0472,1311.7324],[-72.1622,19.0396,1335.5967],[-72.1546,19.032,1322.3615],[-72.1415,19.0225,1172.0515],[-72.137,19.0159,1086.965],[-72.1315,19.0236,894.9055],[-72.1231,19.0277,643.147],[-72.1183,19.0265,612.0277],[-72.1171,19.0178,627.713],[-72.1182,19.0149,583.735],[-72.1149,19.0158,642.4085],[-72.1127,19.0131,576.7225],[-72.109,19.012,553.5449],[-72.1097,19.0086,587.0536],[-72.1054,19.0091,586.8455],[-72.1049,19.008,558.1706],[-72.1065,19.0072,560.0414],[-72.1018,19.0018,599.1503],[-72.0977,18.9919,678.7491],[-72.098,18.9841,688.7493],[-72.0965,18.9807,670.7521],[-72.0925,18.977,703.9254],[-72.0802,18.973,685.4232],[-72.075,18.9605,608.9038],[-72.0694,18.9602,609.1542],[-72.0642,18.9568,596.9858],[-72.0637,18.9506,610.0936],[-72.0603,18.9436,629.1316],[-72.0519,18.9382,689.9936],[-72.048,18.933,642.9512],[-72.0435,18.9321,660.4771],[-72.0417,18.9373,633.7181],[-72.0362,18.9414,635.9523],[-72.0281,18.9436,642.863],[-72.0212,18.9407,612.4504],[-72.0157,18.9434,516.2839],[-72.0119,18.9431,487.4033],[-72.0082,18.9421,461.6666],[-72.004,18.9355,454.6938],[-71.9984,18.9364,417.9147],[-71.9991,18.9414,405.1221],[-72.007,18.9539,443.1307],[-72.0076,18.9584,430.3552],[-72.0046,18.963,403.0702],[-72.0008,18.9616,417.2705],[-71.9993,18.9629,409.8594],[-72.0005,18.9665,333.8253],[-71.9969,18.9686,333.8784],[-71.9747,18.9564,382.0537],[-71.9693,18.9569,395.3345],[-71.9687,18.9553,382.2089],[-71.9733,18.9521,311.2563],[-71.9744,18.9485,378.9966],[-71.9678,18.9448,331.1561],[-71.9562,18.9431,297.3555],[-71.9514,18.9407,284.4291],[-71.9394,18.9519,260.5242],[-71.9255,18.9495,195.53],[-71.9211,18.9463,215.0293],[-71.9176,18.9457,238.8201],[-71.9152,18.9487,203.2547],[-71.907,18.9527,241.7472],[-71.8934,18.9525,211.2718],[-71.8902,18.9537,188.2425],[-71.8833,18.9514,178.8932],[-71.8831,18.9426,172.8873],[-71.8797,18.9417,188.1651],[-71.8763,18.9455,175.0966],[-71.8785,18.9461,180.0129],[-71.879,18.9568,191.2406],[-71.8748,18.9582,198.9924],[-71.8746,18.9601,177.8601],[-71.8711,18.9612,223.863],[-71.8699,18.964,210.7482],[-71.8719,18.9752,191.1901],[-71.8653,18.9777,222.8934]]]]}
,"properties": {"GID_2": "HTI.1.2_1","GID_0": "HTI","country": "Haiti","GID_1": "HTI.1_1","province": "Centre","NL_NAME_1": "NA","county": "Hinche","VARNAME_2": "NA","NL_NAME_2": "NA","TYPE_2": "Arrondissement","ENGTYPE_2": "District","CC_2": "NA","HASC_2": "HT.CE.HI","name": "Hinche.county","area_km2": 1293.4467,"hist_schema_id": "Elevation0-9000","hist_area_km2": {"175": 2.9676,"200": 12.6296,"225": 55.4304,"250": 124.1807,"275": 178.1909,"300": 173.6987,"325": 129.945,"350": 85.7047,"375": 40.9203,"400": 29.4261,"425": 28.3627,"450": 33.9033,"475": 34.1023,"500": 30.481,"525": 27.3594,"550": 27.5196,"575": 27.9021,"600": 30.5476,"625": 27.3432,"650": 23.8978,"675": 22.215,"700": 21.9143,"725": 21.6535,"750": 20.9511,"775": 17.0467,"800": 12.2399,"825": 9.175,"850": 7.833,"875": 6.5914,"900": 5.4694,"925": 4.8282,"950": 4.0872,"975": 2.9053,"1000": 1.8033,"1025": 1.3626,"1050": 1.1222,"1075": 1.0621,"1100": 0.982,"1125": 0.8818,"1150": 0.8618,"1175": 1.1022,"1200": 0.8217,"1225": 0.8217,"1250": 0.5411,"1275": 0.461,"1300": 0.0802,"1325": 0.1002,"1350": 0.02}}}