{"type":"Feature","properties":{"GID_2":"BLM.2.11_1","GID_0":"BLM","country":"Saint-Barthélemy","GID_1":"BLM.2_1","province":"SousleVent","NL_NAME_1":"NA","county":"Isles","VARNAME_2":"NA","NL_NAME_2":"NA","TYPE_2":"Quartier","ENGTYPE_2":"Quarter","CC_2":"NA","HASC_2":"NA","name":"Isles.county"},
"geometry":{"type": "MultiPolygon","coordinates": [[[[-62.8762,17.8964,0.9021],[-62.8758,17.8974,0.6891],[-62.8766,17.8978,0.6891],[-62.8772,17.8969,0.9021],[-62.8762,17.8964,0.9021]]],
[[[-62.8468,17.9353,33.6497],[-62.8475,17.937,30.5992],[-62.8526,17.9356,5.9327],[-62.8547,17.9339,2.9867],[-62.8549,17.9306,0.0],[-62.8497,17.9311,4.8586],[-62.8468,17.9353,33.6497]]],
[[[-62.8719,17.9563,7.226],[-62.8744,17.9571,0.0],[-62.8744,17.9548,0.6733],[-62.871,17.9558,0.0],[-62.8719,17.9563,7.226]]],
[[[-62.867,17.9563,0.0],[-62.8677,17.9569,0.958],[-62.8684,17.9565,0.958],[-62.8665,17.9562,0.0],[-62.867,17.9563,0.0]]],
[[[-62.9464,17.9513,0.1963],[-62.9469,17.9529,0.0],[-62.9478,17.95,0.0],[-62.9473,17.9509,0.1963],[-62.9464,17.9513,0.1963]]],
[[[-62.9032,17.9598,17.1454],[-62.9053,17.9609,0.4941],[-62.9094,17.9602,19.8563],[-62.9104,17.9573,0.0],[-62.9031,17.9569,6.4703],[-62.9049,17.9524,10.2794],[-62.9032,17.951,14.2673],[-62.9024,17.9538,32.557],[-62.8987,17.9552,5.6721],[-62.8977,17.9573,2.1277],[-62.9032,17.9598,17.1454]]],
[[[-62.9106,17.9561,3.4692],[-62.9103,17.9568,0.0],[-62.9116,17.9572,0.0],[-62.9116,17.9567,3.4692],[-62.9106,17.9561,3.4692]]],
[[[-62.8976,17.9567,2.2699],[-62.8967,17.9565,2.2699],[-62.8955,17.9572,0.0],[-62.8967,17.9575,2.1277],[-62.8976,17.9567,2.2699]]]]}}