{"type": "Feature","bbox": [-69.8815,19.1362,-69.6641,19.2297],"geometry": {"type": "MultiPolygon","coordinates": [[[[-69.7461,19.1472,4.7301],[-69.7431,19.15,4.6506],[-69.7375,19.1494,4.7622],[-69.7305,19.1394,5.0106],[-69.7239,19.1362,4.9339],[-69.706,19.1447,2.6963],[-69.7037,19.1523,4.5939],[-69.697,19.1577,2.6321],[-69.6947,19.1629,2.6195],[-69.6913,19.1634,2.5557],[-69.6855,19.1595,0.8589],[-69.6757,19.1673,0.7514],[-69.6742,19.1804,3.169],[-69.6668,19.1889,0.9671],[-69.6641,19.1946,0.8858],[-69.6675,19.2005,10.497],[-69.6876,19.2171,1.7532],[-69.71,19.2176,2.5992],[-69.7208,19.2204,1.9518],[-69.7506,19.2209,3.7358],[-69.756,19.2182,2.2954],[-69.7653,19.2177,2.7405],[-69.7691,19.2159,2.7719],[-69.7754,19.2093,3.523],[-69.7795,19.198,9.0826],[-69.7825,19.1965,4.2199],[-69.7909,19.2003,3.0167],[-69.7977,19.1999,4.6771],[-69.8052,19.2059,3.8138],[-69.8184,19.2122,7.9023],[-69.8335,19.2114,6.9416],[-69.8415,19.2177,16.4646],[-69.8516,19.2199,10.8507],[-69.8591,19.2297,17.5289],[-69.8744,19.2297,45.7541],[-69.8815,19.2273,106.0472],[-69.8755,19.2202,65.6694],[-69.8635,19.2151,25.6448],[-69.8619,19.2116,22.7012],[-69.8625,19.2007,23.4893],[-69.8677,19.1957,12.4956],[-69.8634,19.1758,10.0528],[-69.8661,19.1738,10.1224],[-69.8724,19.176,11.1402],[-69.8761,19.1754,12.1887],[-69.8772,19.1688,11.7578],[-69.8746,19.1646,12.0011],[-69.8648,19.1598,11.9816],[-69.8587,19.159,9.0534],[-69.8529,19.1601,8.9512],[-69.8471,19.1662,11.6179],[-69.8371,19.1619,8.0503],[-69.8224,19.164,11.9495],[-69.8204,19.1618,7.885],[-69.8202,19.1526,9.8637],[-69.8169,19.1504,7.728],[-69.8053,19.1506,8.0457],[-69.7993,19.1553,12.9151],[-69.7955,19.1561,10.2871],[-69.7858,19.1556,7.2613],[-69.772,19.1508,8.4884],[-69.7628,19.155,9.9923],[-69.7589,19.1506,6.213],[-69.7491,19.1501,7.2763],[-69.7461,19.1472,4.7301]]]]}
,"properties": {"GID_2": "DOM.6.1_1","GID_0": "DOM","country": "DominicanRepublic","GID_1": "DOM.6_1","province": "Duarte","NL_NAME_1": "NA","county": "Arenoso","VARNAME_2": "NA","NL_NAME_2": "NA","TYPE_2": "Municipio","ENGTYPE_2": "Municipality","CC_2": "NA","HASC_2": "DO.DU.AR","name": "Arenoso.county","area_km2": 139.2921,"hist_schema_id": "Elevation0-9000","hist_area_km2": {"0": 125.9767,"25": 10.6326,"50": 1.8419,"75": 0.4805,"100": 0.2603,"125": 0.1001}}}