{"type":"Feature","properties":{"ISO3166-1-Alpha-3":"BMU","country":"Bermuda","fill":"#FF0","id":"5140","name":"Saint George's"},
"geometry":{"type": "MultiPolygon","coordinates": [[[[-64.67786,32.33451,0.0],[-64.69492,32.33993,0.0],[-64.70538,32.33606,0.0],[-64.6984,32.32637,0.0],[-64.67786,32.33451,0.0]]],
[[[-64.6761,32.38866,22.1325],[-64.69726,32.37352,10.4177],[-64.71313,32.36435,0.0],[-64.72202,32.35251,0.0],[-64.70809,32.35156,0.0],[-64.69143,32.36396,-0.0463],[-64.68523,32.35738,0.9886],[-64.68078,32.36173,0.0],[-64.6674,32.35893,0.0338],[-64.66042,32.3535,3.2419],[-64.65577,32.3504,1.5085],[-64.65538,32.35931,0.0],[-64.64763,32.36823,10.7081],[-64.6761,32.38866,22.1325]],
[[-64.68102,32.37605,0.0],[-64.67207,32.38097,2.9803],[-64.66849,32.37425,0.0],[-64.677,32.36978,12.6631],[-64.68102,32.37605,0.0]]]]}}