{"type":"Feature","properties":{"GID_1":"BMU.7_1","GID_0":"BMU","country":"Bermuda","province":"SaintGeorgemunicipality","VARNAME_1":"SaintGeorges|SaintGeorge's","NL_NAME_1":"NA","TYPE_1":"Municipality","ENGTYPE_1":"Municipality","CC_1":"NA","HASC_1":"BM.SG","ISO_1":"NA","name":"Saint_Georgemunicipality.province"},
"geometry":{"type": "MultiPolygon","coordinates": [[[[-64.7007,32.3271,6.0197],[-64.6914,32.3294,0.6753],[-64.6892,32.3314,7.5585],[-64.6867,32.3306,9.0492],[-64.6819,32.3342,3.1297],[-64.6772,32.3347,0.0],[-64.6753,32.3375,1.4246],[-64.6689,32.3375,0.0],[-64.6717,32.3417,1.681],[-64.6797,32.3358,1.3449],[-64.6886,32.3342,0.9887],[-64.6917,32.3378,0.0],[-64.6974,32.3394,0.0],[-64.702,32.3351,9.7864],[-64.7057,32.3355,0.0],[-64.7007,32.3271,6.0197]]],
[[[-64.6828,32.3779,1.9904],[-64.6736,32.3811,2.9803],[-64.6684,32.3801,6.4045],[-64.6724,32.3857,23.4062],[-64.6765,32.3861,34.829],[-64.6794,32.3843,25.4448],[-64.6828,32.3779,1.9904]]]]}}