{"type": "Feature","bbox": [-80.7961,22.4364,-80.5454,22.8275],"geometry": {"type": "MultiPolygon","coordinates": [[[[-80.6846,22.4371,53.7811],[-80.5857,22.4432,51.7834],[-80.5688,22.452,63.5406],[-80.5533,22.4676,61.7531],[-80.5467,22.481,61.8112],[-80.5454,22.4954,56.6818],[-80.5532,22.5248,55.7371],[-80.5576,22.5581,66.5197],[-80.5746,22.6174,82.3122],[-80.577,22.6607,79.233],[-80.5836,22.68,81.0032],[-80.5961,22.6955,74.1822],[-80.5965,22.7025,71.5329],[-80.5936,22.7091,74.2963],[-80.574,22.7123,81.0501],[-80.5617,22.716,81.9093],[-80.5575,22.7246,81.1095],[-80.5582,22.7305,83.4586],[-80.5633,22.7349,83.8828],[-80.5796,22.742,84.8491],[-80.585,22.7461,84.4728],[-80.5879,22.7504,84.3295],[-80.5895,22.756,85.7846],[-80.59,22.7778,90.3582],[-80.5954,22.7978,82.6945],[-80.6032,22.8165,71.3248],[-80.6077,22.8227,73.998],[-80.6162,22.8275,68.1622],[-80.6286,22.8268,59.3365],[-80.6384,22.821,51.8807],[-80.6497,22.8105,50.9953],[-80.6581,22.7936,47.78],[-80.6658,22.7899,49.7397],[-80.6724,22.7913,45.829],[-80.6771,22.7945,44.6446],[-80.6923,22.8093,41.2986],[-80.7018,22.8147,39.791],[-80.7305,22.8187,39.8852],[-80.7243,22.8108,42.0617],[-80.7369,22.7857,60.2665],[-80.7363,22.725,73.4649],[-80.7385,22.7123,73.3257],[-80.7808,22.6778,62.5877],[-80.796,22.6518,55.2811],[-80.7961,22.6342,49.9557],[-80.7843,22.6041,57.0305],[-80.7743,22.5938,55.807],[-80.7587,22.5858,51.7702],[-80.746,22.5754,48.4204],[-80.7379,22.5661,51.3574],[-80.7353,22.5582,45.9425],[-80.7361,22.5268,47.2677],[-80.742,22.5134,50.4257],[-80.7447,22.4942,47.8278],[-80.753,22.4698,29.8049],[-80.7641,22.45,41.8514],[-80.7715,22.4409,41.3925],[-80.7537,22.4401,45.0877],[-80.7304,22.4437,40.0558],[-80.7023,22.4364,50.4142],[-80.6846,22.4371,53.7811]]]]}
,"properties": {"GID_2": "CUB.11.8_1","GID_0": "CUB","country": "Cuba","GID_1": "CUB.11_1","province": "Matanzas","NL_NAME_1": "NA","county": "LosArabos","VARNAME_2": "NA","NL_NAME_2": "NA","TYPE_2": "Municipio","ENGTYPE_2": "Municipality","CC_2": "NA","HASC_2": "CU.MA.LA","name": "Los_Arabos.county","area_km2": 778.0719,"hist_schema_id": "Elevation0-9000","hist_area_km2": {"25": 9.052,"50": 425.4241,"75": 340.8582,"100": 2.7376}}}