{"type": "Feature","id": "1978","bbox": [-70.69999,18.41322,-70.35002,18.78795],"geometry": {"type": "Polygon","coordinates": [[[-70.45146,18.73661,838.8467],[-70.49169,18.76472,1520.024],[-70.53367,18.78795,1604.7546],[-70.54801,18.74356,1333.9548],[-70.57406,18.71204,1511.191],[-70.59514,18.69359,2215.7856],[-70.61046,18.67736,1529.4357],[-70.6547,18.6779,1679.0371],[-70.69999,18.67684,1325.3301],[-70.67126,18.62297,1202.6324],[-70.65033,18.57236,874.6774],[-70.63555,18.56375,667.9386],[-70.62798,18.54889,670.3297],[-70.61062,18.533,587.9568],[-70.58742,18.52517,500.3138],[-70.55414,18.50445,783.5516],[-70.52187,18.48874,531.1458],[-70.50109,18.45474,263.04],[-70.47908,18.41322,284.1404],[-70.45205,18.45125,700.0531],[-70.40314,18.46492,1332.402],[-70.37805,18.48143,725.804],[-70.35655,18.50357,558.8135],[-70.37156,18.53329,449.3403],[-70.3788,18.56571,641.4249],[-70.3679,18.60104,689.3334],[-70.37218,18.63633,804.415],[-70.36875,18.67951,984.6984],[-70.35002,18.72015,974.7034],[-70.37562,18.73715,888.6461],[-70.40229,18.74738,1061.7074],[-70.42647,18.73917,749.382],[-70.45146,18.73661,838.8467]]]}
,"properties": {"ISO3166-1-Alpha-3": "DOM","country": "Dominican Republic","fill": "#00F","name": "San José de Ocoa","area_km2": 840.3905,"hist_schema_id": "Elevation0-9000","hist_area_km2": {"200": 0.2012,"225": 1.0661,"250": 1.408,"275": 1.5688,"300": 1.8906,"325": 2.0916,"350": 2.735,"375": 3.0365,"400": 5.4492,"425": 6.7759,"450": 8.605,"475": 9.5696,"500": 10.7757,"525": 13.7297,"550": 13.046,"575": 16.5825,"600": 16.6024,"625": 16.4611,"650": 18.1692,"675": 30.1185,"700": 29.6563,"725": 24.3547,"750": 23.3905,"775": 24.0938,"800": 23.289,"825": 26.0812,"850": 26.2609,"875": 27.3854,"900": 27.1237,"925": 27.3646,"950": 25.6766,"975": 23.0046,"1000": 21.5779,"1025": 22.0409,"1050": 20.2524,"1075": 19.9106,"1100": 17.6603,"1125": 17.7609,"1150": 16.5549,"1175": 15.7117,"1200": 14.2642,"1225": 12.3961,"1250": 11.451599999999999,"1275": 10.0247,"1300": 10.0849,"1325": 9.4221,"1350": 8.8594,"1375": 8.2767,"1400": 8.1568,"1425": 6.6701,"1450": 5.6056,"1475": 5.0633,"1500": 4.7211,"1525": 4.2593,"1550": 4.0983,"1575": 3.8972,"1600": 3.9978,"1625": 3.355,"1650": 3.9373,"1675": 3.6762,"1700": 3.5557,"1725": 3.2743,"1750": 3.2342,"1775": 3.2944,"1800": 3.5154,"1825": 2.8324,"1850": 2.8525,"1875": 2.5511,"1900": 2.8926,"1925": 2.7319,"1950": 2.7721,"1975": 2.7521,"2000": 2.5311,"2025": 2.6918,"2050": 2.2901,"2075": 2.491,"2100": 1.9285,"2125": 1.4865,"2150": 2.029,"2175": 1.5669,"2200": 1.2455,"2225": 1.0848,"2250": 0.7231,"2275": 0.7031,"2300": 0.4821,"2325": 0.3415,"2350": 0.2411,"2375": 0.2612,"2400": 0.1808,"2425": 0.221,"2450": 0.0804,"2475": 0.0603,"2500": 0.1406,"2550": 0.0804,"2575": 0.0201}}}