{"type":"Feature","properties":{"GID_1":"DOM.25_1","GID_0":"DOM","country":"DominicanRepublic","province":"SanJosédeOcoa","VARNAME_1":"JoséTrujilloValdez","NL_NAME_1":"NA","TYPE_1":"Provincia","ENGTYPE_1":"Province","CC_1":"NA","HASC_1":"DO.JO","ISO_1":"NA","name":"San_Joséde_Ocoa.province"},
"geometry":{"type": "MultiPolygon","coordinates": [[[[-70.4923,18.4598,514.5009],[-70.4918,18.4541,424.4213],[-70.488,18.4502,341.5268],[-70.487,18.4436,313.6447],[-70.4893,18.4352,245.1831],[-70.4887,18.4271,232.925],[-70.4778,18.4192,209.1039],[-70.472,18.4187,207.7625],[-70.4676,18.427,271.5769],[-70.4605,18.4348,395.5267],[-70.4592,18.4455,629.4138],[-70.4569,18.4485,735.5912],[-70.4512,18.4508,654.7114],[-70.4472,18.4506,644.8211],[-70.4401,18.4544,723.0772],[-70.4301,18.4525,1140.5809],[-70.4226,18.4626,1409.3376],[-70.407,18.4634,1431.3113],[-70.382,18.4763,862.4869],[-70.3648,18.4802,918.7911],[-70.3621,18.4828,919.515],[-70.3605,18.4912,863.4838],[-70.3517,18.5024,606.316],[-70.3426,18.5062,519.2559],[-70.3422,18.5088,653.8521],[-70.3527,18.526,557.368],[-70.3605,18.5295,498.5082],[-70.3659,18.5351,477.1945],[-70.3661,18.5399,580.4431],[-70.373,18.5518,587.3174],[-70.3712,18.5548,545.4518],[-70.3648,18.5563,620.6999],[-70.3628,18.5582,690.3152],[-70.366,18.5669,702.6295],[-70.3589,18.5737,887.0002],[-70.3607,18.5867,797.6421],[-70.3577,18.5978,868.5832],[-70.3533,18.6042,892.0293],[-70.3582,18.6095,723.0996],[-70.3559,18.6164,961.4293],[-70.3563,18.62,911.3599],[-70.3595,18.6253,896.2539],[-70.364,18.6283,911.3978],[-70.3673,18.642,946.0739],[-70.3672,18.653,907.4023],[-70.3608,18.6655,994.5267],[-70.3562,18.6699,962.1835],[-70.3539,18.6798,878.4731],[-70.3551,18.6868,939.6665],[-70.3521,18.7015,988.8979],[-70.3447,18.7105,1003.9863],[-70.3394,18.723,1082.5784],[-70.346,18.7248,1014.6285],[-70.3598,18.7252,1113.6346],[-70.3671,18.7284,1198.524],[-70.3737,18.7367,929.8527],[-70.3872,18.7493,1249.1458],[-70.4022,18.7515,1098.672],[-70.4026,18.7595,1052.3076],[-70.4101,18.7597,1194.5823],[-70.4165,18.7643,1103.4939],[-70.4358,18.7595,788.8745],[-70.4465,18.7643,757.5581],[-70.4571,18.7597,972.3952],[-70.4653,18.7678,886.9076],[-70.4942,18.7685,1498.1992],[-70.4978,18.7712,1537.3615],[-70.5069,18.7899,1395.9285],[-70.5232,18.7912,1503.432],[-70.5374,18.7948,1748.6166],[-70.5359,18.7878,1618.2749],[-70.5286,18.7794,1439.7822],[-70.5276,18.7674,1166.4288],[-70.5227,18.7603,1123.6963],[-70.5225,18.7554,1240.5513],[-70.5484,18.74,1057.9491],[-70.5541,18.7316,1465.2863],[-70.553,18.7228,1096.7302],[-70.5554,18.7185,1252.697],[-70.5669,18.7197,1402.7036],[-70.5773,18.7054,1543.6284],[-70.5862,18.703,2010.7467],[-70.5866,18.7003,2096.2932],[-70.5817,18.6889,2164.3289],[-70.5827,18.6843,1868.9948],[-70.5897,18.6813,1977.2445],[-70.6123,18.6811,1522.5901],[-70.6198,18.6822,1416.8624],[-70.6271,18.6867,1393.8916],[-70.6367,18.6872,1464.7469],[-70.6465,18.6846,1630.0781],[-70.6621,18.6844,1356.9014],[-70.6736,18.6818,1598.3579],[-70.6715,18.6771,1706.6772],[-70.6573,18.6627,1712.2543],[-70.6529,18.6511,1746.4591],[-70.653,18.6222,1110.183],[-70.6611,18.611,965.6542],[-70.6646,18.5931,828.2715],[-70.65,18.5782,753.4338],[-70.6412,18.5765,741.8248],[-70.6273,18.5694,831.1953],[-70.6186,18.5556,731.6593],[-70.6192,18.5458,625.4178],[-70.6116,18.5419,805.8679],[-70.6026,18.5271,776.3956],[-70.5994,18.5268,796.5742],[-70.5833,18.5314,587.4698],[-70.577,18.521,521.4563],[-70.5586,18.52,469.798],[-70.5527,18.5166,409.8124],[-70.5503,18.5096,499.7088],[-70.5406,18.5108,591.1605],[-70.536,18.5041,515.777],[-70.5224,18.4929,367.5417],[-70.5037,18.4918,335.2177],[-70.4989,18.4898,531.3558],[-70.4964,18.4855,484.3997],[-70.5035,18.4774,586.0425],[-70.5041,18.4709,338.8656],[-70.5015,18.4671,299.3382],[-70.4933,18.4626,392.22],[-70.4923,18.4598,514.5009]]]]}}