{"type": "Feature","bbox": [-78.9918,21.5912,-78.6777,21.8319],"geometry": {"type": "MultiPolygon","coordinates": [[[[-78.7654,21.6332,2.5248],[-78.764,21.6349,2.8497],[-78.764,21.6357,0.9255],[-78.7668,21.6346,5.8727],[-78.7654,21.6332,2.5248]]],
[[[-78.6777,21.7464,14.8899],[-78.6822,21.7642,15.3381],[-78.6982,21.7577,15.4499],[-78.7206,21.7546,23.0576],[-78.7871,21.7326,19.153],[-78.8508,21.7334,22.025],[-78.8702,21.7423,23.6151],[-78.8959,21.7582,30.4893],[-78.9021,21.765,32.8919],[-78.9058,21.8319,59.2127],[-78.9247,21.8254,60.7174],[-78.9871,21.7824,43.749],[-78.9909,21.7715,40.2932],[-78.9918,21.7354,31.5554],[-78.9892,21.7036,19.3196],[-78.9814,21.6789,14.0276],[-78.9816,21.6552,12.2577],[-78.9746,21.6495,11.8164],[-78.9656,21.6334,10.6528],[-78.9646,21.606,1.132],[-78.9674,21.599,3.9757],[-78.9276,21.5993,5.2888],[-78.9051,21.5957,1.1011],[-78.8907,21.5912,0.0],[-78.8899,21.5982,0.5631],[-78.8849,21.6079,1.5313],[-78.8726,21.611,2.3841],[-78.8621,21.611,2.8708],[-78.8596,21.6149,1.2613],[-78.8576,21.6135,0.0],[-78.8588,21.6174,1.7937],[-78.8574,21.6193,1.1938],[-78.8526,21.6196,0.0],[-78.8487,21.6232,0.2598],[-78.836,21.6238,5.4079],[-78.8254,21.6215,0.0],[-78.8076,21.6226,1.8548],[-78.8032,21.626,3.4804],[-78.7832,21.6257,3.7213],[-78.779,21.6288,8.2118],[-78.7771,21.6276,0.0],[-78.7754,21.6329,3.2664],[-78.7726,21.6324,2.9161],[-78.7721,21.6351,4.6418],[-78.7685,21.636,5.9149],[-78.7674,21.6349,0.0],[-78.766,21.6371,6.6774],[-78.7599,21.6379,2.8934],[-78.7571,21.6349,0.0],[-78.751,21.6382,2.9938],[-78.7465,21.6346,3.0564],[-78.7348,21.6461,2.0239],[-78.6986,21.6889,6.4005],[-78.6794,21.7166,10.0926],[-78.6777,21.7464,14.8899]]]]}
,"properties": {"GID_2": "CUB.2.10_1","GID_0": "CUB","country": "Cuba","GID_1": "CUB.2_1","province": "CiegodeÁvila","NL_NAME_1": "NA","county": "Venezuela","VARNAME_2": "NA","NL_NAME_2": "NA","TYPE_2": "Municipio","ENGTYPE_2": "Municipality","CC_2": "NA","HASC_2": "CU.CA.VE","name": "Venezuela.county","area_km2": 470.1233,"hist_schema_id": "Elevation0-9000","hist_area_km2": {"0": 235.0033,"25": 196.1196,"50": 39.0004}}}