{"type":"Feature","properties":{"GID_2":"GLP.2.1_1","GID_0":"GLP","country":"Guadeloupe","GID_1":"GLP.2_1","province":"Pointe-à-Pitre","NL_NAME_1":"NA","county":"Anse-Bertrand","VARNAME_2":"NA","NL_NAME_2":"NA","TYPE_2":"Chef-lieucanton","ENGTYPE_2":"Commune","CC_2":"03","HASC_2":"NA","name":"Anse-Bertrand.county"},
"geometry":{"type": "MultiPolygon","coordinates": [[[[-61.536,16.4521,0.0],[-61.5176,16.4547,12.0902],[-61.4868,16.4391,46.9048],[-61.4759,16.4402,71.5489],[-61.4666,16.4456,71.5813],[-61.4559,16.4458,15.201],[-61.4501,16.4501,15.625],[-61.4466,16.4496,16.58],[-61.4413,16.4407,26.2311],[-61.4317,16.4369,28.2343],[-61.4312,16.4231,35.9986],[-61.4245,16.4209,33.7292],[-61.4133,16.4295,41.0446],[-61.4122,16.4396,44.9114],[-61.404,16.4461,0.0],[-61.4071,16.4479,22.9086],[-61.406,16.4512,0.0],[-61.4079,16.4512,46.5869],[-61.4074,16.4557,9.9463],[-61.4085,16.4604,34.77],[-61.4104,16.4604,48.4355],[-61.4093,16.4649,0.0],[-61.4118,16.4699,0.0],[-61.4137,16.4693,28.4849],[-61.4162,16.4724,0.0],[-61.4179,16.4718,31.4864],[-61.4188,16.4749,19.6273],[-61.4246,16.4762,0.0],[-61.4279,16.4807,3.542],[-61.4276,16.4829,0.0],[-61.4326,16.4837,6.3661],[-61.4332,16.4876,0.0],[-61.4357,16.4879,13.8361],[-61.4393,16.4912,0.0],[-61.4421,16.4893,25.6378],[-61.4435,16.5001,20.4466],[-61.4468,16.5007,0.0],[-61.4524,16.4976,8.6654],[-61.4538,16.5007,0.0],[-61.4579,16.4996,3.9074],[-61.4599,16.5015,0.0],[-61.4626,16.5001,19.8209],[-61.4635,16.5026,4.2081],[-61.4613,16.5054,0.0],[-61.4663,16.5068,21.1833],[-61.4643,16.5149,0.0],[-61.4671,16.5107,9.1559],[-61.471,16.5121,0.0],[-61.4715,16.5099,62.4253],[-61.474,16.5104,49.5314],[-61.4765,16.5051,9.4227],[-61.4782,16.5057,0.0],[-61.4807,16.4976,0.0],[-61.4829,16.4971,0.0],[-61.4868,16.4918,0.0],[-61.4938,16.4899,8.0682],[-61.4951,16.4868,6.0098],[-61.4974,16.4874,0.0],[-61.4987,16.4851,25.5124],[-61.504,16.4846,0.0],[-61.5074,16.474,0.0],[-61.5129,16.4715,2.2723],[-61.5193,16.4713,0.0],[-61.5232,16.464,2.2856],[-61.5329,16.4587,0.0],[-61.5357,16.4546,2.857],[-61.536,16.4521,0.0]]]]}}