{"type": "Feature","bbox": [-61.0471,13.854,-60.9838,13.9601],"geometry": {"type": "MultiPolygon","coordinates": [[[[-61.0332,13.9601,0.0],[-61.039,13.9563,0.0],[-61.0399,13.9501,0.0],[-61.0462,13.9426,0.0],[-61.0438,13.9399,3.982],[-61.0471,13.9385,36.8227],[-61.0394,13.931,111.6975],[-61.0283,13.9286,34.6535],[-61.0221,13.918,191.0834],[-61.0214,13.9086,296.9966],[-61.0185,13.9046,201.4322],[-61.0182,13.9,263.1736],[-61.022,13.8957,364.5149],[-61.0275,13.8927,443.2021],[-61.0291,13.887,194.9926],[-61.0237,13.8812,271.0191],[-61.025,13.8716,328.8527],[-61.0199,13.8656,415.5093],[-61.0146,13.8556,613.6043],[-61.0106,13.854,811.5627],[-61.0052,13.8566,639.9977],[-60.9974,13.8685,284.0016],[-60.9839,13.882,192.2627],[-60.9838,13.8849,147.5508],[-60.9878,13.8895,130.894],[-60.9884,13.8937,136.637],[-60.9839,13.9194,85.7533],[-60.992,13.9281,32.549],[-60.9907,13.9467,17.0681],[-60.9978,13.951,12.6525],[-61.0087,13.9518,13.2275],[-61.0228,13.9571,8.3439],[-61.0283,13.9567,23.0653],[-61.0332,13.9601,0.0]]]]}
,"properties": {"GID_1": "LCA.1_1","GID_0": "LCA","country": "SaintLucia","province": "Anse-la-Raye","VARNAME_1": "NA","NL_NAME_1": "NA","TYPE_1": "Quarter","ENGTYPE_1": "Quarter","CC_1": "NA","HASC_1": "LC.AR","ISO_1": "NA","name": "Anse-la-Raye.province","area_km2": 44.14468,"hist_schema_id": "Elevation0-9000","hist_area_km2": {"0": 3.0248,"25": 2.7574,"50": 2.09896,"75": 2.51055,"100": 2.69578,"125": 2.73704,"150": 2.73708,"175": 2.53133,"200": 2.53136,"225": 2.88131,"250": 2.36682,"275": 2.65497,"300": 2.0376,"325": 1.66711,"350": 1.2555,"375": 0.8233,"400": 1.04972,"425": 0.86449,"450": 1.09091,"475": 0.72041,"500": 0.47342,"525": 0.47343,"550": 0.26759,"575": 0.28817,"600": 0.30876,"625": 0.12351,"650": 0.06175,"675": 0.18526,"700": 0.18526,"725": 0.10292,"750": 0.12351,"775": 0.14409,"800": 0.12351,"825": 0.10292,"850": 0.10292,"875": 0.04117}}}