{"type": "Feature","id": "5076","bbox": [-61.06688,13.86648,-60.98063,13.98737],"geometry": {"type": "Polygon","coordinates": [[[-60.98063,13.8928,284.8091],[-60.98063,13.9116,234.6061],[-60.98063,13.92413,153.2018],[-60.98188,13.94543,146.5124],[-60.98439,13.96549,119.9416],[-60.99191,13.97802,14.0805],[-61.00945,13.98178,4.0783],[-61.0266,13.98737,0.0],[-61.03555,13.96491,0.0],[-61.05948,13.93122,1.7074],[-61.06493,13.9173,0.0],[-61.06688,13.909,0.0],[-61.05582,13.90909,233.3015],[-61.04078,13.90533,404.1479],[-61.02449,13.89405,389.785],[-61.01071,13.87149,470.128],[-60.99065,13.86648,431.3491],[-60.98313,13.874,208.8972],[-60.98063,13.8928,284.8091]]]}
,"properties": {"ISO3166-1-Alpha-3": "LCA","country": "Saint Lucia","fill": "#F0F","name": "Anse-la-Raye","area_km2": 78.01441,"hist_schema_id": "Elevation0-9000","hist_area_km2": {"0": 8.99193,"25": 7.1607,"50": 6.00859,"75": 5.86465,"100": 6.39976,"125": 5.762,"150": 5.26821,"175": 4.73324,"200": 4.77445,"225": 4.83639,"250": 3.49872,"275": 3.58107,"300": 2.5521,"325": 2.0787,"350": 1.91408,"375": 1.29665,"400": 1.02911,"425": 0.72037,"450": 0.63806,"475": 0.32932,"500": 0.12349,"525": 0.14408,"550": 0.12349,"575": 0.14408,"600": 0.04117}}}