{"type": "Feature","bbox": [-75.3318,19.8807,-74.9515,20.0819],"geometry": {"type": "MultiPolygon","coordinates": [[[[-75.1114,19.9499,0.3005],[-75.1126,19.9488,0.3005],[-75.1096,19.9488,0.0],[-75.1096,19.9501,0.0],[-75.1114,19.9499,0.3005]]],
[[[-75.1426,19.965699999999998,0.13],[-75.144,19.9662,0.0797],[-75.1449,19.9646,0.6238],[-75.1435,19.9601,0.7787],[-75.1401,19.9568,0.0],[-75.1368,19.9565,0.0],[-75.1363,19.9582,0.0],[-75.1404,19.9615,1.225],[-75.1426,19.965699999999998,0.13]]],
[[[-74.9518,19.9635,0.0],[-74.9515,19.9665,0.0],[-74.9701,19.9599,141.2642],[-74.9811,20.0079,37.1519],[-75.0017,20.0414,164.4038],[-75.028,20.0485,114.0867],[-75.0415,20.0494,128.1976],[-75.0837,20.0409,4.2987],[-75.0865,20.039,2.3915],[-75.0826,20.0349,0.3306],[-75.0785,20.0332,0.0],[-75.079,20.031,0.4947],[-75.0801,20.0329,0.0],[-75.0818,20.0321,0.0],[-75.0804,20.0287,0.7407],[-75.0826,20.0251,0.3707],[-75.0835,20.0193,0.0],[-75.0824,20.0176,2.0502],[-75.084,20.0165,7.352],[-75.086,20.0182,0.8905],[-75.0912,20.0174,0.0],[-75.0965,20.0132,0.0],[-75.0949,20.0032,0.0],[-75.0985,19.9999,0.0],[-75.0963,19.9963,0.1226],[-75.0976,19.9921,0.0],[-75.1074,19.9912,8.0621],[-75.1204,19.9938,0.0],[-75.1215,19.9912,0.0],[-75.1185,19.9907,1.2169],[-75.1199,19.9871,0.0],[-75.1232,19.9851,3.5556],[-75.1274,19.9854,0.0],[-75.1268,19.9824,0.8705],[-75.1288,19.9804,3.318],[-75.1346,19.9835,1.1971],[-75.1354,19.9824,1.1971],[-75.1338,19.9793,0.0],[-75.1374,19.9785,2.7581],[-75.1415,19.9746,0.6002],[-75.1385,19.964,0.1501],[-75.136,19.9618,0.0],[-75.1338,19.9629,0.1558],[-75.1324,19.9615,0.0],[-75.134,19.9588,0.0],[-75.1329,19.9532,0.0],[-75.1218,19.9546,0.0],[-75.1218,19.9588,0.0],[-75.1254,19.9607,5.527],[-75.1243,19.964,3.5999],[-75.1221,19.9638,0.0],[-75.1235,19.9662,1.4914],[-75.1204,19.9707,0.7841],[-75.1188,19.9696,0.8128],[-75.1207,19.9615,0.0],[-75.1157,19.9585,0.0],[-75.1168,19.9538,0.0],[-75.1151,19.9526,0.0],[-75.1132,19.9532,0.0],[-75.1093,19.9588,0.0],[-75.1118,19.9601,0.2143],[-75.1113,19.9618,0.0],[-75.1024,19.9615,0.3032],[-75.1015,19.9585,0.3003],[-75.1099,19.9549,0.0],[-75.1126,19.951,0.0],[-75.1096,19.951,0.2794],[-75.1085,19.9543,0.465],[-75.1026,19.9557,0.0],[-75.1026,19.9532,0.2366],[-75.106,19.9526,0.0],[-75.1079,19.9501,0.0],[-75.1032,19.9496,0.2517],[-75.1024,19.946,0.6335],[-75.1071,19.944,0.6481],[-75.1071,19.946,0.1934],[-75.1099,19.9471,0.0],[-75.1099,19.9443,0.0],[-75.1126,19.946,0.0],[-75.1135,19.949,0.0],[-75.1171,19.9454,6.5994],[-75.1243,19.9485,0.2425],[-75.1246,19.9468,0.0],[-75.1229,19.946,3.525],[-75.1235,19.9426,0.0],[-75.1257,19.9424,0.2925],[-75.1257,19.9443,0.0],[-75.1271,19.9446,0.0],[-75.1279,19.9413,0.7676],[-75.1304,19.9396,1.7542],[-75.1301,19.9368,0.5014],[-75.136,19.9285,3.4543],[-75.1404,19.9254,8.9284],[-75.1454,19.9249,4.3871],[-75.1454,19.9235,0.0],[-75.1426,19.9229,0.0],[-75.1449,19.9212,0.3987],[-75.1443,19.9179,1.7288],[-75.146,19.9204,3.7378999999999998],[-75.1493,19.9207,0.0],[-75.1532,19.9163,0.0],[-75.1543,19.9185,4.2488],[-75.1624,19.9201,0.2577],[-75.166,19.916,12.5399],[-75.1665,19.909,0.0],[-75.1682,19.9065,0.0],[-75.1654,19.8991,11.4785],[-75.1663,19.8929,0.0],[-75.1579,19.8896,0.0],[-75.1535,19.8924,15.3796],[-75.1501,19.8915,0.0],[-75.1468,19.8949,0.0],[-75.1443,19.8935,0.0],[-75.1349,19.8935,0.0],[-75.1315,19.8954,0.0],[-75.1293,19.8943,0.0],[-75.1224,19.8951,0.0],[-75.1179,19.8985,0.0],[-75.1146,19.896,0.0],[-75.1085,19.896,0.0],[-75.0985,19.901,5.879],[-75.0937,19.8988,0.0],[-75.0865,19.9015,1.9405],[-75.081,19.8988,4.5546],[-75.0568,19.9026,0.0],[-75.0568,19.9065,0.0],[-75.0607,19.9101,0.0],[-75.0574,19.9126,0.0],[-75.0626,19.9151,4.8143],[-75.0643,19.9185,1.9611],[-75.0587,19.916,0.0],[-75.0593,19.9199,0.7233],[-75.0565,19.9224,0.4168],[-75.0546,19.9199,1.3212],[-75.0554,19.916,0.0],[-75.0501,19.9182,0.0],[-75.0493,19.9171,0.0],[-75.0521,19.9126,0.9011],[-75.0465,19.9118,0.0],[-75.0479,19.9101,3.0268],[-75.0571,19.911,0.2895],[-75.0543,19.9046,0.0],[-75.0424,19.9068,0.0],[-75.031,19.9071,10.5012],[-75.0293,19.906,0.0],[-75.029,19.9074,5.6453],[-75.0249,19.9085,0.0],[-75.0182,19.9082,1.5027],[-75.0062,19.9143,1.8552],[-75.001,19.9143,0.0],[-75.0001,19.9165,0.0],[-74.9965,19.9185,0.0],[-74.9912,19.9174,0.0],[-74.9876,19.9204,0.483],[-74.9821,19.9212,1.4619],[-74.9676,19.9354,0.0],[-74.9649,19.9424,2.4577],[-74.9549,19.9549,0.0],[-74.9518,19.9635,0.0]]],
[[[-75.126,19.9932,2.5943],[-75.1265,19.9946,1.0051],[-75.1288,19.9912,2.7029],[-75.1268,19.991,0.0],[-75.126,19.9932,2.5943]]],
[[[-75.1574,19.949,0.1993],[-75.1599,19.9488,0.0],[-75.1579,19.9449,0.0],[-75.1565,19.9454,0.0],[-75.1574,19.949,0.1993]]],
[[[-75.1446,19.949,0.5533],[-75.1454,19.951,0.0],[-75.146,19.944,0.0],[-75.1435,19.9463,0.0],[-75.1446,19.949,0.5533]]],
[[[-75.1507,19.9499,0.2247],[-75.151,19.951,0.0],[-75.1565,19.951,0.0],[-75.154,19.949,0.318],[-75.1504,19.9488,0.2247],[-75.1507,19.9499,0.2247]]],
[[[-75.3242,19.8898,3.0312],[-75.3257,19.8891,3.19],[-75.3257,19.8824,12.1494],[-75.3226,19.8826,0.0],[-75.3235,19.8851,0.0],[-75.3215,19.886,11.6331],[-75.3157,19.8813,1.7699],[-75.3085,19.8821,8.562],[-75.3043,19.8807,4.4881],[-75.3032,19.884,11.1221],[-75.2949,19.8821,7.5616],[-75.2904,19.8843,8.5321],[-75.2887,19.8871,21.0444],[-75.2854,19.8846,0.0],[-75.2757,19.8926,12.8819],[-75.2693,19.8921,3.3988],[-75.2688,19.8943,13.1732],[-75.2649,19.8935,0.0],[-75.2651,19.8949,16.2047],[-75.2574,19.896,2.1394],[-75.2513,19.8999,1.0283],[-75.2351,19.8999,0.0],[-75.2293,19.903199999999998,6.4735],[-75.2182,19.9054,0.0],[-75.1937,19.9049,0.0],[-75.1907,19.9076,0.0],[-75.1904,19.9121,0.0],[-75.1965,19.9112,4.8845],[-75.1982,19.9096,8.3664],[-75.2007,19.9112,0.0],[-75.2046,19.9099,5.4388],[-75.2079,19.914,4.6346],[-75.206,19.919,0.0],[-75.2087,19.9188,0.0],[-75.2118,19.9157,0.1953],[-75.2135,19.9174,0.0],[-75.2121,19.9199,0.3374],[-75.2176,19.9199,1.2586],[-75.2182,19.9232,0.0],[-75.216,19.9254,0.0],[-75.211,19.9251,0.0],[-75.2118,19.9276,3.9042],[-75.2101,19.929,6.0775],[-75.2032,19.9285,0.0],[-75.2018,19.9215,0.0],[-75.204,19.9168,1.0239],[-75.2065,19.9154,0.0],[-75.1943,19.9126,1.6938],[-75.1932,19.9151,4.2876],[-75.1968,19.9226,0.0],[-75.1918,19.9287,0.0],[-75.1799,19.9338,1.3398],[-75.1768,19.9368,3.4498],[-75.1557,19.9371,0.7964],[-75.1518,19.9385,0.0],[-75.1501,19.9404,1.1587],[-75.1529,19.9424,1.1841],[-75.1507,19.9457,0.0],[-75.1593,19.9432,0.3834],[-75.1615,19.9504,0.3936],[-75.1635,19.9488,0.0],[-75.1643,19.9524,0.0],[-75.171,19.9543,2.4103],[-75.169,19.9546,2.1868],[-75.1676,19.954,2.0415],[-75.1668,19.9543,2.0415],[-75.1654,19.9571,6.2939],[-75.1654,19.9538,1.7537],[-75.1629,19.954,1.8584],[-75.1621,19.9507,0.0],[-75.1588,19.9499,0.0],[-75.1579,19.9546,0.0],[-75.1607,19.9546,0.2495],[-75.1635,19.9585,0.325],[-75.1593,19.959,0.1783],[-75.1568,19.9568,0.0],[-75.1576,19.9604,0.0],[-75.161,19.9626,0.0],[-75.1657,19.9613,4.599],[-75.1699,19.9682,0.0],[-75.1657,19.9701,4.4575],[-75.1637,19.9671,2.2222],[-75.154,19.9668,0.0],[-75.154,19.9732,0.6926],[-75.151,19.9688,2.5776],[-75.1462,19.9699,0.0],[-75.1415,19.9824,0.0],[-75.1479,19.9874,2.4464],[-75.1501,19.9938,1.2487],[-75.1526,19.9951,3.1871],[-75.1532,19.9993,0.2111],[-75.1501,20.0018,0.5166],[-75.1496,20.0043,0.0],[-75.1549,20.0049,1.1819],[-75.1574,19.9943,2.3758],[-75.1615,19.9932,1.3761],[-75.1682,19.9946,1.7188],[-75.1776,19.9999,1.1096],[-75.1785,20.0026,0.0],[-75.1765,20.0071,0.0],[-75.1785,20.0085,0.1061],[-75.1785,20.0115,0.0],[-75.1707,20.0249,0.7972],[-75.1654,20.0293,4.9385],[-75.1571,20.0315,4.8846],[-75.1421,20.0287,0.0],[-75.1387,20.026,1.263],[-75.1399,20.0232,0.0],[-75.1387,20.0176,1.2862],[-75.1343,20.0143,0.3199],[-75.1293,20.0135,0.0],[-75.1365,20.0232,0.9052],[-75.1368,20.026,0.5888],[-75.1315,20.0329,1.1653],[-75.124,20.0357,0.2447],[-75.1212,20.0426,1.1296],[-75.1207,20.0518,0.0],[-75.1169,20.0554,1.0279],[-75.1353,20.079,6.8998],[-75.1451,20.0817,7.6499],[-75.1644,20.0819,11.2531],[-75.1789,20.0797,17.6208],[-75.2083,20.0615,36.6603],[-75.2337,20.0365,11.3175],[-75.2309,20.0194,7.7682],[-75.2353,20.0093,8.1774],[-75.2598,20.001,14.0518],[-75.2824,19.9981,23.7582],[-75.2994,19.9882,17.2621],[-75.3234,19.9436,132.6523],[-75.3318,19.9216,31.3158],[-75.3281,19.9167,30.1567],[-75.3244,19.8988,17.7112],[-75.3242,19.8898,3.0312]]]]}
,"properties": {"GID_2": "CUB.6.2_1","GID_0": "CUB","country": "Cuba","GID_1": "CUB.6_1","province": "Guantánamo","NL_NAME_1": "NA","county": "Caimanera","VARNAME_2": "NA","NL_NAME_2": "NA","TYPE_2": "Municipio","ENGTYPE_2": "Municipality","CC_2": "NA","HASC_2": "CU.GU.CA","name": "Caimanera.county","area_km2": 485.1697,"hist_schema_id": "Elevation0-9000","hist_area_km2": {"0": 194.4939,"25": 114.4088,"50": 59.7296,"75": 38.5031,"100": 27.1412,"125": 17.5951,"150": 12.7133,"175": 8.7678,"200": 4.3639,"225": 2.9691,"250": 1.9928,"275": 1.6341,"300": 0.7573,"325": 0.0996}}}