{"type":"Feature","properties":{"GID_2":"DOM.24.3_1","GID_0":"DOM","country":"DominicanRepublic","GID_1":"DOM.24_1","province":"SanCristóbal","NL_NAME_1":"NA","county":"LosCacaos","VARNAME_2":"NA","NL_NAME_2":"NA","TYPE_2":"Distritomunicipal","ENGTYPE_2":"Municipaldistrict","CC_2":"NA","HASC_2":"DO.CR.LC","name":"Los_Cacaos.county"},
"geometry":{"type": "MultiPolygon","coordinates": [[[[-70.3394,18.723,1082.5784],[-70.3447,18.7105,1003.9863],[-70.3521,18.7015,988.8979],[-70.3551,18.6868,939.6665],[-70.3539,18.6798,878.4731],[-70.3562,18.6699,962.1835],[-70.3608,18.6655,994.5267],[-70.3672,18.653,907.4023],[-70.3673,18.642,946.0739],[-70.364,18.6283,911.3978],[-70.3595,18.6253,896.2539],[-70.3563,18.62,911.3599],[-70.3559,18.6164,961.4293],[-70.3582,18.6095,723.0996],[-70.3533,18.6042,892.0293],[-70.3577,18.5978,868.5832],[-70.3607,18.5867,797.6421],[-70.3589,18.5737,887.0002],[-70.366,18.5669,702.6295],[-70.3628,18.5582,690.3152],[-70.3648,18.5563,620.6999],[-70.3712,18.5548,545.4518],[-70.3728,18.5529,601.9973],[-70.3726,18.5497,586.9515],[-70.3661,18.5399,580.4431],[-70.3649,18.5336,437.9075],[-70.3594,18.5288,498.5082],[-70.3527,18.526,557.368],[-70.3422,18.5088,653.8521],[-70.3431,18.5033,379.4259],[-70.3388,18.5003,366.0833],[-70.3349,18.4998,477.5893],[-70.3228,18.5036,508.2101],[-70.3155,18.4997,532.5991],[-70.3039,18.5048,595.0325],[-70.3009,18.5093,470.5304],[-70.2947,18.511,592.5856],[-70.2916,18.5153,537.6702],[-70.2874,18.5159,506.837],[-70.2707,18.5113,590.3506],[-70.2601,18.4965,760.4157],[-70.2488,18.4964,563.0772],[-70.2382,18.5053,405.8608],[-70.2252,18.513,300.1576],[-70.2251,18.5199,282.305],[-70.2314,18.5288,459.8901],[-70.2349,18.5293,414.8709],[-70.2415,18.5269,492.1497],[-70.2636,18.5271,552.1708],[-70.2663,18.5288,533.6953],[-70.2715,18.5372,779.1396],[-70.2792,18.5407,836.5109],[-70.2812,18.5385,710.1384],[-70.2821,18.528,659.6317],[-70.2934,18.5273,471.2368],[-70.3039,18.5366,450.0651],[-70.3058,18.5426,540.2529],[-70.3105,18.5462,437.1825],[-70.3103,18.5581,619.8838],[-70.3072,18.5654,663.5594],[-70.3021,18.5708,711.4207],[-70.3067,18.575,582.1269],[-70.3087,18.5822,681.6468],[-70.3131,18.5852,667.5898],[-70.3179,18.5953,639.7855],[-70.3251,18.5993,634.1964],[-70.325,18.6102,752.2714],[-70.3126,18.6225,898.5297],[-70.3039,18.6203,1059.0156],[-70.2986,18.6212,1026.9905],[-70.2936,18.6289,985.717],[-70.2934,18.6335,982.0076],[-70.2973,18.641,1001.3585],[-70.3103,18.6545,1012.2419],[-70.3137,18.6677,1144.0789],[-70.3137,18.6784,1273.4868],[-70.3164,18.6834,1417.7368],[-70.3226,18.7065,1288.0729],[-70.3221,18.7105,1150.3121],[-70.3198,18.7135,1088.1492],[-70.3394,18.723,1082.5784]]]]}}