{"type": "Feature","bbox": [-66.2445,18.1327,-66.0953,18.2305],"geometry": {"type": "MultiPolygon","coordinates": [[[[-66.1688,18.2242,501.482],[-66.1702,18.2166,581.3036],[-66.1785,18.2128,517.1005],[-66.1845,18.207,557.9135],[-66.185,18.2013,580.1148],[-66.2002,18.197,412.2354],[-66.2067,18.197,328.9595],[-66.2131,18.186,475.3331],[-66.2117,18.1731,629.785],[-66.2237,18.1755,533.3047],[-66.2279,18.1778,357.8889],[-66.2307,18.1845,481.9475],[-66.2408,18.1845,238.2184],[-66.2445,18.183,251.9701],[-66.2436,18.1807,261.8218],[-66.2209,18.165,298.429],[-66.2288,18.1583,272.1907],[-66.2237,18.1554,269.8696],[-66.2278,18.1507,272.9032],[-66.22,18.1497,302.3257],[-66.2204,18.145,280.422],[-66.2093,18.1397,285.7832],[-66.2029,18.1412,297.147],[-66.195,18.1364,308.0866],[-66.1816,18.1398,352.9397],[-66.1728,18.1327,342.5297],[-66.1622,18.137,399.6092],[-66.1631,18.1451,374.2293],[-66.1354,18.1356,374.5865],[-66.128,18.1404,383.9876],[-66.116,18.1399,392.0522],[-66.098,18.1533,414.4817],[-66.0953,18.169,470.2688],[-66.1026,18.1695,458.5729],[-66.105,18.1714,475.725],[-66.1017,18.1828,350.724],[-66.1092,18.201,472.1955],[-66.1179,18.21,484.9489],[-66.1263,18.2062,498.8392],[-66.1373,18.1976,444.2947],[-66.1415,18.1976,405.8584],[-66.1439,18.2281,331.1807],[-66.1462,18.2305,286.1281],[-66.1499,18.2252,341.3057],[-66.1605,18.22,424.605],[-66.1688,18.2242,501.482]]]]}
,"properties": {"GID_1": "PRI.21_1","GID_0": "PRI","country": "PuertoRico","province": "Cidra","VARNAME_1": "NA","NL_NAME_1": "NA","TYPE_1": "Municipio","ENGTYPE_1": "Municipality","CC_1": "NA","HASC_1": "PR.CD","ISO_1": "-","name": "Cidra.province","area_km2": 95.1628,"hist_schema_id": "Elevation0-9000","hist_area_km2": {"225": 0.02014,"250": 0.3626,"275": 0.94686,"300": 1.79303,"325": 2.67935,"350": 2.96136,"375": 5.64086,"400": 10.23369,"425": 20.56692,"450": 14.42351,"475": 12.16718,"500": 9.04479,"525": 6.12376,"550": 3.94827,"575": 2.88064,"600": 0.78564,"625": 0.32232,"650": 0.26187}}}