{"type":"Feature","properties":{"GID_2":"MTQ.2.6_1","GID_0":"MTQ","country":"Martinique","GID_1":"MTQ.2_1","province":"LeMarin","NL_NAME_1":"NA","county":"LesAnses-d'Arlets","VARNAME_2":"NA","NL_NAME_2":"NA","TYPE_2":"Commune","ENGTYPE_2":"Commune","CC_2":"NA","HASC_2":"MQ.MA.AA","name":"Les_Anses-d'Arlets.county"},
"geometry":{"type": "MultiPolygon","coordinates": [[[[-61.0439,14.4998,215.9893],[-61.0546,14.5042,239.5613],[-61.0587,14.508,328.1701],[-61.0653,14.5249,370.3825],[-61.0692,14.5404,36.7367],[-61.0737,14.5407,6.0091],[-61.0751,14.5424,0.0],[-61.0785,14.541,3.6189],[-61.0804,14.5368,31.3622],[-61.0882,14.534,5.0861],[-61.0876,14.5274,2.3757],[-61.0901,14.5279,5.5472],[-61.0904,14.526,6.287],[-61.0946,14.5246,6.957],[-61.0949,14.5212,20.6289],[-61.0976,14.5179,0.0],[-61.0968,14.5135,53.2017],[-61.1004,14.5085,1.0404],[-61.0999,14.5068,0.0],[-61.0968,14.506,3.4847],[-61.0907,14.5079,21.6947],[-61.0854,14.5051,0.0],[-61.0838,14.5018,0.0],[-61.0843,14.4982,26.2616],[-61.086,14.4996,0.0],[-61.089,14.4979,19.326],[-61.0901,14.4926,19.5157],[-61.0857,14.4907,17.918],[-61.0821,14.4915,1.4646],[-61.0799,14.4899,2.2132],[-61.0793,14.4785,18.1744],[-61.0824,14.4768,55.3492],[-61.0818,14.4699,6.4228],[-61.0776,14.4674,10.1076],[-61.0726,14.4693,5.8625],[-61.0699,14.4682,4.6948],[-61.0676,14.466,4.5395],[-61.0674,14.4596,0.0],[-61.0632,14.4557,22.5768],[-61.0574,14.4535,0.0],[-61.0518,14.456,7.2152],[-61.0559,14.4637,408.0376],[-61.0555,14.469,119.6135],[-61.0449,14.4934,90.142],[-61.0439,14.4998,215.9893]]]]}}