{"type": "Feature","id": "5141","bbox": [-64.88599,32.26593,-64.83414,32.32974],"geometry": {"type": "MultiPolygon","coordinates": [[[[-64.86429,32.30311,10.4162],[-64.86894,32.30893,2.2021],[-64.87243,32.30311,3.2855],[-64.87979,32.30544,0.0],[-64.87455,32.29568,10.2651],[-64.87798,32.28607,0.0],[-64.87663,32.27891,3.1827],[-64.88599,32.28257,1.6101],[-64.88289,32.27172,0.0],[-64.88016,32.26593,0.0],[-64.86313,32.26901,0.0],[-64.84879,32.26784,0.0],[-64.84879,32.27094,0.7011],[-64.867,32.27288,3.3818],[-64.87204,32.27637,0.0],[-64.86981,32.27978,0.0],[-64.867,32.2911,0.0],[-64.85809,32.29769,1.1628],[-64.86429,32.30311,10.4162]]],
[[[-64.85542,32.30508,0.0],[-64.8522,32.30825,0.3751],[-64.84822,32.31045,0.0],[-64.84305,32.31118,0.0],[-64.84293,32.31729,5.8684],[-64.83609,32.32274,0.0],[-64.83414,32.32909,4.759],[-64.83532,32.32974,0.9768],[-64.83955,32.3264,0.0],[-64.84293,32.32103,0.0],[-64.84992,32.31538,0.0],[-64.86002,32.30325,2.2193],[-64.85542,32.30508,0.0]]]]}
,"properties": {"ISO3166-1-Alpha-3": "BMU","country": "Bermuda","fill": "#F0F","name": "Sandys","area_km2": 7.241021,"hist_schema_id": "Elevation0-9000","hist_area_km2": {"0": 4.606125,"25": 2.581123,"50": 0.053774}}}