{"type":"Feature","properties":{"GID_1":"BMU.8_1","GID_0":"BMU","country":"Bermuda","province":"Sandys","VARNAME_1":"Sandy's","NL_NAME_1":"NA","TYPE_1":"Parish","ENGTYPE_1":"Parish","CC_1":"NA","HASC_1":"BM.SA","ISO_1":"NA","name":"Sandys.province"},
"geometry":{"type": "MultiPolygon","coordinates": [[[[-64.8786,32.2603,2.9849],[-64.8644,32.2675,2.734],[-64.8617,32.2711,2.4342],[-64.8542,32.2681,0.0],[-64.8472,32.27,0.1563],[-64.8503,32.2722,0.0],[-64.8619,32.2719,2.4342],[-64.865,32.2739,0.0],[-64.87,32.2742,2.3168],[-64.875,32.2781,0.0],[-64.8686,32.2817,0.0],[-64.8706,32.2844,0.0],[-64.8678,32.2925,3.2036],[-64.8633,32.2936,0.0],[-64.8611,32.2967,14.6388],[-64.8567,32.2972,0.0],[-64.8606,32.3008,0.0],[-64.8578,32.3047,0.0],[-64.8503,32.3089,0.0],[-64.8497,32.3111,0.0],[-64.8511,32.3128,0.0],[-64.8569,32.3067,3.3293],[-64.8625,32.3042,0.0],[-64.865,32.3039,0.0],[-64.8661,32.3075,0.0],[-64.8611,32.3122,0.0],[-64.8617,32.3133,0.0],[-64.8692,32.3092,2.2021],[-64.8725,32.3039,0.0],[-64.8836,32.3058,1.9424],[-64.8778,32.3011,3.0219],[-64.8753,32.2931,5.8211],[-64.8806,32.2856,0.0],[-64.8878,32.2817,5.01],[-64.8836,32.2756,15.4521],[-64.8786,32.2603,2.9849]]],
[[[-64.8311,32.3297,0.0],[-64.8353,32.33,0.9768],[-64.8494,32.3128,0.87],[-64.8419,32.3125,0.0],[-64.8425,32.3161,0.0],[-64.8408,32.3192,1.5567],[-64.8339,32.3244,0.0],[-64.8275,32.3192,0.0],[-64.8267,32.3203,0.0],[-64.8308,32.3247,0.0],[-64.8275,32.3286,0.0],[-64.8286,32.3294,0.0],[-64.8314,32.3261,0.0],[-64.8311,32.3297,0.0]]]]}}