{"type":"Feature","properties":{"GID_1":"DOM.1_1","GID_0":"DOM","country":"DominicanRepublic","province":"Azua","VARNAME_1":"NA","NL_NAME_1":"NA","TYPE_1":"Provincia","ENGTYPE_1":"Province","CC_1":"NA","HASC_1":"DO.AZ","ISO_1":"DO-02","name":"Azua.province"},
"geometry":{"type": "MultiPolygon","coordinates": [[[[-70.8401,18.3299,0.0],[-70.8524,18.3299,0.0],[-70.8521,18.3282,1.9619],[-70.8549,18.3279,0.678],[-70.8582,18.3229,0.0],[-70.8574,18.3215,0.0],[-70.859,18.3221,0.0],[-70.8596,18.3196,0.0],[-70.861,18.3204,0.0],[-70.8615,18.3171,0.701],[-70.8629,18.3185,0.701],[-70.8643,18.3171,0.0],[-70.8646,18.3099,0.0],[-70.8621,18.3157,0.6533],[-70.8557,18.3215,0.0],[-70.8532,18.3263,1.0716],[-70.8471,18.3288,0.7887],[-70.8412,18.3285,0.0],[-70.8401,18.3299,0.0]]],
[[[-70.7838,18.3451,0.0],[-70.7768,18.3471,19.8859],[-70.7712,18.3465,0.0],[-70.7657,18.349,22.6002],[-70.7549,18.349,8.8137],[-70.7485,18.3463,0.0],[-70.744,18.3463,0.0],[-70.7246,18.3563,0.0],[-70.7237,18.361,20.7858],[-70.7179,18.3626,3.6086],[-70.7113,18.3693,15.3745],[-70.7029,18.3832,0.0],[-70.7029,18.3865,0.0],[-70.7063,18.3879,6.9972],[-70.706,18.3926,2.1109],[-70.7085,18.3957,0.0],[-70.7068,18.3996,0.0],[-70.7099,18.4013,1.4666],[-70.7104,18.4096,0.1377],[-70.7054,18.4135,1.2957],[-70.7029,18.4121,0.0],[-70.7012,18.414,1.5309],[-70.6949,18.416,3.2473],[-70.6921,18.4201,0.0],[-70.6896,18.4201,0.0],[-70.6924,18.4243,0.0],[-70.6885,18.4296,1.2747],[-70.6657,18.4318,2.2903],[-70.661,18.429,2.5789],[-70.6565,18.4287,0.9158],[-70.6557,18.4271,0.9158],[-70.6401,18.4274,6.0963],[-70.631,18.4229,2.7618],[-70.6245,18.4221,4.2439],[-70.624,18.419,0.5058],[-70.6218,18.4193,0.6736],[-70.6201,18.4221,4.3623],[-70.6154,18.4224,4.4745],[-70.5985,18.4185,0.0],[-70.5885,18.4137,0.0],[-70.5815,18.4068,2.3907],[-70.5785,18.3904,5.5844],[-70.5785,18.3818,2.1543],[-70.5704,18.371,5.8377],[-70.5701,18.3521,9.5691],[-70.574,18.351,0.2784],[-70.5757,18.3415,0.0],[-70.5749,18.3326,2.9145],[-70.5721,18.3288,2.3961],[-70.571,18.3232,19.2245],[-70.5724,18.3115,1.3303],[-70.5746,18.3099,3.2116],[-70.5807,18.3096,0.0],[-70.5829,18.3015,2.5723],[-70.589,18.294,0.0],[-70.5924,18.2851,0.0],[-70.5924,18.2774,0.0],[-70.5879,18.2724,0.1442],[-70.581,18.2693,8.7521],[-70.5777,18.2626,20.8769],[-70.5717,18.2742,37.5752],[-70.5627,18.2774,23.0952],[-70.5526,18.2755,30.6981],[-70.5428,18.2803,36.1163],[-70.5344,18.2778,45.0798],[-70.5274,18.2776,52.7263],[-70.5158,18.2825,58.023],[-70.504,18.2851,68.5757],[-70.4954,18.2837,116.2509],[-70.4872,18.2883,95.7142],[-70.481,18.3001,88.5035],[-70.4798,18.3102,105.3946],[-70.4758,18.3168,100.9702],[-70.4777,18.3321,136.5096],[-70.4803,18.3395,160.2678],[-70.4802,18.3603,139.3579],[-70.4781,18.364,190.3256],[-70.4668,18.3749,162.6502],[-70.4634,18.3812,199.0712],[-70.4579,18.4074,227.171],[-70.4628,18.4149,237.8927],[-70.4694,18.418,208.8126],[-70.4778,18.4192,209.1039],[-70.4887,18.4271,232.925],[-70.4893,18.4352,245.1831],[-70.4869,18.4424,298.4055],[-70.4876,18.4493,341.5268],[-70.4915,18.4535,388.1348],[-70.4933,18.4626,392.22],[-70.5015,18.4671,299.3382],[-70.5041,18.4709,338.8656],[-70.5035,18.4774,586.0425],[-70.4964,18.4855,484.3997],[-70.4989,18.4898,531.3558],[-70.5037,18.4918,335.2177],[-70.5224,18.4929,367.5417],[-70.536,18.5041,515.777],[-70.5406,18.5108,591.1605],[-70.5503,18.5096,499.7088],[-70.5527,18.5166,409.8124],[-70.5586,18.52,469.798],[-70.577,18.521,521.4563],[-70.5833,18.5314,587.4698],[-70.5994,18.5268,796.5742],[-70.6026,18.5271,776.3956],[-70.6116,18.5419,805.8679],[-70.6192,18.5458,625.4178],[-70.6186,18.5556,731.6593],[-70.6273,18.5694,831.1953],[-70.6412,18.5765,741.8248],[-70.65,18.5782,753.4338],[-70.6561,18.5859,774.1392],[-70.6634,18.5907,831.16],[-70.6646,18.5976,1000.8219],[-70.6611,18.611,965.6542],[-70.653,18.6222,1110.183],[-70.6534,18.6532,1785.2489],[-70.6573,18.6627,1712.2543],[-70.6715,18.6771,1706.6772],[-70.6736,18.6818,1598.3579],[-70.6823,18.6789,1352.6735],[-70.6847,18.6798,1292.698],[-70.6856,18.6821,1201.8257],[-70.6847,18.685,1163.8669],[-70.6803,18.6888,1337.9602],[-70.6765,18.6998,1742.8767],[-70.671,18.7027,1596.4651],[-70.6682,18.7072,1664.2197],[-70.6684,18.7104,1762.9197],[-70.679,18.7277,1919.2494],[-70.6711,18.7412,2051.9268],[-70.6711,18.7493,2120.5088],[-70.6749,18.7548,2072.6865],[-70.6817,18.7587,2120.2349],[-70.6872,18.768,2288.6387],[-70.6924,18.7718,2299.667],[-70.7046,18.7725,2330.833],[-70.7191,18.7776,2179.8638],[-70.7249,18.7781,2032.3689],[-70.7299,18.7775,1898.5891],[-70.7437,18.771,1520.1656],[-70.7467,18.7714,1538.2653],[-70.7529,18.7778,1611.119],[-70.7574,18.792,1627.4271],[-70.7611,18.7989,1310.4796],[-70.7682,18.8066,1629.6039],[-70.7755,18.8226,1723.1234],[-70.7952,18.8269,1731.6957],[-70.8052,18.8328,1837.2817],[-70.811,18.8544,1649.7764],[-70.814,18.8607,1578.7881],[-70.8171,18.8652,1615.1785],[-70.8265,18.8704,1589.7535],[-70.8281,18.8739,1683.2037],[-70.8253,18.8855,1219.7675],[-70.828,18.8938,940.923],[-70.8283,18.913,1282.9922],[-70.8305,18.9206,1127.6307],[-70.8289,18.9223,1160.7869],[-70.82,18.9232,1361.9991],[-70.8161,18.9294,1184.2281],[-70.8215,18.9351,1192.4824],[-70.8256,18.9466,1146.8569],[-70.8335,18.952,1121.5383],[-70.8367,18.9629,1508.1025],[-70.8367,18.9723,1751.6772],[-70.8312,18.9777,2008.4585],[-70.8295,18.9823,1927.4186],[-70.8463,18.9953,1641.661],[-70.8625,18.9955,1833.5398],[-70.8695,18.9926,1799.8051],[-70.8747,18.988,1902.3835],[-70.882,18.9886,2092.3899],[-70.8814,18.9759,2108.5186],[-70.8788,18.9679,2228.9902],[-70.8809,18.9634,2091.1201],[-70.9041,18.9541,1909.8547],[-70.9121,18.9542,1854.0223],[-70.9187,18.9566,1857.2539],[-70.9219,18.955,1770.3612],[-70.9212,18.9518,1859.5819],[-70.9067,18.9369,1561.0475],[-70.9152,18.921,1802.0054],[-70.9326,18.9195,1650.5508],[-70.9414,18.9145,1569.5574],[-70.9498,18.9043,1557.4419],[-70.9617,18.9029,1521.8418],[-70.9776,18.8932,1469.615],[-70.9854,18.8919,1184.0564],[-70.9882,18.8893,1105.3523],[-70.9885,18.8798,933.0012],[-70.9833,18.869,1159.3296],[-70.9881,18.8578,976.778],[-70.9853,18.8453,763.6944],[-70.9733,18.822,544.3531],[-70.9662,18.8142,476.5112],[-70.9625,18.8074,499.8682],[-70.9622,18.7916,538.1735],[-70.9658,18.7871,534.2906],[-70.9732,18.7837,514.9203],[-70.9741,18.7726,728.3028],[-70.9774,18.761,529.8492],[-70.9904,18.755,437.3806],[-70.9911,18.7527,436.0778],[-70.9893,18.7476,454.8408],[-70.9913,18.7456,440.1005],[-70.9995,18.7465,392.8244],[-70.9984,18.754,398.1785],[-71.0048,18.7635,511.9727],[-71.0208,18.7728,627.7496],[-71.0271,18.7709,702.4664],[-71.0389,18.7638,489.9944],[-71.0452,18.763,542.3917],[-71.0446,18.7547,531.2736],[-71.0415,18.7463,418.1277],[-71.0367,18.7395,403.4825],[-71.0358,18.7271,386.0],[-71.0286,18.7178,386.0],[-71.0306,18.7146,386.0],[-71.0388,18.7084,391.6111],[-71.0393,18.6805,359.5866],[-71.0421,18.6744,346.0915],[-71.046,18.6729,383.6104],[-71.0539,18.6748,355.3868],[-71.0617,18.6681,283.5403],[-71.0653,18.6681,283.0023],[-71.0657,18.6748,291.0186],[-71.0606,18.6815,304.587],[-71.0598,18.6855,303.4085],[-71.061,18.6904,314.3076],[-71.0644,18.6913,324.3796],[-71.0707,18.6851,294.6303],[-71.0785,18.6675,323.9608],[-71.0911,18.648,725.235],[-71.1031,18.6381,657.3828],[-71.1257,18.6229,704.0586],[-71.1323,18.62,722.1703],[-71.1512,18.6169,736.9407],[-71.1522,18.6092,634.5349],[-71.147,18.5997,548.4134],[-71.1456,18.5919,577.6162],[-71.1383,18.5861,600.3746],[-71.1297,18.5702,834.8459],[-71.1104,18.5579,827.7292],[-71.1017,18.5548,689.7427],[-71.091,18.5573,737.6004],[-71.0633,18.5564,791.4434],[-71.0568,18.5522,845.2593],[-71.0395,18.5479,628.4265],[-71.0323,18.5433,579.0415],[-71.0181,18.542,552.8025],[-70.9854,18.5276,195.5837],[-70.9743,18.5197,228.568],[-70.9737,18.5137,237.2325],[-70.976,18.5098,225.4964],[-70.9803,18.5072,213.5112],[-70.9846,18.5109,245.1921],[-70.9948,18.5087,177.5021],[-70.9969,18.5073,182.2631],[-70.9984,18.5013,179.0311],[-71.0014,18.5003,180.369],[-71.004,18.5011,184.5287],[-71.0063,18.5042,161.3249],[-71.0054,18.5125,171.3689],[-71.0152,18.5221,206.3595],[-71.0253,18.5234,142.8332],[-71.0302,18.5212,163.452],[-71.03,18.5128,187.9851],[-71.0221,18.5058,196.6344],[-71.0153,18.4917,210.5713],[-71.0078,18.489,211.9785],[-70.9889,18.4912,245.0361],[-70.986,18.4889,272.3398],[-70.984,18.4834,256.9701],[-70.9864,18.4667,207.8013],[-70.9959,18.4563,202.2841],[-70.9954,18.4504,210.8858],[-70.998,18.4402,256.612],[-71.006,18.4326,296.6631],[-71.0091,18.4262,319.1084],[-71.0102,18.4189,371.8265],[-71.0159,18.4077,481.095],[-71.0201,18.4048,576.2668],[-71.0348,18.4043,648.3527],[-71.0365,18.3973,855.2678],[-71.0351,18.3897,1086.2941],[-71.0253,18.3768,1303.1438],[-71.0098,18.3729,1249.5095],[-70.9974,18.3656,1205.437],[-70.986,18.3643,1211.9927],[-70.974,18.3576,1184.5286],[-70.9732,18.3646,1078.0292],[-70.9692,18.3701,1056.0931],[-70.9629,18.37,1098.5134],[-70.9521,18.3636,852.4915],[-70.9476,18.3589,639.7632],[-70.9473,18.3542,683.2921],[-70.9505,18.3479,813.7524],[-70.9546,18.3438,878.515],[-70.9604,18.3419,1069.4868],[-70.9614,18.3399,1006.8015],[-70.9536,18.3335,785.7878],[-70.936,18.303,661.0352],[-70.9351,18.297,616.3365],[-70.9365,18.2932,661.5523],[-70.9439,18.2849,651.0484],[-70.9466,18.2792,462.5908],[-70.9477,18.2719,356.3608],[-70.9534,18.2615,345.9192],[-70.9592,18.2581,338.4723],[-70.9679,18.2567,19.0186],[-70.9682,18.254,15.071],[-70.9649,18.2501,0.0],[-70.9632,18.2507,123.1335],[-70.9571,18.2476,0.0],[-70.9451,18.254,20.1658],[-70.9315,18.2543,27.3795],[-70.9285,18.2576,7.1096],[-70.9238,18.259,11.6801],[-70.9229,18.2618,0.0],[-70.9149,18.2629,0.0],[-70.9137,18.2657,29.8155],[-70.9057,18.2724,119.3501],[-70.9032,18.2724,0.0],[-70.9026,18.2751,0.0],[-70.9007,18.2749,0.0],[-70.899,18.2793,175.8785],[-70.8943,18.2815,0.0],[-70.8924,18.2857,140.0042],[-70.8885,18.2862,0.0],[-70.8829,18.2935,5.4281],[-70.8807,18.294,8.0542],[-70.8765,18.3029,1.7744],[-70.8676,18.3107,0.0],[-70.8696,18.3115,0.8001],[-70.8693,18.3154,0.0],[-70.8662,18.321,0.3021],[-70.8668,18.3246,0.8008],[-70.8651,18.3271,2.2601],[-70.8601,18.3321,4.9825],[-70.8585,18.3365,0.4786],[-70.8568,18.3382,1.6041],[-70.8546,18.3379,1.2365],[-70.8526,18.3412,4.794],[-70.8449,18.3418,0.0],[-70.8443,18.3432,1.9252],[-70.8468,18.344,3.1559],[-70.8435,18.3476,4.3933],[-70.8385,18.3485,0.9148],[-70.8365,18.3457,0.5198],[-70.8332,18.3474,1.831],[-70.8324,18.344,0.9034],[-70.8285,18.3432,5.09],[-70.8318,18.3399,0.4184],[-70.8315,18.3374,0.1373],[-70.8351,18.3354,0.0],[-70.8343,18.3338,0.7365],[-70.8293,18.3357,1.6713],[-70.8282,18.3349,1.4738],[-70.824,18.3388,2.3939],[-70.8257,18.3354,1.7815],[-70.8315,18.3318,0.2807],[-70.8301,18.3299,0.0],[-70.8257,18.3312,0.2131],[-70.8251,18.3338,1.7815],[-70.8232,18.3332,0.0],[-70.8201,18.336,0.0],[-70.8193,18.339,0.1619],[-70.8204,18.341,3.4741],[-70.8168,18.3396,0.3701],[-70.811,18.3415,0.1466],[-70.8104,18.3446,3.2326],[-70.8126,18.3471,1.9449],[-70.8126,18.3499,3.6203],[-70.8093,18.3529,4.8559],[-70.8043,18.3546,2.5749],[-70.7951,18.3526,7.227],[-70.7935,18.3479,2.4105],[-70.7957,18.3463,0.0],[-70.7943,18.3451,0.0],[-70.7838,18.3451,0.0]]]]}}