{"type":"Feature","properties":{"ISO3166-1-Alpha-3":"DOM","country":"Dominican Republic","fill":"#F0F","id":"1974","name":"Azua"},
"geometry":{"type": "Polygon","coordinates": [[[-70.69999,18.67684,1325.3301],[-70.68583,18.73402,1969.1412],[-70.72377,18.77779,2032.3689],[-70.7848,18.80733,1627.6298],[-70.82743,18.86229,1509.4805],[-70.83869,18.95448,1173.5167],[-70.8912,18.98845,2281.3638],[-70.89957,18.96703,2195.3867],[-70.9205,18.95722,1876.1052],[-70.9245,18.93784,1890.8582],[-70.93858,18.92505,1811.897],[-70.96313,18.90874,1759.5453],[-70.97527,18.88368,1367.2634],[-70.98194,18.83412,687.6234],[-70.98246,18.78263,455.7671],[-70.99026,18.76562,412.6767],[-71.00393,18.75315,421.514],[-71.01848,18.75883,541.7205],[-71.0269,18.77612,708.5353],[-71.05943,18.76643,402.8437],[-71.0531,18.72878,562.4426],[-71.05429,18.71609,435.2044],[-71.06473,18.70255,339.5134],[-71.05809,18.69162,333.0485],[-71.05581,18.67876,302.6867],[-71.0747,18.67028,295.8989],[-71.09106,18.66436,441.584],[-71.11738,18.62713,623.7963],[-71.16131,18.61592,741.2333],[-71.11382,18.57029,689.3623],[-71.05139,18.54972,699.2611],[-71.01987,18.54427,532.8024],[-70.99328,18.52734,270.5008],[-70.99362,18.50962,176.9066],[-71.01476,18.50202,184.8301],[-71.00463,18.48577,204.1618],[-71.00147,18.45389,219.3945],[-71.02165,18.42888,285.8036],[-71.05235,18.40379,732.6807],[-71.04736,18.39229,881.5099],[-71.04271,18.38066,1201.6019],[-71.03323,18.37387,1253.4056],[-71.02075,18.36932,1140.6711],[-70.98848,18.36069,1210.4878],[-70.95938,18.35405,859.4354],[-70.96174,18.33955,1006.8015],[-70.95832,18.31829,757.7629],[-70.9507,18.28607,724.0933],[-70.96561,18.26209,336.4648],[-70.96562,18.26208,276.7736],[-70.95621,18.25873,353.0261],[-70.93248,18.26154,94.0501],[-70.91828,18.2696,122.8251],[-70.89167,18.29971,31.9926],[-70.88671,18.30207,31.7591],[-70.87328,18.3063,3.0995],[-70.87059,18.31025,6.4816],[-70.86937,18.3146,0.0],[-70.86311,18.32697,0.0],[-70.86034,18.33072,0.6596],[-70.85045,18.33959,0.0],[-70.84602,18.34219,3.8051],[-70.83332,18.34064,0.0],[-70.82396,18.34268,7.0483],[-70.81005,18.35204,2.4243],[-70.80232,18.35493,3.0273],[-70.79312,18.35407,1.0335],[-70.77233,18.34789,29.8835],[-70.76065,18.34748,0.0],[-70.74987,18.35041,17.1081],[-70.74169,18.35541,33.3827],[-70.71198,18.38337,184.138],[-70.70946,18.39175,70.5748],[-70.71288,18.41267,8.046],[-70.70385,18.43012,21.6085],[-70.68248,18.43561,16.1273],[-70.65754,18.43378,15.1865],[-70.63781,18.42939,11.8443],[-70.61465,18.42084,0.0],[-70.60143,18.41185,0.0],[-70.57946,18.38565,2.9364],[-70.57388,18.37368,0.0],[-70.57116,18.35517,5.3505],[-70.57177,18.33405,21.3374],[-70.57641,18.31395,0.0],[-70.58165,18.30707,0.0],[-70.58845,18.30362,0.0],[-70.59435,18.29906,0.0],[-70.59679,18.28913,0.0],[-70.59244,18.27985,0.0],[-70.57938,18.27177,100.1875],[-70.57933,18.27178,100.1875],[-70.5237,18.28193,51.2833],[-70.4874,18.32116,103.0363],[-70.48998,18.34958,129.3638],[-70.48218,18.3765,156.7069],[-70.47246,18.39482,178.9687],[-70.47908,18.41322,284.1404],[-70.50109,18.45474,263.04],[-70.52187,18.48874,531.1458],[-70.55414,18.50445,783.5516],[-70.58742,18.52517,500.3138],[-70.61062,18.533,587.9568],[-70.62798,18.54889,670.3297],[-70.63555,18.56375,667.9386],[-70.65033,18.57236,874.6774],[-70.67126,18.62297,1202.6324],[-70.69999,18.67684,1325.3301]]]}}