{"type": "Feature","id": "1373","bbox": [-77.96462,17.85358,-77.56455,18.23444],"geometry": {"type": "Polygon","coordinates": [[[-77.64029,18.22085,350.1805],[-77.7814,18.23444,457.3021],[-77.89589,18.19556,556.0547],[-77.911,18.1884,531.5079],[-77.91441,18.18571,497.908],[-77.91888,18.18145,394.8528],[-77.92986,18.16476,381.9299],[-77.93622,18.15207,436.0241],[-77.9379,18.14587,483.1653],[-77.93823,18.14287,450.3036],[-77.938,18.14008,509.1311],[-77.93661,18.13481,554.4498],[-77.93568,18.13243,552.9062],[-77.93795,18.1176,167.9966],[-77.95764,18.0635,0.0],[-77.96462,18.05058,0.0],[-77.96462,18.05057,0.0],[-77.95629,18.03217,0.0],[-77.94034,18.02652,0.0],[-77.871,18.02595,0.0],[-77.84557,18.01704,0.0],[-77.83934,17.99584,0.0],[-77.84114,17.97061,0.676],[-77.83967,17.94961,0.0],[-77.83406,17.9453,5.2696],[-77.81615,17.9392,3.5733],[-77.81237,17.93285,8.6719],[-77.81029,17.92475,0.0],[-77.79992,17.89912,0.0],[-77.79556,17.89155,0.0],[-77.78673,17.88496,0.0],[-77.75154,17.86831,0.0],[-77.7307,17.8548,0.0],[-77.72387,17.85358,0.0],[-77.58837,17.86099,0.0],[-77.56455,17.8571,0.0],[-77.56456,17.85713,0.0],[-77.56702,17.86162,0.0],[-77.63526,18.13119,61.3643],[-77.64029,18.22085,350.1805]]]}
,"properties": {"ISO3166-1-Alpha-3": "JAM","country": "Jamaica","fill": "#F0F","name": "Saint Elizabeth","area_km2": 1158.2345,"hist_schema_id": "Elevation0-9000","hist_area_km2": {"0": 279.3671,"25": 124.2468,"50": 64.9022,"75": 46.6375,"100": 39.2585,"125": 54.801,"150": 46.0977,"175": 40.1728,"200": 37.148,"225": 36.5037,"250": 34.0205,"275": 30.8553,"300": 28.6783,"325": 31.0185,"350": 32.8292,"375": 29.9671,"400": 23.5372,"425": 22.5316,"450": 19.5301,"475": 17.4148,"500": 18.9685,"525": 17.8001,"550": 17.72,"575": 14.8774,"600": 10.1009,"625": 8.9125,"650": 8.5105,"675": 7.7657,"700": 4.7608,"725": 4.1356,"750": 2.5217,"775": 2.1585,"800": 0.4842}}}