{"type":"Feature","properties":{"GID_1":"JAM.9_1","GID_0":"JAM","country":"Jamaica","province":"SaintElizabeth","VARNAME_1":"NA","NL_NAME_1":"NA","TYPE_1":"Parish","ENGTYPE_1":"Parish","CC_1":"NA","HASC_1":"JM.SE","ISO_1":"JM-11","name":"Saint_Elizabeth.province"},
"geometry":{"type": "MultiPolygon","coordinates": [[[[-77.7832,17.0212,0.0],[-77.7832,17.0229,0.0],[-77.7865,17.0226,0.0],[-77.7851,17.0204,0.0],[-77.7832,17.0212,0.0]]],
[[[-77.7504,17.0501,0.0],[-77.7521,17.0504,0.0],[-77.751,17.0471,0.0],[-77.7501,17.0474,0.0],[-77.7504,17.0501,0.0]]],
[[[-77.6282,18.1446,290.1243],[-77.6318,18.234,439.8167],[-77.772,18.2509,522.8297],[-77.8867,18.2135,321.5875],[-77.9284,18.1748,432.6251],[-77.9392,18.1542,369.7256],[-77.9197,18.136,531.6843],[-77.9524,18.059,9.7309],[-77.9521,18.0537,4.1796],[-77.9457,18.0454,7.4916],[-77.9432,18.0351,0.0],[-77.9382,18.0368,0.0],[-77.9376,18.0335,3.8198],[-77.9321,18.0304,0.0],[-77.9271,18.0315,2.5612],[-77.9221,18.0287,0.0],[-77.9149,18.0301,0.9715],[-77.9104,18.0287,0.0],[-77.9085,18.034,5.7984],[-77.8954,18.0365,2.9746],[-77.8893,18.0349,0.5454],[-77.8871,18.0299,0.0],[-77.8854,18.0299,0.0],[-77.884,18.0338,2.0675],[-77.8812,18.0351,0.0],[-77.8782,18.0343,2.0372],[-77.8768,18.0315,0.0],[-77.8696,18.0299,1.1769],[-77.8685,18.0271,0.0],[-77.8538,18.0257,4.496],[-77.841,18.0176,3.7322],[-77.834,18.0088,2.0016],[-77.8313,18.0001,1.0903],[-77.8337,17.991,0.0],[-77.8399,17.9824,0.0],[-77.8412,17.9751,2.1683],[-77.8388,17.9643,3.6783],[-77.8349,17.9562,2.9779],[-77.8371,17.9476,3.9223],[-77.8396,17.9457,0.0],[-77.8326,17.9418,2.9777],[-77.8285,17.9413,5.0438],[-77.8201,17.9337,0.0],[-77.8096,17.9307,8.995],[-77.8035,17.9257,5.6249],[-77.8004,17.9251,0.0],[-77.7979,17.9185,7.777],[-77.799,17.9088,1.0359],[-77.7929,17.8982,1.8217],[-77.7885,17.8963,5.0649],[-77.7862,17.8926,5.5057],[-77.7801,17.8899,0.0],[-77.7779,17.8868,0.0],[-77.7712,17.8835,0.0],[-77.7663,17.8832,0.0],[-77.7654,17.8793,0.0],[-77.7604,17.8771,6.7227],[-77.761,17.8754,0.2854],[-77.756,17.874,5.4748],[-77.7543,17.8707,0.7533],[-77.7404,17.8657,4.7356],[-77.7393,17.8629,1.8928],[-77.7418,17.8615,3.1812],[-77.7415,17.854,5.0781],[-77.7257,17.8576,0.0],[-77.7204,17.8607,7.5136],[-77.7063,17.861,8.9619],[-77.694,17.8649,9.5137],[-77.6849,17.8618,0.0],[-77.6629,17.8596,2.2641],[-77.6443,17.8654,0.0],[-77.6351,17.8662,35.8532],[-77.6293,17.8646,0.0],[-77.6249,17.8662,15.07],[-77.6185,17.866,51.9578],[-77.6065,17.8629,4.0628],[-77.604,17.8582,0.0],[-77.604,17.8618,0.0],[-77.5999,17.8632,2.4066],[-77.5799,17.8682,2.0489],[-77.567,17.8685,2.0219],[-77.5916,18.0135,210.4577],[-77.6282,18.1446,290.1243]]]]}}