{"type": "Feature","bbox": [-61.5014,10.2459,-61.4306,10.3149],"geometry": {"type": "MultiPolygon","coordinates": [[[[-61.4676,10.311,6.6265],[-61.4621,10.3062,0.0],[-61.4582,10.3062,3.7574],[-61.4559,10.301,1.7369],[-61.4573,10.2971,8.8946],[-61.4604,10.2921,0.0],[-61.462,10.2923,0.0],[-61.4687,10.2863,0.0],[-61.4685,10.2843,0.0],[-61.4715,10.2799,7.0198],[-61.4707,10.2732,3.665],[-61.476,10.2651,5.7728],[-61.4793,10.2629,0.0],[-61.4799,10.2593,1.8681],[-61.4876,10.2534,9.1212],[-61.4904,10.2535,2.7016],[-61.4915,10.2513,11.5993],[-61.5004,10.2482,4.4063],[-61.5014,10.2459,4.0985],[-61.4875,10.2478,24.0398],[-61.4811,10.2532,29.9515],[-61.4741,10.2548,6.8144],[-61.4645,10.2596,21.4218],[-61.457,10.2611,9.7958],[-61.4474,10.2605,15.8501],[-61.4447,10.2654,19.3381],[-61.4404,10.2686,23.8656],[-61.4383,10.2734,29.5108],[-61.4382,10.2821,23.7371],[-61.4306,10.3133,11.9774],[-61.437,10.3149,8.8848],[-61.4407,10.3106,10.4673],[-61.4676,10.311,6.6265]]]]}
,"properties": {"GID_1": "TTO.10_1","GID_0": "TTO","country": "TrinidadandTobago","province": "SanFernando","VARNAME_1": "NA","NL_NAME_1": "NA","TYPE_1": "City","ENGTYPE_1": "City","CC_1": "NA","HASC_1": "TT.SF","ISO_1": "TT-SFO","name": "San_Fernando.province","area_km2": 20.27759,"hist_schema_id": "Elevation0-9000","hist_area_km2": {"0": 8.09418,"25": 10.5562,"50": 1.29342,"75": 0.14603,"100": 0.10431,"125": 0.06259,"150": 0.02086}}}