{"type": "Feature","id": "62","bbox": [-61.48991,10.24801,-61.42785,10.31002],"geometry": {"type": "Polygon","coordinates": [[[-61.44149,10.25906,17.0528],[-61.42785,10.31002,11.0855],[-61.45438,10.30831,4.8039],[-61.45962,10.3097,5.4914],[-61.45836,10.30219,0.0],[-61.46215,10.28221,24.4823],[-61.46984,10.26927,9.7586],[-61.48192,10.25568,18.3811],[-61.48991,10.2493,19.1183],[-61.48888,10.24801,25.1924],[-61.44149,10.25906,17.0528]]]}
,"properties": {"ISO3166-1-Alpha-3": "TTO","country": "Trinidad and Tobago","fill": "#F00","name": "San Fernando","area_km2": 20.71584,"hist_schema_id": "Elevation0-9000","hist_area_km2": {"0": 7.05113,"25": 12.05835,"50": 1.27257,"75": 0.14603,"100": 0.10431,"125": 0.06259,"150": 0.02086}}}