{"type": "Feature","bbox": [-74.3901,18.5618,-74.2552,18.667],"geometry": {"type": "MultiPolygon","coordinates": [[[[-74.3404,18.5641,335.7115],[-74.3381,18.5618,434.3016],[-74.3329,18.5619,431.1125],[-74.3317,18.5695,416.0678],[-74.3271,18.5679,419.1676],[-74.3268,18.5648,406.3562],[-74.3236,18.5631,377.7102],[-74.3211,18.5671,536.3947],[-74.3161,18.5663,545.6899],[-74.3137,18.5744,519.0346],[-74.2978,18.5787,355.7759],[-74.2938,18.576,371.4712],[-74.2884,18.5664,165.6075],[-74.2856,18.5694,196.1723],[-74.2828,18.5767,318.9949],[-74.2792,18.5785,332.9969],[-74.2782,18.5846,617.8599],[-74.2738,18.5901,638.925],[-74.2656,18.5945,622.9449],[-74.2592,18.5936,669.282],[-74.2565,18.6072,235.3538],[-74.2602,18.6098,265.6336],[-74.2609,18.6132,238.7016],[-74.2573,18.6233,279.9371],[-74.2552,18.6369,280.296],[-74.2584,18.642,310.4239],[-74.2591,18.6538,138.7111],[-74.257,18.6573,102.2846],[-74.2575,18.6617,40.9875],[-74.2629,18.667,22.0403],[-74.2646,18.6657,0.0],[-74.2635,18.6644,0.0],[-74.2646,18.6626,13.1841],[-74.269,18.6604,27.7995],[-74.2701,18.6557,30.6152],[-74.2757,18.6551,0.0],[-74.2751,18.6522,33.8345],[-74.279,18.6479,7.5242],[-74.2876,18.6521,0.0],[-74.2882,18.6568,0.0],[-74.2907,18.6599,16.5325],[-74.2971,18.6621,0.0],[-74.3075,18.6593,0.0],[-74.3054,18.6528,42.9738],[-74.3093,18.6495,1.378],[-74.3107,18.6497,25.8956],[-74.3121,18.6535,0.0],[-74.3146,18.6543,0.0],[-74.3296,18.6554,14.3596],[-74.3369,18.6485,24.0939],[-74.3437,18.6512,0.0],[-74.3443,18.6474,4.4694],[-74.3463,18.6474,0.8291],[-74.3469,18.649,0.0],[-74.3496,18.6482,2.3291],[-74.3528,18.6429,17.6574],[-74.3603,18.6393,16.3607],[-74.3636,18.6404,19.0911],[-74.3674,18.636,17.0901],[-74.3698,18.6371,0.0],[-74.3763,18.6358,25.5929],[-74.3828,18.6401,21.935],[-74.3832,18.6424,0.0],[-74.3854,18.6437,1.5797],[-74.3899,18.6415,0.9647],[-74.3901,18.6389,1.4456],[-74.3847,18.6338,28.7008],[-74.382,18.6275,21.2497],[-74.3742,18.6243,33.0896],[-74.3692,18.6201,47.2484],[-74.3709,18.6165,109.5396],[-74.3769,18.6156,52.0642],[-74.3777,18.61,67.0519],[-74.3815,18.6048,67.5237],[-74.3786,18.5976,77.2411],[-74.3722,18.5898,124.8102],[-74.3631,18.5888,158.0598],[-74.3584,18.5841,302.4273],[-74.3522,18.5825,366.2376],[-74.3498,18.5758,497.5327],[-74.3467,18.5727,470.1622],[-74.3379,18.5736,293.3897],[-74.3358,18.572,324.3854],[-74.3404,18.5641,335.7115]]]]}
,"properties": {"GID_3": "HTI.2.3.1_1","GID_0": "HTI","country": "Haiti","GID_1": "HTI.2_1","province": "Grand'Anse","NL_NAME_1": "NA","GID_2": "HTI.2.3_1","county": "Jérémie","NL_NAME_2": "NA","city": "Abricots","VARNAME_3": "NA","NL_NAME_3": "NA","TYPE_3": "Commune","ENGTYPE_3": "Commune","CC_3": "NA","HASC_3": "NA","name": "Abricots.city","area_km2": 102.8962,"hist_schema_id": "Elevation0-9000","hist_area_km2": {"0": 2.39069,"25": 5.60527,"50": 8.63925,"75": 9.92558,"100": 10.93018,"125": 10.97038,"150": 9.60421,"175": 6.67061,"200": 5.98741,"225": 4.52084,"250": 3.25511,"275": 2.39118,"300": 2.7531,"325": 2.69286,"350": 2.43166,"375": 2.04985,"400": 2.13023,"425": 1.94934,"450": 1.80868,"475": 1.82878,"500": 1.12541,"525": 0.98473,"550": 0.96466,"575": 0.5627,"600": 0.32154,"625": 0.34163,"650": 0.06029}}}