{"type":"Feature","properties":{"GID_2":"CUB.1.10_1","GID_0":"CUB","country":"Cuba","GID_1":"CUB.1_1","province":"Camagüey","NL_NAME_1":"NA","county":"SantaCruzdelSur","VARNAME_2":"NA","NL_NAME_2":"NA","TYPE_2":"Municipio","ENGTYPE_2":"Municipality","CC_2":"NA","HASC_2":"CU.CM.SS","name":"Santa_Cruzdel_Sur.county"},
"geometry":{"type": "MultiPolygon","coordinates": [[[[-77.8557,20.354,0.0],[-77.8551,20.3551,0.0],[-77.8576,20.3535,0.0],[-77.8562,20.3526,0.0],[-77.8557,20.354,0.0]]],
[[[-77.8474,20.3582,0.0],[-77.8468,20.3587,0.0],[-77.8468,20.3604,0.0],[-77.8485,20.3576,1.8073],[-77.8474,20.3582,0.0]]],
[[[-77.9307,20.4129,0.0],[-77.9287,20.4129,1.9182],[-77.9279,20.4146,0.8656],[-77.9299,20.4143,0.0],[-77.9307,20.4129,0.0]]],
[[[-77.9465,20.421,1.4351],[-77.946,20.4226,0.8496],[-77.9474,20.4232,0.3586],[-77.9485,20.4204,0.0],[-77.9465,20.421,1.4351]]],
[[[-77.9824,20.419,3.4019],[-77.9818,20.421,1.5167],[-77.9857,20.421,0.0],[-77.9851,20.4193,2.2929],[-77.9824,20.419,3.4019]]],
[[[-77.9571,20.4196,0.6681],[-77.956,20.4199,0.6709],[-77.956,20.4212,0.8632],[-77.9582,20.419,0.6681],[-77.9571,20.4196,0.6681]]],
[[[-77.9665,20.4593,0.8042],[-77.9699,20.4604,1.7355],[-77.9724,20.4585,0.9186],[-77.966,20.4588,0.8042],[-77.9601,20.4568,0.0],[-77.9576,20.4588,0.3437],[-77.9582,20.4599,0.3437],[-77.9624,20.4582,1.5879],[-77.9629,20.4599,0.6125],[-77.9665,20.4593,0.8042]]],
[[[-77.9776,20.4646,0.7311],[-77.9762,20.4651,0.0],[-77.9765,20.466,0.0],[-77.979,20.4649,0.7311],[-77.9776,20.4646,0.7311]]],
[[[-77.9435,20.4232,0.0],[-77.944,20.4254,0.0],[-77.9457,20.4246,2.06],[-77.9451,20.4229,0.8496],[-77.9435,20.4232,0.0]]],
[[[-77.9535,20.481,0.0],[-77.9574,20.4815,0.0],[-77.9557,20.4774,0.5243],[-77.9535,20.4782,0.0],[-77.9535,20.481,0.0]]],
[[[-77.8407,20.5018,0.0],[-77.8407,20.5032,0.0],[-77.8426,20.504,0.0],[-77.8424,20.5018,0.0],[-77.8407,20.5018,0.0]]],
[[[-77.8476,20.5118,0.0],[-77.8468,20.5137,0.0],[-77.8485,20.5149,0.3269],[-77.849,20.5126,1.3027],[-77.8476,20.5118,0.0]]],
[[[-78.0054,20.479,0.0],[-78.0068,20.4813,0.0],[-78.0104,20.4774,0.0],[-77.9979,20.4732,0.0],[-77.999,20.4779,0.0],[-77.9979,20.4796,0.4425],[-77.9996,20.4799,0.4425],[-78.0001,20.4771,0.3906],[-78.0015,20.4799,0.0],[-78.0035,20.4776,0.4049],[-78.0054,20.479,0.0]]],
[[[-78.0199,20.4807,0.0],[-78.0193,20.4818,0.0],[-78.0224,20.481,0.5459],[-78.0215,20.4799,0.0],[-78.0199,20.4807,0.0]]],
[[[-77.9915,20.4874,0.4522],[-77.9921,20.4887,1.3187],[-77.9971,20.4885,1.0436],[-77.9979,20.4851,0.0],[-77.9954,20.4871,0.6252],[-77.9915,20.4874,0.4522]]],
[[[-78.0224,20.4887,0.0],[-78.0282,20.4896,0.3892],[-78.0249,20.4863,0.0],[-78.0229,20.4865,0.0],[-78.0224,20.4887,0.0]]],
[[[-77.849,20.516,0.0],[-77.8496,20.5196,0.0],[-77.8504,20.5168,0.0],[-77.8496,20.5151,0.0],[-77.849,20.516,0.0]]],
[[[-77.8388,20.5246,0.0],[-77.8454,20.5254,1.8572],[-77.8485,20.5213,0.4923],[-77.8424,20.5207,1.4718],[-77.8388,20.5246,0.0]]],
[[[-77.8115,20.5649,0.3769],[-77.8135,20.566,0.0],[-77.8199,20.5649,0.4955],[-77.8249,20.5621,0.0],[-77.821,20.5613,1.0913],[-77.8182,20.5582,0.8846],[-77.8146,20.5626,0.6941],[-77.811,20.5626,1.0908],[-77.8112,20.5588,0.4221],[-77.816,20.5574,0.0],[-77.8093,20.5571,1.8875],[-77.8085,20.561,1.0257],[-77.8115,20.5649,0.3769]]],
[[[-77.8887,20.5771,0.6995],[-77.8921,20.5785,1.5111],[-77.8982,20.5776,0.4627],[-77.906,20.5715,0.5834],[-77.9026,20.5713,0.0],[-77.894,20.5751,0.0],[-77.889,20.5693,0.4152],[-77.8868,20.5699,0.5858],[-77.8865,20.559,0.9214],[-77.8938,20.5526,0.6138],[-77.8863,20.5568,0.0],[-77.8821,20.5626,0.481],[-77.8726,20.5687,0.0],[-77.8732,20.5721,0.0],[-77.8887,20.5771,0.6995]]],
[[[-78.0151,20.6099,0.3204],[-78.0174,20.611,0.3175],[-78.0204,20.6085,0.0],[-78.0151,20.609,0.3204],[-78.0093,20.606,0.2586],[-78.011,20.6087,1.2154],[-78.0151,20.6099,0.3204]]],
[[[-78.0054,20.6087,0.0],[-78.0051,20.6104,0.0],[-78.0088,20.6082,0.0],[-78.0062,20.6076,0.2754],[-78.0054,20.6087,0.0]]],
[[[-78.0007,20.6101,0.594],[-78.001,20.6129,1.3173],[-78.004,20.6113,0.2778],[-78.0026,20.609,1.1941],[-78.0007,20.6101,0.594]]],
[[[-78.0007,20.6179,0.0],[-78.0018,20.6193,0.0],[-78.0015,20.6165,0.0],[-78.0001,20.6168,0.0],[-78.0007,20.6179,0.0]]],
[[[-77.8313,20.6074,0.0],[-77.8326,20.6093,0.0],[-77.834,20.6093,0.0],[-77.8329,20.6063,0.4913],[-77.8313,20.6074,0.0]]],
[[[-77.9179,20.6257,0.0],[-77.9193,20.6271,0.0],[-77.926,20.6268,0.4728],[-77.9285,20.6221,0.0],[-77.9229,20.6185,0.0],[-77.9174,20.6224,0.0],[-77.9179,20.6257,0.0]]],
[[[-77.9101,20.6332,0.9242],[-77.9137,20.6343,0.0],[-77.9115,20.6304,0.0],[-77.909,20.6301,0.0],[-77.9079,20.6321,0.0],[-77.9101,20.6332,0.9242]]],
[[[-77.8471,20.6324,0.0],[-77.8485,20.634,0.0],[-77.8501,20.6343,0.0],[-77.849,20.6312,0.0],[-77.8471,20.6324,0.0]]],
[[[-78.0113,20.6215,0.0],[-78.0107,20.6229,0.4602],[-78.014,20.6221,0.0],[-78.0137,20.6215,0.0],[-78.0113,20.6215,0.0]]],
[[[-77.9935,20.6246,0.4886],[-77.994,20.6262,1.8901],[-77.9974,20.626,1.6572],[-77.9965,20.624,2.8365],[-77.9949,20.6249,0.7983],[-77.9943,20.6232,0.0],[-77.9918,20.6235,0.7045],[-77.9935,20.6246,0.4886]]],
[[[-78.0099,20.6282,0.0],[-78.0126,20.6301,0.7448],[-78.0168,20.6282,0.0],[-78.0168,20.6254,0.0],[-78.0137,20.6243,0.0],[-78.0101,20.6262,0.5036],[-78.0099,20.6282,0.0]]],
[[[-78.0082,20.6382,1.6227],[-78.0096,20.6421,0.0],[-78.0124,20.636,0.0],[-78.011,20.636,0.5931],[-78.0082,20.6382,1.6227]]],
[[[-78.0085,20.5974,0.5962],[-78.0107,20.5987,0.0],[-78.0107,20.5962,0.0],[-78.0074,20.5943,0.0],[-78.0065,20.596,0.0],[-78.0085,20.5974,0.5962]]],
[[[-78.0126,20.5987,0.5096],[-78.016,20.5993,0.5588],[-78.0132,20.5968,0.0],[-78.0118,20.5974,0.0],[-78.0126,20.5987,0.5096]]],
[[[-78.0046,20.6007,0.0],[-78.0085,20.601,0.0],[-78.0065,20.5965,0.0],[-78.0062,20.5987,0.4237],[-78.0043,20.5993,0.533],[-78.0046,20.6007,0.0]]],
[[[-78.0154,20.6068,0.0],[-78.0182,20.6074,0.0],[-78.0185,20.6063,0.0],[-78.016,20.6057,0.0],[-78.0154,20.6068,0.0]]],
[[[-78.1154,20.5757,0.0],[-78.1146,20.5785,0.0],[-78.116,20.5788,0.0],[-78.1168,20.5776,0.4804],[-78.1154,20.5757,0.0]]],
[[[-78.0971,20.621,0.6938],[-78.0971,20.6229,1.1269],[-78.0987,20.6235,0.0],[-78.0982,20.6201,0.0],[-78.0971,20.621,0.6938]]],
[[[-78.0912,20.6401,0.3351],[-78.0946,20.6407,0.0],[-78.0918,20.6388,0.3351],[-78.0929,20.6351,0.0],[-78.0915,20.636,0.0],[-78.0915,20.6346,0.0],[-78.0935,20.6326,0.0],[-78.0921,20.631,0.0],[-78.0935,20.6312,0.4056],[-78.0935,20.629,0.2148],[-78.0963,20.6274,0.3285],[-78.0987,20.629,0.0],[-78.0985,20.6249,0.0],[-78.0932,20.6246,0.863],[-78.096,20.6171,0.0],[-78.099,20.6157,0.0],[-78.0971,20.6132,0.5533],[-78.1021,20.6107,0.0],[-78.1062,20.614,0.0],[-78.1082,20.6132,0.0],[-78.104,20.6096,0.6564],[-78.1035,20.6071,0.0],[-78.0976,20.6082,0.0],[-78.0946,20.6174,0.0],[-78.0851,20.6307,0.0],[-78.086,20.6396,0.0],[-78.0899,20.6374,0.0],[-78.0912,20.6401,0.3351]]],
[[[-78.0932,20.6426,0.4135],[-78.0924,20.644,0.0],[-78.0963,20.6432,0.7752],[-78.0954,20.6415,0.0],[-78.0932,20.6426,0.4135]]],
[[[-78.0201,20.619,0.1908],[-78.0224,20.6204,0.815],[-78.0249,20.6193,0.0],[-78.0251,20.6174,0.0],[-78.0207,20.6157,0.7496],[-78.019,20.6171,1.0984],[-78.0201,20.619,0.1908]]],
[[[-78.014,20.6201,0.2578],[-78.0151,20.6215,0.0],[-78.0174,20.6212,0.0],[-78.0146,20.6182,0.0],[-78.014,20.6201,0.2578]]],
[[[-78.0176,20.6204,0.5868],[-78.0193,20.6215,0.7219],[-78.0201,20.6212,0.7219],[-78.019,20.6188,0.1908],[-78.0176,20.6204,0.5868]]],
[[[-77.9993,20.6229,0.0],[-78.0029,20.6238,0.0],[-78.0051,20.6212,0.6174],[-78.0079,20.6224,0.0],[-78.0088,20.621,0.0],[-78.0038,20.6193,0.0],[-78.0032,20.6212,0.2018],[-78.0004,20.6201,0.0],[-77.9993,20.6229,0.0]]],
[[[-78.0924,20.6729,0.6768],[-78.094,20.6738,0.0],[-78.0888,20.6657,0.0],[-78.0896,20.6649,0.6637],[-78.0901,20.6665,0.0],[-78.0932,20.6682,0.0],[-78.091,20.6663,0.6132],[-78.0912,20.6621,0.0],[-78.0918,20.6654,0.1871],[-78.0957,20.6699,0.0],[-78.096,20.6676,0.0],[-78.0926,20.664,0.6217],[-78.0949,20.6624,0.0],[-78.094,20.6579,0.2401],[-78.0971,20.6588,0.0],[-78.0943,20.6557,0.0],[-78.0971,20.6563,0.0],[-78.0982,20.6529,1.2762],[-78.0999,20.654,0.0],[-78.0987,20.6585,1.1379],[-78.101,20.6596,1.0933],[-78.1021,20.6638,0.0],[-78.099,20.669,0.506],[-78.1018,20.6688,0.0],[-78.1032,20.6646,0.0],[-78.1021,20.6529,1.1742],[-78.1004,20.6504,0.0],[-78.0982,20.651,0.6718],[-78.0968,20.649,0.0],[-78.0971,20.6451,0.0],[-78.0946,20.6463,0.9407],[-78.0929,20.6507,0.6641],[-78.0935,20.6574,0.2401],[-78.0876,20.6654,0.4283],[-78.0888,20.6696,1.1112],[-78.0924,20.6729,0.6768]]],
[[[-78.0918,20.684,0.0],[-78.0965,20.684,0.0],[-78.0982,20.6796,1.1583],[-78.1024,20.6807,0.0],[-78.1032,20.6787,1.6701],[-78.1076,20.679,0.0],[-78.1079,20.6779,0.0],[-78.0996,20.6718,0.0],[-78.0968,20.6679,0.0],[-78.0979,20.6738,1.2467],[-78.0951,20.6754,0.0],[-78.0963,20.679,2.2742],[-78.0907,20.6801,0.0],[-78.0893,20.6818,0.2067],[-78.0918,20.684,0.0]]],
[[[-78.0885,20.6971,0.0],[-78.0896,20.6985,0.0],[-78.0929,20.6918,0.0],[-78.0912,20.6865,0.0],[-78.0888,20.6874,0.0],[-78.091,20.6904,0.0],[-78.0885,20.6971,0.0]]],
[[[-78.0849,20.7012,0.1083],[-78.0865,20.7024,0.0],[-78.0874,20.7021,0.0],[-78.0843,20.699,0.1339],[-78.0849,20.7012,0.1083]]],
[[[-77.9229,20.6393,0.3199],[-77.9265,20.6399,1.3261],[-77.9238,20.6312,0.231],[-77.9215,20.6338,0.0],[-77.9229,20.6393,0.3199]]],
[[[-77.8574,20.6415,0.0],[-77.8607,20.6426,0.3362],[-77.8601,20.6376,0.0],[-77.8585,20.6363,0.53],[-77.8568,20.6385,0.0],[-77.8574,20.6415,0.0]]],
[[[-77.9032,20.6421,2.4481],[-77.9032,20.6449,2.0973],[-77.9049,20.6454,2.0973],[-77.9132,20.644,0.735],[-77.9104,20.6401,0.0],[-77.9032,20.6421,2.4481]]],
[[[-77.8649,20.654,0.3109],[-77.8657,20.6554,0.3109],[-77.8674,20.6549,1.4853],[-77.866,20.653199999999998,0.0],[-77.8649,20.654,0.3109]]],
[[[-77.8276,20.6607,0.4897],[-77.8293,20.6621,0.0],[-77.8293,20.6604,0.9881],[-77.8374,20.6579,0.1939],[-77.8307,20.654,0.4648],[-77.8271,20.6574,0.6316],[-77.8276,20.6607,0.4897]]],
[[[-77.871,20.6593,0.3645],[-77.8704,20.6607,0.2485],[-77.8729,20.6618,0.0],[-77.8729,20.6604,0.0],[-77.871,20.6593,0.3645]]],
[[[-77.9215,20.6626,0.3303],[-77.921,20.6651,0.3384],[-77.9262,20.6593,0.0],[-77.9246,20.659,1.4671],[-77.9215,20.6626,0.3303]]],
[[[-77.8368,20.6629,0.0],[-77.8388,20.664,0.0],[-77.8396,20.6626,0.4607],[-77.8368,20.6607,0.0],[-77.8368,20.6629,0.0]]],
[[[-77.7771,20.6632,0.0],[-77.7768,20.6643,0.0],[-77.7804,20.6654,0.0],[-77.7807,20.6635,0.0],[-77.7785,20.6621,0.5723],[-77.7771,20.6632,0.0]]],
[[[-77.8199,20.6649,0.2072],[-77.8185,20.6643,0.1331],[-77.819,20.6676,0.2266],[-77.8201,20.6676,0.2266],[-77.8199,20.6649,0.2072]]],
[[[-77.8818,20.671,1.8077],[-77.8801,20.6701,0.0],[-77.8765,20.6738,0.0],[-77.879,20.6735,1.0759],[-77.8818,20.671,1.8077]]],
[[[-77.774,20.6735,0.0],[-77.7776,20.6751,0.0],[-77.7768,20.6707,0.2162],[-77.7726,20.6707,1.1489],[-77.7721,20.6721,0.0],[-77.774,20.6735,0.0]]],
[[[-77.8551,20.676,0.0],[-77.8576,20.6771,0.0],[-77.8571,20.6749,1.1392],[-77.8546,20.674,0.6981],[-77.8551,20.676,0.0]]],
[[[-77.801,20.6776,0.5734],[-77.8029,20.6787,1.8641],[-77.8043,20.6782,0.1715],[-77.8021,20.6765,0.1859],[-77.801,20.6776,0.5734]]],
[[[-78.2487,20.7143,0.0],[-78.2501,20.715699999999998,0.0],[-78.251,20.7107,0.0],[-78.254,20.7118,0.4362],[-78.2532,20.7151,1.1975],[-78.2568,20.7143,0.2667],[-78.2549,20.7115,0.4362],[-78.2568,20.7079,0.6889],[-78.256,20.7057,0.3016],[-78.249,20.7074,0.515],[-78.2474,20.7101,0.0],[-78.2487,20.7143,0.0]]],
[[[-78.2496,20.7363,0.4914],[-78.2515,20.7385,0.5506],[-78.2529,20.7351,0.0],[-78.2499,20.7343,0.5315],[-78.2496,20.7363,0.4914]]],
[[[-78.2782,20.7476,0.0],[-78.2807,20.7488,0.0],[-78.2751,20.7412,0.0],[-78.2749,20.7421,0.0],[-78.2782,20.7476,0.0]]],
[[[-78.2524,20.7543,0.0],[-78.2601,20.7554,0.6215],[-78.2615,20.7538,0.0],[-78.2593,20.754,0.6215],[-78.2596,20.7521,0.7314],[-78.2582,20.7515,0.0],[-78.2582,20.7546,0.5901],[-78.2568,20.7526,0.3689],[-78.254,20.7538,0.8197],[-78.2551,20.751,0.0],[-78.2535,20.751,0.0],[-78.2524,20.7471,0.9174],[-78.2504,20.7474,1.1354],[-78.251,20.7415,0.3072],[-78.2485,20.7387,0.6329],[-78.2487,20.736,0.8761],[-78.2438,20.7357,0.0],[-78.2468,20.7465,1.0826],[-78.2524,20.7543,0.0]]],
[[[-78.3299,20.754,0.0],[-78.3321,20.7554,0.0],[-78.3318,20.7532,0.0],[-78.3343,20.7526,0.0],[-78.3346,20.751,0.0],[-78.3299,20.7507,0.6701],[-78.3299,20.754,0.0]]],
[[[-78.2999,20.756,0.304],[-78.299,20.7582,0.4777],[-78.3004,20.7585,0.0],[-78.3018,20.7501,0.0],[-78.2993,20.7512,0.0],[-78.2999,20.756,0.304]]],
[[[-78.3346,20.7579,0.0],[-78.3363,20.7594,0.0],[-78.3349,20.7551,0.0],[-78.3343,20.7554,0.0],[-78.3346,20.7579,0.0]]],
[[[-78.3149,20.7585,0.0],[-78.3149,20.761,0.4011],[-78.3174,20.7604,0.0],[-78.3157,20.7574,0.0],[-78.3149,20.7585,0.0]]],
[[[-78.2715,20.7501,1.3215],[-78.2749,20.7515,0.3384],[-78.2757,20.7468,0.0],[-78.2704,20.7457,0.0],[-78.2715,20.7501,1.3215]]],
[[[-78.2599,20.7507,0.0],[-78.261,20.7526,0.7314],[-78.2629,20.7526,0.2451],[-78.2643,20.7499,0.0],[-78.2657,20.7518,0.6733],[-78.2674,20.7515,0.0],[-78.2649,20.7488,0.0],[-78.2615,20.7512,0.3878],[-78.259,20.7479,0.0],[-78.2599,20.7507,0.0]]],
[[[-78.2754,20.7557,0.0],[-78.2785,20.7565,0.5019],[-78.2765,20.7538,0.5538],[-78.2749,20.7543,0.0],[-78.2754,20.7557,0.0]]],
[[[-78.2582,20.7696,0.4261],[-78.2601,20.7707,0.0],[-78.259,20.7679,0.9697],[-78.2551,20.7665,0.0],[-78.2546,20.7646,1.2061],[-78.2571,20.7654,0.0],[-78.2543,20.7632,0.5517],[-78.2579,20.7576,0.7016],[-78.2529,20.7565,0.0],[-78.2515,20.7576,0.6812],[-78.2501,20.7524,0.4394],[-78.2482,20.7532,0.4407],[-78.244,20.7457,0.0],[-78.2438,20.7507,0.0],[-78.2465,20.7532,0.8566],[-78.2487,20.7593,0.0],[-78.2504,20.7593,0.2297],[-78.2493,20.761,0.2014],[-78.2582,20.7696,0.4261]]],
[[[-78.299,20.7607,0.0],[-78.2965,20.7604,0.0],[-78.2962,20.7629,0.4623],[-78.2988,20.7624,0.0],[-78.299,20.7607,0.0]]],
[[[-78.2976,20.7638,1.0641],[-78.2971,20.7649,1.0641],[-78.2993,20.7657,0.0],[-78.2993,20.7635,0.0],[-78.2976,20.7638,1.0641]]],
[[[-78.2979,20.7687,0.0],[-78.2968,20.7718,2.8985],[-78.299,20.7729,0.0],[-78.2996,20.7701,0.0],[-78.2979,20.7687,0.0]]],
[[[-78.3043,20.7746,0.0],[-78.3065,20.7757,0.0],[-78.3049,20.7729,0.9892],[-78.3054,20.769,1.0422],[-78.3032,20.7674,0.0],[-78.3024,20.7726,1.3335],[-78.3043,20.7746,0.0]]],
[[[-78.1243,20.7121,0.0],[-78.1299,20.7129,0.0],[-78.1315,20.7096,0.7073],[-78.1282,20.7093,0.4834],[-78.1285,20.7071,0.0],[-78.1301,20.7068,0.0],[-78.1293,20.7051,0.0],[-78.1232,20.7043,0.27],[-78.1215,20.7054,0.27],[-78.1212,20.7096,1.0374],[-78.1243,20.7121,0.0]]],
[[[-78.0813,20.7149,1.6192],[-78.0862,20.716,0.6259],[-78.0849,20.7126,0.0],[-78.086,20.7107,0.9806],[-78.0849,20.7079,0.0],[-78.0835,20.7079,0.4344],[-78.084,20.7043,0.0],[-78.0807,20.7049,0.0],[-78.0813,20.709,0.2532],[-78.0796,20.7135,0.0],[-78.0813,20.7149,1.6192]]],
[[[-78.1349,20.716,0.0],[-78.1351,20.719,0.0],[-78.1354,20.7138,0.0],[-78.1371,20.7126,0.0],[-78.1349,20.7124,0.1629],[-78.136,20.7079,0.0],[-78.134,20.7054,0.0],[-78.1326,20.7065,0.3384],[-78.1338,20.7126,0.1629],[-78.1324,20.7146,0.0997],[-78.1349,20.716,0.0]]],
[[[-78.1482,20.7132,0.8843],[-78.1507,20.715699999999998,1.0765],[-78.151,20.7174,0.0],[-78.156,20.7174,0.0],[-78.156,20.7138,0.0],[-78.1576,20.7135,0.0],[-78.1554,20.711,0.0],[-78.1529,20.7118,0.0],[-78.1504,20.7082,0.0],[-78.1501,20.7115,1.0462],[-78.1485,20.711,0.0],[-78.1482,20.7132,0.8843]]],
[[[-78.144,20.7124,0.3964],[-78.1432,20.7138,0.0],[-78.1435,20.7151,0.0],[-78.1462,20.7129,0.0],[-78.144,20.7124,0.3964]]],
[[[-78.1382,20.7174,0.0],[-78.1376,20.7196,0.0],[-78.1396,20.7201,0.0],[-78.1393,20.7176,0.0],[-78.1424,20.7124,0.0],[-78.1387,20.7115,0.0],[-78.1396,20.714,0.0],[-78.1382,20.7174,0.0]]],
[[[-78.1496,20.7179,0.4831],[-78.1493,20.7146,0.446],[-78.1454,20.7165,0.0],[-78.151,20.7251,0.0],[-78.1543,20.7201,0.0],[-78.1496,20.7179,0.4831]]],
[[[-78.1421,20.7201,0.0],[-78.1421,20.7226,0.0],[-78.1449,20.7218,0.0],[-78.1446,20.7201,0.0],[-78.1421,20.7201,0.0]]],
[[[-78.166,20.7229,0.0],[-78.1657,20.7251,2.2837],[-78.1671,20.7263,0.0],[-78.1679,20.7246,0.0],[-78.166,20.7229,0.0]]],
[[[-78.1874,20.784,0.0],[-78.1885,20.7857,0.0],[-78.1896,20.7854,0.0],[-78.1876,20.7829,0.0],[-78.1874,20.784,0.0]]],
[[[-78.1801,20.7921,0.0],[-78.1815,20.7935,1.307],[-78.1813,20.7896,0.766],[-78.1849,20.7885,0.0],[-78.1832,20.7846,0.0],[-78.1807,20.784,0.8743],[-78.1815,20.7812,0.7607],[-78.1765,20.7779,0.9996],[-78.1738,20.7796,0.0],[-78.174,20.7821,0.0],[-78.1751,20.7829,0.0],[-78.1774,20.7807,1.419],[-78.1785,20.7854,0.4332],[-78.1757,20.7885,0.649],[-78.1801,20.7921,0.0]]],
[[[-78.1718,20.7876,0.0],[-78.1721,20.7885,0.0],[-78.1732,20.7893,0.0],[-78.1715,20.7862,0.0],[-78.1718,20.7876,0.0]]],
[[[-78.2418,20.7713,0.7502],[-78.2454,20.7721,0.3576],[-78.2454,20.7696,0.0],[-78.2424,20.7701,1.1595],[-78.2479,20.7638,0.0],[-78.2443,20.7643,0.0],[-78.2438,20.7663,0.3914],[-78.2393,20.7679,0.3413],[-78.2393,20.7654,0.6438],[-78.2415,20.7654,1.1062],[-78.2432,20.7618,0.5814],[-78.2435,20.7574,0.3357],[-78.2401,20.7532,0.0],[-78.2379,20.7549,0.8262],[-78.2343,20.7538,1.6641],[-78.2329,20.7501,0.0],[-78.2274,20.7582,1.0865],[-78.2299,20.7626,0.0],[-78.2288,20.7665,0.8134],[-78.2318,20.769,0.0],[-78.2351,20.7674,0.0],[-78.2351,20.7719,0.503],[-78.2418,20.7713,0.7502]]],
[[[-78.2224,20.7624,0.3784],[-78.2251,20.7657,0.0],[-78.2254,20.7604,0.0],[-78.2237,20.7596,0.0],[-78.2224,20.7624,0.3784]]],
[[[-78.1871,20.7765,0.8913],[-78.1882,20.7787,0.3286],[-78.1904,20.7787,2.5089],[-78.1971,20.7704,1.0117],[-78.2004,20.7713,0.0],[-78.2054,20.7685,1.6554],[-78.2076,20.7687,1.096],[-78.2079,20.7713,0.0],[-78.2096,20.7718,0.0],[-78.2101,20.7671,0.0],[-78.2171,20.7635,1.2838],[-78.2171,20.7529,0.631],[-78.2132,20.7518,0.0],[-78.2099,20.7579,2.0968],[-78.2063,20.7585,0.0],[-78.2012,20.7515,0.0],[-78.2015,20.7607,1.5219],[-78.1868,20.7724,0.0],[-78.1871,20.7765,0.8913]]],
[[[-78.2193,20.7646,0.0],[-78.2199,20.7665,0.3484],[-78.2221,20.7665,0.0],[-78.2221,20.7646,0.0],[-78.2193,20.7646,0.0]]],
[[[-78.2254,20.7701,0.0],[-78.2251,20.7721,0.0],[-78.2268,20.7721,0.0],[-78.2268,20.7676,0.0],[-78.2246,20.7682,0.0],[-78.2243,20.7701,0.0],[-78.2254,20.7701,0.0]]],
[[[-78.2787,20.776,0.0],[-78.2801,20.7771,0.0],[-78.2787,20.7721,1.4932],[-78.2821,20.7707,0.0],[-78.2796,20.769,0.5876],[-78.2793,20.7663,0.0],[-78.2765,20.7671,0.1623],[-78.2763,20.7685,0.1623],[-78.2782,20.7693,0.5876],[-78.2779,20.771,1.0963],[-78.276,20.7713,0.4426],[-78.2787,20.776,0.0]]],
[[[-78.2726,20.774,0.4853],[-78.2737,20.776,0.0],[-78.2754,20.7751,0.5475],[-78.2732,20.7715,0.0],[-78.2726,20.774,0.4853]]],
[[[-78.2454,20.7774,0.8488],[-78.2493,20.7782,0.0],[-78.2476,20.7757,0.5061],[-78.2487,20.7718,0.2522],[-78.2462,20.7735,0.3576],[-78.2385,20.7738,0.6404],[-78.2426,20.776,0.3419],[-78.244,20.7751,1.1772],[-78.2454,20.7774,0.8488]]],
[[[-78.2576,20.7746,0.0],[-78.2565,20.7746,0.0],[-78.2571,20.7771,0.0],[-78.2585,20.776,0.235],[-78.2576,20.7746,0.0]]],
[[[-78.249,20.7763,0.7751],[-78.2507,20.7776,0.0],[-78.2526,20.7771,0.8407],[-78.2504,20.7746,0.5466],[-78.249,20.7763,0.7751]]],
[[[-78.254,20.776,1.3823],[-78.2546,20.7801,0.0],[-78.2557,20.776,0.0],[-78.2535,20.774,0.4822],[-78.254,20.776,1.3823]]],
[[[-78.2737,20.7796,0.5091],[-78.2754,20.781,0.0],[-78.2765,20.7787,0.0],[-78.2735,20.7787,0.0],[-78.2737,20.7796,0.5091]]],
[[[-78.2971,20.7807,0.7352],[-78.2999,20.7824,0.0],[-78.2996,20.7793,0.2631],[-78.3018,20.7779,0.4325],[-78.2979,20.7738,0.5733],[-78.2962,20.7768,1.1374],[-78.2971,20.7807,0.7352]]],
[[[-78.306,20.7849,0.0],[-78.3076,20.786,0.0],[-78.3054,20.7818,0.0],[-78.3051,20.7835,0.0],[-78.306,20.7849,0.0]]],
[[[-78.2979,20.7857,0.2745],[-78.3018,20.7871,0.0],[-78.3007,20.784,0.3583],[-78.2965,20.7829,0.0],[-78.2979,20.7857,0.2745]]],
[[[-78.2807,20.7929,0.0],[-78.2815,20.7918,1.5521],[-78.2821,20.7935,0.0],[-78.2835,20.7932,0.0],[-78.2824,20.7904,0.0],[-78.2765,20.7893,0.0],[-78.2774,20.7918,0.0],[-78.2807,20.7929,0.0]]],
[[[-78.2271,20.8032,2.1105],[-78.229,20.804,0.0],[-78.229,20.8018,1.1762],[-78.2312,20.8018,1.0442],[-78.231,20.8035,0.0],[-78.2357,20.8029,0.0],[-78.234,20.801,0.7854],[-78.2304,20.8004,0.5289],[-78.2299,20.7988,1.277],[-78.2326,20.8001,0.3406],[-78.234,20.7965,1.3015],[-78.2332,20.7946,0.5726],[-78.236,20.7951,0.805],[-78.2385,20.7921,0.3514],[-78.2404,20.7938,0.0],[-78.2435,20.7907,1.2315],[-78.246,20.7918,1.5755],[-78.2482,20.7888,0.3586],[-78.2471,20.7851,0.0],[-78.2457,20.7846,0.5169],[-78.2454,20.7868,1.2213],[-78.2426,20.7871,1.3746],[-78.2415,20.7893,1.6695],[-78.239,20.786,0.6699],[-78.2385,20.7818,0.0],[-78.2365,20.7832,1.7633],[-78.234,20.7824,0.0],[-78.2326,20.7851,1.0299],[-78.2304,20.7845,1.0777],[-78.2312,20.7868,0.9248],[-78.2293,20.7874,1.4669],[-78.2293,20.7913,1.3368],[-78.2251,20.7907,0.0],[-78.2271,20.8032,2.1105]]],
[[[-78.2462,20.8021,0.0],[-78.2507,20.8026,1.043],[-78.251,20.8004,0.0],[-78.2487,20.8007,1.228],[-78.2471,20.7976,0.4818],[-78.2457,20.7988,0.519],[-78.2462,20.8021,0.0]]],
[[[-78.2382,20.8021,0.0],[-78.2424,20.8032,0.6018],[-78.2429,20.8013,0.0],[-78.2376,20.799,0.5135],[-78.2382,20.8021,0.0]]],
[[[-78.2615,20.8037,1.9266],[-78.2643,20.8051,0.0],[-78.2637,20.8029,1.3558],[-78.266,20.8018,0.0],[-78.2624,20.8001,0.0],[-78.2615,20.8037,1.9266]]],
[[[-78.2637,20.811,0.4546],[-78.2663,20.8121,0.0],[-78.2679,20.8099,0.4576],[-78.2665,20.804,0.607],[-78.2649,20.8046,0.0],[-78.2651,20.8071,0.7808],[-78.2615,20.8068,0.0],[-78.2621,20.8101,0.7197],[-78.2637,20.811,0.4546]]],
[[[-78.2404,20.8137,0.0],[-78.2418,20.8149,0.0],[-78.2443,20.814,0.0],[-78.2399,20.8124,0.0],[-78.2421,20.8096,2.5947],[-78.241,20.8057,0.0],[-78.236,20.804,0.7497],[-78.2268,20.8054,0.0],[-78.2274,20.8087,1.0927],[-78.236,20.8099,0.5713],[-78.2404,20.8137,0.0]]],
[[[-78.2607,20.8199,0.0],[-78.2626,20.8213,0.0],[-78.2632,20.814,0.0],[-78.2657,20.8143,0.0],[-78.2624,20.8113,0.0],[-78.2613,20.8126,1.8519],[-78.2574,20.8124,0.0],[-78.2574,20.8163,0.0],[-78.2607,20.8199,0.0]]],
[[[-78.2618,20.8276,0.0],[-78.2637,20.8288,0.0],[-78.2618,20.8235,0.0],[-78.251,20.8154,0.0],[-78.249,20.819,0.0],[-78.2557,20.8235,0.4419],[-78.2585,20.8276,0.0],[-78.2618,20.8276,0.0]]],
[[[-78.009,20.6429,0.0],[-78.0085,20.6451,0.389],[-78.0093,20.6454,0.389],[-78.0104,20.6424,0.0],[-78.009,20.6429,0.0]]],
[[[-78.0121,20.661,0.0],[-78.0129,20.6651,0.9754],[-78.0149,20.6649,1.3219],[-78.0143,20.6574,0.0],[-78.0113,20.659,0.0],[-78.0121,20.661,0.0]]],
[[[-78.0282,20.6885,0.0],[-78.0315,20.6893,0.0],[-78.0324,20.6871,2.2433],[-78.0301,20.6857,0.0],[-78.0282,20.6885,0.0]]],
[[[-77.9798,21.0179,45.0841],[-77.9949,21.0203,56.7613],[-78.0123,21.0284,58.7017],[-78.0295,21.0407,49.5563],[-78.0479,21.0468,43.7967],[-78.0594,21.0366,38.7457],[-78.0697,21.0199,35.1037],[-78.0793,21.012,33.0632],[-78.0898,21.0095,33.0789],[-78.13,21.0084,40.7598],[-78.1716,20.9887,21.8817],[-78.181,20.9793,23.9076],[-78.2052,20.9417,6.6267],[-78.2313,20.9154,2.8266],[-78.2579,20.8779,0.4941],[-78.2507,20.8682,0.3414],[-78.2482,20.8693,1.7406],[-78.2465,20.8682,2.1906],[-78.249,20.8657,0.0],[-78.2432,20.8596,2.0784],[-78.2438,20.8538,1.0679],[-78.2385,20.8396,0.0],[-78.2401,20.8326,3.5357],[-78.2429,20.8299,0.3187],[-78.2401,20.829,1.517],[-78.2351,20.8315,1.041],[-78.2312,20.8312,0.4582],[-78.2246,20.8385,0.4271],[-78.2107,20.839,2.0972],[-78.2124,20.8435,2.6393],[-78.2074,20.8443,4.3001],[-78.2071,20.841,2.3761],[-78.2099,20.8362,0.0],[-78.2038,20.8412,2.2729],[-78.2071,20.8357,1.2089],[-78.1999,20.8329,0.5843],[-78.1982,20.8343,1.372],[-78.1979,20.8312,1.3228],[-78.1932,20.8265,0.52],[-78.1913,20.8268,0.52],[-78.1907,20.8218,0.405],[-78.1849,20.819,1.4592],[-78.1818,20.8196,2.839],[-78.1799,20.816,0.3693],[-78.1701,20.8124,2.3138],[-78.1599,20.8004,1.0524],[-78.1571,20.7921,0.0],[-78.1551,20.7915,1.2076],[-78.1582,20.7885,0.5723],[-78.1507,20.7796,0.2957],[-78.1476,20.769,1.8951],[-78.139,20.7651,1.9965],[-78.1435,20.7638,0.0],[-78.1429,20.7613,0.4871],[-78.1201,20.7504,0.0],[-78.1176,20.7521,1.9514],[-78.116,20.7479,0.5409],[-78.1087,20.7465,1.0292],[-78.1071,20.7424,0.3588],[-78.0924,20.7382,0.663],[-78.0896,20.7318,0.0],[-78.0849,20.7285,0.0],[-78.0799,20.7285,0.9206],[-78.0799,20.7274,0.9206],[-78.0751,20.7263,1.3085],[-78.0701,20.7182,0.0],[-78.0624,20.7129,0.3984],[-78.0604,20.714,0.759],[-78.0579,20.7099,0.4165],[-78.0526,20.7085,0.0],[-78.0535,20.7176,1.2026],[-78.0499,20.7171,1.6601],[-78.0462,20.7193,1.8928],[-78.044,20.7151,0.4134],[-78.0443,20.7093,1.1062],[-78.0471,20.7079,0.7013],[-78.0471,20.7051,1.5254],[-78.0407,20.701,1.8979],[-78.0029,20.6999,0.3811],[-77.9985,20.6979,0.0],[-77.9837,20.7001,0.0],[-77.9788,20.6979,0.0],[-77.9782,20.6999,0.0],[-77.9726,20.7021,0.7207],[-77.9615,20.7035,0.1756],[-77.9596,20.7015,0.0],[-77.951,20.7026,0.7318],[-77.9457,20.6985,0.0],[-77.9224,20.6929,0.0],[-77.9179,20.7001,0.0],[-77.9118,20.7026,1.7587],[-77.9099,20.7079,0.0],[-77.9115,20.7132,1.2764],[-77.9096,20.7179,0.4609],[-77.9018,20.7246,0.8309],[-77.8979,20.7254,0.0],[-77.884,20.7251,0.9376],[-77.8768,20.7218,0.0],[-77.8671,20.7249,0.1793],[-77.8449,20.7243,3.3086],[-77.829,20.7188,3.9754],[-77.8084,20.706,0.0],[-77.8086,20.7536,12.7616],[-77.8042,20.792,16.5422],[-77.8008,20.8,19.0678],[-77.7896,20.8161,23.9137],[-77.7728,20.8358,34.2289],[-77.8025,20.8648,43.8366],[-77.8215,20.8756,49.4898],[-77.8422,20.8927,57.4127],[-77.8633,20.9025,59.5525],[-77.8789,20.906,59.4468],[-77.885,20.9103,58.2865],[-77.9045,20.9456,47.9121],[-77.9177,20.9866,48.7538],[-77.9277,21.0009,57.266],[-77.9422,21.0084,45.4329],[-77.9685,21.0162,44.0684],[-77.9798,21.0179,45.0841]]],
[[[-78.0385,20.4476,0.6492],[-78.0379,20.4499,0.6655],[-78.0418,20.4485,0.8544],[-78.0415,20.4476,0.8544],[-78.0385,20.4476,0.6492]]],
[[[-78.0335,20.4993,0.0],[-78.0368,20.5007,0.0],[-78.0379,20.4985,0.0],[-78.0362,20.4974,0.4654],[-78.0357,20.499,1.279],[-78.0335,20.4993,0.0]]],
[[[-78.0668,20.5051,0.0],[-78.0679,20.5068,0.2574],[-78.0701,20.5057,0.0],[-78.0679,20.5038,0.8961],[-78.0699,20.5004,0.0],[-78.066,20.5021,1.1571],[-78.0668,20.5051,0.0]]],
[[[-78.1304,20.5065,0.0],[-78.1301,20.5093,0.0],[-78.131,20.5096,0.0],[-78.1326,20.5068,0.0],[-78.1304,20.5065,0.0]]],
[[[-78.1718,20.5124,0.0],[-78.1732,20.5146,0.4403],[-78.1749,20.5143,0.0],[-78.1732,20.5107,0.8064],[-78.1687,20.5071,0.8763],[-78.1685,20.5088,0.0],[-78.1718,20.5124,0.0]]],
[[[-78.0549,20.519,0.0],[-78.0549,20.5204,0.0],[-78.0565,20.5201,0.4136],[-78.056,20.5176,0.5972],[-78.0593,20.5146,1.5223],[-78.0587,20.5132,0.0],[-78.0557,20.5149,0.2509],[-78.0549,20.519,0.0]]],
[[[-78.1279,20.5176,0.7944],[-78.1299,20.5187,0.0],[-78.1274,20.5154,0.0],[-78.1271,20.5168,0.0],[-78.1279,20.5176,0.7944]]],
[[[-78.0912,20.5182,0.2259],[-78.0907,20.5201,0.5375],[-78.0946,20.5174,0.0],[-78.0921,20.5174,0.2259],[-78.0912,20.5182,0.2259]]],
[[[-78.0638,20.5246,0.2529],[-78.0651,20.526,0.0],[-78.0674,20.5251,0.3643],[-78.0649,20.5235,0.0],[-78.0638,20.5246,0.2529]]],
[[[-78.1268,20.5324,0.0],[-78.1254,20.5326,0.0],[-78.1235,20.5376,0.7389],[-78.1263,20.5362,0.4683],[-78.1265,20.5335,0.0],[-78.1288,20.5362,0.0],[-78.1301,20.536,0.0],[-78.1268,20.5324,0.0]]],
[[[-78.0929,20.5349,0.0],[-78.0929,20.5357,0.0],[-78.0957,20.536,0.0],[-78.0937,20.5346,0.0],[-78.0929,20.5349,0.0]]],
[[[-78.1999,20.5718,0.0],[-78.2007,20.5729,0.0],[-78.2024,20.5726,0.0],[-78.2007,20.5704,0.0],[-78.1999,20.5718,0.0]]],
[[[-78.0274,20.5462,0.1701],[-78.0263,20.5465,0.0],[-78.0263,20.5479,0.0],[-78.029,20.5465,0.0],[-78.0274,20.5462,0.1701]]],
[[[-78.0068,20.5763,0.0],[-78.0074,20.579,0.0],[-78.0132,20.5785,0.4761],[-78.0126,20.5771,0.4761],[-78.0076,20.5754,0.0],[-78.0068,20.5763,0.0]]],
[[[-78.006,20.5874,0.3864],[-78.0071,20.589,0.0],[-78.0099,20.5876,1.2961],[-78.0115,20.5888,0.0],[-78.0132,20.5868,0.0],[-78.0101,20.5874,1.07],[-78.0074,20.5846,0.0],[-78.006,20.5874,0.3864]]],
[[[-78.0149,20.5943,0.0],[-78.0157,20.5962,0.0],[-78.0168,20.5929,0.0],[-78.0157,20.5929,0.0],[-78.0149,20.5943,0.0]]],
[[[-78.3851,20.6357,0.0],[-78.3876,20.6374,0.0],[-78.3935,20.6365,0.0],[-78.3946,20.6321,0.0],[-78.3913,20.6312,0.0],[-78.391,20.6249,0.0],[-78.3846,20.6221,0.0911],[-78.3843,20.6207,0.0],[-78.3824,20.6224,0.7183],[-78.3751,20.6218,0.2018],[-78.3732,20.621,0.1634],[-78.3729,20.6179,0.0],[-78.376,20.6096,0.3358],[-78.3779,20.611,0.1738],[-78.381,20.6099,0.276],[-78.3804,20.6138,0.0],[-78.3835,20.6143,0.1996],[-78.3793,20.6176,0.0],[-78.3749,20.6174,0.0],[-78.376,20.6196,0.0],[-78.3793,20.6204,0.282],[-78.3865,20.6176,0.0],[-78.3868,20.6154,0.0],[-78.3801,20.6068,0.7716],[-78.3812,20.6004,0.4599],[-78.3793,20.5999,0.1722],[-78.3796,20.5974,0.7594],[-78.3815,20.6001,0.4599],[-78.3849,20.5974,0.0],[-78.3851,20.5949,0.0],[-78.3913,20.5976,0.4406],[-78.3899,20.6007,0.3225],[-78.386,20.5999,0.0],[-78.384,20.6024,0.0],[-78.3846,20.6054,0.4901],[-78.3868,20.6063,0.2871],[-78.386,20.6038,0.4901],[-78.3913,20.6035,0.1138],[-78.3918,20.601,0.2532],[-78.3938,20.6001,0.0],[-78.3918,20.5965,0.2906],[-78.3946,20.5954,0.2471],[-78.3971,20.5904,0.0],[-78.396,20.589,0.2093],[-78.3915,20.5929,0.0],[-78.3849,20.5874,0.0],[-78.3874,20.5818,0.0],[-78.3846,20.5796,0.0],[-78.3876,20.5757,0.1941],[-78.384,20.5752,0.0782],[-78.3851,20.5721,0.0],[-78.3829,20.5685,0.3445],[-78.3868,20.5651,0.0],[-78.3737,20.5685,0.0],[-78.3732,20.571,0.0],[-78.3701,20.5685,0.0978],[-78.3699,20.5618,0.0],[-78.3682,20.5626,0.0],[-78.3679,20.5601,0.0],[-78.3649,20.5604,0.5316],[-78.3671,20.559,0.0],[-78.366,20.5576,0.273],[-78.3624,20.5582,0.3569],[-78.3604,20.5624,0.4702],[-78.354,20.5607,0.7288],[-78.3546,20.5593,0.227],[-78.3587,20.5607,0.0],[-78.3613,20.5593,0.4071],[-78.3587,20.5546,0.0],[-78.351,20.5563,0.0],[-78.3507,20.5593,0.5352],[-78.3457,20.5601,0.0],[-78.3451,20.556,0.5677],[-78.3515,20.5551,0.0],[-78.3515,20.554,0.0],[-78.3476,20.5543,0.1605],[-78.3454,20.549,0.2855],[-78.3429,20.5482,0.0],[-78.341,20.5499,0.4104],[-78.339,20.5446,0.2195],[-78.3343,20.5432,0.3744],[-78.334,20.5399,0.0],[-78.3362,20.5382,0.2212],[-78.3351,20.536,1.1912],[-78.3379,20.5374,0.0],[-78.3412,20.5351,0.4498],[-78.3393,20.5346,0.9579],[-78.3379,20.5285,0.3088],[-78.3418,20.5315,0.5377],[-78.3463,20.5313,0.2054],[-78.3549,20.5349,0.1283],[-78.3613,20.5401,0.0],[-78.364,20.5407,0.0],[-78.3657,20.544,0.0],[-78.3671,20.5432,0.0],[-78.3654,20.5412,0.1428],[-78.3674,20.5404,0.0],[-78.3693,20.5432,0.0],[-78.3715,20.5432,0.2476],[-78.3726,20.5465,0.0],[-78.3754,20.5457,0.0],[-78.3765,20.5485,0.0],[-78.3799,20.5471,0.0],[-78.3824,20.5532,0.0],[-78.384,20.5546,0.0],[-78.3865,20.5537,0.5886],[-78.3907,20.5568,0.4662],[-78.3901,20.559,0.0],[-78.3954,20.561,0.4448],[-78.3968,20.5646,0.0],[-78.4032,20.5649,0.3455],[-78.4024,20.5743,0.0],[-78.4062,20.5765,0.6618],[-78.4096,20.5812,0.5694],[-78.4096,20.5838,0.3222],[-78.4129,20.586,0.2457],[-78.4126,20.5915,0.0],[-78.4182,20.5976,0.0],[-78.4193,20.5974,0.0],[-78.4179,20.5957,0.0],[-78.419,20.5918,0.7961],[-78.421,20.5932,0.1809],[-78.4224,20.5918,0.4915],[-78.4229,20.594,0.0],[-78.4257,20.5957,0.0],[-78.4276,20.5918,0.3867],[-78.4337,20.5935,0.5861],[-78.4404,20.5899,0.6725],[-78.4371,20.5929,0.2019],[-78.4401,20.5946,0.0],[-78.4415,20.5979,0.0],[-78.4451,20.599,0.0],[-78.4449,20.5962,0.2318],[-78.4485,20.5954,0.1889],[-78.449,20.6018,0.0],[-78.4496,20.5999,0.1155],[-78.4504,20.601,0.0],[-78.4524,20.6001,1.0498],[-78.4501,20.5979,0.1569],[-78.4518,20.5954,0.2659],[-78.4515,20.5979,0.2331],[-78.454,20.5974,0.3838],[-78.4532,20.5993,0.1509],[-78.4554,20.5996,0.4263],[-78.4538,20.6032,0.0],[-78.4579,20.5999,0.2686],[-78.4571,20.6021,0.0],[-78.4587,20.6057,0.5802],[-78.4571,20.6057,0.4208],[-78.4579,20.6076,0.645],[-78.4565,20.6093,0.0],[-78.4596,20.6076,0.2363],[-78.4587,20.6113,0.0],[-78.4604,20.6124,0.1693],[-78.4585,20.6126,0.0],[-78.4635,20.6162,0.0],[-78.4662,20.616,0.0],[-78.4668,20.6135,0.0],[-78.4646,20.6124,0.2472],[-78.4651,20.6149,0.2327],[-78.4635,20.6146,0.2292],[-78.4604,20.6082,0.2363],[-78.4651,20.601,0.0],[-78.4615,20.6004,0.0],[-78.461,20.5982,0.0],[-78.4554,20.5935,0.0],[-78.4526,20.594,0.0],[-78.4518,20.5896,0.1117],[-78.4485,20.5876,0.3646],[-78.4485,20.5857,0.0],[-78.4388,20.5868,0.0],[-78.4249,20.5832,0.7909],[-78.4132,20.576,0.6651],[-78.4021,20.5615,0.1905],[-78.3899,20.5515,0.4353],[-78.384,20.5368,0.0],[-78.3765,20.5374,0.4425],[-78.3657,20.5335,0.0],[-78.3632,20.5351,0.0],[-78.3618,20.5329,0.0961],[-78.3565,20.5318,0.0],[-78.3546,20.5296,0.0],[-78.349,20.5274,0.886],[-78.3476,20.528199999999998,0.886],[-78.3393,20.5204,0.0],[-78.3313,20.5196,0.585],[-78.331,20.5154,0.0],[-78.3293,20.521,0.3032],[-78.3271,20.5182,0.0],[-78.3285,20.536,0.0],[-78.3313,20.546,0.2849],[-78.3401,20.5574,0.2501],[-78.3404,20.5601,0.0],[-78.3471,20.5643,0.0],[-78.351,20.5637,1.1206],[-78.3538,20.5657,0.1233],[-78.3538,20.5674,0.0],[-78.3635,20.5674,0.0],[-78.3615,20.5696,0.0],[-78.362,20.5712,0.0],[-78.3679,20.5743,0.0],[-78.3768,20.574,0.0],[-78.3765,20.5724,0.0906],[-78.3835,20.5768,0.1877],[-78.3765,20.5793,0.8778],[-78.3763,20.5807,0.0],[-78.3807,20.584,0.0],[-78.3743,20.5912,0.091],[-78.3763,20.5971,0.0],[-78.3704,20.6007,0.0],[-78.3704,20.6026,0.6921],[-78.3651,20.6074,0.0],[-78.3665,20.6101,0.3563],[-78.3726,20.6126,0.1522],[-78.3729,20.6154,0.22],[-78.3701,20.6171,0.0],[-78.3743,20.624,0.0],[-78.3757,20.6226,0.2868],[-78.3785,20.6243,0.0],[-78.3782,20.629,0.0],[-78.3804,20.6293,0.0],[-78.3865,20.626,0.4425],[-78.3843,20.6285,0.0],[-78.3851,20.6357,0.0]]],
[[[-78.4324,20.5982,0.0],[-78.4349,20.5987,0.0],[-78.4354,20.5971,0.0],[-78.4313,20.5954,0.0],[-78.431,20.5965,0.1311],[-78.4332,20.5965,0.0969],[-78.4324,20.5982,0.0]]],
[[[-78.4318,20.6013,0.0],[-78.4343,20.6021,0.0],[-78.4332,20.5999,0.0],[-78.4307,20.6004,0.0],[-78.4318,20.6013,0.0]]],
[[[-78.4218,20.6007,0.0],[-78.4224,20.6029,0.0],[-78.4246,20.6021,0.0],[-78.4229,20.5999,0.0],[-78.4218,20.6007,0.0]]],
[[[-78.3665,20.551,0.0],[-78.3668,20.549,0.0],[-78.3646,20.5529,0.258],[-78.3657,20.5529,0.258],[-78.3665,20.551,0.0]]],
[[[-78.3949,20.6154,0.0],[-78.3996,20.6162,0.0],[-78.3915,20.6115,0.2707],[-78.3904,20.6051,0.0],[-78.3879,20.6051,0.0],[-78.3879,20.6099,0.1883],[-78.3865,20.611,0.0],[-78.3949,20.6154,0.0]]],
[[[-78.2885,20.6474,0.0],[-78.2904,20.6485,0.0],[-78.2871,20.6426,0.0],[-78.289,20.634,0.0],[-78.2879,20.6321,0.0],[-78.2857,20.644,0.0],[-78.2885,20.6474,0.0]]],
[[[-78.3849,20.6621,0.0819],[-78.3879,20.6629,0.1906],[-78.3874,20.6604,0.3456],[-78.3896,20.6588,0.1737],[-78.3885,20.6568,0.8548],[-78.391,20.6549,0.6268],[-78.3904,20.6524,1.0531],[-78.3918,20.6504,0.1474],[-78.3954,20.6513,0.0],[-78.3935,20.6465,1.0616],[-78.396,20.6449,0.3965],[-78.3943,20.6451,0.0],[-78.3943,20.6432,0.0],[-78.3868,20.6382,0.0],[-78.3835,20.6396,0.0],[-78.3838,20.6379,0.0],[-78.3812,20.6354,0.0],[-78.3768,20.6368,0.0],[-78.3763,20.6418,0.0],[-78.3626,20.6424,0.9651],[-78.364,20.6476,0.0],[-78.3712,20.6482,0.3003],[-78.374,20.6501,0.0],[-78.3749,20.6493,0.0],[-78.3729,20.6463,0.6248],[-78.3743,20.6479,0.0],[-78.376,20.6443,0.7704],[-78.3788,20.6432,0.8443],[-78.3807,20.6443,1.0085],[-78.3807,20.6476,0.9204],[-78.3765,20.649,0.0],[-78.384,20.6507,0.0],[-78.3843,20.649,0.396],[-78.3807,20.6485,0.9204],[-78.384,20.6465,1.0866],[-78.3882,20.6468,1.1004],[-78.391,20.6432,0.3688],[-78.3929,20.6437,0.0],[-78.3935,20.646,1.0616],[-78.391,20.6465,0.4361],[-78.3921,20.6487,0.3011],[-78.3901,20.6513,0.2499],[-78.3874,20.6513,0.0],[-78.3896,20.6485,0.393],[-78.3887,20.6476,0.393],[-78.3838,20.6543,0.0],[-78.3763,20.6554,0.0],[-78.3785,20.6571,0.0],[-78.381,20.6563,0.0],[-78.3807,20.6593,0.1439],[-78.3785,20.6599,0.0],[-78.3793,20.6615,0.1253],[-78.3851,20.6601,0.683],[-78.3849,20.6621,0.0819]]],
[[[-78.4037,20.6293,1.0649],[-78.4051,20.6304,1.0649],[-78.4082,20.6296,0.569],[-78.4026,20.6254,0.0],[-78.4037,20.6293,1.0649]]],
[[[-78.4301,20.6354,0.0],[-78.4285,20.636,1.1912],[-78.4287,20.6374,0.0],[-78.4315,20.6363,0.0],[-78.4301,20.6354,0.0]]],
[[[-78.4512,20.6401,1.1628],[-78.4532,20.6413,0.7358],[-78.449,20.6374,1.4681],[-78.4488,20.6385,1.4681],[-78.4512,20.6401,1.1628]]],
[[[-78.4224,20.644,1.7055],[-78.4215,20.6457,0.0],[-78.4232,20.6463,0.5031],[-78.4254,20.6435,0.0],[-78.4246,20.644,1.7269],[-78.4224,20.644,1.7055]]],
[[[-78.2457,20.6302,2.7356],[-78.2485,20.6312,0.3865],[-78.2499,20.6293,1.1752],[-78.2499,20.6282,0.7944],[-78.2449,20.6274,1.5744],[-78.2474,20.6146,0.385],[-78.2499,20.6135,1.4051],[-78.254,20.6168,0.0],[-78.2518,20.6129,0.3994],[-78.2479,20.6118,0.0],[-78.246,20.6138,1.1127],[-78.2446,20.6199,0.0],[-78.2399,20.6232,0.0],[-78.2418,20.6257,0.0],[-78.2415,20.6288,0.0],[-78.2457,20.6302,2.7356]]],
[[[-78.2707,20.7043,0.0],[-78.2729,20.7057,0.0],[-78.2743,20.7035,0.2875],[-78.2785,20.7046,0.0],[-78.2787,20.7032,0.3088],[-78.2743,20.7007,0.3023],[-78.2746,20.7026,0.2875],[-78.2707,20.7043,0.0]]],
[[[-78.2688,20.7021,0.0],[-78.2682,20.704,0.0],[-78.2685,20.7049,0.0],[-78.2701,20.7032,0.7215],[-78.2688,20.7021,0.0]]],
[[[-78.2599,20.7096,0.1653],[-78.2629,20.7101,0.0],[-78.2613,20.7082,0.0],[-78.2637,20.7074,0.0],[-78.2632,20.7049,1.1945],[-78.2657,20.7065,0.2882],[-78.2637,20.7007,0.3749],[-78.2615,20.7021,0.9547],[-78.2599,20.7096,0.1653]]],
[[[-78.3729,20.6588,0.0],[-78.3726,20.6599,0.0],[-78.3746,20.6601,0.0],[-78.3746,20.6557,1.0296],[-78.3704,20.654,0.5483],[-78.3696,20.6563,0.0],[-78.3729,20.6588,0.0]]],
[[[-78.389,20.6776,0.1201],[-78.3915,20.6785,0.0],[-78.3907,20.6762,0.5039],[-78.3932,20.6726,0.4165],[-78.3946,20.6749,0.4346],[-78.3976,20.6738,0.0749],[-78.3974,20.6757,0.0],[-78.3999,20.6771,0.0],[-78.4054,20.6754,0.0],[-78.4007,20.6707,0.5064],[-78.4026,20.6693,0.2535],[-78.4024,20.6663,0.277],[-78.4043,20.6657,0.0],[-78.4024,20.6626,0.3978],[-78.4043,20.6607,0.0],[-78.4024,20.6585,0.0],[-78.3996,20.6585,0.0],[-78.4015,20.6612,0.2998],[-78.4001,20.6612,0.0],[-78.3993,20.664,0.3666],[-78.3976,20.6624,0.201],[-78.3929,20.6626,0.0],[-78.3943,20.666,0.3631],[-78.3926,20.6663,0.0],[-78.3924,20.6718,0.0],[-78.386,20.6712,0.5591],[-78.3876,20.6746,0.0],[-78.389,20.6746,0.8063],[-78.389,20.6776,0.1201]]],
[[[-78.2901,20.6715,1.0762],[-78.2913,20.6735,0.4797],[-78.2932,20.6732,0.6112],[-78.2935,20.6715,0.0],[-78.2913,20.6712,1.0762],[-78.294,20.6679,1.2398],[-78.2982,20.6657,0.9857],[-78.3012,20.6663,0.4905],[-78.301,20.6643,0.3246],[-78.2929,20.6651,0.0],[-78.2896,20.6696,1.4674],[-78.2901,20.6715,1.0762]]],
[[[-78.2946,20.6735,0.8247],[-78.2949,20.6749,0.5375],[-78.2968,20.6746,0.0],[-78.3007,20.6696,0.0],[-78.2949,20.6693,0.3227],[-78.2946,20.6735,0.8247]]],
[[[-78.3032,20.674,0.0],[-78.3065,20.6749,0.0],[-78.304,20.6735,0.6983],[-78.304,20.671,0.2601],[-78.3018,20.6724,0.3107],[-78.3032,20.674,0.0]]],
[[[-78.3163,20.674,1.0735],[-78.3157,20.6768,0.6893],[-78.3165,20.6774,0.0],[-78.3176,20.6749,0.3431],[-78.3163,20.674,1.0735]]],
[[[-78.2985,20.6771,0.6115],[-78.3007,20.6785,0.2524],[-78.3007,20.674,0.3011],[-78.2996,20.6757,0.2997],[-78.2971,20.6757,0.0],[-78.2985,20.6771,0.6115]]],
[[[-78.3626,20.6854,0.8728],[-78.3629,20.6871,0.0],[-78.3657,20.6868,1.9785],[-78.3654,20.6846,2.2425],[-78.3624,20.6832,0.0],[-78.3618,20.679,1.845],[-78.3649,20.6815,0.5071],[-78.3674,20.6807,0.0],[-78.3682,20.6757,0.0],[-78.3704,20.6735,0.0],[-78.3668,20.6704,0.0],[-78.3615,20.6693,0.0],[-78.3624,20.6738,2.415],[-78.3599,20.6749,1.151],[-78.3593,20.6793,0.7468],[-78.3618,20.6818,0.0],[-78.3607,20.6846,0.0],[-78.3626,20.6854,0.8728]]],
[[[-78.2929,20.6793,0.4485],[-78.2929,20.6807,0.2559],[-78.2949,20.6807,0.0],[-78.2957,20.679,0.7053],[-78.294,20.6796,0.4485],[-78.2929,20.6793,0.4485]]],
[[[-78.3099,20.6832,0.6266],[-78.3107,20.6851,0.2744],[-78.3132,20.6843,0.1993],[-78.3115,20.684,0.2744],[-78.3107,20.6807,0.2147],[-78.3071,20.679,0.2514],[-78.3051,20.6829,0.7907],[-78.3051,20.6785,0.293],[-78.3015,20.6771,0.2524],[-78.304,20.6846,0.0],[-78.3063,20.6843,0.0],[-78.3076,20.6821,0.2529],[-78.3099,20.6832,0.6266]]],
[[[-78.384,20.694,0.0],[-78.3879,20.6949,0.3785],[-78.3868,20.6929,0.0],[-78.3901,20.6896,0.6386],[-78.3882,20.6849,0.1963],[-78.3904,20.679,0.0],[-78.3882,20.6793,0.6569],[-78.3868,20.6774,0.0],[-78.3857,20.6796,0.3628],[-78.3824,20.6787,0.3802],[-78.3788,20.6754,0.1278],[-78.3796,20.674,0.1278],[-78.3779,20.6721,0.3719],[-78.3826,20.6715,0.0],[-78.381,20.6696,0.1679],[-78.3779,20.6696,0.3829],[-78.376,20.6732,0.0],[-78.3776,20.6746,0.0],[-78.3774,20.6779,1.3716],[-78.3801,20.6804,0.4551],[-78.3779,20.6863,0.0],[-78.384,20.694,0.0]]],
[[[-78.3668,20.6835,0.0],[-78.3668,20.6854,2.8924],[-78.3685,20.686,0.0],[-78.3674,20.6826,0.0],[-78.3668,20.6835,0.0]]],
[[[-78.2812,20.6938,0.0],[-78.2835,20.6949,0.0],[-78.2815,20.6901,1.6893],[-78.2838,20.6865,0.0],[-78.2812,20.6838,1.4525],[-78.2843,20.6838,0.0],[-78.2799,20.6818,0.0],[-78.2787,20.6871,0.0],[-78.2812,20.6938,0.0]]],
[[[-78.3885,20.7085,2.6968],[-78.3913,20.7096,2.4024],[-78.3971,20.7074,0.0],[-78.3868,20.7065,1.091],[-78.3885,20.7085,2.6968]]],
[[[-78.3643,20.746,0.0],[-78.366,20.7488,0.0],[-78.3704,20.7446,0.1178],[-78.3707,20.7468,0.0],[-78.374,20.7446,0.099],[-78.3751,20.746,0.0],[-78.3771,20.7449,0.0],[-78.3763,20.7418,0.0],[-78.374,20.7435,0.0],[-78.3721,20.7407,0.0],[-78.3662,20.7404,0.0],[-78.3643,20.7354,0.5223],[-78.3685,20.7332,0.3936],[-78.3696,20.7349,0.2003],[-78.3707,20.729,0.2218],[-78.3735,20.7285,0.9804],[-78.3721,20.726,1.6723],[-78.3757,20.7246,1.4661],[-78.3732,20.7176,2.0584],[-78.374,20.7171,2.0584],[-78.3749,20.7193,0.0],[-78.3771,20.7182,0.0],[-78.3757,20.716,2.7641],[-78.376,20.711,2.2022],[-78.381,20.7065,0.8259],[-78.3788,20.7043,0.8872],[-78.3779,20.706,0.7109],[-78.374,20.7049,0.0],[-78.3757,20.7085,0.0],[-78.374,20.7107,0.0],[-78.374,20.7162,0.9158],[-78.3707,20.7168,0.2442],[-78.3724,20.7221,1.8635],[-78.3693,20.7237,0.3944],[-78.3674,20.7285,1.8295],[-78.3657,20.7282,0.0],[-78.3671,20.731,0.8574],[-78.3626,20.7335,0.0],[-78.3604,20.7329,0.3341],[-78.359,20.7351,1.1851],[-78.3643,20.7415,1.0008],[-78.3613,20.7446,0.0],[-78.3643,20.746,0.0]]],
[[[-78.3804,20.7382,0.0],[-78.379,20.7421,0.0],[-78.3832,20.7412,0.0],[-78.3874,20.7374,0.0],[-78.3871,20.736,0.1693],[-78.3887,20.7382,0.0],[-78.3918,20.7363,0.0],[-78.3932,20.7396,0.0],[-78.3957,20.7396,0.0],[-78.3974,20.734,0.0],[-78.3949,20.7307,0.0963],[-78.3935,20.7346,0.6295],[-78.3863,20.7346,0.4061],[-78.3804,20.7382,0.0]]],
[[[-78.5521,20.6949,0.692],[-78.5546,20.6965,0.7536],[-78.5571,20.6935,0.3576],[-78.5549,20.6926,0.3209],[-78.5521,20.6949,0.692]]],
[[[-78.5099,20.6976,0.0],[-78.5113,20.6993,0.0],[-78.5137,20.696,0.3624],[-78.5121,20.6957,0.2277],[-78.5099,20.6976,0.0]]],
[[[-78.479,20.7171,0.4231],[-78.4882,20.7179,0.2093],[-78.4893,20.7162,0.2557],[-78.4879,20.7155,0.2557],[-78.4907,20.7132,0.0],[-78.4885,20.7096,0.4435],[-78.4921,20.7093,0.0],[-78.4929,20.7071,0.1672],[-78.4979,20.7126,0.0],[-78.5032,20.7121,0.0],[-78.5062,20.7079,0.3173],[-78.5088,20.7088,0.4856],[-78.5096,20.7124,0.0],[-78.5126,20.7101,0.1114],[-78.5135,20.7065,0.6575],[-78.5165,20.7071,0.0],[-78.5199,20.7038,0.2403],[-78.5215,20.704,0.0],[-78.5174,20.7024,0.7733],[-78.5174,20.699,0.0705],[-78.5126,20.6996,0.1467],[-78.5113,20.7018,0.1989],[-78.509,20.6993,0.0887],[-78.5071,20.7021,0.3497],[-78.5029,20.7032,0.2142],[-78.4987,20.7018,0.0],[-78.4954,20.7026,0.4277],[-78.4951,20.701,0.1533],[-78.4907,20.7032,0.4323],[-78.4887,20.7024,0.0],[-78.4885,20.7051,0.0],[-78.4868,20.706,0.2449],[-78.4871,20.7029,0.0943],[-78.4837,20.704,0.2394],[-78.4776,20.6968,0.0],[-78.4676,20.6932,0.0],[-78.4662,20.6838,0.708],[-78.4674,20.6799,0.0],[-78.4632,20.679,0.1834],[-78.4626,20.6826,0.0],[-78.4649,20.6829,0.0],[-78.4651,20.694,0.0],[-78.4718,20.6951,0.0],[-78.476,20.6976,0.2687],[-78.4746,20.7004,0.3374],[-78.4779,20.6999,0.5451],[-78.4815,20.7024,0.6321],[-78.4804,20.7065,0.0],[-78.4829,20.709,0.2083],[-78.4785,20.7115,0.0],[-78.4821,20.7165,0.422],[-78.4785,20.7162,0.0],[-78.479,20.7171,0.4231]]],
[[[-78.5771,20.6999,0.0],[-78.5762,20.7018,2.0498],[-78.5796,20.6996,0.0],[-78.5776,20.699,0.0],[-78.5771,20.6999,0.0]]],
[[[-78.3968,20.6929,1.27],[-78.4007,20.6943,0.2221],[-78.396,20.6899,0.5944],[-78.3974,20.684,0.0],[-78.3932,20.6876,3.3204],[-78.3949,20.6921,1.27],[-78.3968,20.6929,1.27]]],
[[[-78.4337,20.6976,0.0],[-78.4354,20.699,0.0],[-78.4365,20.6957,0.2694],[-78.4346,20.6954,0.0],[-78.4337,20.6976,0.0]]],
[[[-78.4068,20.7088,0.0],[-78.4085,20.7121,0.0],[-78.4085,20.7021,3.3364],[-78.4057,20.6946,0.0],[-78.4026,20.6935,0.0],[-78.404,20.6954,2.9141],[-78.4037,20.6993,2.4547],[-78.4065,20.7029,0.8142],[-78.4046,20.7062,1.0221],[-78.4068,20.7088,0.0]]],
[[[-78.4768,20.7185,0.1289],[-78.4782,20.7196,0.3158],[-78.4793,20.7196,0.392],[-78.4779,20.7174,0.4231],[-78.4768,20.7185,0.1289]]],
[[[-78.5521,20.7035,1.7767],[-78.5554,20.7046,0.5547],[-78.5585,20.7001,0.0],[-78.5529,20.7001,0.0],[-78.5521,20.7035,1.7767]]],
[[[-78.6204,20.7057,0.0],[-78.6199,20.7071,0.0],[-78.6232,20.7062,0.1027],[-78.6268,20.7012,0.5839],[-78.6243,20.7004,0.0],[-78.6204,20.7057,0.0]]],
[[[-78.5229,20.706,0.1597],[-78.5237,20.7074,0.0],[-78.5287,20.7076,0.0],[-78.5312,20.7071,0.0],[-78.5313,20.7054,0.3546],[-78.5343,20.7063,0.0],[-78.5379,20.704,0.0],[-78.5396,20.706,0.0],[-78.5471,20.7068,0.2953],[-78.5496,20.7035,0.0],[-78.5421,20.7038,1.2602],[-78.5379,20.7001,0.0],[-78.5349,20.7012,0.598],[-78.5282,20.7004,0.0],[-78.5274,20.7038,0.4214],[-78.5229,20.7026,0.0],[-78.5229,20.706,0.1597]]],
[[[-78.5782,20.7165,1.7321],[-78.5807,20.7176,0.0654],[-78.586,20.7165,0.0],[-78.5865,20.7118,0.0],[-78.5849,20.711,0.0],[-78.5826,20.7132,0.0],[-78.5799,20.7129,0.069],[-78.5796,20.7082,0.0],[-78.576,20.7021,0.2537],[-78.5724,20.7057,0.1847],[-78.5701,20.7113,0.5968],[-78.5782,20.7165,1.7321]]],
[[[-78.6126,20.7149,0.0],[-78.6157,20.715699999999998,0.0],[-78.6179,20.7093,0.7872],[-78.6129,20.7135,0.0],[-78.6126,20.7149,0.0]]],
[[[-78.5946,20.7193,1.3415],[-78.5971,20.7204,0.9907],[-78.6024,20.7176,0.289],[-78.6007,20.7143,0.7328],[-78.5982,20.7171,1.7029],[-78.5968,20.7151,0.0],[-78.5979,20.7126,0.263],[-78.6004,20.7118,1.1843],[-78.6004,20.7088,0.4972],[-78.604,20.7071,0.0],[-78.6038,20.7057,0.4005],[-78.5993,20.7074,0.2805],[-78.5987,20.7101,0.4972],[-78.5937,20.714,0.3443],[-78.5907,20.7124,0.5373],[-78.5907,20.7107,0.0],[-78.5888,20.7113,0.9317],[-78.5901,20.7168,0.0],[-78.5946,20.7193,1.3415]]],
[[[-78.6274,20.726,6.436],[-78.6265,20.7274,0.0],[-78.6279,20.7279,1.9564],[-78.6349,20.7218,1.2164],[-78.6318,20.7151,0.0],[-78.6282,20.7188,0.3051],[-78.6299,20.721,0.5661],[-78.6274,20.726,6.436]]],
[[[-78.4835,20.731,0.8967],[-78.4832,20.7332,0.225],[-78.4863,20.7332,0.5811],[-78.4887,20.7304,0.2714],[-78.4849,20.7282,0.727],[-78.4801,20.729,0.0],[-78.4826,20.7293,0.5536],[-78.4835,20.731,0.8967]]],
[[[-78.3999,20.6021,0.8378],[-78.399,20.6035,0.8378],[-78.3993,20.6043,0.0],[-78.4015,20.6029,0.7749],[-78.3999,20.6021,0.8378]]],
[[[-78.4357,20.6043,0.0],[-78.4382,20.6049,0.0],[-78.4362,20.6024,0.0889],[-78.4337,20.6035,0.0],[-78.4357,20.6043,0.0]]],
[[[-78.466,20.611,0.0],[-78.4699,20.6118,0.0],[-78.4721,20.6074,0.0],[-78.4713,20.6049,0.0],[-78.4699,20.606,0.4276],[-78.4682,20.6018,0.0],[-78.4615,20.6082,0.0],[-78.4621,20.6107,0.0],[-78.4638,20.6087,0.5766],[-78.466,20.611,0.0]]],
[[[-78.444,20.6121,0.0],[-78.4488,20.6138,0.0],[-78.449,20.6085,0.0],[-78.4512,20.6082,0.0],[-78.449,20.6063,0.0],[-78.4501,20.6046,0.0],[-78.4471,20.6046,0.0],[-78.4463,20.6082,0.0],[-78.4446,20.609,0.2799],[-78.4435,20.6074,0.0],[-78.4407,20.6076,0.2623],[-78.444,20.6121,0.0]]],
[[[-78.434,20.6093,0.0],[-78.4349,20.611,0.0],[-78.4371,20.6104,0.0],[-78.4368,20.6096,0.0],[-78.434,20.6093,0.0]]],
[[[-78.4512,20.6135,0.0],[-78.451,20.616,0.0],[-78.4524,20.6168,0.0],[-78.4524,20.6138,0.0],[-78.4512,20.6135,0.0]]],
[[[-78.4429,20.6221,0.0],[-78.4463,20.6226,0.0],[-78.4451,20.6207,0.0743],[-78.4429,20.6207,0.0808],[-78.4429,20.6221,0.0]]],
[[[-78.4201,20.6218,0.0],[-78.4187,20.6224,0.0],[-78.4221,20.6226,0.0],[-78.4215,20.6218,0.0],[-78.4201,20.6218,0.0]]],
[[[-78.4804,20.6116,0.1079],[-78.4818,20.6135,0.0],[-78.4837,20.6138,0.0],[-78.4821,20.6099,0.0],[-78.4804,20.6116,0.1079]]],
[[[-78.5574,20.6312,0.0],[-78.559,20.6332,0.0],[-78.561,20.6326,0.0],[-78.5612,20.6274,0.0],[-78.5585,20.6262,0.1775],[-78.5576,20.6235,0.0],[-78.5449,20.6215,0.0],[-78.5426,20.6232,0.0],[-78.5424,20.6212,0.0],[-78.5407,20.6215,0.0],[-78.5382,20.619,0.0],[-78.5285,20.619,1.0139],[-78.5146,20.6151,0.0],[-78.5088,20.6171,0.2706],[-78.5071,20.6151,0.0],[-78.5046,20.6157,0.0915],[-78.5049,20.6132,0.0],[-78.5024,20.6157,0.3952],[-78.4971,20.6135,0.3363],[-78.4965,20.611,0.0],[-78.4871,20.6082,0.8545],[-78.486,20.606,0.0],[-78.4757,20.6043,0.0],[-78.4726,20.6113,0.0],[-78.4754,20.614,0.0],[-78.4762,20.6115,0.0],[-78.4779,20.6124,0.0],[-78.4782,20.6104,0.3446],[-78.4821,20.6085,0.2339],[-78.4876,20.6126,0.2042],[-78.4871,20.6171,0.0],[-78.4887,20.6171,0.0],[-78.4918,20.6212,0.2032],[-78.4899,20.6299,0.0],[-78.4932,20.6296,0.0],[-78.4918,20.6274,0.0],[-78.4946,20.6212,0.5606],[-78.5013,20.6235,0.1982],[-78.5035,20.6251,0.363],[-78.5049,20.6299,0.0],[-78.5074,20.6301,0.5305],[-78.5099,20.6288,0.0],[-78.5076,20.6279,0.5138],[-78.5079,20.6262,0.5727],[-78.5101,20.6265,0.0],[-78.5171,20.6218,0.2562],[-78.5243,20.6218,0.3747],[-78.5296,20.6238,0.0],[-78.5287,20.6224,0.0],[-78.5301,20.6212,0.4436],[-78.5318,20.6221,0.0],[-78.5312,20.6246,0.0],[-78.5357,20.6282,0.0],[-78.5449,20.6282,0.1751],[-78.5512,20.6254,0.4579],[-78.5532,20.6293,0.1989],[-78.5574,20.6312,0.0]]],
[[[-78.479,20.6185,0.0],[-78.4796,20.6212,0.1818],[-78.481,20.6218,0.1818],[-78.4804,20.6185,0.0],[-78.479,20.6185,0.0]]],
[[[-78.5276,20.629,0.0],[-78.5263,20.6296,0.0],[-78.5265,20.6324,0.0],[-78.531,20.6318,0.0],[-78.531,20.6299,0.0],[-78.5276,20.629,0.0]]],
[[[-78.5449,20.6413,0.0],[-78.5435,20.6429,0.1536],[-78.5468,20.6426,0.0],[-78.5504,20.6393,0.0],[-78.5488,20.639,0.0],[-78.5449,20.6413,0.0]]],
[[[-78.7104,20.6638,0.2452],[-78.7121,20.666,0.0],[-78.714,20.6632,0.0],[-78.7146,20.6607,0.0],[-78.7124,20.659,0.0],[-78.7138,20.6549,0.0],[-78.7093,20.6546,0.0],[-78.7046,20.6585,0.3589],[-78.7082,20.6543,0.0],[-78.7057,20.6526,0.0954],[-78.7057,20.6482,0.0],[-78.704,20.6471,0.0],[-78.7021,20.6479,0.0],[-78.7024,20.6507,0.2903],[-78.7004,20.653199999999998,0.0],[-78.6843,20.6529,0.0],[-78.6815,20.6515,0.0],[-78.681,20.653199999999998,0.1259],[-78.6732,20.6549,0.0],[-78.6674,20.653199999999998,0.0],[-78.6674,20.6521,0.0],[-78.6646,20.6524,0.1061],[-78.6632,20.6507,0.0],[-78.6582,20.6515,0.0],[-78.6518,20.6496,0.0],[-78.646,20.6526,0.0],[-78.6415,20.6499,0.0],[-78.6399,20.6468,0.0],[-78.6371,20.6463,0.0],[-78.6321,20.6482,0.0],[-78.6282,20.6474,0.0],[-78.6249,20.6504,0.0],[-78.621,20.6496,0.0],[-78.6182,20.6515,0.0],[-78.6171,20.6549,0.3848],[-78.6174,20.6518,0.0],[-78.6129,20.6513,0.5288],[-78.614,20.6482,0.0],[-78.6096,20.6493,0.1966],[-78.6071,20.6479,0.0],[-78.6079,20.6457,0.0],[-78.6026,20.6399,0.0],[-78.5951,20.6401,0.0],[-78.591,20.6432,0.0],[-78.5904,20.6454,0.7335],[-78.5868,20.644,0.0],[-78.5868,20.6463,0.229],[-78.5849,20.6451,0.0821],[-78.5846,20.6474,0.3567],[-78.5807,20.6432,0.0],[-78.581,20.6493,0.1467],[-78.5782,20.6468,0.0],[-78.5804,20.646,0.0],[-78.5796,20.6413,0.2795],[-78.5751,20.6401,0.0],[-78.5721,20.6415,0.4347],[-78.5729,20.6463,0.0],[-78.574,20.6463,0.2527],[-78.5724,20.6493,0.0],[-78.5765,20.6515,0.0],[-78.5754,20.6535,0.0],[-78.5785,20.6599,0.0],[-78.579,20.6554,0.1518],[-78.5826,20.6537,0.2864],[-78.5868,20.654,0.0654],[-78.5876,20.6588,0.0],[-78.5893,20.659,0.0],[-78.5896,20.6537,0.0],[-78.5915,20.6585,0.0],[-78.594,20.6588,0.0],[-78.5954,20.6563,0.0],[-78.5935,20.6549,0.389],[-78.5957,20.6537,0.0],[-78.5968,20.6499,0.4381],[-78.5993,20.6535,0.0],[-78.6029,20.6529,0.359],[-78.6018,20.6568,0.0],[-78.6065,20.6579,0.0],[-78.606,20.6546,0.6182],[-78.6074,20.6549,0.232],[-78.6071,20.6604,0.3785],[-78.6118,20.6624,0.0],[-78.6132,20.6604,0.0],[-78.6104,20.659,0.21],[-78.6129,20.6574,0.1209],[-78.6157,20.6579,0.0],[-78.6157,20.6593,0.0],[-78.6176,20.6582,0.212],[-78.6176,20.6604,0.2625],[-78.621,20.659,0.3715],[-78.6232,20.6599,0.0],[-78.6265,20.6576,0.0],[-78.6335,20.659,0.0],[-78.6401,20.6579,0.229],[-78.6432,20.6599,0.172],[-78.6457,20.6571,0.0],[-78.6518,20.6568,0.0],[-78.6518,20.6543,0.0],[-78.6549,20.6576,0.1179],[-78.6657,20.6604,0.4287],[-78.6635,20.6635,0.0],[-78.6657,20.6643,0.0],[-78.6665,20.6629,0.3378],[-78.6685,20.6654,0.0],[-78.684,20.6632,0.1271],[-78.6874,20.659,0.0],[-78.6937,20.6563,0.3246],[-78.699,20.6574,0.0],[-78.6985,20.6593,0.0],[-78.7024,20.6579,0.4724],[-78.7012,20.661,0.0],[-78.7057,20.661,0.6455],[-78.7079,20.6646,0.3025],[-78.7104,20.6638,0.2452]]],
[[[-78.5796,20.6604,0.0],[-78.5801,20.6621,0.0747],[-78.5826,20.6624,0.0],[-78.5813,20.6599,0.0],[-78.5796,20.6604,0.0]]],
[[[-78.6454,20.6629,0.0],[-78.6457,20.6638,0.0],[-78.6485,20.6643,0.2442],[-78.6471,20.6626,0.0],[-78.6454,20.6629,0.0]]],
[[[-78.4485,20.6526,1.1208],[-78.4476,20.6543,0.9408],[-78.4518,20.6521,1.2158],[-78.451,20.6524,1.2158],[-78.4485,20.6526,1.1208]]],
[[[-78.3957,20.6563,0.646],[-78.3962,20.6582,0.2319],[-78.399,20.6576,0.0],[-78.3976,20.6537,0.0],[-78.3957,20.6563,0.646]]],
[[[-78.4793,20.6671,0.0],[-78.4788,20.6654,0.0],[-78.4762,20.669,0.0],[-78.4771,20.669,0.0],[-78.4793,20.6671,0.0]]],
[[[-78.454,20.6707,0.0],[-78.4587,20.671,0.0],[-78.4574,20.6682,0.0],[-78.4524,20.671,0.0],[-78.454,20.6707,0.0]]],
[[[-78.7196,20.6688,0.0],[-78.7226,20.6699,0.0],[-78.7237,20.6665,0.0],[-78.7199,20.6665,0.0],[-78.7168,20.6643,0.0],[-78.7171,20.6699,0.0],[-78.7196,20.6688,0.0]]],
[[[-78.6571,20.6668,0.0],[-78.6576,20.669,0.0],[-78.6637,20.6688,0.0],[-78.6607,20.6676,0.0],[-78.661,20.6657,0.0],[-78.6571,20.6668,0.0]]],
[[[-78.6624,20.674,0.0],[-78.666,20.6743,0.0951],[-78.6674,20.6712,0.0],[-78.6588,20.6724,0.1491],[-78.6624,20.674,0.0]]],
[[[-78.6707,20.6729,0.1739],[-78.6701,20.6751,0.0],[-78.6732,20.6738,0.0],[-78.6735,20.6721,0.176],[-78.6715,20.6721,0.1739],[-78.6707,20.6729,0.1739]]],
[[[-78.4207,20.676,1.7522],[-78.4232,20.6774,0.0],[-78.4262,20.6746,1.0069],[-78.4229,20.6699,0.704],[-78.4235,20.6674,1.8222],[-78.4254,20.6682,0.4732],[-78.4257,20.6671,0.4732],[-78.4229,20.6654,0.0],[-78.4196,20.666,2.8335],[-78.4212,20.6688,2.1453],[-78.4171,20.6754,0.0],[-78.4176,20.6765,1.7873],[-78.4207,20.676,1.7522]]],
[[[-78.4604,20.6715,0.0],[-78.4587,20.6726,0.8288],[-78.459,20.674,0.0],[-78.4615,20.6735,0.0],[-78.4604,20.6715,0.0]]],
[[[-78.4779,20.6762,0.0],[-78.4768,20.6779,0.0],[-78.4799,20.6768,0.0],[-78.4796,20.676,0.0],[-78.4779,20.6762,0.0]]],
[[[-78.4685,20.6771,1.4986],[-78.4674,20.6765,0.0],[-78.4671,20.6793,0.0],[-78.4701,20.6782,0.0],[-78.4685,20.6771,1.4986]]],
[[[-78.6507,20.664,0.0],[-78.649,20.664,0.2442],[-78.6485,20.6657,0.0],[-78.6515,20.6651,0.0],[-78.6507,20.664,0.0]]],
[[[-78.4974,20.6721,0.0],[-78.4987,20.6735,0.0],[-78.5001,20.6726,0.0],[-78.4976,20.671,0.0],[-78.4974,20.6721,0.0]]],
[[[-78.5088,20.686,0.0],[-78.5082,20.6838,0.0],[-78.5057,20.6838,0.0],[-78.5057,20.6871,0.0],[-78.5088,20.686,0.0]]],
[[[-78.5137,20.6901,0.0],[-78.5137,20.6918,0.0],[-78.5182,20.6918,0.0],[-78.5174,20.6896,0.0],[-78.5137,20.6901,0.0]]],
[[[-78.6774,20.6732,0.0],[-78.6754,20.679,0.0],[-78.6782,20.6774,0.0],[-78.681,20.6782,0.0],[-78.6793,20.676,0.0],[-78.6779,20.6765,0.3345],[-78.6787,20.6749,0.0],[-78.6774,20.6732,0.0]]],
[[[-78.6832,20.6799,0.0],[-78.6821,20.679,0.0],[-78.6821,20.6815,0.0],[-78.684,20.6815,0.0],[-78.6832,20.6799,0.0]]],
[[[-78.7251,20.7049,0.7217],[-78.7262,20.704,0.0],[-78.7279,20.7054,0.0],[-78.7279,20.7035,0.1408],[-78.7301,20.7032,0.2139],[-78.7301,20.7007,0.0],[-78.7432,20.6971,0.4207],[-78.749,20.7015,0.0],[-78.7499,20.6985,0.7708],[-78.7513,20.6988,0.0],[-78.7524,20.6968,0.8521],[-78.7529,20.6901,1.2203],[-78.7504,20.686,1.0635],[-78.7521,20.681,0.6544],[-78.751,20.6779,0.1628],[-78.7482,20.6782,0.7582],[-78.7476,20.6757,0.0],[-78.7429,20.6721,1.1833],[-78.7399,20.6743,0.5044],[-78.7351,20.6746,0.834],[-78.7301,20.6707,1.0128],[-78.7293,20.6679,0.0],[-78.726,20.6668,0.0],[-78.7249,20.6671,0.0],[-78.7254,20.671,0.0],[-78.7218,20.6732,0.0],[-78.7232,20.6738,0.0],[-78.7224,20.6762,0.1233],[-78.7243,20.6765,0.1049],[-78.7254,20.6738,0.4193],[-78.7279,20.6746,0.0],[-78.7268,20.6757,0.0],[-78.7279,20.6768,0.0],[-78.7288,20.6749,0.1098],[-78.7301,20.6751,0.1098],[-78.7318,20.6779,0.0],[-78.7357,20.676,0.3164],[-78.7376,20.6804,0.0],[-78.7354,20.6829,0.1],[-78.7321,20.6824,0.0],[-78.7318,20.684,0.0],[-78.7332,20.6851,0.0],[-78.7363,20.6835,0.1],[-78.7368,20.6851,0.0],[-78.7432,20.6857,0.0],[-78.7451,20.6846,0.862],[-78.7468,20.6896,0.1365],[-78.741,20.691,0.0],[-78.7399,20.6949,0.0],[-78.7349,20.6965,0.1485],[-78.7312,20.6999,0.1207],[-78.7251,20.699,0.0],[-78.726,20.7029,0.6902],[-78.7235,20.7043,0.0],[-78.7251,20.7049,0.7217]]],
[[[-78.7226,20.6871,0.247],[-78.7218,20.691,0.0],[-78.7279,20.689,0.0],[-78.724,20.6879,0.247],[-78.7251,20.6832,0.1571],[-78.7235,20.6824,0.0],[-78.7213,20.6854,0.0],[-78.7226,20.6871,0.247]]],
[[[-78.6815,20.6885,0.0],[-78.681,20.6899,0.418],[-78.6865,20.6899,0.0],[-78.6851,20.6871,0.0],[-78.6815,20.6885,0.0]]],
[[[-78.7501,20.7071,0.0],[-78.7507,20.7043,0.4017],[-78.7496,20.704,0.4017],[-78.7487,20.7071,0.0],[-78.7501,20.7071,0.0]]],
[[[-78.7432,20.7068,0.0],[-78.7432,20.7085,0.0],[-78.7451,20.709,0.0],[-78.7479,20.7054,0.0],[-78.7468,20.7051,0.0],[-78.7432,20.7068,0.0]]],
[[[-78.7221,20.7088,0.3294],[-78.7215,20.7104,0.0],[-78.7237,20.711,0.0896],[-78.7268,20.7071,0.0],[-78.7221,20.706,0.1599],[-78.7237,20.7079,0.0],[-78.7221,20.7088,0.3294]]],
[[[-78.6771,20.7085,0.0],[-78.6757,20.7074,0.8425],[-78.6757,20.7101,2.1181],[-78.6779,20.7101,1.487],[-78.6771,20.7085,0.0]]],
[[[-78.7382,20.709,0.0],[-78.7365,20.7101,0.0],[-78.7368,20.7126,0.0719],[-78.741,20.7124,0.0],[-78.7429,20.7085,0.0],[-78.7407,20.7076,0.0],[-78.7382,20.709,0.0]]],
[[[-78.7193,20.7132,0.5561],[-78.7207,20.7149,0.6972],[-78.7237,20.714,0.8937],[-78.7179,20.7082,0.0],[-78.7179,20.711,0.0],[-78.7193,20.7132,0.5561]]],
[[[-78.7249,20.7118,0.0],[-78.7282,20.7129,0.453],[-78.7282,20.7113,0.2399],[-78.7251,20.7107,0.0],[-78.7249,20.7118,0.0]]],
[[[-78.679,20.7126,0.0],[-78.6774,20.7124,2.2876],[-78.6762,20.7138,0.0],[-78.6787,20.714,0.0],[-78.679,20.7126,0.0]]],
[[[-78.6729,20.7218,0.0],[-78.6718,20.7224,0.0],[-78.6726,20.7237,0.0],[-78.6757,20.7224,0.0],[-78.6754,20.7215,0.0],[-78.6729,20.7218,0.0]]],
[[[-78.8157,20.7521,0.0],[-78.8171,20.754,0.0],[-78.8199,20.7535,1.275],[-78.8226,20.7501,2.2336],[-78.8229,20.7468,0.0],[-78.8104,20.7326,0.646],[-78.8054,20.7321,0.6588],[-78.8065,20.7296,0.0],[-78.8029,20.7257,0.2439],[-78.8007,20.7254,0.0],[-78.7999,20.7276,1.8476],[-78.7985,20.7265,0.0],[-78.7988,20.724,0.0],[-78.7968,20.7249,0.0],[-78.791,20.7215,0.0],[-78.784,20.7213,0.5609],[-78.7807,20.7193,0.4174],[-78.7782,20.7207,0.1782],[-78.7763,20.7271,0.0739],[-78.7746,20.7274,0.0],[-78.7746,20.7243,0.0],[-78.7726,20.724,0.1119],[-78.7693,20.7279,0.0],[-78.7657,20.724,0.0],[-78.7663,20.7207,0.0],[-78.764,20.7221,0.0],[-78.761,20.7215,0.4162],[-78.7607,20.7204,0.3398],[-78.7671,20.7179,0.2551],[-78.7715,20.7179,0.1422],[-78.7724,20.7204,0.2232],[-78.7774,20.7207,0.0831],[-78.7832,20.716,0.0],[-78.7829,20.7121,0.3054],[-78.7799,20.7093,0.0],[-78.7754,20.709,4.7681],[-78.7724,20.7054,0.0],[-78.7699,20.7093,0.7437],[-78.7637,20.7099,0.0],[-78.759,20.7132,0.0],[-78.7585,20.7176,0.0],[-78.7562,20.7171,0.0],[-78.756,20.724,0.0],[-78.7599,20.7282,0.1914],[-78.7588,20.7304,0.0],[-78.7615,20.7318,0.0],[-78.761,20.734,0.0],[-78.7651,20.7365,0.0],[-78.7654,20.7393,0.0],[-78.7726,20.7385,0.0763],[-78.7787,20.7357,0.1104],[-78.7796,20.7329,0.0729],[-78.786,20.7318,0.0],[-78.7899,20.7263,0.1195],[-78.7929,20.7268,0.4185],[-78.7937,20.7282,0.0],[-78.7965,20.7279,2.6186],[-78.7971,20.7299,0.9073],[-78.7937,20.7318,0.0],[-78.7924,20.7387,0.3389],[-78.789,20.741,0.0],[-78.7887,20.744,0.0],[-78.7904,20.7415,0.2795],[-78.794,20.7412,0.07],[-78.7951,20.7396,0.0794],[-78.7946,20.7326,0.0],[-78.7965,20.7315,0.4225],[-78.7965,20.7335,0.1149],[-78.799,20.7335,0.6432],[-78.8015,20.7376,0.1507],[-78.8004,20.7435,0.2739],[-78.8029,20.7443,0.0],[-78.8057,20.741,0.4597],[-78.8074,20.7418,0.0461],[-78.8065,20.7382,0.3938],[-78.8093,20.7379,0.585],[-78.8157,20.7521,0.0]]],
[[[-78.6663,20.7349,2.3066],[-78.6726,20.7363,1.5856],[-78.6754,20.7337,1.9508],[-78.6776,20.7343,0.0],[-78.6782,20.7321,0.9434],[-78.6765,20.7296,0.0],[-78.6746,20.7296,0.0],[-78.6715,20.7346,0.0],[-78.6649,20.7343,2.3066],[-78.6663,20.7349,2.3066]]],
[[[-78.6946,20.744,1.8401],[-78.6957,20.746,1.73],[-78.6979,20.7463,2.6574],[-78.7007,20.744,0.0],[-78.701,20.7412,0.0],[-78.6976,20.7412,0.0],[-78.6946,20.744,1.8401]]],
[[[-78.7838,20.7479,0.3749],[-78.7882,20.7493,0.0],[-78.7871,20.7465,0.0],[-78.784,20.7451,0.0],[-78.7854,20.7432,0.0],[-78.7829,20.7421,0.0],[-78.7801,20.7468,0.0],[-78.784,20.7457,0.1528],[-78.7838,20.7479,0.3749]]],
[[[-78.8085,20.7529,0.1728],[-78.8074,20.7524,0.0],[-78.8071,20.754,0.0],[-78.8132,20.7538,0.0],[-78.8112,20.7521,0.0],[-78.8107,20.7482,0.0],[-78.8096,20.7488,0.081],[-78.8085,20.7529,0.1728]]],
[[[-78.7924,20.7538,0.0],[-78.7976,20.7546,0.0],[-78.7962,20.7515,0.0],[-78.7988,20.7488,0.0],[-78.791,20.7496,0.0],[-78.7924,20.7538,0.0]]],
[[[-78.8221,20.7721,0.0],[-78.8243,20.7738,0.0],[-78.8293,20.7726,0.2757],[-78.8296,20.7679,0.1015],[-78.8329,20.7671,0.0],[-78.8376,20.7621,0.0],[-78.8379,20.7588,1.1948],[-78.8351,20.754,2.1514],[-78.8307,20.754,0.4842],[-78.8288,20.7557,0.0],[-78.8288,20.7615,0.0],[-78.8204,20.7682,0.0],[-78.8221,20.7721,0.0]]],
[[[-78.8321,20.769,0.2267],[-78.8329,20.7715,0.2535],[-78.8349,20.7715,0.318],[-78.8346,20.7685,0.0],[-78.8321,20.769,0.2267]]],
[[[-78.8535,20.7796,0.0],[-78.8549,20.7804,0.0581],[-78.8543,20.7824,0.0],[-78.8562,20.7824,0.0],[-78.8571,20.7785,0.3497],[-78.8593,20.7768,0.5012],[-78.8579,20.7696,0.0],[-78.8507,20.7651,0.0],[-78.8432,20.7635,0.0],[-78.8437,20.766,2.2306],[-78.8407,20.7718,0.0],[-78.8429,20.7735,0.3894],[-78.841,20.774,0.0],[-78.8418,20.7774,0.1744],[-78.8443,20.7771,0.0],[-78.8479,20.7799,0.2509],[-78.8499,20.7787,0.4253],[-78.8535,20.7796,0.0]]],
[[[-78.929,20.7932,0.0],[-78.9285,20.7954,0.9747],[-78.9351,20.7938,0.8289],[-78.934,20.7924,0.7654],[-78.929,20.7932,0.0]]],
[[[-78.9229,20.7971,1.5346],[-78.9221,20.7993,0.7197],[-78.9249,20.799,0.0],[-78.9254,20.7949,0.0],[-78.9249,20.7949,0.0],[-78.9229,20.7971,1.5346]]],
[[[-78.9257,20.8299,1.1742],[-78.9268,20.8318,0.2748],[-78.9307,20.8318,1.102],[-78.9329,20.8296,1.5322],[-78.9407,20.8285,1.6947],[-78.9437,20.8257,3.1123],[-78.946,20.8213,5.5158],[-78.9443,20.8151,1.857],[-78.9449,20.8068,1.205],[-78.9496,20.8029,1.0302],[-78.954,20.8046,0.0],[-78.956,20.8026,0.0],[-78.9543,20.7993,1.5156],[-78.9507,20.7993,3.2889],[-78.9482,20.7971,4.8581],[-78.9488,20.7946,0.0],[-78.9421,20.7918,0.0],[-78.9382,20.7946,0.9744],[-78.9407,20.7949,2.0368],[-78.941,20.7985,1.8408],[-78.9379,20.801,0.0],[-78.9401,20.8046,0.0],[-78.9424,20.8051,0.8089],[-78.9413,20.8074,0.0],[-78.9429,20.8082,0.0],[-78.9429,20.8146,1.3015],[-78.9396,20.8185,0.0],[-78.9365,20.8182,0.0],[-78.936,20.8201,0.0],[-78.9374,20.821,0.0],[-78.9429,20.8176,0.6259],[-78.9432,20.821,0.7098],[-78.941,20.8218,0.0],[-78.9399,20.8249,0.2994],[-78.9382,20.824,0.2994],[-78.9351,20.8254,1.159],[-78.9337,20.8238,0.0],[-78.9324,20.8254,0.0],[-78.9313,20.8213,0.0],[-78.9282,20.821,0.3189],[-78.9257,20.8254,0.0],[-78.9274,20.8285,0.0],[-78.9257,20.829,1.1742],[-78.9226,20.8282,1.231],[-78.9221,20.8235,0.0],[-78.9196,20.8249,0.5377],[-78.9229,20.8201,0.36],[-78.9179,20.8185,0.0],[-78.9179,20.816,0.726],[-78.9199,20.8154,0.0],[-78.9212,20.811,0.0],[-78.919,20.8096,0.0],[-78.9187,20.8065,0.0],[-78.9171,20.8071,0.2308],[-78.9168,20.8029,0.4756],[-78.9085,20.8001,0.0],[-78.9065,20.8021,0.372],[-78.906,20.7999,0.0],[-78.9004,20.7982,0.0],[-78.8976,20.7999,0.1681],[-78.8954,20.799,0.0],[-78.8954,20.8018,0.3919],[-78.8921,20.7993,0.0],[-78.8907,20.8018,0.0],[-78.8887,20.8004,0.2822],[-78.8907,20.799,0.0812],[-78.8876,20.7962,0.1398],[-78.8812,20.7979,0.2775],[-78.8796,20.7968,0.3784],[-78.8815,20.7962,0.1736],[-78.8812,20.7935,0.4359],[-78.8851,20.794,0.0],[-78.8818,20.7932,0.4359],[-78.8818,20.7918,0.2908],[-78.8846,20.7904,0.1619],[-78.8851,20.7868,0.0843],[-78.8896,20.7818,0.1894],[-78.8918,20.7829,0.0],[-78.8921,20.786,0.0],[-78.8899,20.7921,0.0],[-78.8929,20.7904,0.0],[-78.8929,20.786,0.0],[-78.8949,20.7846,0.0888],[-78.8971,20.786,0.0],[-78.8982,20.7826,0.2402],[-78.9013,20.7824,0.0],[-78.9026,20.7804,3.246],[-78.9101,20.7835,0.1692],[-78.9149,20.7835,1.729],[-78.9199,20.7882,0.5527],[-78.9229,20.7888,0.0],[-78.9221,20.7871,0.7095],[-78.9257,20.7871,0.0],[-78.9385,20.7929,0.6481],[-78.9399,20.7915,0.0],[-78.9365,20.7885,0.0],[-78.9238,20.7857,2.3426],[-78.9104,20.7779,0.214],[-78.9046,20.7779,2.4192],[-78.8882,20.7735,0.0],[-78.8838,20.776,2.4688],[-78.8746,20.7735,0.5307],[-78.8693,20.7701,0.0],[-78.8676,20.7735,0.7533],[-78.8679,20.7785,0.0],[-78.8701,20.7818,0.5322],[-78.8699,20.7882,0.0],[-78.8721,20.7907,0.0],[-78.8726,20.7871,0.0],[-78.876,20.786,0.0],[-78.8776,20.794,0.9403],[-78.8718,20.7965,0.4387],[-78.8685,20.7926,0.0],[-78.8679,20.7849,0.0],[-78.866,20.7838,0.114],[-78.8671,20.7785,0.0],[-78.864,20.7763,0.0],[-78.8615,20.7774,0.0],[-78.8551,20.786,0.7195],[-78.8521,20.7849,0.0],[-78.8521,20.7835,0.0],[-78.8493,20.7849,0.0],[-78.8504,20.789,0.0],[-78.8535,20.7899,0.0],[-78.8562,20.7882,0.1222],[-78.8562,20.7901,0.1647],[-78.8599,20.791,0.0],[-78.8565,20.7946,0.0],[-78.8587,20.7982,0.0],[-78.861,20.7979,0.1343],[-78.8615,20.7993,0.0],[-78.8649,20.7979,0.4248],[-78.874,20.8015,0.1207],[-78.8821,20.8029,0.0789],[-78.8851,20.8015,0.0],[-78.8879,20.8035,0.1463],[-78.8949,20.8032,0.6041],[-78.8968,20.8046,0.0],[-78.899,20.8026,0.7051],[-78.9021,20.8049,0.3511],[-78.9085,20.8032,0.0],[-78.9099,20.806,0.0],[-78.9151,20.8043,0.0],[-78.9146,20.8082,0.0],[-78.9171,20.8085,0.2308],[-78.9182,20.8115,0.0],[-78.9132,20.8179,0.0],[-78.9129,20.8251,0.6151],[-78.9174,20.8296,0.0],[-78.9257,20.8299,1.1742]]],
[[[-78.9235,20.8151,0.0],[-78.9226,20.8174,0.0],[-78.9229,20.8182,0.0],[-78.9254,20.8165,0.2212],[-78.9235,20.8151,0.0]]],
[[[-78.9271,20.8188,0.4219],[-78.9265,20.8207,0.0],[-78.9293,20.8193,0.0],[-78.9282,20.8185,0.0],[-78.9271,20.8188,0.4219]]],
[[[-78.679,20.7632,1.0878],[-78.6824,20.7649,0.2395],[-78.6851,20.7638,0.0],[-78.6854,20.7621,0.0],[-78.6843,20.7601,0.0],[-78.6735,20.756,0.5387],[-78.6729,20.7574,0.0],[-78.6751,20.7593,0.6236],[-78.6679,20.7576,0.2598],[-78.6687,20.7621,0.0],[-78.6765,20.7604,0.6236],[-78.679,20.7632,1.0878]]],
[[[-78.6615,20.7724,2.4723],[-78.6593,20.7735,0.9317],[-78.6574,20.7796,1.9876],[-78.6612,20.779,0.4517],[-78.6649,20.7749,2.0463],[-78.6762,20.7749,0.7282],[-78.6732,20.7738,0.6573],[-78.6735,20.7721,0.9719],[-78.6762,20.7729,0.6561],[-78.6751,20.7699,0.0],[-78.6707,20.7713,1.6773],[-78.664,20.7707,0.6696],[-78.6615,20.7724,2.4723]]],
[[[-78.7571,20.7974,4.1675],[-78.7579,20.7996,0.7489],[-78.7626,20.7999,0.9474],[-78.7649,20.7985,0.7488],[-78.7651,20.7968,0.0],[-78.7624,20.7988,0.9474],[-78.7588,20.7971,4.1675],[-78.7579,20.7932,1.9545],[-78.7604,20.7899,4.1789],[-78.7618,20.7904,0.0],[-78.7663,20.7871,0.0],[-78.766,20.7857,0.4564],[-78.7565,20.7879,0.0],[-78.7551,20.7932,5.027],[-78.7571,20.7974,4.1675]]],
[[[-78.8238,21.0454,0.0],[-78.8243,21.049,0.0],[-78.8257,21.049,0.0],[-78.8254,21.046,0.0],[-78.8276,21.0446,0.0],[-78.8254,21.044,0.0],[-78.8238,21.0454,0.0]]],
[[[-79.1999,21.0154,3.2617],[-79.2057,21.0165,1.8418],[-79.2176,21.0157,0.0],[-79.2187,21.0135,1.4149],[-79.2296,21.0099,0.7451],[-79.2304,21.0057,0.0],[-79.2251,20.9993,0.6846],[-79.2229,20.9993,1.7644],[-79.2162,20.994,2.1319],[-79.2135,20.9893,0.0],[-79.214,20.9868,0.0],[-79.2035,20.9804,0.0],[-79.1954,20.9796,1.3842],[-79.1924,20.9768,0.0],[-79.1893,20.9768,0.0],[-79.181,20.9721,0.7363],[-79.1771,20.9732,0.0],[-79.1771,20.9749,1.1947],[-79.1807,20.9793,0.0],[-79.1826,20.9904,0.0],[-79.1849,20.9935,0.0],[-79.1799,20.9921,0.0],[-79.1779,20.9979,1.7395],[-79.1729,20.999,1.0285],[-79.1704,20.9929,1.6021],[-79.1665,20.9918,0.0],[-79.1596,20.9849,0.0],[-79.1574,20.979,0.0],[-79.1521,20.9782,0.6577],[-79.1479,20.9751,2.8536],[-79.1468,20.966,0.5432],[-79.1432,20.9626,0.4992],[-79.144,20.9551,0.0],[-79.1338,20.9538,1.1775],[-79.1338,20.9501,0.0],[-79.1321,20.9482,0.0],[-79.1263,20.9496,0.0],[-79.1257,20.9385,0.0],[-79.1174,20.9387,0.0],[-79.1143,20.9312,0.0],[-79.1018,20.9287,0.739],[-79.1029,20.9224,0.0],[-79.1054,20.9193,0.0],[-79.1096,20.9185,1.357],[-79.1118,20.9232,0.0],[-79.1146,20.9257,0.0],[-79.1196,20.9265,1.5763],[-79.1207,20.9285,0.0],[-79.1174,20.9312,0.5308],[-79.1179,20.9335,0.3984],[-79.1165,20.9346,0.0],[-79.1188,20.9385,0.0],[-79.1229,20.9338,0.0],[-79.1285,20.9346,0.0],[-79.1385,20.9463,0.0],[-79.1413,20.9463,0.3188],[-79.1462,20.9515,0.3799],[-79.1535,20.9554,1.8245],[-79.1549,20.9618,0.0],[-79.1576,20.9638,0.0],[-79.1576,20.966,0.0],[-79.1648,20.9752,2.3219],[-79.1671,20.9771,0.0],[-79.1724,20.9757,0.8782],[-79.1707,20.9699,0.0],[-79.1649,20.9668,0.0],[-79.1604,20.9626,0.5822],[-79.1582,20.9576,0.8969],[-79.1543,20.9549,0.0],[-79.1507,20.9463,0.0],[-79.1487,20.9479,2.5016],[-79.146,20.944,0.0],[-79.1354,20.9376,3.1972],[-79.1288,20.9296,1.7067],[-79.1299,20.9271,0.0],[-79.124,20.924,1.5599],[-79.1229,20.9218,0.0],[-79.1188,20.9226,4.5375],[-79.1176,20.9165,0.0],[-79.1107,20.909,1.9617],[-79.1068,20.9079,0.0],[-79.1051,20.909,1.8756],[-79.1007,20.9043,0.0],[-79.096,20.9043,0.7263],[-79.0946,20.9021,0.0],[-79.0915,20.9043,1.9674],[-79.0871,20.904,2.115],[-79.0818,20.8996,1.8286],[-79.0813,20.8971,0.7803],[-79.0768,20.8988,2.572],[-79.0732,20.8965,0.0],[-79.0701,20.901,2.0],[-79.0721,20.9079,1.2254],[-79.0818,20.911,0.9815],[-79.0824,20.9135,2.8416],[-79.081,20.9154,0.0],[-79.0824,20.9168,0.0],[-79.086,20.9143,0.5416],[-79.0899,20.9143,0.0],[-79.0921,20.9162,0.0],[-79.0921,20.9193,0.0],[-79.0888,20.9224,0.5594],[-79.0857,20.9218,0.0],[-79.0782,20.9138,0.0],[-79.076,20.9149,0.0],[-79.0724,20.914,0.8851],[-79.069,20.9096,0.0],[-79.0646,20.9079,0.9394],[-79.0649,20.9049,0.0],[-79.0618,20.903199999999998,0.0],[-79.0546,20.9037,0.7972],[-79.0565,20.8999,0.0],[-79.0549,20.8979,1.5588],[-79.0576,20.8951,1.1906],[-79.0671,20.9001,1.3817],[-79.071,20.899,0.593],[-79.0726,20.8899,0.0],[-79.0685,20.8874,0.0],[-79.0682,20.8857,0.0],[-79.0646,20.8874,1.8146],[-79.0554,20.8865,2.4455],[-79.0554,20.8715,1.9547],[-79.0526,20.8685,0.0],[-79.0368,20.864,3.3149],[-79.0346,20.8587,0.0],[-79.031,20.8576,1.0306],[-79.0279,20.8543,0.0],[-79.0196,20.8532,0.0],[-79.0151,20.8507,2.2014],[-79.0107,20.851,1.5593],[-79.0013,20.846,1.171],[-78.9929,20.8465,2.0452],[-78.9868,20.8432,3.8407],[-78.9851,20.840699999999998,4.0775],[-78.9818,20.8404,0.0],[-78.9774,20.8351,0.0],[-78.9749,20.8346,0.0],[-78.9654,20.8404,1.374],[-78.9646,20.8468,1.3704],[-78.9674,20.8513,5.0125],[-78.9687,20.8621,0.0],[-78.9665,20.8688,2.4741],[-78.9638,20.8679,1.9085],[-78.9654,20.8713,2.0353],[-78.9699,20.8704,10.4274],[-78.9751,20.8743,0.0],[-78.9954,20.8726,1.7907],[-79.0029,20.874,0.0],[-79.0199,20.8857,0.0],[-79.0254,20.8876,1.6272],[-79.0299,20.8935,0.0],[-79.0376,20.8929,1.1213],[-79.0429,20.8988,0.0],[-79.0471,20.9007,0.0],[-79.0507,20.9068,0.0],[-79.0576,20.9057,0.3538],[-79.0615,20.9068,1.82],[-79.0629,20.9099,0.7892],[-79.0674,20.9107,0.0],[-79.0701,20.9149,0.0],[-79.0724,20.9146,0.8851],[-79.0849,20.9238,0.0],[-79.0912,20.924,0.0],[-79.1026,20.9321,0.0],[-79.1074,20.9338,0.248],[-79.1074,20.936,0.2116],[-79.116,20.9426,0.0],[-79.1196,20.9504,0.0],[-79.1354,20.9649,0.0],[-79.1432,20.9749,0.0],[-79.1526,20.9818,1.2396],[-79.1537,20.9846,0.0],[-79.1574,20.9857,0.0],[-79.1571,20.9871,0.0],[-79.164,20.9951,0.0],[-79.176,21.0038,0.0],[-79.1807,21.0001,2.406],[-79.1832,21.0021,0.0],[-79.1826,20.9985,2.2034],[-79.1849,20.9974,0.0],[-79.1868,21.0043,0.0],[-79.1826,21.0068,0.0],[-79.1824,21.0104,0.0],[-79.1885,21.0143,0.4491],[-79.1999,21.0154,3.2617]]],
[[[-78.8254,20.969,0.0],[-78.8265,20.9718,0.423],[-78.8276,20.9707,0.0],[-78.8268,20.9665,0.0],[-78.8246,20.9671,0.0],[-78.8254,20.969,0.0]]],
[[[-78.8271,20.9724,0.3851],[-78.8265,20.974,0.0],[-78.8282,20.9746,0.0],[-78.8285,20.9724,0.3851],[-78.8271,20.9724,0.3851]]],
[[[-78.9376,20.9754,0.0],[-78.9396,20.9768,0.0],[-78.9421,20.9732,0.3924],[-78.9407,20.9729,0.3924],[-78.9376,20.9754,0.0]]],
[[[-78.9999,20.9999,0.0],[-78.9999,21.0001,0.0],[-79.0001,21.0001,0.0],[-79.0001,20.9999,0.0],[-78.9999,20.9999,0.0]]],
[[[-78.9943,21.0362,0.0],[-78.9954,21.0385,0.0],[-78.9971,21.0374,1.0155],[-78.9949,21.0357,0.0],[-78.9943,21.0362,0.0]]],
[[[-78.8321,21.0399,0.69],[-78.8346,21.0413,0.0],[-78.8351,21.041,0.0],[-78.831,21.0374,0.0],[-78.8321,21.0399,0.69]]],
[[[-78.9829,21.0449,0.6579],[-78.9863,21.0462,0.3055],[-78.9932,21.0441,0.5024],[-78.9938,21.0413,0.0],[-78.9907,21.0443,1.3103],[-78.9887,21.0401,1.9854],[-78.9915,21.0365,1.1355],[-78.9912,21.0346,0.5215],[-78.9846,21.0393,0.0],[-78.9851,21.0438,1.1148],[-78.9829,21.0449,0.6579]]],
[[[-79.3024,21.0488,0.0],[-79.3057,21.0493,0.0],[-79.3074,21.0479,0.0],[-79.2949,21.0354,0.0],[-79.2921,21.0351,0.0],[-79.2899,21.039,0.0],[-79.2894,21.0449,1.0],[-79.2865,21.0476,0.4227],[-79.3024,21.0488,0.0]]],
[[[-79.3101,21.0462,0.0],[-79.3112,21.0479,1.0519],[-79.3138,21.0479,0.8526],[-79.3118,21.0421,2.9842],[-79.3087,21.0407,1.2448],[-79.309,21.0443,1.5842],[-79.3071,21.0457,1.5628],[-79.3101,21.0462,0.0]]],
[[[-78.8393,21.0426,0.5637],[-78.8374,21.0429,0.5637],[-78.8379,21.0465,0.7715],[-78.8401,21.0454,1.7453],[-78.8393,21.0426,0.5637]]],
[[[-79.2821,21.0499,1.2855],[-79.2815,21.0521,0.0],[-79.2879,21.0504,1.4673],[-79.2857,21.0479,0.9222],[-79.2821,21.0499,1.2855]]],
[[[-78.8271,21.0521,0.778],[-78.8276,21.0549,0.0874],[-78.8301,21.0529,0.0315],[-78.8299,21.0521,0.0315],[-78.8271,21.0521,0.778]]],
[[[-78.9607,21.0621,0.0],[-78.9604,21.0637,0.0],[-78.9638,21.0635,0.9186],[-78.9662,21.0582,0.6365],[-78.9618,21.0565,0.0],[-78.9607,21.0621,0.0]]],
[[[-79.3468,21.0699,0.0],[-79.3493,21.071,0.0],[-79.3412,21.0557,3.1822],[-79.3337,21.0546,1.6976],[-79.3299,21.0557,2.603],[-79.3171,21.0524,0.0],[-79.3196,21.0554,2.0999],[-79.329,21.0565,1.1198],[-79.3326,21.0588,0.1306],[-79.3362,21.0565,1.9813],[-79.3346,21.0596,1.2025],[-79.3424,21.0635,1.9658],[-79.3468,21.0699,0.0]]],
[[[-78.9504,21.0624,0.0],[-78.9524,21.0635,0.8101],[-78.9546,21.0618,0.0],[-78.9504,21.0615,0.0],[-78.9504,21.0624,0.0]]],
[[[-78.4612,20.7304,0.1194],[-78.4618,20.7326,0.0],[-78.4643,20.7301,0.0],[-78.4671,20.731,0.0],[-78.4682,20.7276,0.4218],[-78.4715,20.726,0.2114],[-78.4704,20.7201,0.5852],[-78.4726,20.7174,0.7444],[-78.4646,20.7135,0.0],[-78.4604,20.715699999999998,0.5963],[-78.4632,20.716,0.6282],[-78.4612,20.7204,0.2013],[-78.4638,20.7196,0.4468],[-78.4643,20.724,0.623],[-78.4624,20.7243,0.5799],[-78.4607,20.7221,0.4099],[-78.4579,20.7232,0.3611],[-78.4571,20.7218,0.0],[-78.4563,20.7254,0.0],[-78.4587,20.7287,0.4012],[-78.4618,20.7287,0.1309],[-78.4612,20.7304,0.1194]]],
[[[-78.4132,20.7301,0.0],[-78.4126,20.7318,0.3784],[-78.4157,20.7315,0.2337],[-78.4199,20.7296,0.6474],[-78.4204,20.7276,1.0113],[-78.4221,20.729,0.0],[-78.4235,20.7265,0.9067],[-78.4268,20.7296,0.0],[-78.4293,20.7293,0.2629],[-78.4301,20.7276,0.2044],[-78.4282,20.7279,0.9746],[-78.4265,20.7246,0.393],[-78.4304,20.7226,0.5393],[-78.4313,20.7313,0.2319],[-78.4324,20.7315,0.1962],[-78.4357,20.7232,1.0095],[-78.4371,20.7237,0.2763],[-78.4362,20.7276,0.0],[-78.4421,20.7274,0.0],[-78.4421,20.7243,0.2],[-78.4388,20.7251,0.0],[-78.439,20.7224,0.0],[-78.4418,20.7207,0.4183],[-78.4424,20.7224,0.0],[-78.4446,20.7226,0.2604],[-78.4446,20.7207,0.2963],[-78.439,20.7176,0.1713],[-78.4354,20.7193,0.9275],[-78.4343,20.7171,0.8183],[-78.4301,20.7171,0.6667],[-78.4296,20.7221,0.611],[-78.426,20.724,0.393],[-78.4185,20.7249,0.4954],[-78.4096,20.7171,0.3245],[-78.4121,20.7207,1.3295],[-78.4068,20.7257,0.0],[-78.4068,20.7274,0.0],[-78.4085,20.7304,0.0],[-78.4121,20.7293,0.0],[-78.4132,20.7301,0.0]]],
[[[-78.401,20.7329,0.0],[-78.4046,20.734,0.0],[-78.4035,20.7315,0.0],[-78.4051,20.7282,0.5585],[-78.404,20.7271,0.5585],[-78.4004,20.7279,0.0],[-78.401,20.7304,0.0],[-78.4029,20.7296,0.2223],[-78.401,20.7329,0.0]]],
[[[-78.4218,20.7321,0.5627],[-78.424,20.7329,0.1292],[-78.4246,20.7301,0.2842],[-78.4226,20.7307,0.0],[-78.4235,20.7324,0.5627],[-78.4218,20.7321,0.5627]]],
[[[-78.4924,20.7337,0.0],[-78.491,20.7326,0.0757],[-78.4887,20.7349,0.0],[-78.4918,20.7349,0.0],[-78.4924,20.7337,0.0]]],
[[[-78.6407,20.7743,0.1396],[-78.6429,20.7754,0.3921],[-78.6462,20.7701,0.6579],[-78.6496,20.7693,0.0],[-78.651,20.7663,0.3493],[-78.6501,20.7638,0.0],[-78.6562,20.759,0.5495],[-78.659,20.7601,0.2499],[-78.6582,20.7618,0.0],[-78.6612,20.761,0.0],[-78.6624,20.7588,0.0],[-78.6674,20.7596,0.1279],[-78.6674,20.7579,0.2598],[-78.6632,20.7571,1.5049],[-78.6618,20.7551,0.0],[-78.6579,20.7568,0.3399],[-78.654,20.754,0.3413],[-78.6515,20.7499,0.6689],[-78.6543,20.7465,0.452],[-78.6526,20.7399,0.0],[-78.6501,20.7351,0.0],[-78.6449,20.7326,0.2585],[-78.6418,20.7276,0.0],[-78.6354,20.7343,0.0],[-78.6346,20.7374,0.0],[-78.6368,20.7374,0.0],[-78.639,20.7324,0.2823],[-78.6413,20.7329,0.8278],[-78.6418,20.736,0.0],[-78.6438,20.7354,0.184],[-78.6462,20.7387,1.7484],[-78.6451,20.7435,0.0],[-78.6504,20.7451,0.6155],[-78.6396,20.7449,0.0],[-78.6376,20.749,0.0],[-78.6426,20.7482,0.8085],[-78.6429,20.7499,0.7616],[-78.6415,20.7499,0.0],[-78.6415,20.7518,0.4029],[-78.639,20.7507,0.0],[-78.6396,20.7529,0.3916],[-78.6374,20.7518,0.0],[-78.6335,20.7585,0.0],[-78.636,20.7593,0.3244],[-78.6326,20.7649,0.0],[-78.6332,20.7674,0.0],[-78.639,20.7676,0.3159],[-78.6418,20.766,0.2727],[-78.6415,20.7632,0.3883],[-78.6371,20.7621,0.4583],[-78.6382,20.7588,0.5848],[-78.6365,20.7585,0.099],[-78.6371,20.7568,0.8595],[-78.6407,20.7579,0.3083],[-78.6401,20.7607,0.0],[-78.6424,20.7579,0.3482],[-78.6485,20.7604,0.334],[-78.6487,20.764,0.4984],[-78.6432,20.7646,0.0],[-78.6435,20.7701,0.0],[-78.6393,20.7721,0.0],[-78.6396,20.7751,0.0],[-78.6407,20.7743,0.1396]]],
[[[-78.5038,20.7729,0.0],[-78.5051,20.776,0.0],[-78.5085,20.7751,0.0],[-78.5062,20.7721,0.3379],[-78.4996,20.751,0.141],[-78.4957,20.7474,0.3481],[-78.4954,20.744,0.5351],[-78.4912,20.7418,0.0],[-78.4904,20.7504,0.6879],[-78.4885,20.7499,0.0],[-78.4882,20.7512,0.0],[-78.4924,20.7543,1.104],[-78.4918,20.7562,0.1974],[-78.4957,20.7588,0.0],[-78.4974,20.7582,0.867],[-78.5007,20.7663,0.476],[-78.504,20.769,0.6624],[-78.5024,20.7713,0.5196],[-78.5038,20.7729,0.0]]],
[[[-78.6599,20.7632,0.224],[-78.6585,20.7626,0.224],[-78.6585,20.7654,1.2842],[-78.6615,20.7654,0.2563],[-78.6615,20.7646,0.2563],[-78.6599,20.7632,0.224]]],
[[[-78.6307,20.7943,0.2696],[-78.6301,20.7962,0.5161],[-78.6326,20.7965,2.4609],[-78.6346,20.7938,0.4216],[-78.6318,20.7935,0.0],[-78.6307,20.7943,0.2696]]],
[[[-78.631,20.7996,0.0],[-78.6312,20.8021,0.0],[-78.6324,20.8024,0.0],[-78.6329,20.799,0.0],[-78.631,20.7996,0.0]]],
[[[-78.6265,20.8401,0.2092],[-78.6276,20.8454,0.217],[-78.6288,20.8454,0.217],[-78.629,20.841,0.701],[-78.6315,20.8382,0.8581],[-78.6321,20.841,0.0],[-78.6343,20.8412,0.0],[-78.6354,20.8376,0.5134],[-78.6399,20.8376,0.6663],[-78.641,20.8412,0.235],[-78.6426,20.8415,0.6927],[-78.6465,20.8393,0.524],[-78.6479,20.8357,0.8326],[-78.6479,20.8335,0.2756],[-78.6457,20.8324,0.5827],[-78.6413,20.834,0.0827],[-78.6332,20.8312,0.0947],[-78.6301,20.8243,0.0],[-78.6307,20.8221,0.0],[-78.6296,20.8224,0.0],[-78.631,20.8204,0.0],[-78.6304,20.8157,0.0],[-78.6329,20.8146,0.0],[-78.6304,20.8121,0.6348],[-78.6254,20.8185,0.2286],[-78.6204,20.8182,0.0],[-78.6196,20.8226,0.1956],[-78.6193,20.8304,0.0683],[-78.6218,20.8312,0.405],[-78.6215,20.8346,0.2453],[-78.6257,20.8368,0.699],[-78.6265,20.8401,0.2092]]],
[[[-78.651,21.1896,0.1889],[-78.6521,21.1921,0.0],[-78.6535,21.1913,0.6654],[-78.6521,21.1815,0.0],[-78.6501,21.1857,0.8347],[-78.651,21.1896,0.1889]]],
[[[-78.7688,21.0537,0.4452],[-78.7712,21.0551,0.2315],[-78.7732,21.051,0.5297],[-78.776,21.0504,0.0],[-78.7715,21.0476,0.4983],[-78.7701,21.0449,0.2807],[-78.7654,21.0485,0.6116],[-78.7665,21.0529,0.184],[-78.7688,21.0537,0.4452]]],
[[[-78.8313,21.0615,0.6435],[-78.8351,21.0624,0.0],[-78.8313,21.0557,0.3965],[-78.8335,21.0565,0.3538],[-78.8371,21.0549,0.1816],[-78.8343,21.0521,0.6594],[-78.8374,21.0488,0.0],[-78.8357,21.0471,0.792],[-78.8288,21.046,0.0],[-78.8285,21.0471,0.0],[-78.8296,21.0499,0.2871],[-78.8329,21.0507,0.5981],[-78.8346,21.0549,0.3772],[-78.8307,21.0535,0.0315],[-78.8307,21.0557,0.7617],[-78.8274,21.056,0.1746],[-78.8218,21.051,0.1375],[-78.8221,21.0476,0.0356],[-78.8196,21.0488,0.0316],[-78.8163,21.0537,0.0],[-78.8132,21.0546,0.0],[-78.8129,21.0565,0.4644],[-78.8146,21.0571,0.0],[-78.821,21.0535,0.3891],[-78.8207,21.0554,0.2361],[-78.8246,21.0574,0.249],[-78.8257,21.0613,0.4985],[-78.829,21.059,0.0],[-78.8313,21.0615,0.6435]]],
[[[-78.7262,21.111,0.3143],[-78.7271,21.1121,0.0],[-78.7301,21.1101,1.771],[-78.7324,21.1118,0.5657],[-78.7385,21.1085,0.252],[-78.7418,21.1013,0.7703],[-78.7332,21.1015,0.1407],[-78.7321,21.0982,0.0],[-78.7304,21.0982,0.0],[-78.7301,21.1021,0.1297],[-78.7288,21.1021,0.1297],[-78.7274,21.0963,0.0],[-78.7146,21.0929,0.6718],[-78.7124,21.0896,0.0],[-78.7093,21.0885,0.2053],[-78.7082,21.0857,0.2562],[-78.7057,21.0851,0.0],[-78.7012,21.0807,0.0],[-78.7007,21.0838,0.0],[-78.7046,21.0874,0.2266],[-78.7121,21.0996,0.195],[-78.714,21.1001,1.0303],[-78.7132,21.1021,0.0],[-78.7262,21.111,0.3143]]],
[[[-78.7354,21.0963,0.0],[-78.7376,21.0985,0.5542],[-78.739,21.0965,0.0],[-78.7363,21.0949,0.0],[-78.7318,21.0968,0.0],[-78.7343,21.0974,0.0],[-78.7354,21.0963,0.0]]],
[[[-78.8362,21.0637,0.0],[-78.8365,21.0649,0.0],[-78.8421,21.0657,0.0],[-78.8421,21.0646,0.0],[-78.8362,21.0637,0.0]]],
[[[-78.9538,21.0824,0.0],[-78.9571,21.0835,0.4429],[-78.9635,21.0788,0.0],[-78.9643,21.0757,0.0],[-78.9615,21.0754,0.0],[-78.9582,21.0818,0.6359],[-78.9563,21.0796,0.5639],[-78.9529,21.0801,0.8611],[-78.954,21.0779,0.5582],[-78.9488,21.076,0.1542],[-78.9488,21.0665,0.5359],[-78.9501,21.0649,0.9433],[-78.949,21.064,0.9433],[-78.946,21.0676,0.0],[-78.9476,21.0693,1.0199],[-78.9454,21.071,0.0],[-78.9463,21.076,0.0],[-78.9476,21.0762,0.9035],[-78.9463,21.0782,0.0],[-78.9476,21.0812,0.2861],[-78.9507,21.0807,0.4846],[-78.9538,21.0824,0.0]]],
[[[-79.3276,21.0801,0.0],[-79.3271,21.0818,0.4113],[-79.3304,21.0807,0.0],[-79.3301,21.0801,0.0],[-79.3276,21.0801,0.0]]],
[[[-79.3618,21.1251,0.7588],[-79.376,21.1249,1.5964],[-79.3924,21.1188,1.8141],[-79.3846,21.1087,0.0],[-79.3812,21.1107,2.4947],[-79.3796,21.1076,0.8185],[-79.3746,21.1079,1.2091],[-79.3707,21.1051,0.0],[-79.3679,21.0985,0.0],[-79.3657,21.0987,2.497],[-79.3637,21.0951,0.0],[-79.3579,21.0932,0.0],[-79.3549,21.086,1.242],[-79.3535,21.0885,0.0],[-79.3557,21.090699999999998,0.0],[-79.3549,21.0954,0.0],[-79.3521,21.096,0.5735],[-79.3496,21.0888,0.4711],[-79.3482,21.089,0.4711],[-79.3479,21.0915,0.0],[-79.3457,21.0915,0.0],[-79.3468,21.094,0.0],[-79.3501,21.0938,1.0248],[-79.3504,21.0982,2.5668],[-79.3479,21.1013,0.6409],[-79.3429,21.1018,0.0],[-79.3393,21.1063,3.4109],[-79.3362,21.1049,1.6424],[-79.3374,21.1013,0.0],[-79.331,21.1026,1.993],[-79.3301,21.1001,1.4952],[-79.3321,21.0954,0.0],[-79.3362,21.0974,0.0],[-79.3404,21.0921,1.24],[-79.3437,21.0926,0.0],[-79.344,21.0901,0.0],[-79.3382,21.0874,0.6199],[-79.3349,21.0949,0.0],[-79.3307,21.0951,1.5985],[-79.3299,21.091,0.5926],[-79.3254,21.0915,0.4468],[-79.3232,21.0871,0.0],[-79.3243,21.0807,0.0],[-79.3149,21.0749,0.0],[-79.3143,21.0713,1.8915],[-79.3157,21.0685,1.0864],[-79.3226,21.0699,0.0],[-79.3254,21.0685,1.4731],[-79.3301,21.069,0.0],[-79.3304,21.0679,2.2186],[-79.3337,21.069,0.4782],[-79.3362,21.074,1.2966],[-79.3321,21.0804,0.2568],[-79.3346,21.0799,1.0262],[-79.3343,21.0824,0.3134],[-79.3357,21.0829,0.0],[-79.3446,21.0743,0.0],[-79.3379,21.0674,1.7874],[-79.3257,21.0649,0.0],[-79.3265,21.0635,0.0],[-79.316,21.0657,1.851],[-79.3065,21.0626,0.0],[-79.3043,21.0637,1.7191],[-79.3049,21.0615,0.0],[-79.3026,21.0571,0.764],[-79.2996,21.0579,0.0],[-79.3004,21.0596,1.4358],[-79.2982,21.0621,1.1683],[-79.2949,21.0629,0.0],[-79.2962,21.0601,0.0],[-79.2899,21.0551,0.5445],[-79.2899,21.0535,0.3069],[-79.2954,21.0529,0.0],[-79.2962,21.0507,0.0],[-79.2907,21.0526,1.394],[-79.2885,21.0513,0.0],[-79.2793,21.0549,0.0],[-79.2804,21.0646,1.4033],[-79.2843,21.0696,1.1491],[-79.2835,21.0732,0.0],[-79.2951,21.0779,0.2844],[-79.2993,21.0849,0.4623],[-79.3046,21.0871,2.1558],[-79.3043,21.0915,0.0],[-79.3079,21.096,0.0],[-79.3157,21.1015,0.826],[-79.3215,21.1029,1.2664],[-79.3293,21.1076,0.0],[-79.346,21.1096,0.968],[-79.3479,21.1129,0.5518],[-79.3538,21.1154,2.5489],[-79.3576,21.1224,0.0],[-79.3618,21.1251,0.7588]]],
[[[-79.4385,21.1262,0.7004],[-79.4421,21.1276,0.0],[-79.4454,21.1218,0.5029],[-79.4526,21.1196,0.0],[-79.4437,21.1085,0.2871],[-79.4362,21.106,0.7251],[-79.4351,21.1043,0.716],[-79.4246,21.1046,0.3182],[-79.4229,21.1015,0.0],[-79.4104,21.104,0.2273],[-79.4013,21.0987,0.0],[-79.3996,21.0999,0.0],[-79.4021,21.101,0.7046],[-79.4013,21.1063,0.6561],[-79.4007,21.1046,0.0],[-79.3985,21.1046,0.0],[-79.3979,21.1024,0.3939],[-79.3957,21.1037,0.4239],[-79.3946,21.1101,0.0],[-79.4024,21.1115,0.3281],[-79.4068,21.1171,0.0],[-79.4088,21.116,0.0],[-79.4071,21.1199,0.0],[-79.4085,21.1232,0.0],[-79.4246,21.1243,0.0],[-79.4235,21.1207,0.0],[-79.426,21.1188,0.0],[-79.4262,21.1154,0.0],[-79.4246,21.1151,0.0],[-79.4243,21.1126,0.0],[-79.4265,21.1107,0.0],[-79.4313,21.1096,0.0],[-79.4324,21.1124,0.0],[-79.4413,21.1129,0.1681],[-79.4435,21.1193,0.0],[-79.441,21.1165,0.0],[-79.4401,21.1207,0.5538],[-79.4368,21.1226,1.1553],[-79.431,21.1232,0.1923],[-79.4287,21.1215,0.0],[-79.426,21.1218,0.0],[-79.4268,21.1243,0.0],[-79.4337,21.1243,0.2705],[-79.4385,21.1262,0.7004]]],
[[[-79.4465,21.1279,0.4415],[-79.4568,21.1285,0.0],[-79.4546,21.1257,1.3497],[-79.4546,21.1207,1.1602],[-79.4465,21.1224,0.6823],[-79.4443,21.1271,0.0],[-79.4465,21.1279,0.4415]]],
[[[-79.0476,21.1913,0.7086],[-79.0493,21.1943,0.0],[-79.0537,21.1932,0.0],[-79.0535,21.1921,0.0],[-79.0499,21.1926,0.0],[-79.0488,21.1907,0.7086],[-79.0476,21.1913,0.7086]]],
[[[-79.0415,21.1985,1.039],[-79.041,21.2032,0.0],[-79.0432,21.2013,0.0],[-79.0424,21.196,1.1506],[-79.0387,21.1943,0.0],[-79.0387,21.1963,0.0],[-79.0415,21.1985,1.039]]]]}}