{"type": "Feature","id": "5110","bbox": [-62.62637,17.13836,-62.57862,17.18913],"geometry": {"type": "Polygon","coordinates": [[[-62.57862,17.1455,533.2217],[-62.59549,17.17729,194.7214],[-62.61255,17.18913,30.9069],[-62.61864,17.18281,4.4344],[-62.62637,17.14069,23.4811],[-62.59678,17.13836,254.5042],[-62.57862,17.1455,533.2217]]]}
,"properties": {"ISO3166-1-Alpha-3": "KNA","country": "Saint Kitts and Nevis","fill": "#000","name": "Saint Thomas Lowland","area_km2": 18.00978,"hist_schema_id": "Elevation0-9000","hist_area_km2": {"0": 0.22284,"25": 1.64091,"50": 1.86373,"75": 1.6409,"100": 1.35729,"125": 1.21549,"150": 1.21549,"175": 1.05343,"200": 0.87112,"225": 0.74956,"250": 0.62802,"275": 0.5875,"300": 0.46596,"325": 0.36466,"350": 0.3444,"375": 0.42544,"400": 0.20259,"425": 0.3444,"450": 0.22285,"475": 0.22285,"500": 0.22285,"525": 0.22285,"550": 0.18233,"575": 0.22285,"600": 0.20259,"625": 0.1013,"650": 0.16207,"675": 0.06078,"700": 0.1013,"725": 0.28363,"750": 0.1013,"775": 0.1013,"800": 0.04052,"825": 0.12155,"850": 0.02026,"875": 0.06078,"900": 0.02026,"925": 0.06078,"950": 0.06078,"975": 0.02026}}}