{"type": "Feature","bbox": [-62.6299,17.1423,-62.5834,17.1968],"geometry": {"type": "MultiPolygon","coordinates": [[[[-62.614,17.1968,13.2449],[-62.6188,17.1915,0.0],[-62.6179,17.189,2.194],[-62.6193,17.1851,2.8777],[-62.624,17.1801,4.3049],[-62.6282,17.1715,2.0832],[-62.6296,17.1576,1.352],[-62.6279,17.1482,1.7427],[-62.6299,17.1442,1.8438],[-62.6085,17.1423,137.598],[-62.6019,17.1439,221.2122],[-62.5834,17.1535,818.4697],[-62.6004,17.1819,129.3915],[-62.614,17.1968,13.2449]]]]}
,"properties": {"GID_1": "KNA.12_1","GID_0": "KNA","country": "SaintKittsandNevis","province": "SaintThomasLowland","VARNAME_1": "NA","NL_NAME_1": "NA","TYPE_1": "Parish","ENGTYPE_1": "Parish","CC_1": "NA","HASC_1": "KN.TL","ISO_1": "NA","name": "Saint_Thomas_Lowland.province","area_km2": 18.21186,"hist_schema_id": "Elevation0-9000","hist_area_km2": {"0": 2.16758,"25": 2.71448,"50": 1.8637,"75": 1.66113,"100": 1.29648,"125": 1.29649,"150": 1.07367,"175": 0.89136,"200": 0.72929,"225": 0.58749,"250": 0.4862,"275": 0.46595,"300": 0.3444,"325": 0.26336,"350": 0.2431,"375": 0.32414,"400": 0.12155,"425": 0.28362,"450": 0.18233,"475": 0.12155,"500": 0.12155,"525": 0.10129,"550": 0.10129,"575": 0.14181,"600": 0.12156,"625": 0.04052,"650": 0.12155,"700": 0.06078,"725": 0.18233,"750": 0.06078,"825": 0.04052}}}