{"type":"Feature","properties":{"GID_2":"MTQ.3.7_1","GID_0":"MTQ","country":"Martinique","GID_1":"MTQ.3_1","province":"LeTrinité","NL_NAME_1":"NA","county":"LeRobert","VARNAME_2":"NA","NL_NAME_2":"NA","TYPE_2":"Commune","ENGTYPE_2":"Commune","CC_2":"NA","HASC_2":"MQ.TR.RO","name":"Le_Robert.county"},
"geometry":{"type": "MultiPolygon","coordinates": [[[[-60.9492,14.6315,248.3477],[-60.9359,14.6283,102.1306],[-60.9098,14.6547,38.0604],[-60.9065,14.6548,52.0048],[-60.9033,14.6485,0.0],[-60.9018,14.649,0.0],[-60.9015,14.6518,0.0],[-60.8963,14.6479,0.0],[-60.8951,14.6504,0.0],[-60.8901,14.6496,0.0],[-60.8893,14.6554,7.7069],[-60.8854,14.6524,0.0],[-60.8851,14.6579,0.0],[-60.8826,14.6585,0.0],[-60.8818,14.6646,28.5107],[-60.8835,14.6663,5.6174],[-60.891,14.6657,0.0],[-60.8921,14.6646,0.0],[-60.8913,14.6601,5.5539],[-60.8937,14.6596,4.8453],[-60.8946,14.6615,2.54],[-60.8982,14.6615,5.5151],[-60.8968,14.6654,0.0],[-60.9004,14.6654,0.0],[-60.9024,14.6635,15.0312],[-60.9029,14.6665,2.3112],[-60.906,14.6671,0.0],[-60.9068,14.6638,0.0],[-60.9087,14.6629,3.079],[-60.9107,14.6663,6.8994],[-60.916,14.6643,2.2634],[-60.9204,14.6568,1.4952],[-60.9254,14.654,0.0],[-60.9296,14.6549,0.2019],[-60.9351,14.6649,14.6587],[-60.9424,14.6682,9.0889],[-60.9426,14.6724,2.2928],[-60.9385,14.674,0.0],[-60.936,14.6829,2.449],[-60.9349,14.6815,0.0],[-60.9332,14.6821,2.2332],[-60.9304,14.6779,0.0],[-60.926,14.679,3.8723],[-60.9243,14.6776,0.0],[-60.9238,14.6796,0.0],[-60.9287,14.6829,0.0],[-60.9271,14.6876,5.1764],[-60.9251,14.6888,12.8571],[-60.9207,14.6871,1.3101],[-60.9182,14.6907,1.1677],[-60.9129,14.6913,0.2721],[-60.9115,14.6874,3.6231],[-60.9082,14.6907,10.9159],[-60.9076,14.6946,8.5988],[-60.901,14.6951,0.0],[-60.9001,14.6996,0.0],[-60.9029,14.7001,6.8678],[-60.9004,14.7029,1.9953],[-60.9099,14.6996,10.0894],[-60.9151,14.7046,1.3705],[-60.9129,14.7065,2.6682],[-60.9154,14.7088,0.0],[-60.9135,14.7157,0.0],[-60.9165,14.7146,15.9466],[-60.9176,14.7157,0.5789],[-60.9207,14.7099,5.5578],[-60.924,14.7088,9.5852],[-60.9296,14.7074,0.0],[-60.9335,14.7103,6.7931],[-60.9376,14.7097,23.4257],[-60.9757,14.6988,190.0435],[-60.9817,14.6915,217.4509],[-60.9518,14.6448,150.9549],[-60.9492,14.6315,248.3477]]],
[[[-60.9087,14.6849,6.663],[-60.9087,14.6876,0.0],[-60.9099,14.6879,0.0],[-60.9115,14.684,2.4908],[-60.9087,14.6849,6.663]]],
[[[-60.8987,14.6868,2.8039],[-60.9018,14.6874,0.0],[-60.9024,14.6857,0.0],[-60.9001,14.6846,0.0],[-60.8987,14.6868,2.8039]]],
[[[-60.8821,14.6713,5.579],[-60.884,14.6713,0.0],[-60.8835,14.669,0.0],[-60.8812,14.6696,0.0],[-60.8821,14.6713,5.579]]],
[[[-60.8829,14.6885,15.4341],[-60.8846,14.689,3.4162],[-60.8835,14.6854,0.0],[-60.8821,14.6857,10.5798],[-60.8829,14.6885,15.4341]]],
[[[-60.8876,14.696,13.0013],[-60.896,14.6954,5.1062],[-60.8982,14.6968,0.0],[-60.8957,14.694,23.0143],[-60.8921,14.6929,1.5825],[-60.8907,14.6899,1.1046],[-60.8887,14.6899,0.0],[-60.8882,14.6921,19.6435],[-60.8865,14.6913,1.8707],[-60.8826,14.6929,12.1117],[-60.8793,14.6918,0.0],[-60.8799,14.6935,5.4175],[-60.8876,14.696,13.0013]]]]}}