{"type": "Feature","bbox": [-73.5643,18.336,-73.3246,18.4523],"geometry": {"type": "MultiPolygon","coordinates": [[[[-73.4312,18.3442,810.6525],[-73.4184,18.3414,943.9186],[-73.4094,18.3429,787.2415],[-73.4045,18.3475,711.8253],[-73.4011,18.3459,719.6646],[-73.3858,18.347,319.3301],[-73.363,18.3452,278.5847],[-73.3571,18.3423,147.167],[-73.3506,18.3453,146.2172],[-73.3364,18.3693,199.3897],[-73.3352,18.368,206.2768],[-73.333,18.3699,201.5916],[-73.3307,18.3692,202.1629],[-73.3314,18.3777,291.8974],[-73.3394,18.3865,318.9354],[-73.3257,18.3986,269.9722],[-73.3246,18.4013,246.3002],[-73.326,18.411,151.6941],[-73.3385,18.411,61.6269],[-73.3424,18.4142,90.4928],[-73.3436,18.4102,57.7522],[-73.35,18.4086,85.5633],[-73.3559,18.4136,58.8857],[-73.3594,18.4144,60.8459],[-73.361,18.4125,76.4625],[-73.3585,18.4072,95.3117],[-73.3633,18.4062,63.1357],[-73.3649,18.4027,78.801],[-73.3706,18.4011,90.1838],[-73.3702,18.3963,94.7161],[-73.3726,18.3968,99.9257],[-73.3734,18.4002,73.0598],[-73.376,18.4022,115.5011],[-73.3773,18.4014,74.485],[-73.3758,18.3967,123.1961],[-73.3767,18.3953,97.3379],[-73.3837,18.3983,81.1304],[-73.3852,18.3945,98.0799],[-73.3877,18.3966,114.199],[-73.3878,18.402,88.5844],[-73.3921,18.4022,90.9777],[-73.3931,18.4056,96.7416],[-73.3947,18.4039,93.8022],[-73.4012,18.4088,126.2206],[-73.403,18.4063,98.1742],[-73.4088,18.4082,97.2185],[-73.4039,18.4111,98.3912],[-73.4088,18.4117,124.6391],[-73.4092,18.4141,112.6515],[-73.4043,18.4166,228.1953],[-73.4038,18.419,266.5438],[-73.4121,18.4245,289.662],[-73.4131,18.4292,209.0413],[-73.4118,18.4333,154.438],[-73.4089,18.4359,148.2083],[-73.4004,18.4398,131.6967],[-73.399,18.4416,137.9731],[-73.3994,18.4446,128.4121],[-73.4024,18.4467,139.1705],[-73.4171,18.4452,256.0857],[-73.423,18.4507,469.8852],[-73.4302,18.4523,416.2012],[-73.4359,18.4495,483.081],[-73.4507,18.4462,497.3434],[-73.4454,18.4403,383.2502],[-73.4448,18.4364,286.8161],[-73.4421,18.4346,269.4446],[-73.4424,18.4325,264.5576],[-73.4455,18.4316,293.8476],[-73.4472,18.4161,226.6332],[-73.4491,18.4147,211.5607],[-73.4488,18.4083,201.3896],[-73.4445,18.4016,259.0471],[-73.4443,18.3969,164.7292],[-73.4461,18.3932,140.1109],[-73.4508,18.3914,146.4539],[-73.4522,18.3857,154.9186],[-73.4566,18.3844,167.5637],[-73.4594,18.3807,169.797],[-73.4631,18.3794,176.3388],[-73.4639,18.3814,178.2128],[-73.4693,18.3837,205.4792],[-73.4697,18.3867,200.5257],[-73.4723,18.3891,232.5638],[-73.4784,18.3876,226.1479],[-73.4843,18.3801,257.4754],[-73.4887,18.3783,248.7446],[-73.4906,18.3814,279.0648],[-73.4994,18.3821,295.822],[-73.5014,18.3841,326.2002],[-73.5133,18.3837,331.3143],[-73.5181,18.3878,375.5646],[-73.5252,18.3857,397.2762],[-73.5357,18.3871,435.9954],[-73.5386,18.3845,475.8293],[-73.5418,18.3736,506.0827],[-73.543,18.3757,565.4875],[-73.5462,18.3753,563.7446],[-73.5549,18.3699,454.0576],[-73.5572,18.3583,636.0804],[-73.5563,18.3497,830.6975],[-73.5643,18.3465,547.4626],[-73.5643,18.3444,634.0874],[-73.5615,18.3472,545.4474],[-73.5546,18.336,877.4631],[-73.5045,18.3364,1250.2327],[-73.4932,18.338,1204.6482],[-73.4894,18.3406,1216.5042],[-73.4821,18.3422,1150.9215],[-73.4718,18.3406,1203.6052],[-73.4704,18.3375,1064.5156],[-73.4588,18.3378,1092.8838],[-73.4416,18.3407,907.3442],[-73.4312,18.3442,810.6525]]]]}
,"properties": {"GID_3": "HTI.4.1.3_1","GID_0": "HTI","country": "Haiti","GID_1": "HTI.4_1","province": "Nippes","NL_NAME_1": "NA","GID_2": "HTI.4.1_1","county": "l'Anse-à-Veau","NL_NAME_2": "NA","city": "L'Azile","VARNAME_3": "NA","NL_NAME_3": "NA","TYPE_3": "Commune","ENGTYPE_3": "Commune","CC_3": "NA","HASC_3": "NA","name": "L'Azile.city","area_km2": 157.6276,"hist_schema_id": "Elevation0-9000","hist_area_km2": {"50": 0.4426,"75": 1.0662,"100": 1.7301,"125": 7.7259,"150": 10.7239,"175": 11.7098,"200": 14.4663,"225": 13.9231,"250": 9.5769,"275": 8.6516,"300": 7.4042,"325": 6.8006,"350": 5.4726,"375": 4.2051,"400": 3.8832,"425": 3.159,"450": 3.1188,"475": 2.8774,"500": 2.636,"525": 2.7165,"550": 2.1733,"575": 2.1532,"600": 1.7709,"625": 1.8111,"650": 2.113,"675": 2.0929,"700": 1.8715,"725": 1.8916,"750": 1.5093,"775": 1.4892,"800": 2.0124,"825": 1.4087,"850": 1.4489,"875": 1.2477,"900": 1.288,"925": 1.3282,"950": 1.0062,"975": 0.9056,"1000": 0.7446,"1025": 0.9056,"1050": 0.8654,"1075": 0.7044,"1100": 0.644,"1125": 0.4025,"1150": 0.644,"1175": 0.3019,"1200": 0.3019,"1225": 0.1409,"1275": 0.0604,"1300": 0.0403,"1325": 0.0403,"1350": 0.0201}}}