{"type":"Feature","properties":{"GID_2":"CUB.15.6_1","GID_0":"CUB","country":"Cuba","GID_1":"CUB.15_1","province":"SantiagodeCuba","NL_NAME_1":"NA","county":"SantiagodeCuba","VARNAME_2":"NA","NL_NAME_2":"NA","TYPE_2":"Municipio","ENGTYPE_2":"Municipality","CC_2":"NA","HASC_2":"CU.SC.SC","name":"Santiagode_Cuba.county"},
"geometry":{"type": "MultiPolygon","coordinates": [[[[-75.8743,19.9785,17.2684],[-75.8768,19.9779,0.0],[-75.8763,19.9754,1.6192],[-75.8735,19.976,0.0],[-75.8743,19.9785,17.2684]]],
[[[-75.3281,19.9167,30.1567],[-75.3474,19.9401,49.058],[-75.4168,20.001,106.8029],[-75.4343,20.0006,158.8382],[-75.4739,20.0052,255.5533],[-75.4899,20.0122,438.0549],[-75.4902,20.0111,425.0917],[-75.5243,20.0366,296.0957],[-75.5448,20.0462,230.3459],[-75.5824,20.0487,744.9963],[-75.5994,20.0543,499.4231],[-75.6283,20.0586,501.3094],[-75.6382,20.0808,323.5189],[-75.6416,20.1018,450.2242],[-75.6507,20.1284,243.9268],[-75.6621,20.1436,281.4051],[-75.7026,20.153,188.6592],[-75.7836,20.1531,177.1912],[-75.8004,20.1261,289.7917],[-75.8139,20.1121,302.7883],[-75.8287,20.0993,447.9544],[-75.8409,20.0934,355.2769],[-75.8629,20.0779,159.0621],[-75.9951,20.0794,210.7493],[-76.0371,20.094,318.3742],[-76.0473,20.0866,298.0079],[-76.0757,20.0313,625.0909],[-76.0731,19.9635,0.0],[-76.071,19.9624,0.4493],[-76.0574,19.9643,2.0817],[-76.0471,19.9629,0.0],[-76.0429,19.964,1.5791],[-76.021,19.9565,0.0],[-76.0163,19.9579,2.1281],[-76.0051,19.9554,0.0],[-76.0001,19.9557,0.3711],[-75.9949,19.9596,0.6393],[-75.9863,19.9615,0.0],[-75.9857,19.9596,0.0],[-75.9804,19.9568,0.0],[-75.9654,19.9554,0.0],[-75.9532,19.9596,0.6063],[-75.9515,19.9615,0.9743],[-75.949,19.9613,1.1376],[-75.9435,19.9651,0.0],[-75.939,19.9646,0.0],[-75.9382,19.965699999999998,5.2825],[-75.9374,19.9632,0.0],[-75.9362,19.9643,1.5504],[-75.9321,19.9635,0.0],[-75.9304,19.9654,0.7281],[-75.9157,19.9671,2.4697],[-75.9146,19.9676,0.0],[-75.9151,19.9704,0.0],[-75.9124,19.9685,0.0],[-75.9004,19.9699,0.0],[-75.8801,19.9679,0.0],[-75.874,19.969,0.0],[-75.8724,19.971,6.1718],[-75.8724,19.9746,1.9278],[-75.8779,19.974,1.6192],[-75.8804,19.981,2.3676],[-75.8887,19.9837,11.4909],[-75.8876,19.9857,7.6146],[-75.8851,19.9854,0.0],[-75.884,19.9901,0.0],[-75.8851,19.9921,18.885],[-75.8796,19.9915,0.0],[-75.8796,19.9932,1.1044],[-75.8829,19.9951,3.7371],[-75.8821,19.9996,1.6837],[-75.8793,19.9943,2.4414],[-75.8749,19.9951,5.1713],[-75.8763,19.991,0.0],[-75.8679,19.9938,0.0],[-75.8696,19.9988,4.5768],[-75.8668,20.0024,0.0],[-75.8679,20.0043,0.0],[-75.866,20.0063,0.7188],[-75.8662,20.0104,0.7541],[-75.8624,20.0107,1.7071],[-75.861,20.0157,0.7697],[-75.8632,20.0185,1.0741],[-75.866,20.0179,1.6164],[-75.8665,20.0218,0.0],[-75.8699,20.0221,0.0],[-75.8735,20.0274,2.3171],[-75.8651,20.0246,2.1201],[-75.8613,20.0204,0.0],[-75.8571,20.0199,0.3282],[-75.8535,20.0218,2.1389],[-75.8499,20.0215,1.8521],[-75.8457,20.0263,5.1561],[-75.841,20.0279,3.8832],[-75.8349,20.0254,4.4039],[-75.8365,20.0193,3.6592],[-75.8388,20.0193,0.0],[-75.8418,20.0154,0.0],[-75.8418,20.0124,1.0076],[-75.8463,20.0118,0.0],[-75.844,20.0093,2.0038],[-75.8468,20.0085,18.6329],[-75.8526,20.0021,0.0],[-75.8562,20.0012,1.4924],[-75.8657,19.9899,16.8193],[-75.8721,19.9885,4.8718],[-75.8749,19.986,1.1919],[-75.874,19.9829,0.0],[-75.8693,19.9843,0.7695],[-75.8721,19.9813,0.0],[-75.8704,19.9774,0.0],[-75.8671,19.9788,7.1467],[-75.8654,19.9835,0.0],[-75.8613,19.9851,0.0],[-75.8654,19.9815,9.6168],[-75.8665,19.9776,3.0447],[-75.8704,19.9757,0.0],[-75.8699,19.9662,0.0],[-75.8624,19.9643,2.9531],[-75.8579,19.9662,3.7453],[-75.8349,19.966,1.1439],[-75.8265,19.9676,10.7176],[-75.826,19.9643,0.0],[-75.8221,19.9599,0.0],[-75.7968,19.9621,13.8185],[-75.7843,19.9582,0.0],[-75.7624,19.9582,3.4158],[-75.7557,19.9554,0.0],[-75.7518,19.9501,0.0],[-75.7476,19.9496,0.0],[-75.736,19.9529,0.0],[-75.7351,19.9546,1.4121],[-75.729,19.9571,8.2226],[-75.704,19.9588,0.4327],[-75.7021,19.956,0.0],[-75.7024,19.9524,0.0],[-75.696,19.9415,0.0],[-75.6801,19.9363,0.0],[-75.6729,19.9387,0.0],[-75.6718,19.9324,1.439],[-75.6663,19.931,1.1186],[-75.6615,19.9318,0.0],[-75.6546,19.9254,0.0],[-75.6435,19.9238,2.6932],[-75.6407,19.9174,0.0],[-75.6365,19.9165,0.0],[-75.6343,19.9124,0.0],[-75.6293,19.9107,5.9786],[-75.6265,19.9057,0.0],[-75.614,19.9015,0.0],[-75.6121,19.8985,0.0],[-75.6082,19.8965,0.0],[-75.599,19.896,2.841],[-75.5957,19.8935,0.0],[-75.5785,19.8915,0.0],[-75.5768,19.8937,0.0],[-75.574,19.8913,0.0],[-75.5543,19.8888,5.6151],[-75.5393,19.8835,0.0],[-75.5276,19.884,0.0],[-75.5171,19.8879,0.0],[-75.5151,19.8865,0.0],[-75.5146,19.8835,0.0],[-75.506,19.8865,0.0],[-75.5015,19.8838,2.6338],[-75.4932,19.8824,0.0],[-75.4804,19.8838,0.0],[-75.479,19.886,1.3641],[-75.4737,19.8863,0.0],[-75.4713,19.8893,2.4836],[-75.4626,19.8868,0.0],[-75.4543,19.8913,0.0],[-75.4538,19.8979,0.2489],[-75.449,19.8999,0.0],[-75.4471,19.9026,1.0137],[-75.4404,19.904,1.3519],[-75.4379,19.9013,0.0],[-75.4382,19.899,0.0],[-75.4365,19.8996,1.7219],[-75.4337,19.8976,15.9601],[-75.4335,19.8954,0.0],[-75.431,19.8974,12.7742],[-75.4287,19.8937,0.0],[-75.4232,19.8924,2.3734],[-75.4229,19.8893,0.0],[-75.4163,19.8843,0.0],[-75.4074,19.8854,0.0],[-75.4049,19.8871,8.7632],[-75.3857,19.8849,0.0],[-75.3782,19.8863,1.7258],[-75.3732,19.8843,1.5463],[-75.3657,19.8863,19.095],[-75.3613,19.8846,4.3795],[-75.3615,19.881,0.0],[-75.3599,19.8793,0.0],[-75.3568,19.8801,13.5223],[-75.3565,19.8785,0.0],[-75.3463,19.8818,0.0],[-75.3407,19.8799,0.0],[-75.3385,19.8824,13.2379],[-75.331,19.881,6.3223],[-75.3257,19.8824,12.1494],[-75.3244,19.8988,17.7112],[-75.3281,19.9167,30.1567]]],
[[[-75.8554,20.0187,0.0],[-75.8551,20.0163,0.0],[-75.8538,20.0163,0.0],[-75.8549,20.0182,0.0],[-75.8554,20.0187,0.0]]]]}}