{"type": "Feature","bbox": [-74.1932,18.2512,-74.032,18.4075],"geometry": {"type": "MultiPolygon","coordinates": [[[[-74.1343,18.2639,5.2606],[-74.1296,18.2637,0.568],[-74.1249,18.2585,0.0],[-74.1154,18.2582,1.7183],[-74.1107,18.2532,0.0],[-74.1062,18.2512,1.5079],[-74.1024,18.2608,16.5251],[-74.0939,18.265,45.938],[-74.0965,18.2813,112.8879],[-74.1012,18.2863,98.88],[-74.1021,18.2901,108.9157],[-74.1006,18.2962,113.2086],[-74.1053,18.3008,131.6124],[-74.1056,18.3034,138.0098],[-74.0911,18.3163,239.586],[-74.0844,18.3269,308.4959],[-74.077,18.3233,372.1444],[-74.0683,18.3266,414.068],[-74.0622,18.3225,520.1599],[-74.0561,18.3239,512.9294],[-74.0515,18.3286,717.5717],[-74.0413,18.3305,1010.4657],[-74.0465,18.3386,966.5338],[-74.0435,18.3486,999.6783],[-74.0486,18.3558,1433.7437],[-74.0485,18.3605,1730.9434],[-74.0415,18.3636,1916.8567],[-74.032,18.3646,2195.334],[-74.041,18.3751,1438.6759],[-74.0407,18.379,1649.9641],[-74.0355,18.3874,2145.7559],[-74.047,18.3894,1913.3657],[-74.0582,18.4016,1098.9049],[-74.0642,18.4047,745.2783],[-74.0754,18.4051,1128.9192],[-74.0818,18.4075,1121.1294],[-74.1008,18.4027,1999.8523],[-74.1065,18.4034,1810.1443],[-74.107,18.3754,1244.8337],[-74.111,18.3686,809.0225],[-74.1147,18.3526,323.6294],[-74.1175,18.351,285.2361],[-74.1247,18.351,225.5569],[-74.1435,18.3419,250.0618],[-74.1477,18.3312,168.5974],[-74.1452,18.3287,193.1524],[-74.132,18.327,365.4751],[-74.1314,18.3232,467.014],[-74.1248,18.3162,596.2908],[-74.1346,18.3098,682.9712],[-74.1355,18.3027,377.0156],[-74.1474,18.3019,367.3546],[-74.1717,18.3041,419.2803],[-74.1738,18.3072,512.784],[-74.1932,18.2998,8.0823],[-74.1874,18.294,3.8102],[-74.1815,18.291,14.8882],[-74.181,18.2889,4.8254],[-74.1771,18.2877,4.0168],[-74.1727,18.2817,0.0],[-74.1679,18.2801,0.7048],[-74.1668,18.2729,0.0],[-74.1616,18.2726,6.536],[-74.1592,18.2698,0.0],[-74.1551,18.2684,0.0],[-74.1429,18.2674,18.9221],[-74.1399,18.264,0.0],[-74.1343,18.2639,5.2606]]]]}
,"properties": {"GID_3": "HTI.10.3.1_1","GID_0": "HTI","country": "Haiti","GID_1": "HTI.10_1","province": "Sud","NL_NAME_1": "NA","GID_2": "HTI.10.3_1","county": "lesChardonnières","NL_NAME_2": "NA","city": "Chardonnières","VARNAME_3": "NA","NL_NAME_3": "NA","TYPE_3": "Commune","ENGTYPE_3": "Commune","CC_3": "NA","HASC_3": "NA","name": "Chardonnières.city","area_km2": 115.26242,"hist_schema_id": "Elevation0-9000","hist_area_km2": {"0": 3.32201,"25": 4.20772,"50": 4.02651,"75": 3.32179,"100": 3.48277,"125": 3.32169,"150": 3.32165,"175": 3.01964,"200": 3.4423,"225": 2.97926,"250": 2.57659,"275": 2.01294,"300": 2.21406,"325": 1.79139,"350": 1.79133,"375": 1.77118,"400": 1.87176,"425": 1.63022,"450": 1.97234,"475": 1.81134,"500": 2.01259,"525": 1.67042,"550": 1.91193,"575": 2.07292,"600": 2.01253,"625": 1.95216,"650": 2.0125,"675": 1.77101,"700": 2.21376,"725": 1.63012,"750": 1.69047,"775": 1.28795,"800": 1.06658,"825": 1.40868,"850": 0.94579,"875": 0.86529,"900": 0.88541,"925": 0.8854,"950": 1.00612,"975": 0.92563,"1000": 0.7445,"1025": 0.74447,"1050": 0.5634,"1075": 0.54328,"1100": 0.80482,"1125": 0.82495,"1150": 0.82496,"1175": 0.80483,"1200": 1.02616,"1225": 1.10665,"1250": 0.90544,"1275": 0.88533,"1300": 1.30785,"1325": 1.10665,"1350": 1.08651,"1375": 1.18713,"1400": 1.16701,"1425": 1.10664,"1450": 1.00604,"1475": 0.7847,"1500": 0.86518,"1525": 0.64386,"1550": 0.72434,"1575": 1.00602,"1600": 0.62372,"1625": 0.84506,"1650": 0.54324,"1675": 0.58347,"1700": 0.84505,"1725": 0.64382,"1750": 0.96576,"1775": 0.62372,"1800": 0.84505,"1825": 0.76457,"1850": 0.28168,"1875": 0.34205,"1900": 0.18108,"1925": 0.24144,"1950": 0.22132,"1975": 0.16095,"2000": 0.14084,"2025": 0.12072,"2050": 0.10061,"2075": 0.08048,"2100": 0.08048,"2125": 0.1006,"2150": 0.04024}}}