{"type":"Feature","properties":{"GID_2":"CUB.1.6_1","GID_0":"CUB","country":"Cuba","GID_1":"CUB.1_1","province":"Camagüey","NL_NAME_1":"NA","county":"Jimaguayú","VARNAME_2":"NA","NL_NAME_2":"NA","TYPE_2":"Municipio","ENGTYPE_2":"Municipality","CC_2":"NA","HASC_2":"CU.CM.JI","name":"Jimaguayú.county"},
"geometry":{"type": "MultiPolygon","coordinates": [[[[-78.0969,21.1928,65.2279],[-78.1131,21.1688,55.1943],[-78.1419,21.1546,48.4887],[-78.1495,21.1469,41.5014],[-78.1513,21.0983,49.9621],[-78.1484,21.0818,42.9567],[-78.134,21.0685,47.1129],[-78.1068,21.0595,49.0274],[-78.0973,21.0588,50.0928],[-78.0903,21.0644,40.2147],[-78.0878,21.0819,44.3169],[-78.0791,21.1046,49.5],[-78.0664,21.1065,60.0726],[-78.0486,21.0955,51.9192],[-78.0097,21.134,77.3238],[-77.9859,21.1464,86.0465],[-77.9762,21.1458,84.6739],[-77.9177,21.1179,63.8247],[-77.9099,21.1162,68.2854],[-77.8998,21.1174,67.1295],[-77.8857,21.1229,72.6448],[-77.8672,21.1252,84.2965],[-77.8393,21.134,98.4916],[-77.8095,21.152,130.0162],[-77.7979,21.1637,112.2834],[-77.7954,21.1732,115.0927],[-77.7955,21.1992,129.2459],[-77.7908,21.2093,120.861],[-77.7444,21.2307,124.7999],[-77.7449,21.2501,151.392],[-77.7512,21.2655,114.6724],[-77.7543,21.2843,104.0911],[-77.7689,21.3153,108.5161],[-77.7889,21.326,104.6266],[-77.8205,21.3342,125.8568],[-77.8842,21.3048,100.1597],[-77.9067,21.3016,93.0498],[-77.9468,21.2878,87.1631],[-77.9674,21.2852,76.0014],[-78.0075,21.2714,78.073],[-78.0318,21.2677,88.6509],[-78.0494,21.2596,96.423],[-78.0602,21.2499,89.586],[-78.0692,21.2349,79.2717],[-78.0885,21.214,66.0788],[-78.0969,21.1928,65.2279]]]]}}