{"type": "Feature","bbox": [-66.3428,17.9126,-66.1662,18.0953],"geometry": {"type": "MultiPolygon","coordinates": [[[[-66.2899,17.9357,0.0],[-66.2929,17.936,0.4503],[-66.2929,17.9337,0.0],[-66.2896,17.9324,0.6813],[-66.2818,17.9332,0.0],[-66.2826,17.9346,0.0],[-66.2899,17.9357,0.0]]],
[[[-66.2976,17.9365,2.1063],[-66.2999,17.9368,0.0],[-66.3015,17.9343,0.4661],[-66.2965,17.934,0.5101],[-66.2976,17.9365,2.1063]]],
[[[-66.2657,17.9435,4.5166],[-66.2671,17.944,0.0],[-66.2696,17.944,0.0],[-66.2663,17.9415,0.0],[-66.2657,17.9435,4.5166]]],
[[[-66.2937,17.9546,2.7412],[-66.294,17.9574,0.0],[-66.2971,17.9562,1.9743],[-66.296,17.9496,0.0],[-66.2926,17.9485,0.0],[-66.2918,17.951,1.6246],[-66.2937,17.9546,2.7412]]],
[[[-66.2504,17.9207,0.0],[-66.254,17.9193,1.2111],[-66.2479,17.9151,0.0],[-66.2443,17.9157,0.5379],[-66.2393,17.9126,0.0],[-66.2365,17.9146,0.0],[-66.2337,17.9126,0.0],[-66.2251,17.9132,0.0],[-66.2254,17.9157,0.0],[-66.2285,17.9157,0.0],[-66.2299,17.9176,0.7709],[-66.2365,17.9165,0.6983],[-66.2396,17.9185,0.0],[-66.2482,17.9185,2.9327],[-66.2504,17.9207,0.0]]],
[[[-66.2615,17.9251,2.0645],[-66.2635,17.9257,0.0],[-66.2635,17.9232,0.0],[-66.2582,17.9215,0.0],[-66.2579,17.9226,0.5761],[-66.2615,17.9251,2.0645]]],
[[[-66.242,18.0772,343.7222],[-66.2576,18.0762,614.6557],[-66.2595,18.0738,545.049],[-66.2692,18.069,520.9316],[-66.2789,18.0694,463.7668],[-66.2853,18.0594,399.5765],[-66.2977,18.0569,321.6105],[-66.3037,18.0507,256.3903],[-66.3097,18.0478,232.2975],[-66.3129,18.0435,193.3342],[-66.3124,18.0335,161.2935],[-66.3152,18.0297,180.8552],[-66.3189,18.0297,136.562],[-66.3313,18.0148,78.8351],[-66.3428,17.9938,37.046],[-66.3381,17.9765,1.4847],[-66.3201,17.9782,0.0],[-66.3168,17.9768,2.7596],[-66.3135,17.9685,0.0],[-66.3046,17.9646,1.2333],[-66.2979,17.9588,1.2292],[-66.2937,17.9579,0.0],[-66.2949,17.9618,0.4976],[-66.2918,17.9621,2.3361],[-66.2896,17.951,0.5763],[-66.2913,17.9457,0.0],[-66.289,17.9418,0.0],[-66.2843,17.9454,0.7444],[-66.2776,17.9468,0.0],[-66.2754,17.9487,0.0],[-66.2743,17.9465,0.0],[-66.2712,17.9471,2.3299],[-66.2626,17.9424,1.4143],[-66.2618,17.9401,0.6047],[-66.2649,17.9407,0.0],[-66.261,17.9357,0.7051],[-66.254,17.9349,1.4109],[-66.2538,17.9326,2.0485],[-66.2504,17.9326,1.8179],[-66.2471,17.9301,0.0],[-66.2449,17.9318,0.0],[-66.244,17.9304,0.0],[-66.2426,17.931,0.4924],[-66.2435,17.9329,0.0],[-66.246,17.9335,0.4325],[-66.244,17.936,0.0],[-66.2482,17.9374,0.4305],[-66.2479,17.9387,0.0],[-66.2438,17.9396,0.6853],[-66.2393,17.9379,0.3404],[-66.2407,17.9357,0.0],[-66.2376,17.9321,0.3212],[-66.2385,17.9293,0.5572],[-66.2407,17.9293,0.0],[-66.2382,17.926,0.5601],[-66.2343,17.9293,0.3643],[-66.2343,17.9313,0.5211],[-66.2379,17.9346,0.4101],[-66.2318,17.931,0.0],[-66.2285,17.9349,0.0],[-66.2312,17.9396,1.0805],[-66.231,17.944,0.0],[-66.2337,17.9449,2.5457],[-66.2335,17.9463,0.9945],[-66.2285,17.9482,0.0],[-66.2262,17.9471,0.0],[-66.2265,17.951,1.3106],[-66.2224,17.9526,4.073],[-66.2218,17.9504,0.0],[-66.2215,17.9532,4.073],[-66.2179,17.9551,0.0],[-66.2179,17.9574,3.4927],[-66.2135,17.9554,0.0],[-66.2154,17.9599,2.1292],[-66.2112,17.9593,0.6121],[-66.2099,17.9618,0.0],[-66.2062,17.9626,2.1225],[-66.2054,18.0133,148.4493],[-66.2003,18.019,324.0645],[-66.1869,18.0248,352.4154],[-66.1749,18.0329,301.998],[-66.1662,18.0501,692.9514],[-66.1736,18.0535,572.644],[-66.1782,18.0534,437.8141],[-66.2017,18.0462,152.3885],[-66.2045,18.0548,225.3445],[-66.2013,18.0577,292.4689],[-66.2018,18.0677,694.2936],[-66.2087,18.071,709.1926],[-66.2156,18.0796,267.5102],[-66.2152,18.0863,473.2941],[-66.2166,18.0896,537.023],[-66.2203,18.0939,640.5394],[-66.224,18.0953,661.593],[-66.2401,18.0929,757.2685],[-66.2397,18.0848,463.5513],[-66.242,18.0772,343.7222]]]]}
,"properties": {"GID_1": "PRI.63_1","GID_0": "PRI","country": "PuertoRico","province": "Salinas","VARNAME_1": "NA","NL_NAME_1": "NA","TYPE_1": "Municipio","ENGTYPE_1": "Municipality","CC_1": "NA","HASC_1": "PR.SA","ISO_1": "-","name": "Salinas.province","area_km2": 184.353,"hist_schema_id": "Elevation0-9000","hist_area_km2": {"0": 35.1953,"25": 33.3953,"50": 18.1276,"75": 12.5009,"100": 11.6536,"125": 9.9798,"150": 8.1248,"175": 7.3383,"200": 6.7334,"225": 5.4632,"250": 4.6568,"275": 4.2938,"300": 3.931,"325": 3.306,"350": 3.2858,"375": 2.4996,"400": 2.7213,"425": 1.8142,"450": 1.6529,"475": 1.1893,"500": 1.2296,"525": 0.8063,"550": 0.7659,"575": 0.5241,"600": 0.524,"625": 0.5442,"650": 0.383,"675": 0.5442,"700": 0.3225,"725": 0.3426,"750": 0.2419,"775": 0.1411,"800": 0.0403,"825": 0.0806}}}