{"type": "Feature","bbox": [-72.2072,19.5961,-72.131,19.7571],"geometry": {"type": "MultiPolygon","coordinates": [[[[-72.1708,19.6222,41.0174],[-72.167,19.6239,35.4792],[-72.1675,19.6271,33.4457],[-72.1687,19.629,38.7422],[-72.1768,19.6326,31.8049],[-72.1746,19.6382,30.1717],[-72.169,19.6417,27.4666],[-72.1663,19.6464,24.4963],[-72.1681,19.6497,26.7565],[-72.1577,19.657,24.5408],[-72.1558,19.6634,18.9979],[-72.1523,19.6652,19.2754],[-72.1483,19.67,19.2624],[-72.1467,19.6751,16.0934],[-72.1415,19.6788,10.9936],[-72.1432,19.6851,12.2769],[-72.1423,19.7011,10.3345],[-72.1384,19.7074,12.4503],[-72.1398,19.7092,11.4487],[-72.1349,19.7202,7.3744],[-72.1375,19.7266,7.3956],[-72.1367,19.7353,5.6391],[-72.1386,19.7413,5.8187],[-72.1357,19.7454,4.8496],[-72.1325,19.7456,3.3628],[-72.131,19.7477,2.4458],[-72.1346,19.7538,0.0],[-72.1426,19.756,0.832],[-72.1473,19.7555,0.0],[-72.1523,19.7571,0.6394],[-72.1549,19.756,0.4203],[-72.1518,19.7558,0.5611],[-72.151,19.7524,0.163],[-72.1451,19.7493,0.7783],[-72.1464,19.7471,0.1451],[-72.1449,19.7468,0.3395],[-72.1451,19.7446,0.4975],[-72.1462,19.743,0.9014],[-72.1498,19.7435,0.7868],[-72.1521,19.746,0.161],[-72.1586,19.7467,0.5375],[-72.1589,19.743,0.4586],[-72.1643,19.7379,1.3546],[-72.163,19.733,2.38],[-72.1645,19.7245,9.3589],[-72.1814,19.7245,6.3452],[-72.1874,19.7208,6.0173],[-72.2072,19.7167,3.7077],[-72.1989,19.7099,6.4562],[-72.1986,19.7034,7.538],[-72.1861,19.699,9.6123],[-72.186,19.6947,11.6199],[-72.1871,19.6832,15.1412],[-72.1885,19.6815,15.258],[-72.1874,19.6771,16.8635],[-72.1932,19.6633,21.4525],[-72.1928,19.6577,27.1355],[-72.1874,19.6566,26.4478],[-72.1871,19.6544,26.7841],[-72.1887,19.6476,31.4325],[-72.1951,19.6465,36.726],[-72.1978,19.6238,56.2411],[-72.1888,19.6226,51.7831],[-72.189,19.621,57.6856],[-72.2003,19.6126,92.5183],[-72.1985,19.6098,129.8086],[-72.1993,19.6069,164.881],[-72.207,19.6038,227.9539],[-72.2044,19.5961,563.1168],[-72.1991,19.6007,363.6606],[-72.1826,19.6097,328.1425],[-72.1812,19.6127,324.5219],[-72.1746,19.6173,149.5335],[-72.1737,19.6205,46.1558],[-72.1708,19.6222,41.0174]]]]}
,"properties": {"GID_3": "HTI.7.4.3_1","GID_0": "HTI","country": "Haiti","GID_1": "HTI.7_1","province": "Nord","NL_NAME_1": "NA","GID_2": "HTI.7.4_1","county": "leCap-Haïtien","NL_NAME_2": "NA","city": "QuartierMorin","VARNAME_3": "NA","NL_NAME_3": "NA","TYPE_3": "Commune","ENGTYPE_3": "Commune","CC_3": "NA","HASC_3": "NA","name": "Quartier_Morin.city","area_km2": 59.80954,"hist_schema_id": "Elevation0-9000","hist_area_km2": {"0": 27.44366,"25": 24.63716,"50": 4.03387,"75": 0.73891,"100": 0.35949,"125": 0.29958,"150": 0.29958,"175": 0.3595,"200": 0.17975,"225": 0.15978,"250": 0.17975,"275": 0.27962,"300": 0.17976,"325": 0.15978,"350": 0.19973,"375": 0.09987,"425": 0.09987,"450": 0.03995,"500": 0.03995,"550": 0.01997}}}