{"type":"Feature","properties":{"GID_1":"TCA.6_1","GID_0":"TCA","country":"TurksandCaicosIslands","province":"SouthCaicosandEastCaicos","VARNAME_1":"NA","NL_NAME_1":"NA","TYPE_1":"District","ENGTYPE_1":"District","CC_1":"NA","HASC_1":"NA","ISO_1":"NA","name":"South_Caicosand_East_Caicos.province"},
"geometry":{"type": "MultiPolygon","coordinates": [[[[-71.7049,21.1785,0.0],[-71.7049,21.1801,0.0],[-71.7065,21.1799,0.8007],[-71.7068,21.1774,0.0],[-71.7057,21.1771,0.0],[-71.7049,21.1785,0.0]]],
[[[-71.7979,21.1857,0.0],[-71.8001,21.1857,0.0],[-71.8012,21.1837,0.0],[-71.7985,21.1829,0.0],[-71.7968,21.1846,0.0],[-71.7979,21.1857,0.0]]],
[[[-71.7862,21.1882,0.208],[-71.7887,21.189,0.0],[-71.7887,21.1868,0.0],[-71.786,21.1863,0.0],[-71.7862,21.1882,0.208]]],
[[[-71.6279,21.1974,0.0],[-71.6285,21.201,0.0],[-71.6329,21.1999,0.0],[-71.6293,21.1954,0.0],[-71.6279,21.1974,0.0]]],
[[[-71.6676,21.306,0.0],[-71.686,21.3057,0.0],[-71.6868,21.304,1.5595],[-71.6874,21.3063,0.0],[-71.6904,21.3065,0.8712],[-71.6979,21.3021,0.2817],[-71.7096,21.299,0.0],[-71.7112,21.2971,0.0769],[-71.7143,21.2968,0.3025],[-71.7174,21.299,0.0],[-71.7265,21.2965,0.0],[-71.724,21.2943,0.2882],[-71.7154,21.294,0.0],[-71.714,21.2965,0.3025],[-71.7143,21.2938,0.0],[-71.7082,21.2893,0.2635],[-71.7065,21.2896,0.3313],[-71.7071,21.2915,0.0],[-71.7046,21.2921,0.0],[-71.7065,21.2876,0.379],[-71.7024,21.286,0.9246],[-71.6951,21.286,0.5958],[-71.6949,21.2835,0.0],[-71.6899,21.2904,0.0],[-71.664,21.3035,0.3086],[-71.664,21.3051,0.6578],[-71.6676,21.306,0.0]]],
[[[-71.6326,21.3279,0.9459],[-71.6346,21.3288,0.0],[-71.6349,21.3263,0.6409],[-71.6326,21.3232,0.6787],[-71.6343,21.3201,0.0],[-71.6329,21.3151,1.9934],[-71.6343,21.3085,0.7764],[-71.6382,21.3024,1.0269],[-71.6438,21.3001,0.9093],[-71.6424,21.2954,0.0],[-71.639,21.2943,0.9835],[-71.6376,21.2918,0.0],[-71.6374,21.2824,0.0],[-71.6349,21.2796,0.0],[-71.631,21.2815,0.0],[-71.6288,21.2904,0.0],[-71.6254,21.296,5.4211],[-71.6229,21.2974,3.7844],[-71.6276,21.3063,7.4289],[-71.6282,21.3143,0.9241],[-71.6268,21.3182,0.0],[-71.6229,21.319,2.606],[-71.6226,21.3204,0.0],[-71.6246,21.3224,0.0],[-71.6276,21.3221,1.064],[-71.6326,21.3279,0.9459]]],
[[[-71.6296,21.4601,0.0],[-71.6312,21.4615,0.0],[-71.6374,21.4599,0.5479],[-71.6382,21.4582,0.0],[-71.6368,21.4579,0.0],[-71.6296,21.4601,0.0]]],
[[[-71.6221,21.4621,0.0],[-71.6221,21.4632,0.0],[-71.6251,21.4629,0.0],[-71.6293,21.4604,0.0],[-71.6276,21.4601,0.0],[-71.6221,21.4621,0.0]]],
[[[-71.6549,21.6685,0.0991],[-71.6568,21.669,0.0],[-71.6593,21.6657,0.0],[-71.6649,21.6651,0.2282],[-71.6649,21.6599,0.0],[-71.6615,21.6604,0.0],[-71.659,21.6585,0.0],[-71.6562,21.6593,0.0291],[-71.6546,21.6621,0.0],[-71.6549,21.6685,0.0991]]],
[[[-71.5979,21.7615,0.0],[-71.5979,21.7646,0.0],[-71.6024,21.7638,0.0],[-71.6007,21.7618,0.0],[-71.6015,21.7599,0.0],[-71.5979,21.7615,0.0]]],
[[[-71.614,21.3682,0.0],[-71.6137,21.3701,0.0],[-71.6151,21.3704,0.0],[-71.6182,21.3654,0.0],[-71.6168,21.3629,0.0],[-71.6157,21.3632,0.0],[-71.614,21.3682,0.0]]],
[[[-71.5343,21.4826,0.0],[-71.5354,21.4837,0.8219],[-71.544,21.4821,0.0],[-71.5535,21.4724,0.0],[-71.5571,21.4718,0.2314],[-71.559,21.4688,2.5927],[-71.5632,21.4685,0.0],[-71.5629,21.4618,9.8213],[-71.5668,21.4574,3.2154],[-71.5687,21.4571,0.0],[-71.5685,21.4532,0.0],[-71.5571,21.4638,6.1132],[-71.5457,21.4785,1.4646],[-71.5343,21.4826,0.0]]],
[[[-71.5801,21.4843,1.2841],[-71.5815,21.4863,0.0],[-71.584,21.4832,0.0],[-71.5818,21.4821,0.2122],[-71.5801,21.4843,1.2841]]],
[[[-71.5638,21.511,0.0],[-71.5649,21.5126,0.0],[-71.5679,21.5107,0.0],[-71.5646,21.5096,0.0],[-71.5638,21.511,0.0]]],
[[[-71.4938,21.5701,3.7569],[-71.4943,21.574,0.0],[-71.4954,21.574,0.0],[-71.4968,21.5693,2.6066],[-71.5032,21.5621,0.0],[-71.504,21.5565,2.87],[-71.5076,21.5554,3.2048],[-71.5068,21.5518,1.5007],[-71.5101,21.5488,0.0],[-71.5068,21.5468,1.9292],[-71.509,21.5449,3.7672],[-71.5088,21.541,0.3739],[-71.5024,21.5407,0.9907],[-71.5004,21.539,2.8893],[-71.5021,21.5185,0.0],[-71.5046,21.5132,1.1623],[-71.5099,21.5163,2.9826],[-71.5118,21.5263,0.6154],[-71.5179,21.5229,0.7632],[-71.526,21.5226,0.3526],[-71.5338,21.5296,0.0],[-71.5351,21.5296,0.0],[-71.5351,21.5257,0.2523],[-71.5374,21.5221,0.0],[-71.5413,21.5207,0.0],[-71.5429,21.5168,0.4741],[-71.5454,21.5151,0.0],[-71.546,21.5099,0.0],[-71.5429,21.5029,0.0],[-71.5379,21.4985,0.0],[-71.5371,21.4929,0.0],[-71.526,21.4851,0.0],[-71.5163,21.4918,0.0],[-71.5132,21.4918,0.0],[-71.5079,21.4865,0.0],[-71.5015,21.4907,2.6761],[-71.499,21.4893,0.0],[-71.4929,21.5001,0.0],[-71.494,21.5176,2.4377],[-71.4968,21.5251,0.0],[-71.4954,21.5324,3.1488],[-71.4965,21.546,0.0],[-71.4926,21.5563,1.1845],[-71.4938,21.5701,3.7569]]],
[[[-71.4971,21.5707,1.0966],[-71.4979,21.5732,0.2664],[-71.5024,21.5688,0.0],[-71.5004,21.5685,0.0],[-71.4971,21.5707,1.0966]]],
[[[-71.5004,21.5754,0.2565],[-71.504,21.5751,0.1066],[-71.5046,21.5724,0.0],[-71.4993,21.5732,0.2664],[-71.5004,21.5754,0.2565]]],
[[[-71.4926,21.5838,1.5891],[-71.4924,21.5865,0.7424],[-71.4938,21.5868,0.2387],[-71.4951,21.5821,1.9722],[-71.5026,21.5788,0.0],[-71.4987,21.5793,0.5902],[-71.4938,21.5746,0.0],[-71.4926,21.5838,1.5891]]],
[[[-71.5224,21.5921,0.0],[-71.5237,21.5926,0.0],[-71.5237,21.5954,0.0],[-71.531,21.5935,0.0],[-71.5312,21.5904,0.0],[-71.5293,21.589,0.1247],[-71.529,21.586,0.0],[-71.5276,21.586,0.2468],[-71.5257,21.5757,0.3089],[-71.5237,21.576,0.0],[-71.5235,21.5779,0.3316],[-71.5207,21.5774,0.3042],[-71.5218,21.5812,0.0],[-71.5207,21.5876,0.1576],[-71.5224,21.5879,0.7156],[-71.5224,21.5921,0.0]]],
[[[-71.4949,21.6026,0.3495],[-71.496,21.604,0.0],[-71.4985,21.5954,0.0],[-71.4951,21.5949,0.3675],[-71.4949,21.590699999999998,1.7716],[-71.4926,21.5876,0.0],[-71.4929,21.5951,2.6879],[-71.4907,21.6035,0.0],[-71.4949,21.6026,0.3495]]],
[[[-71.4943,21.6243,0.0],[-71.4949,21.6279,0.0],[-71.4993,21.6207,0.3082],[-71.5024,21.6193,0.0],[-71.5029,21.616,0.1732],[-71.4993,21.614,0.1118],[-71.4965,21.6157,0.0],[-71.496,21.6224,0.2697],[-71.4943,21.6243,0.0]]],
[[[-71.4987,21.6229,0.1803],[-71.4987,21.6246,0.0921],[-71.5018,21.6235,0.0],[-71.5004,21.6212,0.18],[-71.4987,21.6229,0.1803]]],
[[[-71.5721,21.5201,0.0],[-71.574,21.521,0.0],[-71.5751,21.5199,0.0],[-71.5724,21.519,0.0],[-71.5721,21.5201,0.0]]],
[[[-71.5668,21.5324,0.0],[-71.5738,21.5326,0.0],[-71.5679,21.5321,0.0],[-71.5687,21.531,0.0],[-71.566,21.5293,0.0],[-71.5632,21.5293,0.0],[-71.5668,21.5324,0.0]]],
[[[-71.5876,21.626,0.0],[-71.5893,21.6268,0.1467],[-71.5904,21.6254,0.0],[-71.5851,21.6238,0.0],[-71.5865,21.626,0.0],[-71.5876,21.626,0.0]]],
[[[-71.6137,21.7721,0.0],[-71.6157,21.7726,0.0],[-71.6135,21.769,2.0396],[-71.616,21.764,0.5362],[-71.6254,21.764,0.845],[-71.6299,21.7568,0.2966],[-71.6288,21.7496,0.0],[-71.6224,21.7488,0.4986],[-71.624,21.7482,0.0],[-71.624,21.7463,0.0],[-71.6235,21.7415,0.0],[-71.6212,21.7412,0.3247],[-71.621,21.7385,0.2124],[-71.6237,21.7324,0.0],[-71.6212,21.7276,0.1014],[-71.6224,21.7154,0.0],[-71.6207,21.7121,0.0],[-71.6185,21.7118,0.0292],[-71.6212,21.711,0.0],[-71.621,21.7088,0.0],[-71.6171,21.7071,0.0],[-71.6185,21.7071,0.0],[-71.6199,21.7032,0.0],[-71.6229,21.7088,0.0],[-71.6296,21.7096,0.0],[-71.6329,21.7074,0.0],[-71.636,21.7076,0.0],[-71.6368,21.706,0.2216],[-71.6346,21.7026,0.0],[-71.6374,21.7018,0.2195],[-71.6387,21.7038,0.0],[-71.6418,21.704,0.0],[-71.6415,21.7015,0.0],[-71.6449,21.7004,0.0],[-71.6449,21.6985,0.0],[-71.6387,21.6979,0.1037],[-71.6376,21.6954,0.0],[-71.6349,21.6951,0.2739],[-71.6371,21.6938,0.0],[-71.6418,21.694,0.0],[-71.6393,21.6915,0.1117],[-71.644,21.6887,0.3091],[-71.6476,21.6899,0.0797],[-71.6562,21.686,0.0],[-71.659,21.6821,0.0],[-71.6535,21.6799,0.0],[-71.6496,21.6801,0.0],[-71.6537,21.6754,0.0],[-71.6507,21.6743,0.0],[-71.6501,21.6718,0.0],[-71.6462,21.6704,0.0],[-71.6443,21.6643,0.1466],[-71.6349,21.6665,0.0],[-71.6246,21.6718,0.0],[-71.6168,21.6801,0.0],[-71.6157,21.6874,0.2038],[-71.6107,21.6887,0.0],[-71.606,21.6813,0.1131],[-71.5999,21.6768,-0.0662],[-71.6001,21.6746,0.0],[-71.5976,21.674,0.0],[-71.5963,21.6679,0.0],[-71.5937,21.6682,0.1051],[-71.596,21.6615,0.0338],[-71.5926,21.661,0.0678],[-71.5879,21.6629,-0.0768],[-71.5824,21.6612,0.0],[-71.5804,21.6624,0.3147],[-71.5799,21.661,0.0],[-71.5746,21.6596,0.0],[-71.5679,21.6607,0.0921],[-71.571,21.6579,0.1901],[-71.5707,21.6557,0.0],[-71.5654,21.6588,0.2422],[-71.564,21.6582,0.0959],[-71.5713,21.6551,0.0924],[-71.5718,21.6493,0.0],[-71.5665,21.6499,0.0],[-71.5576,21.6479,0.0756],[-71.5521,21.6415,0.1176],[-71.5621,21.6471,0.0],[-71.5665,21.6465,0.0814],[-71.5732,21.6421,0.0],[-71.5682,21.6382,0.0],[-71.5632,21.639,0.1388],[-71.5696,21.636,0.0],[-71.5721,21.6313,0.0],[-71.5707,21.6296,0.0],[-71.5663,21.6304,0.097],[-71.566,21.6326,0.2876],[-71.5629,21.6343,0.1371],[-71.5632,21.6321,0.0],[-71.5693,21.6265,0.1713],[-71.5663,21.6235,0.2274],[-71.5687,21.624,0.0],[-71.5704,21.6224,0.0],[-71.5757,21.6238,0.0],[-71.5774,21.6218,0.4034],[-71.5804,21.6226,0.0],[-71.5835,21.6188,0.0],[-71.5829,21.6146,0.0],[-71.5813,21.6135,0.1986],[-71.5843,21.6124,0.0],[-71.5824,21.6093,0.0],[-71.5837,21.6065,0.3685],[-71.5829,21.6043,0.0],[-71.5713,21.606,0.3543],[-71.5738,21.6038,0.0],[-71.579,21.604,0.1076],[-71.579,21.6024,0.2318],[-71.576,21.6007,0.0],[-71.5793,21.5987,0.0],[-71.5762,21.5974,0.2841],[-71.569,21.5976,0.373],[-71.5685,21.5951,0.4067],[-71.571,21.5929,0.1131],[-71.5601,21.5918,0.0],[-71.5546,21.5924,0.0],[-71.5537,21.5943,0.3877],[-71.5504,21.594,0.5529],[-71.5507,21.5893,0.3869],[-71.5485,21.5874,0.0],[-71.5362,21.5929,0.0],[-71.534,21.586,0.0],[-71.5332,21.5896,0.1406],[-71.5351,21.5935,0.0],[-71.5329,21.5951,0.0],[-71.5243,21.5957,0.3645],[-71.519,21.5987,0.0],[-71.5149,21.6087,0.0],[-71.5126,21.6093,0.3245],[-71.5121,21.6199,0.8666],[-71.4987,21.6299,0.0],[-71.491,21.6418,0.6604],[-71.4907,21.6329,0.36],[-71.4938,21.6313,0.0],[-71.4904,21.6315,0.2635],[-71.4871,21.624,0.0],[-71.4893,21.6265,0.0],[-71.4907,21.6246,0.1913],[-71.4935,21.629,0.0],[-71.4935,21.6243,0.0],[-71.4954,21.6212,0.1773],[-71.4943,21.614,0.1406],[-71.4971,21.6132,0.1588],[-71.4949,21.6082,0.1207],[-71.4915,21.6054,0.0],[-71.4863,21.6054,0.0],[-71.484,21.6188,5.6764],[-71.4849,21.6268,1.8399],[-71.4815,21.646,1.8947],[-71.4804,21.6482,0.7415],[-71.4782,21.6468,0.0],[-71.4737,21.6526,0.7865],[-71.4662,21.6524,0.6623],[-71.4624,21.6679,0.3598],[-71.4651,21.6926,6.7557],[-71.4607,21.7015,0.5425],[-71.4713,21.719,1.6917],[-71.4715,21.7243,0.0],[-71.4729,21.724,0.0],[-71.474,21.7185,1.9106],[-71.4757,21.7174,0.0],[-71.4801,21.7174,0.0],[-71.4837,21.7199,0.445],[-71.4915,21.7193,3.2861],[-71.4929,21.7201,3.2861],[-71.4924,21.7221,0.2415],[-71.4982,21.7199,2.4989],[-71.5054,21.7207,0.0],[-71.5157,21.7243,0.0],[-71.5182,21.7274,0.0],[-71.5199,21.7271,0.0],[-71.5185,21.7257,0.0],[-71.5196,21.7229,1.2777],[-71.5304,21.7235,6.2871],[-71.5521,21.7357,0.0],[-71.5668,21.7474,0.0],[-71.5729,21.749,0.0],[-71.5801,21.7571,3.2295],[-71.5818,21.7615,0.4955],[-71.5885,21.756,0.0],[-71.5932,21.756,0.0],[-71.5937,21.754,3.1062],[-71.5971,21.7532,0.0],[-71.5993,21.7476,0.0],[-71.5965,21.7451,0.0739],[-71.6024,21.7415,0.0],[-71.6043,21.7365,0.3106],[-71.606,21.7393,0.0],[-71.6113,21.7399,0.4008],[-71.6129,21.7424,0.2307],[-71.6121,21.7454,0.1083],[-71.6101,21.7412,0.0],[-71.6065,21.7412,0.0],[-71.606,21.744,0.991],[-71.5996,21.7449,0.0],[-71.5999,21.7488,0.0],[-71.6082,21.7596,0.0],[-71.6082,21.7643,0.0],[-71.6107,21.771,0.0],[-71.6137,21.7721,0.0]]]]}}