{"type":"Feature","properties":{"ISO3166-1-Alpha-3":"TCA","country":"Turks and Caicos Islands","fill":"#F0F","id":"5006","name":"South Caicos and East Caicos"},
"geometry":{"type": "MultiPolygon","coordinates": [[[[-71.67862,21.2989,0.3675],[-71.67406,21.30655,1.118],[-71.68033,21.30443,1.1478],[-71.68781,21.29979,0.743],[-71.69909,21.29194,0.7736],[-71.69587,21.29011,0.839],[-71.67862,21.2989,0.3675]]],
[[[-71.62824,21.31025,0.0],[-71.62881,21.32437,0.0],[-71.63435,21.31879,0.0],[-71.64086,21.30296,0.0],[-71.63467,21.2945,4.3594],[-71.62824,21.31025,0.0]]],
[[[-71.49718,21.53026,2.0077],[-71.49625,21.56342,14.2156],[-71.49828,21.5694,0.0876],[-71.50158,21.56908,0.0],[-71.50878,21.55166,0.0],[-71.50894,21.52782,0.0],[-71.51574,21.52269,1.6638],[-71.52782,21.52432,0.0],[-71.5397,21.51655,2.6931],[-71.53759,21.49946,1.2412],[-71.52099,21.48933,0.7025],[-71.50426,21.49405,2.9514],[-71.49633,21.50739,24.9195],[-71.49718,21.53026,2.0077]]],
[[[-71.45958,21.66446,0.0],[-71.45189,21.69017,0.0],[-71.46178,21.71084,0.0],[-71.48095,21.72549,0.0],[-71.50113,21.73334,0.0],[-71.52554,21.73981,0.0],[-71.54308,21.74653,0.0],[-71.57628,21.76683,0.0],[-71.57848,21.76093,0.0],[-71.58178,21.75837,0.3062],[-71.58593,21.75682,5.3481],[-71.59057,21.75381,9.0132],[-71.57323,21.7353,1.3833],[-71.52892,21.71743,2.6471],[-71.50796,21.70539,3.1691],[-71.48534,21.67544,0.5983],[-71.47126,21.66218,12.2191],[-71.45958,21.66446,0.0]]]]}}