{"type":"Feature","properties":{"ISO3166-1-Alpha-3":"ATG","country":"Antigua and Barbuda","fill":"#F0F","id":"5091","name":"Barbuda"},
"geometry":{"type": "Polygon","coordinates": [[[-61.83894,17.59333,1.6397],[-61.79475,17.57612,3.3877],[-61.77697,17.56342,0.0],[-61.77066,17.54556,0.0],[-61.75357,17.5515,0.0],[-61.74328,17.5506,0.0],[-61.7364,17.55402,1.6621],[-61.72964,17.57282,0.0],[-61.72777,17.58845,0.0],[-61.72875,17.60497,0.0],[-61.73591,17.63491,0.0],[-61.74328,17.65135,0.0],[-61.75426,17.66877,0.0],[-61.76818,17.68464,0.0],[-61.78429,17.69636,0.0],[-61.79727,17.6988,2.0649],[-61.81823,17.69184,0.0],[-61.83145,17.69636,0.2221],[-61.82457,17.69937,0.464],[-61.81786,17.70319,0.2894],[-61.8378,17.72769,0.0],[-61.85167,17.72028,0.174],[-61.85643,17.70108,1.4307],[-61.84919,17.69013,0.0],[-61.83121,17.68049,0.0],[-61.82502,17.65795,0.0867],[-61.82649,17.63247,2.8568],[-61.83145,17.61384,1.8495],[-61.84317,17.62018,0.0],[-61.84317,17.62958,0.0],[-61.83922,17.64142,0.0],[-61.83894,17.65542,0.0],[-61.84423,17.66596,0.0],[-61.8601,17.68423,0.0],[-61.8662,17.69636,0.9699],[-61.86783,17.70409,0.3323],[-61.86937,17.70734,0.7269],[-61.87304,17.71064,0.4121],[-61.87385,17.69115,0.0],[-61.86974,17.67548,0.0],[-61.86392,17.66014,0.0],[-61.85936,17.64179,0.0],[-61.85729,17.60098,0.0],[-61.8518,17.58657,1.3156],[-61.83894,17.59333,1.6397]]]}}