{"type":"Feature","properties":{"GID_1":"ATG.1_1","GID_0":"ATG","country":"AntiguaandBarbuda","state":"Barbuda","VARNAME_1":"Codrington","NL_NAME_1":"NA","TYPE_1":"Dependency","ENGTYPE_1":"Dependency","CC_1":"NA","HASC_1":"AG.BB","ISO_1":"AG-10","name":"Barbuda.state"},
"geometry":{"type": "MultiPolygon","coordinates": [[[[-62.0001,17.0001,0.0],[-62.0001,16.9999,0.0],[-61.9999,16.9999,0.0],[-61.9999,17.0001,0.0],[-62.0001,17.0001,0.0]]],
[[[-61.8518,17.6424,0.0],[-61.8529,17.6426,0.0],[-61.8529,17.6382,0.0],[-61.8496,17.6221,0.3736],[-61.8482,17.6299,0.0],[-61.8518,17.6424,0.0]]],
[[[-61.8668,17.7157,0.0],[-61.8707,17.7154,0.5434],[-61.8779,17.7038,0.2576],[-61.8865,17.6968,0.672],[-61.8849,17.6937,0.0],[-61.8782,17.6899,0.6149],[-61.869,17.681,0.6574],[-61.8646,17.6657,0.3294],[-61.8579,17.6599,0.5517],[-61.8524,17.6454,0.0],[-61.8532,17.654,0.2103],[-61.851,17.6579,0.1785],[-61.8526,17.6576,0.1785],[-61.8574,17.6624,1.8037],[-61.8571,17.6646,0.4148],[-61.859,17.6657,0.6037],[-61.8582,17.6724,0.0],[-61.8621,17.6735,0.0665],[-61.8632,17.6796,0.2636],[-61.8696,17.6829,0.2636],[-61.8685,17.6893,0.2316],[-61.871,17.6849,0.0],[-61.8757,17.689,0.2712],[-61.8785,17.6971,0.0],[-61.8779,17.6993,0.9854],[-61.8721,17.699,0.0311],[-61.8704,17.6926,0.0],[-61.8685,17.6913,1.0821],[-61.866,17.6818,0.0],[-61.8604,17.6804,0.0],[-61.8643,17.6843,0.2056],[-61.8662,17.6893,0.0],[-61.866,17.6935,0.0],[-61.8615,17.6974,0.2328],[-61.861,17.7001,0.2062],[-61.8643,17.7076,0.4262],[-61.8629,17.7138,1.3568],[-61.8668,17.7157,0.0]]],
[[[-61.844,17.7293,0.0],[-61.8532,17.7271,0.0],[-61.8554,17.7243,0.0],[-61.8529,17.7235,0.5413],[-61.854,17.7196,0.0],[-61.8521,17.7199,0.174],[-61.8515,17.7224,0.5258],[-61.851,17.7187,0.3554],[-61.8496,17.721,0.6587],[-61.8479,17.7196,0.3435],[-61.8496,17.7171,0.2676],[-61.8546,17.719,0.0],[-61.8563,17.7165,2.1214],[-61.8607,17.7182,0.0],[-61.8624,17.7171,0.3518],[-61.8621,17.7132,1.087],[-61.8637,17.7082,0.4262],[-61.8601,17.7013,0.2252],[-61.8604,17.6979,0.99],[-61.8621,17.6951,0.0],[-61.8593,17.6937,0.0],[-61.8557,17.6971,0.0],[-61.854,17.6949,0.091],[-61.8563,17.6937,0.0],[-61.8471,17.6921,0.0],[-61.8457,17.6904,0.0],[-61.8429,17.6937,0.0],[-61.8368,17.6843,0.0],[-61.8318,17.681,0.0],[-61.8301,17.6815,0.0],[-61.8318,17.676,0.0],[-61.8307,17.6693,0.0],[-61.8326,17.6657,0.0],[-61.8349,17.6649,0.0],[-61.8346,17.6626,0.0],[-61.8362,17.6629,0.0],[-61.8346,17.6593,0.0],[-61.8329,17.6599,0.0],[-61.8338,17.6557,0.0],[-61.8324,17.6565,0.0],[-61.8321,17.6549,0.0],[-61.8288,17.6537,0.0728],[-61.8288,17.6513,0.0],[-61.8271,17.6521,0.0],[-61.8276,17.6504,0.084],[-61.8254,17.6471,0.1466],[-61.8268,17.6474,0.0],[-61.8349,17.6318,0.0],[-61.8326,17.6285,0.0],[-61.8321,17.6221,0.0],[-61.8321,17.6174,0.0],[-61.8343,17.6129,0.0],[-61.8374,17.6113,0.417],[-61.8407,17.6124,0.0],[-61.8446,17.6093,0.0],[-61.8493,17.609,0.0],[-61.851,17.6101,0.3867],[-61.8501,17.614,0.0],[-61.8518,17.6146,0.7623],[-61.8596,17.5924,0.0],[-61.861,17.5846,0.0],[-61.8596,17.5815,0.0],[-61.8568,17.5804,0.0],[-61.8349,17.5932,1.2282],[-61.829,17.5938,2.0765],[-61.8243,17.5912,0.0],[-61.8218,17.5918,0.3715],[-61.8224,17.589,0.0],[-61.819,17.5907,3.1811],[-61.8121,17.5846,0.0],[-61.8032,17.5807,1.9756],[-61.7951,17.5729,0.0],[-61.7857,17.5726,1.3657],[-61.7743,17.5657,1.737],[-61.7674,17.5554,0.0],[-61.7668,17.5432,0.0],[-61.7632,17.5474,0.0],[-61.7624,17.5513,2.2359],[-61.7593,17.5529,0.0],[-61.7596,17.5546,0.1785],[-61.7635,17.5563,0.342],[-61.7621,17.5574,1.0896],[-61.7521,17.5529,0.0],[-61.7482,17.5537,0.0],[-61.7435,17.5521,2.3297],[-61.7326,17.5435,0.0],[-61.731,17.546,0.0],[-61.7363,17.5504,2.1738],[-61.7357,17.5557,2.5779],[-61.7393,17.5596,0.0],[-61.7396,17.5629,3.4408],[-61.7363,17.5696,1.6008],[-61.7385,17.576,3.3989],[-61.7385,17.5821,4.839],[-61.7349,17.5857,1.6569],[-61.734,17.5912,4.5949],[-61.7315,17.5926,3.0842],[-61.7324,17.596,4.0389],[-61.7307,17.5985,0.0],[-61.7326,17.6004,7.2246],[-61.7324,17.6054,7.3722],[-61.7354,17.6113,14.2472],[-61.7382,17.6315,0.224],[-61.7432,17.6435,0.0],[-61.7487,17.6521,0.5957],[-61.7635,17.6668,1.1036],[-61.7724,17.6721,0.0],[-61.7737,17.6754,1.0061],[-61.7796,17.6801,5.0396],[-61.7832,17.6876,0.9177],[-61.7912,17.6951,4.3419],[-61.7949,17.701,0.0],[-61.8029,17.7004,0.5399],[-61.8054,17.6976,0.7963],[-61.8107,17.704,0.0],[-61.8182,17.7024,0.2894],[-61.8193,17.7038,0.0],[-61.821,17.7015,0.3129],[-61.829,17.7129,1.1194],[-61.844,17.7293,0.0]]],
[[[-61.8346,17.671,0.0],[-61.8368,17.6712,0.0],[-61.8368,17.6674,0.0],[-61.8354,17.6679,0.0],[-61.8349,17.6654,0.0],[-61.834,17.6657,0.0],[-61.8346,17.671,0.0]]]]}}