{"type":"Feature","properties":{"GID_2":"DOM.17.1_1","GID_0":"DOM","country":"DominicanRepublic","GID_1":"DOM.17_1","province":"MonteCristi","NL_NAME_1":"NA","county":"Castañuela","VARNAME_2":"NA","NL_NAME_2":"NA","TYPE_2":"Municipio","ENGTYPE_2":"Municipality","CC_2":"NA","HASC_2":"DO.MC.CA","name":"Castañuela.county"},
"geometry":{"type": "MultiPolygon","coordinates": [[[[-71.4124,19.6969,29.6797],[-71.4248,19.6963,27.0033],[-71.4303,19.6994,26.7037],[-71.433,19.7036,31.7908],[-71.4396,19.7023,28.3555],[-71.442,19.7094,26.3528],[-71.4509,19.708,24.1779],[-71.451,19.7141,26.1038],[-71.4537,19.7198,21.6281],[-71.4725,19.7379,19.4928],[-71.4758,19.7371,19.0841],[-71.4775,19.7293,20.255],[-71.483,19.7248,14.9908],[-71.488,19.7251,20.896],[-71.4992,19.731,21.4751],[-71.5,19.7366,19.9044],[-71.4961,19.7532,16.1199],[-71.4855,19.7664,50.3177],[-71.4774,19.7717,86.9097],[-71.4744,19.7775,139.4416],[-71.4843,19.7891,102.056],[-71.4873,19.7962,92.2393],[-71.4951,19.7939,58.9897],[-71.5042,19.7854,53.9842],[-71.5143,19.7725,24.5422],[-71.5172,19.7669,20.5133],[-71.5184,19.7589,13.8927],[-71.523,19.7536,14.2686],[-71.5316,19.7488,13.8945],[-71.5378,19.7497,15.7661],[-71.5461,19.747,11.8343],[-71.5487,19.7418,12.0799],[-71.5528,19.738,11.7664],[-71.5519,19.7345,11.7209],[-71.5488,19.7321,10.9437],[-71.5419,19.7334,13.1433],[-71.5393,19.7321,13.5636],[-71.5413,19.7256,12.7152],[-71.5412,19.7179,13.1031],[-71.5346,19.7072,14.4741],[-71.5314,19.7058,14.4321],[-71.5273,19.7094,14.4398],[-71.5244,19.7087,14.9249],[-71.5194,19.7033,15.1252],[-71.5203,19.6981,15.6956],[-71.519,19.6953,17.5195],[-71.506,19.6892,19.1042],[-71.5002,19.6751,23.6498],[-71.5005,19.664,37.0567],[-71.4925,19.668,30.1299],[-71.489,19.6672,34.165],[-71.4862,19.6633,34.3544],[-71.4765,19.6659,35.4446],[-71.4582,19.676,26.0189],[-71.4463,19.6802,34.1168],[-71.442,19.6899,23.3587],[-71.4177,19.6907,26.6909],[-71.4124,19.6969,29.6797]]]]}}