{"type": "Feature","id": "5028","bbox": [-76.33255,24.98139,-76.1129,25.2996],"geometry": {"type": "Polygon","coordinates": [[[-76.16128,25.16572,10.0638],[-76.2237,25.20808,0.0],[-76.28417,25.26191,0.0],[-76.314,25.2996,0.0],[-76.33255,25.28528,6.127],[-76.26374,25.19367,0.0],[-76.23229,25.17097,0.0],[-76.19636,25.15428,3.2625],[-76.16495,25.12983,0.0],[-76.14704,25.08381,0.0],[-76.14672,25.06245,0.0],[-76.15445,25.00532,0.0],[-76.15925,24.9982,0.0],[-76.17032,24.98885,0.0],[-76.15445,24.98139,1.9858],[-76.14928,24.98452,5.7602],[-76.13976,24.98847,8.9615],[-76.1306,24.99486,0.0],[-76.12658,25.00532,0.0],[-76.1256,25.01406,0.0],[-76.12133,25.0301,0.0],[-76.1129,25.11489,0.0],[-76.11828,25.13394,0.0],[-76.13126,25.14777,0.0],[-76.16128,25.16572,10.0638]]]}
,"properties": {"ISO3166-1-Alpha-3": "BHS","country": "The Bahamas","fill": "#F0F","name": "Central Eleuthera","area_km2": 139.472,"hist_schema_id": "Elevation0-9000","hist_area_km2": {"0": 108.8038,"25": 30.0927,"50": 0.5755}}}