{"type":"Feature","properties":{"GID_1":"BHS.8_1","GID_0":"BHS","country":"Bahamas","state":"CentralEleuthera","VARNAME_1":"NA","NL_NAME_1":"NA","TYPE_1":"District","ENGTYPE_1":"District","CC_1":"NA","HASC_1":"BS.CE","ISO_1":"NA","name":"CentralEleuthera.state"},
"geometry":{"type": "MultiPolygon","coordinates": [[[[-76.1104,25.104,0.0],[-76.1115,25.1046,0.0],[-76.1093,25.101,0.0],[-76.109,25.1024,0.0],[-76.1104,25.104,0.0]]],
[[[-76.1494,24.9952,1.9009],[-76.1385,24.993,0.0],[-76.1296,25.0101,0.0],[-76.1299,25.0149,0.0],[-76.1285,25.0165,0.0],[-76.1285,25.0215,0.0],[-76.1268,25.0226,0.0],[-76.1268,25.0279,0.0],[-76.1229,25.0318,0.0],[-76.1226,25.0346,0.4587],[-76.1276,25.0368,5.3919],[-76.1285,25.0388,0.0],[-76.1296,25.0543,4.3338],[-76.1282,25.059,0.8288],[-76.1249,25.0604,0.0],[-76.1229,25.0663,0.5143],[-76.1204,25.0663,4.1274],[-76.1224,25.0593,0.0],[-76.1237,25.0587,0.0],[-76.1221,25.054,0.0],[-76.1232,25.0504,0.3671],[-76.1271,25.049,0.1253],[-76.1274,25.0465,0.0],[-76.1263,25.0443,0.6332],[-76.1185,25.0415,2.2008],[-76.1188,25.0396,2.7871],[-76.1165,25.0371,3.2851],[-76.1168,25.0332,0.0],[-76.114,25.0362,0.0],[-76.1157,25.0399,1.3774],[-76.1149,25.0435,1.6901],[-76.1165,25.0435,1.6901],[-76.1179,25.0462,1.0001],[-76.1182,25.0601,0.0],[-76.1151,25.0751,2.9322],[-76.1157,25.0804,2.5047],[-76.1137,25.081,0.6406],[-76.1137,25.0857,0.0],[-76.1171,25.0888,3.7991],[-76.1179,25.0954,0.0],[-76.1224,25.1065,0.0],[-76.1235,25.1004,0.0],[-76.1215,25.0976,0.0],[-76.1232,25.0943,0.0],[-76.1212,25.0949,0.3055],[-76.1196,25.0926,1.8804],[-76.1218,25.089,0.0],[-76.1193,25.0893,0.5396],[-76.1218,25.0843,0.0],[-76.1171,25.0815,0.0],[-76.1196,25.0729,0.0],[-76.124,25.084,1.4508],[-76.1235,25.0885,0.762],[-76.1288,25.0888,0.0],[-76.129,25.0976,0.0],[-76.1324,25.1021,3.5269],[-76.1332,25.1129,0.0],[-76.1301,25.1176,0.899],[-76.1251,25.1149,0.0],[-76.1157,25.1171,3.0474],[-76.1149,25.1251,4.9355],[-76.1132,25.1268,0.9803],[-76.1137,25.1304,0.0],[-76.119,25.1262,3.163],[-76.1224,25.1276,1.1642],[-76.1268,25.134,0.0],[-76.1271,25.1371,0.0],[-76.1285,25.1371,0.0],[-76.1326,25.1429,3.4877],[-76.1324,25.1496,0.0],[-76.1343,25.153199999999998,0.0],[-76.1482,25.1632,4.2125],[-76.1618,25.1685,3.208],[-76.1668,25.1688,1.2175],[-76.1813,25.1785,3.1158],[-76.1929,25.1821,0.0],[-76.1946,25.1846,0.0],[-76.1957,25.1832,2.6184],[-76.2001,25.1843,1.0845],[-76.2076,25.1907,0.0],[-76.2218,25.1976,0.7616],[-76.224,25.1996,0.0],[-76.2237,25.2013,0.0],[-76.2257,25.1985,5.0314],[-76.2293,25.1993,1.4872],[-76.2376,25.2068,5.6103],[-76.236,25.211,0.0],[-76.2401,25.2107,0.0],[-76.2443,25.2151,0.0],[-76.2484,25.2021,3.4335],[-76.2446,25.1957,0.0],[-76.2468,25.1929,0.296],[-76.2518,25.1949,0.6291],[-76.2513,25.1918,0.0],[-76.2474,25.1901,0.0],[-76.2457,25.1921,1.6685],[-76.2387,25.1893,0.0],[-76.2368,25.1868,0.0],[-76.2376,25.1838,0.3356],[-76.2329,25.1813,2.3314],[-76.2301,25.1774,4.5724],[-76.2249,25.1754,1.5024],[-76.2226,25.171,0.6274],[-76.2235,25.1671,6.8358],[-76.221,25.164,3.409],[-76.216,25.1638,8.124],[-76.2118,25.1588,0.0],[-76.1985,25.1521,6.5708],[-76.1921,25.1526,4.4036],[-76.1871,25.1482,0.0],[-76.184,25.1496,2.466],[-76.1796,25.1474,5.0394],[-76.1776,25.1479,4.1523],[-76.1696,25.1418,0.0],[-76.1699,25.1382,0.0],[-76.1663,25.1343,5.0285],[-76.1626,25.1335,0.0],[-76.1593,25.1285,0.0],[-76.156,25.1276,10.9025],[-76.1515,25.1235,2.7354],[-76.1513,25.1179,2.4482],[-76.1546,25.1162,1.6653],[-76.1579,25.1079,7.6109],[-76.1551,25.1063,0.0],[-76.1513,25.1074,1.2388],[-76.1476,25.1054,4.3939],[-76.1471,25.1004,0.0],[-76.1449,25.0976,5.3112],[-76.1424,25.0974,4.8775],[-76.1404,25.0901,0.0],[-76.1418,25.028199999999998,0.0],[-76.1457,25.0051,5.416],[-76.1521,24.9965,0.0],[-76.1494,24.9952,1.9009]]],
[[[-76.1896,25.1451,0.0],[-76.1918,25.1454,3.7013],[-76.1926,25.144,3.7013],[-76.1904,25.1432,0.0],[-76.1896,25.1451,0.0]]],
[[[-76.1199,25.1499,0.0],[-76.1224,25.1499,0.0],[-76.1215,25.1468,0.0],[-76.1193,25.1471,0.0],[-76.1199,25.1499,0.0]]]]}}