{"type":"Feature","properties":{"ISO3166-1-Alpha-3":"BHS","country":"The Bahamas","fill":"#F0F","id":"5023","name":"Black Point"},
"geometry":{"type": "MultiPolygon","coordinates": [[[[-76.31896,23.98021,0.0],[-76.37678,24.10139,0.0],[-76.40148,24.11738,0.0],[-76.40148,24.10293,0.0],[-76.39761,24.09252,8.5296],[-76.38728,24.0764,0.0],[-76.37499,24.04658,0.0],[-76.35863,24.02367,0.0],[-76.3402,23.98819,0.0],[-76.32518,23.97403,0.0],[-76.31896,23.98021,0.0]]],
[[[-76.47167,24.22761,0.0],[-76.48131,24.23432,0.0],[-76.49205,24.2392,0.0],[-76.5039,24.24775,0.0],[-76.51342,24.26089,1.6135],[-76.52042,24.27497,1.1718],[-76.52953,24.28742,0.0],[-76.54491,24.29556,0.0],[-76.54459,24.28303,0.0],[-76.53527,24.26838,0.0],[-76.49315,24.21882,0.0],[-76.4818,24.21377,7.0926],[-76.463,24.21361,0.0],[-76.47167,24.22761,0.0]]],
[[[-76.77257,24.51911,3.7439],[-76.77306,24.53172,0.0],[-76.77432,24.53864,5.0128],[-76.7775,24.54385,6.98],[-76.78466,24.55296,1.839],[-76.79239,24.54914,0.0],[-76.79507,24.53144,0.0],[-76.7893,24.5185,0.0],[-76.77892,24.51435,0.0],[-76.77257,24.51911,3.7439]]]]}}