{"type":"Feature","properties":{"GID_2":"GLP.2.7_1","GID_0":"GLP","country":"Guadeloupe","GID_1":"GLP.2_1","province":"Pointe-à-Pitre","NL_NAME_1":"NA","county":"LesAbymes","VARNAME_2":"NA","NL_NAME_2":"NA","TYPE_2":"Chef-lieucanton","ENGTYPE_2":"Commune","CC_2":"93","HASC_2":"NA","name":"Les_Abymes.county"},
"geometry":{"type": "MultiPolygon","coordinates": [[[[-61.5509,16.2521,3.8299],[-61.5488,16.2531,1.2257],[-61.5326,16.2452,6.2829],[-61.5296,16.2388,6.7557],[-61.5307,16.2283,3.8673],[-61.5255,16.2234,6.7245],[-61.5187,16.2261,28.1962],[-61.5094,16.2368,42.005],[-61.4458,16.2623,68.7161],[-61.4458,16.2759,85.646],[-61.4442,16.279,85.3263],[-61.4374,16.2802,105.6779],[-61.4385,16.2863,61.7865],[-61.4415,16.2876,63.7598],[-61.4478,16.286,79.8173],[-61.4637,16.2998,63.8213],[-61.4986,16.3051,14.7191],[-61.5081,16.3009,6.8383],[-61.536,16.3126,0.0],[-61.5412,16.3032,1.3616],[-61.5432,16.3032,0.4612],[-61.5449,16.301,0.4932],[-61.5438,16.3046,0.0],[-61.5457,16.3046,0.0],[-61.5474,16.3021,0.0],[-61.5476,16.299,0.0],[-61.5454,16.2968,0.8407],[-61.5451,16.2932,1.1171],[-61.5485,16.2932,0.0],[-61.5507,16.2885,1.4009],[-61.5529,16.2899,0.3358],[-61.5568,16.2879,0.0],[-61.554,16.2835,0.4214],[-61.5575,16.286,1.2163],[-61.5565,16.276,0.5576],[-61.5483,16.2734,1.562],[-61.5472,16.2606,1.4973],[-61.5509,16.2521,3.8299]]]]}}