{"type":"Feature","properties":{"GID_2":"GLP.2.5_1","GID_0":"GLP","country":"Guadeloupe","GID_1":"GLP.2_1","province":"Pointe-à-Pitre","NL_NAME_1":"NA","county":"LeGosier","VARNAME_2":"NA","NL_NAME_2":"NA","TYPE_2":"Chef-lieucanton","ENGTYPE_2":"Commune","CC_2":"91","HASC_2":"NA","name":"Le_Gosier.county"},
"geometry":{"type": "MultiPolygon","coordinates": [[[[-61.4194,16.2101,2.2967],[-61.4335,16.241,85.8883],[-61.4552,16.258,54.0741],[-61.5094,16.2368,42.005],[-61.5187,16.2261,28.1962],[-61.5255,16.2234,6.7245],[-61.5282,16.2168,0.3333],[-61.5215,16.2124,1.415],[-61.5187,16.2151,1.769],[-61.511,16.2162,2.0754],[-61.5079,16.214,1.9013],[-61.5082,16.2068,1.8446],[-61.5071,16.2062,1.8446],[-61.4857,16.2046,27.1272],[-61.4807,16.2013,0.0],[-61.4746,16.201,18.909],[-61.4707,16.1979,0.0],[-61.4679,16.199,6.7366],[-61.4654,16.1963,0.0],[-61.4632,16.1965,0.0],[-61.461,16.2001,3.2041],[-61.4579,16.2001,0.0],[-61.4571,16.2018,0.0],[-61.4554,16.1999,0.0],[-61.4521,16.1999,0.0],[-61.4432,16.2026,4.3218],[-61.4424,16.2068,4.4369],[-61.4385,16.209,40.2348],[-61.4265,16.2101,2.1056],[-61.4263,16.2079,0.0],[-61.4246,16.2074,0.0],[-61.424,16.2093,8.7699],[-61.4218,16.2079,0.0],[-61.4215,16.2099,3.9298],[-61.4199,16.209,2.2967],[-61.4194,16.2101,2.2967]]]]}}