{"type": "Feature","bbox": [-62.8049,17.8982,-62.7985,17.9031],"geometry": {"type": "MultiPolygon","coordinates": [[[[-62.7999,17.9031,20.9608],[-62.8049,17.9003,186.6543],[-62.8036,17.8982,195.9372],[-62.7985,17.8996,23.925],[-62.7999,17.9031,20.9608]]]]}
,"properties": {"GID_2": "BLM.1.5_1","GID_0": "BLM","country": "Saint-Barthélemy","GID_1": "BLM.1_1","province": "AuVent","NL_NAME_1": "NA","county": "Devet","VARNAME_2": "NA","NL_NAME_2": "NA","TYPE_2": "Quartier","ENGTYPE_2": "Quarter","CC_2": "NA","HASC_2": "NA","name": "Devet.county","area_km2": 0.2017583,"hist_schema_id": "Elevation0-9000","hist_area_km2": {"25": 0.0403513,"50": 0.0605277,"75": 0.0201757,"100": 0.0403518,"125": 0.0201759,"175": 0.0201759}}}