{"type":"Feature","properties":{"GID_2":"CUB.5.8_1","GID_0":"CUB","country":"Cuba","GID_1":"CUB.5_1","province":"Granma","NL_NAME_1":"NA","county":"Manzanillo","VARNAME_2":"NA","NL_NAME_2":"NA","TYPE_2":"Municipio","ENGTYPE_2":"Municipality","CC_2":"NA","HASC_2":"CU.GR.MA","name":"Manzanillo.county"},
"geometry":{"type": "MultiPolygon","coordinates": [[[[-77.0372,20.149,48.5064],[-77.0247,20.1732,37.5496],[-77.024,20.1877,34.4816],[-77.0474,20.25,22.4517],[-77.0506,20.2692,19.971],[-77.0569,20.2822,22.8577],[-77.057,20.2911,20.1633],[-77.0541,20.2955,19.8502],[-77.0419,20.3025,17.9433],[-77.0225,20.3108,14.768],[-77.0049,20.315,15.7289],[-76.975,20.3297,15.3876],[-76.9711,20.3376,15.5791],[-76.9717,20.349,15.0295],[-76.9917,20.3789,9.7206],[-77.0019,20.3892,7.9919],[-77.0339,20.4046,4.6001],[-77.0846,20.435,1.4813],[-77.0876,20.4251,0.6513],[-77.0912,20.4196,0.2915],[-77.094,20.4188,0.0],[-77.0951,20.416,1.56],[-77.104,20.4174,0.0],[-77.1051,20.4154,0.0],[-77.1074,20.3954,0.0],[-77.104,20.3885,1.2094],[-77.1051,20.3776,0.0],[-77.1096,20.3693,0.9292],[-77.1162,20.3665,1.2989],[-77.1168,20.3568,3.4122],[-77.1185,20.3546,2.8275],[-77.1218,20.3546,0.0],[-77.1199,20.3524,1.3571],[-77.1246,20.3468,4.9856],[-77.1379,20.3418,6.1482],[-77.141,20.3426,0.0],[-77.1485,20.3351,0.7641],[-77.1554,20.3312,0.5713],[-77.1549,20.3296,1.2867],[-77.1576,20.3293,0.0],[-77.1593,20.3196,0.5946],[-77.1637,20.3079,1.6916],[-77.1749,20.2962,0.0],[-77.1768,20.2915,0.0],[-77.1813,20.2868,2.1486],[-77.1921,20.2818,1.9787],[-77.209,20.2779,0.0],[-77.2132,20.274,1.1268],[-77.2213,20.2729,0.7887],[-77.2271,20.2765,1.2908],[-77.2329,20.2838,1.186],[-77.2307,20.2874,3.6239],[-77.2249,20.2915,0.0],[-77.2254,20.2929,0.0],[-77.2288,20.2926,0.8291],[-77.2249,20.2954,0.0],[-77.2282,20.2943,0.0],[-77.2307,20.2918,1.8749],[-77.2454,20.2907,0.0],[-77.254,20.2921,0.0],[-77.2554,20.2901,0.0],[-77.2526,20.2865,0.1283],[-77.2524,20.2737,2.5132],[-77.257,20.2609,0.0],[-77.2448,20.2627,1.8639],[-77.2384,20.257,5.0661],[-77.2127,20.2446,3.5798],[-77.1912,20.2253,5.5691],[-77.1744,20.2013,14.8119],[-77.1739,20.195,18.0441],[-77.1789,20.1842,13.9721],[-77.1933,20.1666,17.4673],[-77.2007,20.1509,22.4079],[-77.1995,20.1448,23.6794],[-77.1852,20.1176,32.9231],[-77.1771,20.1101,49.7212],[-77.1204,20.0835,76.0369],[-77.1092,20.0638,127.2465],[-77.0648,20.0894,92.432],[-77.0417,20.1326,58.6021],[-77.0372,20.149,48.5064]]],
[[[-77.1876,20.3582,0.0],[-77.1888,20.3587,0.0],[-77.1918,20.3568,0.0],[-77.1879,20.3549,0.0],[-77.1876,20.3582,0.0]]],
[[[-77.1624,20.3671,0.0],[-77.164,20.3674,0.0],[-77.1643,20.366,0.9618],[-77.1615,20.3654,0.0],[-77.1624,20.3671,0.0]]],
[[[-77.1474,20.3718,0.0],[-77.1493,20.3724,0.0],[-77.1482,20.3701,0.0],[-77.1468,20.3701,0.0],[-77.1474,20.3718,0.0]]],
[[[-77.2574,20.2608,0.0],[-77.257,20.2609,0.0],[-77.2574,20.261,0.0],[-77.2574,20.2608,0.0]]],
[[[-77.2568,20.3004,0.0],[-77.2557,20.3032,0.0],[-77.2601,20.2996,0.8866],[-77.2574,20.2993,1.362],[-77.2568,20.3004,0.0]]],
[[[-77.2449,20.314,0.0],[-77.2515,20.3143,0.0],[-77.2549,20.3135,0.4068],[-77.2565,20.3113,0.5537],[-77.2468,20.3121,0.8673],[-77.2454,20.3065,0.7686],[-77.2418,20.3104,0.0],[-77.2449,20.314,0.0]]],
[[[-77.2157,20.3593,0.7894],[-77.2126,20.361,0.5993],[-77.2274,20.3596,0.4733],[-77.2321,20.3574,0.5522],[-77.2321,20.3535,1.3827],[-77.2262,20.3499,0.0],[-77.2237,20.3504,0.5076],[-77.2215,20.3479,0.0],[-77.2162,20.3482,0.0],[-77.2121,20.3524,0.3393],[-77.2193,20.3495,0.2397],[-77.2229,20.3521,0.0],[-77.2304,20.3532,1.3827],[-77.2312,20.356,1.2976],[-77.2262,20.3587,0.5492],[-77.2157,20.3593,0.7894]]],
[[[-77.2015,20.3579,0.6465],[-77.2029,20.3579,0.6465],[-77.2029,20.3551,0.0],[-77.2012,20.3557,0.0],[-77.2015,20.3579,0.6465]]],
[[[-77.1774,20.3707,0.3297],[-77.2068,20.3688,0.0],[-77.2112,20.3665,0.7673],[-77.2124,20.3629,0.0],[-77.2112,20.3654,1.5944],[-77.2063,20.3679,2.2924],[-77.1885,20.3679,0.3537],[-77.1796,20.3701,0.474],[-77.1735,20.3679,0.0],[-77.1774,20.3707,0.3297]]],
[[[-77.1674,20.3807,0.0],[-77.1715,20.3804,1.3925],[-77.1726,20.3785,0.5254],[-77.1721,20.3765,0.0],[-77.1718,20.3788,1.3925],[-77.169,20.3799,0.7367],[-77.1582,20.376,0.0],[-77.1526,20.3779,0.4627],[-77.1543,20.3807,0.0],[-77.1582,20.3771,0.5856],[-77.1674,20.3807,0.0]]]]}}