{"type": "Feature","bbox": [-61.5095,16.3389,-61.3982,16.4471],"geometry": {"type": "MultiPolygon","coordinates": [[[[-61.4317,16.4369,28.2343],[-61.4345,16.439,31.6662],[-61.4381,16.4382,29.6396],[-61.4392,16.4314,34.9117],[-61.4527,16.4258,21.6925],[-61.4606,16.4098,29.2731],[-61.4676,16.4078,24.8016],[-61.4855,16.412,15.04],[-61.4927,16.4107,19.6923],[-61.5095,16.3922,3.459],[-61.5001,16.384,2.887],[-61.496,16.3771,0.9365],[-61.4976,16.3726,0.0],[-61.496,16.3707,0.7456],[-61.4968,16.3682,0.0],[-61.5018,16.3649,0.7882],[-61.4974,16.3621,1.4218],[-61.4985,16.3596,0.6791],[-61.4965,16.3585,1.1599],[-61.4999,16.3551,0.0],[-61.4792,16.3519,6.803],[-61.451,16.3567,26.2962],[-61.4356,16.3389,20.2867],[-61.4235,16.3464,40.2624],[-61.4234,16.3533,53.9052],[-61.4187,16.3585,50.0536],[-61.4195,16.3688,47.9424],[-61.4141,16.3773,50.4138],[-61.4156,16.3906,47.1513],[-61.4054,16.3933,0.751],[-61.406,16.3954,0.0],[-61.404,16.3971,0.0],[-61.4054,16.406,0.0],[-61.4018,16.4077,0.0],[-61.4004,16.414,4.239],[-61.4018,16.416,5.7309],[-61.3982,16.4188,49.1186],[-61.3988,16.4326,5.0726],[-61.4007,16.4327,52.1093],[-61.4012,16.4421,0.0],[-61.4032,16.4429,29.6589],[-61.4041,16.4462,3.6608],[-61.4122,16.4396,44.9114],[-61.4133,16.4295,41.0446],[-61.4245,16.4209,33.7292],[-61.4312,16.4231,35.9986],[-61.4317,16.4369,28.2343]]],
[[[-61.4044,16.4471,0.0],[-61.4041,16.4462,3.6608],[-61.404,16.4471,0.0],[-61.4044,16.4471,0.0]]]]}
,"properties": {"GID_2": "GLP.2.9_1","GID_0": "GLP","country": "Guadeloupe","GID_1": "GLP.2_1","province": "Pointe-à-Pitre","NL_NAME_1": "NA","county": "Petit-Canal","VARNAME_2": "NA","NL_NAME_2": "NA","TYPE_2": "Chef-lieucanton","ENGTYPE_2": "Commune","CC_2": "19","HASC_2": "NA","name": "Petit-Canal.county","area_km2": 75.44355,"hist_schema_id": "Elevation0-9000","hist_area_km2": {"0": 10.47624,"25": 36.24643,"50": 28.31414,"75": 0.40674}}}