{"type":"Feature","properties":{"GID_3":"HTI.8.5.6_1","GID_0":"HTI","country":"Haiti","GID_1":"HTI.8_1","province":"Ouest","NL_NAME_1":"NA","GID_2":"HTI.8.5_1","county":"Port-au-Prince","NL_NAME_2":"NA","city":"Port-au-Prince","VARNAME_3":"NA","NL_NAME_3":"NA","TYPE_3":"Commune","ENGTYPE_3":"Commune","CC_3":"NA","HASC_3":"NA","name":"Port-au-Prince.city"},
"geometry":{"type": "MultiPolygon","coordinates": [[[[-72.318,18.5042,937.0107],[-72.3145,18.5055,932.4935],[-72.3081,18.5186,373.6409],[-72.3093,18.5271,221.6585],[-72.3077,18.5269,262.1409],[-72.3062,18.5293,257.7756],[-72.3026,18.5288,226.6155],[-72.3024,18.532,201.0907],[-72.3004,18.5304,217.0783],[-72.2932,18.5301,223.6317],[-72.2936,18.5359,198.752],[-72.3,18.5407,142.8365],[-72.3003,18.5426,135.3585],[-72.3059,18.5456,116.3266],[-72.3076,18.5487,104.9951],[-72.3143,18.5496,76.7173],[-72.3147,18.5522,61.4804],[-72.3343,18.5524,28.0761],[-72.3414,18.5565,12.2428],[-72.3388,18.5607,7.8292],[-72.3415,18.5632,5.7938],[-72.3467,18.5655,3.6039],[-72.3532,18.5647,0.0],[-72.3472,18.5633,1.6014],[-72.3525,18.5583,0.0],[-72.351,18.5557,2.0739],[-72.3549,18.5551,0.0],[-72.3484,18.5532,1.7339],[-72.3506,18.5493,2.1456],[-72.3503,18.544,1.3769],[-72.3579,18.5401,0.277],[-72.3582,18.5376,1.6464],[-72.361,18.5351,1.6896],[-72.3639,18.5373,0.0],[-72.3644,18.5337,4.367],[-72.3671,18.5359,0.0],[-72.3736,18.5336,5.7078],[-72.3713,18.5276,46.5201],[-72.373,18.5268,52.202],[-72.3725,18.5241,76.4567],[-72.3694,18.5239,72.9572],[-72.373,18.5163,160.9278],[-72.369,18.5135,257.2675],[-72.3683,18.4999,594.3262],[-72.3645,18.4969,841.6067],[-72.3502,18.4983,894.3757],[-72.3437,18.4974,937.3153],[-72.318,18.5042,937.0107]]]]}}