{"type": "Feature","bbox": [-72.5693,18.4715,-72.4449,18.5499],"geometry": {"type": "MultiPolygon","coordinates": [[[[-72.4712,18.4752,210.3656],[-72.4662,18.476,200.9644],[-72.4616,18.4744,268.6783],[-72.4545,18.476,204.8926],[-72.4494,18.4738,247.2112],[-72.4449,18.4783,233.0298],[-72.4454,18.4816,366.8258],[-72.4546,18.4938,500.1475],[-72.4575,18.4939,490.437],[-72.4605,18.498,479.441],[-72.4647,18.4999,468.5413],[-72.4614,18.5014,490.9382],[-72.4706,18.5119,434.8985],[-72.4621,18.5106,428.5548],[-72.46,18.5116,433.0463],[-72.4567,18.5267,241.7402],[-72.4586,18.5396,53.9845],[-72.4566,18.5467,2.6942],[-72.4724,18.5484,0.2357],[-72.4819,18.5451,5.7496],[-72.4831,18.5465,0.0],[-72.4882,18.5456,0.0],[-72.4958,18.5471,0.0],[-72.5005,18.5452,7.4354],[-72.5053,18.546,0.0],[-72.5065,18.5485,0.2313],[-72.5131,18.5491,0.0],[-72.5176,18.5455,1.5456],[-72.5196,18.5471,0.0],[-72.5254,18.5474,0.0],[-72.5389,18.5441,0.0],[-72.542,18.5449,0.9553],[-72.546,18.5499,0.4072],[-72.547,18.5454,3.6401],[-72.5614,18.5221,25.5122],[-72.5573,18.5169,38.7508],[-72.5577,18.5145,40.9053],[-72.5604,18.5157,31.8886],[-72.5648,18.5143,33.3675],[-72.5692,18.5092,45.1459],[-72.5693,18.4918,69.1852],[-72.5661,18.4895,73.5197],[-72.5558,18.4758,87.8216],[-72.5519,18.4728,93.1558],[-72.5456,18.4715,109.9276],[-72.5385,18.4746,117.9776],[-72.531,18.4716,132.8699],[-72.5261,18.4734,132.6517],[-72.5205,18.4716,170.4578],[-72.516,18.4726,159.1346],[-72.5105,18.4717,166.88],[-72.4944,18.4735,159.6158],[-72.4894,18.472,184.0859],[-72.4802,18.4749,180.8333],[-72.4712,18.4752,210.3656]]]]}
,"properties": {"GID_3": "HTI.8.5.3_1","GID_0": "HTI","country": "Haiti","GID_1": "HTI.8_1","province": "Ouest","NL_NAME_1": "NA","GID_2": "HTI.8.5_1","county": "Port-au-Prince","NL_NAME_2": "NA","city": "Grenier","VARNAME_3": "NA","NL_NAME_3": "NA","TYPE_3": "Commune","ENGTYPE_3": "Commune","CC_3": "NA","HASC_3": "NA","name": "Grenier.city","area_km2": 89.38921,"hist_schema_id": "Elevation0-9000","hist_area_km2": {"0": 3.91977,"25": 5.52816,"50": 6.19174,"75": 5.70954,"100": 5.62952,"125": 4.5035,"150": 4.18191,"175": 3.51843,"200": 3.39792,"225": 3.47831,"250": 3.21691,"275": 2.71435,"300": 2.3323,"325": 2.87523,"350": 2.61386,"375": 2.53338,"400": 2.69425,"425": 2.55354,"450": 2.33235,"475": 2.25197,"500": 2.97583,"525": 1.80967,"550": 2.39282,"575": 2.051,"600": 2.39285,"625": 1.70918,"650": 1.18638,"675": 1.26682,"700": 0.54293,"725": 0.46249,"750": 0.28152,"775": 0.12065,"800": 0.02011}}}