{"type":"Feature","properties":{"GID_1":"DOM.5_1","GID_0":"DOM","country":"DominicanRepublic","province":"DistritoNacional","VARNAME_1":"NA","NL_NAME_1":"NA","TYPE_1":"Distrito","ENGTYPE_1":"NationalDistrict","CC_1":"NA","HASC_1":"DO.NC","ISO_1":"NA","name":"Distrito_Nacional.province"},
"geometry":{"type": "MultiPolygon","coordinates": [[[[-69.8729,18.4655,4.4958],[-69.8739,18.4655,9.2867],[-69.8737,18.4864,42.6602],[-69.8655,18.5,39.0899],[-69.8667,18.5038,38.7676],[-69.871,18.508,37.9541],[-69.89,18.5146,4.401],[-69.8987,18.5082,41.6197],[-69.9117,18.5083,31.237],[-69.9231,18.5142,7.6605],[-69.9254,18.5184,2.4287],[-69.9277,18.5194,20.1079],[-69.9325,18.519,7.8153],[-69.9389,18.5148,22.9251],[-69.9428,18.5145,31.4138],[-69.9503,18.5192,24.6251],[-69.9521,18.5311,22.3444],[-69.9559,18.538,26.1164],[-69.9611,18.5418,10.541],[-69.9706,18.5445,10.1562],[-69.9816,18.5408,29.6795],[-69.9789,18.5349,41.4634],[-69.9851,18.5297,36.1269],[-69.9867,18.526,42.4809],[-69.9839,18.5173,37.4741],[-69.9844,18.5126,40.1614],[-69.988,18.5111,44.0745],[-70.0004,18.5117,51.3854],[-69.9918,18.5019,51.4282],[-69.9738,18.4903,41.5651],[-69.9593,18.4764,57.5706],[-69.9571,18.4716,51.3176],[-69.9577,18.4605,55.1155],[-69.967,18.4431,50.6714],[-69.9765,18.4338,42.3296],[-69.9882,18.4279,16.2329],[-69.9899,18.4218,0.0],[-69.9824,18.4257,7.5189],[-69.971,18.4257,1.4841],[-69.9538,18.4318,0.0],[-69.9476,18.4321,2.8362],[-69.9396,18.4349,0.0],[-69.9379,18.4368,0.0],[-69.9282,18.4404,0.0],[-69.9218,18.4468,0.0],[-69.9221,18.4499,8.2659],[-69.9179,18.4538,6.8034],[-69.9032,18.4601,0.0],[-69.8982,18.4607,1.3045],[-69.8879,18.4679,6.6796],[-69.8815,18.4674,1.0355],[-69.8821,18.466,0.0],[-69.8774,18.4665,7.4344],[-69.8754,18.4629,0.0],[-69.8729,18.4655,4.4958]]]]}}