{"type":"Feature","properties":{"ISO3166-1-Alpha-3":"DOM","country":"Dominican Republic","fill":"#F0F","id":"1985","name":"Distrito Nacional"},
"geometry":{"type": "Polygon","coordinates": [[[-69.92449,18.50009,50.7589],[-69.9435,18.50182,45.6058],[-69.9558,18.52024,10.9482],[-69.968,18.53675,20.2082],[-69.99477,18.52244,51.1346],[-69.9974,18.49388,51.6559],[-69.97518,18.46262,56.5938],[-69.98092,18.42647,7.5189],[-69.98092,18.42646,7.5189],[-69.96691,18.43081,16.6827],[-69.9571,18.43529,18.7344],[-69.93122,18.45197,19.4795],[-69.89981,18.46646,20.3958],[-69.88366,18.47101,13.7245],[-69.87938,18.47122,0.0],[-69.87937,18.47122,0.0],[-69.87782,18.50096,6.9519],[-69.90573,18.50497,43.3306],[-69.92449,18.50009,50.7589]]]}}