{"type":"Feature","properties":{"GID_2":"GLP.2.3_1","GID_0":"GLP","country":"Guadeloupe","GID_1":"GLP.2_1","province":"Pointe-à-Pitre","NL_NAME_1":"NA","county":"Grand-Bourg","VARNAME_2":"NA","NL_NAME_2":"NA","TYPE_2":"Chef-lieucanton","ENGTYPE_2":"Commune","CC_2":"12","HASC_2":"NA","name":"Grand-Bourg.county"},
"geometry":{"type": "MultiPolygon","coordinates": [[[[-61.2641,15.9244,82.3592],[-61.2744,15.9268,70.1355],[-61.2821,15.9339,64.7621],[-61.2966,15.9341,18.8946],[-61.3101,15.9389,3.717],[-61.3195,15.9493,3.1202],[-61.324,15.9496,0.0],[-61.3374,15.9421,0.0],[-61.3338,15.9182,2.0195],[-61.329,15.9063,1.6156],[-61.329,15.9032,2.6444],[-61.3318,15.8999,1.7672],[-61.3265,15.8954,3.4216],[-61.3237,15.8876,3.7886],[-61.3157,15.8793,0.0],[-61.3074,15.8788,4.6993],[-61.3029,15.8749,0.745],[-61.2921,15.8729,3.108],[-61.2882,15.8701,0.0],[-61.2826,15.8699,5.7143],[-61.2796,15.8665,0.0],[-61.2682,15.8676,1.4166],[-61.2629,15.871,15.9496],[-61.2594,15.8712,5.0106],[-61.2571,15.8812,114.3376],[-61.2498,15.8929,144.0128],[-61.2558,15.9005,139.9496],[-61.2521,15.9171,94.9323],[-61.2641,15.9244,82.3592]]]]}}