{"type":"Feature","properties":{"GID_2":"CUB.6.1_1","GID_0":"CUB","country":"Cuba","GID_1":"CUB.6_1","province":"Guantánamo","NL_NAME_1":"NA","county":"Baracoa","VARNAME_2":"NA","NL_NAME_2":"NA","TYPE_2":"Municipio","ENGTYPE_2":"Municipality","CC_2":"NA","HASC_2":"CU.GU.BA","name":"Baracoa.county"},
"geometry":{"type": "MultiPolygon","coordinates": [[[[-74.4304,20.2168,155.0452],[-74.4155,20.2241,161.5219],[-74.4002,20.2356,237.4356],[-74.3691,20.2506,458.9038],[-74.3374,20.2802,286.9873],[-74.326,20.2946,3.2792],[-74.3399,20.2968,1.238],[-74.3415,20.2968,0.0],[-74.3424,20.2946,2.3707],[-74.376,20.2954,8.0078],[-74.3801,20.2907,2.2168],[-74.3782,20.2888,1.3713],[-74.3788,20.2854,2.8735],[-74.3851,20.2843,0.0],[-74.3874,20.2901,3.0075],[-74.3815,20.2926,0.0],[-74.3812,20.2971,0.0],[-74.3876,20.2985,8.3613],[-74.401,20.3101,2.9483],[-74.4154,20.3046,2.4656],[-74.4099,20.3082,0.0],[-74.4049,20.3093,0.0],[-74.4032,20.3118,9.3461],[-74.4062,20.3149,1.0503],[-74.4112,20.316,7.3511],[-74.4185,20.321,0.0],[-74.419,20.3229,0.0],[-74.4296,20.3312,1.6682],[-74.4368,20.3349,1.8383],[-74.4365,20.3365,0.0],[-74.4407,20.3385,6.0493],[-74.4421,20.3413,0.0],[-74.444,20.3413,0.0],[-74.4526,20.3479,0.0],[-74.4687,20.3512,0.0],[-74.4749,20.3468,0.0],[-74.4749,20.341,0.0],[-74.4846,20.3382,1.4495],[-74.491,20.3418,0.4886],[-74.4951,20.3512,0.0],[-74.4979,20.3535,1.4834],[-74.5015,20.3537,3.8843],[-74.5024,20.3493,0.448],[-74.5062,20.3504,2.5878],[-74.5085,20.3551,3.9624],[-74.5051,20.3568,0.0],[-74.5018,20.3563,3.2395],[-74.5024,20.3654,1.536],[-74.511,20.3743,0.0],[-74.5124,20.3735,0.0],[-74.5121,20.371,0.0],[-74.5154,20.371,0.0],[-74.5226,20.3757,0.9741],[-74.5215,20.3776,0.0],[-74.5282,20.3893,0.0],[-74.5349,20.3854,3.355],[-74.5379,20.3857,0.0],[-74.5343,20.3874,0.0],[-74.5312,20.3924,0.0],[-74.5329,20.3943,0.0],[-74.5321,20.3988,0.0],[-74.5354,20.4037,6.2567],[-74.5349,20.411,14.5377],[-74.5379,20.4193,0.0],[-74.5432,20.4251,6.9879],[-74.5457,20.4254,4.358],[-74.5479,20.4232,8.0407],[-74.5468,20.4276,0.0],[-74.554,20.4279,0.0],[-74.5579,20.4254,2.8638],[-74.5593,20.4224,0.0],[-74.561,20.4232,0.0],[-74.5576,20.4265,0.0],[-74.5576,20.4293,0.0],[-74.5615,20.4312,2.5418],[-74.5626,20.4385,0.0],[-74.5685,20.4451,0.0],[-74.5713,20.4451,2.8858],[-74.5715,20.4479,0.0],[-74.576,20.4493,2.9852],[-74.5754,20.4513,4.3189],[-74.5696,20.4504,0.0],[-74.5696,20.4574,6.7667],[-74.571,20.4599,0.6955],[-74.5776,20.4646,0.0],[-74.5851,20.4668,3.4471],[-74.5904,20.4718,2.5252],[-74.5921,20.4715,2.5252],[-74.5904,20.476,0.0],[-74.5943,20.4821,0.0],[-74.599,20.4851,2.8069],[-74.6087,20.4854,2.0882],[-74.6115,20.4804,10.6223],[-74.6132,20.4821,11.2359],[-74.6121,20.4849,0.0],[-74.6157,20.4862,3.6967],[-74.6154,20.4879,0.6548],[-74.6201,20.4918,1.2242],[-74.6224,20.4918,2.6985],[-74.6235,20.4893,0.0],[-74.6274,20.4876,0.0],[-74.6271,20.4907,3.8164],[-74.6224,20.4932,0.0],[-74.6257,20.4996,0.0],[-74.6288,20.5007,0.0],[-74.6312,20.5046,0.0],[-74.6396,20.509,1.0341],[-74.6476,20.5107,0.0],[-74.6565,20.519,0.0],[-74.6588,20.5182,6.5073],[-74.6626,20.5221,0.0],[-74.6676,20.5229,1.2681],[-74.6674,20.5154,27.8587],[-74.6693,20.5149,7.5573],[-74.6712,20.5112,3.5171],[-74.6757,20.5224,12.103],[-74.6721,20.5238,12.6566],[-74.6693,20.5218,0.0],[-74.669,20.526,0.0],[-74.671,20.5263,2.6524],[-74.6787,20.5346,0.9732],[-74.6826,20.5343,1.9606],[-74.6851,20.5365,0.4357],[-74.6951,20.5332,3.9403],[-74.6979,20.5349,3.1087],[-74.7021,20.534,3.4078],[-74.6999,20.5365,0.7576],[-74.6999,20.5393,0.0],[-74.7029,20.5476,0.6793],[-74.7085,20.5499,1.5798],[-74.7118,20.5532,1.744],[-74.7179,20.5504,2.4276],[-74.7143,20.556,1.4067],[-74.7162,20.5596,0.2784],[-74.7154,20.5629,0.0],[-74.7215,20.5737,1.0967],[-74.7232,20.574,0.7981],[-74.7254,20.571,2.0402],[-74.7218,20.5657,0.0],[-74.7174,20.5635,0.3919],[-74.7176,20.5599,0.2784],[-74.726,20.5543,0.7788],[-74.7279,20.5579,0.0],[-74.7296,20.5704,0.0],[-74.7312,20.5718,5.4247],[-74.7293,20.574,0.0],[-74.7326,20.5768,0.5359],[-74.7318,20.5788,0.0],[-74.7349,20.5796,0.9941],[-74.7354,20.5821,0.0],[-74.7408,20.5829,3.154],[-74.7492,20.5741,39.4565],[-74.7565,20.5628,22.7534],[-74.7597,20.5454,294.5367],[-74.7505,20.4954,237.7938],[-74.7519,20.4842,502.6768],[-74.7574,20.4791,449.9864],[-74.7806,20.47,298.5248],[-74.791,20.462,306.7574],[-74.7782,20.4576,297.3525],[-74.7429,20.4555,609.8395],[-74.7281,20.4502,700.4273],[-74.7057,20.4473,571.8771],[-74.6918,20.4401,373.5736],[-74.6897,20.4322,294.3954],[-74.7045,20.399,171.7586],[-74.7022,20.3354,435.5906],[-74.6848,20.303,317.4506],[-74.6706,20.2855,301.7266],[-74.6543,20.25,576.8688],[-74.5978,20.3051,428.1853],[-74.5878,20.3094,314.6492],[-74.5818,20.3035,422.8948],[-74.5823,20.2571,525.9689],[-74.5773,20.247,636.3597],[-74.567,20.2451,344.4463],[-74.4978,20.2447,299.499],[-74.4506,20.2231,180.1693],[-74.4304,20.2168,155.0452]]]]}}