{"type": "Feature","bbox": [-72.2542,18.1951,-71.9167,18.3573],"geometry": {"type": "MultiPolygon","coordinates": [[[[-71.9684,18.3144,1901.469],[-71.9742,18.3128,1839.7937],[-71.9858,18.3148,1811.4943],[-72.0022,18.3115,1555.293],[-72.0039,18.3178,1675.5206],[-72.0126,18.3169,1587.0013],[-72.0327,18.3196,1844.3323],[-72.0392,18.3275,1922.9287],[-72.0396,18.323,1896.3727],[-72.0418,18.3206,1909.8571],[-72.0457,18.3204,1830.2443],[-72.0482,18.325,1879.2764],[-72.0558,18.3264,1836.5472],[-72.0647,18.3199,1439.4017],[-72.0674,18.3202,1380.7856],[-72.0755,18.3244,1548.5406],[-72.084,18.3347,1666.4542],[-72.0902,18.3375,1786.3644],[-72.1061,18.3354,1872.4426],[-72.1158,18.3369,1904.549],[-72.1276,18.3364,1879.6881],[-72.1373,18.3393,1859.3376],[-72.1472,18.3456,1787.295],[-72.1598,18.3486,1928.2218],[-72.1793,18.3464,1926.375],[-72.1899,18.3532,1969.0972],[-72.2113,18.351,2011.8755],[-72.2181,18.3484,2118.3806],[-72.2282,18.3519,2209.4917],[-72.2449,18.3537,2182.7891],[-72.2542,18.3573,1985.0532],[-72.2534,18.3521,2168.6167],[-72.2357,18.3364,2139.6375],[-72.2405,18.3274,1876.4332],[-72.2379,18.323,1790.2281],[-72.2384,18.3194,1749.1289],[-72.2324,18.3123,1642.5596],[-72.2293,18.3043,1544.5378],[-72.2303,18.3007,1512.9048],[-72.2324,18.299,1499.8218],[-72.2323,18.2965,1473.3455],[-72.2303,18.2931,1436.6599],[-72.2293,18.2833,1286.6835],[-72.2269,18.2795,1275.5662],[-72.2306,18.2681,1085.2513],[-72.2279,18.2611,929.3733],[-72.221,18.2513,737.9791],[-72.2225,18.243,609.6527],[-72.2222,18.2288,270.0374],[-72.224,18.2221,19.5144],[-72.2257,18.2221,19.5144],[-72.216,18.2199,0.0],[-72.2143,18.2199,0.0],[-72.2134,18.2224,74.6635],[-72.1981,18.2216,0.0],[-72.1924,18.2242,59.7722],[-72.1868,18.2243,66.551],[-72.1827,18.2268,16.4477],[-72.1736,18.2277,53.3409],[-72.1707,18.2265,0.0],[-72.1585,18.2316,22.0862],[-72.1449,18.2293,1.4559],[-72.1335,18.2318,0.0],[-72.1268,18.2289,42.9145],[-72.1268,18.2276,0.0],[-72.1207,18.2309,64.2405],[-72.1182,18.2301,0.0],[-72.0999,18.2354,0.0],[-72.0907,18.2351,0.0],[-72.089,18.2335,0.0],[-72.084,18.2382,7.477],[-72.0749,18.2357,2.7088],[-72.0682,18.236,3.4035],[-72.0671,18.2343,0.7811],[-72.0624,18.2365,0.0],[-72.0529,18.2371,29.8659],[-72.0482,18.2332,0.0],[-72.0401,18.2313,7.8744],[-72.0385,18.2243,0.0],[-72.0338,18.2193,5.8853],[-72.0343,18.2168,0.0],[-72.0156,18.209,5.7492],[-72.0096,18.2049,0.0],[-72.0035,18.2093,0.0],[-72.0018,18.2135,4.5542],[-71.9999,18.2135,0.0],[-71.994,18.2113,1.3105],[-71.9904,18.2068,16.5646],[-71.9904,18.2043,16.8228],[-71.984,18.2012,12.0013],[-71.9574,18.1951,0.0],[-71.947,18.204,270.8398],[-71.9477,18.2082,290.6729],[-71.9455,18.2127,363.5201],[-71.941,18.2138,397.2004],[-71.9385,18.2171,444.7888],[-71.9367,18.2226,394.3791],[-71.9398,18.2249,357.6768],[-71.9368,18.2266,401.2579],[-71.9332,18.2321,367.4044],[-71.939,18.232,351.6007],[-71.939,18.2345,403.3828],[-71.9309,18.241,425.1598],[-71.9341,18.2551,455.5167],[-71.9276,18.2645,667.9185],[-71.9315,18.2731,600.6373],[-71.9167,18.2952,1268.8492],[-71.9336,18.3069,1660.449],[-71.9526,18.3173,1796.6917],[-71.9661,18.3161,1913.1041],[-71.9684,18.3144,1901.469]]],
[[[-72.2285,18.2229,8.5086],[-72.2257,18.2227,19.5144],[-72.2279,18.2237,8.5086],[-72.2301,18.2224,14.4458],[-72.2285,18.2229,8.5086]]]]}
,"properties": {"GID_3": "HTI.9.2.2_1","GID_0": "HTI","country": "Haiti","GID_1": "HTI.9_1","province": "Sud-Est","NL_NAME_1": "NA","GID_2": "HTI.9.2_1","county": "Belle-Anse","NL_NAME_2": "NA","city": "Belle-Anse","VARNAME_3": "NA","NL_NAME_3": "NA","TYPE_3": "Commune","ENGTYPE_3": "Commune","CC_3": "NA","HASC_3": "NA","name": "Belle-Anse.city","area_km2": 385.4763,"hist_schema_id": "Elevation0-9000","hist_area_km2": {"0": 5.0548,"25": 7.713,"50": 5.3768,"75": 5.3364,"100": 5.7995,"125": 7.2091,"150": 6.766,"175": 7.0681,"200": 7.2493,"225": 6.3833,"250": 6.5243,"275": 7.4908,"300": 6.9067,"325": 11.9003,"350": 10.5513,"375": 9.5646,"400": 8.5978,"425": 6.9265,"450": 6.2619,"475": 5.4363,"500": 5.0134,"525": 5.0939,"550": 5.2146,"575": 5.0938,"600": 5.3957,"625": 5.0735,"650": 4.7916,"675": 4.248,"700": 4.4292,"725": 4.3285,"750": 4.1674,"775": 4.6305,"800": 4.7512,"825": 4.5901,"850": 4.4693,"875": 3.664,"900": 3.3821,"925": 3.4022,"950": 3.3821,"975": 3.7444,"1000": 3.2613,"1025": 3.7847,"1050": 3.5431,"1075": 3.1606,"1100": 3.9457,"1125": 3.684,"1150": 4.0463,"1175": 4.2274,"1200": 4.1871,"1225": 3.865,"1250": 3.7039,"1275": 3.9656,"1300": 3.8448,"1325": 3.885,"1350": 3.8649,"1375": 4.046,"1400": 3.9252,"1425": 3.905,"1450": 3.7842,"1475": 4.0258,"1500": 4.1667,"1525": 4.0257,"1550": 3.2608,"1575": 3.8646,"1600": 3.1802,"1625": 3.2607,"1650": 3.3009,"1675": 3.6028,"1700": 3.5223,"1725": 3.4619,"1750": 3.4216,"1775": 3.0795,"1800": 3.1801,"1825": 3.2807,"1850": 3.1196,"1875": 3.1397,"1900": 3.5221,"1925": 3.2,"1950": 1.932,"1975": 1.5295,"2000": 1.5094,"2025": 1.3484,"2050": 1.4087,"2075": 1.1069,"2100": 1.1873,"2125": 0.9459,"2150": 1.0465,"2175": 1.0465,"2200": 0.7647,"2225": 0.3421,"2250": 0.0805}}}