{"type": "Feature","bbox": [-79.9633,22.4994,-79.6276,22.9099],"geometry": {"type": "MultiPolygon","coordinates": [[[[-79.6308,22.6938,5.7193],[-79.6276,22.696,1.0611],[-79.6349,22.7024,0.598],[-79.6349,22.706,0.0],[-79.6382,22.7121,0.8291],[-79.6382,22.7168,0.7761],[-79.636,22.7185,0.0],[-79.6385,22.7226,1.1656],[-79.6376,22.7349,0.0],[-79.6485,22.7501,3.9996],[-79.646,22.7551,1.8345],[-79.6485,22.761,2.4324],[-79.6557,22.7626,0.0],[-79.6582,22.761,2.2298],[-79.6624,22.7613,1.1862],[-79.6635,22.7629,0.4599],[-79.6668,22.7615,3.3415],[-79.674,22.7688,0.0],[-79.6779,22.7649,1.4855],[-79.6785,22.7618,3.9024],[-79.6829,22.7593,3.4915],[-79.689,22.7515,4.9181],[-79.701,22.7488,0.0],[-79.7035,22.7468,2.5175],[-79.7038,22.7446,2.5917],[-79.7213,22.7632,0.1754],[-79.7329,22.7663,0.3724],[-79.7449,22.7732,1.2726],[-79.756,22.7763,1.2261],[-79.7604,22.7804,0.1781],[-79.766,22.7821,0.0],[-79.7732,22.7899,0.0],[-79.7796,22.7926,0.0],[-79.7799,22.7946,0.0],[-79.7926,22.7954,2.8521],[-79.796,22.7932,1.3293],[-79.7982,22.7949,0.8228],[-79.7962,22.7979,2.7987],[-79.7979,22.801,0.0],[-79.814,22.8001,2.3211],[-79.8171,22.7985,4.9979],[-79.824,22.799,0.0],[-79.824,22.7974,1.366],[-79.8274,22.8018,1.6965],[-79.8299,22.8021,0.0],[-79.8443,22.7996,1.396],[-79.8476,22.7985,3.6148],[-79.8476,22.7965,3.8377],[-79.8507,22.7974,0.0],[-79.8535,22.7957,1.8708],[-79.8568,22.8018,1.2916],[-79.8568,22.8126,1.2435],[-79.8538,22.8221,0.0],[-79.8587,22.824,3.2234],[-79.8599,22.8274,0.0],[-79.8646,22.8288,1.7915],[-79.8671,22.8329,6.6145],[-79.8798,22.8211,3.0784],[-79.9029,22.7954,3.2709],[-79.9268,22.7808,5.2779],[-79.944,22.7634,5.6847],[-79.9464,22.7539,5.9443],[-79.9474,22.724,5.141],[-79.9633,22.689,69.0584],[-79.9503,22.67,63.1947],[-79.9308,22.6495,126.576],[-79.9211,22.6314,106.7156],[-79.9175,22.6104,93.6654],[-79.9108,22.5929,75.6201],[-79.909,22.5392,87.2805],[-79.8967,22.4994,86.7061],[-79.8825,22.5043,67.7781],[-79.7615,22.5616,43.8924],[-79.7104,22.6331,18.5119],[-79.6635,22.6769,6.0397],[-79.6308,22.6938,5.7193]]],
[[[-79.701,22.8521,3.5037],[-79.7004,22.8549,1.2041],[-79.7093,22.8526,1.1901],[-79.7101,22.8543,0.9584],[-79.7121,22.8535,0.0],[-79.7096,22.8501,1.2908],[-79.7051,22.8479,2.4842],[-79.7021,22.8487,0.6593],[-79.701,22.8521,3.5037]]],
[[[-79.7315,22.8882,0.8363],[-79.736,22.8879,0.0],[-79.7363,22.8851,0.7163],[-79.7401,22.8838,1.2172],[-79.7346,22.8829,0.0],[-79.739,22.8785,0.5403],[-79.7424,22.8704,0.5194],[-79.726,22.8629,0.9203],[-79.7213,22.8626,0.4004],[-79.7226,22.8674,0.6771],[-79.7274,22.8696,1.8422],[-79.7279,22.8726,0.7798],[-79.7232,22.8726,0.0],[-79.7226,22.8743,0.4068],[-79.7187,22.8754,0.0],[-79.7185,22.8768,1.0222],[-79.7154,22.8768,0.0],[-79.7151,22.8782,0.0],[-79.7218,22.8821,0.0],[-79.7251,22.8868,0.3552],[-79.7315,22.8882,0.8363]]],
[[[-79.7546,22.8782,2.4995],[-79.7554,22.879,0.0],[-79.759,22.874,4.6704],[-79.7551,22.8757,7.8827],[-79.7546,22.8782,2.4995]]],
[[[-79.6493,22.8079,1.3092],[-79.6513,22.8076,0.7813],[-79.6515,22.8054,0.0],[-79.6493,22.806,3.3856],[-79.6493,22.8079,1.3092]]],
[[[-79.6588,22.8176,1.8855],[-79.6615,22.8182,3.0727],[-79.664,22.8163,5.1169],[-79.6649,22.8121,0.0],[-79.6699,22.8049,0.7331],[-79.6657,22.8037,0.0],[-79.6624,22.8063,1.191],[-79.6574,22.806,1.7259],[-79.6549,22.8082,0.8531],[-79.6524,22.8079,1.4116],[-79.6518,22.811,0.0],[-79.6535,22.8135,0.0],[-79.6521,22.8146,0.0],[-79.6562,22.8176,0.0],[-79.6588,22.8176,1.8855]]],
[[[-79.6888,22.8607,0.0],[-79.6937,22.861,0.0],[-79.6982,22.8579,3.3122],[-79.6943,22.8546,0.9059],[-79.6976,22.8515,0.9145],[-79.6949,22.8529,0.6436],[-79.6915,22.8518,0.0],[-79.6907,22.844,0.7125],[-79.6879,22.846,1.7098],[-79.6857,22.8438,0.9072],[-79.689,22.8421,0.3265],[-79.6901,22.8393,1.7116],[-79.6921,22.8399,1.2267],[-79.6913,22.8424,0.0],[-79.6932,22.8421,0.0],[-79.6985,22.8354,0.9274],[-79.696,22.8312,1.3966],[-79.6854,22.8307,3.2269],[-79.6879,22.8296,0.0],[-79.6865,22.8282,0.0],[-79.679,22.8296,1.0309],[-79.6687,22.8385,1.6136],[-79.6607,22.8374,2.015],[-79.6532,22.851,0.0],[-79.6537,22.8526,0.0],[-79.6554,22.8526,1.0932],[-79.6663,22.849,1.1136],[-79.6721,22.8487,1.5393],[-79.684,22.854,2.4105],[-79.6888,22.8607,0.0]]],
[[[-79.6915,22.886,1.2239],[-79.6926,22.8876,0.3059],[-79.6924,22.8863,1.2239],[-79.6954,22.884,0.0],[-79.6932,22.8838,2.8134],[-79.6932,22.879,0.512],[-79.6899,22.8749,2.6605],[-79.6954,22.8726,0.0],[-79.6935,22.8701,0.0],[-79.6954,22.8679,0.6062],[-79.6963,22.8701,1.0305],[-79.7018,22.8693,0.5797],[-79.7001,22.8671,0.2931],[-79.7032,22.8632,0.5705],[-79.7051,22.8632,0.313],[-79.7051,22.8651,0.0],[-79.7007,22.8715,0.6962],[-79.7015,22.8754,0.7353],[-79.6971,22.874,0.0],[-79.6963,22.876,0.0],[-79.6974,22.8768,0.0],[-79.7087,22.879,0.0],[-79.7115,22.8749,0.3547],[-79.7218,22.8699,0.464],[-79.7182,22.8582,0.0],[-79.7126,22.8546,0.9991],[-79.7093,22.8546,0.4051],[-79.7063,22.8574,0.6594],[-79.7038,22.8565,0.9919],[-79.7026,22.8587,1.1512],[-79.6913,22.8632,3.4557],[-79.6896,22.8743,2.6605],[-79.6851,22.8757,3.9113],[-79.684,22.8793,0.0],[-79.6915,22.886,1.2239]]],
[[[-79.7001,22.8846,0.0],[-79.7018,22.8851,0.0],[-79.7021,22.8835,0.0],[-79.6971,22.884,0.0],[-79.6971,22.8849,0.0],[-79.7001,22.8846,0.0]]],
[[[-79.6768,22.8907,0.0],[-79.6771,22.8924,0.0],[-79.6787,22.8921,0.0],[-79.679,22.8879,0.0],[-79.6768,22.889,0.0],[-79.6768,22.8907,0.0]]],
[[[-79.7218,22.909,0.0],[-79.7229,22.9099,0.7946],[-79.7243,22.9079,0.8971],[-79.7218,22.9057,1.2996],[-79.7226,22.9043,0.5488],[-79.724,22.906,0.8546],[-79.7268,22.9046,0.0],[-79.7162,22.8946,0.3062],[-79.7218,22.8965,0.944],[-79.7249,22.8901,0.0],[-79.7215,22.891,0.5715],[-79.7207,22.8932,0.7154],[-79.7179,22.8918,1.5966],[-79.7154,22.8851,0.8286],[-79.7182,22.8863,0.6155],[-79.7199,22.8904,0.2002],[-79.7229,22.8888,0.0],[-79.7221,22.886,0.5399],[-79.7187,22.8818,0.0],[-79.7154,22.881,0.7305],[-79.7157,22.8793,0.338],[-79.711,22.879,0.435],[-79.7087,22.8812,0.0],[-79.711,22.8821,0.5316],[-79.7118,22.8846,0.4846],[-79.7093,22.8854,0.0],[-79.7101,22.8888,0.3738],[-79.7087,22.8885,0.0],[-79.7087,22.8899,0.0],[-79.7118,22.8901,0.3738],[-79.7107,22.8918,1.4187],[-79.7126,22.8946,0.0],[-79.7093,22.8957,0.0],[-79.7085,22.8999,0.0],[-79.714,22.899,0.4716],[-79.7193,22.9035,1.2402],[-79.7215,22.903199999999998,1.0942],[-79.7213,22.9049,0.7642],[-79.7182,22.903199999999998,1.2402],[-79.7174,22.9043,0.0],[-79.7218,22.909,0.0]]],
[[[-79.7249,22.8982,1.2532],[-79.7279,22.899,0.0],[-79.7288,22.8974,0.0],[-79.7249,22.8968,0.0],[-79.7249,22.8982,1.2532]]],
[[[-79.7085,22.9018,0.5933],[-79.709,22.9029,0.0],[-79.7107,22.9021,0.0],[-79.7063,22.9004,0.0],[-79.7063,22.9013,0.0],[-79.7085,22.9018,0.5933]]]]}
,"properties": {"GID_2": "CUB.16.5_1","GID_0": "CUB","country": "Cuba","GID_1": "CUB.16_1","province": "VillaClara","NL_NAME_1": "NA","county": "Encrucijada","VARNAME_2": "NA","NL_NAME_2": "NA","TYPE_2": "Municipio","ENGTYPE_2": "Municipality","CC_2": "NA","HASC_2": "CU.VC.EN","name": "Encrucijada.county","area_km2": 727.4073,"hist_schema_id": "Elevation0-9000","hist_area_km2": {"0": 371.9106,"25": 178.7701,"50": 98.1293,"75": 60.316,"100": 15.8157,"125": 1.8003,"150": 0.5674,"175": 0.0978}}}