{"type": "Feature","bbox": [-66.3206,18.0762,-66.2167,18.1802],"geometry": {"type": "MultiPolygon","coordinates": [[[[-66.3147,18.1518,711.903],[-66.3169,18.1399,702.8477],[-66.3128,18.1375,673.5453],[-66.3206,18.1261,680.3585],[-66.2951,18.1061,456.0459],[-66.2771,18.0957,339.2666],[-66.2692,18.0861,296.3705],[-66.2627,18.0857,349.1312],[-66.26,18.0828,443.0985],[-66.2576,18.0762,614.6557],[-66.242,18.0772,343.7222],[-66.2397,18.0848,463.5513],[-66.2401,18.0929,757.2685],[-66.2244,18.0953,661.593],[-66.2268,18.1168,679.7278],[-66.2204,18.1206,623.4046],[-66.2208,18.1316,398.7292],[-66.2172,18.1359,337.6091],[-66.2167,18.1431,286.8775],[-66.2204,18.145,280.422],[-66.22,18.1497,302.3257],[-66.2278,18.1507,272.9032],[-66.2237,18.1554,269.8696],[-66.2288,18.1583,272.1907],[-66.2209,18.165,298.429],[-66.2427,18.1802,251.1686],[-66.2477,18.1745,282.948],[-66.2491,18.1702,306.2569],[-66.2482,18.1659,289.3203],[-66.2556,18.1663,289.6953],[-66.2565,18.1711,311.843],[-66.2778,18.1744,338.9964],[-66.2925,18.1653,481.5864],[-66.2981,18.1652,506.3063],[-66.3018,18.159,537.5089],[-66.3101,18.1595,579.2694],[-66.3147,18.1518,711.903]]]]}
,"properties": {"GID_1": "PRI.5_1","GID_0": "PRI","country": "PuertoRico","province": "Aibonito","VARNAME_1": "NA","NL_NAME_1": "NA","TYPE_1": "Municipio","ENGTYPE_1": "Municipality","CC_1": "NA","HASC_1": "PR.AI","ISO_1": "-","name": "Aibonito.province","area_km2": 80.69846,"hist_schema_id": "Elevation0-9000","hist_area_km2": {"250": 0.26188,"275": 0.90659,"300": 2.2766,"325": 1.59168,"350": 2.33722,"375": 2.1357,"400": 2.27689,"425": 2.29701,"450": 1.83359,"475": 1.99484,"500": 2.57914,"525": 2.78064,"550": 3.16346,"575": 4.53347,"600": 10.11459,"625": 14.24575,"650": 10.21601,"675": 6.32715,"700": 4.31226,"725": 2.37785,"750": 1.20911,"775": 0.52396,"800": 0.18137,"825": 0.14107,"850": 0.08061}}}