{"type":"Feature","properties":{"ISO3166-1-Alpha-3":"AIA","country":"Anguilla","fill":"#00F","id":"5123","name":"Stoney Ground"},
"geometry":{"type": "Polygon","coordinates": [[[-63.01352,18.26096,0.0],[-63.0135,18.27197,0.0],[-63.02292,18.27035,0.0],[-63.02228,18.26256,0.0],[-63.02587,18.253,14.2014],[-63.03901,18.2526,0.0],[-63.04811,18.23544,39.1237],[-63.04411,18.23227,53.6245],[-63.04275,18.23489,47.4867],[-63.0293,18.23516,18.4526],[-63.02308,18.25101,23.7044],[-63.01113,18.25021,10.1335],[-62.9952,18.25619,24.9677],[-63.00317,18.26096,1.1874],[-63.01352,18.26096,0.0]]]}}