{"type": "Feature","bbox": [-81.1746,19.2921,-81.0846,19.3551],"geometry": {"type": "MultiPolygon","coordinates": [[[[-81.17,19.3479,2.2244],[-81.1746,19.3013,0.5535],[-81.1663,19.3013,1.4382],[-81.1571,19.2938,0.5707],[-81.1454,19.294,3.3809],[-81.1415,19.2921,3.2576],[-81.1151,19.2929,0.0],[-81.0996,19.3001,0.0],[-81.0901,19.3096,0.0],[-81.0874,19.316,3.814],[-81.0846,19.3251,0.5556],[-81.086,19.3418,0.0],[-81.0965,19.3535,1.3459],[-81.114,19.3532,6.1653],[-81.1329,19.3551,1.9682],[-81.1365,19.3529,5.1514],[-81.1549,19.3526,0.0],[-81.17,19.3479,2.2244]]]]}
,"properties": {"GID_1": "CYM.3_1","GID_0": "CYM","country": "CaymanIslands","province": "EastEnd","VARNAME_1": "NA","NL_NAME_1": "NA","TYPE_1": "District","ENGTYPE_1": "District","CC_1": "NA","HASC_1": "KY.EE","ISO_1": "NA","name": "East_End.province","area_km2": 55.76149,"hist_schema_id": "Elevation0-9000","hist_area_km2": {"0": 55.26133,"25": 0.50016}}}