{"type": "Feature","bbox": [-72.2251,19.4921,-72.0953,19.6239],"geometry": {"type": "MultiPolygon","coordinates": [[[[-72.1379,19.5054,121.3863],[-72.1326,19.5071,108.7151],[-72.1308,19.5055,138.4788],[-72.1317,19.5019,121.956],[-72.1271,19.5021,244.5924],[-72.1127,19.5051,399.2917],[-72.1031,19.5109,538.5907],[-72.0975,19.5115,629.5236],[-72.0953,19.5161,629.934],[-72.0996,19.5184,636.5298],[-72.1036,19.5238,577.0238],[-72.1026,19.5288,522.7958],[-72.0978,19.5315,499.5561],[-72.0968,19.5369,365.6573],[-72.098,19.5413,296.7083],[-72.1012,19.5431,290.6362],[-72.1003,19.5458,289.2503],[-72.1013,19.5484,290.4839],[-72.1043,19.5493,299.1968],[-72.1028,19.5518,283.9971],[-72.1055,19.5537,267.2466],[-72.1078,19.5591,249.7404],[-72.1141,19.5587,133.9144],[-72.1117,19.5614,285.6388],[-72.111,19.5673,305.6376],[-72.1153,19.5752,308.8295],[-72.12,19.5748,277.2059],[-72.1184,19.5797,323.3293],[-72.1221,19.5855,345.2491],[-72.1211,19.5887,345.2474],[-72.1327,19.5894,400.7473],[-72.1383,19.597,410.6027],[-72.1453,19.5952,541.3626],[-72.1472,19.5986,546.0082],[-72.1513,19.5987,540.3815],[-72.1591,19.6108,246.0737],[-72.1633,19.622,71.3864],[-72.167,19.6239,35.4792],[-72.1737,19.6205,46.1558],[-72.1746,19.6173,149.5335],[-72.1812,19.6127,324.5219],[-72.1826,19.6097,328.1425],[-72.217,19.5891,509.251],[-72.2251,19.5815,552.4544],[-72.221,19.5787,693.6202],[-72.2181,19.5686,462.0458],[-72.2138,19.5661,521.0466],[-72.2137,19.5571,547.7393],[-72.2197,19.5241,537.6285],[-72.2146,19.5207,655.769],[-72.2115,19.5138,800.6896],[-72.2023,19.5026,661.0351],[-72.1978,19.5006,533.6963],[-72.1939,19.495,814.3252],[-72.1838,19.4956,650.3695],[-72.181,19.4921,683.401],[-72.1706,19.4989,365.5374],[-72.154,19.506,440.8549],[-72.1458,19.5022,173.185],[-72.1408,19.5027,145.5342],[-72.1379,19.5054,121.3863]]]]}
,"properties": {"GID_3": "HTI.7.2.2_1","GID_0": "HTI","country": "Haiti","GID_1": "HTI.7_1","province": "Nord","NL_NAME_1": "NA","GID_2": "HTI.7.2_1","county": "Grande-RivièreduNord","NL_NAME_2": "NA","city": "GrandRivièreduNord","VARNAME_3": "NA","NL_NAME_3": "NA","TYPE_3": "Commune","ENGTYPE_3": "Commune","CC_3": "NA","HASC_3": "NA","name": "Grand_Rivièredu_Nord.city","area_km2": 126.49181,"hist_schema_id": "Elevation0-9000","hist_area_km2": {"25": 0.15977,"50": 5.01346,"75": 5.73341,"100": 7.55196,"125": 7.3523,"150": 7.71202,"175": 8.41122,"200": 7.51233,"225": 6.71322,"250": 6.59331,"275": 6.05394,"300": 7.07298,"325": 7.29277,"350": 7.97209,"375": 7.45284,"400": 5.83445,"425": 4.49569,"450": 3.33694,"475": 2.65753,"500": 2.73745,"525": 2.2379,"550": 1.87828,"575": 1.25887,"600": 1.15902,"625": 0.99915,"650": 0.5995,"675": 0.19983,"700": 0.17984,"725": 0.07992,"750": 0.07994,"775": 0.03997,"800": 0.03997,"825": 0.07994}}}