{"type": "Feature","bbox": [-71.5476,18.4425,-71.4352,18.6255],"geometry": {"type": "MultiPolygon","coordinates": [[[[-71.5476,18.4642,-37.0],[-71.5109,18.4503,-37.0],[-71.498,18.4494,-37.0],[-71.4789,18.4425,-34.8196],[-71.4761,18.4518,-35.9634],[-71.4786,18.4653,-37.0],[-71.4682,18.4674,-34.4244],[-71.4627,18.474,-23.6816],[-71.4529,18.4892,32.2617],[-71.4426,18.5147,161.6268],[-71.4352,18.5258,259.7827],[-71.4352,18.5366,541.7429],[-71.4473,18.5655,1110.1531],[-71.4584,18.5736,713.8823],[-71.4638,18.5796,956.6301],[-71.4635,18.5955,1055.5081],[-71.4718,18.6042,981.9675],[-71.4744,18.6036,1040.5938],[-71.4822,18.5969,996.6433],[-71.4856,18.5972,905.8395],[-71.4877,18.5995,967.3686],[-71.4879,18.6145,1281.2039],[-71.4835,18.6248,2015.9849],[-71.4989,18.6255,1880.7358],[-71.5009,18.6187,1398.0027],[-71.5102,18.6012,1342.4258],[-71.5145,18.5974,1490.5764],[-71.529,18.5903,1353.011],[-71.5321,18.5852,1401.6825],[-71.5379,18.563,578.8892],[-71.53,18.5453,677.8884],[-71.5216,18.5422,699.062],[-71.519,18.5375,711.1237],[-71.5284,18.5299,477.1093],[-71.5304,18.5191,163.5767],[-71.5352,18.5139,93.4067],[-71.5361,18.4961,1.1543],[-71.5439,18.4808,-37.0],[-71.5476,18.4642,-37.0]]]]}
,"properties": {"GID_2": "DOM.2.5_1","GID_0": "DOM","country": "DominicanRepublic","GID_1": "DOM.2_1","province": "Bahoruco","NL_NAME_1": "NA","county": "VillaJaragua","VARNAME_2": "NA","NL_NAME_2": "NA","TYPE_2": "Municipio","ENGTYPE_2": "Municipality","CC_2": "NA","HASC_2": "DO.BR.VJ","name": "Villa_Jaragua.county","area_km2": 147.0354,"hist_schema_id": "Elevation0-9000","hist_area_km2": {"-25": 32.1358,"0": 4.9666,"25": 4.0215,"50": 3.9811,"75": 3.8604,"100": 3.599,"125": 3.1767,"150": 2.674,"175": 2.2517,"200": 2.7945,"225": 1.9903,"250": 2.1712,"275": 2.0104,"300": 2.1511,"325": 2.2315,"350": 1.7289,"375": 1.4273,"400": 1.568,"425": 1.5077,"450": 2.0906,"475": 1.8494,"500": 2.0705,"525": 2.2715,"550": 2.392,"575": 2.4523,"600": 3.0754,"625": 3.5176,"650": 2.4321,"675": 2.2914,"700": 2.1306,"725": 2.1708,"750": 2.2511,"775": 1.8893,"800": 2.0099,"825": 1.6883,"850": 1.6681,"875": 1.7486,"900": 1.8691,"925": 1.5475,"950": 1.6882,"975": 1.5876999999999999,"1000": 1.9293,"1025": 1.246,"1050": 1.3063,"1075": 1.2058,"1100": 1.0048,"1125": 1.1656,"1150": 1.3465,"1175": 1.0651,"1200": 1.3264,"1225": 0.9646,"1250": 1.0249,"1275": 0.7235,"1300": 0.6229,"1325": 0.6631,"1350": 0.7837,"1375": 0.4823,"1400": 0.5426,"1425": 0.4823,"1450": 0.3215,"1475": 0.3014,"1500": 0.3014,"1525": 0.2009,"1550": 0.1608,"1575": 0.0603,"1600": 0.0603,"1625": 0.0402,"1650": 0.0603,"1675": 0.1206,"1700": 0.0201,"1725": 0.1005,"1750": 0.0402,"1775": 0.0201,"1800": 0.0804,"1825": 0.0201,"1850": 0.0402,"1875": 0.1206,"1900": 0.0201,"1925": 0.0201,"1950": 0.0402,"1975": 0.0402,"2000": 0.0201}}}