{"type": "Feature","bbox": [-76.4009,20.0497,-76.1551,20.257],"geometry": {"type": "MultiPolygon","coordinates": [[[[-76.3719,20.1024,700.9147],[-76.3469,20.1018,940.5563],[-76.3375,20.0953,499.3186],[-76.3248,20.0711,692.6633],[-76.3165,20.0639,762.9954],[-76.2531,20.0616,591.0293],[-76.2218,20.0497,727.1453],[-76.222,20.1047,531.0812],[-76.2124,20.1269,446.9561],[-76.2044,20.1343,427.1022],[-76.1625,20.153,244.9357],[-76.1551,20.1606,326.3046],[-76.1569,20.1715,300.9289],[-76.1797,20.1962,214.1681],[-76.2039,20.215,163.4401],[-76.2224,20.2406,238.6977],[-76.2414,20.2558,116.0],[-76.2494,20.2559,116.0],[-76.2744,20.2435,238.7063],[-76.2843,20.2416,280.1675],[-76.2924,20.2427,235.3052],[-76.324,20.2567,207.9979],[-76.3628,20.257,341.2268],[-76.3711,20.249,319.2498],[-76.392,20.2355,367.6515],[-76.4009,20.2242,371.7335],[-76.4001,20.2153,497.0703],[-76.3903,20.2048,605.0329],[-76.3823,20.1872,577.6802],[-76.3747,20.1814,649.0836],[-76.3725,20.1776,643.6683],[-76.3708,20.1706,595.9271],[-76.3706,20.1573,523.646],[-76.3719,20.1024,700.9147]]]]}
,"properties": {"GID_2": "CUB.15.9_1","GID_0": "CUB","country": "Cuba","GID_1": "CUB.15_1","province": "SantiagodeCuba","NL_NAME_1": "NA","county": "TercerFrente","VARNAME_2": "NA","NL_NAME_2": "NA","TYPE_2": "Municipio","ENGTYPE_2": "Municipality","CC_2": "NA","HASC_2": "CU.SC.TF","name": "Tercer_Frente.county","area_km2": 374.0504,"hist_schema_id": "Elevation0-9000","hist_area_km2": {"125": 19.6163,"150": 14.3865,"175": 17.8901,"200": 23.5607,"225": 24.3366,"250": 22.3483,"275": 22.867,"300": 22.1709,"325": 21.4741,"350": 20.1012,"375": 18.5883,"400": 16.1815,"425": 16.0825,"450": 14.4307,"475": 14.4117,"500": 12.8993,"525": 11.287,"550": 10.073,"575": 8.56,"600": 7.4051,"625": 6.6087,"650": 4.8575,"675": 3.4641,"700": 2.6282,"725": 2.4889,"750": 2.1107,"775": 1.8717,"800": 2.1504,"825": 1.7124,"850": 1.4137,"875": 0.896,"900": 1.2146,"925": 1.3341,"950": 1.0354,"975": 0.8363,"1000": 0.3186,"1025": 0.3385,"1050": 0.0996}}}