{"type": "Feature","bbox": [-71.744,19.4888,-71.4916,19.6441],"geometry": {"type": "MultiPolygon","coordinates": [[[[-71.5535,19.5191,140.9679],[-71.5319,19.5187,153.5674],[-71.53,19.5169,164.8003],[-71.5287,19.5102,180.6971],[-71.5236,19.5052,157.3102],[-71.5161,19.5021,147.1314],[-71.5041,19.5026,140.4778],[-71.504,19.5055,132.4352],[-71.5082,19.5124,125.2246],[-71.5035,19.5189,120.8936],[-71.5033,19.5231,114.682],[-71.5056,19.5241,116.699],[-71.5125,19.522,150.3091],[-71.5275,19.5258,142.7565],[-71.5313,19.5354,123.1967],[-71.5303,19.5426,109.2921],[-71.5344,19.5471,103.8536],[-71.5323,19.5498,101.8895],[-71.5265,19.55,93.5557],[-71.5158,19.5426,108.2717],[-71.5078,19.5415,100.0415],[-71.5041,19.5393,128.9512],[-71.4916,19.5426,176.9028],[-71.4916,19.5469,187.8922],[-71.4993,19.5541,122.0174],[-71.5027,19.5636,153.2039],[-71.5028,19.5787,140.0885],[-71.4946,19.5985,67.0211],[-71.4971,19.6054,57.3166],[-71.4997,19.6082,57.0],[-71.5067,19.6094,57.0],[-71.5098,19.6044,58.622],[-71.5187,19.6011,85.6599],[-71.531,19.6008,130.1955],[-71.5387,19.6024,77.5202],[-71.5475,19.5993,57.7891],[-71.5574,19.6033,70.4587],[-71.5651,19.6045,71.1213],[-71.5751,19.6118,153.0197],[-71.5782,19.611,170.3943],[-71.5814,19.6073,182.6331],[-71.5843,19.607,96.3298],[-71.5861,19.6086,74.5608],[-71.5869,19.6135,88.2501],[-71.6127,19.6063,77.2704],[-71.6245,19.5993,83.2788],[-71.6339,19.5965,77.694],[-71.6452,19.5987,75.199],[-71.6575,19.5971,74.4978],[-71.6627,19.6006,50.8564],[-71.6687,19.6088,33.4656],[-71.6774,19.6138,29.0198],[-71.6797,19.6182,24.8943],[-71.6928,19.6264,14.6079],[-71.7094,19.6272,4.9308],[-71.7205,19.6255,40.5068],[-71.7273,19.6324,15.1294],[-71.7348,19.6326,11.702],[-71.7348,19.6441,5.396],[-71.744,19.6354,8.4379],[-71.742,19.5881,18.9076],[-71.7176,19.566,26.7986],[-71.7129,19.5567,32.1486],[-71.7109,19.5555,31.8473],[-71.7109,19.538,39.37],[-71.7101,19.5361,41.9367],[-71.7074,19.5353,46.781],[-71.7042,19.5361,47.8042],[-71.7027,19.5388,43.7484],[-71.7007,19.538,45.4622],[-71.7015,19.5275,49.7969],[-71.7007,19.5248,51.4347],[-71.6979,19.5248,53.5995],[-71.6979,19.5174,51.1926],[-71.696,19.5155,54.634],[-71.6932,19.5167,56.4089],[-71.6901,19.5147,48.1503],[-71.6866,19.5182,67.6],[-71.6854,19.5074,57.4629],[-71.6893,19.4996,53.5222],[-71.6885,19.4969,80.3253],[-71.6919,19.4941,64.1415],[-71.6912,19.4895,82.6724],[-71.681,19.4939,72.0406],[-71.6727,19.4951,93.6013],[-71.6647,19.4995,112.0259],[-71.6507,19.4893,152.61],[-71.6419,19.4914,186.4339],[-71.6308,19.4888,251.2601],[-71.6224,19.4911,301.4315],[-71.6087,19.4914,236.6342],[-71.6041,19.4948,233.2859],[-71.6014,19.5006,215.0348],[-71.6005,19.5107,214.0628],[-71.5956,19.5158,155.679],[-71.5723,19.5168,128.0725],[-71.5602,19.5248,135.8874],[-71.5556,19.5236,147.2062],[-71.5535,19.5191,140.9679]]]]}
,"properties": {"GID_2": "DOM.4.1_1","GID_0": "DOM","country": "DominicanRepublic","GID_1": "DOM.4_1","province": "Dajabón","NL_NAME_1": "NA","county": "Dajabón","VARNAME_2": "NA","NL_NAME_2": "NA","TYPE_2": "Municipio","ENGTYPE_2": "Municipality","CC_2": "NA","HASC_2": "DO.DA.DA","name": "Dajabón.county","area_km2": 261.8585,"hist_schema_id": "Elevation0-9000","hist_area_km2": {"0": 3.8143,"25": 39.1489,"50": 40.9741,"75": 68.3434,"100": 44.0153,"125": 25.6762,"150": 19.9819,"175": 9.2321,"200": 3.7171,"225": 2.758,"250": 1.5989,"275": 1.1592,"300": 0.4397,"325": 0.4597,"350": 0.3198,"375": 0.1999,"400": 0.02}}}