{"type":"Feature","properties":{"GID_2":"BLM.2.3_1","GID_0":"BLM","country":"Saint-Barthélemy","GID_1":"BLM.2_1","province":"SousleVent","NL_NAME_1":"NA","county":"AnsedesLézards","VARNAME_2":"NA","NL_NAME_2":"NA","TYPE_2":"Quartier","ENGTYPE_2":"Quarter","CC_2":"NA","HASC_2":"NA","name":"Ansedes_Lézards.county"},
"geometry":{"type": "MultiPolygon","coordinates": [[[[-62.8449,17.9136,8.4756],[-62.8435,17.915,0.0],[-62.8451,17.9173,0.0],[-62.8478,17.917,21.4901],[-62.8493,17.9147,120.8762],[-62.8457,17.9135,8.4756],[-62.8449,17.9136,8.4756]]]]}}