{"type": "Feature","bbox": [-62.8516,17.9088,-62.844,17.9147],"geometry": {"type": "MultiPolygon","coordinates": [[[[-62.8449,17.9136,8.4756],[-62.8493,17.9147,120.8762],[-62.8516,17.9119,142.7289],[-62.8473,17.9117,55.0895],[-62.8464,17.9088,58.2854],[-62.844,17.9117,0.0],[-62.8449,17.9136,8.4756]]]]}
,"properties": {"GID_2": "BLM.2.2_1","GID_0": "BLM","country": "Saint-Barthélemy","GID_1": "BLM.2_1","province": "SousleVent","NL_NAME_1": "NA","county": "AnsedesCayes","VARNAME_2": "NA","NL_NAME_2": "NA","TYPE_2": "Quartier","ENGTYPE_2": "Quarter","CC_2": "NA","HASC_2": "NA","name": "Ansedes_Cayes.county","area_km2": 0.2219192,"hist_schema_id": "Elevation0-9000","hist_area_km2": {"0": 0.0605234,"25": 0.0605235,"50": 0.0201743,"75": 0.0201748,"125": 0.0605232}}}