{"type": "Feature","bbox": [-83.3587,22.7785,-82.9115,23.0187],"geometry": {"type": "MultiPolygon","coordinates": [[[[-82.9144,22.9839,1.5683],[-82.9196,22.9899,0.3221],[-82.9201,22.9874,0.0],[-82.9235,22.9865,0.2942],[-82.9226,22.9818,5.3184],[-82.9254,22.9824,0.0],[-82.9276,22.981,0.5203],[-82.9276,22.9857,0.0],[-82.9296,22.9862,1.3972],[-82.9296,22.9843,0.874],[-82.9337,22.9837,3.4216],[-82.9337,22.9776,2.0232],[-82.9379,22.979,0.0],[-82.9379,22.9765,0.7703],[-82.941,22.9746,2.0027],[-82.9432,22.9749,1.3294],[-82.9451,22.9774,0.0],[-82.9532,22.9768,6.4057],[-82.9549,22.9788,1.6808],[-82.954,22.981,2.7086],[-82.9571,22.9821,0.0],[-82.9557,22.9779,1.0522],[-82.9585,22.9765,3.6775],[-82.9582,22.9724,1.1159],[-82.9662,22.9707,0.0],[-82.9685,22.9724,0.0],[-82.969,22.9682,6.6745],[-82.9662,22.9665,2.1624],[-82.9662,22.964,2.2387],[-82.9693,22.9651,2.8159],[-82.9724,22.9638,0.0],[-82.9724,22.9607,0.0],[-82.9746,22.9601,3.2598],[-82.9765,22.961,0.9022],[-82.9765,22.9643,0.0],[-82.9779,22.9643,0.8467],[-82.9785,22.9571,7.9566],[-82.9799,22.956,6.8583],[-82.9807,22.9593,0.9949],[-82.9837,22.9588,1.7378],[-82.986,22.9612,0.0],[-82.9882,22.9579,0.7321],[-82.9899,22.9582,10.0101],[-82.9882,22.9646,1.782],[-82.9835,22.9676,0.0],[-82.9829,22.9707,2.6989],[-82.9801,22.9718,1.4111],[-82.9801,22.9751,4.234],[-82.9749,22.9768,0.0],[-82.9754,22.9804,0.0],[-82.9721,22.9854,5.0446],[-82.9749,22.9885,0.3771],[-82.9799,22.984,0.0],[-82.9876,22.9835,1.1673],[-82.9904,22.9813,0.0],[-82.991,22.9782,0.0],[-82.9882,22.9782,0.0],[-82.9874,22.9718,1.3833],[-82.9904,22.9676,0.0],[-82.9938,22.9671,0.1444],[-82.9943,22.9624,0.7061],[-82.9965,22.9596,1.3547],[-83.0013,22.9624,2.1743],[-82.999,22.9646,0.3457],[-82.9999,22.9668,0.2466],[-83.0007,22.9643,0.0],[-83.0026,22.9654,1.6567],[-83.0051,22.9621,1.0045],[-83.0057,22.9646,0.0],[-83.009,22.9635,1.4109],[-83.0029,22.9696,0.2281],[-83.0054,22.9715,0.0],[-83.0021,22.9729,0.0],[-83.0021,22.9743,0.0],[-83.0088,22.979,0.0],[-83.0151,22.9788,3.6331],[-83.014,22.9874,1.9922],[-83.0074,22.9879,0.4036],[-83.0096,22.9904,2.5276],[-83.0096,22.9938,2.9922],[-83.0074,22.9957,3.9982],[-83.0024,22.996,0.615],[-83.001,22.9993,1.6008],[-82.9932,22.9912,2.8335],[-82.989,22.9918,0.0],[-82.9865,22.9904,0.0],[-82.9843,22.9865,0.0],[-82.9774,22.9935,0.0],[-82.9801,23.0018,2.0118],[-82.9837,23.0035,3.9731],[-82.9832,23.006,0.0],[-82.9885,23.011,0.0],[-83.0032,23.0118,1.5316],[-83.014,23.0079,4.2765],[-83.0163,23.0085,0.8404],[-83.0215,23.0026,0.0],[-83.026,23.0015,1.2854],[-83.0426,23.0068,1.0634],[-83.0515,23.004,0.6368],[-83.0663,23.0043,0.0],[-83.0729,23.0021,0.0],[-83.0799,22.9968,4.8463],[-83.0862,22.9951,9.4247],[-83.0907,22.996,0.0],[-83.0918,22.9926,1.41],[-83.0904,22.9921,4.1643],[-83.0899,22.9874,1.0053],[-83.0924,22.9865,6.252],[-83.0929,22.9846,2.6497],[-83.0943,22.9904,0.0],[-83.0929,22.9915,0.0],[-83.0935,22.9951,0.0],[-83.0915,22.9971,0.0],[-83.1071,22.9924,0.0],[-83.1115,22.9926,1.4],[-83.1157,22.9951,1.3606],[-83.1307,22.9949,1.3744],[-83.1449,22.9896,1.0113],[-83.1537,22.9818,12.0979],[-83.1535,22.9785,3.6168],[-83.159,22.9749,0.0],[-83.1588,22.9704,0.6994],[-83.1612,22.9629,1.5671],[-83.159,22.9629,1.2802],[-83.1549,22.9679,2.1171],[-83.1493,22.9676,0.7646],[-83.1537,22.9654,2.4848],[-83.1518,22.9626,2.6971],[-83.1532,22.9604,3.4762],[-83.1576,22.9604,0.0],[-83.1546,22.9576,0.3213],[-83.1568,22.956,0.0],[-83.1568,22.9529,0.0],[-83.1618,22.9576,0.0],[-83.1635,22.9571,0.5621],[-83.1543,22.9501,0.0],[-83.1449,22.9526,0.6895],[-83.1421,22.951,0.0],[-83.1396,22.946,0.9546],[-83.1429,22.9429,1.3669],[-83.1465,22.9443,0.0],[-83.1479,22.9426,0.7876],[-83.1496,22.9346,0.4054],[-83.1474,22.9326,0.8177],[-83.1521,22.9265,4.7816],[-83.1593,22.9254,6.2777],[-83.161,22.9263,2.2172],[-83.1601,22.9293,0.0],[-83.1632,22.9307,0.0],[-83.1643,22.9276,2.8399],[-83.1632,22.9232,1.3111],[-83.1651,22.9224,1.9057],[-83.1674,22.9238,1.8678],[-83.1671,22.9271,1.0097],[-83.1701,22.9337,1.329],[-83.1715,22.9321,1.4604],[-83.1754,22.9321,0.0],[-83.1757,22.9296,0.0],[-83.1776,22.9296,0.0],[-83.1801,22.9263,2.2031],[-83.1824,22.9268,2.5753],[-83.1832,22.931,0.0],[-83.1882,22.9265,0.8815],[-83.1904,22.929,3.2733],[-83.1899,22.934,9.8303],[-83.1849,22.9357,0.0],[-83.1929,22.939,0.5023],[-83.194,22.9413,1.326],[-83.1888,22.9504,0.0],[-83.1899,22.956,5.9477],[-83.1888,22.9588,0.0],[-83.1949,22.9593,0.0],[-83.1926,22.9612,1.1584],[-83.1929,22.9643,1.9073],[-83.1785,22.9621,0.0],[-83.1765,22.965699999999998,2.0295],[-83.1674,22.9693,0.384],[-83.1657,22.9751,1.8041],[-83.1685,22.9804,1.0961],[-83.1762,22.9821,0.4833],[-83.1854,22.9915,0.7394],[-83.1901,22.991,3.0599],[-83.1918,22.9938,0.0],[-83.2015,22.9968,2.1013],[-83.2026,22.9932,1.944],[-83.2079,22.994,0.0],[-83.2057,22.9965,0.5399],[-83.2201,22.9957,0.0],[-83.2299,22.9901,2.7556],[-83.2435,22.9879,0.0],[-83.2507,22.9793,6.4664],[-83.2635,22.9779,0.7466],[-83.2679,22.9729,1.5734],[-83.276,22.971,0.0],[-83.2771,22.9682,3.8136],[-83.2824,22.9679,0.0],[-83.2918,22.9626,1.2007],[-83.3001,22.9554,3.1946],[-83.3051,22.9532,0.0],[-83.3051,22.9507,0.0],[-83.3082,22.9496,0.527],[-83.3099,22.9438,0.5888],[-83.3163,22.9385,1.6888],[-83.3226,22.9374,0.0],[-83.3365,22.9313,0.668],[-83.3412,22.9257,1.1361],[-83.3435,22.929,0.0],[-83.3463,22.9296,1.0281],[-83.3463,22.9274,1.1829],[-83.349,22.9251,0.42],[-83.3582,22.9249,0.0],[-83.3587,22.9224,0.0],[-83.3565,22.9196,0.0],[-83.3529,22.9185,0.0],[-83.346,22.9201,0.2597],[-83.3449,22.924,1.4913],[-83.3424,22.9218,0.6359],[-83.349,22.9168,0.0],[-83.3493,22.9149,0.0],[-83.3451,22.9126,0.9847],[-83.3518,22.9126,0.2326],[-83.3529,22.9104,0.3106],[-83.3493,22.9037,0.4052],[-83.3521,22.9043,1.3663],[-83.353,22.9068,0.6843],[-83.3521,22.8359,39.4305],[-83.3424,22.7998,159.0917],[-83.3294,22.7892,344.257],[-83.3037,22.7791,392.2448],[-83.281,22.7785,264.8629],[-83.2599,22.7853,268.0611],[-83.2203,22.7869,335.3868],[-83.1957,22.7939,339.8739],[-83.1857,22.7917,501.0884],[-83.1687,22.7802,431.7297],[-83.1586,22.7788,432.4215],[-83.1264,22.7911,351.552],[-83.1077,22.8267,161.8411],[-83.098,22.8352,181.1756],[-83.0865,22.84,232.9122],[-83.0798,22.8399,287.7911],[-83.0646,22.8333,407.6434],[-83.0476,22.8205,379.7139],[-83.0344,22.8148,424.1535],[-83.0294,22.8148,386.1019],[-83.0241,22.8187,258.5421],[-83.0015,22.8545,190.2272],[-82.9889,22.8661,301.4391],[-82.9698,22.8748,337.5391],[-82.9437,22.8829,159.1185],[-82.9124,22.8899,80.4453],[-82.9175,22.9078,73.4825],[-82.9199,22.9355,33.0628],[-82.919,22.9485,73.5363],[-82.9128,22.9692,36.9793],[-82.9144,22.9839,1.5683]]],
[[[-83.1824,22.9574,0.3815],[-83.1824,22.9576,0.3815],[-83.1874,22.9579,0.0],[-83.184,22.9551,0.0],[-83.1824,22.9574,0.3815]]],
[[[-82.9682,22.9768,1.1089],[-82.9685,22.9785,0.4068],[-82.9699,22.9779,1.1926],[-82.9685,22.9743,0.6193],[-82.9679,22.9743,0.6193],[-82.9682,22.9768,1.1089]]],
[[[-82.9618,22.9796,1.6697],[-82.9638,22.9801,0.0],[-82.964,22.9779,0.0],[-82.9607,22.9771,0.0],[-82.9618,22.9796,1.6697]]],
[[[-82.9115,22.8901,71.7026],[-82.9124,22.8899,80.4453],[-82.9119,22.89,80.4453],[-82.9115,22.8901,71.7026]]],
[[[-82.9388,22.9874,0.9327],[-82.9399,22.9879,0.9327],[-82.9393,22.9857,1.3222],[-82.941,22.9843,0.0],[-82.936,22.984,0.0],[-82.936,22.9851,0.0],[-82.9388,22.9874,0.9327]]],
[[[-82.9526,22.9951,0.7713],[-82.9501,22.9949,0.0],[-82.9479,22.9968,0.0],[-82.9529,22.996,0.0],[-82.9526,22.9951,0.7713]]],
[[[-82.941,22.9999,0.0],[-82.9438,23.0062,3.7298],[-82.9446,23.0174,0.0],[-82.9526,23.0187,0.7726],[-82.9599,23.016,0.3795],[-82.961,23.0121,0.0],[-82.969,23.0038,1.3162],[-82.9699,23.0007,3.7917],[-82.9682,22.9974,2.3513],[-82.9721,22.9918,0.0],[-82.9687,22.989,0.9627],[-82.9579,22.9976,4.8184],[-82.9515,22.999,2.8784],[-82.9485,23.0026,0.6695],[-82.9457,23.0035,0.4497],[-82.9432,23.0024,0.5652],[-82.9468,23.0001,0.0],[-82.9476,22.9968,0.0],[-82.9446,22.9999,2.0681],[-82.941,22.9999,0.0]]]]}
,"properties": {"GID_2": "CUB.13.1_1","GID_0": "CUB","country": "Cuba","GID_1": "CUB.13_1","province": "PinardelRío","NL_NAME_1": "NA","county": "BahíaHonda","VARNAME_2": "NA","NL_NAME_2": "NA","TYPE_2": "Municipio","ENGTYPE_2": "Municipality","CC_2": "NA","HASC_2": "CU.PR.BH","name": "Bahía_Honda.county","area_km2": 808.0873,"hist_schema_id": "Elevation0-9000","hist_area_km2": {"0": 191.3297,"25": 203.599,"50": 92.5037,"75": 59.1517,"100": 41.6723,"125": 27.5488,"150": 24.151,"175": 23.9163,"200": 26.4378,"225": 24.21,"250": 21.5136,"275": 17.86,"300": 14.1871,"325": 10.9046,"350": 9.0092,"375": 6.9773,"400": 5.3944,"425": 3.6941,"450": 2.2087,"475": 1.2119,"500": 0.5473,"525": 0.0586}}}