{"type": "Feature","id": "5150","bbox": [-70.06241,12.41767,-69.87682,12.63215],"geometry": {"type": "Polygon","coordinates": [[[-69.99694,12.57758,0.0],[-70.00715,12.58552,0.0],[-70.04874,12.63215,0.0],[-70.06111,12.62539,0.0],[-70.05964,12.61424,0.0],[-70.05264,12.6,0.0],[-70.04874,12.58373,0.0],[-70.0511,12.57404,0.0],[-70.06037,12.55695,0.0],[-70.06241,12.54682,0.0],[-70.05809,12.53718,2.5864],[-70.04809,12.53115,5.835],[-70.02766,12.52294,16.0429],[-69.95857,12.4632,8.0921],[-69.92467,12.44721,18.245],[-69.92467,12.44038,2.3079],[-69.94514,12.44038,0.0],[-69.93053,12.42597,0.0],[-69.9088,12.41779,0.0],[-69.88809,12.41767,0.0],[-69.87682,12.42739,20.0902],[-69.8802,12.45356,11.2909],[-69.91576,12.49702,37.7356],[-69.92467,12.51923,0.0],[-69.93639,12.53172,0.0],[-69.99694,12.57758,0.0]]]}
,"properties": {"ISO3166-1-Alpha-3": "ABW","country": "Aruba","fill": "#F0F","name": "Aruba","area_km2": 170.3467,"hist_schema_id": "Elevation0-9000","hist_area_km2": {"0": 50.6848,"25": 58.8455,"50": 34.2577,"75": 13.9313,"100": 6.6448,"125": 4.7818,"150": 0.9315,"175": 0.2691}}}