{"type": "Feature","id": "5145","bbox": [-63.14684,18.03339,-63.01073,18.12214],"geometry": {"type": "Polygon","coordinates": [[[-63.01757,18.03339,0.0],[-63.01757,18.03339,0.0],[-63.01073,18.04084,0.0],[-63.0111,18.07075,0.0],[-63.01793,18.10053,0.0],[-63.01765,18.12214,0.0],[-63.0314,18.12189,43.5225],[-63.05211,18.11685,64.5843],[-63.07087,18.11001,0.0],[-63.07909,18.10419,0.0],[-63.08381,18.08796,0.0],[-63.0961,18.0788,0.0],[-63.11376,18.07465,0.0],[-63.14363,18.07416,0.0],[-63.14684,18.0703,4.2489],[-63.14387,18.06468,11.773],[-63.13435,18.05948,10.6829],[-63.13052,18.06025,14.4279],[-63.11531,18.06538,1.6947],[-63.107,18.06696,0.0],[-63.107,18.06212,0.0],[-63.107,18.06211,0.0],[-63.08589,18.05851,15.6285],[-63.01757,18.03339,0.0]]]}
,"properties": {"ISO3166-1-Alpha-3": "MAF","country": "Saint Martin","fill": "#F0F","name": "St. Martin","area_km2": 68.62979,"hist_schema_id": "Elevation0-9000","hist_area_km2": {"0": 28.15679,"25": 9.89646,"50": 7.69961,"75": 5.05916,"100": 3.42654,"125": 2.76133,"150": 2.70086,"175": 2.01557,"200": 1.69309,"225": 1.41092,"250": 1.22949,"275": 0.38298,"300": 0.70546,"325": 0.64498,"350": 0.56436,"375": 0.22171,"400": 0.06047}}}