{"type":"Feature","properties":{"GID_2":"HTI.8.2_1","GID_0":"HTI","country":"Haiti","GID_1":"HTI.8_1","province":"Ouest","NL_NAME_1":"NA","county":"l'Arcahaie","VARNAME_2":"NA","NL_NAME_2":"NA","TYPE_2":"Arrondissement","ENGTYPE_2":"District","CC_2":"NA","HASC_2":"HT.OU.AR","name":"l'Arcahaie.county"},
"geometry":{"type": "MultiPolygon","coordinates": [[[[-72.379,18.6968,2.8081],[-72.3821,18.6968,0.8582],[-72.3824,18.694,0.0],[-72.3807,18.6926,0.1662],[-72.376,18.694,0.0],[-72.3771,18.6968,0.0],[-72.379,18.6968,2.8081]]],
[[[-72.3495,18.7339,391.4292],[-72.352,18.7357,354.5986],[-72.3517,18.7397,444.5763],[-72.3582,18.7472,309.266],[-72.3523,18.7525,408.5323],[-72.3519,18.7568,400.4719],[-72.3531,18.7608,344.8662],[-72.3574,18.7616,303.463],[-72.3575,18.7645,202.8164],[-72.3559,18.7674,220.3781],[-72.3524,18.7693,265.2259],[-72.3439,18.7707,489.3696],[-72.3357,18.7794,839.3795],[-72.3326,18.7806,785.1826],[-72.3362,18.7828,691.334],[-72.3263,18.7893,770.7137],[-72.33,18.792,775.345],[-72.3322,18.7962,707.2179],[-72.3275,18.7968,842.859],[-72.3194,18.8116,1132.9448],[-72.3232,18.8155,1053.8518],[-72.3243,18.8221,1001.5267],[-72.3336,18.8328,1103.3209],[-72.3357,18.8383,1057.2845],[-72.3513,18.8513,810.3789],[-72.3603,18.8559,816.3459],[-72.3633,18.8589,854.9546],[-72.3618,18.8641,939.4151],[-72.3695,18.8683,1139.9292],[-72.3748,18.8751,1133.9709],[-72.3815,18.8792,1211.3037],[-72.3873,18.885,1334.661],[-72.3922,18.8931,1216.259],[-72.3968,18.8942,1370.2891],[-72.4039,18.9018,1277.9423],[-72.406,18.9011,1327.8846],[-72.4148,18.9035,1262.3931],[-72.4204,18.9126,1207.5756],[-72.4234,18.9116,1337.0308],[-72.4281,18.9147,1333.0597],[-72.4285,18.9172,1275.3833],[-72.4371,18.9202,1311.3826],[-72.4356,18.9234,1194.3202],[-72.443,18.9239,1216.448],[-72.4549,18.9197,1205.1427],[-72.4568,18.9208,1152.2047],[-72.4595,18.9272,1257.7874],[-72.4624,18.9276,1281.2445],[-72.4644,18.9251,1177.5597],[-72.467,18.9257,1178.6306],[-72.4957,18.9588,1119.585],[-72.5038,18.9577,790.0059],[-72.509,18.9595,794.5281],[-72.5145,18.9553,701.3525],[-72.5182,18.9558,777.5675],[-72.521,18.9584,770.0098],[-72.5252,18.9577,744.9179],[-72.5308,18.9595,696.5717],[-72.5365,18.9572,600.397],[-72.5413,18.9616,565.5189],[-72.5546,18.9614,534.0598],[-72.5585,18.9649,515.6183],[-72.5661,18.9648,487.7162],[-72.5727,18.9692,483.8256],[-72.5803,18.9685,454.995],[-72.586,18.9697,430.3193],[-72.591,18.9732,489.3346],[-72.5947,18.9738,456.9768],[-72.5981,18.9715,412.674],[-72.6016,18.972,425.0554],[-72.6009,18.9729,387.566],[-72.6034,18.9752,382.5442],[-72.6081,18.9744,374.1206],[-72.6164,18.9763,364.0197],[-72.6188,18.9749,436.2625],[-72.6185,18.9727,411.1334],[-72.6202,18.9708,370.1681],[-72.6232,18.9707,368.2732],[-72.6233,18.9728,342.1749],[-72.6267,18.9723,344.6161],[-72.6282,18.9771,401.3297],[-72.6318,18.9729,308.0877],[-72.6334,18.976,282.7138],[-72.6354,18.9759,379.5902],[-72.6351,18.9733,268.0446],[-72.638,18.9708,236.785],[-72.6462,18.9728,227.5593],[-72.65,18.9722,319.3486],[-72.6538,18.9711,298.0212],[-72.6576,18.9673,205.3946],[-72.6611,18.9679,192.0171],[-72.6643,18.9721,186.6201],[-72.6706,18.9685,166.0016],[-72.6786,18.9685,192.1972],[-72.6768,18.9712,142.6822],[-72.6787,18.9739,153.8887],[-72.6816,18.973,111.5431],[-72.6845,18.9674,121.2109],[-72.6886,18.967,93.9957],[-72.6918,18.9626,77.1884],[-72.6993,18.9584,50.4989],[-72.6998,18.956,50.0906],[-72.7051,18.9522,30.9459],[-72.7058,18.949,21.6793],[-72.7082,18.948,15.7021],[-72.71,18.9422,2.6625],[-72.7115,18.9432,0.0],[-72.7104,18.9418,0.0],[-72.7038,18.9404,0.0],[-72.6965,18.9424,2.8332],[-72.6903,18.941,5.5816],[-72.6851,18.9363,0.0],[-72.6641,18.9282,1.0934],[-72.6621,18.9251,0.0],[-72.6588,18.9249,0.0],[-72.6557,18.9212,3.8706],[-72.6487,18.9187,2.7272],[-72.6415,18.9076,0.0],[-72.6354,18.9057,0.6274],[-72.6351,18.9018,0.0],[-72.6312,18.9007,0.0],[-72.6304,18.8957,9.2134],[-72.6257,18.8929,0.0],[-72.6251,18.8896,0.0],[-72.6199,18.8871,9.3137],[-72.6161,18.879,2.995],[-72.6174,18.8712,0.0],[-72.6121,18.8636,1.5249],[-72.6113,18.8596,0.235],[-72.6024,18.8599,0.0],[-72.5985,18.8576,0.0],[-72.5937,18.8471,9.4529],[-72.5846,18.8388,2.0641],[-72.5765,18.8343,3.7528],[-72.5735,18.8224,1.8342],[-72.5652,18.8096,3.6229],[-72.5607,18.7957,1.0109],[-72.5551,18.7946,0.0],[-72.5488,18.7898,1.3797],[-72.5432,18.7774,0.2851],[-72.5368,18.7726,0.0],[-72.5313,18.7724,1.8872],[-72.5257,18.7687,0.0],[-72.5188,18.7668,0.0],[-72.5035,18.7673,3.2987],[-72.4957,18.7637,0.0],[-72.4935,18.7674,4.0486],[-72.4887,18.7685,0.4263],[-72.4774,18.7601,0.0],[-72.4668,18.7582,0.0],[-72.4629,18.7546,1.1498],[-72.4593,18.7463,0.0],[-72.4576,18.7379,0.54],[-72.4596,18.7335,0.186],[-72.4521,18.7296,4.6061],[-72.4507,18.7196,0.2666],[-72.4274,18.7132,0.0],[-72.4157,18.7137,0.0],[-72.4005,18.7116,0.0],[-72.3945,18.7143,0.9876],[-72.3899,18.7124,10.338],[-72.3829,18.7049,0.0],[-72.3801,18.7043,1.3642],[-72.3788,18.7007,0.0],[-72.3632,18.6954,0.7808],[-72.3579,18.6921,2.3495],[-72.3582,18.6896,0.0],[-72.3547,18.6907,9.2593],[-72.3518,18.6871,0.0],[-72.3501,18.6882,0.7455],[-72.3417,18.6863,4.0356],[-72.3321,18.6824,2.666],[-72.3235,18.6888,77.5312],[-72.321,18.6925,95.3163],[-72.3167,18.693,109.5723],[-72.3119,18.7037,299.7309],[-72.3226,18.7036,181.491],[-72.3257,18.7073,189.0176],[-72.3322,18.7084,152.3402],[-72.3363,18.7109,136.2289],[-72.334,18.7148,186.4383],[-72.338,18.7224,198.5626],[-72.3353,18.7262,288.3969],[-72.3285,18.7299,341.4631],[-72.3285,18.7338,518.486],[-72.3318,18.7327,442.1079],[-72.3442,18.7361,422.0345],[-72.3495,18.7339,391.4292]]],
[[[-72.7115,18.9432,0.0],[-72.7117,18.9434,0.0],[-72.7118,18.9434,0.0],[-72.7118,18.9432,0.0],[-72.7115,18.9432,0.0]]]]}}