{"type": "Feature","bbox": [-61.0018,14.5488,-60.9332,14.6095],"geometry": {"type": "MultiPolygon","coordinates": [[[[-61.0018,14.5596,2.2136],[-60.9968,14.5604,0.0],[-60.9951,14.5576,0.0],[-60.9971,14.556,0.0],[-60.9915,14.5532,0.8886],[-60.9918,14.5518,1.8573],[-60.9949,14.5518,3.342],[-60.9888,14.5488,3.5311],[-60.957,14.5495,18.5637],[-60.9559,14.5556,101.1713],[-60.9534,14.5581,93.0894],[-60.9478,14.5593,39.2446],[-60.9454,14.5659,112.3458],[-60.9332,14.5862,49.1372],[-60.949,14.6095,196.0425],[-60.969,14.6031,29.4616],[-60.9735,14.5994,9.1399],[-61.0018,14.5596,2.2136]]]]}
,"properties": {"GID_2": "MTQ.2.1_1","GID_0": "MTQ","country": "Martinique","GID_1": "MTQ.2_1","province": "LeMarin","NL_NAME_1": "NA","county": "Ducos","VARNAME_2": "NA","NL_NAME_2": "NA","TYPE_2": "Commune","ENGTYPE_2": "Commune","CC_2": "NA","HASC_2": "MQ.MA.DU","name": "Ducos.county","area_km2": 29.73318,"hist_schema_id": "Elevation0-9000","hist_area_km2": {"0": 7.77733,"25": 7.22295,"50": 7.61269,"75": 4.51425,"100": 1.88781,"125": 0.59506,"150": 0.10258,"175": 0.02052}}}