{"type":"Feature","properties":{"ISO3166-1-Alpha-3":"BHS","country":"The Bahamas","fill":"#F0F","id":"5032","name":"Rum Cay"},
"geometry":{"type": "MultiPolygon","coordinates": [[[[-74.78726,23.68407,0.0],[-74.77721,23.69965,0.0],[-74.79963,23.71454,0.0],[-74.81237,23.71967,0.0],[-74.84972,23.72012,0.0],[-74.90005,23.70649,0.0],[-74.92309,23.70124,0.0],[-74.93863,23.69432,0.0],[-74.94538,23.68159,0.0],[-74.94164,23.65868,8.4712],[-74.9239,23.66446,1.3566],[-74.89086,23.66474,2.7735],[-74.87279,23.67235,6.0209],[-74.86075,23.6579,0.8122],[-74.83674,23.65082,1.0919],[-74.81871,23.65107,0.0],[-74.82494,23.65868,7.6169],[-74.82494,23.66494,4.2088],[-74.80378,23.66405,6.8695],[-74.79369,23.67133,0.0],[-74.78726,23.68407,0.0]]],
[[[-75.11071,23.81867,4.9923],[-75.10578,23.83145,4.2151],[-75.10607,23.84235,2.6551],[-75.10904,23.84691,1.4248],[-75.1173,23.84545,3.0092],[-75.12365,23.831,-0.1593],[-75.11742,23.81513,0.731],[-75.11071,23.81867,4.9923]]]]}}