{"type": "Feature","bbox": [-75.1299,23.6349,-74.7912,23.8569],"geometry": {"type": "MultiPolygon","coordinates": [[[[-74.8363,23.7124,0.0],[-74.8407,23.7127,0.0],[-74.844,23.7088,0.0],[-74.8613,23.7054,4.2506],[-74.8712,23.6982,3.0709],[-74.8901,23.6979,4.0971],[-74.8918,23.6963,4.975],[-74.8976,23.6965,0.7513],[-74.8982,23.6938,2.9965],[-74.901,23.6921,0.6384],[-74.924,23.689,0.0],[-74.9226,23.6843,2.6039],[-74.9257,23.681,1.0149],[-74.9349,23.6771,2.0193],[-74.9449,23.6771,0.0],[-74.9499,23.6718,2.1379],[-74.951,23.666,0.0],[-74.9482,23.6629,0.0],[-74.9463,23.6537,0.0],[-74.9415,23.6507,2.3222],[-74.9326,23.6551,0.0],[-74.9204,23.656,0.0],[-74.9118,23.6588,3.6947],[-74.8996,23.6568,0.578],[-74.8962,23.6537,0.0],[-74.8749,23.661,3.0431],[-74.8732,23.6599,0.0],[-74.8702,23.6607,2.084],[-74.8654,23.6588,2.0289],[-74.8607,23.6546,0.3212],[-74.8607,23.6518,0.0],[-74.8496,23.6515,1.5482],[-74.8371,23.6449,0.0],[-74.8332,23.641,0.0],[-74.8329,23.6349,0.0],[-74.8168,23.6401,0.0],[-74.8131,23.6432,0.9378],[-74.8076,23.6426,4.1099],[-74.8085,23.646,12.4655],[-74.8051,23.6518,0.0],[-74.8024,23.6529,0.0],[-74.8007,23.6507,2.2259],[-74.7982,23.6507,8.3364],[-74.7971,23.6629,0.0],[-74.7924,23.6747,1.211],[-74.7932,23.6841,2.5245],[-74.7913,23.6854,0.0],[-74.7912,23.6899,0.0],[-74.7923,23.6963,0.9847],[-74.7962,23.7021,3.1081],[-74.7949,23.7043,0.0],[-74.8029,23.709,0.0],[-74.8107,23.7082,7.8441],[-74.8199,23.7104,8.4864],[-74.8215,23.7082,3.5462],[-74.8293,23.7076,3.4934],[-74.8313,23.7093,2.0307],[-74.8304,23.7121,0.0],[-74.8363,23.7124,0.0]]],
[[[-74.8183,23.7126,0.0],[-74.821,23.7129,0.0],[-74.821,23.7121,0.0],[-74.8165,23.711,0.8213],[-74.8183,23.7126,0.0]]],
[[[-75.082,23.811,0.0],[-75.0835,23.8107,0.0],[-75.084,23.8071,0.0],[-75.0807,23.8037,0.0],[-75.0821,23.8065,0.0],[-75.082,23.811,0.0]]],
[[[-75.1212,23.8565,0.0],[-75.1237,23.8569,0.0],[-75.1243,23.8546,0.0],[-75.1226,23.8557,0.0],[-75.119,23.8538,0.4526],[-75.119,23.8469,1.5077],[-75.1299,23.8335,0.0],[-75.1279,23.8315,0.4896],[-75.1282,23.8271,0.4179],[-75.1265,23.8235,0.0],[-75.1237,23.8221,0.0],[-75.1193,23.8149,0.0],[-75.116,23.8124,0.1197],[-75.1151,23.809,0.0],[-75.1118,23.8068,0.0],[-75.1094,23.8115,1.0705],[-75.1104,23.8196,0.0],[-75.1074,23.8271,4.4374],[-75.1029,23.8327,1.1792],[-75.1007,23.8318,0.0],[-75.094,23.8401,0.0],[-75.1015,23.8463,0.0],[-75.1046,23.8455,0.0],[-75.1054,23.8437,2.6551],[-75.1076,23.8443,0.6383],[-75.1096,23.849,0.8243],[-75.1073,23.8507,1.4523],[-75.1076,23.8521,0.0],[-75.1115,23.8538,0.0],[-75.1168,23.8535,1.6947],[-75.1212,23.8565,0.0]]],
[[[-75.0888,23.841,2.3264],[-75.0907,23.8413,0.0],[-75.0918,23.8382,1.4533],[-75.0876,23.8349,0.0],[-75.0851,23.8354,0.0],[-75.0849,23.8393,0.0],[-75.0888,23.841,2.3264]]]]}
,"properties": {"GID_1": "BHS.26_1","GID_0": "BHS","country": "Bahamas","state": "RumCay","VARNAME_1": "NA","NL_NAME_1": "NA","TYPE_1": "District","ENGTYPE_1": "District","CC_1": "NA","HASC_1": "BS.RC","ISO_1": "NA","name": "RumCay.state","area_km2": 90.57185,"hist_schema_id": "Elevation0-9000","hist_area_km2": {"0": 84.16462,"25": 6.40722}}}