{"type": "Feature","bbox": [-69.9297,18.8515,-69.6212,19.0987],"geometry": {"type": "MultiPolygon","coordinates": [[[[-69.9046,19.0468,41.3033],[-69.9074,19.0385,31.4298],[-69.9118,19.0323,32.7582],[-69.9136,19.0239,35.5482],[-69.9201,19.0192,35.5661],[-69.9272,19.0086,41.4413],[-69.9297,18.9934,43.9653],[-69.9277,18.9912,61.4482],[-69.9202,18.9888,44.5782],[-69.9183,18.9839,70.1413],[-69.9192,18.9793,93.0877],[-69.923,18.9734,50.221],[-69.9193,18.9651,50.6308],[-69.9222,18.9539,70.9935],[-69.9269,18.9468,79.5427],[-69.9232,18.9386,88.7612],[-69.9138,18.9318,136.3188],[-69.9107,18.9265,246.0131],[-69.9105,18.9237,240.116],[-69.9142,18.9203,291.5236],[-69.913,18.917,271.2137],[-69.9096,18.9153,253.0195],[-69.9031,18.9185,263.7644],[-69.8979,18.9165,188.8076],[-69.8893,18.9041,97.463],[-69.8821,18.9079,154.1112],[-69.8776,18.9075,122.2348],[-69.8711,18.9,110.2718],[-69.861,18.8929,176.4945],[-69.8619,18.8815,327.1143],[-69.859,18.8769,314.9884],[-69.8529,18.8719,323.4405],[-69.8395,18.867,342.5083],[-69.8368,18.8676,294.3761],[-69.8321,18.8744,361.6888],[-69.8278,18.8768,420.0],[-69.8236,18.8764,466.1337],[-69.8172,18.8719,343.4818],[-69.8108,18.871,473.223],[-69.8028,18.8717,338.4815],[-69.7978,18.8758,351.6922],[-69.7937,18.8853,316.864],[-69.7963,18.9013,312.8776],[-69.7911,18.9115,234.9039],[-69.7903,18.9245,363.7555],[-69.7862,18.9272,301.1696],[-69.7737,18.9182,257.2366],[-69.7646,18.9073,196.4651],[-69.7635,18.8925,200.9915],[-69.7587,18.8875,168.9459],[-69.7576,18.8774,146.366],[-69.7524,18.8672,78.671],[-69.7549,18.8576,105.578],[-69.7538,18.8541,72.2818],[-69.7469,18.8515,75.5144],[-69.7273,18.859,181.053],[-69.7091,18.859,99.7364],[-69.7213,18.8788,180.5953],[-69.7249,18.8885,194.1312],[-69.7254,18.9197,246.3349],[-69.724,18.9253,256.2352],[-69.7161,18.9321,278.6841],[-69.6972,18.9359,280.2325],[-69.6963,18.9379,285.4596],[-69.698,18.9453,290.4475],[-69.6851,18.9497,304.8956],[-69.686,18.956,283.907],[-69.6846,18.9577,291.048],[-69.6794,18.9578,297.7725],[-69.6601,18.9528,301.2526],[-69.6507,18.957,330.551],[-69.6423,18.9583,321.4921],[-69.6281,18.9633,325.103],[-69.6247,18.9662,321.2495],[-69.6218,18.9718,319.7158],[-69.6213,18.9772,312.1179],[-69.6236,18.9843,301.1647],[-69.6212,18.9926,299.1747],[-69.6453,19.0079,287.7591],[-69.6607,19.0126,271.0659],[-69.6745,19.0332,206.5652],[-69.6949,19.0404,209.7329],[-69.6984,19.0469,189.471],[-69.6989,19.0671,194.2368],[-69.7057,19.0802,176.2505],[-69.71,19.0843,164.623],[-69.7166,19.0872,120.9251],[-69.7263,19.0862,123.13],[-69.7328,19.0942,100.8082],[-69.7556,19.0938,97.54],[-69.7697,19.0987,101.3724],[-69.779,19.0918,179.0718],[-69.787,19.0938,139.4705],[-69.7915,19.0928,124.3317],[-69.797,19.0801,162.9264],[-69.8019,19.0771,176.0903],[-69.8109,19.0796,166.8515],[-69.818,19.0786,200.6711],[-69.8229,19.0814,184.8392],[-69.833,19.0827,169.6167],[-69.8439,19.0794,157.5562],[-69.8479,19.0753,169.0046],[-69.8507,19.0747,186.1216],[-69.8527,19.0759,168.402],[-69.8546,19.0825,156.37],[-69.8614,19.0846,152.2147],[-69.8683,19.0832,197.4364],[-69.8703,19.0812,166.9063],[-69.868,19.0715,184.0361],[-69.8702,19.0623,178.0328],[-69.8623,19.0512,236.3415],[-69.8625,19.0465,227.1944],[-69.8648,19.0424,201.2554],[-69.8702,19.0411,223.02],[-69.8824,19.0464,211.8176],[-69.9046,19.0468,41.3033]]]]}
,"properties": {"GID_2": "DOM.18.4_1","GID_0": "DOM","country": "DominicanRepublic","GID_1": "DOM.18_1","province": "MontePlata","NL_NAME_1": "NA","county": "SabanaGrandedeBoyá","VARNAME_2": "NA","NL_NAME_2": "NA","TYPE_2": "Municipio","ENGTYPE_2": "Municipality","CC_2": "NA","HASC_2": "DO.MP.SG","name": "Sabana_Grandede_Boyá.county","area_km2": 529.2733,"hist_schema_id": "Elevation0-9000","hist_area_km2": {"25": 1.1425,"50": 9.8833,"75": 12.5725,"100": 13.1751,"125": 14.7375,"150": 28.9085,"175": 50.92,"200": 70.5241,"225": 76.3616,"250": 78.0909,"275": 92.4703,"300": 60.5736,"325": 15.2394,"350": 2.1663,"375": 0.8827,"400": 0.6018,"425": 0.4012,"450": 0.2608,"475": 0.2809,"500": 0.0802}}}