{"type":"Feature","properties":{"GID_2":"HTI.7.5_1","GID_0":"HTI","country":"Haiti","GID_1":"HTI.7_1","province":"Nord","NL_NAME_1":"NA","county":"leLimbé","VARNAME_2":"NA","NL_NAME_2":"NA","TYPE_2":"Arrondissement","ENGTYPE_2":"District","CC_2":"NA","HASC_2":"HT.ND.LL","name":"le_Limbé.county"},
"geometry":{"type": "MultiPolygon","coordinates": [[[[-72.4151,19.5686,329.7969],[-72.4034,19.5772,534.2174],[-72.4028,19.58,533.6074],[-72.4063,19.5832,414.5389],[-72.4032,19.5943,601.1075],[-72.4063,19.5985,783.757],[-72.4026,19.6036,686.0476],[-72.4044,19.6095,785.9326],[-72.3958,19.6108,776.2722],[-72.3952,19.6168,805.5461],[-72.3971,19.6184,769.7873],[-72.3966,19.6308,695.7532],[-72.3774,19.6506,79.8189],[-72.3721,19.6516,59.5199],[-72.3707,19.6552,53.3162],[-72.3652,19.6545,68.9016],[-72.3589,19.6577,72.9738],[-72.361,19.6659,339.8101],[-72.3472,19.6823,254.3485],[-72.3422,19.6855,248.532],[-72.3412,19.6897,288.5396],[-72.3473,19.6995,201.6651],[-72.3529,19.7036,201.9912],[-72.3542,19.709,133.581],[-72.3616,19.7124,374.1252],[-72.3636,19.7179,341.6058],[-72.3686,19.7199,526.3232],[-72.3709,19.7235,582.8229],[-72.3706,19.7373,377.5184],[-72.3739,19.7407,341.6512],[-72.3731,19.7452,364.0419],[-72.3768,19.753,192.5587],[-72.3759,19.7561,192.7768],[-72.3713,19.7604,203.8692],[-72.3682,19.7696,186.865],[-72.3637,19.7724,104.1748],[-72.3637,19.7756,7.8165],[-72.3615,19.774,49.7738],[-72.3594,19.7747,124.8885],[-72.3593,19.7807,59.2777],[-72.3538,19.7829,4.0783],[-72.3574,19.7876,0.0],[-72.3711,19.794,0.0],[-72.3788,19.8015,2.1466],[-72.3821,19.8072,0.0],[-72.3804,19.8143,7.6483],[-72.3804,19.8168,1.5783],[-72.3817,19.8171,0.0],[-72.3851,19.816,4.6424],[-72.3883,19.8171,0.0],[-72.3868,19.8093,0.0],[-72.3904,19.8057,0.5341],[-72.3957,19.8042,1.203],[-72.4081,19.8045,1.4084],[-72.4168,19.809,0.0],[-72.4185,19.8083,4.7012],[-72.4184,19.8038,6.6185],[-72.4166,19.8006,2.1266],[-72.4195,19.7994,108.0686],[-72.4221,19.795,151.363],[-72.4181,19.7894,246.808],[-72.4143,19.7782,286.5107],[-72.4064,19.7743,164.3084],[-72.4039,19.7684,6.5711],[-72.4143,19.7681,31.9754],[-72.4179,19.7664,87.8514],[-72.4186,19.7573,110.9366],[-72.4243,19.7484,140.7938],[-72.4235,19.7445,130.5415],[-72.4164,19.7436,27.0343],[-72.4162,19.7415,27.1507],[-72.4235,19.74,145.3185],[-72.423,19.7336,137.1109],[-72.4296,19.729,123.502],[-72.4288,19.7196,129.2631],[-72.4345,19.7136,297.4775],[-72.4342,19.709,345.8752],[-72.4464,19.7003,336.2702],[-72.4442,19.694,346.1733],[-72.4458,19.6926,326.8005],[-72.4462,19.6855,595.1478],[-72.4605,19.677,1027.5151],[-72.4578,19.6742,945.8776],[-72.458,19.6707,695.344],[-72.4603,19.6687,671.2013],[-72.4614,19.6628,911.6495],[-72.4544,19.652,579.3367],[-72.4512,19.6428,669.9758],[-72.4512,19.6288,540.5302],[-72.4537,19.6239,669.5144],[-72.4482,19.6167,507.7527],[-72.4486,19.6137,441.9131],[-72.4519,19.6107,450.732],[-72.4497,19.6057,493.0197],[-72.4449,19.6024,517.2834],[-72.4464,19.6013,552.5425],[-72.4442,19.5935,517.9948],[-72.4458,19.5898,519.6762],[-72.4438,19.5855,602.3732],[-72.4273,19.5731,646.218],[-72.4231,19.5652,600.8245],[-72.4151,19.5686,329.7969]]],
[[[-72.3754,19.8168,14.0442],[-72.3776,19.8168,18.5063],[-72.3776,19.8132,0.0],[-72.374,19.8143,17.9741],[-72.3737,19.8163,0.0],[-72.3754,19.8168,14.0442]]]]}}