{"type": "Feature","bbox": [-61.1605,14.4621,-60.9164,14.8746],"geometry": {"type": "MultiPolygon","coordinates": [[[[-60.983,14.4865,10.2064],[-60.9823,14.4807,5.3502],[-60.9807,14.4815,0.8802],[-60.9785,14.4788,0.0],[-60.9804,14.4751,0.0],[-60.9785,14.4749,1.0115],[-60.9782,14.4768,2.9488],[-60.9763,14.4754,0.0],[-60.9787,14.4707,0.0],[-60.9749,14.4676,0.7165],[-60.9687,14.4704,0.0],[-60.9687,14.4724,1.7054],[-60.9649,14.4726,1.2568],[-60.9604,14.4676,0.0],[-60.9579,14.4682,2.1699],[-60.9565,14.4651,0.0],[-60.9463,14.4668,0.0],[-60.9426,14.466,3.7407],[-60.9421,14.4635,0.0],[-60.9362,14.4643,3.9499],[-60.9351,14.4621,0.0],[-60.9166,14.4685,0.0],[-60.9164,14.4915,215.6293],[-60.9198,14.4947,253.6581],[-60.9318,14.4993,258.8445],[-60.9539,14.4929,41.1681],[-60.985,14.4991,40.0262],[-60.983,14.4865,10.2064]]],
[[[-61.1534,14.8092,848.661],[-61.1419,14.8093,597.8563],[-61.1354,14.8136,537.3767],[-61.1268,14.825,366.6163],[-61.0964,14.8334,70.7112],[-61.0815,14.8524,0.0],[-61.0899,14.8538,0.0],[-61.0976,14.8635,3.1276],[-61.1026,14.8638,0.0],[-61.1054,14.8671,0.0],[-61.1099,14.8676,13.0243],[-61.114,14.871,0.0],[-61.1199,14.8699,22.6852],[-61.121,14.8724,0.0],[-61.126,14.8746,0.0],[-61.1558,14.8234,812.9031],[-61.1605,14.8197,973.1614],[-61.1534,14.8092,848.661]]]]}
,"properties": {"GID_2": "MTQ.3.1_1","GID_0": "MTQ","country": "Martinique","GID_1": "MTQ.3_1","province": "LeTrinité","NL_NAME_1": "NA","county": "Basse-Pointe","VARNAME_2": "NA","NL_NAME_2": "NA","TYPE_2": "Commune","ENGTYPE_2": "Commune","CC_2": "NA","HASC_2": "MQ.TR.BP","name": "Basse-Pointe.county","area_km2": 51.72524,"hist_schema_id": "Elevation0-9000","hist_area_km2": {"0": 4.4945,"25": 6.83353,"50": 5.94905,"75": 4.49132,"100": 3.71138,"125": 3.58905,"150": 2.9329,"175": 2.5637,"200": 2.15354,"225": 2.19444,"250": 1.49719,"275": 1.14818,"300": 0.86099,"325": 0.92242,"350": 0.55338,"375": 0.61487,"400": 0.61487,"425": 0.57389,"450": 0.5329,"475": 0.49191,"500": 0.59439,"525": 0.38943,"550": 0.34844,"575": 0.55341,"600": 0.45093,"625": 0.30745,"650": 0.30746,"675": 0.20497,"700": 0.26646,"725": 0.20497,"750": 0.20497,"775": 0.22547,"800": 0.16398,"825": 0.12298,"850": 0.16398,"875": 0.04099,"900": 0.20497,"925": 0.0205,"950": 0.12298,"975": 0.08199,"1025": 0.0205}}}