{"type":"Feature","properties":{"GID_2":"CUB.6.9_1","GID_0":"CUB","country":"Cuba","GID_1":"CUB.6_1","province":"Guantánamo","NL_NAME_1":"NA","county":"SanAntoniodelSur","VARNAME_2":"NA","NL_NAME_2":"NA","TYPE_2":"Municipio","ENGTYPE_2":"Municipality","CC_2":"NA","HASC_2":"CU.GU.SA","name":"San_Antoniodel_Sur.county"},
"geometry":{"type": "MultiPolygon","coordinates": [[[[-74.7022,20.3354,435.5906],[-74.7492,20.3343,197.7028],[-74.7677,20.328,664.3676],[-74.7901,20.3247,312.6083],[-74.8104,20.3084,623.5296],[-74.8346,20.2817,387.9363],[-74.8587,20.2158,416.9786],[-74.8582,20.1199,248.5854],[-74.8611,20.1088,266.3337],[-74.8745,20.1004,455.8463],[-75.0017,20.0414,164.4038],[-74.9811,20.0079,37.1519],[-74.9701,19.9599,141.2642],[-74.9512,19.9668,0.0],[-74.9521,19.9696,0.0],[-74.956,19.9701,3.1248],[-74.9554,19.9751,1.0276],[-74.951,19.974,4.3761],[-74.9474,19.976,6.0185],[-74.9437,19.9757,5.9852],[-74.9343,19.9726,0.0],[-74.9171,19.9749,0.0],[-74.9149,19.9771,5.8134],[-74.9104,19.9771,0.0],[-74.909,19.979,5.5732],[-74.896,19.9815,0.0],[-74.881,19.989,0.8413],[-74.8715,20.0085,1.1819],[-74.8649,20.0126,5.7341],[-74.859,20.014,0.8072],[-74.8532,20.0187,0.0],[-74.8526,20.0249,0.0],[-74.8485,20.0251,0.0],[-74.8368,20.0343,5.6211],[-74.8307,20.0343,48.7074],[-74.8268,20.0326,0.0],[-74.8218,20.0351,0.0],[-74.8182,20.0343,0.0],[-74.8112,20.0415,0.3844],[-74.806,20.0413,0.0],[-74.8015,20.0435,2.2914],[-74.801,20.041,0.0],[-74.7962,20.0407,6.5557],[-74.7929,20.0374,0.0],[-74.7829,20.0396,0.0],[-74.776,20.0435,0.0],[-74.7651,20.0465,0.9176],[-74.7538,20.0476,7.4579],[-74.7499,20.0457,2.469],[-74.7461,20.0499,60.3428],[-74.7294,20.075,93.4758],[-74.7056,20.1232,362.5146],[-74.7124,20.1329,547.1653],[-74.7292,20.1417,553.5187],[-74.7355,20.1484,600.6214],[-74.738,20.1659,714.6354],[-74.736,20.1877,878.004],[-74.7261,20.1991,841.6652],[-74.7074,20.2094,502.6073],[-74.6815,20.2325,402.6846],[-74.6661,20.2408,667.7969],[-74.6543,20.25,576.8688],[-74.6706,20.2855,301.7266],[-74.6848,20.303,317.4506],[-74.7022,20.3354,435.5906]]]]}}