{"type":"Feature","properties":{"GID_1":"BRB.11_1","GID_0":"BRB","country":"Barbados","province":"SaintThomas","VARNAME_1":"NA","NL_NAME_1":"NA","TYPE_1":"Parish","ENGTYPE_1":"Parish","CC_1":"NA","HASC_1":"BB.TH","ISO_1":"BB-11","name":"Saint_Thomas.province"},
"geometry":{"type": "MultiPolygon","coordinates": [[[[-59.5977,13.2154,268.0773],[-59.6019,13.2023,222.4221],[-59.6173,13.1874,117.185],[-59.614,13.1447,116.9098],[-59.553,13.167,221.3924],[-59.5573,13.1868,289.4357],[-59.5734,13.2025,214.6644],[-59.5977,13.2154,268.0773]]]]}}