{"type":"Feature","properties":{"GID_2":"GLP.2.10_1","GID_0":"GLP","country":"Guadeloupe","GID_1":"GLP.2_1","province":"Pointe-à-Pitre","NL_NAME_1":"NA","county":"Pointe-à-Pitre","VARNAME_2":"NA","NL_NAME_2":"NA","TYPE_2":"Sous-préfecture","ENGTYPE_2":"Commune","CC_2":"97","HASC_2":"NA","name":"Pointe-à-Pitre.county"},
"geometry":{"type": "MultiPolygon","coordinates": [[[[-61.5255,16.2234,6.7245],[-61.5307,16.2283,3.8673],[-61.5296,16.2388,6.7557],[-61.5326,16.2452,6.2829],[-61.5488,16.2531,1.2257],[-61.5509,16.2521,3.8299],[-61.5432,16.2451,0.387],[-61.5418,16.2399,0.0],[-61.5396,16.2396,0.3933],[-61.5401,16.2376,0.0],[-61.5379,16.234,0.0],[-61.5343,16.2343,0.9286],[-61.5351,16.2304,0.0],[-61.5326,16.2274,0.0],[-61.5335,16.2251,0.6977],[-61.5301,16.2226,0.0],[-61.5304,16.2207,0.4308],[-61.5318,16.2226,0.0],[-61.5332,16.221,1.2232],[-61.5301,16.2157,0.0],[-61.5282,16.2168,0.3333],[-61.5255,16.2234,6.7245]]]]}}