{"type":"Feature","properties":{"GID_1":"TTO.12_1","GID_0":"TTO","country":"TrinidadandTobago","province":"SangreGrande","VARNAME_1":"NA","NL_NAME_1":"NA","TYPE_1":"Region","ENGTYPE_1":"Region","CC_1":"NA","HASC_1":"TT.SN","ISO_1":"TT-SGE","name":"Sangre_Grande.province"},
"geometry":{"type": "MultiPolygon","coordinates": [[[[-61.1992,10.4337,164.943],[-61.1922,10.4404,197.8939],[-61.1847,10.435,213.8679],[-61.1809,10.4361,190.0687],[-61.1616,10.4489,134.7914],[-61.1578,10.4489,120.7849],[-61.152,10.4419,102.22],[-61.1488,10.444,110.5207],[-61.1471,10.451,82.3863],[-61.1438,10.4564,99.7787],[-61.1353,10.4563,84.1312],[-61.1283,10.4542,52.6284],[-61.1267,10.4525,42.8685],[-61.1294,10.4488,34.6814],[-61.1156,10.4352,24.2563],[-61.1081,10.4352,17.3684],[-61.0968,10.4411,3.0682],[-61.0898,10.4394,2.1802],[-61.0335,10.4397,0.0],[-61.0404,10.4649,1.7279],[-61.0435,10.4929,0.3871],[-61.0432,10.5079,1.6179],[-61.0401,10.5151,6.5942],[-61.0296,10.5151,0.0],[-61.0232,10.5232,2.6584],[-61.0185,10.5238,37.0618],[-61.0129,10.5218,0.0],[-61.0118,10.5304,0.0],[-61.0137,10.5315,19.3968],[-61.0135,10.5349,1.9937],[-61.0151,10.5351,1.9937],[-61.0157,10.5418,0.0],[-61.0201,10.5557,0.0],[-61.019,10.5576,0.0],[-61.0207,10.5587,0.0],[-61.0215,10.5643,30.2833],[-61.0199,10.5751,0.0],[-61.0215,10.5771,10.8694],[-61.0251,10.6068,0.0],[-61.0274,10.616,0.0],[-61.0296,10.6176,6.7334],[-61.029,10.624,0.0],[-61.0368,10.6579,0.0],[-61.0382,10.6749,51.5426],[-61.0374,10.6871,5.462],[-61.0321,10.6893,8.0697],[-61.031,10.6954,6.5395],[-61.0265,10.7029,2.2586],[-61.0221,10.7032,0.0],[-61.0213,10.7051,0.0],[-61.0176,10.7063,6.5891],[-61.0099,10.7021,15.1582],[-60.9982,10.7037,0.0],[-60.9954,10.7074,2.4587],[-60.9957,10.7129,8.9958],[-60.9912,10.7199,0.0],[-60.9876,10.7212,4.0332],[-60.9874,10.7185,0.0],[-60.9846,10.7171,0.0],[-60.9854,10.7254,0.0],[-60.9799,10.731,0.0],[-60.981,10.7349,6.267],[-60.9746,10.739,0.0],[-60.9746,10.7415,1.6868],[-60.969,10.7426,0.0],[-60.9696,10.7476,4.356],[-60.9649,10.751,1.6922],[-60.9643,10.754,14.3242],[-60.9629,10.7535,0.0],[-60.9576,10.7565,0.0],[-60.9471,10.7646,0.0],[-60.9482,10.7721,11.5267],[-60.9451,10.7738,0.0],[-60.9457,10.784,17.8541],[-60.9437,10.7846,2.6676],[-60.9446,10.7896,5.0574],[-60.9407,10.7929,0.0],[-60.9376,10.8035,2.8226],[-60.9335,10.8057,25.0834],[-60.9307,10.8043,0.0],[-60.9251,10.806,3.8621],[-60.9243,10.8093,2.9543],[-60.919,10.8099,0.0],[-60.9151,10.8157,5.7166],[-60.9126,10.8146,0.0],[-60.9107,10.8168,0.0],[-60.9154,10.826,0.0],[-60.914,10.8301,0.0],[-60.909,10.8332,0.0],[-60.9093,10.8354,4.1159],[-60.9243,10.836,0.0],[-60.9251,10.8385,5.3596],[-60.9315,10.839,0.0],[-60.9343,10.8424,0.0],[-60.939,10.8443,0.0],[-60.9407,10.841,14.6798],[-60.946,10.8399,0.0],[-60.9454,10.8376,0.0],[-60.9471,10.8351,10.1264],[-60.9518,10.8335,7.2273],[-60.9529,10.8351,0.0],[-60.9557,10.8343,0.0],[-60.9557,10.8363,0.0],[-60.9607,10.8349,2.996],[-60.9665,10.8379,0.0],[-60.9715,10.8351,19.2604],[-60.9826,10.8371,0.0],[-60.9918,10.8351,20.9862],[-60.9982,10.839,0.0],[-61.0015,10.8376,0.0],[-61.0035,10.8418,25.2838],[-61.0068,10.844,0.0],[-61.0101,10.8415,39.0209],[-61.0149,10.8438,0.0],[-61.0224,10.8438,0.0],[-61.0349,10.841,10.7513],[-61.0357,10.8393,70.3434],[-61.0385,10.8413,11.1742],[-61.0438,10.841,4.1159],[-61.0449,10.8335,52.3673],[-61.0493,10.8296,0.0],[-61.0535,10.8293,1.329],[-61.0624,10.8332,12.2812],[-61.0638,10.831,25.7254],[-61.0699,10.8315,14.6483],[-61.0721,10.8287,44.9451],[-61.0743,10.8299,17.0226],[-61.0799,10.8279,28.943],[-61.0829,10.8285,16.6491],[-61.0863,10.8254,34.3538],[-61.0976,10.8251,4.0756],[-61.1004,10.8224,0.0],[-61.1063,10.8229,0.0],[-61.1162,10.8196,19.8247],[-61.1257,10.8232,0.0],[-61.1293,10.821,1.9495],[-61.1343,10.8221,0.0],[-61.139,10.821,29.5146],[-61.1424,10.8226,0.0],[-61.1482,10.8176,51.9643],[-61.1518,10.8168,34.7124],[-61.1532,10.8129,10.1558],[-61.1587,10.8112,21.9918],[-61.1657,10.8132,0.0],[-61.1701,10.8092,0.0],[-61.1701,10.7957,288.3063],[-61.1674,10.7957,287.5353],[-61.1669,10.7973,336.0812],[-61.1614,10.7962,292.0521],[-61.156,10.7882,239.5317],[-61.1528,10.7743,328.3511],[-61.1534,10.7695,539.6514],[-61.1577,10.761,548.6151],[-61.1668,10.7615,535.2474],[-61.176,10.7599,434.2497],[-61.1786,10.7578,428.7837],[-61.1786,10.7535,323.6979],[-61.183,10.7471,311.4627],[-61.1895,10.7423,313.2095],[-61.1921,10.7343,394.5565],[-61.1982,10.7294,627.7164],[-61.2115,10.7274,719.336],[-61.2271,10.7285,774.0963],[-61.2304,10.728,782.044],[-61.2319,10.7253,763.931],[-61.2379,10.7307,785.5812],[-61.2421,10.7307,850.4617],[-61.2449,10.7243,914.9951],[-61.2416,10.7205,881.4614],[-61.2314,10.7167,666.7621],[-61.225,10.7183,728.6679],[-61.2218,10.7172,713.2173],[-61.2207,10.7151,781.1851],[-61.2126,10.714,763.6511],[-61.2094,10.7108,713.4808],[-61.2132,10.6947,484.9933],[-61.2106,10.6909,369.1917],[-61.2106,10.6877,294.2443],[-61.2139,10.6808,376.7033],[-61.2176,10.6786,362.2487],[-61.2177,10.6738,349.8552],[-61.2214,10.6695,225.9702],[-61.2258,10.6674,188.3653],[-61.2263,10.6652,106.1152],[-61.2226,10.663,103.8967],[-61.2258,10.6566,73.2791],[-61.2248,10.6523,66.8818],[-61.2146,10.6507,59.6976],[-61.2028,10.6393,46.1905],[-61.2029,10.6318,51.5133],[-61.2045,10.6286,47.1181],[-61.1992,10.6237,48.1306],[-61.1992,10.6205,49.9277],[-61.202,10.6129,43.9569],[-61.2058,10.6092,38.0414],[-61.208,10.6,43.5569],[-61.2123,10.6001,34.0019],[-61.2149,10.6027,38.8548],[-61.2289,10.6018,44.4352],[-61.2367,10.5926,24.6152],[-61.2211,10.578,46.1856],[-61.2228,10.5694,49.0217],[-61.218,10.564,43.2607],[-61.2229,10.5527,50.8509],[-61.2175,10.5515,44.7254],[-61.2159,10.5494,37.7485],[-61.2198,10.5419,41.963],[-61.2192,10.5392,48.0713],[-61.216,10.5375,53.2803],[-61.2241,10.5306,61.1288],[-61.2247,10.5225,69.266],[-61.2076,10.5219,79.8488],[-61.2028,10.5202,80.1533],[-61.2017,10.517,66.2247],[-61.2068,10.4928,76.487799999999993],[-61.2089,10.4895,81.4732],[-61.2159,10.4848,72.8821],[-61.2165,10.482,79.7055],[-61.2203,10.4788,82.0816],[-61.2203,10.4767,80.9065],[-61.2128,10.4729,92.9302],[-61.2193,10.4659,117.1108],[-61.2172,10.4594,106.5978],[-61.1979,10.4572,120.0097],[-61.1964,10.4556,119.4048],[-61.1969,10.4491,126.7702],[-61.1991,10.4453,119.2942],[-61.1992,10.4337,164.943]]]]}}