{"type": "Feature","id": "54","bbox": [-61.23954,10.45636,-60.9073,10.84528],"geometry": {"type": "Polygon","coordinates": [[[-61.00227,10.69937,0.0],[-60.94978,10.7635,0.0],[-60.9073,10.83714,0.0],[-60.94884,10.84528,0.0],[-61.07852,10.83096,0.0],[-61.09655,10.82343,46.6031],[-61.15486,10.81647,0.0],[-61.17158,10.80394,83.8097],[-61.17158,10.80394,83.8097],[-61.1676,10.80084,229.9994],[-61.15797,10.78699,242.0146],[-61.15696,10.7781,309.3022],[-61.15719,10.76921,454.9959],[-61.16311,10.76374,610.3137],[-61.17166,10.75955,393.3324],[-61.1782,10.75505,338.4725],[-61.19453,10.73692,455.8093],[-61.20021,10.73273,542.738],[-61.20931,10.72994,675.0104],[-61.23763,10.72715,836.1362],[-61.23954,10.72322,849.2148],[-61.2353,10.72136,759.9462],[-61.23016,10.71971,748.1954],[-61.22388,10.71929,752.2402],[-61.21959,10.71723,700.4228],[-61.21429,10.71268,763.2043],[-61.21331,10.70431,541.2313],[-61.2137,10.68663,414.3604],[-61.21796,10.67149,228.4193],[-61.21471,10.65501,63.9577],[-61.21091,10.64788,51.9725],[-61.20342,10.63821,44.286],[-61.20132,10.63206,57.9854],[-61.2013,10.62493,46.6262],[-61.20293,10.61765,34.7612],[-61.2092,10.60984,36.5717],[-61.21339,10.60354,35.9258],[-61.23915,10.59145,31.0732],[-61.22809,10.5822,43.373],[-61.22398,10.5715,54.2565],[-61.22106,10.52933,64.9034],[-61.21794,10.52122,66.0023],[-61.21019,10.51316,72.4767],[-61.21039,10.49729,78.6855],[-61.21864,10.47481,76.9268],[-61.21804,10.46618,96.3712],[-61.21657,10.46179,96.5695],[-61.19714,10.45636,119.4048],[-61.09531,10.46954,12.4114],[-61.03844,10.46365,1.2242],[-61.04186,10.48188,0.0],[-61.04247,10.50996,1.2382],[-61.01354,10.53449,1.9937],[-61.01757,10.56411,0.0],[-61.03698,10.6249,11.5569],[-61.03808,10.65363,36.4927],[-61.0327,10.68354,0.0],[-61.02086,10.7027,0.0],[-61.00227,10.69937,0.0]]]}
,"properties": {"ISO3166-1-Alpha-3": "TTO","country": "Trinidad and Tobago","fill": "#00F","name": "Sangre Grande","area_km2": 902.154,"hist_schema_id": "Elevation0-9000","hist_area_km2": {"0": 58.8871,"25": 193.8977,"50": 177.3111,"75": 83.3609,"100": 47.6738,"125": 44.5634,"150": 45.7269,"175": 41.9122,"200": 32.0795,"225": 27.5168,"250": 25.0582,"275": 20.9962,"300": 17.1635,"325": 15.0597,"350": 12.206,"375": 10.6232,"400": 9.2901,"425": 8.0404,"450": 6.0824,"475": 5.3117,"500": 4.5618,"525": 3.1037,"550": 2.6038,"575": 1.6248,"600": 1.1249,"625": 1.229,"650": 0.9582,"675": 0.8333,"700": 0.75,"725": 0.8749,"750": 0.8958,"775": 0.625,"800": 0.1458,"825": 0.0417,"850": 0.0208}}}