{"type":"Feature","properties":{"GID_2":"CUB.16.1_1","GID_0":"CUB","country":"Cuba","GID_1":"CUB.16_1","province":"VillaClara","NL_NAME_1":"NA","county":"Caibarién","VARNAME_2":"NA","NL_NAME_2":"NA","TYPE_2":"Municipio","ENGTYPE_2":"Municipality","CC_2":"NA","HASC_2":"CU.VC.CB","name":"Caibarién.county"},
"geometry":{"type": "MultiPolygon","coordinates": [[[[-79.4214,22.4152,18.1192],[-79.4182,22.4232,12.2271],[-79.4187,22.4471,5.6753],[-79.4148,22.457,3.71],[-79.4088,22.4638,0.0],[-79.4149,22.4688,1.296],[-79.4185,22.474,0.0],[-79.4238,22.4843,6.5716],[-79.4238,22.4888,1.9591],[-79.414,22.4901,0.0],[-79.4065,22.4946,0.0],[-79.3935,22.5113,0.0],[-79.376,22.5238,0.0],[-79.3621,22.5396,0.0],[-79.3565,22.5421,0.0],[-79.3335,22.5421,0.0],[-79.3035,22.5465,0.0],[-79.2968,22.5446,0.0],[-79.2824,22.5349,0.0],[-79.2757,22.5343,0.0],[-79.2557,22.5413,0.0],[-79.2365,22.5438,0.0],[-79.2262,22.5476,0.1911],[-79.2249,22.5435,0.4429],[-79.2282,22.5424,0.0],[-79.2296,22.5382,2.5646],[-79.2315,22.5368,0.5023],[-79.2335,22.5376,0.0],[-79.2335,22.5365,0.3824],[-79.2199,22.5318,1.8549],[-79.2179,22.5251,0.0],[-79.2118,22.5263,1.6634],[-79.2032,22.5243,1.5104],[-79.1988,22.5276,3.0488],[-79.1935,22.5279,0.6752],[-79.1921,22.5326,1.367],[-79.1871,22.5326,0.5154],[-79.1857,22.534,2.2598],[-79.1871,22.5396,0.697],[-79.1921,22.5379,0.9452],[-79.1949,22.539,0.7204],[-79.1937,22.5426,0.5907],[-79.1954,22.5454,0.0045],[-79.194,22.5471,0.0929],[-79.1974,22.5504,0.4974],[-79.1988,22.5585,0.0],[-79.2024,22.5663,0.6146],[-79.1921,22.5749,0.0],[-79.1899,22.5707,0.1134],[-79.189,22.5729,0.3968],[-79.1868,22.5718,0.1071],[-79.1865,22.5763,0.1781],[-79.1832,22.5757,0.148],[-79.1843,22.5824,0.9478],[-79.1832,22.5826,0.9478],[-79.1796,22.5757,0.4558],[-79.1799,22.5743,0.464],[-79.1829,22.5743,0.0],[-79.1818,22.5707,0.1652],[-79.1801,22.5735,0.0],[-79.1754,22.5718,0.0],[-79.1774,22.5793,0.5008],[-79.1743,22.576,0.0],[-79.1746,22.5799,0.2781],[-79.1696,22.5771,0.1416],[-79.1671,22.5743,0.3048],[-79.1682,22.5715,0.1662],[-79.1663,22.5707,0.6187],[-79.1632,22.5729,0.0],[-79.166,22.576,0.544],[-79.166,22.5785,0.1033],[-79.1671,22.576,0.368],[-79.1701,22.5782,0.1416],[-79.1682,22.5801,0.0],[-79.1607,22.5765,0.0],[-79.1626,22.574,0.0],[-79.1588,22.574,0.1961],[-79.1557,22.5774,0.2637],[-79.1521,22.5771,0.4888],[-79.1549,22.5732,0.0],[-79.1496,22.5757,0.1337],[-79.1487,22.5729,0.1191],[-79.1537,22.5696,0.3547],[-79.1454,22.5707,0.5394],[-79.1418,22.5649,0.6103],[-79.1501,22.5637,0.0],[-79.1526,22.5576,0.437],[-79.1474,22.5563,0.0],[-79.1471,22.5626,0.0],[-79.1418,22.5632,0.4458],[-79.1413,22.5599,0.0],[-79.1357,22.5579,0.2883],[-79.134,22.5529,0.4575],[-79.1315,22.5532,0.2049],[-79.129,22.5485,0.353],[-79.1235,22.5474,0.2958],[-79.1212,22.5438,0.972],[-79.1218,22.5424,0.731],[-79.1285,22.5424,0.0],[-79.1324,22.5438,0.0],[-79.1335,22.5401,0.0],[-79.1304,22.541,0.7228],[-79.119,22.5371,2.8019],[-79.1157,22.5379,1.1805],[-79.1143,22.5351,0.0],[-79.1085,22.5324,0.7404],[-79.099,22.5321,0.1981],[-79.0912,22.5299,0.0],[-79.0829,22.5304,0.0],[-79.0799,22.5329,0.721],[-79.0735,22.5326,1.4382],[-79.0665,22.5287,2.1171],[-79.0666,22.5248,1.3443],[-79.0646,22.5213,1.4094],[-79.0568,22.5207,0.0],[-79.0632,22.5265,0.8974],[-79.0629,22.5315,0.3881],[-79.0701,22.5321,0.5409],[-79.0738,22.5382,0.0],[-79.0746,22.5357,0.3044],[-79.0782,22.5365,0.0],[-79.0818,22.5329,2.6548],[-79.086,22.5351,0.0],[-79.0849,22.5382,0.4575],[-79.0885,22.5382,1.123],[-79.0896,22.5399,0.2267],[-79.0971,22.5349,0.2691],[-79.1038,22.534,0.1675],[-79.1087,22.5368,0.3727],[-79.1062,22.5404,0.0],[-79.1071,22.5432,0.2963],[-79.1104,22.5418,0.6796],[-79.111,22.5457,0.0],[-79.1157,22.5443,0.2995],[-79.1207,22.546,0.0],[-79.1232,22.5496,0.1287],[-79.1282,22.5507,0.0],[-79.1296,22.5535,0.2049],[-79.1276,22.5565,0.0],[-79.1276,22.5613,0.1184],[-79.1293,22.5649,0.0],[-79.1257,22.5665,0.0],[-79.124,22.5649,0.1431],[-79.1229,22.5668,0.0758],[-79.1296,22.5699,0.1179],[-79.1312,22.5818,0.3331],[-79.1371,22.5824,0.0],[-79.1401,22.5846,0.515],[-79.1446,22.5921,0.1947],[-79.1449,22.5968,0.1899],[-79.1396,22.6001,0.1837],[-79.1346,22.5999,0.2611],[-79.1285,22.5968,0.0],[-79.1304,22.6065,0.8979],[-79.1251,22.6126,0.6065],[-79.1217,22.6134,1.1413],[-79.1212,22.6157,0.0],[-79.1251,22.6176,1.0802],[-79.1188,22.6207,1.2109],[-79.1137,22.619,1.0511],[-79.1118,22.6207,0.9498],[-79.099,22.6065,0.0],[-79.0993,22.6043,0.2664],[-79.1012,22.6043,0.0],[-79.1029,22.6007,0.0],[-79.1132,22.5968,0.5638],[-79.114,22.5949,0.7562],[-79.0985,22.6004,0.0],[-79.0943,22.5976,0.0],[-79.091,22.6024,1.0322],[-79.0915,22.6051,0.6549],[-79.0885,22.6057,1.9158],[-79.0879,22.6107,0.53],[-79.0893,22.611,0.432],[-79.0904,22.6071,0.0],[-79.0937,22.6054,1.2562],[-79.0926,22.6029,0.7137],[-79.0949,22.6024,1.3223],[-79.0985,22.6101,0.0],[-79.0937,22.6176,0.0],[-79.0976,22.6174,0.0],[-79.0965,22.614,0.9716],[-79.1007,22.6096,0.3046],[-79.1007,22.6124,0.5592],[-79.1029,22.6132,0.2209],[-79.1015,22.619,0.0],[-79.1065,22.6221,0.7243],[-79.1038,22.6232,0.0],[-79.104,22.6257,0.4109],[-79.0893,22.6404,0.0],[-79.0857,22.639,0.6115],[-79.0813,22.6437,1.0984],[-79.0738,22.6432,0.0],[-79.0632,22.6526,1.8358],[-79.0626,22.649,0.8556],[-79.0596,22.6468,0.626],[-79.0612,22.646,0.626],[-79.0604,22.6424,0.9016],[-79.0604,22.6457,0.626],[-79.0565,22.6482,0.4608],[-79.0496,22.6479,0.6351],[-79.0465,22.6446,0.7887],[-79.0432,22.6465,1.5949],[-79.0415,22.651,1.8988],[-79.0376,22.6499,0.972],[-79.0343,22.6524,2.531],[-79.0268,22.6515,0.0],[-79.0237,22.649,0.7909],[-79.0215,22.6507,0.2342],[-79.0188,22.6501,0.0],[-79.019,22.646,0.0],[-79.0157,22.6446,0.0],[-79.0154,22.6474,1.8547],[-79.0132,22.6465,0.3776],[-79.0104,22.6493,1.2612],[-79.0104,22.6526,1.7784],[-79.0038,22.6551,0.8947],[-78.9971,22.654,5.59],[-78.9957,22.6474,1.0527],[-78.9938,22.6468,0.0],[-78.9957,22.6432,2.8681],[-78.9949,22.634,3.1679],[-78.9976,22.6279,8.1639],[-78.996,22.6265,0.0],[-78.9912,22.6318,0.4553],[-78.9754,22.6318,0.6244],[-78.9746,22.6293,0.0],[-78.974,22.6329,0.3105],[-78.9774,22.6335,1.7581],[-78.9779,22.6351,1.0881],[-78.9737,22.6365,1.2197],[-78.9737,22.6399,1.5296],[-78.9724,22.6382,0.0],[-78.9668,22.6396,0.0],[-78.9618,22.646,2.7597],[-78.9576,22.6485,0.2821],[-78.9612,22.6596,0.5679],[-78.9699,22.6668,2.5586],[-78.9871,22.6665,2.2612],[-78.9924,22.664,1.1418],[-79.0096,22.6632,3.842],[-79.0129,22.6601,4.0399],[-79.0299,22.6596,2.3855],[-79.0574,22.6607,0.5136],[-79.0729,22.6671,0.0],[-79.0843,22.6673,0.7818],[-79.0876,22.6688,0.0],[-79.0899,22.6674,0.8203],[-79.0893,22.6657,1.4606],[-79.0915,22.6629,0.6075],[-79.086,22.6582,3.668],[-79.0871,22.656,0.0],[-79.0854,22.654,5.5496],[-79.0782,22.6529,3.4692],[-79.0776,22.6563,0.7687],[-79.0743,22.6571,3.1043],[-79.0749,22.6588,4.129],[-79.0732,22.6607,0.6483],[-79.0743,22.6621,5.634],[-79.0724,22.6624,5.3707],[-79.0674,22.6585,5.6935],[-79.069,22.6569,0.0],[-79.0687,22.6546,0.0],[-79.064,22.6526,0.0],[-79.0718,22.646,0.5144],[-79.074,22.6476,1.8167],[-79.0796,22.6463,1.6061],[-79.0815,22.6493,2.2424],[-79.079,22.651,1.6057],[-79.0846,22.6507,0.7983],[-79.0857,22.6521,0.0],[-79.0865,22.6482,0.3166],[-79.0896,22.6451,3.1116],[-79.0957,22.6463,1.0677],[-79.1012,22.6429,1.6918],[-79.109,22.6418,1.8025],[-79.1087,22.6401,1.1981],[-79.1026,22.6385,0.0],[-79.0968,22.6404,1.7621],[-79.094,22.6393,0.0],[-79.0946,22.6426,3.0576],[-79.0899,22.6407,2.716],[-79.1068,22.6246,0.3544],[-79.1087,22.6246,1.4082],[-79.1096,22.6265,0.9458],[-79.1043,22.6279,2.3376],[-79.106,22.6329,0.6406],[-79.114,22.6304,2.6292],[-79.1188,22.6315,2.6793],[-79.119,22.634,0.0],[-79.1235,22.6363,2.3322],[-79.1218,22.626,0.3612],[-79.1237,22.6257,2.0645],[-79.1246,22.629,0.0],[-79.1265,22.6249,2.1462],[-79.1304,22.626,1.7654],[-79.1312,22.6285,0.7718],[-79.1343,22.6285,0.0],[-79.1349,22.6257,1.402],[-79.1313,22.6246,1.1131],[-79.1279,22.6193,0.7799],[-79.1274,22.6168,2.0459],[-79.1299,22.6162,1.3049],[-79.1288,22.6182,0.3181],[-79.1315,22.6207,0.3495],[-79.1312,22.6226,0.4199],[-79.136,22.626,0.7929],[-79.1357,22.6296,2.0101],[-79.1335,22.6324,0.0],[-79.1349,22.6382,0.8246],[-79.1393,22.6387,4.49],[-79.1451,22.636,1.5693],[-79.1532,22.6371,0.0],[-79.1565,22.636,0.0],[-79.1526,22.6329,0.4652],[-79.1524,22.631,0.0],[-79.1535,22.6282,0.4989],[-79.1585,22.6257,0.0],[-79.1651,22.6249,5.4461],[-79.1732,22.6268,3.2604],[-79.1771,22.6213,0.0],[-79.1801,22.6221,0.0],[-79.1799,22.6251,0.0],[-79.1874,22.6251,1.0227],[-79.1957,22.6207,0.0],[-79.1904,22.6126,0.0],[-79.1926,22.609,0.0],[-79.1896,22.604,0.9281],[-79.1821,22.6035,0.6486],[-79.1804,22.6021,0.8041],[-79.1793,22.6035,0.8041],[-79.1687,22.604,1.0578],[-79.1682,22.6071,1.3088],[-79.1615,22.6074,0.779],[-79.1582,22.6101,0.0],[-79.1585,22.6146,2.3509],[-79.1465,22.6185,0.1472],[-79.146,22.6154,0.6601],[-79.1501,22.6132,0.9722],[-79.1504,22.6165,0.0],[-79.1537,22.6096,0.721],[-79.1568,22.6101,0.0],[-79.1549,22.6074,0.781],[-79.166,22.596,0.0],[-79.1685,22.596,-0.0024],[-79.1696,22.6026,0.0],[-79.1724,22.6024,1.05],[-79.1729,22.6001,0.9363],[-79.1746,22.5999,0.9363],[-79.1832,22.6026,0.0],[-79.1885,22.6007,0.0],[-79.1915,22.6071,0.0],[-79.1968,22.6057,0.2808],[-79.2001,22.6013,1.2539],[-79.2012,22.6032,0.3746],[-79.2035,22.601,1.1455],[-79.2026,22.606,3.8841],[-79.199,22.606,0.0],[-79.1976,22.6079,0.7057],[-79.2012,22.6126,0.6297],[-79.2051,22.6146,0.0],[-79.2187,22.6146,1.546],[-79.2229,22.6115,3.5786],[-79.2262,22.5965,0.0],[-79.2282,22.5935,3.0821],[-79.2274,22.5882,1.9327],[-79.2226,22.5865,1.3907],[-79.2162,22.5888,2.7397],[-79.2138,22.5918,0.0],[-79.2054,22.5938,0.5106],[-79.2035,22.5971,2.3589],[-79.2007,22.5976,1.1388],[-79.2029,22.5915,0.0],[-79.1988,22.5929,0.8276],[-79.1976,22.5951,0.3198],[-79.1971,22.5946,0.8826],[-79.1985,22.5932,0.8276],[-79.1979,22.5921,0.8276],[-79.1946,22.5932,0.1248],[-79.1935,22.5918,0.1525],[-79.1968,22.5912,0.6396],[-79.2004,22.5849,1.3561],[-79.2065,22.5829,0.9606],[-79.2051,22.5776,0.0],[-79.2024,22.5779,0.0],[-79.2021,22.5729,0.0],[-79.2001,22.5771,0.6],[-79.1974,22.5754,0.0],[-79.1949,22.5779,0.6378],[-79.1924,22.5751,0.0],[-79.2032,22.5665,0.6146],[-79.2063,22.569,0.2585],[-79.2076,22.5738,0.0],[-79.2087,22.5715,0.5793],[-79.2104,22.5724,1.1712],[-79.2082,22.5782,0.2829],[-79.2135,22.5801,2.1626],[-79.2193,22.5751,1.5378],[-79.2279,22.5713,0.5971],[-79.2293,22.5663,0.0],[-79.2332,22.5637,0.4959],[-79.2301,22.5582,0.2956],[-79.2318,22.5557,0.5371],[-79.2399,22.5549,0.9151],[-79.2412,22.5576,0.0],[-79.2426,22.5529,1.7343],[-79.2471,22.5526,0.0],[-79.2443,22.5485,0.9118],[-79.2415,22.5476,1.7843],[-79.2324,22.5518,0.2663],[-79.2274,22.5501,0.0],[-79.2276,22.5479,0.1911],[-79.2379,22.5443,0.0],[-79.2557,22.5421,0.0],[-79.269,22.5368,0.0],[-79.2676,22.5421,2.5604],[-79.2607,22.5426,0.0],[-79.2604,22.5496,0.5683],[-79.2624,22.5529,1.1425],[-79.2699,22.556,0.0],[-79.274,22.5549,1.6193],[-79.2782,22.5504,6.036],[-79.2824,22.5485,3.5363],[-79.2851,22.549,1.283],[-79.2868,22.5474,2.8047],[-79.2887,22.5424,0.0],[-79.2868,22.5382,2.1488],[-79.2965,22.5454,0.0],[-79.3035,22.5474,0.0],[-79.3335,22.5429,0.0],[-79.3576,22.5426,0.0],[-79.364,22.539,0.0],[-79.3749,22.5257,0.0],[-79.3901,22.5154,0.0],[-79.4068,22.4954,0.0],[-79.414,22.491,0.0],[-79.4207,22.4896,0.0],[-79.4238,22.4899,1.9591],[-79.4251,22.494,0.0],[-79.4293,22.4974,1.4346],[-79.4307,22.5018,1.225],[-79.4349,22.5018,2.2798],[-79.4379,22.504,0.646],[-79.4399,22.509,0.0],[-79.4493,22.5079,1.3173],[-79.4507,22.5098,3.1426],[-79.4529,22.5151,1.2846],[-79.4524,22.5174,0.6356],[-79.4496,22.5187,0.0],[-79.451,22.5207,1.3725],[-79.4482,22.5235,0.4021],[-79.4446,22.5232,0.56],[-79.4421,22.5268,0.0],[-79.446,22.5296,0.0],[-79.4437,22.5318,0.0],[-79.4446,22.5329,1.5687],[-79.446,22.531,0.0],[-79.4524,22.5287,3.3556],[-79.4551,22.524,0.0],[-79.4607,22.5226,2.2746],[-79.464,22.5235,3.0445],[-79.4668,22.5276,0.0],[-79.4704,22.5287,1.4694],[-79.4768,22.528199999999998,1.0479],[-79.4774,22.5254,3.6057],[-79.481,22.524,1.5871],[-79.4863,22.5265,2.6609],[-79.4887,22.5318,1.0487],[-79.4865,22.5371,3.5818],[-79.4821,22.5365,0.0],[-79.4788,22.5404,0.0],[-79.4701,22.5421,0.0],[-79.4685,22.5457,0.0],[-79.4735,22.549,0.0],[-79.4799,22.549,1.3264],[-79.4854,22.5526,0.0],[-79.494,22.5435,1.8009],[-79.5007,22.5415,0.0],[-79.499,22.5399,0.0],[-79.4904,22.5424,2.5964],[-79.489,22.539,2.5534],[-79.4918,22.5329,1.0388],[-79.4968,22.534,0.6567],[-79.4996,22.5257,1.3201],[-79.5026,22.5251,4.6129],[-79.5079,22.5343,0.0],[-79.5079,22.5368,0.0],[-79.5046,22.5401,1.126],[-79.5129,22.5379,1.7603],[-79.5226,22.5446,1.0322],[-79.5282,22.5518,1.4072],[-79.529,22.5563,1.1588],[-79.5332,22.5607,4.1803],[-79.534,22.5663,0.8392],[-79.5421,22.5735,2.0478],[-79.5493,22.5901,2.1019],[-79.5526,22.6082,1.4652],[-79.5607,22.6101,1.8672],[-79.5629,22.6143,0.3815],[-79.5663,22.6137,3.9736],[-79.5713,22.6232,1.8337],[-79.5796,22.6296,3.5411],[-79.5854,22.6385,0.0],[-79.5862,22.6499,0.0],[-79.5957,22.6507,0.0],[-79.5982,22.6451,8.7397],[-79.6004,22.6474,0.0],[-79.6168,22.6091,3.1681],[-79.6296,22.593,5.969],[-79.6434,22.5668,12.5695],[-79.6565,22.5508,19.5326],[-79.6659,22.5308,31.0005],[-79.6654,22.5212,35.0153],[-79.6557,22.4952,50.6725],[-79.6312,22.4493,100.4591],[-79.611,22.4609,85.3746],[-79.5905,22.4637,59.5136],[-79.5749,22.47,146.5677],[-79.5656,22.469,46.0092],[-79.5609,22.4597,54.8326],[-79.5619,22.4341,92.025],[-79.5665,22.4253,96.4394],[-79.5826,22.4086,149.8663],[-79.5833,22.4034,156.3278],[-79.5807,22.3987,172.6289],[-79.5673,22.3867,182.4034],[-79.5495,22.3771,185.5503],[-79.527,22.3591,201.6637],[-79.4832,22.3467,195.3188],[-79.4014,22.3129,182.8887],[-79.4029,22.3265,141.3905],[-79.4101,22.344,121.2162],[-79.4145,22.3646,98.8124],[-79.4197,22.3775,94.6788],[-79.4324,22.3859,82.9668],[-79.4347,22.3932,89.2505],[-79.4348,22.4,80.5536],[-79.4214,22.4152,18.1192]]],
[[[-79.491,22.5951,2.7484],[-79.4943,22.5968,0.4938],[-79.4971,22.5921,1.5941],[-79.5005,22.5904,0.0],[-79.4904,22.5888,2.2502],[-79.4885,22.5924,0.6349],[-79.4846,22.5926,1.0041],[-79.4854,22.5954,0.6945],[-79.491,22.5951,2.7484]]],
[[[-79.3135,22.6118,0.0],[-79.3129,22.6168,0.9406],[-79.314,22.6171,0.0],[-79.3163,22.6137,0.0],[-79.3146,22.611,0.0],[-79.3135,22.6118,0.0]]],
[[[-79.4182,22.6249,0.4864],[-79.4207,22.6257,0.0],[-79.4199,22.6232,0.0],[-79.4149,22.6243,0.0],[-79.4151,22.6249,0.0],[-79.4182,22.6249,0.4864]]],
[[[-79.1537,22.5504,0.5859],[-79.1546,22.5526,0.6631],[-79.1568,22.551,0.0],[-79.1562,22.5462,3.039],[-79.1626,22.5454,2.1601],[-79.1665,22.5474,0.309],[-79.1668,22.5454,0.0],[-79.1604,22.5426,0.628],[-79.1604,22.5407,0.0],[-79.1635,22.539,0.4919],[-79.1682,22.5393,0.0],[-79.1685,22.5435,0.0],[-79.1751,22.5485,0.6507],[-79.1776,22.5462,0.7742],[-79.1807,22.5462,1.7169],[-79.1793,22.544,1.6719],[-79.1815,22.5415,0.5019],[-79.1746,22.5388,1.0366],[-79.1746,22.5357,0.2057],[-79.1704,22.5335,0.0],[-79.1588,22.531,0.0],[-79.1485,22.5307,1.34],[-79.1426,22.5324,0.9897],[-79.1404,22.5343,2.2372],[-79.1418,22.5385,0.0],[-79.1451,22.5379,0.3633],[-79.1485,22.5404,0.4486],[-79.1493,22.5424,0.454],[-79.1471,22.5438,0.0],[-79.1487,22.5474,0.5589],[-79.1515,22.5476,0.4416],[-79.1537,22.5504,0.5859]]],
[[[-79.2576,22.5515,2.0862],[-79.259,22.5529,0.0],[-79.2599,22.5518,2.412],[-79.259,22.544,1.5005],[-79.2574,22.5443,1.5005],[-79.2576,22.5476,0.9853],[-79.2557,22.5485,1.0621],[-79.2576,22.5515,2.0862]]],
[[[-79.2487,22.5518,1.5107],[-79.2493,22.5546,1.0723],[-79.2515,22.5549,1.4232],[-79.254,22.5493,0.0],[-79.2487,22.5468,0.0],[-79.2474,22.5501,4.7598],[-79.2487,22.5518,1.5107]]],
[[[-79.1082,22.5496,1.1306],[-79.1068,22.5488,0.0],[-79.1054,22.5535,0.0],[-79.1082,22.5515,0.6783],[-79.1082,22.5496,1.1306]]],
[[[-79.1637,22.5549,0.0],[-79.1651,22.5563,0.4123],[-79.1674,22.5557,0.0],[-79.1632,22.5521,0.0],[-79.1637,22.5549,0.0]]],
[[[-79.1818,22.5587,0.0],[-79.184,22.5599,0.0],[-79.1821,22.5582,0.0],[-79.1829,22.5537,0.0],[-79.1796,22.5551,0.0],[-79.1818,22.5587,0.0]]],
[[[-79.1137,22.5649,0.0],[-79.1146,22.5682,0.0],[-79.1149,22.5657,0.2119],[-79.1168,22.5668,0.1093],[-79.1176,22.5657,0.0],[-79.1151,22.5643,0.0],[-79.1137,22.5649,0.0]]],
[[[-79.1837,22.5707,0.5864],[-79.1843,22.5721,0.0],[-79.1879,22.571,0.0],[-79.1851,22.5701,0.0],[-79.1851,22.5637,0.0],[-79.1832,22.5618,0.0],[-79.1835,22.5651,0.3167],[-79.1793,22.5651,0.2217],[-79.1837,22.5668,0.3245],[-79.1837,22.5707,0.5864]]],
[[[-79.1715,22.5688,0.0],[-79.1735,22.5696,0.0],[-79.1701,22.5679,0.4616],[-79.1704,22.5657,0.2689],[-79.1687,22.5657,0.2689],[-79.1682,22.5676,0.2752],[-79.1715,22.5688,0.0]]],
[[[-79.1021,22.5785,0.0],[-79.1029,22.5801,0.0],[-79.1099,22.5799,0.6011],[-79.1096,22.5788,0.6011],[-79.1026,22.5788,0.0],[-79.1012,22.5715,0.0],[-79.101,22.5768,1.3829],[-79.1021,22.5785,0.0]]],
[[[-79.2301,22.5926,0.8918],[-79.2332,22.5932,1.1238],[-79.2407,22.5904,0.992],[-79.2579,22.5921,0.0],[-79.2621,22.5899,0.4118],[-79.264,22.5838,0.0],[-79.2565,22.5815,0.0],[-79.2446,22.5846,0.1747],[-79.2435,22.5862,0.5845],[-79.2418,22.586,0.9933],[-79.2432,22.5838,0.1747],[-79.2421,22.5829,0.0],[-79.239,22.586,0.5234],[-79.2393,22.5838,0.2626],[-79.2368,22.584,1.2261],[-79.2365,22.5821,0.0],[-79.2246,22.5779,0.8115],[-79.2204,22.5796,3.3837],[-79.2187,22.5815,3.1662],[-79.219,22.5843,1.3275],[-79.2257,22.5854,1.1953],[-79.2301,22.5926,0.8918]]],
[[[-79.1176,22.5935,0.1764],[-79.1254,22.5935,0.0],[-79.1221,22.5926,0.7789],[-79.1199,22.5871,0.3906],[-79.1207,22.5849,0.1694],[-79.1193,22.5854,0.1694],[-79.1204,22.5921,0.4039],[-79.1176,22.5935,0.1764]]],
[[[-79.1354,22.654,0.6742],[-79.1335,22.6538,0.0],[-79.1321,22.6551,0.0],[-79.1335,22.6551,0.0],[-79.1354,22.654,0.6742]]],
[[[-79.3076,22.6143,0.3525],[-79.3096,22.6154,0.778],[-79.311,22.6143,0.4362],[-79.311,22.6096,1.2712],[-79.3029,22.6082,0.0],[-79.2979,22.6101,0.7769],[-79.2993,22.6118,1.6602],[-79.3049,22.6124,2.1674],[-79.3076,22.6143,0.3525]]],
[[[-79.1735,22.6429,0.9933],[-79.1696,22.646,0.0],[-79.1874,22.6429,4.9487],[-79.2229,22.6435,1.293],[-79.2254,22.6418,0.988],[-79.2296,22.6429,0.3473],[-79.2321,22.6404,0.0],[-79.2229,22.6413,1.7295],[-79.2174,22.6368,0.0],[-79.2132,22.6368,1.6329],[-79.2118,22.6343,0.5085],[-79.2135,22.634,0.5085],[-79.2143,22.6313,0.6178],[-79.2107,22.6279,1.902],[-79.2174,22.6199,7.9291],[-79.216,22.6179,3.8938],[-79.1876,22.6338,3.0997],[-79.1871,22.6354,3.0997],[-79.1782,22.6385,0.0],[-79.1735,22.6429,0.9933]]],
[[[-79.1265,22.6437,2.7996],[-79.1274,22.646,0.0],[-79.1315,22.6443,0.7707],[-79.1338,22.636,0.9426],[-79.1321,22.6321,0.0],[-79.1304,22.6321,1.4761],[-79.1288,22.6363,1.1714],[-79.126,22.6368,0.5053],[-79.1249,22.6329,0.0],[-79.1285,22.6315,1.6892],[-79.1276,22.6299,0.0],[-79.1243,22.631,1.487],[-79.1243,22.6387,2.9626],[-79.1265,22.6437,2.7996]]],
[[[-79.1474,22.6507,0.0],[-79.1479,22.6518,0.0],[-79.1524,22.6513,0.614],[-79.1571,22.6488,0.0],[-79.1562,22.6485,0.0],[-79.1474,22.6507,0.0]]],
[[[-79.4285,22.6774,1.5766],[-79.4307,22.6787,0.5888],[-79.4315,22.6771,0.5888],[-79.4301,22.6749,0.0853],[-79.4318,22.674,0.0853],[-79.4346,22.6765,0.2173],[-79.4357,22.6738,0.353],[-79.4346,22.6726,0.2117],[-79.4301,22.6735,0.0],[-79.431,22.6685,0.0],[-79.4296,22.6593,0.6693],[-79.4329,22.659,0.0],[-79.4321,22.656,0.0],[-79.4365,22.6504,0.0],[-79.436,22.6488,0.6968],[-79.4382,22.6449,0.0],[-79.4362,22.6443,0.0792],[-79.4332,22.654,0.2295],[-79.4265,22.6585,0.0],[-79.4271,22.6538,1.723],[-79.4257,22.6507,0.0],[-79.4285,22.6515,0.0],[-79.4279,22.649,0.0],[-79.4221,22.644,0.0],[-79.4224,22.6474,0.2403],[-79.4265,22.649,0.1239],[-79.4249,22.6504,0.0],[-79.4182,22.6449,0.4478],[-79.4182,22.6426,0.7404],[-79.4201,22.6418,0.0],[-79.4179,22.6354,0.0],[-79.4143,22.6357,1.7854],[-79.4146,22.6379,0.5308],[-79.4174,22.6382,2.3697],[-79.4168,22.6413,0.3312],[-79.4146,22.6413,0.5648],[-79.4135,22.6393,0.0],[-79.4146,22.6321,0.4884],[-79.4174,22.6296,0.8628],[-79.4215,22.6318,1.072],[-79.421,22.6335,2.6749],[-79.4229,22.6363,2.9351],[-79.421,22.6396,1.417],[-79.4238,22.6413,0.6971],[-79.4257,22.6357,4.7988],[-79.4238,22.6338,1.8561],[-79.426,22.6288,0.3977],[-79.4321,22.6251,1.2618],[-79.436,22.6271,0.0],[-79.439,22.6324,0.0],[-79.4393,22.6371,0.5169],[-79.4351,22.6371,0.2205],[-79.4271,22.6449,0.0],[-79.4321,22.6404,0.3048],[-79.4346,22.6421,0.0],[-79.4362,22.6379,0.0],[-79.4432,22.6393,0.1359],[-79.4443,22.6421,0.1939],[-79.4415,22.6421,0.0],[-79.4432,22.6429,0.1939],[-79.4432,22.6451,0.1089],[-79.4418,22.6457,0.0],[-79.4404,22.644,0.0],[-79.4426,22.6474,0.4252],[-79.441,22.6474,0.1751],[-79.4401,22.6504,0.0],[-79.4385,22.6501,0.0],[-79.4407,22.6538,0.4577],[-79.4376,22.6535,0.1088],[-79.4382,22.6554,0.34],[-79.4357,22.6571,0.0],[-79.4393,22.6576,0.4027],[-79.4437,22.6632,0.0607],[-79.4471,22.6626,0.0],[-79.4454,22.6601,0.0],[-79.4429,22.6615,0.1355],[-79.4415,22.6588,0.0],[-79.4424,22.6563,0.1625],[-79.4463,22.6571,0.0],[-79.4485,22.659,0.0686],[-79.4474,22.6607,0.0],[-79.4557,22.6643,0.0],[-79.4635,22.6632,0.0],[-79.4615,22.6626,0.0],[-79.4568,22.6635,0.0],[-79.4563,22.6615,0.3019],[-79.4585,22.6607,0.144],[-79.4671,22.6593,0.3066],[-79.4671,22.6612,0.2571],[-79.4646,22.6618,0.1164],[-79.4662,22.6635,0.0],[-79.469,22.6618,0.2571],[-79.4693,22.6599,0.2681],[-79.4718,22.6604,0.365],[-79.474,22.6626,0.3094],[-79.4699,22.6649,0.0],[-79.4768,22.6724,0.0],[-79.4721,22.6649,0.0686],[-79.4746,22.664,0.1628],[-79.4757,22.6657,0.114],[-79.4799,22.6654,0.464],[-79.4821,22.6629,0.1865],[-79.4857,22.6626,0.0],[-79.4854,22.6574,0.4332],[-79.4882,22.6565,0.5149],[-79.4854,22.6549,0.1251],[-79.4849,22.6524,0.1943],[-79.4824,22.6521,0.2018],[-79.4807,22.6538,0.0],[-79.481,22.656,0.2495],[-79.4788,22.656,0.3521],[-79.4749,22.6543,0.5258],[-79.4749,22.6518,0.0],[-79.4704,22.651,0.0],[-79.4676,22.6521,0.6114],[-79.4679,22.6501,0.0],[-79.4654,22.6488,0.1933],[-79.4646,22.6515,0.2503],[-79.4624,22.6524,0.3626],[-79.4593,22.6485,0.0],[-79.4571,22.649,0.258],[-79.4554,22.6465,0.0],[-79.4521,22.649,0.4779],[-79.4463,22.6485,1.2625],[-79.446,22.646,1.8268],[-79.4518,22.6463,0.3021],[-79.4524,22.6443,0.4411],[-79.4507,22.6424,0.1913],[-79.4471,22.6443,0.0],[-79.4449,22.6396,0.2208],[-79.441,22.6376,0.2332],[-79.4393,22.6296,0.4773],[-79.4429,22.6274,0.0],[-79.439,22.6285,0.0],[-79.4337,22.624,1.2618],[-79.4332,22.6218,1.3513],[-79.4379,22.6182,1.6048],[-79.4357,22.616,1.2892],[-79.4315,22.619,0.2196],[-79.4318,22.6246,0.4814],[-79.429,22.6265,0.4039],[-79.426,22.6268,0.0],[-79.4229,22.6301,0.4127],[-79.4193,22.629,3.4293],[-79.4193,22.6274,0.2214],[-79.4129,22.6332,0.2429],[-79.4104,22.6321,0.4114],[-79.4093,22.6268,0.0],[-79.4071,22.626,0.8744],[-79.4079,22.6243,0.2352],[-79.4001,22.6235,0.4472],[-79.3974,22.621,0.6781],[-79.3971,22.6171,0.0],[-79.4079,22.6071,0.4919],[-79.4135,22.6049,0.5621],[-79.404,22.6024,3.4858],[-79.4024,22.5999,0.0],[-79.3949,22.5965,3.8475],[-79.3918,22.5924,5.0367],[-79.3887,22.5929,3.8689],[-79.3893,22.590699999999998,0.0],[-79.3851,22.5888,1.8166],[-79.3776,22.5957,3.356],[-79.3776,22.5976,0.0],[-79.3793,22.5982,6.9098],[-79.3801,22.6013,0.0],[-79.3846,22.6024,1.4789],[-79.3832,22.6043,0.0],[-79.3893,22.6132,5.296],[-79.391,22.6215,2.0166],[-79.3979,22.6254,1.5639],[-79.4001,22.6349,0.0],[-79.4051,22.6399,0.5587],[-79.4079,22.6404,0.3118],[-79.4082,22.6443,1.0293],[-79.4115,22.6468,0.7761],[-79.411,22.6479,0.0],[-79.4132,22.6451,0.6875],[-79.4168,22.6454,0.5989],[-79.4215,22.6504,0.3267],[-79.4224,22.6538,0.1003],[-79.4251,22.6546,0.6081],[-79.4257,22.6599,0.0],[-79.429,22.6654,0.3529],[-79.4285,22.6774,1.5766]]],
[[[-79.4929,22.6565,0.1833],[-79.4943,22.6568,0.0],[-79.4926,22.6546,0.0],[-79.4929,22.6501,2.3442],[-79.4962,22.6485,0.5385],[-79.4985,22.6496,0.0],[-79.4987,22.6479,0.0],[-79.4907,22.6485,0.6346],[-79.4871,22.6446,0.3793],[-79.4849,22.6474,1.1429],[-79.4829,22.6476,0.6714],[-79.4818,22.6454,0.0],[-79.4765,22.6465,0.0],[-79.4732,22.6415,0.0],[-79.4696,22.6399,1.0872],[-79.469,22.6365,0.61],[-79.4651,22.6368,0.0],[-79.4615,22.634,0.0],[-79.4571,22.6335,0.0],[-79.4565,22.6293,0.0],[-79.4543,22.6254,0.0],[-79.4515,22.6257,0.0],[-79.4557,22.6293,0.0],[-79.4565,22.6354,0.3941],[-79.4518,22.6418,0.0],[-79.4571,22.6385,0.0],[-79.4576,22.6349,0.9195],[-79.461,22.6349,0.0],[-79.4649,22.6379,0.713],[-79.4612,22.6407,0.5252],[-79.4624,22.6432,0.0],[-79.4638,22.6432,0.0],[-79.4626,22.6413,0.5252],[-79.466,22.6407,0.1938],[-79.4682,22.6457,0.0],[-79.4704,22.6468,0.1389],[-79.4707,22.6435,0.3941],[-79.4724,22.6435,1.1586],[-79.4735,22.6493,0.1406],[-79.4776,22.6515,0.0],[-79.4779,22.6504,0.0],[-79.4749,22.649,0.1406],[-79.4749,22.6468,0.3397],[-79.4807,22.6468,0.1693],[-79.4829,22.6485,0.6714],[-79.4887,22.6482,0.6065],[-79.4879,22.654,0.2075],[-79.491,22.6538,0.1055],[-79.4929,22.6565,0.1833]]],
[[[-79.5788,22.6557,0.7079],[-79.5788,22.6654,1.3547],[-79.5799,22.6657,0.3112],[-79.5829,22.6626,1.5229],[-79.5832,22.6565,1.1317],[-79.5815,22.6549,0.8536],[-79.5788,22.6557,0.7079]]],
[[[-79.504,22.6893,0.1262],[-79.5057,22.691,0.0],[-79.514,22.6871,0.0],[-79.5118,22.6824,0.0],[-79.5121,22.6751,0.137],[-79.5163,22.6735,1.4177],[-79.5176,22.6749,0.3298],[-79.5185,22.6718,0.4498],[-79.5243,22.6707,0.0],[-79.5252,22.6662,0.2587],[-79.5276,22.6649,0.2832],[-79.524,22.6638,1.1112],[-79.5188,22.6557,0.2081],[-79.5188,22.6504,1.2184],[-79.5213,22.6473,0.8218],[-79.5168,22.6465,0.2434],[-79.5096,22.6396,2.3445],[-79.5071,22.6401,0.0],[-79.5076,22.6435,0.0],[-79.5029,22.6463,0.7598],[-79.501,22.6457,0.4603],[-79.5004,22.6474,0.2868],[-79.5035,22.6482,0.2425],[-79.5049,22.6465,0.6686],[-79.5101,22.6463,1.0889],[-79.5118,22.6485,0.2715],[-79.5118,22.6499,1.2377],[-79.506,22.6535,0.0],[-79.5093,22.6568,0.5255],[-79.5074,22.6568,0.0],[-79.5057,22.6593,0.0],[-79.5076,22.6607,0.0],[-79.5079,22.6576,0.0],[-79.5096,22.6576,0.1566],[-79.514,22.6596,0.0],[-79.5121,22.6638,0.0],[-79.5137,22.6712,0.0922],[-79.5118,22.6712,0.0],[-79.5129,22.674,0.2923],[-79.5113,22.6749,0.137],[-79.5104,22.6796,1.5754],[-79.5115,22.6857,0.1022],[-79.5085,22.6857,0.141],[-79.5076,22.679,0.0],[-79.511,22.6746,0.137],[-79.5085,22.6679,0.2297],[-79.511,22.6676,0.0],[-79.5071,22.666,0.0],[-79.5043,22.6599,0.0],[-79.5015,22.6604,0.177],[-79.5001,22.6588,0.177],[-79.499,22.6618,0.3885],[-79.4946,22.6624,0.2636],[-79.4987,22.6651,0.0],[-79.5015,22.6649,0.0],[-79.4982,22.6638,0.0],[-79.501,22.6621,0.0863],[-79.5029,22.664,0.0],[-79.5049,22.6635,0.8031],[-79.509,22.6721,0.7807],[-79.5085,22.6754,0.8122],[-79.5065,22.6768,0.0],[-79.5071,22.6879,0.0],[-79.504,22.6893,0.1262]]],
[[[-79.501,22.6743,0.0],[-79.5018,22.6757,0.0],[-79.5032,22.6751,0.1116],[-79.5004,22.669,0.0],[-79.4999,22.671,0.1947],[-79.4985,22.6696,0.0797],[-79.4962,22.6699,0.0],[-79.4982,22.6704,0.0797],[-79.501,22.6743,0.0]]],
[[[-79.4949,22.6815,0.4388],[-79.4993,22.6818,0.2711],[-79.4912,22.6774,0.3014],[-79.4912,22.6751,0.3573],[-79.4887,22.6743,0.376],[-79.491,22.6693,0.0],[-79.4893,22.6662,0.0],[-79.4887,22.6707,0.3832],[-79.4876,22.6688,0.4931],[-79.4846,22.6699,0.3437],[-79.4832,22.6679,0.168],[-79.4815,22.6699,0.3709],[-79.4776,22.6676,0.353],[-79.4837,22.6721,0.3793],[-79.4846,22.6757,0.0],[-79.4854,22.6746,0.1869],[-79.4879,22.6754,0.376],[-79.4949,22.6815,0.4388]]],
[[[-79.5165,22.6796,0.7475],[-79.5168,22.6813,0.0],[-79.5196,22.6818,0.7423],[-79.5201,22.6793,0.5529],[-79.5179,22.6779,0.4094],[-79.5165,22.6796,0.7475]]],
[[[-79.539,22.6846,2.5778],[-79.5385,22.6863,0.0],[-79.5415,22.6865,0.2919],[-79.5468,22.6851,1.5896],[-79.5482,22.6829,0.4108],[-79.5418,22.6807,0.3549],[-79.539,22.6846,2.5778]]],
[[[-79.5646,22.6946,3.9742],[-79.5674,22.696,0.0],[-79.571,22.6949,0.7603],[-79.569,22.6924,0.6342],[-79.5693,22.6876,0.0],[-79.566,22.6854,0.0],[-79.5607,22.6868,0.6302],[-79.5604,22.6901,3.3256],[-79.5646,22.6946,3.9742]]],
[[[-79.5832,22.8096,0.7601],[-79.6068,22.8079,0.9349],[-79.609,22.8065,1.6358],[-79.5993,22.8063,0.4063],[-79.6129,22.8043,0.0],[-79.619,22.8026,0.5268],[-79.6193,22.8012,0.8853],[-79.6212,22.8032,0.0],[-79.6218,22.8012,1.2462],[-79.6276,22.7993,0.4655],[-79.6282,22.7924,0.9095],[-79.6321,22.7865,0.5559],[-79.6296,22.7854,0.0],[-79.6288,22.7829,0.9407],[-79.6229,22.7818,0.7983],[-79.621,22.7793,1.8959],[-79.6174,22.7785,0.5844],[-79.6132,22.7826,0.9121],[-79.6093,22.7835,0.0],[-79.6085,22.7865,0.5876],[-79.6062,22.7865,0.0],[-79.606,22.7885,1.5309],[-79.5985,22.7874,0.1916],[-79.5929,22.794,0.7304],[-79.591,22.7921,0.0538],[-79.5876,22.7924,0.2621],[-79.5846,22.7885,0.0],[-79.5821,22.7918,0.8583],[-79.5807,22.7904,0.0],[-79.5776,22.7929,0.0672],[-79.5746,22.7926,0.1719],[-79.5699,22.7949,0.0],[-79.5701,22.7926,0.0],[-79.5626,22.7899,0.0],[-79.5646,22.7865,0.0],[-79.5585,22.7882,0.0],[-79.5593,22.791,0.1277],[-79.5576,22.7913,0.1277],[-79.5568,22.7885,0.2338],[-79.5587,22.7807,0.3486],[-79.5568,22.781,0.0],[-79.5543,22.7757,0.0],[-79.5571,22.7768,0.0],[-79.5563,22.7751,0.0],[-79.5582,22.774,0.0],[-79.561,22.7657,0.0],[-79.5576,22.7635,0.0],[-79.556,22.759,0.2305],[-79.5435,22.7543,0.0],[-79.5457,22.7493,0.0],[-79.5479,22.7485,0.6156],[-79.5471,22.7462,0.4616],[-79.5443,22.7457,0.4006],[-79.5404,22.748,0.0],[-79.5382,22.7468,0.0],[-79.5368,22.7488,0.0],[-79.5329,22.7468,0.0],[-79.5296,22.7474,0.4692],[-79.5304,22.7438,2.7373],[-79.534,22.7443,0.0],[-79.5357,22.7418,0.0],[-79.534,22.7351,0.0],[-79.5304,22.7313,2.3915],[-79.5301,22.7276,0.7477],[-79.5326,22.724,3.9213],[-79.5312,22.7226,0.9361],[-79.5296,22.7235,0.2288],[-79.5274,22.7201,0.0],[-79.5287,22.719,2.9141],[-79.5307,22.7201,2.9141],[-79.531,22.7174,1.1595],[-79.5293,22.7154,0.0],[-79.5249,22.715699999999998,0.8252],[-79.5168,22.7118,0.0],[-79.5062,22.7104,0.0],[-79.5029,22.7082,0.0],[-79.4976,22.7093,2.3304],[-79.4974,22.7074,1.1323],[-79.4951,22.7074,2.0259],[-79.4954,22.7051,0.7592],[-79.491,22.7018,0.0],[-79.489,22.6982,0.6805],[-79.4899,22.6968,0.0],[-79.4876,22.6954,0.0813],[-79.4882,22.6932,0.0],[-79.4807,22.6918,0.5632],[-79.4807,22.689,0.3388],[-79.4832,22.6882,0.0],[-79.4818,22.6851,0.2179],[-79.4854,22.6851,0.4542],[-79.4876,22.6813,0.0],[-79.4851,22.6821,0.0],[-79.4851,22.6838,0.4542],[-79.481,22.6838,0.08],[-79.4799,22.6799,0.0],[-79.4807,22.6874,0.1651],[-79.4768,22.6879,0.8521],[-79.4718,22.6838,0.0947],[-79.4735,22.6826,0.0],[-79.4724,22.681,0.0],[-79.4676,22.681,0.2608],[-79.4668,22.6771,0.0],[-79.4654,22.6807,0.3786],[-79.4615,22.6804,0.0],[-79.4579,22.6832,0.4051],[-79.4524,22.6824,0.1232],[-79.4437,22.6838,0.3023],[-79.4371,22.6865,0.0],[-79.4357,22.689,0.6787],[-79.4285,22.6901,0.1653],[-79.4268,22.686,0.8893],[-79.424,22.6849,0.0837],[-79.4246,22.681,0.4466],[-79.4271,22.6787,0.0],[-79.4249,22.6785,0.0],[-79.4238,22.681,0.4466],[-79.419,22.6804,0.2864],[-79.4176,22.6782,0.1524],[-79.4121,22.6782,0.2541],[-79.4079,22.6754,0.177],[-79.4068,22.6721,0.7521],[-79.4043,22.6707,0.9256],[-79.4054,22.6615,0.0],[-79.4026,22.6624,0.6497],[-79.4018,22.6662,0.45],[-79.3987,22.666,0.705],[-79.3882,22.6576,0.6426],[-79.3854,22.6526,0.0],[-79.3788,22.6493,1.0939],[-79.3768,22.6465,0.0],[-79.3732,22.6457,1.4617],[-79.369,22.6413,0.2989],[-79.3599,22.6418,0.348],[-79.3587,22.6404,0.0],[-79.3526,22.6404,0.0],[-79.3496,22.6379,1.9074],[-79.3485,22.6324,1.2231],[-79.3468,22.631,1.4222],[-79.346,22.6204,0.0],[-79.3385,22.6157,1.8123],[-79.3374,22.6124,0.406],[-79.334,22.6129,0.5493],[-79.3285,22.6093,0.5837],[-79.3179,22.6065,1.0266],[-79.3149,22.6076,5.1601],[-79.3176,22.6149,4.1301],[-79.3174,22.619,0.1493],[-79.3371,22.6349,1.1005],[-79.3432,22.6429,0.0],[-79.3682,22.6662,1.7424],[-79.3712,22.6738,0.0],[-79.376,22.6751,0.5945],[-79.381,22.6743,1.2362],[-79.3846,22.676,0.0],[-79.3863,22.6735,4.9175],[-79.389,22.6738,0.6866],[-79.399,22.6818,0.0],[-79.4015,22.6857,0.0],[-79.4068,22.6863,0.3391],[-79.4137,22.694,0.5038],[-79.4226,22.6946,1.8816],[-79.4235,22.6982,0.0],[-79.4313,22.7054,2.2058],[-79.4451,22.7118,0.4236],[-79.4482,22.7118,1.7193],[-79.4507,22.7093,1.4461],[-79.4485,22.7126,1.3627],[-79.4499,22.716,0.0],[-79.4587,22.7185,0.5145],[-79.4618,22.7162,0.4012],[-79.4604,22.721,0.0],[-79.4724,22.7226,0.9007],[-79.4874,22.7299,0.7519],[-79.4943,22.7374,0.0],[-79.5065,22.7399,1.208],[-79.5076,22.7418,0.0],[-79.504,22.7418,0.0],[-79.504,22.7435,0.2218],[-79.5151,22.7493,0.1991],[-79.5221,22.7551,0.0],[-79.5274,22.7551,1.4141],[-79.5276,22.7579,1.1122],[-79.531,22.7607,0.6153],[-79.5318,22.7643,0.0],[-79.5382,22.7726,0.0],[-79.5629,22.7979,0.2299],[-79.5746,22.8068,0.4474],[-79.5832,22.8096,0.7601]]],
[[[-79.5762,22.7787,0.418],[-79.5782,22.7801,0.0],[-79.5801,22.7774,0.2543],[-79.5746,22.7779,0.0],[-79.5762,22.7787,0.418]]],
[[[-79.6324,22.7838,1.1376],[-79.6332,22.7862,0.5559],[-79.6351,22.7854,2.6009],[-79.6335,22.7796,2.7174],[-79.6257,22.776,0.476],[-79.6249,22.7732,0.265],[-79.6171,22.774,0.0],[-79.6179,22.7779,0.5844],[-79.6196,22.7771,0.4546],[-79.6249,22.7807,0.0],[-79.6315,22.7821,0.0],[-79.6324,22.7838,1.1376]]],
[[[-79.5721,22.781,0.7876],[-79.5715,22.7821,0.0],[-79.5749,22.7815,0.0],[-79.5735,22.7793,0.0],[-79.5721,22.781,0.7876]]],
[[[-79.0143,22.5246,0.4738],[-79.0154,22.5276,0.0],[-79.016,22.5224,1.1291],[-79.0218,22.5201,1.3937],[-79.0246,22.5238,0.0],[-79.0263,22.5238,0.0],[-79.0263,22.5224,1.2012],[-79.0237,22.5193,1.2214],[-79.0193,22.5179,2.0148],[-79.0115,22.521,0.5308],[-79.0124,22.5238,0.2654],[-79.0143,22.5246,0.4738]]],
[[[-79.036,22.5296,0.2718],[-79.0379,22.5307,0.0],[-79.0404,22.5285,0.289],[-79.0418,22.5224,1.8385],[-79.0385,22.5235,0.0],[-79.036,22.5296,0.2718]]],
[[[-79.0304,22.539,0.0],[-79.0321,22.5407,0.0],[-79.0338,22.5385,0.0],[-79.0318,22.5393,0.3869],[-79.0304,22.539,0.0]]],
[[[-79.0318,22.5507,0.0],[-79.0312,22.5507,0.0],[-79.0315,22.5543,0.2943],[-79.0324,22.5529,0.0],[-79.0318,22.5507,0.0]]],
[[[-79.0374,22.5696,0.4864],[-79.0387,22.5707,0.0],[-79.0449,22.5649,0.5145],[-79.0479,22.5651,0.506],[-79.0479,22.5621,0.4126],[-79.0443,22.5618,0.1423],[-79.0415,22.5568,0.9248],[-79.039,22.5626,0.5924],[-79.0393,22.5665,0.9155],[-79.0374,22.5679,0.6717],[-79.0329,22.5668,0.0],[-79.0307,22.5601,0.0],[-79.0307,22.5663,0.0],[-79.0374,22.5696,0.4864]]],
[[[-78.9812,22.5743,0.0],[-78.9843,22.5754,0.6455],[-78.9851,22.574,0.6455],[-78.9815,22.5729,0.0],[-78.9812,22.5743,0.0]]],
[[[-79.0285,22.5799,0.0],[-79.0282,22.5829,0.0],[-79.0299,22.5835,0.4677],[-79.0299,22.5804,0.0],[-79.0285,22.5799,0.0]]],
[[[-79.0532,22.5868,0.0],[-79.0515,22.5876,0.9219],[-79.0515,22.5888,0.0],[-79.0546,22.5882,0.2036],[-79.0532,22.5868,0.0]]],
[[[-79.0593,22.5604,0.0],[-79.061,22.5621,0.0],[-79.0646,22.5613,0.2871],[-79.0646,22.5604,0.0],[-79.0593,22.5604,0.0]]],
[[[-79.0979,22.5601,0.1956],[-79.0949,22.5593,0.3407],[-79.0993,22.5671,0.0],[-79.0974,22.5613,0.4051],[-79.0979,22.5601,0.1956]]],
[[[-79.0657,22.5746,0.0],[-79.0654,22.5757,0.0],[-79.0693,22.5754,0.4121],[-79.0701,22.574,0.0],[-79.0682,22.5735,0.0],[-79.0657,22.5746,0.0]]],
[[[-79.091,22.5601,0.1914],[-79.0949,22.559,0.3407],[-79.0854,22.5549,0.0],[-79.0818,22.5549,2.9164],[-79.0799,22.551,0.3388],[-79.0729,22.5474,1.309],[-79.0743,22.546,0.9303],[-79.0738,22.544,3.743],[-79.0718,22.5438,1.5346],[-79.0693,22.546,0.3574],[-79.0713,22.5493,0.0],[-79.0754,22.5499,0.3607],[-79.076,22.5546,0.0],[-79.0788,22.5524,0.4],[-79.081,22.5565,1.2978],[-79.0862,22.5565,0.1804],[-79.0893,22.5593,0.476],[-79.0874,22.5707,0.1541],[-79.0835,22.5782,0.0],[-79.0804,22.5801,0.0],[-79.0799,22.5832,0.2897],[-79.0749,22.5871,0.7716],[-79.0685,22.5876,-0.2255],[-79.0704,22.591,1.1222],[-79.0701,22.5946,0.3735],[-79.0724,22.5954,0.2093],[-79.0718,22.5968,0.0],[-79.079,22.6043,2.6013],[-79.0788,22.6063,2.1392],[-79.0721,22.6118,1.0245],[-79.0657,22.6137,0.5609],[-79.074,22.616,2.5431],[-79.0735,22.6182,0.5477],[-79.0768,22.6168,3.4688],[-79.076,22.6129,1.8765],[-79.0807,22.6082,0.0],[-79.0813,22.6046,0.674],[-79.0738,22.5974,0.0],[-79.0718,22.5921,0.4591],[-79.076,22.5893,0.2354],[-79.0807,22.5888,0.0],[-79.0782,22.5882,0.0],[-79.0785,22.5851,0.2976],[-79.0874,22.5738,0.0],[-79.0882,22.5699,0.1443],[-79.0907,22.5679,0.0],[-79.0899,22.5613,0.0934],[-79.091,22.5601,0.1914]]],
[[[-79.0524,22.601,0.5601],[-79.0526,22.6029,0.3126],[-79.0549,22.6004,0.0],[-79.0593,22.601,0.0],[-79.0638,22.5963,0.0],[-79.0615,22.5963,1.5798],[-79.0596,22.5932,0.0],[-79.0571,22.599,0.418],[-79.0524,22.601,0.5601]]],
[[[-79.0835,22.6129,0.4444],[-79.0862,22.614,0.0],[-79.0868,22.6126,0.0],[-79.0849,22.6096,0.6946],[-79.0846,22.6038,1.4093],[-79.0832,22.6043,0.0],[-79.0843,22.6054,1.4093],[-79.0826,22.6113,0.6542],[-79.0835,22.6129,0.4444]]],
[[[-79.0893,22.6143,1.2985],[-79.0901,22.616,0.0],[-79.0912,22.6151,1.0594],[-79.0904,22.6118,0.0],[-79.089,22.6129,1.7737],[-79.0893,22.6143,1.2985]]],
[[[-79.0918,22.6151,1.0594],[-79.0929,22.6168,0.6778],[-79.094,22.6143,0.9998],[-79.0924,22.6143,1.0594],[-79.0918,22.6151,1.0594]]],
[[[-78.7815,22.5026,0.7434],[-78.7824,22.504,0.0],[-78.786,22.5015,0.0],[-78.7846,22.5012,0.6975],[-78.7815,22.5026,0.7434]]],
[[[-78.9524,22.5085,0.0],[-78.9524,22.5107,0.0],[-78.9538,22.5121,0.0],[-78.9546,22.5093,0.0],[-78.9524,22.5085,0.0]]],
[[[-78.814,22.5149,0.2497],[-78.8154,22.5171,0.0],[-78.8176,22.5124,0.0],[-78.8151,22.5046,0.0],[-78.8129,22.5121,1.1429],[-78.814,22.5149,0.2497]]],
[[[-78.7832,22.5154,1.626],[-78.7854,22.5165,0.8838],[-78.7849,22.5138,1.4119],[-78.7824,22.514,1.626],[-78.7832,22.5154,1.626]]],
[[[-78.8132,22.5299,0.0],[-78.8126,22.5321,0.0],[-78.814,22.5324,0.0],[-78.8163,22.5293,0.0],[-78.8149,22.5287,0.0],[-78.8132,22.5299,0.0]]],
[[[-78.8685,22.5351,5.154],[-78.8704,22.5362,0.6806],[-78.8757,22.5335,3.8354],[-78.8707,22.5312,0.4983],[-78.8699,22.5268,0.0],[-78.8637,22.5299,1.4886],[-78.8618,22.5299,2.2094],[-78.8618,22.528199999999998,0.455],[-78.8596,22.5271,1.2751],[-78.856,22.5287,0.8238],[-78.859,22.5324,0.0],[-78.8643,22.531,0.5188],[-78.8685,22.5351,5.154]]],
[[[-78.8196,22.551,1.3157],[-78.8201,22.5537,1.0942],[-78.8226,22.554,0.0],[-78.8238,22.5499,2.2501],[-78.8329,22.5496,1.6477],[-78.8279,22.5418,1.9286],[-78.8301,22.5346,1.0684],[-78.8279,22.5312,0.6112],[-78.829,22.526,0.9158],[-78.8229,22.531,2.6623],[-78.8226,22.5357,0.0],[-78.8246,22.536,0.4937],[-78.826,22.5385,1.0501],[-78.8213,22.5396,0.0],[-78.8179,22.5429,1.1189],[-78.8204,22.5493,0.0],[-78.8196,22.551,1.3157]]],
[[[-78.9054,22.5424,7.124],[-78.9051,22.5454,0.8909],[-78.9085,22.546,0.0],[-78.9126,22.5404,4.9502],[-78.916,22.5407,0.5022],[-78.916,22.5376,0.4232],[-78.9104,22.5374,1.77],[-78.9054,22.5424,7.124]]],
[[[-78.9899,22.6262,0.5472],[-78.991,22.6279,0.3457],[-78.9932,22.6207,1.2515],[-78.9962,22.6201,1.0325],[-78.9965,22.6121,2.1527],[-79.0038,22.6107,1.0201],[-78.9976,22.609,1.178],[-78.996,22.6068,1.3715],[-78.9985,22.6051,0.0],[-78.9996,22.5946,1.9248],[-79.0026,22.5915,1.0181],[-79.0029,22.586,1.4158],[-79.0085,22.5715,0.5881],[-79.0171,22.5649,0.3738],[-79.0135,22.5646,1.4157],[-79.0135,22.5582,0.6945],[-79.0101,22.5535,1.1974],[-79.0118,22.549,0.7847],[-79.0105,22.5465,0.0],[-79.011,22.5404,0.0],[-79.0049,22.539,1.0661],[-79.0015,22.5307,1.8951],[-78.9965,22.5276,2.1377],[-78.9976,22.5263,2.3031],[-78.996,22.5249,1.31],[-78.9968,22.5218,0.0],[-78.9926,22.5215,0.6809],[-78.9901,22.5179,0.0],[-78.986,22.5168,0.4183],[-78.9874,22.5124,1.7648],[-78.9849,22.5099,1.7845],[-78.9854,22.5076,2.3868],[-78.9796,22.5068,0.0],[-78.9776,22.5093,1.642],[-78.9643,22.5099,0.9752],[-78.9671,22.5154,1.1066],[-78.9654,22.5215,1.3439],[-78.9549,22.5207,1.1358],[-78.9512,22.5165,0.0],[-78.9426,22.5138,0.9958],[-78.9413,22.5151,0.0],[-78.9371,22.5143,0.8947],[-78.9332,22.5199,1.8559],[-78.9354,22.5138,2.4985],[-78.9332,22.5121,1.5744],[-78.9265,22.5113,1.4896],[-78.919,22.5079,1.0177],[-78.9107,22.5074,2.9426],[-78.9076,22.5057,1.3959],[-78.9074,22.5038,1.0726],[-78.8982,22.5024,4.1456],[-78.889,22.4921,0.7728],[-78.8835,22.4924,4.3271],[-78.8804,22.4874,3.1367],[-78.8751,22.4874,2.3508],[-78.871,22.4907,2.5869],[-78.8637,22.4924,0.9671],[-78.8549,22.4899,0.5476],[-78.8535,22.4932,1.6792],[-78.8496,22.4863,1.5575],[-78.8457,22.4854,0.0],[-78.839,22.479,1.4644],[-78.831,22.4782,1.3324],[-78.8276,22.4763,0.7581],[-78.8249,22.4763,0.8884],[-78.8249,22.479,2.5166],[-78.819,22.4801,0.0],[-78.8185,22.4829,1.2668],[-78.8037,22.4849,0.0],[-78.8001,22.4874,2.1886],[-78.7924,22.4885,0.0],[-78.7862,22.4921,1.4621],[-78.7876,22.4996,0.0],[-78.7926,22.499,1.1783],[-78.7932,22.5007,1.996],[-78.7918,22.5018,0.0],[-78.7913,22.5074,1.3244],[-78.7876,22.5096,0.0],[-78.7879,22.5143,1.7597],[-78.7896,22.5165,1.3754],[-78.7826,22.524,0.0],[-78.7871,22.5224,0.0],[-78.7882,22.5185,1.7058],[-78.7907,22.5182,0.6476],[-78.7918,22.5199,0.0],[-78.7965,22.5174,2.9697],[-78.796,22.5271,0.0],[-78.7974,22.5285,2.068],[-78.799,22.5276,0.0],[-78.8001,22.5235,1.0746],[-78.8015,22.5104,0.4822],[-78.7971,22.5018,0.0],[-78.7974,22.4982,0.7207],[-78.8079,22.4982,1.6697],[-78.811,22.5012,0.0],[-78.8104,22.4993,1.8145],[-78.8135,22.496,0.8616],[-78.8196,22.4976,0.847],[-78.8213,22.4907,1.2912],[-78.824,22.4929,1.221],[-78.8226,22.4957,0.0],[-78.8243,22.499,0.0],[-78.8293,22.496,0.0],[-78.8321,22.4971,0.0],[-78.8313,22.4921,0.0],[-78.8376,22.4938,0.2423],[-78.8385,22.4951,0.2423],[-78.8357,22.4976,1.3636],[-78.8385,22.5035,1.1739],[-78.8426,22.5046,1.6547],[-78.8421,22.509,0.0],[-78.8521,22.5088,0.0],[-78.8568,22.506,0.1761],[-78.8618,22.5107,0.0],[-78.8615,22.506,0.7812],[-78.8693,22.5015,0.7036],[-78.8701,22.4988,2.0347],[-78.8737,22.4988,0.0],[-78.8746,22.501,0.0],[-78.8788,22.501,2.2759],[-78.8793,22.504,0.0],[-78.8865,22.5054,1.1698],[-78.8879,22.5074,0.0],[-78.8924,22.5049,3.3551],[-78.8924,22.5093,0.0],[-78.8943,22.5115,2.0157],[-78.8935,22.5146,2.1495],[-78.8915,22.5151,0.0],[-78.8874,22.5215,1.3135],[-78.8879,22.5243,0.2982],[-78.891,22.5243,0.7336],[-78.8917,22.519,0.7655],[-78.8954,22.5168,1.3797],[-78.8974,22.5215,0.6026],[-78.9018,22.519,1.5495],[-78.9037,22.5215,1.3722],[-78.9093,22.5226,0.0],[-78.9101,22.5249,0.0],[-78.9079,22.5304,1.6193],[-78.9096,22.5318,2.635],[-78.9146,22.5321,0.0],[-78.9121,22.5207,0.0],[-78.9129,22.5187,0.0],[-78.9088,22.5171,1.1689],[-78.9107,22.5154,1.5973],[-78.914,22.516,0.0],[-78.9174,22.5135,2.2491],[-78.9201,22.516,0.0],[-78.9232,22.5154,2.4676],[-78.9254,22.5185,0.0],[-78.9276,22.5182,2.4122],[-78.9279,22.5201,2.0525],[-78.9307,22.5196,2.254],[-78.9335,22.5218,0.5259],[-78.9357,22.5196,2.9697],[-78.9388,22.5218,1.3783],[-78.9443,22.521,0.8927],[-78.9449,22.5265,0.8787],[-78.9479,22.5276,0.4461],[-78.9482,22.5315,0.4979],[-78.9507,22.5357,0.0],[-78.956,22.5296,0.4249],[-78.9624,22.5293,0.9677],[-78.9629,22.5326,0.2896],[-78.9668,22.5329,0.2909],[-78.9707,22.5257,1.3798],[-78.9743,22.5265,0.3129],[-78.9757,22.5249,0.8439],[-78.9843,22.5246,0.8476],[-78.9879,22.5257,0.0],[-78.9912,22.5299,1.0457],[-78.9912,22.5321,0.0],[-78.9962,22.5346,0.5627],[-78.9943,22.5376,0.6288],[-78.9957,22.539,0.0],[-78.9951,22.5415,0.5754],[-79.0051,22.5424,0.0],[-79.006,22.5479,0.332],[-79.0032,22.5474,1.3392],[-79.0018,22.549,0.0],[-79.0076,22.5513,0.0],[-79.0057,22.5565,0.0],[-79.0074,22.5568,1.2743],[-79.0088,22.561,1.6606],[-79.0046,22.566,0.6221],[-79.0043,22.569,1.1416],[-79.0026,22.5696,0.4806],[-79.0043,22.5732,1.0799],[-79.0021,22.5749,1.3373],[-79.0026,22.5765,0.4171],[-78.9982,22.5771,0.909],[-78.9996,22.5788,1.5561],[-78.9979,22.579,1.5561],[-78.9976,22.5818,0.0],[-78.9932,22.5835,0.0],[-78.9887,22.5804,1.655],[-78.9887,22.5779,0.8622],[-78.9857,22.5788,2.2832],[-78.9868,22.584,0.0],[-78.9899,22.5857,0.0],[-78.991,22.5854,0.0],[-78.9904,22.5835,0.8265],[-78.9935,22.5849,0.9],[-78.9907,22.5874,0.968],[-78.9907,22.5901,1.5328],[-78.9874,22.5896,0.0],[-78.9915,22.601,0.3756],[-78.9863,22.6035,0.2136],[-78.9876,22.604,0.4697],[-78.9874,22.6076,0.0],[-78.9912,22.6076,0.576],[-78.9938,22.6104,1.0367],[-78.9907,22.6124,0.8204],[-78.9824,22.6104,0.0],[-78.9829,22.619,0.7685],[-78.9799,22.6243,0.3779],[-78.9849,22.6249,0.1483],[-78.9865,22.6229,0.4034],[-78.9899,22.6262,0.5472]]],
[[[-78.9632,22.5612,5.7279],[-78.9638,22.564,1.3606],[-78.9651,22.5643,0.0],[-78.9729,22.559,4.6678],[-78.9749,22.5543,0.9976],[-78.9649,22.554,3.8529],[-78.9632,22.5612,5.7279]]],
[[[-78.7951,22.5688,0.0],[-78.7985,22.5693,0.0],[-78.7974,22.5671,0.5501],[-78.7957,22.5671,0.5765],[-78.7951,22.5688,0.0]]],
[[[-78.8421,22.6718,2.6065],[-78.8463,22.6726,0.0],[-78.8465,22.6712,1.1436],[-78.8388,22.6662,2.5045],[-78.8354,22.6657,0.9716],[-78.836,22.6674,0.0],[-78.8421,22.6718,2.6065]]],
[[[-78.9746,22.5896,0.4733],[-78.9726,22.5918,0.0],[-78.979,22.5904,0.5951],[-78.9799,22.5888,0.3655],[-78.9757,22.5876,0.0],[-78.9746,22.5896,0.4733]]],
[[[-78.9693,22.5965,2.1679],[-78.9715,22.5976,0.4734],[-78.9704,22.5949,1.1021],[-78.9718,22.5935,0.4019],[-78.9696,22.5938,1.1021],[-78.9685,22.5912,0.0],[-78.9682,22.5932,0.0],[-78.9693,22.5965,2.1679]]],
[[[-79.034,22.5996,1.2118],[-79.0354,22.601,0.0],[-79.0362,22.5976,0.4783],[-79.0429,22.5965,0.5082],[-79.0379,22.5965,0.9349],[-79.0365,22.5943,0.8875],[-79.0315,22.5971,0.1952],[-79.034,22.5996,1.2118]]],
[[[-79.0124,22.6118,0.4932],[-79.0146,22.6129,0.83],[-79.0163,22.6124,0.83],[-79.0149,22.611,1.0546],[-79.0124,22.6118,0.4932]]],
[[[-79.0738,22.6193,0.0],[-79.0746,22.6215,0.6393],[-79.0768,22.6213,0.9289],[-79.0757,22.619,0.9344],[-79.0738,22.6193,0.0]]],
[[[-79.0635,22.636,0.3792],[-79.0632,22.6376,0.5497],[-79.0643,22.6338,1.0833],[-79.0657,22.6335,0.0],[-79.0629,22.6329,0.3112],[-79.0646,22.6301,0.9308],[-79.0671,22.6329,0.0],[-79.0682,22.6315,0.3251],[-79.0663,22.6307,1.8314],[-79.0665,22.6293,0.6692],[-79.0696,22.6304,0.9929],[-79.0679,22.6262,0.6694],[-79.0682,22.6257,0.6694],[-79.0699,22.6262,0.0],[-79.0687,22.6243,0.0],[-79.0618,22.624,0.846],[-79.0599,22.6254,1.1624],[-79.0618,22.6271,2.0019],[-79.0585,22.6304,0.0],[-79.0626,22.6335,0.3112],[-79.0635,22.636,0.3792]]],
[[[-79.0882,22.6357,0.7434],[-79.0912,22.6365,0.0],[-79.0904,22.6338,0.0],[-79.0876,22.6332,0.0],[-79.086,22.6293,1.9059],[-79.0837,22.6285,0.0],[-79.0851,22.6335,0.0],[-79.0882,22.6357,0.7434]]],
[[[-79.0757,22.6335,0.0],[-79.0762,22.6363,1.5569],[-79.0776,22.6365,1.5569],[-79.076,22.6313,0.0],[-79.0746,22.6318,0.0],[-79.0757,22.6335,0.0]]],
[[[-79.0462,22.6418,2.4189],[-79.0512,22.6421,0.0],[-79.0532,22.6393,2.1761],[-79.0615,22.6407,0.9197],[-79.0604,22.636,0.0],[-79.0599,22.6379,0.3212],[-79.0576,22.6376,0.9126],[-79.0579,22.6393,1.8398],[-79.0529,22.6368,0.5287],[-79.0529,22.6349,1.9406],[-79.0551,22.6357,0.435],[-79.0549,22.6338,1.6371],[-79.0571,22.6349,0.4718],[-79.0587,22.6338,0.4103],[-79.0543,22.6279,0.0],[-79.0521,22.6299,2.0426],[-79.0518,22.6326,2.2215],[-79.0465,22.6349,0.8247],[-79.0474,22.6363,4.6638],[-79.0449,22.6401,0.0],[-79.0462,22.6418,2.4189]]],
[[[-79.066,22.6385,3.7659],[-79.0676,22.6396,0.0],[-79.0701,22.6371,1.8573],[-79.0724,22.6382,1.2465],[-79.074,22.6346,0.6592],[-79.0721,22.6374,1.2465],[-79.0687,22.6351,0.0],[-79.069,22.6374,2.5217],[-79.0646,22.6376,1.7992],[-79.066,22.6385,3.7659]]],
[[[-79.0713,22.6415,2.3183],[-79.0796,22.6421,1.2112],[-79.0818,22.6396,3.2745],[-79.0779,22.6404,2.4174],[-79.0757,22.6379,0.0],[-79.0687,22.641,2.7405],[-79.0693,22.6424,0.0],[-79.0713,22.6415,2.3183]]],
[[[-79.0551,22.6438,0.0],[-79.0568,22.6446,0.8826],[-79.0587,22.6418,0.624],[-79.0554,22.6426,0.8634],[-79.0551,22.6438,0.0]]],
[[[-79.0629,22.646,0.9655],[-79.0651,22.6471,0.0],[-79.066,22.6454,0.0],[-79.0632,22.6443,0.0],[-79.0629,22.646,0.9655]]],
[[[-79.074,22.6543,2.2427],[-79.0749,22.6557,0.6205],[-79.0774,22.6551,3.7902],[-79.0765,22.6529,0.8515],[-79.074,22.6543,2.2427]]],
[[[-78.9762,22.6238,0.0],[-78.9785,22.6243,0.1629],[-78.9793,22.6174,0.0],[-78.9771,22.6146,0.4425],[-78.9743,22.6146,0.0],[-78.9729,22.6115,0.0],[-78.9732,22.6079,0.1595],[-78.9768,22.6076,0.0],[-78.9779,22.606,0.4599],[-78.9746,22.6046,1.2559],[-78.9718,22.6065,0.0],[-78.9718,22.6124,0.0],[-78.9743,22.6232,0.0],[-78.9762,22.6238,0.0]]],
[[[-79.0479,22.6235,0.6873],[-79.0499,22.624,0.2077],[-79.0446,22.6196,0.606],[-79.0421,22.6121,2.3279],[-79.039,22.6101,0.0],[-79.0393,22.6135,2.26],[-79.0429,22.6182,0.0],[-79.0404,22.6224,0.503],[-79.0365,22.6238,0.0],[-79.0479,22.6235,0.6873]]],
[[[-79.0293,22.6179,1.8981],[-79.0287,22.6188,0.0],[-79.0338,22.6174,0.0],[-79.0318,22.6171,0.95009999999999994],[-79.0293,22.6179,1.8981]]],
[[[-79.0512,22.6262,0.0],[-79.0532,22.6271,0.0],[-79.0529,22.6243,1.7594],[-79.0518,22.6246,1.7594],[-79.0512,22.6262,0.0]]],
[[[-78.8732,22.6857,0.0],[-78.8763,22.6863,0.0],[-78.8715,22.6824,1.193],[-78.8679,22.6832,0.0],[-78.8679,22.684,0.0],[-78.8732,22.6857,0.0]]],
[[[-78.8871,22.6901,0.5283],[-78.8887,22.6912,0.0],[-78.886,22.6849,0.0],[-78.8799,22.6854,0.0],[-78.8799,22.6863,0.439],[-78.8871,22.6901,0.5283]]],
[[[-78.9046,22.6921,0.6554],[-78.9037,22.6937,0.6554],[-78.9068,22.6937,0.5826],[-78.906,22.6918,0.0],[-78.9046,22.6921,0.6554]]],
[[[-78.9071,22.6926,0.5826],[-78.9085,22.694,0.0],[-78.9107,22.6943,0.0],[-78.9093,22.6921,0.32],[-78.9071,22.6926,0.5826]]],
[[[-78.9596,22.6977,0.3659],[-78.9596,22.6988,0.0],[-78.9685,22.6985,0.9531],[-78.9657,22.6963,0.0],[-78.9596,22.6977,0.3659]]]]}}