{"type": "Feature","bbox": [-61.7924,16.0893,-61.7242,16.1884],"geometry": {"type": "MultiPolygon","coordinates": [[[[-61.7309,16.1679,545.0213],[-61.7364,16.1807,599.0792],[-61.7494,16.1851,717.7647],[-61.7628,16.1806,278.1052],[-61.7699,16.1812,170.5739],[-61.7826,16.1884,43.3215],[-61.784,16.1863,29.134],[-61.7835,16.1776,42.6996],[-61.7846,16.1765,60.5556],[-61.7832,16.1738,11.2878],[-61.7785,16.1743,55.4693],[-61.7762,16.1724,19.6937],[-61.7776,16.1696,0.0],[-61.7757,16.1663,0.6895],[-61.7757,16.1479,0.0],[-61.7807,16.1399,0.0],[-61.7757,16.139,40.0189],[-61.7721,16.136,36.8062],[-61.7701,16.1301,1.9089],[-61.7707,16.1279,0.7731],[-61.7743,16.1268,4.2202],[-61.7749,16.1174,0.0],[-61.7729,16.1054,26.586],[-61.7746,16.1049,0.0],[-61.7751,16.1024,0.0],[-61.7726,16.1018,0.0],[-61.7743,16.0976,8.4877],[-61.7713,16.096,2.0908],[-61.7737,16.0932,4.6346],[-61.7715,16.0893,3.2678],[-61.7664,16.0904,0.0],[-61.7491,16.107,412.0997],[-61.7333,16.1142,533.2691],[-61.7314,16.1277,891.2272],[-61.7242,16.1352,1036.1564],[-61.7252,16.1489,801.2277],[-61.7296,16.1542,699.9257],[-61.7309,16.1679,545.0213]]],
[[[-61.7893,16.1699,4.7003],[-61.7921,16.1688,0.0],[-61.7924,16.1671,9.1499],[-61.7879,16.1657,0.0],[-61.7874,16.1688,0.0],[-61.7893,16.1699,4.7003]]]]}
,"properties": {"GID_2": "GLP.1.4_1","GID_0": "GLP","country": "Guadeloupe","GID_1": "GLP.1_1","province": "Basse-Terre","NL_NAME_1": "NA","county": "Bouillante","VARNAME_2": "NA","NL_NAME_2": "NA","TYPE_2": "Chef-lieucanton","ENGTYPE_2": "Commune","CC_2": "07","HASC_2": "NA","name": "Bouillante.county","area_km2": 44.2353,"hist_schema_id": "Elevation0-9000","hist_area_km2": {"0": 1.77184,"25": 1.8738,"50": 1.83302,"75": 1.93482,"100": 1.97549,"125": 1.73109,"150": 1.75145,"175": 1.69038,"200": 1.58854,"225": 1.64967,"250": 1.50707,"275": 1.89406,"300": 1.6496,"325": 1.71072,"350": 1.50705,"375": 1.54778,"400": 1.6089,"425": 1.42561,"450": 1.38493,"475": 1.446,"500": 1.12012,"525": 1.28305,"550": 0.85538,"575": 1.05906,"600": 0.71284,"625": 0.75356,"650": 0.63135,"675": 0.71282,"700": 0.611,"725": 0.5499,"750": 0.42771,"775": 0.44808,"800": 0.3666,"825": 0.22404,"850": 0.28514,"875": 0.1833,"900": 0.1222,"925": 0.1222,"950": 0.0611,"975": 0.1222,"1000": 0.0611,"1025": 0.02037,"1050": 0.02037}}}