{"type": "Feature","id": "5071","bbox": [-61.69625,12.02204,-61.6245,12.08951],"geometry": {"type": "Polygon","coordinates": [[[-61.6245,12.06904,0.0],[-61.64279,12.08293,215.5485],[-61.65842,12.08951,440.2453],[-61.67651,12.08458,585.0318],[-61.68967,12.08046,476.1811],[-61.69625,12.05825,326.6368],[-61.69625,12.04098,160.5041],[-61.68885,12.02947,25.5865],[-61.68297,12.02538,36.9175],[-61.67443,12.02949,20.4869],[-61.67443,12.02204,10.08],[-61.63158,12.04409,0.0],[-61.62605,12.05305,0.0],[-61.62572,12.06122,0.0],[-61.6245,12.06904,0.0]]]}
,"properties": {"ISO3166-1-Alpha-3": "GRD","country": "Grenada","fill": "#FF0","name": "Saint David","area_km2": 41.24081,"hist_schema_id": "Elevation0-9000","hist_area_km2": {"0": 3.25542,"25": 3.96047,"50": 4.25079,"75": 3.54571,"100": 2.75774,"125": 2.36377,"150": 2.1564,"175": 1.80389,"200": 1.72093,"225": 1.20258,"250": 1.11963,"275": 1.26477,"300": 1.18183,"325": 1.11961,"350": 0.82935,"375": 0.95374,"400": 1.01593,"425": 0.8708,"450": 1.05739,"475": 0.91226,"500": 1.03665,"525": 0.76712,"550": 0.70492,"575": 0.49759,"600": 0.35246,"625": 0.35246,"650": 0.10366,"675": 0.0622,"700": 0.02073}}}