{"type":"Feature","properties":{"GID_1":"GRD.3_1","GID_0":"GRD","country":"Grenada","province":"SaintDavid","VARNAME_1":"NA","NL_NAME_1":"NA","TYPE_1":"Parish","ENGTYPE_1":"Parish","CC_1":"NA","HASC_1":"GD.DA","ISO_1":"GD-02","name":"Saint_David.province"},
"geometry":{"type": "MultiPolygon","coordinates": [[[[-61.6941,12.0728,621.9294],[-61.7017,12.0689,399.4462],[-61.7052,12.065,489.3719],[-61.7095,12.0442,253.6655],[-61.7163,12.028,101.5959],[-61.7157,12.0228,17.5777],[-61.7101,12.0162,10.3451],[-61.709,12.011,0.0],[-61.7068,12.0093,0.0],[-61.7018,12.009,31.005],[-61.701,12.006,0.0],[-61.6985,12.0065,0.0],[-61.6976,12.0104,5.9872],[-61.6993,12.0101,22.8947],[-61.7012,12.0124,0.0],[-61.7054,12.0115,17.4928],[-61.7076,12.0162,5.586],[-61.7024,12.0151,0.0],[-61.6999,12.0162,0.9288],[-61.6971,12.0137,0.0],[-61.6949,12.0138,4.8885],[-61.6929,12.0168,0.0],[-61.6901,12.0151,0.0],[-61.6874,12.0157,20.0545],[-61.6826,12.0107,1.3787],[-61.6846,12.0182,11.5314],[-61.681,12.019,3.1104],[-61.6801,12.0226,6.7529],[-61.6785,12.0226,3.8751],[-61.6768,12.0149,0.0],[-61.6751,12.0132,0.0],[-61.676,12.0157,7.1942],[-61.6743,12.0185,3.5338],[-61.6715,12.0185,0.0],[-61.6724,12.0207,0.0],[-61.6738,12.0201,9.793],[-61.6726,12.0238,7.532],[-61.6707,12.024,6.7832],[-61.6701,12.0218,0.0],[-61.6665,12.0196,0.0],[-61.6657,12.0215,7.7462],[-61.6624,12.021,3.6658],[-61.6635,12.0271,21.6679],[-61.6599,12.0249,0.0],[-61.6587,12.0265,3.9753],[-61.6529,12.026,0.0],[-61.6557,12.0313,15.3979],[-61.6543,12.0321,18.6284],[-61.6518,12.0304,0.0],[-61.6493,12.0324,13.8222],[-61.6471,12.0318,0.0],[-61.6457,12.0343,6.6267],[-61.6468,12.0368,0.0],[-61.651,12.0368,26.343],[-61.6515,12.0385,0.0],[-61.649,12.0379,0.0],[-61.6482,12.0412,13.5078],[-61.6454,12.039,6.2646],[-61.6418,12.0412,6.2494],[-61.639,12.0399,0.0],[-61.6387,12.0435,6.3948],[-61.6354,12.0446,5.1405],[-61.6374,12.0463,13.6826],[-61.6371,12.0496,8.1145],[-61.6493,12.0593,94.7178],[-61.6701,12.0724,501.9143],[-61.6793,12.0752,536.1053],[-61.6941,12.0728,621.9294]]]]}}