{"type":"Feature","properties":{"GID_1":"BMU.6_1","GID_0":"BMU","country":"Bermuda","province":"SaintGeorge's","VARNAME_1":"SaintGeorges","NL_NAME_1":"NA","TYPE_1":"Parish","ENGTYPE_1":"Parish","CC_1":"NA","HASC_1":"BM.SC","ISO_1":"NA","name":"Saint_George's.province"},
"geometry":{"type": "MultiPolygon","coordinates": [[[[-64.6501,32.3456,0.0],[-64.6482,32.3462,0.0],[-64.6465,32.3506,0.0],[-64.6469,32.3506,0.0],[-64.6501,32.3456,0.0]]],
[[[-64.6527,32.3495,0.0],[-64.652,32.3517,0.0714],[-64.6561,32.3495,1.5085],[-64.6586,32.3456,0.0],[-64.6552,32.3478,0.1496],[-64.6531,32.3456,0.0],[-64.6519,32.3469,0.0],[-64.6527,32.3495,0.0]]],
[[[-64.6605,32.3473,1.5086],[-64.6614,32.3486,1.5086],[-64.6644,32.3481,5.391],[-64.6692,32.34,0.0],[-64.6653,32.3428,0.0],[-64.6658,32.3447,0.0],[-64.6636,32.3467,0.7613],[-64.6609,32.3439,0.0],[-64.6605,32.3473,1.5086]]],
[[[-64.669,32.3815,8.7984],[-64.6684,32.3793,6.4045],[-64.6631,32.3753,0.0],[-64.6567,32.3736,0.0],[-64.6739,32.3897,1.8366],[-64.6731,32.3908,0.0],[-64.6767,32.3911,0.0],[-64.6889,32.3806,0.0],[-64.7119,32.3678,4.4843],[-64.7164,32.3619,0.0],[-64.7131,32.3608,0.0],[-64.7056,32.3667,3.0008],[-64.6936,32.3711,1.4884],[-64.6955,32.3683,0.2156],[-64.7078,32.3633,0.0],[-64.7058,32.3595,0.0625],[-64.7072,32.3564,0.0],[-64.705,32.3583,0.0],[-64.7025,32.3575,0.0],[-64.6972,32.36,3.2439],[-64.6964,32.3625,0.6348],[-64.6934,32.3642,0.2955],[-64.6878,32.3625,0.2777],[-64.6858,32.3533,0.0],[-64.6839,32.3542,0.0],[-64.6839,32.3608,0.0],[-64.6822,32.3631,0.5587],[-64.6722,32.3617,0.0],[-64.6683,32.3594,0.0156],[-64.6662,32.3611,0.4743],[-64.6614,32.3589,0.6841],[-64.6639,32.3553,0.0],[-64.6592,32.3483,0.0],[-64.6558,32.3511,1.2368],[-64.6533,32.3578,0.0],[-64.6552,32.3578,0.0],[-64.6575,32.3544,1.3815],[-64.66,32.3561,1.7386],[-64.6597,32.3597,0.6841],[-64.6586,32.3611,0.8542],[-64.6508,32.3606,0.0],[-64.6469,32.3675,0.0],[-64.6494,32.3722,0.0],[-64.6597,32.3719,10.1945],[-64.6653,32.3744,0.0],[-64.6694,32.3744,0.0],[-64.6703,32.3764,0.4213],[-64.6725,32.3767,0.0],[-64.67,32.3719,0.0],[-64.6664,32.3703,2.8027],[-64.6675,32.3697,2.8027],[-64.6747,32.3722,0.0],[-64.6764,32.3705,0.0],[-64.6853,32.3714,3.2078],[-64.6892,32.3744,1.9835],[-64.6828,32.3778,1.9904],[-64.6794,32.3843,25.4448],[-64.6765,32.3861,34.829],[-64.6724,32.3857,23.4062],[-64.669,32.3815,8.7984]]],
[[[-64.7677,32.4762,0.0],[-64.7681,32.4772,0.0],[-64.77,32.4753,0.0],[-64.7689,32.4745,0.0],[-64.7677,32.4762,0.0]]]]}}