{"type": "Feature","id": "5040","bbox": [-76.9853,26.49995,-76.95983,26.55443],"geometry": {"type": "Polygon","coordinates": [[[-76.96337,26.5537,0.0],[-76.97521,26.52717,0.0],[-76.97737,26.51651,0.0],[-76.97704,26.51244,4.1879],[-76.97838,26.51268,5.7585],[-76.98054,26.51419,0.0],[-76.98294,26.51097,0.0],[-76.98522,26.50589,0.0],[-76.9853,26.50222,0.0],[-76.98278,26.49995,0.5563],[-76.96085,26.53425,7.0802],[-76.95983,26.5456,1.6146],[-76.96227,26.55443,7.278],[-76.96337,26.5537,0.0]]]}
,"properties": {"ISO3166-1-Alpha-3": "BHS","country": "The Bahamas","fill": "#F0F","name": "Hope Town","area_km2": 4.173399,"hist_schema_id": "Elevation0-9000","hist_area_km2": {"0": 3.395619,"25": 0.77778}}}