{"type":"Feature","properties":{"GID_1":"BHS.15_1","GID_0":"BHS","country":"Bahamas","state":"HopeTown","VARNAME_1":"NA","NL_NAME_1":"NA","TYPE_1":"District","ENGTYPE_1":"District","CC_1":"NA","HASC_1":"BS.HT","ISO_1":"NA","name":"HopeTown.state"},
"geometry":{"type": "MultiPolygon","coordinates": [[[[-76.9854,26.3454,0.0],[-76.9863,26.3446,0.0],[-76.9863,26.3432,0.0],[-76.9843,26.3449,0.0],[-76.9854,26.3454,0.0]]],
[[[-76.9776,26.3874,0.0],[-76.9801,26.3882,0.5158],[-76.9824,26.3793,0.0],[-76.9857,26.3754,0.0],[-76.984,26.3726,0.0],[-76.9815,26.3718,0.0],[-76.9851,26.3613,2.6075],[-76.984,26.3526,0.5924],[-76.9854,26.3487,0.0],[-76.9843,26.3474,0.0],[-76.9829,26.3479,0.0],[-76.9815,26.3626,8.6341],[-76.9788,26.369,0.0],[-76.9799,26.3785,0.3834],[-76.9776,26.3874,0.0]]],
[[[-76.9779,26.4068,0.0],[-76.9782,26.4082,0.0],[-76.9799,26.4076,0.0],[-76.9807,26.4024,1.9365],[-76.9793,26.3993,0.6887],[-76.9776,26.4001,0.0],[-76.9779,26.4068,0.0]]],
[[[-76.9793,26.4168,0.0],[-76.9796,26.4199,0.0],[-76.9815,26.4196,0.0],[-76.9812,26.416,0.0],[-76.9799,26.4154,0.0],[-76.9793,26.4168,0.0]]],
[[[-77.0043,26.3988,0.0],[-77.0057,26.3999,0.0],[-77.0082,26.399,0.0],[-77.0079,26.3968,1.8821],[-77.0049,26.3946,0.0],[-77.0035,26.3949,0.0],[-77.0043,26.3988,0.0]]],
[[[-76.9899,26.4015,0.0],[-76.9904,26.4026,0.0],[-76.9929,26.401,0.0],[-76.9938,26.3985,0.0],[-76.9976,26.3963,0.112],[-76.994,26.3954,0.0],[-76.9904,26.3985,0.0],[-76.9899,26.4015,0.0]]],
[[[-76.9949,26.4143,0.0],[-76.9968,26.4182,0.0],[-76.9985,26.4143,0.3982],[-76.9971,26.4126,4.0808],[-76.9979,26.4096,0.0],[-76.9962,26.4093,0.0],[-76.9949,26.4143,0.0]]],
[[[-76.9896,26.511,5.2996],[-76.9907,26.5118,5.2996],[-76.9893,26.5132,0.0],[-76.994,26.5121,0.0],[-76.9935,26.5099,3.5899],[-76.9951,26.5076,5.8402],[-76.9987,26.5071,0.0],[-77.004,26.501,0.0],[-76.9993,26.4946,5.6631],[-77.0001,26.4876,0.0],[-76.9965,26.4882,0.0],[-76.9943,26.4921,0.0],[-76.994,26.5043,3.8967],[-76.9924,26.5046,0.0],[-76.9921,26.5085,4.5928],[-76.9896,26.511,5.2996]]],
[[[-76.9815,26.4257,0.3534],[-76.9832,26.4265,0.3534],[-76.9837,26.4229,0.0],[-76.981,26.4204,0.0],[-76.9804,26.4226,0.0],[-76.9815,26.4257,0.3534]]],
[[[-76.9807,26.4957,0.0],[-76.9804,26.4976,0.0],[-76.9863,26.491,0.0],[-76.9901,26.4829,0.0],[-76.9904,26.4779,0.0],[-76.9938,26.4782,1.2071],[-76.994,26.481,0.0],[-76.9965,26.4796,0.0],[-76.996,26.4774,0.0],[-76.9912,26.4754,1.4508],[-76.9907,26.4624,0.0],[-76.989,26.4596,8.5257],[-76.9899,26.4546,0.0],[-76.9879,26.4515,0.87],[-76.9893,26.4493,0.0],[-76.9896,26.4413,0.0],[-76.9882,26.441,5.0555],[-76.9857,26.4324,0.0],[-76.9874,26.4293,0.0],[-76.9849,26.4279,0.0],[-76.9835,26.4279,0.0],[-76.9826,26.4335,0.0],[-76.9854,26.4404,5.9125],[-76.9871,26.4754,0.0],[-76.9807,26.4957,0.0]]],
[[[-76.959,26.5582,0.4104],[-76.9607,26.559,0.0],[-76.9629,26.556,0.0],[-76.9615,26.5513,0.0],[-76.959,26.5496,0.0],[-76.9596,26.5418,2.8318],[-76.9618,26.5438,0.0],[-76.964,26.5432,2.3505],[-76.9649,26.5399,0.0],[-76.969,26.5349,0.0],[-76.9671,26.534,1.0065],[-76.9724,26.5313,2.7287],[-76.9751,26.5268,0.0],[-76.9746,26.5207,2.0427],[-76.9765,26.5199,0.8773],[-76.9762,26.5185,0.0],[-76.9782,26.5185,0.0],[-76.9724,26.5165,3.5296],[-76.9746,26.5129,0.0],[-76.9732,26.5093,1.9714],[-76.9757,26.5104,2.228],[-76.9754,26.5143,1.0333],[-76.9785,26.5146,0.8152],[-76.9788,26.5124,5.7585],[-76.9804,26.5118,1.1148],[-76.9807,26.5065,14.9789],[-76.9832,26.5051,0.0],[-76.9835,26.5015,0.8752],[-76.986,26.501,0.0],[-76.984,26.4993,0.0],[-76.9863,26.4943,0.5094],[-76.9849,26.4943,0.0],[-76.9826,26.4999,0.5563],[-76.9793,26.4985,0.0],[-76.9765,26.501,0.0],[-76.9754,26.5065,8.1053],[-76.9721,26.5096,0.0],[-76.9726,26.5121,0.9741],[-76.9704,26.5132,0.0],[-76.971,26.5157,3.5296],[-76.9693,26.5185,1.937],[-76.9665,26.5226,4.9226],[-76.9646,26.5229,0.0],[-76.9574,26.5354,2.4087],[-76.9551,26.5365,1.528],[-76.9576,26.5429,3.2833],[-76.9565,26.5529,0.0],[-76.9596,26.5568,1.9078],[-76.959,26.5582,0.4104]]],
[[[-76.9751,26.536,0.9702],[-76.976,26.5374,0.0],[-76.9774,26.5371,0.0],[-76.976,26.5349,0.0],[-76.9751,26.536,0.9702]]],
[[[-76.9762,26.5382,0.0],[-76.9765,26.5407,0.0],[-76.9779,26.541,0.0],[-76.9788,26.5388,2.5675],[-76.9762,26.5382,0.0]]],
[[[-76.9765,26.5432,0.0],[-76.9771,26.5446,0.0],[-76.9785,26.5421,0.3845],[-76.976,26.5418,0.0],[-76.9765,26.5432,0.0]]],
[[[-76.9715,26.5674,0.4559],[-76.971,26.5687,0.4559],[-76.974,26.5687,0.0],[-76.9726,26.5665,0.0],[-76.9715,26.5674,0.4559]]],
[[[-77.0057,26.5838,0.0],[-77.0082,26.5846,0.0],[-77.0096,26.5824,0.0],[-77.0043,26.5824,0.0],[-77.0057,26.5838,0.0]]],
[[[-77.0096,26.586,0.0],[-77.0104,26.5871,0.0],[-77.0132,26.5868,1.2546],[-77.0104,26.5851,0.0],[-77.0096,26.586,0.0]]],
[[[-77.0226,26.6157,2.4823],[-77.0249,26.6171,0.0],[-77.0237,26.6143,2.4583],[-77.0215,26.6138,3.2601],[-77.0201,26.6093,6.7432],[-77.0168,26.6085,0.3767],[-77.0135,26.6032,1.5433],[-77.0115,26.6035,3.224],[-77.0085,26.6007,2.154],[-77.0085,26.5996,0.2068],[-77.0118,26.6001,0.6146],[-77.0088,26.5924,0.0],[-77.0054,26.5915,1.6298],[-77.0046,26.589,0.3508],[-77.0021,26.5896,0.0],[-76.9974,26.5851,0.0],[-76.9935,26.5849,0.0],[-76.9965,26.5882,1.5895],[-76.9976,26.5926,0.0],[-77.0007,26.5937,8.5193],[-77.0029,26.5982,2.7773],[-77.0124,26.6049,4.4539],[-77.0226,26.6157,2.4823]]],
[[[-77.034,26.624,0.0],[-77.0362,26.6249,0.0],[-77.0321,26.6221,0.0],[-77.0321,26.6229,0.0],[-77.034,26.624,0.0]]],
[[[-77.0524,26.6363,0.4646],[-77.0546,26.6374,0.0],[-77.0521,26.6338,0.0],[-77.0471,26.6324,0.0],[-77.051,26.6346,0.0],[-77.0524,26.6363,0.4646]]],
[[[-77.0821,26.6526,3.4381],[-77.0846,26.6535,0.6606],[-77.0821,26.6501,0.0],[-77.0815,26.6451,0.0],[-77.0726,26.6426,6.1803],[-77.0713,26.6404,0.0],[-77.064,26.6365,0.0],[-77.061,26.6382,0.7931],[-77.0638,26.6407,0.0],[-77.0679,26.641,0.9539],[-77.0757,26.651,0.0],[-77.0821,26.6526,3.4381]]],
[[[-77.1115,26.6454,0.0],[-77.114,26.6471,0.0],[-77.1157,26.644,0.0],[-77.1115,26.644,0.0],[-77.1115,26.6454,0.0]]],
[[[-77.0849,26.6474,2.4191],[-77.0835,26.649,0.0],[-77.0854,26.6496,0.0],[-77.086,26.6476,2.4191],[-77.0849,26.6474,2.4191]]],
[[[-77.1576,26.7038,0.7058],[-77.1601,26.7043,2.1089],[-77.1654,26.7004,5.5728],[-77.1693,26.7004,5.364],[-77.1704,26.6982,3.6877],[-77.1679,26.6954,0.0],[-77.1554,26.6932,2.5436],[-77.1515,26.6882,1.9413],[-77.1521,26.681,0.0],[-77.1507,26.6796,0.0],[-77.1485,26.679,2.2297],[-77.1454,26.6818,0.536],[-77.1446,26.6799,0.6502],[-77.1354,26.681,3.3033],[-77.1321,26.679,1.86],[-77.1324,26.6757,0.3554],[-77.1301,26.6765,4.8172],[-77.1282,26.6729,2.2889],[-77.1221,26.6724,5.4067],[-77.1176,26.6682,0.9032],[-77.114,26.6674,4.8708],[-77.1137,26.6651,3.2049],[-77.1162,26.664,0.5989],[-77.116,26.6626,1.2132],[-77.1104,26.6665,3.4937],[-77.109,26.6643,0.589],[-77.1113,26.6626,0.0],[-77.1049,26.6615,0.0],[-77.1018,26.6579,2.2606],[-77.0957,26.6585,3.6925],[-77.0879,26.6521,0.695],[-77.0871,26.656,2.4091],[-77.0924,26.6588,1.0883],[-77.0968,26.664,0.8871],[-77.1174,26.6718,11.7855],[-77.1246,26.6787,4.3479],[-77.1321,26.681,2.7502],[-77.1376,26.686,0.0],[-77.1415,26.6857,1.237],[-77.1546,26.694,0.9237],[-77.1576,26.7038,0.7058]]],
[[[-77.1749,26.6835,0.0],[-77.1754,26.6849,0.8532],[-77.1765,26.6851,0.8532],[-77.1754,26.6818,0.0],[-77.1749,26.6835,0.0]]],
[[[-77.1754,26.7001,2.0263],[-77.1768,26.7015,0.8935],[-77.1782,26.701,0.8935],[-77.1768,26.6993,0.0],[-77.1754,26.7001,2.0263]]],
[[[-77.2435,26.7154,1.3172],[-77.2462,26.7165,0.0],[-77.2385,26.7113,0.0],[-77.2368,26.7068,0.0],[-77.2282,26.7057,4.449],[-77.2246,26.7032,0.0],[-77.2207,26.704,0.5974],[-77.2288,26.7088,0.0],[-77.2368,26.711,2.8207],[-77.2435,26.7154,1.3172]]],
[[[-77.2982,26.7554,0.0],[-77.2996,26.7565,0.0],[-77.2965,26.7512,1.8371],[-77.2999,26.7485,2.3752],[-77.2996,26.7471,2.3752],[-77.296,26.7443,0.2518],[-77.2943,26.7468,0.4108],[-77.2907,26.7432,0.7375],[-77.291,26.7424,0.7375],[-77.2943,26.7443,0.2518],[-77.2937,26.7415,3.0221],[-77.2843,26.7379,0.5072],[-77.2893,26.7421,0.6311],[-77.2982,26.7554,0.0]]],
[[[-77.3051,26.7613,0.0],[-77.3076,26.7624,0.0],[-77.3063,26.7599,0.0],[-77.304,26.7604,0.0],[-77.3051,26.7613,0.0]]],
[[[-77.3388,26.7976,0.0],[-77.3415,26.7985,0.0],[-77.3412,26.7949,10.6414],[-77.3349,26.7901,4.066],[-77.3351,26.7874,2.7469],[-77.3376,26.786,2.5392],[-77.339,26.7874,0.0],[-77.3415,26.7851,0.0],[-77.3399,26.7812,3.1242],[-77.3429,26.7818,0.7369],[-77.3429,26.7776,4.1963],[-77.3374,26.7751,0.0],[-77.3349,26.7718,0.0],[-77.336,26.776,0.9042],[-77.3399,26.7793,0.5688],[-77.3368,26.7818,0.6038],[-77.3346,26.7738,0.4337],[-77.3318,26.7699,6.6978],[-77.3332,26.7668,0.0],[-77.3282,26.7654,0.6018],[-77.3207,26.759,4.769],[-77.3238,26.7582,9.8425],[-77.324,26.761,0.0],[-77.329,26.764,0.0],[-77.3268,26.759,6.0811],[-77.3293,26.7596,1.5064],[-77.3299,26.7613,0.0],[-77.3307,26.7571,3.437],[-77.3215,26.756,3.0079],[-77.3168,26.7521,1.7404],[-77.3118,26.7526,1.3538],[-77.3096,26.7507,3.541],[-77.3107,26.7529,1.3538],[-77.3157,26.7535,3.6231],[-77.319,26.7557,2.1668],[-77.3171,26.761,1.4016],[-77.321,26.7635,4.8831],[-77.324,26.7693,3.9164],[-77.3254,26.7743,4.3576],[-77.3238,26.7754,1.5489],[-77.3304,26.7879,0.0],[-77.3388,26.7976,0.0]]],
[[[-77.3457,26.8074,2.8349],[-77.3474,26.8085,2.8349],[-77.3435,26.8024,2.0534],[-77.3432,26.8032,0.0],[-77.3457,26.8074,2.8349]]],
[[[-77.3576,26.8179,0.0],[-77.3593,26.8193,0.4718],[-77.3593,26.8176,2.1815],[-77.3649,26.8129,4.9502],[-77.3643,26.8093,2.8184],[-77.359,26.809,8.5655],[-77.3532,26.8124,5.0314],[-77.3463,26.8096,0.0],[-77.3518,26.8149,3.2652],[-77.3565,26.814,1.6497],[-77.3585,26.8157,7.3261],[-77.3576,26.8179,0.0]]],
[[[-77.3835,26.8443,0.0],[-77.3843,26.8454,0.0],[-77.3882,26.8446,1.6596],[-77.3865,26.8404,5.6783],[-77.3893,26.8374,1.8338],[-77.3799,26.8368,1.2779],[-77.376,26.8315,4.257],[-77.3785,26.8282,0.0],[-77.374,26.8274,9.5327],[-77.3724,26.8226,2.9278],[-77.3665,26.8238,5.3326],[-77.3632,26.8218,1.2061],[-77.364,26.8199,0.0],[-77.3613,26.8218,0.0],[-77.3554,26.821,2.2715],[-77.3512,26.8168,0.0],[-77.3507,26.8221,0.6526],[-77.3535,26.8249,1.1258],[-77.3749,26.8351,5.2142],[-77.3835,26.8443,0.0]]],
[[[-77.3901,26.8401,0.0],[-77.3918,26.840699999999998,0.0],[-77.3907,26.8385,0.0],[-77.389,26.8385,1.8338],[-77.3896,26.8401,0.0],[-77.3901,26.8401,0.0]]],
[[[-77.3932,26.8418,0.0],[-77.3943,26.8426,0.0],[-77.3946,26.8412,0.0],[-77.3924,26.8404,0.0],[-77.3918,26.8412,0.0],[-77.3932,26.8418,0.0]]],
[[[-77.4279,26.8729,1.5767],[-77.4293,26.8738,0.0],[-77.4271,26.8688,6.6193],[-77.4215,26.866,0.0],[-77.4215,26.8671,0.0],[-77.4279,26.8729,1.5767]]],
[[[-77.4343,26.8818,0.0],[-77.4362,26.8824,0.0],[-77.431,26.8768,0.0],[-77.4313,26.8751,0.0],[-77.4299,26.8751,0.0],[-77.4301,26.8774,1.3789],[-77.4343,26.8818,0.0]]],
[[[-77.4515,26.8918,1.4716],[-77.4526,26.8926,0.3268],[-77.4518,26.8901,0.5257],[-77.4535,26.8887,0.0],[-77.4504,26.8899,0.5257],[-77.4454,26.8879,0.0],[-77.4454,26.8887,0.0],[-77.4515,26.8918,1.4716]]],
[[[-77.4612,26.899,0.7129],[-77.4638,26.8985,7.9194],[-77.4629,26.8963,1.9113],[-77.459,26.8954,0.0],[-77.4587,26.8982,2.9857],[-77.4612,26.899,0.7129]]],
[[[-77.4832,26.9135,2.6361],[-77.4832,26.9154,0.0],[-77.4849,26.9154,0.717],[-77.4868,26.9143,0.0],[-77.4871,26.9121,2.6726],[-77.4899,26.9126,0.0],[-77.4901,26.9107,0.0],[-77.4793,26.9063,1.064],[-77.4779,26.8932,0.0],[-77.4687,26.8907,0.0],[-77.4687,26.8937,0.0],[-77.4735,26.8949,5.0652],[-77.4779,26.9013,0.0],[-77.4762,26.906,2.1425],[-77.474,26.9049,0.0],[-77.471,26.9079,0.7474],[-77.4832,26.9135,2.6361]]],
[[[-77.4654,26.9043,0.0],[-77.4676,26.9049,0.0],[-77.4665,26.9029,0.0],[-77.4651,26.9029,0.0],[-77.4654,26.9043,0.0]]],
[[[-77.5499,26.9557,0.0],[-77.5515,26.9568,0.0],[-77.551,26.9546,1.0715],[-77.5524,26.954,0.0],[-77.5507,26.9521,2.4074],[-77.5435,26.9476,0.0],[-77.5326,26.9437,4.3596],[-77.5251,26.9379,0.0],[-77.5196,26.9382,0.0],[-77.5176,26.9329,0.0],[-77.5163,26.9326,0.0],[-77.5165,26.9357,0.0],[-77.5207,26.9415,0.3163],[-77.5218,26.941,0.3163],[-77.521,26.9385,1.831],[-77.5243,26.9407,0.0],[-77.5232,26.9435,0.0],[-77.5296,26.9429,5.946],[-77.5357,26.9474,0.0],[-77.5404,26.9485,0.8791],[-77.5418,26.951,0.0],[-77.5499,26.9557,0.0]]],
[[[-77.6171,26.9482,0.2942],[-77.6188,26.9493,0.0],[-77.6204,26.9485,0.6608],[-77.6193,26.9474,0.6608],[-77.6171,26.9482,0.2942]]],
[[[-77.5935,26.9504,0.0],[-77.599,26.951,0.0],[-77.5982,26.9488,1.6801],[-77.5918,26.9496,0.0],[-77.5935,26.9504,0.0]]],
[[[-77.604,26.9504,0.0],[-77.6076,26.9515,0.7461],[-77.609,26.9515,0.0],[-77.6057,26.9493,0.0],[-77.604,26.9504,0.0]]],
[[[-77.5996,26.951,0.0],[-77.6038,26.9518,0.0],[-77.6004,26.9493,0.3557],[-77.599,26.9496,0.3557],[-77.5996,26.951,0.0]]],
[[[-77.5537,26.9557,0.6188],[-77.5549,26.9582,0.0],[-77.5563,26.9579,0.9791],[-77.5557,26.9557,0.0],[-77.5537,26.9557,0.6188]]],
[[[-77.6196,26.9712,1.349],[-77.6232,26.9724,0.0],[-77.6176,26.9676,0.7317],[-77.6146,26.9676,2.3424],[-77.6101,26.9649,0.0],[-77.6118,26.9671,0.0],[-77.6196,26.9712,1.349]]],
[[[-77.6424,26.9768,0.0],[-77.6435,26.9785,0.0],[-77.6449,26.9776,1.1238],[-77.641,26.9749,0.0],[-77.6393,26.9754,0.0],[-77.641,26.9771,0.0],[-77.6424,26.9768,0.0]]],
[[[-77.6868,26.9932,2.3449],[-77.6896,26.9935,0.9104],[-77.6835,26.9879,0.0],[-77.6771,26.9849,0.0975],[-77.6771,26.9832,0.2564],[-77.681,26.9837,0.2153],[-77.6799,26.9824,0.0],[-77.684,26.9829,0.2813],[-77.6751,26.9782,0.0],[-77.6529,26.9707,4.7348],[-77.636,26.9721,0.0],[-77.6435,26.9735,2.5597],[-77.6449,26.9757,0.0],[-77.6526,26.974,1.5827],[-77.6562,26.9754,2.8398],[-77.6615,26.9743,4.5266],[-77.6676,26.9768,2.0147],[-77.669,26.9796,2.9673],[-77.6668,26.9813,0.987],[-77.6726,26.9821,1.398],[-77.6735,26.9837,1.398],[-77.6732,26.9857,1.92],[-77.6699,26.9868,0.0],[-77.6771,26.9874,2.9694],[-77.6868,26.9932,2.3449]]],
[[[-77.6924,26.9968,1.7759],[-77.6943,26.9988,0.0],[-77.694,26.9968,0.0],[-77.691,26.9957,0.0],[-77.6924,26.9968,1.7759]]],
[[[-77.7214,27.0119,1.9484],[-77.724,27.0122,0.0],[-77.7169,27.0064,0.306],[-77.7075,27.0025,2.318],[-77.7036,27.0031,1.2897],[-77.7139,27.0064,1.546],[-77.7214,27.0119,1.9484]]],
[[[-77.7703,27.0431,0.0],[-77.7744,27.0433,0.0],[-77.7722,27.0414,0.0],[-77.7736,27.0378,0.0],[-77.7708,27.0406,0.0],[-77.7683,27.0406,0.0],[-77.7703,27.0431,0.0]]],
[[[-77.8025,27.03,0.0],[-77.8064,27.0314,0.0],[-77.8008,27.0275,0.0],[-77.7914,27.0253,0.0],[-77.7925,27.0272,0.0],[-77.8025,27.03,0.0]]],
[[[-77.8197,27.0372,0.0],[-77.8236,27.0386,0.0],[-77.8153,27.0342,0.8775],[-77.8086,27.0331,0.8113],[-77.8133,27.0361,0.0],[-77.8197,27.0372,0.0]]],
[[[-77.9007,27.0377,0.0],[-77.8994,27.0372,0.0],[-77.9024,27.0396,0.0],[-77.9014,27.0375,0.0],[-77.9007,27.0377,0.0]]],
[[[-77.9103,27.0419,0.0],[-77.9119,27.0433,0.0],[-77.9153,27.0428,0.0],[-77.9186,27.04,0.0],[-77.9175,27.0394,0.0],[-77.9156,27.0414,0.0],[-77.9103,27.0419,0.0]]],
[[[-77.8244,27.0431,0.0],[-77.8275,27.0444,0.0],[-77.8231,27.0397,0.0],[-77.8203,27.04,0.0],[-77.8206,27.0406,0.0],[-77.8244,27.0431,0.0]]],
[[[-78.1708,27.0447,2.1464],[-78.1756,27.0456,0.0],[-78.1706,27.0425,1.877],[-78.165,27.0422,0.9001],[-78.1667,27.0436,0.8964],[-78.1708,27.0447,2.1464]]],
[[[-77.8374,27.05,4.284],[-77.8434,27.0508,0.0],[-77.8358,27.0456,1.7005],[-77.8314,27.0461,0.0],[-77.8347,27.0491,0.0],[-77.8374,27.05,4.284]]],
[[[-77.9967,27.0867,2.4938],[-78.0017,27.0881,1.9334],[-78.0036,27.0856,0.5776],[-78.0006,27.0825,2.2296],[-77.9994,27.0846,0.0],[-78.0019,27.0857,0.5776],[-77.9986,27.0864,0.3975],[-77.99,27.0803,0.0],[-77.9872,27.0761,4.8567],[-77.9822,27.0753,0.0],[-77.9864,27.0778,0.0],[-77.9939,27.0861,2.2876],[-77.9967,27.0867,2.4938]]],
[[[-78.0281,27.0914,1.1072],[-78.0322,27.0919,0.0],[-78.0247,27.085,0.0],[-78.0247,27.0789,0.0],[-78.0208,27.0758,1.3276],[-78.0122,27.0772,2.0105],[-78.0128,27.0808,1.6298],[-78.0053,27.0875,0.0],[-78.0185,27.0893,0.0],[-78.02,27.0864,0.0133],[-78.0214,27.0875,1.747],[-78.02,27.0878,0.4003],[-78.0203,27.0894,0.0],[-78.0281,27.0914,1.1072]]],
[[[-78.0336,27.0915,0.0],[-78.0339,27.0925,0.0],[-78.0379,27.0924,0.0],[-78.0361,27.0892,1.2319],[-78.0336,27.0915,0.0]]],
[[[-78.0553,27.0983,1.4565],[-78.0608,27.0997,0.0],[-78.055,27.095,0.0],[-78.0525,27.0964,0.7746],[-78.0553,27.0983,1.4565]]],
[[[-78.1017,27.13,1.8409],[-78.1072,27.1317,0.0],[-78.0992,27.1278,1.5722],[-78.0961,27.1244,0.7458],[-78.0886,27.1233,0.0],[-78.0836,27.115,0.9815],[-78.0844,27.1114,0.388],[-78.0758,27.1131,0.0],[-78.0781,27.12,5.2535],[-78.0844,27.1261,0.4101],[-78.09,27.1261,0.8013],[-78.1017,27.13,1.8409]]],
[[[-78.1819,27.1458,0.0],[-78.1867,27.1494,0.0],[-78.1844,27.1461,0.2206],[-78.1747,27.1397,0.0],[-78.175299999999993,27.1414,0.0],[-78.1819,27.1458,0.0]]],
[[[-78.2122,27.175,0.0],[-78.2153,27.1756,0.0],[-78.2053,27.1694,0.0],[-78.2083,27.1731,0.0],[-78.2122,27.175,0.0]]]]}}