{"type": "Feature","bbox": [-70.2785,18.9766,-70.1021,19.1583],"geometry": {"type": "MultiPolygon","coordinates": [[[[-70.2411,19.1516,41.111],[-70.243,19.1371,51.982],[-70.2462,19.1279,41.682],[-70.2537,19.1161,46.6992],[-70.2552,19.1083,53.6317],[-70.2625,19.0971,82.6478],[-70.2666,19.0857,137.745],[-70.27,19.0841,168.8229],[-70.2729,19.0875,164.584],[-70.2763,19.0882,101.5842],[-70.2785,19.0838,140.3412],[-70.2779,19.078,257.2563],[-70.2716,19.0643,172.8279],[-70.2627,19.0605,224.3366],[-70.2608,19.0578,203.9487],[-70.2653,19.0518,113.262],[-70.278,19.0517,95.948],[-70.2777,19.0406,126.4219],[-70.2739,19.034,274.3567],[-70.267,19.0288,326.7835],[-70.2632,19.0163,305.0968],[-70.2643,19.0101,282.7884],[-70.2731,19.0055,275.8124],[-70.2747,19.001,366.2878],[-70.268,18.9886,374.218],[-70.2545,18.9766,95.8959],[-70.2459,18.9857,86.5],[-70.2376,18.9876,86.5],[-70.2313,18.9981,86.5],[-70.2298,19.0221,86.5],[-70.2274,19.0224,88.8603],[-70.2225,19.0194,97.0966],[-70.2153,19.0124,86.5],[-70.2132,19.0134,86.5],[-70.2105,19.0189,86.5],[-70.2014,19.0233,86.5],[-70.1981,19.0303,86.5],[-70.1988,19.0423,52.3384],[-70.1936,19.0432,71.3731],[-70.1923,19.0455,63.9637],[-70.1944,19.0506,53.1382],[-70.194,19.0543,51.5914],[-70.1841,19.0605,49.1428],[-70.1824,19.0675,47.3206],[-70.169,19.0669,46.4545],[-70.1658,19.0693,44.1512],[-70.1642,19.0754,40.5821],[-70.1555,19.081,41.3349],[-70.1469,19.0806,39.7723],[-70.136,19.0853,42.1011],[-70.1341,19.0872,37.4036],[-70.1339,19.0926,34.0535],[-70.1195,19.0977,47.1511],[-70.1207,19.1035,38.8636],[-70.1198,19.1074,33.1402],[-70.1173,19.1094,33.1661],[-70.1096,19.1108,41.6171],[-70.1066,19.1151,53.6569],[-70.1111,19.1345,29.3392],[-70.1039,19.1407,30.9884],[-70.1021,19.1476,25.1633],[-70.1038,19.1512,27.4508],[-70.1063,19.1522,32.9173],[-70.1251,19.1509,33.1356],[-70.1273,19.1556,30.6181],[-70.1307,19.1574,28.5923],[-70.1323,19.1563,31.2374],[-70.1326,19.1524,29.1388],[-70.1405,19.1522,30.7038],[-70.1461,19.1493,33.9819],[-70.1471,19.1462,31.5449],[-70.1452,19.1397,32.6584],[-70.15,19.1381,32.0425],[-70.1528,19.1399,31.2982],[-70.1557,19.1471,33.6681],[-70.1594,19.1484,32.8173],[-70.1672,19.148,33.2548],[-70.1698,19.1576,32.01],[-70.1772,19.1583,35.9201],[-70.1817,19.1566,35.1331],[-70.191,19.1482,34.5871],[-70.2,19.149,41.3655],[-70.2018,19.1411,39.0371],[-70.2069,19.137,48.0588],[-70.2232,19.1423,39.9226],[-70.228,19.1495,38.2235],[-70.2365,19.1487,50.0019],[-70.2411,19.1516,41.111]]]]}
,"properties": {"GID_2": "DOM.28.4_1","GID_0": "DOM","country": "DominicanRepublic","GID_1": "DOM.28_1","province": "SánchezRamírez","NL_NAME_1": "NA","county": "LaMata","VARNAME_2": "NA","NL_NAME_2": "NA","TYPE_2": "Distritomunicipal","ENGTYPE_2": "Municipaldistrict","CC_2": "NA","HASC_2": "DO.SZ.LM","name": "La_Mata.county","area_km2": 185.5804,"hist_schema_id": "Elevation0-9000","hist_area_km2": {"25": 44.7103,"50": 70.6631,"75": 18.6377,"100": 13.6878,"125": 14.3299,"150": 7.556,"175": 4.5098,"200": 3.3273,"225": 2.1247,"250": 2.2451,"275": 1.3631,"300": 1.2228,"325": 0.5412,"350": 0.4009,"375": 0.2005,"400": 0.0601}}}