{"type":"Feature","properties":{"GID_1":"TCA.4_1","GID_0":"TCA","country":"TurksandCaicosIslands","province":"ProvidencialesandWestCaicos","VARNAME_1":"NA","NL_NAME_1":"NA","TYPE_1":"District","ENGTYPE_1":"District","CC_1":"NA","HASC_1":"NA","ISO_1":"NA","name":"Providencialesand_West_Caicos.province"},
"geometry":{"type": "MultiPolygon","coordinates": [[[[-72.2004,21.5085,1.1216],[-72.2029,21.5065,0.3975],[-72.2012,21.504,0.0],[-72.1993,21.5057,1.1395],[-72.2004,21.5085,1.1216]]],
[[[-72.1399,21.8301,0.1951],[-72.1438,21.8304,0.0],[-72.1482,21.8235,0.1801],[-72.1451,21.8182,0.0],[-72.1418,21.8171,0.3261],[-72.1379,21.8185,0.0],[-72.1376,21.824,1.0331],[-72.1357,21.8246,0.0],[-72.1363,21.8282,0.4203],[-72.1399,21.8301,0.1951]]],
[[[-72.1301,21.8329,0.0],[-72.1307,21.8346,0.0],[-72.1418,21.8338,0.0],[-72.1354,21.8285,0.4203],[-72.1324,21.8293,0.5508],[-72.1301,21.8329,0.0]]],
[[[-72.141,21.8393,1.1493],[-72.1407,21.840699999999998,0.9508],[-72.1476,21.8401,0.0],[-72.1476,21.8385,1.228],[-72.1518,21.8379,0.0],[-72.1529,21.8324,0.0],[-72.1482,21.8326,0.0],[-72.141,21.8393,1.1493]]],
[[[-72.4254,21.7068,0.0],[-72.4232,21.7099,0.0],[-72.434,21.7079,1.4422],[-72.444,21.709,0.0],[-72.449,21.7026,0.641],[-72.4546,21.6999,3.8522],[-72.4621,21.6999,0.5161],[-72.4601,21.6979,2.2214],[-72.4626,21.6951,4.6816],[-72.4632,21.6963,3.0309],[-72.4618,21.6982,0.0],[-72.4643,21.6971,0.2729],[-72.4682,21.6879,1.9669],[-72.4687,21.6607,0.0],[-72.4751,21.6418,0.0],[-72.4824,21.6299,6.0891],[-72.4829,21.6215,0.0],[-72.4665,21.6271,2.4249],[-72.4543,21.6357,0.0],[-72.4546,21.6385,0.0],[-72.4471,21.6451,0.0],[-72.4376,21.6924,0.0],[-72.4318,21.706,1.8651],[-72.4287,21.7076,1.4822],[-72.4254,21.7068,0.0]]],
[[[-72.2521,21.7363,0.0],[-72.2557,21.7368,0.6447],[-72.2576,21.7354,0.0],[-72.2532,21.7346,0.0],[-72.2521,21.7363,0.0]]],
[[[-72.2554,21.7438,0.0],[-72.2571,21.7435,0.0],[-72.2532,21.7426,0.0],[-72.2535,21.7432,0.0],[-72.2554,21.7438,0.0]]],
[[[-72.3329,21.8649,0.0],[-72.3346,21.8651,0.0],[-72.334,21.8624,0.3933],[-72.3362,21.8624,0.0],[-72.3371,21.8604,0.0],[-72.3362,21.8504,0.0],[-72.3332,21.8465,0.0],[-72.3349,21.8432,0.0],[-72.3343,21.8399,0.9725],[-72.344,21.819,0.0],[-72.3435,21.8151,0.0],[-72.3457,21.8074,0.0],[-72.3546,21.8004,0.0],[-72.3512,21.7962,0.8823],[-72.351,21.7843,0.2707],[-72.3487,21.7804,0.1524],[-72.3499,21.7763,0.0727],[-72.3474,21.7763,0.3504],[-72.3482,21.7726,0.1225],[-72.3512,21.7699,0.1373],[-72.3515,21.7643,0.0],[-72.3474,21.7701,0.0638],[-72.346,21.7685,0.0],[-72.3468,21.7654,0.0],[-72.3451,21.7651,0.1169],[-72.3499,21.7565,0.2811],[-72.3512,21.7601,0.0],[-72.3538,21.7571,0.0],[-72.3562,21.7571,0.0],[-72.3557,21.7551,0.0],[-72.3529,21.7551,0.0],[-72.3524,21.7524,0.0],[-72.3501,21.7518,0.782],[-72.3504,21.7479,0.0],[-72.3368,21.7549,0.0],[-72.3199,21.7585,0.0],[-72.3138,21.7576,0.0],[-72.3126,21.759,0.9467],[-72.3112,21.7576,0.8135],[-72.3063,21.7599,1.7715],[-72.3004,21.7535,0.7944],[-72.3015,21.7529,0.7944],[-72.3074,21.7579,0.0],[-72.3096,21.7574,0.0],[-72.3082,21.7551,0.0],[-72.3004,21.7496,0.0],[-72.2962,21.7507,1.5219],[-72.294,21.7496,0.0],[-72.2937,21.7463,0.0],[-72.2871,21.7463,1.9227],[-72.2862,21.7432,0.0],[-72.2846,21.7426,0.9489],[-72.2843,21.739,0.8845],[-72.2796,21.7382,0.0],[-72.2721,21.7404,0.0],[-72.2685,21.7401,0.3718],[-72.2668,21.7379,0.0],[-72.2621,21.7471,0.0],[-72.2626,21.7501,0.0],[-72.2654,21.7499,-0.4417],[-72.2657,21.7524,-0.5874],[-72.2615,21.7524,0.0],[-72.2632,21.7565,0.4499],[-72.2615,21.7599,0.1769],[-72.2571,21.7649,1.2169],[-72.2529,21.7665,-0.0313],[-72.2446,21.766,-0.0657],[-72.2418,21.764,-0.0268],[-72.2382,21.7535,0.0],[-72.2363,21.7535,0.0],[-72.2296,21.7593,2.6087],[-72.2215,21.7574,0.0],[-72.2171,21.7618,0.0],[-72.2107,21.7643,1.0011],[-72.2029,21.7638,0.8171],[-72.2024,21.7615,0.0],[-72.1932,21.7632,0.0],[-72.1921,21.7601,0.0],[-72.1888,21.7601,0.0],[-72.1899,21.7574,0.0],[-72.1865,21.7551,0.0],[-72.1837,21.7568,0.0],[-72.1807,21.7563,0.0],[-72.1785,21.7593,2.9699],[-72.1685,21.7621,2.0551],[-72.1571,21.7799,0.0],[-72.1496,21.7962,0.0],[-72.1471,21.7988,0.957],[-72.1457,21.7974,0.0],[-72.1421,21.7982,0.0],[-72.1338,21.8063,1.6176],[-72.1315,21.8051,0.0],[-72.1288,21.8101,0.0],[-72.1324,21.8124,0.0],[-72.1357,21.8118,1.2524],[-72.1404,21.8157,0.0],[-72.1418,21.8146,1.2797],[-72.1449,21.8157,0.323],[-72.1501,21.8224,2.5222],[-72.1507,21.8274,0.4843],[-72.1524,21.8276,0.0],[-72.159,21.8218,0.0],[-72.1596,21.8188,0.5702],[-72.1649,21.8132,0.7736],[-72.1671,21.8068,1.0432],[-72.1721,21.8001,5.556],[-72.1801,21.7971,0.9745],[-72.1882,21.7971,0.0],[-72.1949,21.7904,3.1344],[-72.2076,21.7835,3.7135],[-72.2165,21.7835,4.942],[-72.2251,21.7888,0.0],[-72.2285,21.7888,0.0],[-72.2321,21.7854,9.0838],[-72.241,21.7871,0.8951],[-72.2504,21.7915,0.0],[-72.2518,21.7899,2.5884],[-72.2546,21.7899,5.6748],[-72.2701,21.801,0.931],[-72.271,21.804,0.0],[-72.2774,21.8099,2.0574],[-72.2918,21.8304,0.5126],[-72.3029,21.840699999999998,0.0],[-72.3163,21.8474,1.3935],[-72.3196,21.851,1.0702],[-72.3204,21.8554,0.0],[-72.326,21.861,0.0],[-72.3329,21.8649,0.0]]]]}}