{"type": "Feature","id": "5005","bbox": [-72.48131,21.63032,-72.08703,21.88544],"geometry": {"type": "MultiPolygon","coordinates": [[[[-72.45202,21.64496,4.3247],[-72.43326,21.68012,0.0],[-72.43342,21.70921,0.0],[-72.46076,21.70539,0.0],[-72.46044,21.68602,3.3311],[-72.46337,21.66494,0.9268],[-72.4702,21.64688,5.1964],[-72.48131,21.63654,0.0],[-72.48131,21.63032,6.0891],[-72.45202,21.64496,4.3247]]],
[[[-72.11628,21.85375,5.164],[-72.1195,21.8579,0.0],[-72.12491,21.85464,0.0],[-72.13305,21.84764,0.777],[-72.12438,21.84687,1.5918],[-72.11628,21.85375,5.164]]],
[[[-72.30793,21.85224,0.0],[-72.33043,21.86245,0.3729],[-72.32974,21.8454,6.4275],[-72.3402,21.81403,2.2139],[-72.33723,21.80097,1.5233],[-72.33141,21.80659,1.1269],[-72.30993,21.82209,27.5718],[-72.31395,21.80907,19.2431],[-72.32653,21.78742,0.7764],[-72.33043,21.77432,-0.5278],[-72.3341,21.77619,0.5172],[-72.33519,21.77619,-0.0977],[-72.33556,21.77684,-0.0977],[-72.33723,21.78115,-0.0896],[-72.33918,21.77546,0.0],[-72.34,21.77123,-0.5419],[-72.33951,21.76667,-0.6825],[-72.33723,21.76,0.4636],[-72.32364,21.76382,-0.7848],[-72.31542,21.77082,0.0],[-72.3129,21.78115,0.0],[-72.31615,21.79483,5.7727],[-72.28124,21.77961,19.5621],[-72.27514,21.77432,3.4149],[-72.27424,21.76362,-1.5575],[-72.28124,21.76154,0.0],[-72.29068,21.76581,0.0],[-72.29695,21.77432,0.0],[-72.30309,21.77432,0.0],[-72.29186,21.74893,1.8318],[-72.27383,21.75141,1.8287],[-72.23424,21.78115,19.9253],[-72.23424,21.76683,1.3747],[-72.21972,21.77033,12.6249],[-72.19445,21.76691,0.1366],[-72.1796,21.77432,0.1513],[-72.18285,21.77782,0.0],[-72.18611,21.77924,1.2695],[-72.18952,21.77993,0.3121],[-72.19327,21.78115,12.8079],[-72.16527,21.79483,8.2754],[-72.1643,21.7888,13.8695],[-72.15909,21.77432,0.0],[-72.15103,21.78384,0.0],[-72.12438,21.80781,0.0],[-72.12438,21.81525,0.0],[-72.14631,21.82713,0.0],[-72.15713,21.82453,0.7878],[-72.16527,21.81387,0.0],[-72.1796,21.80097,0.0],[-72.1927,21.79658,0.0],[-72.21215,21.79344,0.0],[-72.23176,21.79336,0.0],[-72.24503,21.79792,0.0],[-72.30793,21.85224,0.0]]],
[[[-72.09301,21.86717,3.2343],[-72.08707,21.87275,3.1485],[-72.08703,21.88093,0.8514],[-72.08951,21.88544,2.4997],[-72.0948,21.88251,1.5645],[-72.10155,21.87165,0.0],[-72.09968,21.86457,3.8086],[-72.09301,21.86717,3.2343]]]]}
,"properties": {"ISO3166-1-Alpha-3": "TCA","country": "Turks and Caicos Islands","fill": "#F0F","name": "Providenciales and West Caicos","area_km2": 121.10443,"hist_schema_id": "Elevation0-9000","hist_area_km2": {"0": 107.57994,"25": 13.48512,"50": 0.03937}}}