{"type": "Feature","bbox": [-65.9929,18.3783,-65.8299,18.4604],"geometry": {"type": "MultiPolygon","coordinates": [[[[-65.877,18.3783,20.1692],[-65.867,18.3786,15.5729],[-65.8653,18.3806,9.7996],[-65.8598,18.3816,9.5785],[-65.8528,18.4016,2.0653],[-65.844,18.4059,2.7473],[-65.8299,18.4226,2.9267],[-65.8335,18.4304,0.5174],[-65.8368,18.4321,0.0],[-65.8437,18.4313,4.4609],[-65.8532,18.4351,2.1034],[-65.861,18.4346,3.1421],[-65.8774,18.4374,0.0],[-65.8826,18.434,1.914],[-65.899,18.4151,0.5938],[-65.8882,18.4299,2.9923],[-65.8793,18.4379,0.0],[-65.8868,18.4435,2.0519],[-65.8951,18.4471,0.0],[-65.8954,18.4496,0.0],[-65.8979,18.4518,3.5136],[-65.9071,18.4526,0.0],[-65.9071,18.4513,0.0],[-65.9046,18.4504,4.7999],[-65.9074,18.4468,8.4366],[-65.9112,18.4468,7.6353],[-65.9163,18.4443,3.414],[-65.9254,18.4446,6.4156],[-65.9587,18.4513,3.4519],[-65.9737,18.456,0.0],[-65.9779,18.4599,3.3679],[-65.9801,18.4596,3.9786],[-65.9804,18.4568,7.4599],[-65.9832,18.4565,4.8538],[-65.9904,18.4604,4.1569],[-65.9926,18.4601,7.434],[-65.9929,18.4588,0.0],[-65.9887,18.4562,2.3658],[-65.9857,18.4565,0.8588],[-65.9865,18.4543,2.7071],[-65.9902,18.4554,5.4746],[-65.9848,18.4498,0.6189],[-65.9852,18.4436,0.0],[-65.9714,18.4403,2.0541],[-65.9672,18.4327,4.7761],[-65.95,18.435,14.73],[-65.9371,18.4303,6.6986],[-65.9199,18.4112,2.0045],[-65.9191,18.401,14.6121],[-65.9096,18.4009,2.9965],[-65.8998,18.4141,0.5938],[-65.8699,18.4089,1.476],[-65.877,18.3783,20.1692]]],
[[[-65.9912,18.4571,1.1928],[-65.9918,18.4571,1.1928],[-65.9902,18.4554,5.4746],[-65.9901,18.4565,0.0],[-65.9912,18.4571,1.1928]]],
[[[-65.9919,18.4571,1.1928],[-65.9918,18.4574,1.1928],[-65.9921,18.4574,1.1928],[-65.9919,18.4571,1.1928]]]]}
,"properties": {"GID_1": "PRI.45_1","GID_0": "PRI","country": "PuertoRico","province": "Loíza","VARNAME_1": "NA","NL_NAME_1": "NA","TYPE_1": "Municipio","ENGTYPE_1": "Municipality","CC_1": "NA","HASC_1": "PR.LZ","ISO_1": "NA","name": "Loíza.province","area_km2": 52.48073,"hist_schema_id": "Elevation0-9000","hist_area_km2": {"0": 48.75942,"25": 3.64084,"50": 0.06035,"75": 0.02012}}}