{"type": "Feature","bbox": [-81.7144,22.9383,-81.4346,23.1535],"geometry": {"type": "MultiPolygon","coordinates": [[[[-81.4971,23.0437,23.8582],[-81.4985,23.0465,0.0],[-81.4982,23.041,1.8902],[-81.496,23.0379,6.5235],[-81.501,23.0418,20.1555],[-81.5026,23.0465,1.4863],[-81.5062,23.0474,0.0],[-81.5224,23.0415,10.3091],[-81.5429,23.0385,5.319],[-81.5504,23.0357,3.8337],[-81.5576,23.0349,7.1309],[-81.5682,23.0382,3.6126],[-81.5713,23.0438,1.741],[-81.5696,23.0471,0.0],[-81.5721,23.0465,3.7725],[-81.5718,23.0488,3.7917],[-81.5687,23.0496,2.303],[-81.5671,23.0529,3.339],[-81.5574,23.0551,0.0],[-81.5338,23.0682,2.3549],[-81.526,23.0796,1.1689],[-81.5249,23.0888,6.5029],[-81.5274,23.1021,0.0],[-81.5432,23.1296,0.0],[-81.5599,23.1421,0.6768],[-81.5851,23.1493,0.0],[-81.6054,23.1535,3.7018],[-81.6301,23.1507,0.0],[-81.6499,23.1526,6.2841],[-81.6535,23.1488,19.0333],[-81.6612,23.1462,1.8834],[-81.6601,23.1045,88.08],[-81.6513,23.0689,70.0511],[-81.6519,23.0544,91.3667],[-81.6558,23.0461,78.3094],[-81.661,23.0402,185.5589],[-81.6671,23.0371,167.4328],[-81.6948,23.0373,136.2077],[-81.6988,23.0334,145.6595],[-81.6981,23.0299,145.9554],[-81.6921,23.0235,147.6134],[-81.6885,23.0164,117.2469],[-81.6881,22.9976,38.2148],[-81.6923,22.9881,68.6139],[-81.6987,22.9809,49.0236],[-81.7048,22.977,49.1568],[-81.7144,22.9754,72.6613],[-81.7119,22.9728,62.6941],[-81.6977,22.9695,59.1514],[-81.6784,22.9695,55.6623],[-81.6524,22.9769,73.4703],[-81.5908,22.9779,52.0359],[-81.5682,22.9852,85.47],[-81.5536,22.9857,82.6578],[-81.53,22.9764,98.8509],[-81.4869,22.9478,86.16],[-81.4677,22.9387,78.0543],[-81.4535,22.9383,92.4883],[-81.4366,22.9461,61.9502],[-81.4346,22.9548,83.3706],[-81.4364,22.9628,86.087],[-81.4915,23.0324,25.96],[-81.4971,23.0437,23.8582]]]]}
,"properties": {"GID_2": "CUB.11.10_1","GID_0": "CUB","country": "Cuba","GID_1": "CUB.11_1","province": "Matanzas","NL_NAME_1": "NA","county": "Matanzas","VARNAME_2": "NA","NL_NAME_2": "NA","TYPE_2": "Municipio","ENGTYPE_2": "Municipality","CC_2": "NA","HASC_2": "CU.MA.MT","name": "Matanzas.county","area_km2": 327.5045,"hist_schema_id": "Elevation0-9000","hist_area_km2": {"0": 28.6768,"25": 60.3002,"50": 86.2215,"75": 82.3845,"100": 40.4067,"125": 17.3213,"150": 7.5302,"175": 3.4731,"200": 0.4097,"225": 0.0976,"250": 0.1171,"275": 0.0976,"300": 0.078,"325": 0.1951,"350": 0.0976,"375": 0.0976}}}