{"type":"Feature","properties":{"ISO3166-1-Alpha-3":"BJN","country":"Bajo Nuevo Bank (Petrel Is.)","id":"5486","name":"Bajo Nuevo Bank [Petrel Is.]"},
"geometry":{"type": "MultiPolygon","coordinates": [[[[-79.84268,15.79548,-0.2824],[-79.84927,15.79186,0.0],[-79.84488,15.78799,0.0],[-79.84268,15.79548,-0.2824]]],
[[[-79.9864,15.79442,0.0],[-79.98782,15.79621,0.0],[-79.98929,15.79495,0.0],[-79.98815,15.79418,0.0],[-79.9864,15.79442,0.0]]],
[[[-79.9829,15.79865,0.0],[-79.98428,15.79938,0.0],[-79.98375,15.79792,0.0],[-79.9829,15.79865,0.0]]],
[[[-79.77127,15.85423,0.0],[-79.77562,15.85651,0.0],[-79.77571,15.85269,0.0],[-79.77127,15.85423,0.0]]],
[[[-79.74376,15.85729,0.0],[-79.74527,15.85863,0.0],[-79.74649,15.85521,0.0],[-79.74376,15.85729,0.0]]]]}}