{"type": "Feature","id": "5011","bbox": [-78.99787,26.49191,-78.41118,26.81053],"geometry": {"type": "MultiPolygon","coordinates": [[[[-78.47081,26.76659,0.1674],[-78.47163,26.77269,0.2008],[-78.4748,26.77631,0.0],[-78.47867,26.77399,0.0],[-78.48139,26.76952,0.0],[-78.48249,26.76516,0.0346],[-78.48371,26.76427,0.1461],[-78.49153,26.77143,0.1404],[-78.49551,26.7718,0.3264],[-78.49413,26.7639,0.0],[-78.48652,26.75613,0.0],[-78.47969,26.75625,0.1411],[-78.47533,26.75739,0.1054],[-78.47248,26.7589,0.4334],[-78.47362,26.76207,0.2006],[-78.47317,26.76366,0.182],[-78.47081,26.76659,0.1674]]],
[[[-78.50341,26.57307,0.8703],[-78.41118,26.59425,0.0],[-78.44586,26.66122,2.9253],[-78.4744,26.71277,0.3215],[-78.52026,26.729,0.4658],[-78.53917,26.7392,0.0],[-78.54426,26.75703,0.0],[-78.5572,26.77855,0.0],[-78.57478,26.79829,0.0671],[-78.59382,26.81053,0.0],[-78.60155,26.76826,0.0],[-78.60741,26.75593,0.0],[-78.63467,26.72797,0.0],[-78.64159,26.71499,0.0],[-78.60001,26.7082,0.5677],[-78.57594,26.69477,0.2893],[-78.57363,26.68416,0.1467],[-78.59219,26.67305,0.1296],[-78.60443,26.65053,0.1685],[-78.61901,26.63952,0.0],[-78.62161,26.62701,0.4653],[-78.63425,26.61782,0.2392],[-78.63798,26.60973,0.0],[-78.64579,26.6051,0.0],[-78.65751,26.59859,0.12],[-78.67125,26.59292,0.5294],[-78.69172,26.57997,0.1797],[-78.71429,26.57052,0.0],[-78.73816,26.57081,0.0],[-78.77038,26.58332,0.0],[-78.78622,26.58114,0.4947],[-78.80606,26.57783,0.0],[-78.8358,26.61457,0.0],[-78.96434,26.68769,0.0],[-78.97094,26.69489,0.0],[-78.97838,26.69941,0.0],[-78.98713,26.70148,0.0],[-78.99787,26.70132,0.0],[-78.98729,26.68622,0.6235],[-78.9396,26.65079,3.0814],[-78.83456,26.55365,0.0],[-78.79109,26.5297,0.5488],[-78.76684,26.5081,0.6035],[-78.72697,26.49545,4.1969],[-78.68613,26.49191,0.0],[-78.67672,26.49613,2.3585],[-78.65577,26.49779,0.0],[-78.64644,26.50485,0.0],[-78.65669,26.52066,6.9062],[-78.63593,26.54621,4.8861],[-78.61277,26.54621,10.2589],[-78.59813,26.5314,1.5183],[-78.59008,26.5362,0.9037],[-78.57046,26.54157,0.0],[-78.54015,26.56501,2.8828],[-78.52147,26.57038,3.4824],[-78.50341,26.57307,0.8703]]]]}
,"properties": {"ISO3166-1-Alpha-3": "BHS","country": "The Bahamas","fill": "#FF0","name": "West Grand Bahama","area_km2": 581.5069,"hist_schema_id": "Elevation0-9000","hist_area_km2": {"0": 580.7859,"25": 0.7209}}}