{"type":"Feature","properties":{"GID_1":"BHS.32_1","GID_0":"BHS","country":"Bahamas","state":"WestGrandBahama","VARNAME_1":"NA","NL_NAME_1":"NA","TYPE_1":"District","ENGTYPE_1":"District","CC_1":"NA","HASC_1":"BS.WB","ISO_1":"BS-WG","name":"WestGrandBahama.state"},
"geometry":{"type": "MultiPolygon","coordinates": [[[[-78.7718,26.501,0.0],[-78.7729,26.5026,0.0],[-78.7751,26.5015,0.0],[-78.7721,26.499,0.0],[-78.7699,26.4993,0.0],[-78.7718,26.501,0.0]]],
[[[-78.776,26.5076,0.0],[-78.7787,26.509,0.0],[-78.7774,26.5065,0.0],[-78.7737,26.5049,0.0],[-78.7743,26.5071,0.0],[-78.776,26.5076,0.0]]],
[[[-78.7668,26.5793,0.0],[-78.7665,26.5807,0.0],[-78.7715,26.5779,0.0],[-78.7721,26.5735,0.5122],[-78.7735,26.5735,0.6342],[-78.7746,26.5774,0.0],[-78.7765,26.5771,0.0],[-78.7763,26.5749,0.3115],[-78.7818,26.5718,0.6789],[-78.784,26.5726,0.5639],[-78.7829,26.5754,0.3021],[-78.7843,26.5774,0.0],[-78.7885,26.5757,0.0],[-78.7876,26.5615,0.8558],[-78.786,26.5576,0.1444],[-78.7812,26.5535,0.0],[-78.7771,26.5529,0.0],[-78.779,26.5568,0.1446],[-78.7793,26.5615,0.4894],[-78.7768,26.5721,0.4855],[-78.7787,26.5571,0.3526],[-78.7763,26.5535,0.0],[-78.7704,26.5515,0.0],[-78.7701,26.5571,0.4497],[-78.7665,26.5607,0.0],[-78.769,26.5674,0.378],[-78.769,26.5696,0.3194],[-78.7663,26.5735,0.0],[-78.7668,26.5793,0.0]]],
[[[-78.8004,26.5651,0.0798],[-78.8021,26.5637,0.0],[-78.7999,26.5637,0.0],[-78.7974,26.5657,0.1031],[-78.7974,26.564,0.0],[-78.7951,26.5632,0.6499],[-78.7949,26.5621,0.6499],[-78.7993,26.5632,0.0],[-78.7993,26.5615,0.0],[-78.7965,26.5601,0.0],[-78.7937,26.5621,0.8791],[-78.789,26.5596,0.1823],[-78.7904,26.5765,0.2648],[-78.7818,26.581,0.2974],[-78.7771,26.5799,0.0],[-78.7749,26.5876,0.0],[-78.7776,26.589,0.0],[-78.7787,26.5874,0.0],[-78.7782,26.590699999999998,0.0],[-78.7793,26.591,0.0],[-78.7824,26.5904,0.0],[-78.7821,26.5838,0.0],[-78.786,26.5851,0.0],[-78.786,26.5885,0.0],[-78.7929,26.5854,0.0],[-78.7921,26.5807,0.0],[-78.7943,26.5804,0.0],[-78.7949,26.5782,0.0],[-78.791,26.5768,0.2648],[-78.7951,26.5713,0.7324],[-78.7965,26.5704,0.5665],[-78.7982,26.5718,0.0],[-78.7993,26.5682,0.3438],[-78.8001,26.5732,0.0],[-78.8026,26.574,0.0],[-78.8046,26.5721,0.0],[-78.8004,26.5651,0.0798]]],
[[[-78.7426,26.5876,0.0],[-78.7438,26.5893,0.0],[-78.7507,26.5885,0.227],[-78.7515,26.5868,0.0],[-78.7501,26.5843,0.0],[-78.756,26.5824,0.0],[-78.7557,26.5801,0.0],[-78.7574,26.5788,0.0],[-78.7618,26.5793,0.0],[-78.7643,26.5779,0.0649],[-78.7632,26.581,0.0],[-78.7646,26.581,0.0],[-78.7663,26.5779,0.1127],[-78.7657,26.5732,0.0],[-78.7682,26.5699,0.3194],[-78.7657,26.5626,0.0],[-78.7665,26.5593,0.5497],[-78.7693,26.556,1.0308],[-78.7688,26.5513,0.648],[-78.7546,26.5454,0.5387],[-78.7496,26.5412,0.3766],[-78.7468,26.5424,1.8514],[-78.7462,26.5501,0.7284],[-78.7476,26.5557,0.1148],[-78.7493,26.5585,0.4033],[-78.7529,26.5593,0.0],[-78.7585,26.5643,0.1135],[-78.7596,26.5699,0.3717],[-78.7557,26.576,0.2983],[-78.756,26.5788,0.0],[-78.7485,26.5815,0.0],[-78.7474,26.5863,0.2175],[-78.7412,26.5849,0.0865],[-78.7407,26.5868,0.1974],[-78.7426,26.5876,0.0]]],
[[[-78.7399,26.5674,0.1088],[-78.7418,26.5685,0.0],[-78.7415,26.5665,0.104],[-78.7387,26.5654,0.0],[-78.7382,26.5668,0.0],[-78.7399,26.5674,0.1088]]],
[[[-78.749,26.5765,0.129],[-78.7504,26.5785,0.097],[-78.7535,26.5776,0.0],[-78.7582,26.5696,0.3173],[-78.7582,26.5668,0.2047],[-78.7543,26.5615,0.1188],[-78.7485,26.5588,0.7557],[-78.7435,26.5657,0.0],[-78.7474,26.5707,0.1089],[-78.7504,26.5707,0.0],[-78.749,26.5765,0.129]]],
[[[-78.6918,26.5796,0.1797],[-78.6954,26.581,0.0],[-78.6968,26.5793,0.0],[-78.6935,26.5793,0.0],[-78.6949,26.5782,0.1021],[-78.694,26.5774,0.1021],[-78.6926,26.579,0.1797],[-78.6913,26.5774,0.0],[-78.6918,26.5796,0.1797]]],
[[[-78.806,26.5774,0.0],[-78.8054,26.579,0.0],[-78.8076,26.579,0.0],[-78.8076,26.5771,0.0],[-78.806,26.5774,0.0]]],
[[[-78.8026,26.5793,0.084],[-78.8035,26.5821,0.0],[-78.8049,26.5821,0.0],[-78.8046,26.5796,0.0],[-78.8026,26.5793,0.084]]],
[[[-78.8012,26.5843,0.2488],[-78.804,26.5854,0.6028],[-78.8057,26.5838,0.4017],[-78.8012,26.5835,0.336],[-78.8021,26.5799,0.0731],[-78.8004,26.5804,0.0731],[-78.7979,26.5785,0.0],[-78.7954,26.5793,0.0],[-78.7949,26.5807,0.0],[-78.7988,26.5815,0.6312],[-78.8012,26.5843,0.2488]]],
[[[-78.7965,26.5876,0.0],[-78.7957,26.5874,0.0],[-78.7949,26.5904,0.0],[-78.796,26.5904,0.0],[-78.7965,26.5876,0.0]]],
[[[-78.686,26.5785,0.0],[-78.6854,26.5804,0.3136],[-78.6868,26.5807,0.0],[-78.6874,26.5779,0.0],[-78.686,26.5785,0.0]]],
[[[-78.7393,26.5821,0.108],[-78.7415,26.5829,0.2264],[-78.7435,26.5788,0.2059],[-78.7407,26.5799,0.1987],[-78.7393,26.5821,0.108]]],
[[[-78.679,26.5821,0.0],[-78.6807,26.5835,0.0],[-78.6824,26.5804,0.0],[-78.681,26.5807,0.0],[-78.6813,26.5821,0.0],[-78.679,26.5821,0.0]]],
[[[-78.6888,26.589,0.0],[-78.6896,26.5924,0.0],[-78.6913,26.5924,0.0],[-78.6974,26.5885,0.0],[-78.701,26.5826,0.0],[-78.7012,26.5785,0.1034],[-78.699,26.5774,0.0],[-78.6988,26.5821,0.3166],[-78.6949,26.5826,0.1859],[-78.6924,26.586,0.0],[-78.6935,26.5863,0.0],[-78.696,26.584,0.231],[-78.6965,26.5868,0.1649],[-78.6904,26.5904,0.3716],[-78.691,26.5868,0.1579],[-78.689,26.5865,0.0],[-78.6888,26.589,0.0]]],
[[[-78.8154,26.5718,0.3217],[-78.816,26.574,0.0],[-78.819,26.5735,0.0],[-78.8171,26.5707,0.0],[-78.8154,26.5718,0.3217]]],
[[[-78.8051,26.574,0.0989],[-78.8049,26.5768,0.1088],[-78.8104,26.5754,0.359],[-78.8099,26.5724,0.1474],[-78.8051,26.574,0.0989]]],
[[[-78.8168,26.5757,0.6161],[-78.8176,26.5776,0.0],[-78.8204,26.576,0.1257],[-78.8174,26.5743,0.0942],[-78.8168,26.5757,0.6161]]],
[[[-78.809,26.5821,0.2256],[-78.8099,26.5846,0.1363],[-78.8085,26.5863,0.2215],[-78.8118,26.586,0.2321],[-78.8126,26.581,0.1762],[-78.8093,26.5807,0.3223],[-78.809,26.5821,0.2256]]],
[[[-78.8657,26.5771,0.0],[-78.8676,26.5788,0.0],[-78.8671,26.576,0.0],[-78.8654,26.5757,0.0],[-78.8657,26.5771,0.0]]],
[[[-78.8335,26.6026,0.1852],[-78.834,26.6063,0.0],[-78.8349,26.6063,0.0],[-78.8357,26.6026,0.0],[-78.8335,26.6026,0.1852]]],
[[[-78.8568,26.616,0.0],[-78.8565,26.6176,0.0],[-78.8599,26.6176,0.0],[-78.8593,26.6157,0.0],[-78.8568,26.616,0.0]]],
[[[-78.8412,26.6196,0.0],[-78.8407,26.6218,0.0],[-78.8415,26.6224,0.0],[-78.8429,26.6193,0.0],[-78.8412,26.6196,0.0]]],
[[[-78.8121,26.5879,0.0],[-78.8118,26.5899,0.0],[-78.8138,26.5915,0.0],[-78.814,26.5888,0.0609],[-78.8121,26.5879,0.0]]],
[[[-78.8135,26.5985,0.0],[-78.816,26.5999,0.0],[-78.8174,26.5993,0.0915],[-78.8149,26.5974,0.0],[-78.8135,26.5985,0.0]]],
[[[-78.8099,26.6026,0.0],[-78.8099,26.604,0.0],[-78.8126,26.6049,0.0],[-78.8124,26.5982,0.0],[-78.8107,26.5987,0.0],[-78.8107,26.601,0.1503],[-78.8082,26.6007,0.0],[-78.8099,26.6026,0.0]]],
[[[-78.8179,26.6104,0.2987],[-78.8179,26.6124,0.0],[-78.8196,26.6126,0.0],[-78.819,26.6087,0.0],[-78.8157,26.6074,0.0],[-78.8163,26.6093,0.0],[-78.8179,26.6104,0.2987]]],
[[[-78.8165,26.6124,0.0],[-78.8149,26.6104,0.0],[-78.8143,26.6138,0.0],[-78.8157,26.6135,0.0],[-78.8165,26.6124,0.0]]],
[[[-78.8238,26.616,0.0],[-78.8268,26.6168,0.0],[-78.8274,26.6154,0.0],[-78.8229,26.6132,0.0],[-78.8213,26.6146,0.0],[-78.8179,26.6138,0.0],[-78.8182,26.6154,0.0],[-78.8238,26.616,0.0]]],
[[[-78.8046,26.6174,0.0],[-78.8104,26.6185,0.1311],[-78.8112,26.6154,0.0],[-78.8068,26.6168,0.0],[-78.8063,26.6143,0.3334],[-78.8032,26.6138,0.0],[-78.8021,26.6171,0.0],[-78.8046,26.6174,0.0]]],
[[[-78.8304,26.6229,0.1009],[-78.8337,26.6235,0.0],[-78.8276,26.619,0.2512],[-78.8279,26.6212,0.1302],[-78.8304,26.6229,0.1009]]],
[[[-78.8138,26.6246,0.0],[-78.816,26.6262,0.0],[-78.8193,26.624,0.0],[-78.8179,26.6196,0.131],[-78.8154,26.6201,0.1278],[-78.8138,26.6246,0.0]]],
[[[-78.8204,26.6276,0.0],[-78.8224,26.6285,0.3084],[-78.8218,26.6257,0.4251],[-78.8179,26.6262,0.114],[-78.8199,26.6268,0.0905],[-78.8204,26.6276,0.0]]],
[[[-78.8099,26.631,0.1001],[-78.8124,26.6321,0.0],[-78.8135,26.6296,0.2466],[-78.8124,26.6279,0.0993],[-78.8096,26.6285,0.1054],[-78.8104,26.6257,0.2064],[-78.8093,26.6276,0.1054],[-78.8071,26.6279,0.2584],[-78.8099,26.631,0.1001]]],
[[[-78.8226,26.6301,0.0],[-78.8221,26.6329,0.0],[-78.8238,26.6332,0.0],[-78.824,26.6304,0.0],[-78.8226,26.6301,0.0]]],
[[[-78.8457,26.6257,0.1095],[-78.8482,26.6265,0.1301],[-78.846,26.6224,0.1125],[-78.8437,26.6221,0.3647],[-78.844,26.6249,0.2932],[-78.8457,26.6257,0.1095]]],
[[[-78.8468,26.6346,0.0],[-78.8468,26.6368,0.0],[-78.8496,26.6368,0.1948],[-78.8496,26.6349,0.2078],[-78.8468,26.6346,0.0]]],
[[[-78.8515,26.6371,0.0],[-78.8532,26.6382,0.1771],[-78.854,26.6363,0.0],[-78.8512,26.6351,0.0],[-78.8504,26.6365,0.368],[-78.8515,26.6371,0.0]]],
[[[-78.8826,26.646,0.1096],[-78.8824,26.6471,0.0],[-78.8843,26.6465,0.1096],[-78.8832,26.6424,0.0],[-78.8812,26.6449,0.0],[-78.8826,26.646,0.1096]]],
[[[-78.8207,26.6396,0.0],[-78.8201,26.6413,0.0],[-78.8224,26.6413,0.0],[-78.8238,26.6346,0.0],[-78.8182,26.6307,0.1367],[-78.8187,26.634,0.186],[-78.821,26.6357,0.2053],[-78.8207,26.6396,0.0]]],
[[[-78.8154,26.6465,0.5627],[-78.8163,26.6482,0.1609],[-78.8185,26.6474,0.1482],[-78.8163,26.6404,0.4967],[-78.8199,26.6376,0.1436],[-78.8199,26.636,0.0752],[-78.8171,26.6332,0.0792],[-78.8135,26.6326,0.099],[-78.8126,26.6343,0.1661],[-78.8146,26.6368,0.0],[-78.8129,26.6382,0.0854],[-78.8126,26.6432,0.3767],[-78.8154,26.6465,0.5627]]],
[[[-78.8335,26.6482,0.5123],[-78.8349,26.6513,0.1236],[-78.8368,26.6479,0.1516],[-78.8368,26.6426,0.2747],[-78.8349,26.6371,0.3935],[-78.831,26.6396,0.0],[-78.831,26.6426,0.1352],[-78.8288,26.6437,0.0],[-78.8335,26.6482,0.5123]]],
[[[-78.8476,26.6465,0.0],[-78.8479,26.6482,0.0],[-78.8515,26.6471,0.0],[-78.8507,26.6457,0.0],[-78.8476,26.6465,0.0]]],
[[[-78.844,26.6485,0.3906],[-78.8451,26.6518,0.1564],[-78.8446,26.644,0.1408],[-78.8432,26.6465,0.0886],[-78.844,26.6485,0.3906]]],
[[[-78.8874,26.6487,0.2656],[-78.8885,26.6504,0.0554],[-78.8893,26.6479,0.0],[-78.8874,26.6474,0.2656],[-78.8874,26.6487,0.2656]]],
[[[-78.8732,26.6546,0.0769],[-78.8757,26.656,0.0],[-78.8754,26.6537,0.2338],[-78.8768,26.6549,0.0],[-78.8779,26.653199999999998,0.1406],[-78.8763,26.6485,0.255],[-78.8715,26.6449,0.0],[-78.8704,26.6485,0.0],[-78.8732,26.6479,0.0512],[-78.8724,26.6496,0.0634],[-78.874,26.6496,0.0634],[-78.8754,26.6521,0.2338],[-78.8715,26.6529,0.0986],[-78.8732,26.6546,0.0769]]],
[[[-78.789,26.5893,0.0],[-78.7882,26.591,0.0],[-78.7907,26.591,0.0],[-78.7915,26.5876,0.0],[-78.7901,26.5876,0.0],[-78.789,26.5893,0.0]]],
[[[-78.7985,26.5932,0.2627],[-78.8007,26.5954,0.0],[-78.8018,26.5912,0.0839],[-78.7982,26.5896,0.0],[-78.7985,26.5932,0.2627]]],
[[[-78.7854,26.594,0.0],[-78.7887,26.5949,0.0],[-78.7893,26.5937,0.0],[-78.7879,26.5929,0.0],[-78.7849,26.5937,0.0],[-78.7854,26.594,0.0]]],
[[[-78.8032,26.5943,0.0],[-78.8035,26.5963,0.0],[-78.8085,26.5965,0.0],[-78.8085,26.5932,0.0],[-78.8043,26.5924,0.0],[-78.8032,26.5943,0.0]]],
[[[-78.7924,26.5951,0.0],[-78.7887,26.5949,0.0],[-78.7868,26.5968,0.0],[-78.7943,26.5974,0.0],[-78.7951,26.594,0.0],[-78.794,26.5929,0.0],[-78.7907,26.5937,0.0],[-78.7918,26.5946,0.0],[-78.7924,26.5937,0.0],[-78.7924,26.5951,0.0]]],
[[[-78.8032,26.6068,0.0],[-78.8051,26.6085,0.3666],[-78.8121,26.6071,0.0],[-78.811,26.6051,0.0],[-78.8065,26.6063,0.0],[-78.806,26.6029,0.0],[-78.8037,26.6035,0.1254],[-78.8032,26.6013,0.2552],[-78.8068,26.5999,0.0],[-78.8065,26.5974,0.0],[-78.7993,26.5976,0.0],[-78.7985,26.6001,0.1025],[-78.7962,26.6001,0.0],[-78.7974,26.5982,0.0],[-78.7954,26.5976,0.0],[-78.7935,26.5993,0.0],[-78.7887,26.599,0.0],[-78.791,26.6043,0.0],[-78.796,26.6013,0.0],[-78.7954,26.6063,0.0],[-78.7974,26.6065,0.0],[-78.7985,26.6043,0.0],[-78.8001,26.6068,0.0],[-78.8032,26.6068,0.0]]],
[[[-78.7976,26.6132,0.0],[-78.7974,26.6143,0.0],[-78.8001,26.6154,0.0],[-78.8021,26.614,0.0824],[-78.8004,26.6104,0.0],[-78.7965,26.6115,0.0],[-78.7976,26.6132,0.0]]],
[[[-78.7799,26.6138,0.0],[-78.7793,26.616,0.0],[-78.7812,26.6165,0.0],[-78.7832,26.6121,0.0],[-78.7807,26.6126,0.0],[-78.7799,26.6138,0.0]]],
[[[-78.7887,26.6201,0.0],[-78.7915,26.6212,0.0],[-78.7926,26.6196,0.0],[-78.789,26.6193,0.0],[-78.7887,26.6201,0.0]]],
[[[-78.8065,26.6249,0.0],[-78.804,26.6254,0.0],[-78.804,26.6268,0.0],[-78.8079,26.6268,0.1272],[-78.8085,26.6249,0.0],[-78.8065,26.6249,0.0]]],
[[[-78.8032,26.6515,0.3213],[-78.8054,26.6524,0.0],[-78.8029,26.6479,0.5082],[-78.8035,26.6424,0.4769],[-78.806,26.6446,0.0],[-78.809,26.6437,0.0],[-78.8085,26.6471,0.0],[-78.8099,26.6471,0.0],[-78.8107,26.6429,0.0],[-78.8071,26.6407,0.3899],[-78.8074,26.6349,0.0],[-78.8026,26.6357,0.229],[-78.8004,26.6301,0.0],[-78.7962,26.6301,0.2944],[-78.8001,26.6285,0.471],[-78.7999,26.6265,0.2629],[-78.7968,26.626,0.3552],[-78.7937,26.6301,0.0],[-78.7985,26.6321,0.9218],[-78.7996,26.6346,0.3749],[-78.7962,26.6393,-0.5],[-78.7962,26.6449,0.3042],[-78.8032,26.6515,0.3213]]],
[[[-78.7193,26.5882,0.0],[-78.7218,26.589,0.0],[-78.7229,26.5851,0.3834],[-78.7257,26.5835,0.2117],[-78.7207,26.5826,0.3265],[-78.7174,26.586,0.0],[-78.7193,26.5882,0.0]]],
[[[-78.6654,26.6004,0.2985],[-78.6651,26.6013,0.0],[-78.6679,26.6021,0.0],[-78.6668,26.6001,0.2829],[-78.6654,26.6004,0.2985]]],
[[[-78.6618,26.6196,0.0],[-78.6635,26.6224,0.0],[-78.6699,26.6188,0.0],[-78.6732,26.6085,0.0],[-78.6715,26.6051,0.0],[-78.664,26.6051,0.0],[-78.6626,26.6076,0.2666],[-78.6643,26.6113,0.3626],[-78.6624,26.6113,0.3626],[-78.6621,26.6138,0.5632],[-78.6601,26.6074,0.0444],[-78.6576,26.6085,0.0],[-78.6557,26.6065,0.5504],[-78.6554,26.6013,0.3251],[-78.6515,26.6013,0.1896],[-78.6501,26.6093,0.1119],[-78.6554,26.6118,0.0],[-78.6582,26.6115,0.3875],[-78.6593,26.6174,0.0],[-78.6618,26.6196,0.0]]],
[[[-78.6113,26.5425,8.8262],[-78.5907,26.5355,3.4506],[-78.5818,26.5407,2.5599],[-78.5679,26.5424,1.6063],[-78.5601,26.5462,3.5643],[-78.5579,26.546,1.0169],[-78.5568,26.5404,0.0],[-78.5546,26.5401,0.0],[-78.5554,26.5479,8.6481],[-78.5501,26.5513,1.409],[-78.5451,26.5518,0.0],[-78.5437,26.5549,3.9888],[-78.541,26.5563,2.8009],[-78.5279,26.5607,0.8657],[-78.5215,26.5607,0.0],[-78.5101,26.5657,1.41],[-78.5065,26.5649,0.0],[-78.5021,26.5679,1.1937],[-78.4971,26.5663,0.0],[-78.4935,26.5699,0.0],[-78.4818,26.5746,1.0219],[-78.4668,26.5835,0.0],[-78.4512,26.5874,1.2204],[-78.4374,26.5946,0.0],[-78.4221,26.5954,0.0],[-78.4013,26.601,0.8549],[-78.4099,26.6085,5.6374],[-78.4384,26.6467,1.7695],[-78.4447,26.6586,1.3209],[-78.4537,26.687,0.7494],[-78.4566,26.7026,0.4925],[-78.4557,26.7165,0.1236],[-78.4579,26.7185,0.0738],[-78.4607,26.7185,0.129],[-78.4604,26.7124,0.2274],[-78.4674,26.7104,0.3374],[-78.4685,26.7126,0.0907],[-78.4624,26.7154,0.0],[-78.4624,26.7168,0.0],[-78.4654,26.7179,0.0512],[-78.4685,26.7151,0.162],[-78.4687,26.7176,0.0],[-78.4704,26.7176,0.0807],[-78.4662,26.7235,0.0],[-78.4676,26.7237,0.1345],[-78.4685,26.7282,0.0],[-78.4704,26.7299,0.0],[-78.4726,26.729,0.1101],[-78.4713,26.7254,0.0875],[-78.4737,26.7237,0.204],[-78.4757,26.7249,0.17],[-78.4751,26.7268,0.0],[-78.4768,26.7268,0.1265],[-78.4812,26.7257,0.0],[-78.4837,26.7229,0.0708],[-78.484,26.7171,0.0],[-78.4788,26.7199,0.2286],[-78.4799,26.7163,0.2515],[-78.4893,26.7151,0.3175],[-78.4899,26.7201,0.0615],[-78.4951,26.7176,0.1299],[-78.499,26.7196,0.1898],[-78.499,26.721,0.2191],[-78.4915,26.7237,0.0],[-78.4837,26.7232,0.0708],[-78.4835,26.7257,0.3303],[-78.4774,26.7274,0.2293],[-78.4757,26.7293,0.0779],[-78.4762,26.731,0.0941],[-78.4729,26.7315,0.0],[-78.4735,26.7332,0.124],[-78.4779,26.7318,0.1365],[-78.4776,26.7363,0.0507],[-78.4799,26.7368,0.113],[-78.4785,26.7376,0.0],[-78.4793,26.7401,0.1872],[-78.481,26.7401,0.1872],[-78.4807,26.7371,0.3609],[-78.4835,26.7382,0.0],[-78.494,26.734,0.0],[-78.4935,26.7315,0.342],[-78.4949,26.7304,4.8356],[-78.4962,26.7307,0.0709],[-78.4971,26.7343,0.0],[-78.4993,26.734,0.0],[-78.4999,26.7324,0.1661],[-78.5007,26.7349,0.0422],[-78.504,26.7351,0.0287],[-78.5076,26.7282,0.3507],[-78.5129,26.7257,0.0],[-78.5129,26.7237,0.2386],[-78.5179,26.7224,0.0732],[-78.5179,26.7235,0.0732],[-78.5143,26.724,0.0],[-78.5146,26.7254,0.0],[-78.5232,26.7249,0.0696],[-78.5268,26.7213,0.0],[-78.5271,26.7174,0.0],[-78.5312,26.7224,0.0],[-78.5357,26.7215,0.1696],[-78.5343,26.7243,0.0],[-78.5382,26.7237,0.0744],[-78.5387,26.7213,0.0858],[-78.5407,26.7249,0.0],[-78.541,26.7299,0.0971],[-78.5449,26.7257,0.0],[-78.5443,26.7215,0.1821],[-78.5474,26.7207,0.0841],[-78.5507,26.7229,0.0],[-78.5496,26.7243,0.0807],[-78.5451,26.7221,0.2642],[-78.5474,26.7257,0.2705],[-78.5468,26.7287,0.0],[-78.5493,26.7296,0.2423],[-78.5488,26.7332,0.0],[-78.5465,26.736,0.0],[-78.5457,26.7412,0.2063],[-78.5432,26.7418,0.0],[-78.5382,26.7488,0.0],[-78.5385,26.751,0.0],[-78.5429,26.7496,0.0696],[-78.5443,26.7515,0.0361],[-78.5474,26.7438,0.0],[-78.5493,26.7435,0.2046],[-78.5504,26.7451,0.0],[-78.5474,26.7493,0.0],[-78.5476,26.7518,0.0],[-78.5496,26.7532,0.1447],[-78.5443,26.7576,0.101],[-78.5404,26.7687,0.0],[-78.5415,26.7687,0.0],[-78.5432,26.7638,0.0],[-78.5449,26.7629,0.1013],[-78.5449,26.7607,0.1804],[-78.5496,26.7571,0.0],[-78.551,26.7618,0.0],[-78.556,26.7604,0.0484],[-78.5507,26.7668,0.0],[-78.5537,26.7674,0.2875],[-78.5537,26.7729,0.0],[-78.5568,26.7718,0.1067],[-78.5576,26.7757,0.0],[-78.5629,26.776,0.5044],[-78.5529,26.784,0.169],[-78.5501,26.7938,0.0],[-78.5557,26.7857,0.0],[-78.5632,26.7857,0.0],[-78.5612,26.7907,0.0],[-78.5624,26.7949,0.0],[-78.5643,26.7932,0.2972],[-78.5657,26.7949,0.5249],[-78.5654,26.799,0.0],[-78.569,26.7963,0.2576],[-78.5701,26.7982,0.3438],[-78.576,26.799,0.0],[-78.5732,26.7965,0.3331],[-78.574,26.7924,0.0],[-78.5762,26.7924,0.0],[-78.5801,26.7876,0.0531],[-78.5846,26.7893,0.0],[-78.5843,26.7849,0.0],[-78.5876,26.7843,0.0],[-78.5862,26.7818,0.4509],[-78.5879,26.7793,0.0885],[-78.5899,26.7804,0.0],[-78.5888,26.7776,0.0607],[-78.5937,26.7779,0.0],[-78.5912,26.7732,0.1562],[-78.5968,26.774,0.0],[-78.5963,26.7721,0.0812],[-78.5912,26.769,0.2538],[-78.5921,26.7668,0.3793],[-78.5957,26.7649,0.0],[-78.5924,26.7629,0.4151],[-78.5924,26.7604,0.4418],[-78.5954,26.7596,0.0],[-78.596,26.7576,0.0],[-78.594,26.7554,0.4511],[-78.5946,26.7504,0.0],[-78.5963,26.7496,0.0],[-78.5951,26.7474,0.0],[-78.5982,26.7457,0.0],[-78.6026,26.7479,0.0],[-78.6035,26.7471,0.0],[-78.5999,26.7449,0.0],[-78.5899,26.7438,0.1732],[-78.5901,26.741,0.235],[-78.5924,26.7399,0.2776],[-78.5899,26.7357,0.1997],[-78.5824,26.7393,0.0715],[-78.5818,26.7374,0.2594],[-78.5854,26.7357,0.3107],[-78.5815,26.7343,0.0],[-78.5762,26.7388,0.2707],[-78.5743,26.7385,0.0],[-78.5743,26.7365,0.4442],[-78.581,26.7329,0.0],[-78.5804,26.7315,0.0],[-78.5751,26.7324,0.3585],[-78.5757,26.7301,0.0],[-78.5735,26.7296,0.1744],[-78.5735,26.7257,0.3477],[-78.576,26.7251,0.0664],[-78.5774,26.7221,0.2498],[-78.5813,26.7199,0.1369],[-78.5829,26.7235,0.2385],[-78.5893,26.7243,0.1323],[-78.5874,26.7274,0.2207],[-78.5899,26.7304,0.1401],[-78.5832,26.7287,0.0],[-78.5868,26.7301,0.0951],[-78.5879,26.7335,0.134],[-78.594,26.7329,0.3069],[-78.5921,26.7346,0.0],[-78.5946,26.7363,0.0],[-78.5979,26.7326,0.1119],[-78.6012,26.7324,0.0],[-78.6065,26.7365,0.1454],[-78.6104,26.734,0.0],[-78.6207,26.7351,0.0],[-78.6168,26.7329,0.1458],[-78.6104,26.7332,0.2898],[-78.6026,26.731,0.6835],[-78.6054,26.7282,0.277],[-78.614,26.7265,0.0],[-78.6162,26.7196,0.2492],[-78.6199,26.7224,0.0],[-78.6226,26.7215,0.0],[-78.624,26.719,0.0],[-78.6296,26.7226,0.0],[-78.6332,26.7218,0.0],[-78.6324,26.7179,0.0],[-78.6246,26.7179,0.5505],[-78.6274,26.7107,0.0],[-78.6232,26.7129,0.1015],[-78.6226,26.7154,0.2254],[-78.6207,26.7151,0.3454],[-78.6204,26.7121,0.1939],[-78.6174,26.714,0.1648],[-78.6176,26.716,0.1116],[-78.614,26.7165,0.1426],[-78.6082,26.7229,0.1593],[-78.6038,26.7204,0.0],[-78.6007,26.7232,0.0873],[-78.5996,26.7268,0.2114],[-78.5954,26.7282,0.073],[-78.5935,26.7315,0.1113],[-78.5932,26.7276,0.0],[-78.5974,26.726,0.0],[-78.5968,26.7213,0.0],[-78.5982,26.7179,0.1049],[-78.5963,26.7174,0.3167],[-78.596,26.7151,0.266],[-78.5996,26.7135,0.0],[-78.5987,26.711,0.0],[-78.6004,26.7107,0.0],[-78.6018,26.7076,0.0],[-78.5999,26.7035,0.1871],[-78.6026,26.6999,0.4022],[-78.6024,26.6976,0.1115],[-78.5971,26.7051,0.2348],[-78.5971,26.7076,-0.0046],[-78.5912,26.7129,0.1141],[-78.5862,26.7143,0.0],[-78.5843,26.7176,0.3349],[-78.5815,26.7176,0.0907],[-78.5815,26.7151,0.0],[-78.5793,26.7143,0.0],[-78.5813,26.7113,0.0],[-78.5776,26.7096,0.2725],[-78.5807,26.7088,0.0],[-78.5821,26.7062,0.0],[-78.5785,26.7051,0.0],[-78.5735,26.7096,0.0],[-78.5676,26.711,0.2636],[-78.5674,26.7093,0.1556],[-78.5729,26.7057,0.0],[-78.5715,26.7049,0.0374],[-78.5724,26.7035,0.294],[-78.5768,26.7049,0.0452],[-78.5779,26.7012,0.2344],[-78.5804,26.6999,0.0],[-78.5829,26.7015,0.0],[-78.5826,26.6993,0.0],[-78.5768,26.6965,0.0826],[-78.5796,26.6929,0.0],[-78.5843,26.6915,0.0],[-78.5846,26.6901,0.0],[-78.5824,26.6901,0.0],[-78.5821,26.6885,0.2022],[-78.5857,26.689,0.0],[-78.5862,26.6907,0.0],[-78.591,26.6893,0.0],[-78.5888,26.6846,0.0],[-78.5799,26.6868,0.0],[-78.5785,26.6887,0.133],[-78.5762,26.6887,0.0],[-78.5735,26.686,0.1256],[-78.5738,26.684,0.1467],[-78.5762,26.6832,0.1333],[-78.5882,26.6843,0.0],[-78.5882,26.6824,0.0],[-78.5857,26.6813,0.0028],[-78.5899,26.6771,0.0],[-78.5965,26.6751,0.0569],[-78.5946,26.6729,0.0],[-78.5904,26.6724,0.1296],[-78.5899,26.671,0.0688],[-78.5915,26.6701,0.0],[-78.5871,26.6701,0.0],[-78.5865,26.6671,0.0],[-78.5912,26.6654,0.0],[-78.5885,26.6629,0.0],[-78.5904,26.6621,0.0],[-78.5918,26.6643,0.0],[-78.5968,26.6646,0.0],[-78.5987,26.6621,0.0],[-78.6035,26.661,0.0919],[-78.6046,26.6563,0.3152],[-78.6121,26.6482,0.1826],[-78.614,26.6421,0.0],[-78.6185,26.6388,0.0],[-78.6185,26.636,0.1433],[-78.621,26.6354,0.4201],[-78.6218,26.6279,0.0],[-78.6274,26.6257,0.0],[-78.6282,26.6221,0.0],[-78.631,26.6215,0.0],[-78.629,26.6199,0.5038],[-78.6296,26.6182,0.3103],[-78.6357,26.6182,0.0],[-78.6368,26.6168,0.1145],[-78.6312,26.6087,0.0],[-78.6379,26.6065,0.1313],[-78.6379,26.604,0.1487],[-78.6407,26.6035,0.0],[-78.6379,26.5987,0.0],[-78.641,26.5987,0.0],[-78.6429,26.5954,0.0],[-78.6468,26.5951,0.0],[-78.6485,26.5965,0.0],[-78.6493,26.5943,0.0],[-78.6515,26.5979,0.0],[-78.6568,26.5982,0.12],[-78.6585,26.6043,0.0],[-78.6604,26.6049,0.0],[-78.6615,26.6026,0.0],[-78.6604,26.6001,0.0],[-78.6707,26.5993,0.0],[-78.6726,26.5974,0.0],[-78.6726,26.5949,0.6095],[-78.676,26.5954,0.0],[-78.6768,26.5882,0.0],[-78.6793,26.5854,0.0],[-78.6779,26.5849,0.1639],[-78.6782,26.5824,0.0],[-78.6757,26.5815,0.0],[-78.6751,26.5763,0.0],[-78.6813,26.5696,0.0],[-78.6924,26.5721,0.268],[-78.6915,26.5687,0.2539],[-78.6937,26.5685,0.1738],[-78.6935,26.566,0.4129],[-78.6957,26.566,0.4342],[-78.696,26.5682,0.2814],[-78.6996,26.5679,1.5842],[-78.7049,26.5746,0.0],[-78.711,26.5774,0.0],[-78.7104,26.5746,0.0],[-78.7071,26.5726,0.6186],[-78.7071,26.5654,1.6939],[-78.7087,26.5646,0.5601],[-78.7124,26.5665,0.9141],[-78.7143,26.5701,0.2804],[-78.7185,26.5718,0.5796],[-78.7199,26.5746,0.0],[-78.7226,26.5699,0.0],[-78.7207,26.5657,0.0],[-78.7221,26.5637,0.0],[-78.7207,26.5607,0.0],[-78.7221,26.5624,0.0],[-78.7262,26.5615,0.5404],[-78.7276,26.5637,0.3815],[-78.7337,26.5618,0.5765],[-78.7337,26.5651,0.0],[-78.741,26.5632,0.1591],[-78.7415,26.561,0.2268],[-78.7438,26.5615,0.7949],[-78.7462,26.5585,0.4863],[-78.744,26.5535,2.1262],[-78.7446,26.5388,0.4246],[-78.739,26.549,2.2822],[-78.7351,26.5529,1.7821],[-78.7349,26.5582,1.9289],[-78.7332,26.5563,1.1813],[-78.7346,26.5529,1.7821],[-78.7315,26.5524,0.8891],[-78.7304,26.5551,2.4572],[-78.7285,26.5535,0.6741],[-78.7262,26.5551,1.8254],[-78.7249,26.5513,1.9105],[-78.7262,26.551,2.0884],[-78.7274,26.5535,1.5201],[-78.7357,26.5499,0.5645],[-78.7457,26.5335,0.0],[-78.756,26.5435,0.3679],[-78.7629,26.5449,0.1943],[-78.7637,26.5426,0.8547],[-78.7663,26.5426,1.6408],[-78.7643,26.5454,0.3693],[-78.7724,26.5499,0.3135],[-78.7835,26.5479,0.2857],[-78.7857,26.549,0.0],[-78.7846,26.5474,0.0],[-78.7868,26.546,0.9931],[-78.7932,26.5468,2.8621],[-78.7935,26.5482,0.274],[-78.7879,26.5482,0.1418],[-78.7849,26.5515,0.2658],[-78.781,26.5513,0.0],[-78.7865,26.5529,0.2643],[-78.7871,26.5543,0.143],[-78.7854,26.5549,0.0],[-78.7926,26.5604,0.6318],[-78.7935,26.5576,0.333],[-78.7915,26.5551,0.4116],[-78.7982,26.5537,0.7251],[-78.8029,26.5563,0.3807],[-78.8057,26.5585,0.1057],[-78.8026,26.5607,0.1078],[-78.8035,26.5624,0.0],[-78.8021,26.5635,0.0],[-78.8029,26.5637,0.0],[-78.8046,26.5632,0.1229],[-78.8049,26.5621,0.1229],[-78.8063,26.5624,0.1229],[-78.8049,26.5632,0.1229],[-78.8051,26.5679,0.0],[-78.8071,26.5646,0.4119],[-78.8079,26.5679,0.2281],[-78.8126,26.5693,0.0],[-78.8115,26.5649,0.2732],[-78.8143,26.5635,0.4492],[-78.8171,26.5651,0.4047],[-78.819,26.5696,0.342],[-78.8215,26.5696,0.1322],[-78.8224,26.5665,0.2456],[-78.8187,26.5663,0.183],[-78.8182,26.5646,0.4047],[-78.8215,26.5635,0.5848],[-78.8215,26.5657,0.2456],[-78.8251,26.5651,1.2892],[-78.829,26.5699,0.0],[-78.8324,26.5707,0.681],[-78.834,26.5726,0.5168],[-78.8337,26.5768,0.588],[-78.8301,26.5774,0.289],[-78.8318,26.5743,0.0],[-78.8307,26.5726,0.564],[-78.8276,26.5718,0.0],[-78.8254,26.5732,0.2042],[-78.8221,26.5701,0.1322],[-78.8213,26.5751,0.0],[-78.8235,26.5779,0.4012],[-78.8174,26.579,0.2049],[-78.8224,26.5799,0.0908],[-78.8246,26.5788,0.3926],[-78.8249,26.5821,0.3167],[-78.8235,26.5829,0.3167],[-78.8207,26.5807,0.201],[-78.8182,26.5821,0.0806],[-78.8187,26.5849,0.0],[-78.814,26.5843,0.0],[-78.8126,26.5857,0.2223],[-78.8165,26.5901,0.0804],[-78.819,26.5893,0.3176],[-78.8179,26.5929,0.071],[-78.8243,26.5921,0.2573],[-78.8232,26.594,0.6027],[-78.8213,26.5935,0.0],[-78.8229,26.5985,0.6279],[-78.8157,26.6018,0.3876],[-78.8179,26.6026,0.2035],[-78.821,26.6018,0.43],[-78.8193,26.6068,0.0],[-78.8226,26.6051,0.0],[-78.8201,26.609,0.0],[-78.829,26.6082,0.0],[-78.829,26.6101,0.0],[-78.831,26.6113,0.0],[-78.8357,26.6093,0.0],[-78.8346,26.6074,0.0],[-78.8304,26.6071,0.0],[-78.8299,26.6057,0.0],[-78.8326,26.6007,0.0],[-78.8318,26.5957,0.0],[-78.8332,26.5951,0.5156],[-78.8346,26.599,0.0],[-78.839,26.5965,0.6524],[-78.8432,26.5999,0.117],[-78.8424,26.6021,0.3827],[-78.839,26.6032,0.0],[-78.846,26.6057,0.1638],[-78.8449,26.6099,0.1343],[-78.8496,26.6093,0.1598],[-78.8482,26.6107,0.0],[-78.8493,26.614,0.0],[-78.8512,26.6132,0.0652],[-78.8504,26.6104,0.4672],[-78.8543,26.6124,0.0],[-78.8557,26.6107,0.2168],[-78.8571,26.6124,0.0],[-78.8593,26.6115,0.5178],[-78.8621,26.6176,0.3265],[-78.8688,26.6251,1.0409],[-78.8674,26.6285,0.1147],[-78.8704,26.629,0.5689],[-78.8707,26.6324,0.1696],[-78.8732,26.6338,0.0],[-78.8732,26.6351,0.0],[-78.8712,26.6343,0.1277],[-78.8718,26.639,0.2545],[-78.8688,26.6415,0.2526],[-78.8699,26.6446,0.0],[-78.8793,26.6432,0.0],[-78.874,26.6365,0.3875],[-78.8821,26.6401,0.2687],[-78.8821,26.6418,0.0],[-78.884,26.6407,0.0833],[-78.8874,26.6457,0.0],[-78.8935,26.6404,0.3997],[-78.8926,26.6457,0.0],[-78.8943,26.6463,0.8752],[-78.8957,26.6524,0.2327],[-78.8999,26.6543,0.0955],[-78.9046,26.6607,0.4033],[-78.9029,26.6643,0.0326],[-78.9065,26.6663,0.0973],[-78.9062,26.6699,0.1812],[-78.9143,26.6682,1.0926],[-78.916,26.6701,0.9645],[-78.9165,26.674,1.0716],[-78.9135,26.6776,0.6854],[-78.9135,26.6818,0.5793],[-78.9196,26.6821,0.7835],[-78.9254,26.6893,0.0],[-78.9315,26.6865,0.5963],[-78.9374,26.6863,0.3868],[-78.9262,26.6851,0.3525],[-78.9201,26.6813,0.0],[-78.921,26.676,0.0],[-78.9193,26.6738,0.7733],[-78.9196,26.6707,0.0],[-78.9163,26.6643,0.1509],[-78.9093,26.6649,0.6109],[-78.9099,26.6626,0.1685],[-78.9079,26.6607,0.2969],[-78.9074,26.656,0.085],[-78.9135,26.659,0.3206],[-78.9137,26.6612,0.1163],[-78.9179,26.6574,0.183],[-78.9496,26.6721,0.0],[-78.9596,26.6801,0.5563],[-78.9657,26.6901,0.8148],[-78.9729,26.6963,0.0],[-78.981,26.6999,0.0],[-78.986,26.6993,0.3291],[-78.9921,26.7026,0.2809],[-78.991,26.7051,0.2255],[-78.9954,26.7046,0.1894],[-78.9951,26.6965,1.355],[-78.9999,26.6907,0.0],[-78.9946,26.6913,1.084],[-78.9887,26.6882,1.7367],[-78.9704,26.6749,1.766],[-78.9604,26.6649,0.6479],[-78.9529,26.6612,0.9796],[-78.9518,26.659,0.5366],[-78.9529,26.6574,0.0],[-78.9507,26.6554,0.0],[-78.9429,26.6518,0.6961],[-78.9407,26.6479,0.0],[-78.9354,26.646,1.8806],[-78.9165,26.6324,1.7086],[-78.8915,26.6085,0.499],[-78.8876,26.5999,0.0],[-78.8682,26.586,0.0],[-78.8649,26.579,0.6519],[-78.8601,26.5768,0.0],[-78.8562,26.5693,0.1588],[-78.8365,26.5557,1.724],[-78.8307,26.5496,1.353],[-78.8165,26.5415,0.0],[-78.7949,26.5321,3.0108],[-78.7904,26.529,0.5488],[-78.7899,26.5263,0.0],[-78.7782,26.5196,1.204],[-78.7785,26.5182,0.0],[-78.7743,26.5265,0.0],[-78.769,26.5235,0.0],[-78.7693,26.5218,2.361],[-78.7749,26.5221,0.0],[-78.7763,26.5171,0.0],[-78.7701,26.5124,3.2845],[-78.7704,26.5101,0.0],[-78.7671,26.5101,3.5956],[-78.7646,26.5057,1.0672],[-78.7568,26.5051,0.8866],[-78.7543,26.5032,0.0],[-78.7474,26.5035,0.7506],[-78.7304,26.4946,0.0],[-78.714,26.4926,2.4113],[-78.7051,26.4935,0.9521],[-78.7021,26.4918,0.0],[-78.7035,26.4879,0.0],[-78.6996,26.4924,1.6755],[-78.6901,26.4904,0.0],[-78.6867,26.5064,5.3814],[-78.6794,26.5164,6.3166],[-78.6698,26.5246,4.9954],[-78.6375,26.5405,4.9619],[-78.6257,26.5442,8.5433],[-78.6113,26.5425,8.8262]]],
[[[-78.8457,26.6574,0.0],[-78.8474,26.6582,0.0],[-78.8482,26.6565,0.0],[-78.8446,26.6549,0.0],[-78.8446,26.6568,0.0],[-78.8457,26.6574,0.0]]],
[[[-78.8382,26.6668,0.1497],[-78.8404,26.6679,0.2122],[-78.8418,26.6643,0.0],[-78.8368,26.6574,0.1388],[-78.8357,26.6612,0.2061],[-78.8382,26.6668,0.1497]]],
[[[-78.8801,26.6696,0.0706],[-78.8807,26.6707,0.0],[-78.8829,26.6699,0.1049],[-78.8821,26.6657,0.547],[-78.8865,26.6618,0.0],[-78.8846,26.6601,0.0584],[-78.8851,26.6585,0.0],[-78.8829,26.6593,0.0584],[-78.8832,26.6629,0.3019],[-78.8804,26.666,0.444],[-78.8779,26.6663,0.5004],[-78.8779,26.6638,0.1249],[-78.876,26.6632,0.0],[-78.876,26.6654,0.0],[-78.8801,26.6696,0.0706]]],
[[[-78.8471,26.6685,0.0],[-78.8532,26.6693,0.0],[-78.8499,26.6663,0.0],[-78.8451,26.666,0.0],[-78.8471,26.6685,0.0]]],
[[[-78.9965,26.7124,0.0628],[-78.9987,26.7126,0.0],[-78.9974,26.7093,0.0],[-78.9962,26.7093,0.0],[-78.9965,26.7124,0.0628]]],
[[[-79.0157,26.7421,0.0],[-79.0157,26.7438,0.0],[-79.0196,26.7454,0.0],[-79.0179,26.7396,0.0],[-79.016,26.739,0.0],[-79.0157,26.7421,0.0]]],
[[[-79.0154,26.8007,0.0],[-79.0163,26.8021,0.0],[-79.0188,26.8018,0.0],[-79.0179,26.7993,0.0],[-79.0154,26.8007,0.0]]],
[[[-78.5843,26.6993,0.0],[-78.5857,26.7004,0.0],[-78.5879,26.6996,0.0],[-78.5904,26.6963,0.0],[-78.5837,26.6951,0.0],[-78.5843,26.6993,0.0]]],
[[[-78.5387,26.7243,0.0],[-78.5368,26.726,0.0],[-78.5387,26.726,0.0],[-78.5399,26.724,0.0],[-78.5387,26.7243,0.0]]],
[[[-78.5287,26.7263,0.0],[-78.5315,26.7274,0.0],[-78.5357,26.7251,0.0],[-78.5318,26.724,0.0],[-78.5287,26.7263,0.0]]],
[[[-78.5774,26.7299,0.0],[-78.5799,26.7307,0.0],[-78.5818,26.7276,0.2823],[-78.5776,26.726,0.0],[-78.5793,26.7285,0.2141],[-78.5771,26.7287,0.0],[-78.5774,26.7299,0.0]]],
[[[-78.4543,26.7254,0.0],[-78.4546,26.7243,0.0],[-78.4529,26.7246,0.0],[-78.4521,26.7265,0.0],[-78.4538,26.7265,0.0],[-78.4543,26.7254,0.0]]],
[[[-78.5074,26.7318,0.0],[-78.5079,26.7343,0.0],[-78.5154,26.7332,0.136],[-78.5157,26.7313,0.2769],[-78.5171,26.7318,0.3029],[-78.5165,26.7332,0.0935],[-78.5196,26.7335,0.134],[-78.5243,26.7307,0.0],[-78.5254,26.7274,0.0],[-78.5199,26.7279,0.1609],[-78.519,26.7268,0.0],[-78.5179,26.7282,0.0],[-78.5165,26.726,0.0],[-78.5146,26.726,0.1837],[-78.5135,26.7285,0.0],[-78.5074,26.7318,0.0]]],
[[[-78.4649,26.7313,0.041],[-78.4635,26.7332,0.0065],[-78.466,26.7332,0.0],[-78.4657,26.7304,0.0],[-78.4649,26.7313,0.041]]],
[[[-78.4554,26.7404,0.2787],[-78.4571,26.7415,0.0495],[-78.4612,26.7368,0.0],[-78.4607,26.7357,0.1465],[-78.4557,26.7376,0.0],[-78.4554,26.7404,0.2787]]],
[[[-78.5324,26.7335,0.0769],[-78.5351,26.736,0.0],[-78.5379,26.7335,0.3283],[-78.5407,26.7343,0.0],[-78.5407,26.7315,0.162],[-78.5349,26.7285,0.0],[-78.5324,26.7301,0.075],[-78.5293,26.7299,0.0],[-78.5287,26.7318,0.2969],[-78.5324,26.7335,0.0769]]],
[[[-78.5432,26.7337,0.5344],[-78.5451,26.7363,0.0],[-78.546,26.7332,0.0],[-78.5446,26.7301,0.0],[-78.5426,26.7315,0.0],[-78.5432,26.7337,0.5344]]],
[[[-78.5235,26.7504,0.1236],[-78.5271,26.7507,0.0],[-78.5268,26.7482,0.0702],[-78.5312,26.744,0.0823],[-78.5301,26.7421,0.2645],[-78.5332,26.741,0.0],[-78.5304,26.7349,0.1607],[-78.5199,26.7351,0.0],[-78.5174,26.7379,0.0897],[-78.5126,26.7382,0.0],[-78.5107,26.7429,0.0505],[-78.5146,26.7451,0.0],[-78.5212,26.7446,0.0486],[-78.5204,26.7468,0.0932],[-78.5096,26.7451,0.0],[-78.5079,26.7471,0.0],[-78.5082,26.749,0.0],[-78.511,26.7485,0.3796],[-78.5124,26.7501,0.4866],[-78.5163,26.7488,0.4295],[-78.5174,26.7507,0.0],[-78.5235,26.7504,0.1236]]],
[[[-78.5229,26.7532,0.1614],[-78.5237,26.7543,0.0],[-78.5212,26.7576,0.0],[-78.5251,26.7554,0.0],[-78.5265,26.7524,0.0],[-78.5232,26.7515,0.0],[-78.5229,26.7532,0.1614]]],
[[[-78.4479,26.7496,0.0806],[-78.4515,26.7504,0.1149],[-78.4518,26.7485,0.4435],[-78.454,26.7476,0.09],[-78.4565,26.7424,0.0847],[-78.454,26.7399,0.3235],[-78.4554,26.7349,0.0],[-78.4538,26.7326,0.3106],[-78.4563,26.7299,0.0735],[-78.4563,26.7326,0.0],[-78.4612,26.734,0.0],[-78.4604,26.7315,0.1154],[-78.4629,26.7299,0.0],[-78.4612,26.7274,0.0135],[-78.456,26.7285,0.0],[-78.4538,26.7268,0.0],[-78.4507,26.7296,0.123],[-78.4499,26.7351,0.0],[-78.4512,26.7371,0.3888],[-78.4493,26.7376,0.1278],[-78.4488,26.7401,0.2086],[-78.4532,26.7435,0.0444],[-78.451,26.744,0.2072],[-78.4465,26.7418,0.0],[-78.4479,26.7443,0.2532],[-78.4451,26.7451,0.0],[-78.4443,26.7482,0.0],[-78.4454,26.7501,0.0],[-78.4479,26.7496,0.0806]]],
[[[-78.5149,26.7538,0.0],[-78.5135,26.7554,0.0409],[-78.5174,26.7565,0.0],[-78.5179,26.7515,0.0],[-78.5146,26.7507,0.0],[-78.5149,26.7538,0.0]]],
[[[-78.469,26.756,0.0],[-78.4685,26.7543,0.0],[-78.4671,26.7568,0.0],[-78.4685,26.7568,0.0],[-78.469,26.756,0.0]]],
[[[-78.5032,26.778199999999998,0.0],[-78.5051,26.7804,0.0],[-78.5057,26.771,0.0838],[-78.5079,26.7757,0.0],[-78.5093,26.7754,0.104],[-78.511,26.7696,0.2399],[-78.5143,26.766,0.0],[-78.5146,26.7624,0.0],[-78.5135,26.7579,0.0593],[-78.5118,26.7576,0.2324],[-78.5135,26.7557,0.1492],[-78.5101,26.7507,0.4153],[-78.506,26.7504,0.0],[-78.5054,26.7468,0.0],[-78.5024,26.7485,0.0808],[-78.5035,26.7518,0.0],[-78.5021,26.7538,0.362],[-78.4943,26.7524,0.0],[-78.4946,26.7571,0.0],[-78.5032,26.778199999999998,0.0]]],
[[[-78.5915,26.6713,0.0],[-78.5946,26.6726,0.0],[-78.5987,26.6676,0.0],[-78.5968,26.6668,0.0],[-78.5915,26.6713,0.0]]],
[[[-78.5985,26.6765,0.0],[-78.5996,26.6785,0.0],[-78.6015,26.6785,0.1155],[-78.6035,26.6762,0.0],[-78.5976,26.6724,0.0],[-78.5985,26.6765,0.0]]],
[[[-78.6046,26.7565,0.0],[-78.6046,26.7576,0.0],[-78.6074,26.7579,0.0],[-78.6065,26.756,0.0],[-78.6046,26.7565,0.0]]],
[[[-78.6087,26.8035,0.0],[-78.609,26.8071,0.0],[-78.6115,26.8065,0.0],[-78.6107,26.8035,0.0],[-78.6087,26.8035,0.0]]],
[[[-78.5879,26.8257,0.0],[-78.5921,26.8265,0.1567],[-78.5926,26.8251,0.0],[-78.589,26.8204,0.0],[-78.5868,26.821,0.1359],[-78.5879,26.8257,0.0]]],
[[[-78.5949,26.840699999999998,0.2927],[-78.5976,26.8424,0.0],[-78.5982,26.8329,0.0543],[-78.5932,26.8304,0.1523],[-78.5968,26.8288,0.0],[-78.5924,26.8268,0.1567],[-78.591,26.8285,0.0],[-78.5924,26.8315,0.0],[-78.5901,26.834,0.0],[-78.5901,26.8374,0.0],[-78.5949,26.840699999999998,0.2927]]],
[[[-78.6149,26.9201,0.77],[-78.6182,26.921,0.258],[-78.6179,26.9157,0.111],[-78.6143,26.9121,0.8493],[-78.6099,26.9112,0.0],[-78.6082,26.9129,0.0],[-78.609,26.9168,1.1172],[-78.6149,26.9201,0.77]]],
[[[-78.5399,26.7562,0.1039],[-78.5393,26.7582,0.1102],[-78.5407,26.7588,0.0],[-78.5443,26.7524,0.0],[-78.5421,26.7524,0.0],[-78.5399,26.7562,0.1039]]],
[[[-78.5279,26.7588,0.0],[-78.5285,26.7565,0.0],[-78.5274,26.7562,0.0],[-78.5268,26.759,0.0],[-78.5279,26.7588,0.0]]],
[[[-78.526,26.7632,0.0],[-78.5251,26.7646,0.0],[-78.5268,26.7649,0.0],[-78.5282,26.7621,0.0],[-78.5268,26.7621,0.0],[-78.526,26.7632,0.0]]],
[[[-78.5457,26.7674,0.0],[-78.5443,26.7687,0.0708],[-78.5432,26.7735,0.2635],[-78.5454,26.7721,0.0],[-78.5457,26.7674,0.0]]],
[[[-78.4715,26.7768,0.0],[-78.4732,26.779,0.0],[-78.4737,26.7768,0.0],[-78.4721,26.7751,0.0409],[-78.474,26.7701,0.202],[-78.4765,26.7718,0.0301],[-78.4776,26.7699,0.0],[-78.4776,26.7643,0.0693],[-78.4762,26.7629,0.1318],[-78.4782,26.761,0.1216],[-78.4874,26.7671,0.0],[-78.4896,26.7718,0.1404],[-78.4915,26.7715,0.1404],[-78.4954,26.776,0.0],[-78.4971,26.776,0.1871],[-78.4971,26.7699,0.0793],[-78.4912,26.7685,0.1489],[-78.4935,26.7646,0.0747],[-78.4924,26.7588,0.0],[-78.4904,26.7574,0.0657],[-78.4863,26.7579,0.0981],[-78.4826,26.7543,0.0718],[-78.4807,26.7543,0.0],[-78.4799,26.756,0.1411],[-78.4751,26.7565,0.0],[-78.4754,26.7593,0.3746],[-78.4743,26.7596,0.1093],[-78.4724,26.7571,0.3471],[-78.4729,26.7554,0.0],[-78.4713,26.756,0.0709],[-78.4696,26.7607,0.0],[-78.4713,26.7632,0.1211],[-78.4679,26.7651,0.0],[-78.4679,26.7671,0.0],[-78.4682,26.7713,0.0],[-78.4713,26.7735,0.2008],[-78.4715,26.7768,0.0]]],
[[[-78.5176,26.809,3.0192],[-78.5188,26.811,1.4055],[-78.5215,26.8104,0.7687],[-78.5229,26.8065,0.0],[-78.5165,26.8065,0.0],[-78.5176,26.809,3.0192]]],
[[[-78.5043,26.8174,0.1743],[-78.5038,26.8196,0.0],[-78.5074,26.8171,0.0],[-78.5071,26.8146,0.0849],[-78.4965,26.8113,0.134],[-78.496,26.8074,0.113],[-78.4907,26.806,0.1737],[-78.4893,26.814,0.0],[-78.4907,26.8179,0.3712],[-78.4996,26.8193,0.0692],[-78.5032,26.8165,0.4676],[-78.5043,26.8174,0.1743]]],
[[[-78.5107,26.8129,0.3438],[-78.511,26.814,0.0],[-78.5135,26.814,0.0864],[-78.5124,26.8115,0.0],[-78.5107,26.8129,0.3438]]],
[[[-78.5537,26.7787,0.0],[-78.5554,26.7774,0.0],[-78.5479,26.7793,0.0],[-78.5476,26.7807,0.0],[-78.5512,26.7807,0.0],[-78.5537,26.7787,0.0]]],
[[[-78.576,26.809,0.3204],[-78.5768,26.8121,0.0],[-78.579,26.8121,0.0],[-78.579,26.806,0.0],[-78.5735,26.8007,0.1922],[-78.5724,26.8024,0.0],[-78.5754,26.8046,0.0],[-78.576,26.809,0.3204]]],
[[[-78.5307,26.8282,0.0],[-78.5329,26.8296,0.0],[-78.5349,26.8265,0.0],[-78.5321,26.826,0.0],[-78.5307,26.8282,0.0]]],
[[[-78.5285,26.8404,0.2578],[-78.5332,26.841,0.0],[-78.5335,26.8396,0.0],[-78.529,26.834,0.0996],[-78.5257,26.8376,0.0408],[-78.5243,26.8354,0.3382],[-78.5254,26.8293,0.0],[-78.5224,26.829,0.0],[-78.5199,26.8379,0.1092],[-78.5285,26.8404,0.2578]]],
[[[-78.5049,26.8312,0.1569],[-78.5062,26.8329,0.1309],[-78.5151,26.8315,0.28],[-78.5174,26.8229,0.0],[-78.5149,26.8218,0.0],[-78.511,26.8251,0.0779],[-78.5032,26.8271,0.1364],[-78.5029,26.8293,0.095],[-78.5049,26.8312,0.1569]]],
[[[-78.5163,26.8307,0.096],[-78.5165,26.8332,0.1945],[-78.5182,26.8338,0.0],[-78.519,26.8315,0.0],[-78.5163,26.8307,0.096]]],
[[[-78.5476,26.8357,0.1798],[-78.5476,26.8371,0.0],[-78.5488,26.8385,0.0],[-78.549,26.8351,0.085],[-78.5476,26.8357,0.1798]]],
[[[-78.581,26.8438,0.0],[-78.581,26.8454,0.0],[-78.5832,26.8457,0.0],[-78.5824,26.8438,0.152],[-78.581,26.8438,0.0]]],
[[[-78.5496,26.8449,0.2209],[-78.5482,26.8435,0.0],[-78.5451,26.846,0.4509],[-78.544,26.8521,0.0],[-78.5474,26.8463,0.1253],[-78.5496,26.8449,0.2209]]]]}}