{"type": "Feature","bbox": [-61.1583,14.7038,-61.082,14.7475],"geometry": {"type": "MultiPolygon","coordinates": [[[[-61.0873,14.7081,468.7357],[-61.0864,14.7211,652.6214],[-61.082,14.7272,719.2523],[-61.0877,14.74,417.3846],[-61.1028,14.7347,647.2665],[-61.1112,14.7448,498.541],[-61.1286,14.7459,504.2558],[-61.1295,14.7475,591.5558],[-61.1355,14.7456,471.7636],[-61.158,14.7446,201.1508],[-61.1583,14.7342,345.8856],[-61.1518,14.7269,154.6768],[-61.1434,14.7229,378.9639],[-61.1287,14.722,458.6194],[-61.1104,14.7047,1024.5385],[-61.1048,14.7038,774.3057],[-61.0873,14.7081,468.7357]]]]}
,"properties": {"GID_2": "MTQ.4.3_1","GID_0": "MTQ","country": "Martinique","GID_1": "MTQ.4_1","province": "Saint-Pierre","NL_NAME_1": "NA","county": "Fonds-Saint-Denis","VARNAME_2": "NA","NL_NAME_2": "NA","TYPE_2": "Commune","ENGTYPE_2": "Commune","CC_2": "NA","HASC_2": "MQ.SP.FS","name": "Fonds-Saint-Denis.county","area_km2": 23.76596,"hist_schema_id": "Elevation0-9000","hist_area_km2": {"150": 0.04101,"175": 0.12303,"200": 0.34859,"225": 0.51263,"250": 0.34858,"275": 0.59464,"300": 0.61515,"325": 0.8407,"350": 1.14828,"375": 1.25081,"400": 0.73818,"425": 1.2098,"450": 0.82021,"475": 1.04577,"500": 1.37386,"525": 1.76347,"550": 1.31237,"575": 1.55844,"600": 1.51743,"625": 1.06632,"650": 0.98428,"675": 1.0048,"700": 0.79973,"725": 0.43063,"750": 0.3281,"775": 0.22557,"800": 0.10253,"825": 0.12304,"850": 0.20506,"875": 0.12304,"900": 0.10253,"925": 0.18456,"950": 0.08203,"975": 0.22558,"1000": 0.18456,"1025": 0.20507,"1050": 0.06152,"1075": 0.10254,"1100": 0.06152}}}