{"type": "Feature","bbox": [-70.4439,19.2242,-70.3406,19.3459],"geometry": {"type": "MultiPolygon","coordinates": [[[[-70.3525,19.3314,126.5162],[-70.3555,19.3342,128.6683],[-70.3611,19.3362,124.7854],[-70.373,19.3378,139.5888],[-70.3833,19.3453,144.8578],[-70.3921,19.3459,154.1696],[-70.3961,19.3447,154.2193],[-70.3987,19.3409,145.5466],[-70.4101,19.3372,152.568],[-70.4141,19.3322,128.5479],[-70.4417,19.3291,132.2168],[-70.4439,19.3262,128.3592],[-70.4433,19.3224,124.4465],[-70.4367,19.3154,117.903],[-70.4335,19.3092,114.0915],[-70.4358,19.3002,104.077],[-70.4349,19.295,101.7228],[-70.4219,19.2852,93.5998],[-70.4124,19.2833,91.4698],[-70.4093,19.28,88.0423],[-70.4091,19.265,81.2509],[-70.4112,19.2573,78.3309],[-70.4076,19.2531,75.6328],[-70.4074,19.2495,73.8622],[-70.4046,19.2449,71.1451],[-70.4063,19.2297,67.3644],[-70.4046,19.225,65.5993],[-70.3555,19.2242,62.9657],[-70.3559,19.2364,65.2831],[-70.3638,19.2415,67.8306],[-70.3671,19.2505,73.1095],[-70.3672,19.2566,73.5182],[-70.3605,19.2698,77.1366],[-70.3428,19.2869,89.9439],[-70.3406,19.2926,96.466],[-70.3459,19.3124,99.0297],[-70.344,19.322,113.7886],[-70.3511,19.3279,118.5364],[-70.3525,19.3314,126.5162]]]]}
,"properties": {"GID_2": "DOM.22.3_1","GID_0": "DOM","country": "DominicanRepublic","GID_1": "DOM.22_1","province": "Salcedo","NL_NAME_1": "NA","county": "VillaTapia","VARNAME_2": "NA","NL_NAME_2": "NA","TYPE_2": "Municipio","ENGTYPE_2": "Municipality","CC_2": "NA","HASC_2": "DO.SC.VT","name": "Villa_Tapia.county","area_km2": 89.03269,"hist_schema_id": "Elevation0-9000","hist_area_km2": {"50": 0.06006,"75": 33.30672,"100": 30.21627,"125": 20.84823,"150": 4.60142}}}