{"type":"Feature","properties":{"GID_3":"HTI.5.1.2_1","GID_0":"HTI","country":"Haiti","GID_1":"HTI.5_1","province":"Nord-Est","NL_NAME_1":"NA","GID_2":"HTI.5.1_1","county":"Fort-Liberté","NL_NAME_2":"NA","city":"Perches","VARNAME_3":"NA","NL_NAME_3":"NA","TYPE_3":"Commune","ENGTYPE_3":"Commune","CC_3":"NA","HASC_3":"NA","name":"Perches.city"},
"geometry":{"type": "MultiPolygon","coordinates": [[[[-71.8951,19.5003,93.2011],[-71.8941,19.5026,89.8849],[-71.8956,19.5068,88.4513],[-71.8948,19.5125,92.9724],[-71.8917,19.516,83.1993],[-71.8909,19.5226,78.8284],[-71.8945,19.5262,69.4855],[-71.8948,19.534,71.3849],[-71.8968,19.5308,83.2225],[-71.9078,19.5284,109.2299],[-71.9118,19.5305,110.505],[-71.9156,19.5356,137.8228],[-71.9299,19.544,188.9023],[-71.9353,19.5499,277.3839],[-71.9434,19.5495,240.6753],[-71.945,19.5507,281.6501],[-71.9519,19.548,208.8791],[-71.9539,19.5421,173.9035],[-71.9563,19.5402,192.9128],[-71.9626,19.5387,247.395],[-71.973,19.541,160.4061],[-71.9773,19.5393,264.8142],[-71.976,19.5333,255.5501],[-71.9639,19.5228,397.6957],[-71.9685,19.5168,577.2915],[-71.97,19.5115,739.5378],[-71.9662,19.5006,950.6301],[-71.9508,19.4947,642.7485],[-71.9378,19.4795,587.8081],[-71.9267,19.4926,133.0508],[-71.9211,19.4939,116.6172],[-71.9187,19.4986,112.8311],[-71.9149,19.498,115.692],[-71.911,19.4996,102.4661],[-71.908,19.4967,99.0144],[-71.9065,19.4984,104.9728],[-71.9042,19.4977,98.3606],[-71.8951,19.5003,93.2011]]]]}}