{"type":"Feature","properties":{"GID_3":"HTI.6.2.4_1","GID_0":"HTI","country":"Haiti","GID_1":"HTI.6_1","province":"Nord-Ouest","NL_NAME_1":"NA","GID_2":"HTI.6.2_1","county":"Port-de-Paix","NL_NAME_2":"NA","city":"Port-de-Paix","VARNAME_3":"NA","NL_NAME_3":"NA","TYPE_3":"Commune","ENGTYPE_3":"Commune","CC_3":"NA","HASC_3":"NA","name":"Port-de-Paix.city"},
"geometry":{"type": "MultiPolygon","coordinates": [[[[-72.9301,19.7286,634.0513],[-72.9274,19.7292,553.4246],[-72.9244,19.7259,559.0342],[-72.9252,19.7315,597.3304],[-72.9237,19.7361,593.0432],[-72.9271,19.7498,512.1801],[-72.9262,19.7666,438.3354],[-72.9232,19.7672,428.0974],[-72.9221,19.7704,412.5945],[-72.9232,19.7763,334.8843],[-72.9276,19.7815,286.2186],[-72.9389,19.7851,307.726],[-72.9407,19.79,241.489],[-72.935,19.7869,263.6858],[-72.932,19.7872,292.7314],[-72.924,19.7926,358.0573],[-72.9233,19.797,335.3112],[-72.929,19.807,267.7654],[-72.9288,19.8107,226.5383],[-72.886,19.8376,162.4564],[-72.8846,19.841,187.7054],[-72.885,19.8475,143.872],[-72.8773,19.8457,168.9201],[-72.8343,19.8422,81.0804],[-72.8343,19.8375,58.5252],[-72.8405,19.8327,60.4245],[-72.8457,19.8331,66.7646],[-72.8485,19.8296,67.8273],[-72.8439,19.8199,79.3873],[-72.8368,19.8212,69.6769],[-72.8317,19.8206,91.3271],[-72.829,19.8182,74.8395],[-72.8175,19.8175,82.7321],[-72.7927,19.8293,263.1377],[-72.7835,19.8307,298.2068],[-72.78,19.8333,315.1937],[-72.7799,19.8395,412.3537],[-72.7765,19.8428,450.3394],[-72.7745,19.8607,957.1539],[-72.7717,19.8649,904.5798],[-72.7674,19.8658,908.579],[-72.7631,19.8638,944.1198],[-72.7586,19.8649,1031.1926],[-72.7549,19.8634,1070.2577],[-72.7542,19.8656,956.695],[-72.7473,19.8659,745.5645],[-72.7513,19.8695,816.3157],[-72.7486,19.8735,830.8074],[-72.7436,19.8753,774.9846],[-72.7418,19.88,876.4097],[-72.7485,19.8795,797.9464],[-72.7498,19.8848,771.2808],[-72.763,19.891,705.9878],[-72.7639,19.8945,531.9487],[-72.7665,19.8942,534.2907],[-72.7672,19.9002,474.6336],[-72.7712,19.8993,490.7074],[-72.7723,19.9007,432.6187],[-72.7707,19.9048,330.2654],[-72.7713,19.908,259.3471],[-72.7605,19.9203,247.5372],[-72.7608,19.9259,167.7242],[-72.7541,19.9375,38.6995],[-72.7559,19.9377,8.6972],[-72.7538,19.9424,5.1522],[-72.751,19.9436,5.3443],[-72.7482,19.9421,0.0],[-72.7458,19.9425,0.0],[-72.7424,19.9399,3.7775],[-72.7446,19.9426,0.0],[-72.7485,19.9424,0.916],[-72.7504,19.944,0.0],[-72.7543,19.9432,5.1522],[-72.7621,19.9446,0.3354],[-72.7668,19.9493,0.0],[-72.7726,19.9476,0.6634],[-72.781,19.9518,0.0],[-72.7865,19.9504,2.2706],[-72.7935,19.951,0.0],[-72.7965,19.9487,5.9385],[-72.8007,19.9487,2.9399],[-72.8076,19.9518,0.0],[-72.8112,19.9487,1.7963],[-72.814,19.9518,0.0],[-72.8193,19.9535,0.6467],[-72.8251,19.9463,0.0],[-72.829,19.9451,0.0],[-72.8304,19.9418,4.1774],[-72.8335,19.941,1.3553],[-72.8343,19.9429,0.0],[-72.8399,19.9415,1.4463],[-72.8496,19.9443,0.0],[-72.8621,19.9407,0.0],[-72.8721,19.9313,0.9008],[-72.8768,19.9318,0.7944],[-72.879,19.9338,0.0],[-72.8885,19.9338,1.2014],[-72.8904,19.936,0.0],[-72.8943,19.9363,0.0],[-72.9451,19.9267,3.9317],[-72.95,19.9233,11.1626],[-72.9557,19.9226,3.6795],[-72.9574,19.9193,0.0],[-72.956,19.9134,21.1099],[-72.9587,19.9096,0.8698],[-72.9638,19.9107,0.0],[-72.9643,19.9161,0.0],[-72.9724,19.9243,0.0],[-72.9774,19.9243,0.0],[-72.9871,19.9211,5.799],[-72.994,19.9221,0.0],[-72.996,19.919,0.0],[-73.0004,19.9171,0.0],[-72.9995,19.9061,15.4813],[-73.0025,19.9008,23.2797],[-72.9997,19.8879,13.8242],[-72.9998,19.8806,16.3702],[-73.0063,19.8752,29.778],[-73.007,19.8728,32.9831],[-73.0035,19.8669,34.6076],[-73.0047,19.8543,57.0728],[-73.0127,19.8482,105.5357],[-73.014,19.837,74.7824],[-73.0182,19.8361,100.7331],[-73.0199,19.8375,80.4489],[-73.0248,19.8295,127.1359],[-73.0217,19.824,107.9725],[-73.0219,19.8162,146.8239],[-73.0203,19.8135,135.8951],[-73.0223,19.7954,187.2923],[-73.0206,19.7917,184.4931],[-73.0227,19.79,193.3545],[-73.0235,19.7836,232.1271],[-73.0288,19.7767,286.5592],[-73.0336,19.7741,300.4993],[-73.0321,19.7619,201.566],[-73.0297,19.7588,195.3983],[-73.0225,19.7556,157.8237],[-73.0217,19.7488,176.9364],[-73.0172,19.7395,183.5439],[-73.0119,19.7348,167.6678],[-73.0083,19.7274,179.7359],[-72.9996,19.7244,185.7133],[-72.9922,19.7223,250.4468],[-72.9832,19.7236,381.2553],[-72.9785,19.7224,494.7899],[-72.9672,19.7283,638.2772],[-72.9613,19.7283,749.1774],[-72.953,19.7247,763.6663],[-72.9467,19.7262,738.6139],[-72.9375,19.7257,640.7902],[-72.9301,19.7286,634.0513]],
[[-72.7718,19.8692,800.5404],[-72.7717,19.8649,904.5798],[-72.782,19.8606,875.6077],[-72.7896,19.8548,624.4706],[-72.798,19.8426,329.8997],[-72.8021,19.8489,389.5385],[-72.8124,19.8583,454.1845],[-72.8267,19.8619,189.5825],[-72.8409,19.8633,41.4771],[-72.8357,19.8732,37.5068],[-72.8366,19.8785,34.1495],[-72.84,19.882,47.728],[-72.8353,19.8875,80.4239],[-72.8329,19.8866,34.6025],[-72.8279,19.8885,29.2425],[-72.8288,19.8969,27.62],[-72.8215,19.8997,25.0553],[-72.8155,19.8992,100.8089],[-72.813,19.8973,161.4361],[-72.8071,19.8985,239.462],[-72.8044,19.8973,247.7378],[-72.7898,19.897,437.4511],[-72.7884,19.896,468.6346],[-72.7876,19.8887,550.0585],[-72.7718,19.8692,800.5404]]]]}}