{"type": "Feature","bbox": [-75.0929,20.0393,-74.8346,20.3018],"geometry": {"type": "MultiPolygon","coordinates": [[[[-75.0017,20.0414,164.4038],[-74.8745,20.1004,455.8463],[-74.8611,20.1088,266.3337],[-74.8582,20.1199,248.5854],[-74.8587,20.2158,416.9786],[-74.8346,20.2817,387.9363],[-74.8629,20.2925,440.0987],[-74.8834,20.2951,538.204],[-74.8999,20.3011,427.3769],[-74.918,20.3018,434.6922],[-74.9567,20.2908,560.6849],[-74.9835,20.267,636.9402],[-74.9928,20.2619,514.855],[-75.003,20.2615,483.2056],[-75.021,20.2679,662.1315],[-75.0374,20.2686,626.2712],[-75.0579,20.257,704.6116],[-75.0683,20.2159,286.1346],[-75.064,20.2014,295.1078],[-75.0424,20.1886,190.7624],[-75.0374,20.1829,220.1062],[-75.0367,20.1775,241.8664],[-75.0654,20.146,88.3562],[-75.0687,20.125,63.1751],[-75.0747,20.1097,40.8814],[-75.0767,20.0842,19.6097],[-75.0918,20.0505,1.9392],[-75.0929,20.0421,0.8862],[-75.0896,20.0421,-0.0594],[-75.0865,20.0393,2.3915],[-75.0415,20.0494,128.1976],[-75.028,20.0485,114.0867],[-75.0017,20.0414,164.4038]]]]}
,"properties": {"GID_2": "CUB.6.7_1","GID_0": "CUB","country": "Cuba","GID_1": "CUB.6_1","province": "Guantánamo","NL_NAME_1": "NA","county": "ManuelTames","VARNAME_2": "NA","NL_NAME_2": "NA","TYPE_2": "Municipio","ENGTYPE_2": "Municipality","CC_2": "NA","HASC_2": "CU.GU.MT","name": "Manuel_Tames.county","area_km2": 531.3548,"hist_schema_id": "Elevation0-9000","hist_area_km2": {"0": 5.9949,"25": 5.9744,"50": 3.6042,"75": 5.8741,"100": 13.938,"125": 23.6144,"150": 25.2855,"175": 21.5217,"200": 23.3118,"225": 26.1366,"250": 23.4482,"275": 19.5662,"300": 14.2704,"325": 12.379,"350": 14.6273,"375": 15.5817,"400": 18.3272,"425": 23.0221,"450": 25.1902,"475": 23.8363,"500": 22.0842,"525": 21.9463,"550": 22.3442,"575": 19.0407,"600": 20.5736,"625": 21.0724,"650": 18.505,"675": 16.2947,"700": 13.3083,"725": 6.9224,"750": 2.4662,"775": 1.0739,"800": 0.2187}}}