{"type": "Feature","bbox": [-71.4524,18.6137,-71.028,19.1729],"geometry": {"type": "MultiPolygon","coordinates": [[[[-71.0395,18.7046,422.2809],[-71.0379,18.7101,386.0],[-71.0306,18.7146,386.0],[-71.0286,18.7178,386.0],[-71.0358,18.7271,386.0],[-71.0367,18.7395,403.4825],[-71.0415,18.7463,418.1277],[-71.0446,18.7547,531.2736],[-71.0456,18.764,508.5511],[-71.0504,18.7672,481.3873],[-71.0524,18.7739,543.8244],[-71.0692,18.7809,458.7091],[-71.0757,18.7892,546.9183],[-71.087,18.7948,582.7163],[-71.0886,18.7972,669.1031],[-71.0813,18.8046,537.9476],[-71.0582,18.8118,478.7719],[-71.06,18.8202,544.0974],[-71.0592,18.8255,615.696],[-71.0346,18.8494,521.6952],[-71.0282,18.8612,761.6017],[-71.028,18.8643,761.3665],[-71.0317,18.8739,1166.8777],[-71.0472,18.888,1390.4796],[-71.0495,18.8952,1214.0833],[-71.0657,18.9018,1357.6646],[-71.0684,18.9044,1393.5338],[-71.0688,18.9083,1393.7192],[-71.0638,18.9265,1762.9675],[-71.0742,18.9382,2108.937],[-71.0719,18.9519,1754.955],[-71.0759,18.9616,2115.3916],[-71.0793,18.9657,2344.8428],[-71.0884,18.9679,2122.7341],[-71.0924,18.9729,2381.3838],[-71.0928,18.9915,2124.8801],[-71.0954,18.999,2105.8872],[-71.0961,19.0106,2163.8313],[-71.1042,19.0294,2181.8337],[-71.1113,19.0638,2386.8608],[-71.1217,19.0767,2612.9526],[-71.1195,19.0925,2255.3972],[-71.1238,19.1112,2347.5027],[-71.1395,19.1197,2402.8638],[-71.1475,19.1327,2462.8257],[-71.1777,19.1477,2447.2917],[-71.1788,19.1504,2432.1479],[-71.1773,19.1563,2321.6499],[-71.1801,19.1625,2077.7922],[-71.1881,19.1696,1957.1675],[-71.1971,19.1729,2007.0989],[-71.2536,19.162,1732.0558],[-71.2672,19.1653,1695.8313],[-71.2764,19.1704,1548.0142],[-71.2906,19.1652,1405.0625],[-71.3038,19.1651,1459.4637],[-71.3068,19.1679,1535.7736],[-71.3097,19.1651,1539.8265],[-71.3206,19.1648,1693.3842],[-71.3302,19.1619,1471.7178],[-71.3335,19.1571,1487.8162],[-71.3336,19.1378,1384.3986],[-71.3289,19.1201,1467.0858],[-71.3338,19.1051,1578.1853],[-71.3363,19.1033,1431.9514],[-71.3512,19.1011,1543.8982],[-71.357,19.1057,1580.3395],[-71.3619,19.113,1488.2112],[-71.3656,19.1146,1532.0736],[-71.3857,19.1094,1363.8912],[-71.398,19.1095,1564.0381],[-71.4062,19.1137,1438.8369],[-71.4134,19.1255,1209.6715],[-71.4182,19.1262,1333.1493],[-71.4212,19.1247,1373.6445],[-71.4244,19.1206,1330.871],[-71.4202,19.1112,1360.2086],[-71.4193,19.0973,1006.8327],[-71.4141,19.0907,983.3537],[-71.4138,19.0726,1214.8938],[-71.4108,19.0726,1121.5776],[-71.4032,19.0781,1375.2936],[-71.3919,19.0769,1142.5564],[-71.3773,19.0564,1488.7051],[-71.3642,19.055,1492.6053],[-71.3562,19.0513,1407.0358],[-71.3464,19.0416,1437.2629],[-71.3444,19.0309,1769.2836],[-71.337,19.0294,1535.864],[-71.3347,19.0269,1226.256],[-71.3422,19.0142,1238.6606],[-71.3425,18.9886,1137.2334],[-71.3451,18.9798,757.3138],[-71.3438,18.973,772.8403],[-71.3459,18.9691,853.2869],[-71.3512,18.9653,698.5775],[-71.3515,18.9336,724.6799],[-71.3573,18.9217,645.5132],[-71.3614,18.9199,697.0369],[-71.3838,18.9195,689.1614],[-71.3904,18.9153,622.0784],[-71.3981,18.9137,597.8385],[-71.4033,18.9024,550.1036],[-71.4104,18.8958,511.2741],[-71.4266,18.8897,470.5856],[-71.4323,18.8896,457.0715],[-71.439,18.8919,450.8956],[-71.4434,18.8886,439.6701],[-71.4433,18.8846,442.5372],[-71.4382,18.8733,455.1342],[-71.4461,18.8491,498.5709],[-71.4466,18.843,533.3085],[-71.4459,18.84,563.4199],[-71.441,18.8349,579.3395],[-71.4389,18.8218,576.2407],[-71.4442,18.808,686.6584],[-71.4524,18.7948,1314.7971],[-71.4267,18.7843,1269.139],[-71.4283,18.776,1044.7358],[-71.426,18.7693,1082.1979],[-71.4254,18.7584,1378.9998],[-71.4187,18.7435,1416.454],[-71.388,18.7392,1488.3568],[-71.3665,18.7333,1510.1909],[-71.3545,18.7277,1440.874],[-71.3493,18.7229,1376.469],[-71.3397,18.7057,1341.8674],[-71.323,18.6944,1203.3684],[-71.3117,18.6968,1310.5737],[-71.2758,18.6969,759.5929],[-71.2648,18.7003,612.1054],[-71.2523,18.7074,632.0106],[-71.2362,18.7105,551.7692],[-71.2316,18.7093,557.4568],[-71.2239,18.6955,487.2718],[-71.2239,18.686,509.8133],[-71.2368,18.6673,610.8323],[-71.2494,18.6546,633.8484],[-71.2533,18.6457,573.6133],[-71.2527,18.6375,580.4547],[-71.2454,18.6263,528.1785],[-71.2401,18.6137,488.2841],[-71.2028,18.6314,634.0337],[-71.1984,18.6297,584.5026],[-71.1959,18.6226,676.9109],[-71.1922,18.6201,555.7402],[-71.1881,18.6205,584.196],[-71.1823,18.6247,746.5132],[-71.1775,18.6257,728.0333],[-71.1732,18.6251,771.3562],[-71.1615,18.6179,784.1946],[-71.1574,18.617,728.561],[-71.131,18.6205,712.6022],[-71.1031,18.6381,657.3828],[-71.0907,18.6485,725.235],[-71.0754,18.6731,289.5658],[-71.0707,18.6851,294.6303],[-71.0644,18.6913,324.3796],[-71.061,18.6904,314.3076],[-71.0598,18.6855,303.4085],[-71.0606,18.6815,304.587],[-71.0657,18.6748,291.0186],[-71.0653,18.6681,283.0023],[-71.0617,18.6681,283.5403],[-71.0539,18.6748,355.3868],[-71.0429,18.6735,356.3902],[-71.0393,18.6805,359.5866],[-71.0395,18.7046,422.2809]],
[[-71.1674,18.9283,1555.8899],[-71.1602,18.9288,1593.7974],[-71.1585,18.9245,1407.1366],[-71.162,18.9218,1284.0059],[-71.1741,18.9203,1045.7817],[-71.1804,18.9144,1027.7432],[-71.1798,18.911,837.9955],[-71.1736,18.9076,801.5325],[-71.1519,18.9066,1120.3954],[-71.1412,18.8937,860.6985],[-71.1372,18.8834,994.0881],[-71.1382,18.8788,915.9412],[-71.1479,18.8689,722.0665],[-71.1527,18.8569,651.2616],[-71.1605,18.848,593.7904],[-71.1613,18.8358,497.4791],[-71.1637,18.8307,472.097],[-71.1668,18.8286,465.5815],[-71.1743,18.8288,440.5994],[-71.1945,18.8371,453.1485],[-71.1989,18.8348,445.6104],[-71.2047,18.8236,426.6129],[-71.215,18.8259,428.0345],[-71.2369,18.8267,428.1024],[-71.2386,18.8303,433.2526],[-71.2385,18.8494,448.6789],[-71.244,18.861,453.6852],[-71.244,18.8694,463.8188],[-71.2386,18.8731,472.1071],[-71.2297,18.8873,548.4811],[-71.225,18.8889,574.6758],[-71.2203,18.8931,650.8965],[-71.2111,18.8921,869.0775],[-71.204,18.8959,667.2881],[-71.2055,18.8988,674.7496],[-71.2223,18.9071,772.5238],[-71.2238,18.9121,642.3778],[-71.2223,18.9174,804.2469],[-71.215,18.9239,1020.0334],[-71.201,18.9272,1237.4821],[-71.1842,18.9276,1334.077],[-71.1745,18.9302,1449.4956],[-71.1674,18.9283,1555.8899]]]]}
,"properties": {"GID_2": "DOM.26.5_1","GID_0": "DOM","country": "DominicanRepublic","GID_1": "DOM.26_1","province": "SanJuan","NL_NAME_1": "NA","county": "SanJuandelaMaguana","VARNAME_2": "NA","NL_NAME_2": "NA","TYPE_2": "Municipio","ENGTYPE_2": "Municipality","CC_2": "NA","HASC_2": "DO.JU.SJ","name": "San_Juandela_Maguana.county","area_km2": 1711.372,"hist_schema_id": "Elevation0-9000","hist_area_km2": {"275": 0.201,"300": 4.579,"325": 11.949,"350": 27.751,"375": 62.502,"400": 75.362,"425": 91.796,"450": 84.517,"475": 82.504,"500": 72.228,"525": 64.061,"550": 56.194,"575": 56.918,"600": 50.674,"625": 44.27,"650": 44.105,"675": 33.334,"700": 27.837,"725": 23.822,"750": 20.27,"775": 17.94,"800": 15.79,"825": 14.123,"850": 13.499,"875": 12.877,"900": 12.093,"925": 13.257,"950": 12.474,"975": 12.915,"1000": 13.436,"1025": 13.598,"1050": 13.396,"1075": 13.978,"1100": 13.737,"1125": 15.881,"1150": 15.54,"1175": 15.52,"1200": 16.262,"1225": 16.382,"1250": 16.381,"1275": 17.324,"1300": 17.042,"1325": 17.623,"1350": 16.298,"1375": 17.28,"1400": 17.339,"1425": 17.259,"1450": 16.818,"1475": 16.457,"1500": 15.213,"1525": 14.129,"1550": 13.928,"1575": 13.548,"1600": 12.025,"1625": 12.386,"1650": 12.325,"1675": 12.225,"1700": 11.023,"1725": 11.003,"1750": 11.383,"1775": 10.843,"1800": 9.94,"1825": 9.379,"1850": 9.7,"1875": 10.862,"1900": 10.702,"1925": 10.261,"1950": 9.96,"1975": 10.622,"2000": 8.758,"2025": 9.058,"2050": 8.497,"2075": 6.774,"2100": 6.914,"2125": 6.032,"2150": 6.313,"2175": 5.451,"2200": 5.792,"2225": 5.311,"2250": 4.83,"2275": 4.349,"2300": 3.667,"2325": 3.687,"2350": 2.845,"2375": 2.525,"2400": 1.924,"2425": 1.783,"2450": 1.643,"2475": 1.723,"2500": 0.862,"2525": 0.842,"2550": 0.681,"2575": 0.601,"2600": 0.521,"2625": 0.341,"2650": 0.281,"2675": 0.22,"2700": 0.06,"2725": 0.08,"2750": 0.14,"2775": 0.02}}}