{"type":"Feature","properties":{"GID_2":"CUB.15.1_1","GID_0":"CUB","country":"Cuba","GID_1":"CUB.15_1","province":"SantiagodeCuba","NL_NAME_1":"NA","county":"Contramaestre","VARNAME_2":"NA","NL_NAME_2":"NA","TYPE_2":"Municipio","ENGTYPE_2":"Municipality","CC_2":"NA","HASC_2":"CU.SC.CO","name":"Contramaestre.county"},
"geometry":{"type": "MultiPolygon","coordinates": [[[[-76.3628,20.257,341.2268],[-76.324,20.2567,207.9979],[-76.2924,20.2427,235.3052],[-76.2843,20.2416,280.1675],[-76.2744,20.2435,238.7063],[-76.2494,20.2559,116.0],[-76.2414,20.2558,116.0],[-76.2224,20.2406,238.6977],[-76.2039,20.215,163.4401],[-76.1797,20.1962,214.1681],[-76.1786,20.2539,147.3998],[-76.1662,20.2627,168.3135],[-76.1446,20.2684,161.49],[-76.1305,20.2763,172.1567],[-76.1038,20.3257,158.5762],[-76.1042,20.3774,173.4887],[-76.1134,20.3957,129.2952],[-76.124,20.4093,114.4401],[-76.1309,20.428,100.2698],[-76.1344,20.4281,100.7432],[-76.1547,20.4158,100.4661],[-76.1668,20.4148,88.3712],[-76.1689,20.4068,89.4512],[-76.1738,20.4023,90.5788],[-76.1809,20.4022,86.771],[-76.1881,20.4045,83.5786],[-76.1982,20.4135,77.1272],[-76.2051,20.4385,72.3789],[-76.2087,20.4436,69.8957],[-76.2124,20.4466,68.3005],[-76.2189,20.4466,67.9247],[-76.2305,20.4352,67.0367],[-76.2348,20.4107,67.0573],[-76.2357,20.3868,62.7476],[-76.2381,20.3791,84.3106],[-76.2427,20.3743,89.6658],[-76.2526,20.3692,96.872],[-76.2628,20.3679,106.1887],[-76.2905,20.3688,94.9103],[-76.322,20.3761,98.9648],[-76.3282,20.376,101.7185],[-76.3337,20.3724,105.9782],[-76.3371,20.3667,120.6448],[-76.3397,20.3546,129.1507],[-76.3489,20.2814,248.7659],[-76.3549,20.2672,289.3037],[-76.3628,20.257,341.2268]]]]}}