{"type":"Feature","properties":{"GID_3":"HTI.6.1.1_1","GID_0":"HTI","country":"Haiti","GID_1":"HTI.6_1","province":"Nord-Ouest","NL_NAME_1":"NA","GID_2":"HTI.6.1_1","county":"MôleSaint-Nicolas","NL_NAME_2":"NA","city":"BaiedeHenne","VARNAME_3":"NA","NL_NAME_3":"NA","TYPE_3":"Commune","ENGTYPE_3":"Commune","CC_3":"NA","HASC_3":"NA","name":"Baiede_Henne.city"},
"geometry":{"type": "MultiPolygon","coordinates": [[[[-73.1235,19.6269,0.2616],[-73.122,19.6318,0.0],[-73.1282,19.6333,21.6357],[-73.1314,19.6381,53.2148],[-73.1362,19.6404,75.6131],[-73.1363,19.6436,65.955],[-73.1306,19.6507,16.7944],[-73.1289,19.6566,10.8708],[-73.1184,19.6763,155.9216],[-73.1174,19.6809,134.5649],[-73.1191,19.6845,129.4327],[-73.1177,19.6872,143.8288],[-73.1184,19.6897,145.7072],[-73.1222,19.6923,155.534],[-73.1206,19.702,172.1724],[-73.1244,19.7025,204.6993],[-73.1243,19.7061,247.9298],[-73.1293,19.7121,311.752],[-73.1304,19.7254,305.3536],[-73.1406,19.738,362.1998],[-73.1397,19.7442,398.9025],[-73.1489,19.7429,380.1862],[-73.1611,19.7544,501.3938],[-73.161,19.7557,498.4938],[-73.1565,19.7575,479.9827],[-73.1575,19.7617,508.5396],[-73.168,19.7621,681.2491],[-73.1708,19.7677,730.3651],[-73.1727,19.7856,673.925],[-73.1833,19.7991,536.906],[-73.1877,19.7956,561.4115],[-73.188,19.7909,611.7387],[-73.1864,19.7868,678.9059],[-73.1954,19.7792,791.6182],[-73.1959,19.7717,861.1613],[-73.2034,19.7721,769.8057],[-73.2145,19.768,623.2815],[-73.216,19.7615,528.3792],[-73.2139,19.7573,606.2135],[-73.2241,19.7548,531.5361],[-73.2146,19.7402,497.1761],[-73.2177,19.7353,512.9682],[-73.228,19.7285,394.1132],[-73.2341,19.7273,362.2892],[-73.2425,19.7181,246.0147],[-73.255,19.7123,80.1255],[-73.2568,19.7157,103.8376],[-73.2632,19.7188,111.2471],[-73.2643,19.723,137.0072],[-73.27,19.7295,149.8172],[-73.2718,19.7193,199.4312],[-73.2792,19.7064,357.9152],[-73.2846,19.6807,454.0473],[-73.2865,19.6761,448.3815],[-73.2934,19.6696,467.7308],[-73.2916,19.6559,470.0287],[-73.2956,19.6289,18.058],[-73.3032,19.6291,11.1328],[-73.2932,19.6287,0.0],[-73.2868,19.6318,0.0],[-73.2796,19.6299,0.0],[-73.2674,19.6337,0.0],[-73.2629,19.6332,0.0],[-73.2607,19.6299,2.5397],[-73.2579,19.6287,0.0],[-73.2454,19.6296,8.5483],[-73.2432,19.6282,0.0],[-73.2393,19.6293,1.1074],[-73.2351,19.6282,0.0],[-73.2288,19.6307,2.3945],[-73.2229,19.6385,0.0],[-73.2193,19.6471,0.0],[-73.2193,19.6563,0.0],[-73.2115,19.6615,1.0293],[-73.2071,19.6618,1.7004],[-73.1937,19.6476,0.0],[-73.1796,19.6388,0.6224],[-73.1626,19.6315,0.0],[-73.1554,19.629,1.2997],[-73.1501,19.629,4.2125],[-73.1443,19.6246,0.0],[-73.1318,19.6218,0.0],[-73.1265,19.6226,0.0],[-73.1235,19.6269,0.2616]]]]}}