{"type": "Feature","bbox": [-72.257,19.2791,-72.1273,19.5138],"geometry": {"type": "MultiPolygon","coordinates": [[[[-72.1591,19.2827,349.4161],[-72.1586,19.2791,347.5684],[-72.1507,19.2845,332.0843],[-72.1515,19.289,331.3702],[-72.1569,19.2944,320.474],[-72.1548,19.2967,316.7748],[-72.155,19.3008,307.0741],[-72.1517,19.3017,308.1662],[-72.1523,19.3044,302.7514],[-72.1545,19.3054,309.4668],[-72.1513,19.3076,315.8046],[-72.1611,19.3089,308.6835],[-72.1645,19.3115,312.4984],[-72.1629,19.3167,322.0713],[-72.1647,19.3185,317.0573],[-72.1598,19.3219,322.166],[-72.1601,19.3249,319.2811],[-72.1624,19.325,319.6329],[-72.164,19.3309,325.3277],[-72.1675,19.3322,324.523],[-72.1654,19.3341,325.7639],[-72.167,19.3366,322.8034],[-72.17,19.3371,327.3051],[-72.1717,19.3355,324.4484],[-72.1737,19.3387,323.7471],[-72.1726,19.3403,323.7694],[-72.1803,19.3453,327.2268],[-72.1789,19.348,327.1643],[-72.1772,19.3478,325.7917],[-72.1775,19.3492,332.7794],[-72.1691,19.3479,331.5315],[-72.1726,19.3519,336.3107],[-72.1726,19.3547,334.3533],[-72.1707,19.3586,333.2114],[-72.1721,19.3606,336.9255],[-72.1682,19.361,336.7527],[-72.1685,19.3654,339.8164],[-72.1577,19.3643,349.3873],[-72.157,19.3656,352.4021],[-72.1589,19.3673,348.2771],[-72.1577,19.372,350.1764],[-72.1441,19.3733,352.7863],[-72.1448,19.3804,354.5499],[-72.1374,19.3872,361.3178],[-72.1273,19.3846,353.862],[-72.1274,19.3892,428.8893],[-72.132,19.3927,571.5696],[-72.1338,19.3974,648.3278],[-72.132,19.4147,675.5624],[-72.1388,19.4296,705.6864],[-72.143,19.4315,846.1768],[-72.1447,19.4371,891.6936],[-72.1492,19.442,939.1854],[-72.1674,19.4768,1006.5641],[-72.1754,19.4864,870.1046],[-72.1788,19.4882,710.4072],[-72.1838,19.4956,650.3695],[-72.1939,19.495,814.3252],[-72.1978,19.5006,533.6963],[-72.2023,19.5026,661.0351],[-72.2115,19.5138,800.6896],[-72.2108,19.511,790.2514],[-72.2158,19.4967,606.7648],[-72.2161,19.4895,395.0368],[-72.2232,19.485,634.5624],[-72.2315,19.4888,689.6368],[-72.2409,19.4889,826.0187],[-72.2488,19.4799,927.4875],[-72.2489,19.4776,976.7409],[-72.2536,19.4716,1023.441],[-72.2547,19.4633,938.0205],[-72.2568,19.4618,958.0786],[-72.257,19.456,929.222],[-72.2519,19.4534,815.5338],[-72.2501,19.4443,793.1672],[-72.2269,19.4331,682.2286],[-72.2297,19.4299,689.2186],[-72.2299,19.4261,733.4584],[-72.2229,19.4191,585.9904],[-72.2241,19.4177,625.8926],[-72.223,19.4155,533.7089],[-72.2311,19.4171,720.9031],[-72.2315,19.4072,734.946],[-72.2293,19.4,663.8788],[-72.2314,19.3915,629.4399],[-72.2288,19.3841,483.429],[-72.2405,19.3878,508.5589],[-72.2422,19.3875,508.5589],[-72.2426,19.3855,489.7761],[-72.2443,19.3864,495.7994],[-72.2486,19.3845,498.5009],[-72.2415,19.3746,433.7637],[-72.2364,19.373,418.8854],[-72.2323,19.369,406.6003],[-72.2303,19.3637,389.5883],[-72.2333,19.3583,389.2884],[-72.2277,19.3439,374.2362],[-72.2307,19.3433,375.5261],[-72.2243,19.3384,364.9454],[-72.2255,19.3276,363.7639],[-72.2239,19.325,361.6633],[-72.2084,19.319,345.3045],[-72.206,19.3151,339.6081],[-72.2007,19.3113,338.7697],[-72.2033,19.3005,353.6219],[-72.1949,19.2988,355.2379],[-72.183,19.2938,354.3043],[-72.1738,19.2855,347.6177],[-72.1658,19.2819,345.844],[-72.1591,19.2827,349.4161]]]]}
,"properties": {"GID_3": "HTI.7.7.2_1","GID_0": "HTI","country": "Haiti","GID_1": "HTI.7_1","province": "Nord","NL_NAME_1": "NA","GID_2": "HTI.7.7_1","county": "Saint-Raphaël","NL_NAME_2": "NA","city": "Saint-Raphaël","VARNAME_3": "NA","NL_NAME_3": "NA","TYPE_3": "Commune","ENGTYPE_3": "Commune","CC_3": "NA","HASC_3": "NA","name": "Saint-Raphaël.city","area_km2": 184.1219,"hist_schema_id": "Elevation0-9000","hist_area_km2": {"300": 0.4202,"325": 16.2068,"350": 49.4279,"375": 31.2774,"400": 13.0375,"425": 6.2986,"450": 4.1389,"475": 3.159,"500": 2.819,"525": 2.7989,"550": 2.9389,"575": 2.8788,"600": 3.0788,"625": 2.439,"650": 2.9188,"675": 2.8789,"700": 2.7789,"725": 2.7989,"750": 3.0388,"775": 2.8589,"800": 3.5186,"825": 3.4986,"850": 3.1787,"875": 2.559,"900": 2.2191,"925": 2.8588,"950": 2.4989,"975": 1.9991,"1000": 1.1395,"1025": 1.1794,"1050": 0.6996,"1075": 0.4598,"1100": 0.1199}}}