{"type": "Feature","bbox": [-77.7412,19.826,-77.4283,20.1504],"geometry": {"type": "MultiPolygon","coordinates": [[[[-77.4348,19.8585,0.0],[-77.4349,19.8587,0.0],[-77.4349,19.8585,0.0],[-77.4348,19.8585,0.0]]],
[[[-77.5123,20.0914,4.2578],[-77.516,20.0957,0.0],[-77.5204,20.0951,0.0],[-77.5232,20.0921,0.0],[-77.5326,20.0912,1.2635],[-77.5379,20.0832,3.1582],[-77.5457,20.0807,0.0],[-77.5587,20.0857,0.0],[-77.5638,20.0857,0.0],[-77.5665,20.0835,4.2801],[-77.5743,20.0851,0.0],[-77.5774,20.0876,0.0],[-77.5768,20.0904,0.0],[-77.5782,20.0924,0.0],[-77.5821,20.0915,0.0],[-77.5849,20.0835,0.3953],[-77.5885,20.0804,0.0],[-77.5832,20.074,0.0],[-77.5807,20.0743,0.0],[-77.5779,20.0771,0.8845],[-77.5743,20.0765,0.0],[-77.5696,20.0701,0.7362],[-77.5699,20.0646,0.0],[-77.5749,20.0607,0.0],[-77.5796,20.0613,0.0],[-77.5829,20.0549,1.2552],[-77.5849,20.054,0.978],[-77.5854,20.0504,4.2409],[-77.5901,20.0496,0.0],[-77.5935,20.0465,0.71],[-77.5965,20.0485,0.4311],[-77.6004,20.0476,0.0],[-77.6007,20.0504,0.3225],[-77.6026,20.051,0.0],[-77.6038,20.0468,0.0],[-77.5993,20.0454,1.2715],[-77.6071,20.044,0.0],[-77.6079,20.041,0.0],[-77.6057,20.0393,0.0],[-77.6065,20.0379,0.7086],[-77.6093,20.0368,0.9607],[-77.6087,20.0388,0.0],[-77.611,20.0393,0.0],[-77.6115,20.0374,0.3674],[-77.614,20.0368,0.0],[-77.611,20.031,0.943],[-77.6137,20.0312,0.1427],[-77.6151,20.0296,0.2363],[-77.6154,20.0318,0.8025],[-77.6174,20.0324,0.0],[-77.6204,20.0285,0.6601],[-77.6204,20.0273,0.6601],[-77.6149,20.0265,0.2791],[-77.614,20.0244,0.0],[-77.619,20.0229,0.7635],[-77.6185,20.0251,0.0],[-77.6224,20.026,0.0],[-77.6251,20.0243,0.0],[-77.6226,20.0199,1.2024],[-77.6251,20.021,0.0],[-77.6268,20.0187,0.6079],[-77.6293,20.0193,0.0],[-77.6293,20.0171,1.0504],[-77.6274,20.0165,0.0],[-77.629,20.011,0.4651],[-77.6251,20.0104,2.677],[-77.6251,20.0093,2.677],[-77.6343,20.006,0.0],[-77.6293,20.0046,3.5336],[-77.6346,20.0026,0.0],[-77.6351,19.9979,0.8893],[-77.6368,19.9963,0.2941],[-77.6357,19.9949,0.8293],[-77.641,19.9929,0.0],[-77.6387,19.9918,2.3169],[-77.6401,19.9915,0.0],[-77.6399,19.9888,0.0],[-77.6418,19.9904,0.0],[-77.6438,19.9899,0.0],[-77.6438,19.9849,1.3081],[-77.6449,19.9863,0.1489],[-77.6471,19.9857,0.0],[-77.6465,19.9876,0.0],[-77.6479,19.9868,0.0],[-77.6477,19.9907,0.0],[-77.6496,19.9901,0.3761],[-77.6493,19.9871,0.3184],[-77.651,19.9876,0.0],[-77.6499,19.9843,0.5387],[-77.6532,19.9829,0.255],[-77.6507,19.9807,0.3355],[-77.6526,19.9796,0.0],[-77.6521,19.9774,0.0],[-77.6565,19.9771,0.0],[-77.6526,19.9751,0.0],[-77.6521,19.9724,0.0],[-77.656,19.9713,1.3413],[-77.6565,19.9696,1.244],[-77.6588,19.9699,0.0],[-77.6599,19.9604,3.3292],[-77.6621,19.9596,1.1977],[-77.6654,19.9615,0.3391],[-77.669,19.9588,0.0],[-77.6726,19.9599,0.3814],[-77.6757,19.9585,0.0],[-77.6757,19.9574,0.0],[-77.6687,19.9579,0.7365],[-77.669,19.956,0.0],[-77.6671,19.9562,0.601],[-77.6657,19.9532,2.5128],[-77.6665,19.951,0.0],[-77.6685,19.9507,0.0],[-77.6704,19.9432,3.7777],[-77.6751,19.9374,0.0],[-77.6829,19.929,0.0],[-77.6896,19.9254,3.4185],[-77.696,19.9257,0.0],[-77.7001,19.9279,0.0],[-77.7063,19.9268,0.824],[-77.709,19.9232,0.8698],[-77.7121,19.9132,0.6614],[-77.7215,19.9071,0.0],[-77.724,19.899,0.6866],[-77.7299,19.8888,0.5277],[-77.7354,19.8854,2.5199],[-77.7401,19.8801,1.6172],[-77.7412,19.874,1.3309],[-77.739,19.8696,0.0],[-77.7393,19.8651,0.0],[-77.7371,19.8618,0.0],[-77.7374,19.8554,0.0],[-77.7354,19.8549,2.0481],[-77.7379,19.8524,0.0],[-77.736,19.8501,1.5729],[-77.7382,19.8463,0.8475],[-77.7365,19.8457,0.8475],[-77.7368,19.8443,1.0052],[-77.7382,19.8449,1.0052],[-77.7393,19.8432,0.0],[-77.7385,19.8415,0.0],[-77.7324,19.8426,2.1453],[-77.7307,19.840699999999998,0.0],[-77.721,19.8393,2.9149],[-77.7107,19.8357,1.0433],[-77.7038,19.8365,0.0],[-77.6913,19.8329,0.0],[-77.6862,19.8285,0.0],[-77.6729,19.826,3.2458],[-77.6679,19.8282,0.0],[-77.6537,19.8304,0.0],[-77.6293,19.8393,0.7493],[-77.606,19.8437,0.0],[-77.5924,19.8518,0.0],[-77.5871,19.8521,11.035],[-77.5788,19.8457,0.0],[-77.5476,19.8476,6.2925],[-77.539,19.8463,1.8918],[-77.5385,19.8446,0.0],[-77.5107,19.8432,0.0],[-77.496,19.8457,3.4294],[-77.471,19.8563,3.761],[-77.4437,19.8618,0.0],[-77.4421,19.8649,0.7034],[-77.4407,19.8649,0.7034],[-77.4368,19.859,3.954],[-77.4349,19.8587,0.0],[-77.4452,19.8934,124.4597],[-77.4444,19.9345,218.4296],[-77.4287,19.9652,168.8861],[-77.4283,19.9843,170.4362],[-77.4332,19.9927,154.1702],[-77.4705,19.9941,141.1859],[-77.4792,19.9981,113.1579],[-77.4885,20.0211,84.6621],[-77.5002,20.0726,27.7696],[-77.5123,20.0914,4.2578]]],
[[[-77.5837,20.0943,0.0],[-77.5865,20.0957,0.0],[-77.5888,20.0943,0.0],[-77.591,20.084,0.7134],[-77.5857,20.0846,0.1874],[-77.5837,20.0943,0.0]]],
[[[-77.5987,20.0935,2.2691],[-77.5993,20.0946,0.5997],[-77.6007,20.0935,0.8454],[-77.6015,20.0899,0.6051],[-77.5999,20.0901,0.0],[-77.5987,20.0935,2.2691]]],
[[[-77.6599,19.9885,0.3989],[-77.6624,19.989,0.0],[-77.6621,19.9876,1.1509],[-77.6643,19.9865,0.4602],[-77.6576,19.9857,0.0],[-77.6557,19.9818,0.0],[-77.6543,19.9818,0.0],[-77.654,19.9863,0.4541],[-77.6513,19.9863,0.0],[-77.6529,19.9882,0.4251],[-77.6557,19.9851,0.399],[-77.6599,19.9885,0.3989]]],
[[[-77.6318,20.0393,0.0],[-77.6338,20.0401,0.0],[-77.6329,20.0376,0.4434],[-77.6343,20.0365,0.0],[-77.6332,20.0357,0.8771],[-77.6318,20.0365,0.8771],[-77.6318,20.0393,0.0]]],
[[[-77.6257,20.0971,0.3348],[-77.6257,20.0987,0.3348],[-77.6282,20.0979,0.1438],[-77.6276,20.0954,0.0],[-77.6257,20.0971,0.3348]]],
[[[-77.6068,20.1013,0.2439],[-77.6079,20.1021,0.0],[-77.6107,20.1004,0.7357],[-77.616,20.1018,0.6189],[-77.6224,20.0993,0.3065],[-77.624,20.0974,0.0],[-77.624,20.0938,0.2448],[-77.6188,20.0968,0.1598],[-77.6165,20.0963,0.6773],[-77.6165,20.0932,0.3071],[-77.6132,20.094,0.2901],[-77.6118,20.0957,0.0],[-77.6149,20.0993,0.1844],[-77.6126,20.0982,0.0],[-77.6126,20.0999,0.3512],[-77.6082,20.0993,0.0],[-77.6068,20.1013,0.2439]]],
[[[-77.6082,20.0965,0.5308],[-77.6107,20.0971,0.0],[-77.6051,20.0932,0.0],[-77.6038,20.094,0.0],[-77.6046,20.0954,0.0],[-77.6082,20.0965,0.5308]]],
[[[-77.5982,20.1015,0.775],[-77.6046,20.1021,0.3356],[-77.6038,20.0999,0.887],[-77.6051,20.0963,0.0],[-77.6012,20.0951,0.0],[-77.5982,20.1015,0.775]]],
[[[-77.626,20.1007,2.4063],[-77.626,20.1029,0.4255],[-77.6279,20.1032,0.9805],[-77.6282,20.1015,0.5858],[-77.626,20.1007,2.4063]]],
[[[-77.6507,20.1437,0.0],[-77.654,20.144,0.0],[-77.6557,20.1424,0.5742],[-77.6521,20.1426,0.8124],[-77.6507,20.1437,0.0]]],
[[[-77.6562,20.1449,0.0],[-77.6546,20.1471,2.0471],[-77.654,20.1504,0.0],[-77.6571,20.1468,0.4192],[-77.6562,20.1449,0.0]]]]}
,"properties": {"GID_2": "CUB.5.10_1","GID_0": "CUB","country": "Cuba","GID_1": "CUB.5_1","province": "Granma","NL_NAME_1": "NA","county": "Niquero","VARNAME_2": "NA","NL_NAME_2": "NA","TYPE_2": "Municipio","ENGTYPE_2": "Municipality","CC_2": "NA","HASC_2": "CU.GR.NI","name": "Niquero.county","area_km2": 580.8763,"hist_schema_id": "Elevation0-9000","hist_area_km2": {"0": 77.3723,"25": 98.2456,"50": 64.4936,"75": 55.2896,"100": 54.1763,"125": 53.2808,"150": 46.4648,"175": 38.9312,"200": 27.7684,"225": 15.1899,"250": 15.61,"275": 19.3,"300": 7.8953,"325": 5.6822,"350": 1.0766,"375": 0.0797,"400": 0.0199}}}