{"type": "Feature","bbox": [-72.6846,19.2549,-71.9702,19.8797],"geometry": {"type": "MultiPolygon","coordinates": [[[[-72.0494,19.2999,394.2314],[-72.0435,19.3041,410.5209],[-72.0339,19.3051,438.8523],[-72.0303,19.3075,431.4639],[-72.0221,19.3162,445.5929],[-72.0233,19.3194,436.6762],[-72.0221,19.3244,425.4149],[-72.0087,19.3273,415.2975],[-72.0038,19.3238,400.7189],[-71.9986,19.3259,413.4862],[-71.9919,19.3328,432.918],[-71.9871,19.3346,446.5331],[-71.9835,19.3329,447.0272],[-71.982,19.3348,454.7882],[-71.9775,19.3351,456.3143],[-71.9785,19.3404,471.5751],[-71.9717,19.3387,490.9459],[-71.9702,19.3432,501.2464],[-71.9745,19.3507,623.6329],[-71.9796,19.354,772.7279],[-71.9859,19.3611,630.2173],[-71.9857,19.3659,490.9715],[-71.9901,19.3661,482.5443],[-71.9889,19.3685,490.8516],[-71.995,19.3782,526.0518],[-71.9947,19.3802,521.1804],[-72.0076,19.3996,456.9421],[-72.0115,19.4009,435.3678],[-72.0201,19.4099,378.6301],[-72.0218,19.4101,378.6301],[-72.0228,19.4117,407.8441],[-72.0207,19.4142,376.4076],[-72.0228,19.4141,372.8169],[-72.0235,19.4173,437.0747],[-72.026,19.4166,331.7005],[-72.0312,19.4198,279.0467],[-72.034,19.4256,327.5863],[-72.0373,19.426,234.3849],[-72.0363,19.4284,338.6358],[-72.0377,19.4321,253.6578],[-72.0441,19.4322,205.8837],[-72.0466,19.4383,193.893],[-72.0507,19.4372,183.8882],[-72.0647,19.4452,187.0558],[-72.0685,19.4431,175.503],[-72.0692,19.4406,183.8136],[-72.0665,19.4401,161.3661],[-72.0644,19.437,168.1611],[-72.067,19.4346,165.7918],[-72.0728,19.4348,163.816],[-72.079,19.437,161.2496],[-72.0794,19.4432,182.0836],[-72.0822,19.4399,168.7139],[-72.0882,19.4461,141.9737],[-72.0918,19.4469,137.7569],[-72.0917,19.4488,165.9563],[-72.0963,19.4473,138.3133],[-72.0979,19.4496,137.5834],[-72.1024,19.4414,164.6873],[-72.1056,19.4421,184.1925],[-72.1052,19.4402,177.5237],[-72.1069,19.4396,170.9323],[-72.1058,19.4375,216.2207],[-72.1085,19.4347,217.4278],[-72.109,19.4326,190.5495],[-72.1076,19.4325,198.7325],[-72.1091,19.4308,218.0774],[-72.1061,19.4277,300.0386],[-72.1054,19.4244,242.8543],[-72.1104,19.4217,206.6065],[-72.1079,19.4194,212.3712],[-72.1108,19.4166,247.8248],[-72.1104,19.4118,245.2737],[-72.1149,19.4082,288.933],[-72.1111,19.4048,240.7367],[-72.1137,19.4023,266.8675],[-72.1148,19.394,336.0346],[-72.1175,19.3897,342.8315],[-72.1225,19.3883,344.0457],[-72.1273,19.3846,353.862],[-72.1374,19.3872,361.3178],[-72.1448,19.3804,354.5499],[-72.1441,19.3733,352.7863],[-72.1577,19.372,350.1764],[-72.1589,19.3673,348.2771],[-72.157,19.3656,352.4021],[-72.1577,19.3643,349.3873],[-72.1685,19.3654,339.8164],[-72.1682,19.361,336.7527],[-72.1721,19.3606,336.9255],[-72.1707,19.3586,333.2114],[-72.1726,19.3547,334.3533],[-72.1726,19.3519,336.3107],[-72.1691,19.3479,331.5315],[-72.1775,19.3492,332.7794],[-72.1772,19.3478,325.7917],[-72.1789,19.348,327.1643],[-72.1803,19.3453,327.2268],[-72.1726,19.3403,323.7694],[-72.1737,19.3387,323.7471],[-72.1717,19.3355,324.4484],[-72.17,19.3371,327.3051],[-72.167,19.3366,322.8034],[-72.1654,19.3341,325.7639],[-72.1675,19.3322,324.523],[-72.164,19.3309,325.3277],[-72.1624,19.325,319.6329],[-72.1601,19.3249,319.2811],[-72.1598,19.3219,322.166],[-72.1647,19.3185,317.0573],[-72.1629,19.3167,322.0713],[-72.1645,19.3115,312.4984],[-72.1611,19.3089,308.6835],[-72.1513,19.3076,315.8046],[-72.1545,19.3054,309.4668],[-72.1523,19.3044,302.7514],[-72.1517,19.3017,308.1662],[-72.155,19.3008,307.0741],[-72.1548,19.2967,316.7748],[-72.1569,19.2944,320.474],[-72.1515,19.289,331.3702],[-72.1507,19.2845,332.0843],[-72.1586,19.2791,347.5684],[-72.1528,19.2686,361.1903],[-72.1548,19.2588,363.6209],[-72.1491,19.2564,376.3358],[-72.1421,19.2579,385.0021],[-72.135,19.2549,397.8594],[-72.1246,19.2629,362.9298],[-72.1187,19.2652,349.1931],[-72.1131,19.2644,350.8877],[-72.1079,19.2664,341.5606],[-72.0946,19.2666,281.526],[-72.0939,19.2688,297.4085],[-72.0902,19.2698,293.5565],[-72.0853,19.2765,307.9588],[-72.0814,19.2775,315.7429],[-72.0806,19.2812,330.3818],[-72.0732,19.2837,349.5467],[-72.0672,19.2896,358.6],[-72.0634,19.2904,361.491],[-72.0563,19.2976,381.4094],[-72.0494,19.2999,394.2314]]],
[[[-72.4184,19.7655,87.8514],[-72.4143,19.7681,31.9754],[-72.4037,19.7694,7.1233],[-72.4064,19.7743,164.3084],[-72.4143,19.7782,286.5107],[-72.4181,19.7894,246.808],[-72.4221,19.795,151.363],[-72.4195,19.7994,108.0686],[-72.4168,19.8002,6.842],[-72.4189,19.8068,5.8062],[-72.4171,19.8093,0.0],[-72.4233,19.8141,2.3821],[-72.4231,19.817,1.2468],[-72.4299,19.8205,1.7685],[-72.4235,19.8268,0.0],[-72.4276,19.8296,9.6948],[-72.4332,19.8307,0.0],[-72.4349,19.826,4.2972],[-72.4326,19.8238,15.2541],[-72.4332,19.8212,1.3198],[-72.4396,19.8177,1.3864],[-72.4449,19.8174,0.0],[-72.4578,19.8223,0.0],[-72.4604,19.8256,1.9099],[-72.4587,19.8268,0.0],[-72.4593,19.8285,6.4128],[-72.4702,19.8329,1.6156],[-72.471,19.8307,0.0],[-72.4676,19.8282,0.0],[-72.4679,19.8249,0.6671],[-72.4732,19.8218,4.2482],[-72.4804,19.8218,3.2629],[-72.4837,19.8274,5.1998],[-72.4882,19.8302,9.8943],[-72.4885,19.8335,0.0],[-72.4918,19.8343,0.0],[-72.4935,19.8279,0.0],[-72.4901,19.826,13.1949],[-72.4901,19.8243,8.6292],[-72.492,19.8204,14.4036],[-72.4943,19.8201,45.5912],[-72.496,19.8229,0.0],[-72.5001,19.8246,45.5552],[-72.4985,19.836,0.0],[-72.5018,19.8376,0.0],[-72.504,19.836,4.8064],[-72.5074,19.8471,0.0],[-72.5115,19.8482,16.4472],[-72.5137,19.8404,36.8452],[-72.5182,19.8399,42.989],[-72.5212,19.8439,0.0],[-72.5218,19.8501,0.0],[-72.5277,19.8474,0.0],[-72.5321,19.8494,0.0],[-72.5387,19.8563,25.2057],[-72.5413,19.8629,0.0],[-72.544,19.8632,11.5892],[-72.5446,19.8649,0.0],[-72.5546,19.8701,9.8702],[-72.5554,19.8721,45.6434],[-72.5521,19.8754,0.0],[-72.5576,19.8796,11.8161],[-72.5613,19.8797,92.9188],[-72.5615,19.8774,65.3066],[-72.567,19.8775,149.3506],[-72.5683,19.8748,172.5853],[-72.5719,19.8743,258.3532],[-72.5833,19.8661,547.0535],[-72.583,19.858,499.2644],[-72.5809,19.8556,447.2277],[-72.58,19.8497,529.5154],[-72.5838,19.8517,557.5776],[-72.5893,19.8511,420.6334],[-72.5902,19.8497,345.7173],[-72.5955,19.8398,256.1095],[-72.5932,19.8325,173.7443],[-72.5909,19.8314,164.9922],[-72.5944,19.8302,126.3439],[-72.5981,19.8373,247.2247],[-72.6015,19.8382,186.5874],[-72.6041,19.8387,127.7246],[-72.6107,19.8361,138.8495],[-72.6135,19.834,161.5001],[-72.6159,19.8278,239.5038],[-72.615,19.8179,621.8728],[-72.6193,19.8148,717.5501],[-72.6224,19.8154,734.5143],[-72.6233,19.8135,718.9414],[-72.6272,19.8135,668.5209],[-72.63,19.8116,567.002],[-72.6318,19.8168,623.8829],[-72.6391,19.8184,532.5632],[-72.6401,19.8212,599.7399],[-72.6379,19.8266,817.3359],[-72.6389,19.8293,626.2808],[-72.6517,19.8279,579.6412],[-72.6609,19.8286,270.4749],[-72.67,19.8321,459.7708],[-72.6788,19.8328,327.3069],[-72.6846,19.8315,176.5371],[-72.6838,19.8262,213.7127],[-72.6772,19.8138,378.4539],[-72.678,19.8088,609.5681],[-72.6814,19.8037,793.076],[-72.6736,19.7786,536.6039],[-72.6683,19.7762,561.1294],[-72.6533,19.7766,951.537],[-72.6563,19.7856,941.6898],[-72.6432,19.7854,725.5643],[-72.6385,19.7779,717.8758],[-72.6374,19.7737,830.0851],[-72.6396,19.7722,923.6541],[-72.6314,19.7712,725.4038],[-72.631,19.7659,870.7177],[-72.6243,19.7635,892.1583],[-72.6188,19.7645,1008.954],[-72.597,19.7587,540.4787],[-72.5883,19.7639,350.11],[-72.5833,19.7638,310.4656],[-72.5813,19.7672,230.6419],[-72.5756,19.7664,163.7828],[-72.5745,19.7658,153.2392],[-72.5786,19.7541,604.5922],[-72.5715,19.7467,629.4049],[-72.5739,19.7428,675.5326],[-72.5717,19.7393,717.4965],[-72.5655,19.739,699.521],[-72.5576,19.7343,775.5774],[-72.5555,19.7368,879.4462],[-72.5494,19.7329,944.1852],[-72.5432,19.7343,764.7141],[-72.5333,19.7331,741.8894],[-72.5319,19.7373,707.15],[-72.5289,19.7387,762.6517],[-72.5183,19.7385,969.4254],[-72.5159,19.7427,1005.0441],[-72.5152,19.7313,817.4193],[-72.5097,19.7247,683.6631],[-72.5068,19.7179,744.5441],[-72.5103,19.7143,788.1041],[-72.5078,19.7025,864.4091],[-72.5003,19.7036,461.5538],[-72.492,19.6966,602.0345],[-72.4892,19.6961,572.7249],[-72.4858,19.7004,491.1569],[-72.4795,19.6903,581.8708],[-72.474,19.6753,559.77],[-72.4759,19.6709,551.9973],[-72.4714,19.6631,799.6511],[-72.4688,19.665,708.8166],[-72.4656,19.6728,763.7797],[-72.455,19.681,769.4581],[-72.4462,19.6855,595.1478],[-72.4458,19.6926,326.8005],[-72.4442,19.694,346.1733],[-72.4464,19.7003,336.2702],[-72.4342,19.709,345.8752],[-72.4345,19.7136,297.4775],[-72.4288,19.7196,129.2631],[-72.4296,19.729,123.502],[-72.423,19.7336,137.1109],[-72.4235,19.74,145.3185],[-72.4162,19.7415,27.1507],[-72.4164,19.7436,27.0343],[-72.4235,19.7445,130.5415],[-72.4243,19.7484,140.7938],[-72.4186,19.7573,110.9366],[-72.4184,19.7655,87.8514]]]]}
,"properties": {"GID_2": "HTI.7.1_1","GID_0": "HTI","country": "Haiti","GID_1": "HTI.7_1","province": "Nord","NL_NAME_1": "NA","county": "Borgne","VARNAME_2": "NA","NL_NAME_2": "NA","TYPE_2": "Arrondissement","ENGTYPE_2": "District","CC_2": "NA","HASC_2": "HT.ND.BG","name": "Borgne.county","area_km2": 563.4997,"hist_schema_id": "Elevation0-9000","hist_area_km2": {"0": 16.8749,"25": 18.5336,"50": 13.507,"75": 14.3449,"100": 13.507,"125": 12.4898,"150": 11.8916,"175": 11.6539,"200": 11.3351,"225": 12.4535,"250": 11.0572,"275": 11.8781,"300": 18.2837,"325": 43.5957,"350": 59.3554,"375": 40.2495,"400": 27.5248,"425": 26.0253,"450": 21.9653,"475": 18.7255,"500": 15.9841,"525": 15.5842,"550": 14.1848,"575": 13.3837,"600": 11.7651,"625": 11.9244,"650": 10.4648,"675": 8.006,"700": 7.1251,"725": 5.8074,"750": 4.41,"775": 4.2501,"800": 3.8508,"825": 3.6511,"850": 3.5115,"875": 2.7732,"900": 2.1946,"925": 1.9952,"950": 1.7956,"975": 1.2768,"1000": 1.1572,"1025": 0.7182,"1050": 0.7182,"1075": 0.4389,"1100": 0.4987,"1125": 0.4788,"1150": 0.2194,"1175": 0.0798}}}