{"type": "Feature","bbox": [-73.1363,19.501,-72.7829,19.7418],"geometry": {"type": "MultiPolygon","coordinates": [[[[-72.8758,19.6748,311.808],[-72.8787,19.6761,349.6037],[-72.8787,19.6796,410.3787],[-72.8762,19.6825,518.1969],[-72.8712,19.6819,529.5354],[-72.8553,19.69,1030.1182],[-72.8515,19.6962,896.5201],[-72.8504,19.7015,711.4092],[-72.8581,19.7128,546.2822],[-72.8774,19.709,628.9814],[-72.8949,19.7103,673.4958],[-72.8971,19.7139,531.1642],[-72.9249,19.7176,586.8705],[-72.9244,19.7259,559.0342],[-72.9274,19.7292,553.4246],[-72.9375,19.7257,640.7902],[-72.9467,19.7262,738.6139],[-72.953,19.7247,763.6663],[-72.9613,19.7283,749.1774],[-72.9672,19.7283,638.2772],[-72.9785,19.7224,494.7899],[-72.9832,19.7236,381.2553],[-72.9922,19.7223,250.4468],[-73.0083,19.7274,179.7359],[-73.0109,19.7308,168.4956],[-73.0267,19.7328,114.0947],[-73.0328,19.7379,141.7893],[-73.0374,19.7395,169.4479],[-73.0529,19.7418,357.4452],[-73.0615,19.7387,339.8846],[-73.07,19.7312,297.2067],[-73.0735,19.7329,308.2199],[-73.08,19.7311,276.5549],[-73.0871,19.7144,178.2784],[-73.1032,19.7057,147.036],[-73.1056,19.7025,145.7719],[-73.1017,19.6994,135.3788],[-73.1037,19.6963,138.8099],[-73.1071,19.6966,129.6395],[-73.116,19.703,165.1453],[-73.1206,19.702,172.1724],[-73.1222,19.6923,155.534],[-73.1184,19.6897,145.7072],[-73.1177,19.6872,143.8288],[-73.1191,19.6845,129.4327],[-73.1174,19.6809,134.5649],[-73.1184,19.6763,155.9216],[-73.1289,19.6566,10.8708],[-73.1306,19.6507,16.7944],[-73.1363,19.6436,65.955],[-73.1362,19.6404,75.6131],[-73.1314,19.6381,53.2148],[-73.1282,19.6333,21.6357],[-73.122,19.6318,0.0],[-73.1232,19.6274,1.6797],[-73.1215,19.6293,0.0],[-73.1218,19.6321,0.6293],[-73.1174,19.6376,1.6118],[-73.116,19.6368,0.0],[-73.114,19.639,0.5993],[-73.1051,19.6417,0.6662],[-73.0632,19.6332,0.4067],[-73.0535,19.6301,0.0],[-73.0462,19.6232,0.0],[-73.0446,19.6232,1.2677],[-73.0443,19.6215,0.0],[-73.0382,19.619,0.4596],[-73.0374,19.6162,0.0],[-73.0304,19.614,0.0],[-73.0229,19.6085,0.0],[-73.0143,19.609,0.6488],[-73.016,19.606,0.0],[-73.0143,19.6051,0.0],[-73.0035,19.604,0.2319],[-73.0001,19.6065,0.0],[-72.9996,19.6107,0.528],[-72.9943,19.6135,0.2165],[-72.9918,19.611,0.0],[-72.9976,19.6046,0.1338],[-72.9979,19.6013,0.3071],[-72.9918,19.5957,0.0],[-72.986,19.5943,0.3316],[-72.9847,19.5913,0.3615],[-72.9817,19.5901,0.0],[-72.9801,19.5902,0.0],[-72.9796,19.5949,0.2996],[-72.9779,19.5946,0.3352],[-72.9788,19.5868,0.3647],[-72.9676,19.5796,0.2227],[-72.9636,19.5796,0.7622],[-72.9629,19.5754,0.0],[-72.9574,19.575,0.0],[-72.9563,19.5732,0.0],[-72.9514,19.5729,0.2481],[-72.9467,19.5696,0.0],[-72.9209,19.562,0.5077],[-72.8964,19.5499,0.2899],[-72.8904,19.544,0.3987],[-72.8874,19.5449,0.0],[-72.8876,19.5415,0.0],[-72.886,19.5407,3.5652],[-72.8812,19.5424,2.5984],[-72.8705,19.5404,0.0],[-72.8626,19.5374,0.913],[-72.8565,19.5324,0.2255],[-72.8495,19.5315,0.2049],[-72.8415,19.5249,1.2091],[-72.836,19.5176,0.0],[-72.8265,19.5138,1.5106],[-72.8212,19.5138,0.7248],[-72.8051,19.501,1.6634],[-72.7932,19.5109,84.6586],[-72.7907,19.5186,197.1421],[-72.7854,19.5214,377.2988],[-72.7829,19.5281,458.492],[-72.7854,19.5302,443.7324],[-72.7887,19.5386,392.8996],[-72.7987,19.5419,245.1978],[-72.8042,19.5407,180.5004],[-72.8088,19.5442,169.4437],[-72.8134,19.5453,250.2072],[-72.8187,19.5446,252.6284],[-72.819,19.5472,229.0308],[-72.8288,19.5585,280.3168],[-72.8363,19.5735,174.2517],[-72.8393,19.5754,207.9054],[-72.8431,19.574,230.172],[-72.8452,19.5762,150.1921],[-72.8408,19.5791,276.1099],[-72.8331,19.5811,365.7246],[-72.8324,19.585,541.606],[-72.8259,19.5872,698.0837],[-72.8204,19.5938,890.0369],[-72.8383,19.6006,767.7761],[-72.8386,19.6029,739.2557],[-72.8569,19.6191,448.1121],[-72.8763,19.6313,193.7539],[-72.878,19.6356,187.1901],[-72.882,19.634,167.0047],[-72.8801,19.6371,179.6505],[-72.8813,19.6393,159.6743],[-72.8894,19.6425,141.1742],[-72.8907,19.645,138.9894],[-72.8884,19.6461,144.2212],[-72.8832,19.6467,155.4831],[-72.8798,19.6443,163.9186],[-72.8774,19.6469,177.6001],[-72.8744,19.6466,181.8506],[-72.8678,19.6581,211.8735],[-72.8586,19.6601,228.3928],[-72.8545,19.6631,256.0539],[-72.8576,19.6713,377.6454],[-72.8635,19.6712,356.3927],[-72.8758,19.6748,311.808]]],
[[[-73.1235,19.6268,0.2616],[-73.1232,19.6268,0.2616],[-73.1232,19.6274,1.6797],[-73.1237,19.6265,0.2616],[-73.1235,19.6268,0.2616]]]]}
,"properties": {"GID_3": "HTI.3.2.1_1","GID_0": "HTI","country": "Haiti","GID_1": "HTI.3_1","province": "L'Artibonite","NL_NAME_1": "NA","GID_2": "HTI.3.2_1","county": "Gros-Morne","NL_NAME_2": "NA","city": "AnseRouge","VARNAME_3": "NA","NL_NAME_3": "NA","TYPE_3": "Commune","ENGTYPE_3": "Commune","CC_3": "NA","HASC_3": "NA","name": "Anse_Rouge.city","area_km2": 433.8517,"hist_schema_id": "Elevation0-9000","hist_area_km2": {"0": 57.0262,"25": 59.6369,"50": 50.0038,"75": 42.4716,"100": 36.1393,"125": 33.2033,"150": 26.475,"175": 19.8869,"200": 14.9742,"225": 11.8797,"250": 9.4437,"275": 7.507,"300": 6.0299,"325": 4.832,"350": 4.1933,"375": 3.9536,"400": 2.9752,"425": 2.6757,"450": 2.2364,"475": 2.1163,"500": 1.9167,"525": 1.8767,"550": 2.2759,"575": 2.695,"600": 3.0342,"625": 2.9343,"650": 2.7148,"675": 2.4352,"700": 2.076,"725": 2.0562,"750": 1.6369,"775": 1.9562,"800": 1.557,"825": 1.2776,"850": 1.0979,"875": 1.3175,"900": 1.3574,"925": 1.058,"950": 0.7186,"975": 0.1397,"1000": 0.02,"1025": 0.0399}}}