{"type": "Feature","bbox": [-61.7651,10.6571,-61.4956,10.7715],"geometry": {"type": "MultiPolygon","coordinates": [[[[-61.6565,10.6696,4.848],[-61.6571,10.6707,0.0],[-61.6618,10.6699,0.0],[-61.6668,10.6663,1.7553],[-61.6662,10.6646,1.8684],[-61.6565,10.6624,14.9813],[-61.6538,10.664,14.6365],[-61.6546,10.6613,5.9131],[-61.6504,10.661,0.0],[-61.6485,10.6621,0.0],[-61.649,10.6643,46.2429],[-61.6454,10.6665,19.4862],[-61.6474,10.6701,24.7915],[-61.6538,10.6685,27.732],[-61.6565,10.6696,4.848]]],
[[[-61.6521,10.6765,0.0],[-61.654,10.6774,0.0],[-61.6549,10.676,0.0],[-61.6529,10.6751,0.0],[-61.6521,10.6765,0.0]]],
[[[-61.7501,10.7001,156.3941],[-61.7546,10.701,0.0],[-61.7588,10.6982,0.0],[-61.7571,10.6896,98.8803],[-61.7601,10.6888,0.0],[-61.7607,10.6865,0.0],[-61.7565,10.684,6.7417],[-61.7585,10.6818,0.0],[-61.7585,10.6776,4.8467],[-61.7637,10.6743,20.1616],[-61.7651,10.6712,6.8053],[-61.7601,10.6715,0.0],[-61.7562,10.6757,20.8671],[-61.7474,10.6726,10.7864],[-61.7424,10.6732,2.9835],[-61.7465,10.6787,2.5855],[-61.7529,10.679,0.0],[-61.7562,10.681,15.7955],[-61.7546,10.6832,5.1105],[-61.756,10.6863,23.5244],[-61.7529,10.6857,4.8849],[-61.7521,10.6885,39.1937],[-61.7471,10.6882,0.0],[-61.7471,10.6907,39.3326],[-61.7429,10.6876,8.4087],[-61.7432,10.6854,0.0],[-61.7415,10.6843,3.1178],[-61.7307,10.681,0.0],[-61.7307,10.6835,0.0],[-61.739,10.6935,0.0],[-61.7501,10.7001,156.3941]]],
[[[-61.6771,10.7046,0.0],[-61.6776,10.706,0.0],[-61.6799,10.7051,0.0],[-61.6801,10.7021,18.2308],[-61.6813,10.7021,18.2308],[-61.6815,10.7035,18.2308],[-61.6835,10.7024,44.343],[-61.6854,10.704,2.7443],[-61.6876,10.7035,189.3946],[-61.6899,10.7004,144.6026],[-61.6954,10.6982,70.8293],[-61.6954,10.694,171.4806],[-61.6971,10.6924,0.0],[-61.6954,10.6915,168.1833],[-61.6957,10.689,211.2802],[-61.6987,10.6879,0.0],[-61.7038,10.6815,2.4829],[-61.6982,10.6851,0.0],[-61.6971,10.6816,0.0],[-61.694,10.6832,32.7212],[-61.6935,10.6807,10.463],[-61.6885,10.6813,14.8563],[-61.6849,10.6796,4.9209],[-61.6832,10.6807,2.5251],[-61.6862,10.6826,4.8162],[-61.6837,10.6835,0.0],[-61.6829,10.6874,24.9444],[-61.6813,10.6874,32.8003],[-61.6804,10.6843,0.0],[-61.6785,10.6868,34.0766],[-61.6762,10.686,5.8357],[-61.6785,10.6951,33.6656],[-61.6801,10.6962,58.1371],[-61.679,10.7001,16.002],[-61.6751,10.696,1.4975],[-61.6746,10.6985,22.2521],[-61.6771,10.7046,0.0]]],
[[[-61.7249,10.7071,0.0],[-61.7285,10.7068,83.5675],[-61.7304,10.7043,18.4664],[-61.7232,10.7038,18.7728],[-61.7207,10.6996,1.0526],[-61.7176,10.6985,0.0],[-61.7168,10.6951,81.1009],[-61.7187,10.6932,37.1562],[-61.7176,10.6904,38.0825],[-61.7207,10.6863,23.3946],[-61.7196,10.6854,0.0],[-61.716,10.6907,40.1806],[-61.7124,10.6899,0.0],[-61.7107,10.691,1.3249],[-61.7115,10.6982,0.0],[-61.7126,10.6999,0.0],[-61.7179,10.7007,6.3748],[-61.7171,10.7015,6.3748],[-61.7193,10.7038,0.0],[-61.7249,10.7071,0.0]]],
[[[-61.6288,10.6599,6.3259],[-61.6312,10.6604,0.0],[-61.6315,10.6576,2.5726],[-61.6299,10.6571,8.3784],[-61.6288,10.6599,6.3259]]],
[[[-61.6224,10.6629,12.061],[-61.6251,10.6629,5.1998],[-61.6257,10.6607,8.0725],[-61.6224,10.661,7.8165],[-61.6224,10.6629,12.061]]],
[[[-61.5521,10.676,0.733],[-61.545,10.6779,17.9904],[-61.5316,10.6773,35.8781],[-61.5284,10.6784,33.0734],[-61.5278,10.6811,43.6122],[-61.5257,10.681,38.5823],[-61.5241,10.6784,27.6777],[-61.5171,10.6765,61.7976],[-61.5166,10.6831,156.4287],[-61.5085,10.6869,125.499],[-61.5015,10.7008,407.1968],[-61.4956,10.7056,435.6454],[-61.4972,10.7205,183.6171],[-61.4973,10.7554,145.5709],[-61.5029,10.7557,70.0236],[-61.5046,10.7599,6.704],[-61.5093,10.7618,75.3252],[-61.5129,10.7613,3.4541],[-61.5121,10.7593,20.8792],[-61.5146,10.7585,14.9031],[-61.5137,10.7563,50.1671],[-61.5215,10.7512,48.5794],[-61.5296,10.754,0.0],[-61.5312,10.7532,130.3894],[-61.5318,10.7546,15.0133],[-61.5357,10.7538,0.0],[-61.5374,10.7512,142.2355],[-61.5462,10.7471,45.5583],[-61.5488,10.7496,0.0],[-61.5587,10.7496,53.3642],[-61.5615,10.7515,8.7133],[-61.5693,10.749,0.0],[-61.5707,10.746,83.5669],[-61.5737,10.7454,59.4283],[-61.5854,10.7471,0.0],[-61.5921,10.7454,80.901],[-61.5951,10.7474,0.0],[-61.5985,10.7462,22.9834],[-61.6087,10.7485,23.7125],[-61.6146,10.7465,17.878],[-61.6176,10.7418,139.6786],[-61.621,10.741,0.0],[-61.6207,10.7374,0.0],[-61.6265,10.7371,0.0],[-61.6271,10.7346,27.134],[-61.6326,10.7304,151.5246],[-61.6371,10.7313,0.0],[-61.6365,10.7282,106.9259],[-61.6404,10.7265,116.9138],[-61.6437,10.7199,29.1478],[-61.6515,10.7174,8.8387],[-61.6549,10.7182,0.0],[-61.6568,10.7165,137.9733],[-61.6615,10.7165,0.0],[-61.6626,10.714,5.3925],[-61.6674,10.7135,142.6431],[-61.6676,10.7115,155.6966],[-61.671,10.711,0.0],[-61.6693,10.7088,201.8973],[-61.6712,10.7074,2.7805],[-61.6693,10.7065,130.889],[-61.6679,10.701,13.8042],[-61.6637,10.7021,36.3213],[-61.6637,10.7043,46.051],[-61.6621,10.7018,0.0],[-61.6632,10.6979,72.7696],[-61.6685,10.6924,7.5933],[-61.6674,10.6893,26.2],[-61.6618,10.6865,0.0],[-61.6621,10.684,0.0],[-61.6651,10.6821,10.501],[-61.6576,10.6813,14.8181],[-61.6543,10.6785,0.0],[-61.6515,10.6804,1.0753],[-61.6487,10.6801,0.0],[-61.6487,10.6785,0.0],[-61.6365,10.6801,0.0],[-61.6374,10.6779,0.0],[-61.636,10.6776,0.0],[-61.6335,10.6799,0.5528],[-61.6362,10.6732,0.0],[-61.6362,10.6687,0.0],[-61.6312,10.6657,6.5992],[-61.6274,10.6663,11.7734],[-61.6221,10.6707,20.762],[-61.6151,10.6724,13.3461],[-61.6143,10.6754,23.1861],[-61.6162,10.6746,14.8993],[-61.6185,10.6787,46.3625],[-61.6226,10.6779,6.4816],[-61.624,10.6801,0.0],[-61.6218,10.6813,0.0],[-61.6188,10.6801,0.0],[-61.6135,10.6829,0.0],[-61.6104,10.6882,3.8674],[-61.6074,10.6882,0.0],[-61.6043,10.6907,0.7536],[-61.6024,10.6904,0.0],[-61.5974,10.681,0.0],[-61.594,10.6846,1.4645],[-61.5929,10.6826,0.0],[-61.5829,10.6826,11.4253],[-61.574,10.6793,3.3216],[-61.5729,10.6771,0.4048],[-61.5701,10.6785,0.0],[-61.5679,10.6771,0.0],[-61.5676,10.6787,0.0],[-61.5651,10.679,3.6305],[-61.561,10.6732,0.0],[-61.5521,10.676,0.733]]],
[[[-61.5082,10.764,4.9231],[-61.509,10.7651,4.9231],[-61.5104,10.7624,15.852],[-61.509,10.7621,0.0],[-61.5082,10.764,4.9231]]],
[[[-61.5096,10.7715,1.862],[-61.5137,10.7715,0.0],[-61.5146,10.7696,0.0],[-61.5104,10.7682,0.0],[-61.5096,10.7715,1.862]]]]}
,"properties": {"GID_1": "TTO.4_1","GID_0": "TTO","country": "TrinidadandTobago","province": "DiegoMartin","VARNAME_1": "PetitValley","NL_NAME_1": "NA","TYPE_1": "Region","ENGTYPE_1": "Region","CC_1": "NA","HASC_1": "TT.DM","ISO_1": "TT-DMN","name": "Diego_Martin.province","area_km2": 141.9966,"hist_schema_id": "Elevation0-9000","hist_area_km2": {"0": 10.7089,"25": 14.2292,"50": 13.8539,"75": 11.6458,"100": 10.0207,"125": 9.5832,"150": 8.2289,"175": 8.0622,"200": 7.3123,"225": 5.8539,"250": 6.1872,"275": 5.7498,"300": 5.3122,"325": 4.6456,"350": 4.4997,"375": 3.4581,"400": 3.3748,"425": 2.8748,"450": 2.0624,"475": 1.6665,"500": 1.1041,"525": 0.8124,"550": 0.3958,"575": 0.2083,"600": 0.0625,"625": 0.0208,"650": 0.0625}}}