{"type":"Feature","properties":{"GID_3":"HTI.3.4.1_1","GID_0":"HTI","country":"Haiti","GID_1":"HTI.3_1","province":"L'Artibonite","NL_NAME_1":"NA","GID_2":"HTI.3.4_1","county":"Marmelade","NL_NAME_2":"NA","city":"Marmelade","VARNAME_3":"NA","NL_NAME_3":"NA","TYPE_3":"Commune","ENGTYPE_3":"Commune","CC_3":"NA","HASC_3":"NA","name":"Marmelade.city"},
"geometry":{"type": "MultiPolygon","coordinates": [[[[-72.414,19.4686,538.1223],[-72.4174,19.4648,492.6208],[-72.4165,19.4632,520.5197],[-72.4021,19.4615,618.9662],[-72.393,19.467,679.0065],[-72.3871,19.4665,681.2908],[-72.3798,19.4701,656.6255],[-72.3751,19.4631,655.7411],[-72.3731,19.4635,661.9531],[-72.3702,19.4701,775.0693],[-72.3634,19.477,803.7561],[-72.3575,19.4769,777.9929],[-72.3579,19.4831,749.1833],[-72.3546,19.4834,707.2061],[-72.3534,19.4897,755.9045],[-72.3499,19.4889,717.8884],[-72.3474,19.4864,703.891],[-72.3338,19.4885,903.5721],[-72.3327,19.4852,877.9923],[-72.33,19.4837,874.4481],[-72.3207,19.4845,832.2444],[-72.3187,19.4872,895.7003],[-72.3254,19.4896,1017.6572],[-72.326,19.5004,905.6848],[-72.3316,19.5054,870.92],[-72.3271,19.5104,685.5735],[-72.3221,19.5109,597.5599],[-72.3254,19.5265,703.8717],[-72.328,19.5275,799.0345],[-72.3312,19.5324,781.7664],[-72.325,19.5394,574.3357],[-72.3253,19.5433,638.8629],[-72.3232,19.5448,648.1724],[-72.323,19.5542,844.6874],[-72.3191,19.5586,931.5298],[-72.3225,19.5613,849.004],[-72.3246,19.5699,834.3412],[-72.3278,19.572,862.7229],[-72.3348,19.5706,726.8177],[-72.347,19.5737,677.6996],[-72.359,19.5726,700.6667],[-72.3621,19.5672,662.0181],[-72.3649,19.5653,562.9202],[-72.3666,19.566,505.3906],[-72.3647,19.575,556.0079],[-72.3663,19.5764,566.8983],[-72.3619,19.5783,675.2247],[-72.3592,19.5817,806.0685],[-72.3591,19.5855,854.6483],[-72.3629,19.5878,792.7656],[-72.3652,19.5918,775.7844],[-72.3745,19.5901,834.2991],[-72.3774,19.5883,736.4026],[-72.3786,19.5853,815.0162],[-72.3812,19.5854,872.6995],[-72.3905,19.5729,665.0281],[-72.3902,19.566,427.691],[-72.3932,19.5621,420.2741],[-72.4001,19.5639,374.271],[-72.4039,19.5692,383.6911],[-72.4084,19.5676,338.6413],[-72.4093,19.5708,365.669],[-72.4118,19.5713,316.9162],[-72.4231,19.5652,600.8245],[-72.4248,19.5588,618.8215],[-72.415,19.545,620.0725],[-72.4176,19.5394,703.4237],[-72.4247,19.5297,963.8706],[-72.4332,19.5252,992.4704],[-72.44,19.528,1032.0116],[-72.4419,19.5227,1014.9863],[-72.4472,19.5213,991.9094],[-72.4439,19.5155,945.8076],[-72.4394,19.5127,825.4924],[-72.4354,19.515,886.0077],[-72.4318,19.5083,857.1904],[-72.4187,19.5022,956.8391],[-72.415,19.4984,746.5402],[-72.414,19.4914,791.8958],[-72.4097,19.4843,690.3174],[-72.404,19.4805,660.84],[-72.4045,19.4776,591.723],[-72.4025,19.4752,588.5472],[-72.4051,19.4708,539.4736],[-72.414,19.4686,538.1223]]]]}}