{"type": "Feature","bbox": [-66.0527,18.0756,-65.9252,18.2292],"geometry": {"type": "MultiPolygon","coordinates": [[[[-66.0527,18.1137,886.6603],[-66.0509,18.1094,884.6375],[-66.0425,18.1042,826.4125],[-66.0273,18.1018,712.2733],[-66.0195,18.1032,676.6536],[-66.0125,18.0966,726.3467],[-66.0125,18.0937,717.0588],[-66.0195,18.0837,729.9753],[-66.0102,18.0756,622.9202],[-66.0051,18.076,562.9557],[-65.9936,18.0899,359.1657],[-65.9848,18.0884,337.6364],[-65.9774,18.0951,338.2647],[-65.9622,18.0865,320.4817],[-65.9525,18.0927,320.3423],[-65.9419,18.0894,346.937],[-65.9336,18.0937,314.6027],[-65.9308,18.097,287.4729],[-65.9257,18.1118,349.7524],[-65.9262,18.1199,387.1513],[-65.9276,18.1218,378.4026],[-65.9252,18.1347,350.5449],[-65.9285,18.1428,380.6989],[-65.9299,18.1557,369.6945],[-65.9322,18.1614,322.9004],[-65.9275,18.1772,150.5323],[-65.928,18.1891,162.1668],[-65.9294,18.1972,226.5405],[-65.9358,18.1981,191.5332],[-65.952,18.2158,224.8407],[-65.9511,18.2291,153.9046],[-65.9714,18.2292,225.624],[-65.9825,18.2206,96.3328],[-65.9899,18.2196,86.4156],[-65.9918,18.212,123.7898],[-65.9978,18.2072,67.2166],[-66.0001,18.1977,311.3792],[-65.9982,18.1924,289.8773],[-66.0038,18.1858,294.9579],[-66.013,18.1824,265.9924],[-66.0222,18.1653,385.2399],[-66.0232,18.1533,584.3451],[-66.0204,18.1438,565.4805],[-66.0241,18.1357,556.293],[-66.0329,18.1295,604.425],[-66.0352,18.1195,634.5377],[-66.0426,18.1142,661.7975],[-66.0527,18.1137,886.6603]]]]}
,"properties": {"GID_1": "PRI.66_1","GID_0": "PRI","country": "PuertoRico","province": "SanLorenzo","VARNAME_1": "NA","NL_NAME_1": "NA","TYPE_1": "Municipio","ENGTYPE_1": "Municipality","CC_1": "NA","HASC_1": "PR.SL","ISO_1": "-","name": "San_Lorenzo.province","area_km2": 137.5469,"hist_schema_id": "Elevation0-9000","hist_area_km2": {"50": 0.0201,"75": 3.7262,"100": 10.2526,"125": 9.6486,"150": 9.0041,"175": 11.3415,"200": 11.7249,"225": 10.779,"250": 9.1071,"275": 9.9134,"300": 13.7225,"325": 10.7202,"350": 5.5212,"375": 3.5867,"400": 2.2165,"425": 1.9748,"450": 1.7531,"475": 1.7934,"500": 1.6524,"525": 1.6725,"550": 1.2091,"575": 1.5114,"600": 1.2494,"625": 1.0076,"650": 0.5643,"675": 0.5038,"700": 0.3023,"725": 0.3829,"750": 0.1814,"775": 0.1008,"800": 0.1411,"825": 0.0806,"850": 0.0806,"875": 0.1008}}}