{"type":"Feature","properties":{"GID_3":"HTI.10.4.3_1","GID_0":"HTI","country":"Haiti","GID_1":"HTI.10_1","province":"Sud","NL_NAME_1":"NA","GID_2":"HTI.10.4_1","county":"lesCôteaux","NL_NAME_2":"NA","city":"Roche-à-Bateau","VARNAME_3":"NA","NL_NAME_3":"NA","TYPE_3":"Commune","ENGTYPE_3":"Commune","CC_3":"NA","HASC_3":"NA","name":"Roche-à-Bateau.city"},
"geometry":{"type": "MultiPolygon","coordinates": [[[[-73.9507,18.2024,226.5613],[-73.9642,18.214,361.4703],[-73.9651,18.2212,432.9392],[-73.9676,18.2222,518.0707],[-73.9674,18.2243,551.438],[-73.9623,18.2248,509.1665],[-73.9608,18.2267,570.8094],[-73.9741,18.2395,638.575],[-73.9837,18.2462,573.7974],[-73.9843,18.2516,583.6833],[-73.9887,18.2561,666.4883],[-73.9892,18.2604,604.9554],[-73.9916,18.2631,656.9954],[-74.0021,18.2633,802.5217],[-74.0047,18.2618,870.7959],[-74.0032,18.2571,787.2768],[-73.9948,18.2503,491.0804],[-73.9908,18.2448,347.4271],[-73.9963,18.2402,643.0961],[-73.9963,18.2374,739.9399],[-73.9941,18.2332,445.5817],[-73.9946,18.229,299.9816],[-73.9865,18.2096,91.3503],[-73.9915,18.2028,78.8939],[-73.994,18.2053,66.0054],[-73.9966,18.2,63.7656],[-73.9953,18.1967,55.593],[-73.9984,18.1912,26.5488],[-73.9971,18.1882,37.0686],[-74.006,18.1849,7.8868],[-74.0076,18.1828,5.6491],[-74.0039,18.179,1.612],[-74.0043,18.174,0.0],[-74.0016,18.1713,0.0],[-74.0013,18.166,0.0],[-73.9795,18.1635,1.4477],[-73.9804,18.1599,5.5542],[-73.979,18.1579,0.0],[-73.981,18.1554,5.3747],[-73.9749,18.146,0.0],[-73.9707,18.144,28.7695],[-73.9624,18.134,16.9521],[-73.9532,18.1333,2.0753],[-73.9497,18.1313,2.8674],[-73.9491,18.1328,10.4621],[-73.9469,18.133,15.9715],[-73.9486,18.1394,76.1362],[-73.9488,18.1519,87.8924],[-73.9466,18.1621,55.1918],[-73.9488,18.1693,92.6105],[-73.9485,18.1755,124.658],[-73.9463,18.1815,123.9523],[-73.9458,18.1886,182.7489],[-73.9405,18.1953,162.748],[-73.9507,18.2024,226.5613]]]]}}