{"type": "Feature","bbox": [-82.3824,22.4621,-82.1862,22.8411],"geometry": {"type": "MultiPolygon","coordinates": [[[[-82.364,22.5001,0.0],[-82.3676,22.4999,0.9111],[-82.3751,22.4943,0.0],[-82.3793,22.494,0.0],[-82.3818,22.4885,0.0],[-82.3815,22.4879,0.0],[-82.3785,22.4888,0.8156],[-82.3771,22.4912,3.3641],[-82.3737,22.4899,2.5333],[-82.3718,22.4849,2.4345],[-82.3768,22.4824,0.0],[-82.3743,22.4776,2.3989],[-82.3788,22.4757,2.2771],[-82.3815,22.4785,1.6981],[-82.3824,22.4763,2.4928],[-82.3796,22.4715,0.0],[-82.3726,22.4665,0.0],[-82.3674,22.4649,0.0],[-82.3657,22.4654,0.0],[-82.366,22.4668,0.0],[-82.3712,22.4707,0.0],[-82.3726,22.4743,0.0],[-82.3704,22.4765,0.0],[-82.3721,22.4799,0.0],[-82.3699,22.4799,0.0],[-82.3674,22.4824,1.0861],[-82.369,22.4932,1.8985],[-82.3657,22.4951,0.0],[-82.364,22.5001,0.0]]],
[[[-82.2932,22.4926,0.0],[-82.2943,22.4954,0.0],[-82.2996,22.494,0.0],[-82.3037,22.4896,3.7793],[-82.3024,22.4863,5.8634],[-82.2999,22.4854,0.0],[-82.2985,22.489,1.6735],[-82.2932,22.4926,0.0]]],
[[[-82.3257,22.5076,1.107],[-82.3282,22.5082,1.1257],[-82.3293,22.5057,0.6024],[-82.3324,22.5076,0.0],[-82.3388,22.5068,0.82],[-82.3415,22.5024,1.3121],[-82.3321,22.5015,0.0],[-82.3265,22.5038,4.1911],[-82.3171,22.501,2.9033],[-82.3129,22.5029,0.954],[-82.314,22.5071,0.0],[-82.3257,22.5076,1.107]]],
[[[-82.2854,22.4732,0.3779],[-82.2963,22.471,2.8745],[-82.2913,22.4688,1.9646],[-82.2937,22.4643,2.1425],[-82.2954,22.4671,0.0],[-82.3001,22.4649,0.496],[-82.2957,22.4621,1.7732],[-82.2918,22.4635,0.0],[-82.2887,22.4679,1.114],[-82.2821,22.4696,0.3461],[-82.2821,22.4715,1.0444],[-82.2854,22.4732,0.3779]]],
[[[-82.1876,22.684,5.0061],[-82.1862,22.6838,5.2307],[-82.1872,22.7313,7.8608],[-82.1902,22.7409,11.3132],[-82.1971,22.747,15.046],[-82.2274,22.7623,22.5095],[-82.248,22.8006,40.0437],[-82.2566,22.812,48.3131],[-82.2694,22.8239,53.4745],[-82.3011,22.8411,59.9694],[-82.3025,22.7843,32.1869],[-82.35,22.7409,15.3925],[-82.3592,22.7227,8.2104],[-82.362799999999993,22.6998,1.4739],[-82.3739,22.6813,1.2482],[-82.3593,22.681,3.7063],[-82.3404,22.6776,3.5166],[-82.324,22.6824,6.7532],[-82.3046,22.6824,2.1883],[-82.3035,22.6835,1.3294],[-82.3007,22.6826,2.0518],[-82.2999,22.6807,0.7474],[-82.2974,22.6807,0.7034],[-82.2915,22.6829,3.1625],[-82.2915,22.6757,0.0],[-82.2896,22.6751,0.0],[-82.2893,22.6801,1.4985],[-82.2835,22.6854,0.2783],[-82.279,22.6865,1.9581],[-82.2396,22.6885,0.0],[-82.216,22.6851,0.0],[-82.2026,22.686,5.2365],[-82.1876,22.684,5.0061]]]]}
,"properties": {"GID_2": "CUB.12.1_1","GID_0": "CUB","country": "Cuba","GID_1": "CUB.12_1","province": "Mayabeque","NL_NAME_1": "NA","county": "Batabanó","VARNAME_2": "NA","NL_NAME_2": "NA","TYPE_2": "Municipio","ENGTYPE_2": "Municipality","CC_2": "NA","HASC_2": "CU.LH.BB","name": "Batabanó.county","area_km2": 196.9831,"hist_schema_id": "Elevation0-9000","hist_area_km2": {"0": 109.3802,"25": 72.0658,"50": 15.5371}}}