{"type":"Feature","properties":{"GID_2":"CUB.4.11_1","GID_0":"CUB","country":"Cuba","GID_1":"CUB.4_1","province":"CiudaddelaHabana","NL_NAME_1":"NA","county":"Marianao","VARNAME_2":"NA","NL_NAME_2":"NA","TYPE_2":"Municipio","ENGTYPE_2":"Municipality","CC_2":"NA","HASC_2":"CU.CH.MA","name":"Marianao.county"},
"geometry":{"type": "MultiPolygon","coordinates": [[[[-82.3654,23.0533,86.8764],[-82.3556,23.0814,38.4627],[-82.3952,23.0967,31.7543],[-82.4043,23.0914,53.4244],[-82.4126,23.0812,51.146],[-82.4008,23.0643,41.7917],[-82.3913,23.0363,51.5405],[-82.3654,23.0533,86.8764]]]]}}