{"type":"Feature","properties":{"GID_2":"HTI.10.4_1","GID_0":"HTI","country":"Haiti","GID_1":"HTI.10_1","province":"Sud","NL_NAME_1":"NA","county":"lesCôteaux","VARNAME_2":"NA","NL_NAME_2":"NA","TYPE_2":"Arrondissement","ENGTYPE_2":"District","CC_2":"NA","HASC_2":"HT.SD.CX","name":"les_Côteaux.county"},
"geometry":{"type": "MultiPolygon","coordinates": [[[[-73.9458,18.1886,182.7489],[-73.9405,18.1953,162.748],[-73.9585,18.208,200.2795],[-73.9642,18.214,361.4703],[-73.9651,18.2212,432.9392],[-73.9676,18.2222,518.0707],[-73.9674,18.2243,551.438],[-73.9623,18.2248,509.1665],[-73.9608,18.2267,570.8094],[-73.9741,18.2395,638.575],[-73.9837,18.2462,573.7974],[-73.9843,18.2516,583.6833],[-73.9887,18.2561,666.4883],[-73.9892,18.2604,604.9554],[-73.9916,18.2631,656.9954],[-73.9938,18.2784,746.0635],[-74.0024,18.2849,620.7289],[-74.0071,18.2952,798.187],[-74.0162,18.3036,791.5907],[-74.0158,18.3065,863.7706],[-74.0173,18.3086,889.616],[-74.0413,18.3305,1010.4657],[-74.0515,18.3286,717.5717],[-74.0561,18.3239,512.9294],[-74.0622,18.3225,520.1599],[-74.0683,18.3266,414.068],[-74.077,18.3233,372.1444],[-74.0844,18.3269,308.4959],[-74.0911,18.3163,239.586],[-74.1056,18.3034,138.0098],[-74.1053,18.3008,131.6124],[-74.1006,18.2962,113.2086],[-74.1021,18.2901,108.9157],[-74.1012,18.2863,98.88],[-74.0965,18.2813,112.8879],[-74.0939,18.265,45.938],[-74.1024,18.2608,16.5251],[-74.1062,18.2512,1.5079],[-74.0913,18.2474,19.6695],[-74.0886,18.2446,0.0],[-74.0882,18.2395,0.0],[-74.0866,18.239,20.2493],[-74.0849,18.2349,2.7154],[-74.0624,18.2268,0.7308],[-74.0632,18.2237,0.0],[-74.061,18.2204,0.0],[-74.0535,18.2182,0.0],[-74.054,18.2113,0.0],[-74.0521,18.2096,2.0064],[-74.043,18.2067,0.0],[-74.0396,18.2012,1.3012],[-74.0349,18.1999,0.0],[-74.0338,18.1965,4.5253],[-74.0229,18.1946,6.2563],[-74.0199,18.1919,5.3096],[-74.019,18.1871,4.1222],[-74.0051,18.1811,6.7445],[-74.0038,18.1781,0.0],[-74.0043,18.174,0.0],[-74.0016,18.1713,0.0],[-74.001,18.1654,0.0],[-73.984,18.1649,2.5781],[-73.9795,18.1635,1.4477],[-73.9804,18.1599,5.5542],[-73.979,18.1579,0.0],[-73.981,18.1554,5.3747],[-73.9749,18.146,0.0],[-73.9707,18.144,28.7695],[-73.9624,18.134,16.9521],[-73.9526,18.1332,2.0753],[-73.9501,18.1313,2.8674],[-73.9469,18.133,15.9715],[-73.9486,18.1394,76.1362],[-73.9488,18.1519,87.8924],[-73.9466,18.1621,55.1918],[-73.9488,18.1693,92.6105],[-73.9458,18.1886,182.7489]]]]}}