{"type": "Feature","bbox": [-70.0641,18.3907,-69.9931,18.4771],"geometry": {"type": "MultiPolygon","coordinates": [[[[-70.0076,18.4237,0.0],[-70.0056,18.4265,12.9523],[-69.9969,18.4302,28.7753],[-69.9984,18.4392,44.8207],[-69.9931,18.4464,40.4601],[-69.9942,18.449,15.3108],[-70.0006,18.4529,10.8406],[-70.0001,18.4576,17.3325],[-70.0017,18.4597,18.0555],[-70.0047,18.4606,17.539],[-70.0086,18.4581,2.783],[-70.0102,18.4592,1.3414],[-70.0048,18.4678,35.3886],[-70.0054,18.4739,17.0208],[-70.0101,18.474,16.7763],[-70.0166,18.4623,6.7437],[-70.02,18.4605,11.3281],[-70.0276,18.4616,37.4251],[-70.0376,18.4771,27.2345],[-70.0416,18.4766,32.6602],[-70.0505,18.4705,17.6751],[-70.0553,18.4609,45.6453],[-70.0524,18.4565,54.2735],[-70.0526,18.4514,56.1118],[-70.0625,18.4453,54.5692],[-70.0641,18.4407,61.2754],[-70.0624,18.4382,48.0381],[-70.0468,18.4296,30.6406],[-70.0436,18.4226,49.1983],[-70.0434,18.41,61.9543],[-70.0397,18.403,29.7738],[-70.0352,18.4001,16.4085],[-70.0328,18.3907,2.5253],[-70.0268,18.4015,0.0],[-70.0246,18.4096,2.7807],[-70.0224,18.4121,9.183],[-70.0188,18.4126,0.524],[-70.0201,18.419,8.6708],[-70.0168,18.421,0.0],[-70.0176,18.4182,5.2963],[-70.0157,18.4165,0.0],[-70.0076,18.4237,0.0]]]]}
,"properties": {"GID_2": "DOM.24.1_1","GID_0": "DOM","country": "DominicanRepublic","GID_1": "DOM.24_1","province": "SanCristóbal","NL_NAME_1": "NA","county": "BajosdeHaina","VARNAME_2": "NA","NL_NAME_2": "NA","TYPE_2": "Municipio","ENGTYPE_2": "Municipality","CC_2": "NA","HASC_2": "DO.CR.BH","name": "Bajosde_Haina.county","area_km2": 35.29925,"hist_schema_id": "Elevation0-9000","hist_area_km2": {"0": 7.96491,"25": 10.0166,"50": 13.99896,"75": 3.31879}}}