{"type":"Feature","properties":{"ISO3166-1-Alpha-3":"BHS","country":"The Bahamas","fill":"#F0F","id":"5037","name":"Mayaguana"},
"geometry":{"type": "Polygon","coordinates": [[[-73.13915,22.36335,7.2985],[-73.10131,22.3559,0.0],[-73.09594,22.35371,0.0],[-73.09097,22.34907,0.0],[-73.0843,22.34439,0.0],[-73.07372,22.34223,0.0],[-73.04955,22.34663,4.3043],[-73.00992,22.36595,1.0046],[-72.98835,22.37018,0.0],[-72.98046,22.36787,0.0],[-72.97533,22.36298,0.0],[-72.96882,22.3581,0.0],[-72.95702,22.3559,0.0],[-72.94913,22.357,0.0],[-72.93419,22.36213,0.0],[-72.92292,22.36335,0.0],[-72.89757,22.36225,0.0],[-72.87999,22.35822,0.0],[-72.864,22.34992,0.0],[-72.84374,22.336,2.8385],[-72.79723,22.29365,0.0],[-72.77945,22.28823,2.5701],[-72.76382,22.29487,0.0],[-72.75088,22.31122,0.0],[-72.74616,22.33128,1.1856],[-72.75499,22.34968,0.5495],[-72.76366,22.35322,0.0],[-72.78331,22.35322,0.8125],[-72.79284,22.35961,1.2233],[-72.80598,22.37425,0.0],[-72.81379,22.38101,0.0],[-72.82046,22.38378,0.0],[-72.84374,22.38434,12.0289],[-72.86168,22.38687,10.3877],[-72.87711,22.39301,0.0],[-72.89281,22.40428,0.0],[-72.90364,22.39907,0.4195],[-72.92028,22.4029,4.4358],[-72.9536,22.41861,1.9764],[-72.94481,22.40249,0.0],[-72.93993,22.39688,6.6501],[-72.96373,22.39765,11.8646],[-73.01521,22.43049,0.0],[-73.03991,22.43903,0.0],[-73.04825,22.44013,0.0],[-73.06314,22.44473,0.0],[-73.07022,22.44526,0.4371],[-73.07706,22.44286,0.0],[-73.08511,22.43818,0.0],[-73.09089,22.43366,0.0],[-73.09081,22.43159,0.0],[-73.10607,22.4335,0.89],[-73.11457,22.43854,0.8075],[-73.1317,22.45954,0.0],[-73.14224,22.45136,0.0],[-73.14245,22.44229,0.0],[-73.1407,22.43155,0.0],[-73.14538,22.41861,0.0],[-73.15152,22.4086,0.0],[-73.15111,22.40396,0.0],[-73.14538,22.39688,0.0],[-73.16373,22.38369,0.0],[-73.16601,22.37421,0.0],[-73.1564,22.36766,0.835],[-73.13915,22.36335,7.2985]]]}}