{"type":"Feature","properties":{"GID_1":"BHS.19_1","GID_0":"BHS","country":"Bahamas","state":"Mayaguana","VARNAME_1":"NA","NL_NAME_1":"NA","TYPE_1":"District","ENGTYPE_1":"District","CC_1":"NA","HASC_1":"BS.MG","ISO_1":"NA","name":"Mayaguana.state"},
"geometry":{"type": "MultiPolygon","coordinates": [[[[-72.9999,22.0001,0.0],[-73.0001,22.0001,0.0],[-73.0001,21.9999,0.0],[-72.9999,21.9999,0.0],[-72.9999,22.0001,0.0]]],
[[[-72.9526,22.4035,0.0],[-72.9507,22.4063,0.0],[-72.9551,22.4051,0.0545],[-72.9554,22.404,0.0545],[-72.9526,22.4035,0.0]]],
[[[-72.9538,22.4068,0.0],[-72.956,22.4079,0.0],[-72.9571,22.4057,0.0],[-72.9543,22.4054,0.0545],[-72.9538,22.4068,0.0]]],
[[[-73.1079,22.4676,0.0],[-73.1093,22.4685,0.0],[-73.1096,22.4654,0.0],[-73.104,22.4663,0.0],[-73.1079,22.4665,0.0],[-73.1079,22.4676,0.0]]],
[[[-72.7162,22.3293,0.7056],[-72.7185,22.3299,1.9759],[-72.7232,22.3235,1.3244],[-72.7301,22.3226,0.0],[-72.7304,22.3207,0.0],[-72.716,22.3235,0.0],[-72.7151,22.3254,0.0],[-72.7121,22.326,1.3339],[-72.7162,22.3293,0.7056]]],
[[[-73.1288,22.4562,0.7023],[-73.1304,22.4565,1.6528],[-73.129,22.4468,0.6223],[-73.1299,22.4338,2.019],[-73.1363,22.419,0.0],[-73.1357,22.4165,0.58],[-73.1404,22.4107,0.0],[-73.1421,22.3982,0.3077],[-73.1626,22.3779,0.5473],[-73.1712,22.3646,1.2302],[-73.1693,22.3618,0.0],[-73.1496,22.3585,0.0],[-73.1282,22.364,4.8899],[-73.1201,22.3638,1.6402],[-73.1135,22.3657,4.9214],[-73.1071,22.3638,1.3806],[-73.0971,22.3574,0.0],[-73.0868,22.3546,2.6434],[-73.0665,22.3357,1.1899],[-73.059,22.3318,0.0],[-73.0476,22.3368,0.0],[-73.0249,22.3571,2.8724],[-73.011,22.3665,1.0046],[-73.0013,22.371,0.0],[-72.9943,22.3721,0.9472],[-72.9768,22.3693,0.5935],[-72.9704,22.3635,0.427],[-72.9679,22.3538,0.5305],[-72.9457,22.3618,0.0],[-72.9307,22.3649,0.0],[-72.9046,22.3646,1.3402],[-72.8921,22.3626,1.6738],[-72.8732,22.3576,0.5376],[-72.8637,22.3524,0.6706],[-72.8624,22.3485,0.0],[-72.8604,22.349,1.2336],[-72.8538,22.3443,0.874],[-72.8454,22.3346,0.0],[-72.8185,22.311,0.0],[-72.8171,22.3068,0.0],[-72.8126,22.306,0.8818],[-72.8126,22.3037,0.0],[-72.7962,22.2943,2.5751],[-72.7821,22.2826,0.0],[-72.7735,22.2862,0.6558],[-72.7699,22.2904,0.0],[-72.7671,22.291,1.1807],[-72.7621,22.2988,1.2998],[-72.7465,22.3057,2.0403],[-72.739,22.3124,1.1239],[-72.7349,22.319,0.0],[-72.7363,22.3296,5.4283],[-72.7332,22.3338,2.5214],[-72.7276,22.3349,0.0],[-72.729,22.3388,0.0],[-72.7329,22.339,0.0],[-72.7368,22.3418,0.6175],[-72.7404,22.3415,3.8199],[-72.7449,22.3465,0.0],[-72.7532,22.3507,0.0],[-72.7549,22.3535,0.6825],[-72.7601,22.354,0.0],[-72.7624,22.3496,0.9062],[-72.766,22.3487,3.5232],[-72.779,22.3524,0.0],[-72.7932,22.3654,2.9216],[-72.794,22.3685,0.2721],[-72.799,22.3738,0.0],[-72.804,22.3754,0.0],[-72.8054,22.3704,1.9641],[-72.8099,22.3701,2.591],[-72.8176,22.374,0.5443],[-72.8207,22.379,0.595],[-72.8179,22.3829,0.0],[-72.8235,22.3824,0.1991],[-72.8279,22.3851,1.2585],[-72.8382,22.3871,0.0],[-72.8407,22.3863,1.6525],[-72.8471,22.3907,0.0],[-72.8557,22.3874,0.3978],[-72.8707,22.3954,1.0238],[-72.8876,22.4013,1.4123],[-72.8896,22.4013,0.0],[-72.889,22.3996,0.6747],[-72.8904,22.3987,2.3254],[-72.9207,22.4043,0.5885],[-72.9551,22.4201,0.5557],[-72.9585,22.4193,0.0],[-72.9549,22.4104,0.0],[-72.9504,22.4107,0.1654],[-72.9454,22.4135,0.0],[-72.9426,22.4107,0.0],[-72.9357,22.4096,0.0],[-72.9335,22.4068,0.1841],[-72.9365,22.4054,0.1437],[-72.9374,22.4029,0.1132],[-72.9424,22.403199999999998,0.0],[-72.9426,22.4015,0.0],[-72.9407,22.4015,0.0114],[-72.9418,22.3976,-0.0219],[-72.9474,22.401,0.0],[-72.9571,22.3993,3.379],[-72.9579,22.4004,3.379],[-72.956,22.4015,0.0],[-72.9607,22.4043,0.7138],[-72.959,22.4079,0.9507],[-72.9737,22.4049,4.2208],[-72.9815,22.4063,2.5639],[-72.9971,22.4121,0.5459],[-73.0149,22.4246,0.0],[-73.024,22.4285,0.9034],[-73.0296,22.4346,0.0],[-73.0379,22.4351,1.4859],[-73.0399,22.4368,0.4368],[-73.0515,22.439,0.0],[-73.0546,22.4382,2.2687],[-73.0582,22.4418,0.0],[-73.064,22.4426,0.3935],[-73.0649,22.4446,0.0],[-73.0721,22.4482,0.0],[-73.0749,22.4482,0.0],[-73.0718,22.4429,0.0],[-73.0726,22.4365,1.4268],[-73.0757,22.4332,1.0156],[-73.0813,22.4301,4.5696],[-73.0904,22.4301,2.4473],[-73.0985,22.4329,3.0687],[-73.104,22.4401,0.0],[-73.109,22.4424,1.0578],[-73.1162,22.4507,0.0],[-73.1288,22.4562,0.7023]]],
[[[-72.9488,22.4063,0.417],[-72.9504,22.4071,0.1472],[-72.9501,22.4046,0.0817],[-72.9485,22.4051,0.0],[-72.9488,22.4063,0.417]]],
[[[-72.951,22.4096,0.0617],[-72.9526,22.4104,0.1912],[-72.9546,22.409,0.0],[-72.9504,22.4074,0.1472],[-72.951,22.4096,0.0617]]]]}}