{"type": "Feature","id": "1388","bbox": [-73.29963,18.26297,-71.70934,18.97285],"geometry": {"type": "MultiPolygon","coordinates": [[[[-72.82046,18.70067,18.2483],[-72.80875,18.7204,0.0],[-72.8059,18.74567,100.4584],[-72.80948,18.77147,37.6679],[-72.81705,18.79312,14.4766],[-72.8461,18.82709,0.0],[-72.91723,18.85545,0.0],[-72.9934,18.89204,0.0],[-73.06192,18.91332,51.8337],[-73.2008,18.9687,1.3548],[-73.22448,18.97126,0.0],[-73.24596,18.96841,0.0],[-73.26635,18.96084,0.0],[-73.28384,18.94969,0.0],[-73.29621,18.93651,8.1586],[-73.29963,18.92552,22.4529],[-73.29654,18.9145,16.4892],[-73.28991,18.9042,2.6489],[-73.28258,18.89549,0.1596],[-73.27733,18.8911,0.0],[-73.25866,18.87849,1.338],[-73.23851,18.85151,0.494],[-73.21459,18.83662,0.3909],[-73.12556,18.81363,0.0],[-73.03742,18.75959,0.0],[-73.00544,18.75214,219.3134],[-72.97501,18.7499,248.497],[-72.88589,18.73102,12.7909],[-72.86335,18.72964,2.9332],[-72.8557,18.72769,8.8461],[-72.84716,18.72053,0.0],[-72.83821,18.70258,0.0],[-72.83113,18.69644,0.0],[-72.82046,18.70067,18.2483]]],
[[[-72.53601,18.96039,696.2117],[-72.61153,18.97057,497.9914],[-72.67527,18.97285,243.184],[-72.69202,18.96117,92.39],[-72.70602,18.94427,13.1009],[-72.70604,18.94424,13.1009],[-72.69009,18.93651,0.0],[-72.673,18.9313,4.0526],[-72.65197,18.91861,0.0],[-72.63195,18.90306,7.0736],[-72.61779,18.88935,46.4528],[-72.56652,18.81363,1.883],[-72.55809,18.79462,0.0],[-72.54955,18.78563,0.0],[-72.51537,18.76581,0.0],[-72.49108,18.7685,0.3873],[-72.47175,18.7541,0.0],[-72.45372,18.73334,3.963],[-72.43346,18.71678,2.1211],[-72.4217,18.71336,0.0],[-72.39737,18.71263,0.8512],[-72.38508,18.7106,29.8641],[-72.33943,18.68944,26.3969],[-72.33043,18.68329,7.2484],[-72.32506,18.67137,0.0],[-72.32868,18.66389,0.0],[-72.33642,18.65583,0.0],[-72.34341,18.64228,0.0],[-72.34508,18.63101,0.1638],[-72.34341,18.57014,3.8508],[-72.34569,18.54686,4.1622],[-72.35383,18.5301,30.0645],[-72.37141,18.52558,53.2765],[-72.38097,18.53071,28.9969],[-72.40176,18.55292,0.0],[-72.40494,18.5541,0.0],[-72.40689,18.55663,0.0],[-72.40982,18.55915,0.0],[-72.41609,18.56037,0.0],[-72.4195,18.55825,0.0],[-72.42113,18.55353,3.8016],[-72.4237,18.54881,0.0],[-72.42976,18.5467,0.0],[-72.59655,18.56086,0.0],[-72.62829,18.55414,0.0],[-72.65258,18.52558,0.0],[-72.66934,18.49046,0.0],[-72.68932,18.45966,0.0],[-72.71646,18.43773,0.0],[-72.75499,18.42939,1.6676],[-72.82604,18.44082,155.5253],[-72.84065,18.44676,0.0],[-72.85831,18.44668,0.0],[-72.88508,18.43769,0.0],[-72.90416,18.43415,10.3261],[-72.899,18.45051,0.0],[-72.98559,18.4704,0.0],[-73.05594,18.45844,74.7965],[-73.05594,18.45844,74.7965],[-73.05024,18.4473,247.7419],[-73.04975,18.43521,124.643],[-73.06528,18.41025,17.0],[-73.06303,18.38337,120.521],[-73.03804,18.38239,270.0406],[-73.02076,18.3658,499.7563],[-73.01339,18.34152,488.011],[-72.99774,18.32276,518.0399],[-72.98332,18.30457,515.4967],[-72.9713,18.28261,347.5566],[-72.95009,18.28534,629.8033],[-72.92348,18.29093,441.5407],[-72.90787,18.28989,476.6095],[-72.89309,18.28906,775.9579],[-72.8818,18.27336,467.8998],[-72.86028,18.26297,375.4091],[-72.84896,18.27454,325.7324],[-72.83206,18.28421,515.6382],[-72.79811,18.27325,442.1888],[-72.76504,18.26529,386.1713],[-72.75723,18.27935,688.1219],[-72.74504,18.2885,1056.6436],[-72.73956,18.30095,1181.6707],[-72.73687,18.31532,1189.5166],[-72.72116,18.30715,892.4805],[-72.7038,18.30477,837.7597],[-72.69284,18.31464,739.9191],[-72.68119,18.32415,454.0948],[-72.66176,18.32493,289.4447],[-72.64264,18.32731,386.3021],[-72.6313,18.3365,442.7252],[-72.61802,18.33805,628.3868],[-72.59487,18.34079,741.0548],[-72.57032,18.35082,386.7374],[-72.55823,18.35118,626.7692],[-72.54815,18.35852,644.2455],[-72.52345,18.38673,670.1172],[-72.49027,18.40151,489.7476],[-72.45425,18.39934,781.2135],[-72.42803,18.38699,885.3193],[-72.40896,18.37779,885.3673],[-72.38002,18.37991,933.7246],[-72.36785,18.36405,1436.8517],[-72.35405,18.34932,1878.2666],[-72.27127,18.34457,1975.1929],[-72.18608,18.34963,2089.1084],[-72.09919,18.33263,1700.3903],[-72.01273,18.31397,1540.4978],[-71.92865,18.31501,1536.7561],[-71.86127,18.31005,1282.9762],[-71.80954,18.2794,1441.6047],[-71.72205,18.29382,2030.8013],[-71.72111,18.29397,2046.6871],[-71.70934,18.31325,1547.53],[-71.71151,18.31614,1487.2731],[-71.72071,18.32397,1524.5138],[-71.73497,18.33294,1451.7894],[-71.78871,18.35221,1452.9432],[-71.82644,18.37617,1086.5358],[-71.83455,18.38508,984.985],[-71.84974,18.40645,794.7912],[-71.85817,18.41355,726.5841],[-71.89718,18.42288,612.5643],[-71.91217,18.43074,587.349],[-71.91816,18.44924,872.9021],[-71.91439,18.46022,624.5272],[-71.9069,18.4643,604.2112],[-71.90158,18.46978,606.7625],[-71.90406,18.48479,373.5241],[-71.91052,18.49427,104.5333],[-72.00095,18.58246,20.0],[-72.00984,18.59881,20.0],[-71.99263,18.61114,20.0],[-71.95547,18.61861,183.6622],[-71.88028,18.6054,407.3481],[-71.84158,18.61799,602.5373],[-71.82856,18.63129,1172.5819],[-71.80799,18.66465,1352.7906],[-71.79435,18.67917,1824.5317],[-71.79178,18.68068,1889.3298],[-71.79212,18.68108,1889.3298],[-71.79884,18.68889,1856.9044],[-71.83667,18.71028,1545.0609],[-71.87853,18.72067,1238.2874],[-71.91212,18.73224,1061.8513],[-71.94622,18.74351,992.7454],[-72.02668,18.72955,460.2198],[-72.10588,18.70506,729.2904],[-72.18213,18.73002,740.1128],[-72.24233,18.7865,433.1646],[-72.27215,18.80604,559.862],[-72.30625,18.8142,942.6628],[-72.33907,18.83384,978.8494],[-72.36519,18.86701,1038.418],[-72.38863,18.88996,1272.106],[-72.41555,18.90867,1170.4941],[-72.44196,18.91879,1415.1578],[-72.46691,18.92903,1289.6445],[-72.47694,18.94443,1170.9159],[-72.48774,18.95889,1176.7551],[-72.51249,18.95781,710.2051],[-72.53601,18.96039,696.2117]]]]}
,"properties": {"ISO3166-1-Alpha-3": "HTI","country": "Haiti","fill": "#00F","name": "Ouest","area_km2": 4984.525,"hist_schema_id": "Elevation0-9000","hist_area_km2": {"0": 224.058,"25": 481.716,"50": 242.232,"75": 164.843,"100": 159.166,"125": 139.661,"150": 115.73,"175": 109.937,"200": 100.775,"225": 88.87,"250": 84.998,"275": 79.393,"300": 79.855,"325": 76.311,"350": 68.646,"375": 72.29,"400": 73.978,"425": 74.076,"450": 74.522,"475": 74.04,"500": 73.158,"525": 75.665,"550": 76.53,"575": 73.255,"600": 73.583,"625": 73.586,"650": 72.08,"675": 73.305,"700": 71.96,"725": 68.444,"750": 65.954,"775": 65.492,"800": 64.929,"825": 62.937,"850": 60.507,"875": 60.121,"900": 58.454,"925": 57.767,"950": 60.721,"975": 58.588,"1000": 55.775,"1025": 56.699,"1050": 52.62,"1075": 50.348,"1100": 47.131,"1125": 47.956,"1150": 45.684,"1175": 45.825,"1200": 40.965,"1225": 38.331,"1250": 34.454,"1275": 33.389,"1300": 27.842,"1325": 26.076,"1350": 22.398,"1375": 18.4,"1400": 18.242,"1425": 17.217,"1450": 17.117,"1475": 17.016,"1500": 16.898,"1525": 16.035,"1550": 17.021,"1575": 17.224,"1600": 16.279,"1625": 16.601,"1650": 15.616,"1675": 15.837,"1700": 18.756,"1725": 19.823,"1750": 14.168,"1775": 10.504,"1800": 10.102,"1825": 10.061,"1850": 7.807,"1875": 7.527,"1900": 8.311,"1925": 7.748,"1950": 7.003,"1975": 6.118,"2000": 5.474,"2025": 5.977,"2050": 5.413,"2075": 5.313,"2100": 5.675,"2125": 5.514,"2150": 5.594,"2175": 4.769,"2200": 4.608,"2225": 3.904,"2250": 3.884,"2275": 3.582,"2300": 3.34,"2325": 2.515,"2350": 2.515,"2375": 1.831,"2400": 1.831,"2425": 1.892,"2450": 1.55,"2475": 1.368,"2500": 0.966,"2525": 0.724,"2550": 0.402,"2575": 0.523,"2600": 0.101,"2625": 0.121,"2650": 0.08}}}