{"type":"Feature","properties":{"GID_1":"HTI.8_1","GID_0":"HTI","country":"Haiti","province":"Ouest","VARNAME_1":"NA","NL_NAME_1":"NA","TYPE_1":"Département","ENGTYPE_1":"Department","CC_1":"NA","HASC_1":"HT.OU","ISO_1":"HT-OU","name":"Ouest.province"},
"geometry":{"type": "MultiPolygon","coordinates": [[[[-71.7013,18.3225,1323.5508],[-71.688,18.3427,874.0037],[-71.7889,18.381,510.4033],[-71.7995,18.3923,385.7083],[-71.7975,18.395,329.3357],[-71.8117,18.3996,550.5508],[-71.8238,18.4004,536.2538],[-71.8305,18.419,404.9717],[-71.838,18.4311,565.8186],[-71.8596,18.4404,789.4458],[-71.871,18.4481,350.9388],[-71.8992,18.459,616.6696],[-71.9084,18.4861,346.6592],[-71.8807,18.4902,21.9058],[-71.8808,18.4917,20.0],[-71.875,18.4928,20.0],[-71.8758,18.5056,44.9188],[-71.9504,18.5813,20.0],[-71.9627,18.6073,29.5229],[-71.9709,18.6073,63.1193],[-71.9756,18.6127,109.9893],[-71.9776,18.6127,96.2346],[-71.9815,18.6213,316.6309],[-71.9862,18.6193,138.9217],[-71.9937,18.6205,172.5506],[-71.9956,18.6193,166.0571],[-72.0039,18.6267,151.8878],[-71.989,18.6345,720.1064],[-71.9776,18.638,882.4561],[-71.971,18.6493,935.9054],[-71.9616,18.6586,1011.8074],[-71.9561,18.6548,1067.5596],[-71.9486,18.654,1067.2037],[-71.94,18.6501,723.8898],[-71.927,18.64,846.6029],[-71.9239,18.6393,867.2781],[-71.9231,18.6373,834.3992],[-71.9164,18.6393,810.061],[-71.9082,18.6514,1059.3364],[-71.9051,18.6502,1074.6488],[-71.8996,18.6514,1024.5547],[-71.8788,18.6394,1192.1517],[-71.8752,18.63,1053.9968],[-71.8686,18.6308,943.4464],[-71.8651,18.6364,1231.2332],[-71.8604,18.6367,1264.2771],[-71.8523,18.6358,1267.0568],[-71.8443,18.6294,1138.0409],[-71.8362,18.6296,1150.9285],[-71.8276,18.6332,1158.1526],[-71.8154,18.6306,1000.5582],[-71.8121,18.6341,958.548],[-71.8071,18.6353,880.1624],[-71.8062,18.6376,836.3356],[-71.8015,18.6383,761.0612],[-71.8015,18.6477,1070.459],[-71.8047,18.6644,1346.5721],[-71.798,18.6729,1479.0874],[-71.7962,18.6834,1883.832],[-71.8098,18.688,1770.5885],[-71.829,18.7045,1663.4355],[-71.8418,18.7099,1504.7429],[-71.8533,18.7187,1235.7251],[-71.8758,18.7193,1326.192],[-71.8821,18.718,1355.673],[-71.8874,18.7197,1322.9879],[-71.8935,18.7194,1349.077],[-71.9008,18.722,1294.4919],[-71.911,18.7296,1263.0381],[-71.9161,18.7294,1288.8079],[-71.9209,18.7313,1251.8983],[-71.9234,18.7369,1148.1675],[-71.9259,18.7389,1021.3483],[-71.9424,18.7386,1068.4146],[-71.9609,18.7408,1032.9705],[-71.9711,18.7467,906.6699],[-71.9778,18.734,661.5782],[-71.9885,18.7376,585.0643],[-71.9919,18.7343,450.757],[-72.0053,18.73,394.0737],[-72.0059,18.735,357.8578],[-72.0094,18.7369,324.1698],[-72.014,18.732,310.621],[-72.0171,18.7241,354.933],[-72.022,18.7266,482.4661],[-72.0276,18.7268,582.7953],[-72.0352,18.7241,753.8481],[-72.0375,18.7209,962.9684],[-72.0442,18.7192,1141.0264],[-72.0567,18.7187,1050.1487],[-72.0681,18.7207,946.5314],[-72.0735,18.7366,403.4717],[-72.084,18.727,561.7138],[-72.0869,18.7136,826.2397],[-72.0917,18.7105,767.6292],[-72.0979,18.7114,819.4547],[-72.1098,18.7082,841.8869],[-72.1155,18.7035,831.8553],[-72.1229,18.7036,807.8064],[-72.1272,18.7063,814.2064],[-72.1472,18.6946,698.0359],[-72.1556,18.6974,511.8771],[-72.1666,18.7026,810.462],[-72.1973,18.7321,808.1223],[-72.2011,18.7417,769.2949],[-72.1971,18.7448,653.2438],[-72.1939,18.7514,592.3357],[-72.1998,18.7584,469.2744],[-72.2031,18.7561,526.649],[-72.2068,18.7579,552.2463],[-72.2101,18.7648,412.4374],[-72.2178,18.7737,333.0769],[-72.225,18.7723,381.0915],[-72.2258,18.7762,374.0027],[-72.229,18.778,374.8501],[-72.2372,18.7774,459.7525],[-72.2455,18.7805,460.4634],[-72.2573,18.789,454.9962],[-72.2621,18.7892,476.2366],[-72.279,18.7974,626.4153],[-72.2744,18.7999,544.291],[-72.2724,18.804,580.2637],[-72.2746,18.8074,550.9783],[-72.2789,18.8087,617.0153],[-72.2817,18.8165,564.5273],[-72.3031,18.8181,778.615],[-72.3092,18.8164,867.7892],[-72.3139,18.8127,1064.4277],[-72.3194,18.8116,1132.9448],[-72.3232,18.8155,1053.8518],[-72.3243,18.8221,1001.5267],[-72.3336,18.8328,1103.3209],[-72.3357,18.8383,1057.2845],[-72.3513,18.8513,810.3789],[-72.3603,18.8559,816.3459],[-72.3633,18.8589,854.9546],[-72.3618,18.8641,939.4151],[-72.3695,18.8683,1139.9292],[-72.3748,18.8751,1133.9709],[-72.3815,18.8792,1211.3037],[-72.3873,18.885,1334.661],[-72.3922,18.8931,1216.259],[-72.3968,18.8942,1370.2891],[-72.4039,18.9018,1277.9423],[-72.406,18.9011,1327.8846],[-72.4148,18.9035,1262.3931],[-72.4204,18.9126,1207.5756],[-72.4234,18.9116,1337.0308],[-72.4281,18.9147,1333.0597],[-72.4285,18.9172,1275.3833],[-72.4371,18.9202,1311.3826],[-72.4356,18.9234,1194.3202],[-72.443,18.9239,1216.448],[-72.4549,18.9197,1205.1427],[-72.4568,18.9208,1152.2047],[-72.4595,18.9272,1257.7874],[-72.4624,18.9276,1281.2445],[-72.4644,18.9251,1177.5597],[-72.467,18.9257,1178.6306],[-72.4957,18.9588,1119.585],[-72.5038,18.9577,790.0059],[-72.509,18.9595,794.5281],[-72.5145,18.9553,701.3525],[-72.5182,18.9558,777.5675],[-72.521,18.9584,770.0098],[-72.5252,18.9577,744.9179],[-72.5308,18.9595,696.5717],[-72.5365,18.9572,600.397],[-72.5413,18.9616,565.5189],[-72.5546,18.9614,534.0598],[-72.5585,18.9649,515.6183],[-72.5661,18.9648,487.7162],[-72.5727,18.9692,483.8256],[-72.5803,18.9685,454.995],[-72.5941,18.9737,404.4617],[-72.5981,18.9715,412.674],[-72.6016,18.972,425.0554],[-72.6009,18.9729,387.566],[-72.6034,18.9752,382.5442],[-72.6081,18.9744,374.1206],[-72.6173,18.9762,384.0197],[-72.6198,18.9711,370.1681],[-72.6232,18.9707,368.2732],[-72.6233,18.9728,342.1749],[-72.627,18.9726,344.6161],[-72.6282,18.9771,401.3297],[-72.6318,18.9729,308.0877],[-72.6334,18.976,282.7138],[-72.6354,18.9759,379.5902],[-72.6351,18.9733,268.0446],[-72.638,18.9708,236.785],[-72.6462,18.9728,227.5593],[-72.65,18.9722,319.3486],[-72.6538,18.9711,298.0212],[-72.6576,18.9673,205.3946],[-72.6611,18.9679,192.0171],[-72.6643,18.9721,186.6201],[-72.6706,18.9685,166.0016],[-72.6786,18.9685,192.1972],[-72.6771,18.9724,124.6131],[-72.6787,18.9739,153.8887],[-72.6816,18.973,111.5431],[-72.6845,18.9674,121.2109],[-72.6886,18.967,93.9957],[-72.6918,18.9626,77.1884],[-72.6993,18.9584,50.4989],[-72.6998,18.956,50.0906],[-72.7051,18.9522,30.9459],[-72.7058,18.949,21.6793],[-72.7082,18.948,15.7021],[-72.71,18.9422,2.6625],[-72.7115,18.9429,0.0],[-72.7104,18.9418,0.0],[-72.7038,18.9404,0.0],[-72.6965,18.9424,2.8332],[-72.6903,18.941,5.5816],[-72.6851,18.9363,0.0],[-72.6641,18.9282,1.0934],[-72.6621,18.9251,0.0],[-72.6588,18.9249,0.0],[-72.6557,18.9212,3.8706],[-72.6487,18.9187,2.7272],[-72.641,18.9071,13.0517],[-72.6354,18.9057,0.6274],[-72.6351,18.9018,0.0],[-72.6312,18.9007,0.0],[-72.6304,18.8957,9.2134],[-72.6257,18.8929,0.0],[-72.6249,18.8893,1.8047],[-72.6204,18.8876,9.3137],[-72.6171,18.8824,0.8271],[-72.6161,18.879,2.995],[-72.6174,18.8712,0.0],[-72.6121,18.8636,1.5249],[-72.6113,18.8596,0.235],[-72.6024,18.8599,0.0],[-72.5985,18.8576,0.0],[-72.5937,18.8471,9.4529],[-72.5846,18.8388,2.0641],[-72.5765,18.8343,3.7528],[-72.5735,18.8224,1.8342],[-72.5652,18.8096,3.6229],[-72.5607,18.7957,1.0109],[-72.5551,18.7946,0.0],[-72.5488,18.7898,1.3797],[-72.5413,18.7754,0.0],[-72.5368,18.7726,0.0],[-72.5305,18.7721,1.8872],[-72.5221,18.7674,0.627],[-72.5035,18.7673,3.2987],[-72.4976,18.7657,2.1836],[-72.4962,18.7637,0.0],[-72.4935,18.7674,4.0486],[-72.4887,18.7685,0.4263],[-72.4774,18.7601,0.0],[-72.4668,18.7582,0.0],[-72.4629,18.7546,1.1498],[-72.4593,18.7463,0.0],[-72.4576,18.7379,0.54],[-72.4596,18.7335,0.186],[-72.4521,18.7296,4.6061],[-72.4507,18.7196,0.2666],[-72.4274,18.7132,0.0],[-72.4157,18.7137,0.0],[-72.4005,18.7116,0.0],[-72.3945,18.7143,0.9876],[-72.3899,18.7124,10.338],[-72.3829,18.7049,0.0],[-72.3801,18.7043,1.3642],[-72.3788,18.7007,0.0],[-72.3632,18.6954,0.7808],[-72.3579,18.6921,2.3495],[-72.3582,18.6896,0.0],[-72.3547,18.6907,9.2593],[-72.3518,18.6871,0.0],[-72.3501,18.6882,0.7455],[-72.3417,18.6863,4.0356],[-72.3349,18.6826,0.0],[-72.3251,18.6815,0.0],[-72.3221,18.6796,4.0633],[-72.3202,18.6746,0.3876],[-72.3221,18.674,0.0],[-72.3182,18.6719,0.2915],[-72.3179,18.6644,0.0],[-72.3197,18.6586,0.4869],[-72.3285,18.6551,0.4167],[-72.3366,18.6477,0.1746],[-72.3477,18.6273,0.0],[-72.3529,18.6274,0.0],[-72.3584,18.6307,0.0],[-72.3598,18.6284,0.0],[-72.3514,18.6234,0.0],[-72.3525,18.615,0.0],[-72.3496,18.614,0.5689],[-72.3452,18.6074,0.1417],[-72.3464,18.5985,0.0],[-72.3442,18.5958,0.1797],[-72.3392,18.5937,0.0],[-72.3399,18.5843,0.2155],[-72.3428,18.5804,0.3675],[-72.3401,18.5786,1.0211],[-72.3393,18.575,0.1649],[-72.3434,18.5724,2.0951],[-72.344,18.5768,0.0],[-72.3476,18.5743,0.0],[-72.3476,18.571,1.5517],[-72.3507,18.5701,1.3044],[-72.3533,18.5667,0.6818],[-72.3529,18.564,0.0],[-72.3472,18.5633,1.6014],[-72.3525,18.5583,0.0],[-72.351,18.5557,2.0739],[-72.3549,18.5551,0.0],[-72.3484,18.5532,1.7339],[-72.3506,18.5493,2.1456],[-72.3503,18.544,1.3769],[-72.3579,18.5401,0.277],[-72.3582,18.5376,1.6464],[-72.361,18.5351,1.6896],[-72.3639,18.5373,0.0],[-72.3644,18.5337,4.367],[-72.3679,18.5359,0.0],[-72.3693,18.5342,0.0],[-72.3757,18.5331,2.8355],[-72.3809,18.5348,1.7462],[-72.3823,18.5382,1.197],[-72.3851,18.5382,0.2511],[-72.3885,18.5413,2.6531],[-72.3892,18.5424,2.2887],[-72.3872,18.5433,1.7455],[-72.3878,18.5459,0.0],[-72.3904,18.543,1.6755],[-72.3949,18.5457,8.3025],[-72.3945,18.5488,0.0],[-72.3971,18.5482,3.1841],[-72.4013,18.5515,0.9816],[-72.4186,18.5559,0.0],[-72.4231,18.5496,2.2595],[-72.4313,18.5426,0.0],[-72.4334,18.5438,0.0],[-72.4457,18.5438,0.0],[-72.468,18.5483,0.4481],[-72.4724,18.5484,0.2357],[-72.4819,18.5451,5.7496],[-72.4831,18.5465,0.0],[-72.4882,18.5456,0.0],[-72.4958,18.5471,0.0],[-72.5005,18.5452,7.4354],[-72.5053,18.546,0.0],[-72.5065,18.5485,0.2313],[-72.5131,18.5491,0.0],[-72.5176,18.5455,1.5456],[-72.5196,18.5471,0.0],[-72.5254,18.5474,0.0],[-72.5399,18.5442,0.0],[-72.5454,18.5496,0.4072],[-72.5521,18.5525,0.2278],[-72.5534,18.5544,2.4993],[-72.5529,18.5607,0.0],[-72.5587,18.561,0.0],[-72.5659,18.5649,0.4391],[-72.5813,18.5651,0.2806],[-72.5989,18.5593,0.7582],[-72.6046,18.5599,1.0302],[-72.6113,18.5579,1.1726],[-72.6265,18.5512,0.5597],[-72.6487,18.5255,0.5286],[-72.6526,18.5243,0.0],[-72.6532,18.514,3.6511],[-72.6612,18.4962,0.0],[-72.669,18.4724,0.0],[-72.6779,18.454,1.5456],[-72.6885,18.446,0.8689],[-72.6891,18.4435,1.2709],[-72.6935,18.4399,0.5663],[-72.6988,18.4374,1.9373],[-72.704,18.4385,0.4642],[-72.7071,18.4341,3.1135],[-72.711,18.4351,1.027],[-72.7143,18.4332,0.0],[-72.7143,18.4315,0.783],[-72.7157,18.4321,0.0],[-72.7213,18.4287,2.4258],[-72.7288,18.4265,1.235],[-72.7393,18.4263,1.2412],[-72.7451,18.4271,0.0],[-72.7487,18.4301,1.3566],[-72.7538,18.4285,1.9551],[-72.7635,18.434,0.0],[-72.7826,18.4329,0.6212],[-72.786,18.4307,0.0],[-72.7913,18.4301,3.8167],[-72.7965,18.4326,2.733],[-72.8015,18.4379,0.0],[-72.8132,18.4424,0.0],[-72.8421,18.4432,17.2702],[-72.8492,18.4448,0.0],[-72.8585,18.4421,0.0],[-72.8682,18.4343,0.0],[-72.8753,18.4255,0.0],[-72.8799,18.4247,1.5445],[-72.8901,18.4263,0.0],[-72.8921,18.4251,3.148],[-72.8979,18.4308,1.0461],[-72.8988,18.4374,0.1756],[-72.9024,18.4405,0.0],[-72.9006,18.4432,0.1163],[-72.8927,18.441,0.2551],[-72.89,18.4423,0.0],[-72.8938,18.4437,0.4176],[-72.8946,18.4474,10.7571],[-72.9035,18.4496,10.4235],[-72.9112,18.4493,2.0918],[-72.9149,18.4529,0.0],[-72.9226,18.4543,8.0775],[-72.9301,18.4579,3.2145],[-72.9351,18.4568,36.0159],[-72.9424,18.4596,5.1498],[-72.9546,18.4613,6.7178],[-72.9624,18.4649,0.0],[-72.9718,18.4662,1.2036],[-72.9818,18.4654,13.0552],[-72.9868,18.4682,14.3994],[-72.9929,18.4676,0.0],[-72.9956,18.4649,8.5392],[-73.001,18.464,0.0],[-73.0049,18.4657,0.0],[-73.0193,18.466,0.0],[-73.0343,18.4626,1.1191],[-73.0404,18.4651,13.5225],[-73.0423,18.4647,12.7516],[-73.044,18.4613,6.8184],[-73.0507,18.461,2.0659],[-73.0544,18.454,127.5998],[-73.0539,18.4498,159.3935],[-73.0486,18.4454,213.4244],[-73.0445,18.4374,198.2168],[-73.0483,18.4353,126.5037],[-73.0519,18.4354,112.9635],[-73.054,18.4332,41.8132],[-73.0513,18.4307,71.6042],[-73.0499,18.4253,17.0],[-73.0555,18.4129,17.0],[-73.0589,18.4113,17.0],[-73.0605,18.4082,17.0],[-73.0635,18.3958,17.0],[-73.0716,18.393,20.5304],[-73.0729,18.3906,17.6897],[-73.0714,18.3855,89.9353],[-73.0653,18.384,59.6662],[-73.0537,18.3845,89.736],[-73.0501,18.3832,177.5117],[-73.0494,18.3848,112.0304],[-73.0312,18.389,107.589],[-73.0236,18.3874,164.358],[-73.019,18.383,159.1842],[-73.0256,18.3746,340.5582],[-73.0147,18.3668,485.1902],[-73.0109,18.3606,479.6272],[-73.0137,18.3524,587.3859],[-73.0187,18.351,491.9747],[-73.0201,18.3484,530.8142],[-73.0172,18.3416,479.6878],[-73.0131,18.3361,417.4939],[-73.0006,18.329,600.7977],[-72.9967,18.3239,578.9299],[-72.9937,18.3269,648.89],[-72.9868,18.3207,708.3911],[-72.9868,18.3107,593.2739],[-72.9845,18.3087,526.056],[-72.9841,18.3045,515.4967],[-72.9818,18.3009,433.0143],[-72.9774,18.2985,379.7563],[-72.9775,18.2924,372.8524],[-72.9751,18.2877,367.3805],[-72.9646,18.2773,338.543],[-72.9605,18.2769,340.6854],[-72.9582,18.2783,338.6384],[-72.9529,18.2934,489.4239],[-72.9428,18.2943,644.8127],[-72.9406,18.2904,735.4565],[-72.9348,18.2927,599.7599],[-72.9327,18.2876,478.9536],[-72.9295,18.2866,343.338],[-72.9231,18.2898,319.2341],[-72.9197,18.2885,361.7497],[-72.9135,18.2907,373.7872],[-72.8996,18.2915,644.8463],[-72.8897,18.295,736.0692],[-72.8903,18.2923,758.5782],[-72.8962,18.2877,740.2732],[-72.8949,18.2862,673.5753],[-72.8911,18.2824,446.3348],[-72.8831,18.2813,428.915],[-72.8838,18.2764,460.923],[-72.8755,18.2697,339.3664],[-72.8694,18.2671,472.9956],[-72.8666,18.2636,541.9391],[-72.8593,18.259,276.5054],[-72.8534,18.2582,248.9865],[-72.8505,18.2609,373.6235],[-72.8506,18.2633,383.8047],[-72.856,18.2735,484.707],[-72.8562,18.2811,549.2155],[-72.8414,18.283,529.636],[-72.8314,18.2822,461.8468],[-72.8275,18.2893,499.6213],[-72.8223,18.287,386.7111],[-72.8086,18.2867,676.7466],[-72.7947,18.2754,580.2025],[-72.7784,18.2715,724.6898],[-72.7672,18.2666,415.1143],[-72.7613,18.2685,376.7112],[-72.7617,18.2749,576.306],[-72.7636,18.2757,403.013],[-72.763,18.2786,497.1144],[-72.7558,18.2883,745.6382],[-72.7536,18.2903,1043.2352],[-72.7496,18.2901,1077.3577],[-72.7436,18.2873,1064.6523],[-72.7416,18.2896,1117.5411],[-72.7401,18.3001,1164.1144],[-72.7415,18.3096,1221.1604],[-72.7403,18.3125,1178.3185],[-72.7437,18.3236,1074.8071],[-72.7378,18.3222,1119.3633],[-72.7266,18.3108,949.2297],[-72.7247,18.3057,890.8835],[-72.7164,18.3029,733.533],[-72.7123,18.2952,750.4915],[-72.7034,18.3003,706.0645],[-72.7034,18.3074,843.3815],[-72.6993,18.3086,837.5629],[-72.6971,18.3114,792.467],[-72.6953,18.3188,711.697],[-72.6929,18.3208,689.8388],[-72.6834,18.322,466.5059],[-72.6824,18.3253,454.0948],[-72.6698,18.33,324.6075],[-72.6653,18.3283,304.1996],[-72.6629,18.3253,324.1572],[-72.6557,18.3234,334.6546],[-72.6511,18.3237,268.5196],[-72.6436,18.3279,356.5474],[-72.6419,18.3305,402.9261],[-72.6419,18.3455,477.9005],[-72.6223,18.3443,587.6639],[-72.6173,18.3387,628.3868],[-72.6115,18.3264,409.1129],[-72.6082,18.3228,468.2498],[-72.6014,18.3241,592.2047],[-72.5999,18.3334,664.2857],[-72.5962,18.3416,691.5601],[-72.587,18.352,821.6522],[-72.5799,18.3526,664.7606],[-72.5643,18.3469,320.8626],[-72.5636,18.3546,556.2894],[-72.5602,18.3546,674.4091],[-72.5559,18.3515,626.9849],[-72.5527,18.3518,588.2431],[-72.5536,18.354,646.254],[-72.55,18.3587,720.0313],[-72.5509,18.3651,579.0791],[-72.5346,18.3707,228.5667],[-72.5312,18.3824,550.2043],[-72.5223,18.3884,626.2538],[-72.52,18.3949,720.735],[-72.5073,18.3988,447.7383],[-72.5029,18.4056,634.5211],[-72.4984,18.4054,424.4632],[-72.4825,18.4,510.0325],[-72.4452,18.3965,806.0421],[-72.4425,18.399,926.1665],[-72.4235,18.401,1174.6516],[-72.4221,18.3975,1186.7761],[-72.4277,18.3949,1220.91],[-72.4363,18.3795,888.2103],[-72.435,18.3732,670.2064],[-72.4305,18.3763,705.8126],[-72.4271,18.3739,666.6077],[-72.4098,18.3787,885.3673],[-72.4044,18.3839,807.1675],[-72.3963,18.3861,980.2925],[-72.394,18.3917,945.6548],[-72.389,18.3915,1010.5517],[-72.3838,18.3877,1021.1022],[-72.3834,18.38,814.3248],[-72.3796,18.3791,933.7246],[-72.3707,18.3813,1105.3505],[-72.3671,18.378,1351.7725],[-72.3697,18.3663,1439.5607],[-72.3669,18.3571,1574.0917],[-72.3639,18.3551,1818.9677],[-72.3647,18.3529,1913.8832],[-72.363,18.3535,1899.0709],[-72.3525,18.3488,1805.7375],[-72.3395,18.348,1665.5133],[-72.3268,18.341,1646.0967],[-72.3147,18.3399,1751.1104],[-72.308,18.3401,1867.0588],[-72.3043,18.342,1853.3279],[-72.2911,18.3414,1882.4419],[-72.2869,18.3438,1959.1758],[-72.2806,18.3543,2140.6064],[-72.2761,18.3536,2123.1321],[-72.268,18.3569,2156.5312],[-72.2573,18.3582,2175.9202],[-72.2449,18.3537,2182.7891],[-72.2282,18.3519,2209.4917],[-72.2181,18.3484,2118.3806],[-72.2113,18.351,2011.8755],[-72.1899,18.3532,1969.0972],[-72.1793,18.3464,1926.375],[-72.1598,18.3486,1928.2218],[-72.1472,18.3456,1787.295],[-72.1373,18.3393,1859.3376],[-72.1276,18.3364,1879.6881],[-72.1158,18.3369,1904.549],[-72.1061,18.3354,1872.4426],[-72.0902,18.3375,1786.3644],[-72.084,18.3347,1666.4542],[-72.0755,18.3244,1548.5406],[-72.0674,18.3202,1380.7856],[-72.0647,18.3199,1439.4017],[-72.0558,18.3264,1836.5472],[-72.0482,18.325,1879.2764],[-72.0457,18.3204,1830.2443],[-72.0418,18.3206,1909.8571],[-72.0396,18.323,1896.3727],[-72.0392,18.3275,1922.9287],[-72.0327,18.3196,1844.3323],[-72.0126,18.3169,1587.0013],[-72.0039,18.3178,1675.5206],[-72.0022,18.3115,1555.293],[-71.9858,18.3148,1811.4943],[-71.9742,18.3128,1839.7937],[-71.9661,18.3161,1913.1041],[-71.9526,18.3173,1796.6917],[-71.9336,18.3069,1660.449],[-71.9269,18.3114,1615.0164],[-71.904,18.3179,1676.7477],[-71.8938,18.3172,1686.0388],[-71.8836,18.3216,1675.7949],[-71.8716,18.3241,1610.6099],[-71.862,18.3191,1424.6589],[-71.8639,18.315,1296.0118],[-71.8634,18.3114,1233.3777],[-71.867,18.3055,1232.532],[-71.8646,18.2935,993.9423],[-71.8702,18.2855,855.8857],[-71.8679,18.282,795.6717],[-71.8701,18.2732,722.7382],[-71.8607,18.2774,798.864],[-71.8554,18.2749,887.1064],[-71.8461,18.2755,953.2008],[-71.838,18.2827,1053.0345],[-71.8284,18.2787,1152.5513],[-71.8199,18.2789,1150.6804],[-71.8151,18.2828,1178.7793],[-71.8102,18.2836,1224.6296],[-71.8062,18.2864,1247.2976],[-71.7887,18.2866,1644.245],[-71.7858,18.2836,1647.2087],[-71.7803,18.2829,1687.6083],[-71.765,18.2888,1736.0916],[-71.7568,18.2897,1822.7242],[-71.7504,18.2924,1805.0099],[-71.7395,18.2903,2043.4733],[-71.7198,18.2916,2275.3413],[-71.7013,18.3225,1323.5508]]],
[[[-72.3779,18.6968,0.0],[-72.3815,18.6974,0.0],[-72.3824,18.694,0.0],[-72.3799,18.6926,0.0],[-72.376,18.694,0.0],[-72.3779,18.6968,0.0]]],
[[[-72.749,18.4318,0.0],[-72.7493,18.4332,0.9884],[-72.7518,18.4335,0.7592],[-72.7499,18.4313,0.0],[-72.749,18.4318,0.0]]],
[[[-72.8035,18.7029,0.4237],[-72.8054,18.7049,0.6061],[-72.8057,18.7015,0.7606],[-72.8018,18.6996,0.0],[-72.8015,18.7007,0.0],[-72.8035,18.7029,0.4237]]],
[[[-72.8531,18.7213,0.528],[-72.851,18.7201,0.0],[-72.8385,18.7231,0.9347],[-72.8366,18.7202,2.8915],[-72.839,18.7132,0.0],[-72.8354,18.7032,0.0],[-72.831,18.7018,0.6736],[-72.8238,18.6938,1.2468],[-72.8187,18.6943,3.1956],[-72.8179,18.7021,2.3692],[-72.815,18.7018,2.7062],[-72.8134,18.6995,0.0],[-72.806,18.7062,0.0],[-72.8093,18.7118,6.0277],[-72.8174,18.7176,3.6416],[-72.8185,18.721,9.7227],[-72.8167,18.7274,4.0084],[-72.813,18.7309,9.3213],[-72.7943,18.7351,0.0],[-72.7929,18.7376,0.0],[-72.8049,18.7543,0.0],[-72.804,18.7593,0.5823],[-72.8068,18.7626,0.0],[-72.8082,18.7699,73.1726],[-72.8065,18.7743,0.0],[-72.8071,18.7807,0.0],[-72.8096,18.7868,0.2426],[-72.8132,18.7885,5.5297],[-72.8218,18.8037,0.0],[-72.8304,18.8151,0.0],[-72.8485,18.8299,0.0],[-72.8543,18.8321,0.649],[-72.8468,18.8328,0.0],[-72.8465,18.8366,0.3294],[-72.8571,18.8362,0.1976],[-72.8676,18.8418,0.0],[-72.8796,18.8437,0.354],[-72.889,18.8487,0.362],[-72.8949,18.8496,0.8492],[-72.902,18.8539,0.0],[-72.9184,18.8524,0.0],[-72.9238,18.854,0.2845],[-72.9249,18.8568,0.0],[-72.931,18.8582,1.0947],[-72.9324,18.8601,0.0],[-72.9379,18.8578,0.5786],[-72.941,18.8618,0.8038],[-72.9454,18.8643,0.0],[-72.9365,18.864,0.0],[-72.944,18.8657,0.0],[-72.9468,18.8642,0.9353],[-72.954,18.8657,0.0],[-72.9587,18.8696,0.2017],[-72.9681,18.8718,0.4237],[-72.9812,18.8793,0.0],[-72.9924,18.8832,0.4639],[-72.999,18.894,0.0],[-73.0101,18.8979,0.6295],[-73.0229,18.9063,0.1998],[-73.0418,18.911,0.149],[-73.0471,18.9185,0.1656],[-73.0571,18.9251,0.2054],[-73.0693,18.9239,0.0],[-73.0833,18.9303,0.5533],[-73.1085,18.9307,0.0],[-73.135,18.9382,0.4181],[-73.149,18.9471,0.0],[-73.161,18.951,0.4335],[-73.1762,18.9621,0.0],[-73.1979,18.9699,0.0],[-73.2149,18.9699,0.1253],[-73.2385,18.9657,0.0],[-73.2529,18.9662,0.0],[-73.2676,18.9568,7.3235],[-73.2729,18.9557,0.0],[-73.2818,18.9501,0.0],[-73.2993,18.934,0.0],[-73.2993,18.9296,0.0],[-73.3021,18.9254,0.0],[-73.3008,18.9241,0.0],[-73.301,18.9132,0.0],[-73.2971,18.9063,1.316],[-73.2846,18.8993,0.9891],[-73.2829,18.896,0.1596],[-73.266,18.8865,0.1147],[-73.256,18.8735,0.0],[-73.2529,18.8665,0.0],[-73.2485,18.864,0.5528],[-73.239,18.8501,0.0],[-73.2368,18.8482,0.0],[-73.2307,18.849,0.6608],[-73.2279,18.8476,0.0],[-73.2175,18.8351,0.0],[-73.2082,18.834,1.6169],[-73.199,18.837,0.0],[-73.1918,18.8365,0.1013],[-73.1813,18.8332,0.0],[-73.1704,18.8265,0.0],[-73.1451,18.8213,0.0],[-73.1371,18.8218,0.243],[-73.1349,18.8199,0.0],[-73.1257,18.819,0.6024],[-73.1168,18.8115,0.0],[-73.1118,18.8104,0.7325],[-73.1079,18.8051,0.0],[-73.1024,18.8036,0.0],[-73.1001,18.8001,0.0],[-73.089,18.7976,0.1888],[-73.0833,18.7986,0.0],[-73.0753,18.7959,8.1296],[-73.0711,18.7916,0.9551],[-73.0704,18.7865,0.0],[-73.0615,18.7826,0.0],[-73.0535,18.7712,0.0],[-73.0452,18.7669,0.0],[-73.0361,18.7583,0.0],[-73.0301,18.7579,10.7372],[-73.0001,18.746,0.0],[-72.9643,18.7426,0.0],[-72.9577,18.7436,0.0],[-72.9518,18.7418,0.0],[-72.9488,18.7435,0.0],[-72.9429,18.7434,0.0],[-72.9352,18.7423,1.515],[-72.9326,18.7405,0.2719],[-72.9269,18.7434,0.0],[-72.9101,18.7352,0.0],[-72.8988,18.7335,0.0],[-72.8932,18.7296,0.1936],[-72.8824,18.7265,0.0],[-72.8657,18.7264,0.4549],[-72.8607,18.7215,0.0],[-72.8531,18.7213,0.528]]],
[[[-72.9065,18.8571,0.6211],[-72.9054,18.8576,0.6211],[-72.9079,18.8582,0.7051],[-72.909,18.8568,0.0],[-72.9079,18.8563,0.0],[-72.9065,18.8571,0.6211]]],
[[[-73.0179,18.9093,0.0],[-73.0196,18.9112,0.0],[-73.0226,18.9104,0.0],[-73.0188,18.9088,1.1694],[-73.0179,18.9093,0.0]]],
[[[-72.7118,18.9432,0.0],[-72.7115,18.9432,0.0],[-72.7118,18.9434,0.0],[-72.7118,18.9432,0.0]]],
[[[-72.9999,19.0001,0.0],[-73.0001,19.0001,0.0],[-73.0001,18.9999,0.0],[-72.9999,18.9999,0.0],[-72.9999,19.0001,0.0]]]]}}