{"type":"Feature","properties":{"GID_2":"DOM.24.5_1","GID_0":"DOM","country":"DominicanRepublic","GID_1":"DOM.24_1","province":"SanCristóbal","NL_NAME_1":"NA","county":"SabanaGrandedePalenque","VARNAME_2":"NA","NL_NAME_2":"NA","TYPE_2":"Distritomunicipal","ENGTYPE_2":"Municipaldistrict","CC_2":"NA","HASC_2":"DO.CR.SP","name":"Sabana_Grandede_Palenque.county"},
"geometry":{"type": "MultiPolygon","coordinates": [[[[-70.1785,18.2335,0.1391],[-70.169,18.2368,0.0],[-70.166,18.2335,0.0],[-70.1624,18.2332,0.0],[-70.1596,18.229,4.0612],[-70.154,18.2304,0.0],[-70.149,18.2351,0.0],[-70.1401,18.2496,0.0],[-70.1349,18.2629,2.1703],[-70.1246,18.2724,8.1417],[-70.1226,18.2718,0.0],[-70.1204,18.2753,0.0],[-70.1321,18.2861,46.9637],[-70.1504,18.2782,67.8103],[-70.1675,18.2859,100.9879],[-70.1704,18.2857,117.7318],[-70.1739,18.2739,88.0367],[-70.1775,18.2471,24.756],[-70.1817,18.2415,4.7074],[-70.1785,18.2335,0.1391]]]]}}