{"type": "Feature","bbox": [-72.1363,21.7821,-71.844,21.9626],"geometry": {"type": "MultiPolygon","coordinates": [[[[-71.9201,21.7876,0.0],[-71.924,21.7876,0.0],[-71.9243,21.7851,0.0],[-71.916,21.7821,0.162],[-71.9165,21.7865,0.0],[-71.9201,21.7876,0.0]]],
[[[-71.9871,21.9621,0.0],[-71.9901,21.9626,0.0],[-71.996,21.9596,1.446],[-72.0212,21.9601,1.4423],[-72.0304,21.9546,1.7441],[-72.0374,21.9538,0.0],[-72.0407,21.9479,0.0],[-72.0404,21.9443,2.9785],[-72.0476,21.939,0.0],[-72.0474,21.9351,0.0],[-72.0501,21.9304,0.4739],[-72.0507,21.9251,0.1925],[-72.0488,21.924,0.1925],[-72.0468,21.9263,0.4052],[-72.0449,21.9218,0.0],[-72.0429,21.9121,0.1576],[-72.0443,21.911,0.3761],[-72.0437,21.9085,0.0],[-72.0368,21.9049,0.0],[-72.0332,21.9057,1.5357],[-72.0307,21.8971,0.0],[-72.0279,21.8951,0.0],[-72.0293,21.894,0.0],[-72.0276,21.8915,0.1463],[-72.0304,21.8935,0.0],[-72.0321,21.8921,0.0],[-72.0324,21.8888,0.0],[-72.0376,21.8876,0.0],[-72.0351,21.8821,0.1723],[-72.0365,21.8774,0.0],[-72.0307,21.8774,0.1792],[-72.0296,21.876,0.0888],[-72.0299,21.8724,0.2103],[-72.0318,21.8724,0.0],[-72.0312,21.8701,0.0],[-72.0215,21.8735,0.0],[-72.0149,21.871,0.1588],[-72.0201,21.8704,0.0],[-72.0204,21.8682,0.0597],[-72.0237,21.8651,0.3543],[-72.0276,21.8657,0.0],[-72.0287,21.8601,0.0],[-72.0326,21.8557,0.0],[-72.0407,21.8604,0.2185],[-72.0454,21.8563,0.0],[-72.0479,21.856,0.0],[-72.0474,21.8543,0.0],[-72.0426,21.8538,0.4772],[-72.0432,21.8479,0.0],[-72.0396,21.8471,0.1073],[-72.0368,21.8493,0.3548],[-72.0296,21.851,0.1895],[-72.0263,21.8496,0.0],[-72.0204,21.8501,0.0],[-72.0113,21.8471,0.1977],[-72.0074,21.8438,0.4162],[-72.0054,21.8385,0.0],[-71.9985,21.8371,0.2726],[-71.9974,21.8338,0.0],[-71.9904,21.8296,0.0],[-71.9865,21.8299,0.0],[-71.9807,21.8276,0.0],[-71.9801,21.8296,0.2151],[-71.9796,21.8274,0.0],[-71.9729,21.8226,0.0],[-71.971,21.8249,0.0612],[-71.9651,21.8249,0.0],[-71.9632,21.8268,0.2144],[-71.964,21.8238,0.2418],[-71.9701,21.8224,0.0],[-71.9707,21.8188,0.0],[-71.9624,21.8171,0.3394],[-71.9563,21.8099,0.0],[-71.9524,21.8099,0.0],[-71.9499,21.8079,0.0],[-71.9465,21.8087,0.0],[-71.9446,21.806,0.0],[-71.9362,21.8057,0.0],[-71.9379,21.8049,0.1795],[-71.9407,21.8049,0.1614],[-71.9415,21.8057,0.1189],[-71.9446,21.8054,0.2715],[-71.9474,21.8068,0.1253],[-71.9501,21.8049,0.3841],[-71.9526,21.8057,0.1073],[-71.954,21.8087,0.0],[-71.9585,21.8079,0.398],[-71.9599,21.8104,0.0],[-71.9618,21.8107,0.0],[-71.9624,21.8093,0.0],[-71.9585,21.8046,0.0],[-71.959,21.8029,0.0],[-71.9615,21.8037,0.1083],[-71.9615,21.8021,0.1083],[-71.9524,21.8021,0.3764],[-71.9454,21.7982,0.0],[-71.9318,21.796,0.2773],[-71.9274,21.7946,0.0],[-71.9262,21.7915,0.0],[-71.9229,21.7904,0.0],[-71.9207,21.7904,0.0],[-71.9199,21.794,0.112],[-71.916,21.7949,0.0],[-71.9151,21.7943,0.0],[-71.9168,21.7918,0.0],[-71.9151,21.7918,0.0],[-71.911,21.7974,0.0997],[-71.9071,21.796,0.1285],[-71.904,21.7988,0.2898],[-71.8932,21.8015,0.0],[-71.886,21.809,0.0],[-71.8788,21.8071,0.3111],[-71.8621,21.8165,0.0],[-71.8621,21.8235,0.2386],[-71.8654,21.8246,0.0],[-71.8674,21.8276,0.0],[-71.8651,21.8285,0.0],[-71.8649,21.8326,0.0],[-71.8613,21.8343,0.0],[-71.861,21.8393,0.0],[-71.8649,21.8415,0.0],[-71.8724,21.8421,0.0],[-71.8729,21.8435,0.0],[-71.8746,21.8396,0.0],[-71.8726,21.8365,0.0],[-71.8707,21.8368,0.0],[-71.8715,21.8351,1.2231],[-71.8754,21.8346,0.0],[-71.8757,21.8318,1.0753],[-71.8779,21.8332,0.0],[-71.8824,21.8326,0.0],[-71.8743,21.8351,0.0],[-71.8735,21.8376,0.0],[-71.8804,21.8457,0.0],[-71.8821,21.844,0.1201],[-71.8887,21.8454,7.3353],[-71.8971,21.8513,9.8526],[-71.9082,21.8651,2.4652],[-71.9126,21.874,0.0],[-71.9201,21.9054,0.7816],[-71.9204,21.9268,0.1212],[-71.9199,21.9326,1.5917],[-71.9174,21.9343,0.5235],[-71.9171,21.9374,1.4338],[-71.9221,21.9454,1.6819],[-71.9129,21.9415,0.0],[-71.9124,21.9429,0.0],[-71.9201,21.9474,0.0],[-71.9218,21.9463,0.5762],[-71.9521,21.9562,1.6136],[-71.9649,21.9562,3.62],[-71.9871,21.9621,0.0]]],
[[[-72.0587,21.8824,0.0],[-72.0604,21.8835,0.6989],[-72.0593,21.8804,0.0],[-72.0585,21.8813,0.0],[-72.0587,21.8824,0.0]]],
[[[-72.0612,21.8896,0.1699],[-72.0632,21.8901,0.0],[-72.0638,21.8888,0.0],[-72.0607,21.8879,0.0],[-72.0612,21.8896,0.1699]]],
[[[-71.8715,21.8446,0.0],[-71.8696,21.8432,0.0],[-71.8688,21.8451,0.0],[-71.871,21.8451,0.0],[-71.8715,21.8446,0.0]]],
[[[-71.8535,21.8604,0.4548],[-71.8615,21.8615,0.0],[-71.8662,21.859,0.0],[-71.8657,21.8563,0.0],[-71.8674,21.8563,0.0],[-71.8674,21.8549,0.0],[-71.8649,21.854,0.0],[-71.8607,21.846,0.0],[-71.8587,21.8465,0.0],[-71.8574,21.8518,0.0],[-71.8532,21.8557,0.0],[-71.8535,21.8604,0.4548]]],
[[[-71.8468,21.8713,0.0],[-71.849,21.8724,0.9727],[-71.8487,21.8696,7.9052],[-71.8526,21.8651,0.0],[-71.8526,21.8624,0.4142],[-71.8479,21.8618,0.0],[-71.8463,21.8632,0.0],[-71.844,21.8679,2.7104],[-71.8468,21.8713,0.0]]],
[[[-71.9049,21.9421,0.0],[-71.9107,21.9426,0.0],[-71.9065,21.9357,0.3708],[-71.9082,21.9285,0.0],[-71.9043,21.9287,1.0897],[-71.9049,21.9268,0.3145],[-71.9071,21.9268,0.0],[-71.9076,21.9229,0.0],[-71.9096,21.9235,0.0],[-71.9096,21.9193,0.0],[-71.9054,21.9182,0.0],[-71.9049,21.9115,0.0],[-71.9049,21.9082,0.0],[-71.9068,21.9085,0.0],[-71.9065,21.9065,0.0],[-71.9085,21.9057,0.0],[-71.909,21.8979,0.0],[-71.9051,21.8918,0.0],[-71.9071,21.8871,0.0],[-71.9046,21.8863,0.0],[-71.9035,21.8796,0.0],[-71.9001,21.8796,0.0],[-71.8962,21.8824,0.0],[-71.8882,21.8843,0.0],[-71.8843,21.8907,0.0],[-71.8849,21.896,0.0],[-71.8838,21.8957,1.5049],[-71.8835,21.8876,1.0473],[-71.8865,21.8832,0.0],[-71.886,21.8799,0.0941],[-71.8882,21.8799,0.0],[-71.8907,21.8768,0.0],[-71.8887,21.8751,0.0],[-71.8879,21.8768,0.0],[-71.8865,21.8738,0.0],[-71.8913,21.8743,0.0],[-71.8904,21.8718,0.0],[-71.8924,21.871,0.0],[-71.8932,21.8635,0.0],[-71.8882,21.8579,0.0],[-71.874,21.8532,0.0],[-71.8721,21.859,0.0],[-71.8662,21.8657,0.6196],[-71.8729,21.876,1.8528],[-71.881,21.8963,1.9611],[-71.8832,21.9043,1.357],[-71.8832,21.9112,0.7823],[-71.8804,21.9146,0.4759],[-71.874,21.9126,0.0],[-71.8721,21.9143,0.4203],[-71.8721,21.9171,0.0],[-71.876,21.9171,1.2765],[-71.8768,21.9201,0.0],[-71.8804,21.9218,2.3278],[-71.8851,21.9301,0.0],[-71.8929,21.9313,1.5112],[-71.9049,21.9421,0.0]]],
[[[-71.9093,21.914,0.0],[-71.911,21.9157,0.0],[-71.9112,21.9121,0.0],[-71.9099,21.9121,0.0],[-71.9093,21.914,0.0]]],
[[[-71.9129,21.941,0.0],[-71.9168,21.9407,0.2016],[-71.9157,21.9354,0.1581],[-71.9187,21.9315,0.3101],[-71.9201,21.9257,0.1212],[-71.9196,21.9188,0.2083],[-71.9168,21.9199,0.0],[-71.9151,21.9263,0.4179],[-71.9107,21.9285,0.0],[-71.9093,21.931,1.0038],[-71.909,21.9393,0.4267],[-71.9129,21.941,0.0]]],
[[[-72.0879,21.8635,0.335],[-72.0907,21.8638,0.0],[-72.0929,21.8613,0.0],[-72.0918,21.8554,0.0],[-72.0899,21.8549,0.0],[-72.0896,21.8587,0.0],[-72.0862,21.8601,0.1541],[-72.0907,21.8532,0.0],[-72.0876,21.8524,0.525],[-72.0876,21.8496,0.3189],[-72.086,21.8485,0.0],[-72.0813,21.849,0.1225],[-72.0807,21.8518,0.2665],[-72.0854,21.8596,0.0],[-72.0849,21.861,0.0],[-72.0907,21.861,0.0],[-72.0879,21.8635,0.335]]],
[[[-72.0888,21.8888,0.0],[-72.0912,21.8893,0.0],[-72.0976,21.8838,0.0],[-72.0979,21.8751,1.5287],[-72.1035,21.8674,2.3115],[-72.1182,21.8563,1.0208],[-72.1354,21.8468,0.0],[-72.1363,21.8446,0.0],[-72.1346,21.8432,0.5757],[-72.1357,21.8424,1.2678],[-72.1321,21.8432,0.1131],[-72.1276,21.8415,0.0],[-72.1249,21.8446,0.308],[-72.124,21.8429,0.4542],[-72.1254,21.8412,0.0],[-72.124,21.840699999999998,0.3506],[-72.1185,21.8449,0.0],[-72.1099,21.8454,0.0],[-72.1085,21.8443,0.0],[-72.1054,21.846,0.0],[-72.1054,21.8501,0.0],[-72.1043,21.8504,0.0],[-72.1057,21.8568,0.0],[-72.104,21.859,0.0],[-72.1076,21.8618,3.2642],[-72.1029,21.8604,0.0],[-72.0996,21.8629,0.3784],[-72.0957,21.8635,0.0],[-72.0932,21.8668,0.0],[-72.084,21.8707,0.2988],[-72.0788,21.8776,0.0],[-72.0846,21.8793,0.6278],[-72.0888,21.8888,0.0]]],
[[[-72.0813,21.8849,0.0],[-72.0829,21.8851,0.3598],[-72.084,21.8829,0.0],[-72.0829,21.8829,0.2064],[-72.0813,21.8849,0.0]]],
[[[-72.0804,21.8888,0.0],[-72.0813,21.8901,0.0],[-72.0832,21.8893,0.1221],[-72.0788,21.8849,1.6525],[-72.0832,21.8804,0.0],[-72.0746,21.8801,0.0],[-72.0713,21.8865,0.0],[-72.0804,21.8888,0.0]]],
[[[-72.0924,21.8951,0.7299],[-72.0951,21.8949,0.8964],[-72.0951,21.8896,0.6309],[-72.0904,21.8915,0.6995],[-72.0862,21.8899,0.0],[-72.0821,21.8913,0.4928],[-72.0826,21.8924,0.0],[-72.0874,21.8918,1.2437],[-72.0924,21.8951,0.7299]]],
[[[-72.0743,21.9049,0.6057],[-72.0779,21.9046,0.0],[-72.0796,21.9007,1.8774],[-72.0835,21.8974,0.7639],[-72.0832,21.8949,0.0],[-72.081,21.896,0.8912],[-72.0724,21.8935,0.0],[-72.0713,21.8949,0.4232],[-72.0704,21.8913,0.0],[-72.0668,21.8935,0.0],[-72.061,21.8918,0.0],[-72.0593,21.8954,0.0544],[-72.0574,21.894,0.0],[-72.0579,21.8971,0.0],[-72.0615,21.8985,0.2442],[-72.0657,21.9037,0.4808],[-72.074,21.9043,0.6057],[-72.0743,21.9049,0.6057]]],
[[[-71.9165,21.9088,0.0],[-71.919,21.9082,0.6268],[-71.9182,21.9043,0.0],[-71.9163,21.9049,0.0],[-71.9165,21.9088,0.0]]],
[[[-72.049,21.9376,0.9747],[-72.0515,21.9387,1.9572],[-72.0576,21.9351,4.2051],[-72.0671,21.9326,0.7077],[-72.0699,21.9229,0.5858],[-72.0685,21.9218,2.1508],[-72.0687,21.9126,2.5173],[-72.0735,21.9046,0.6057],[-72.0654,21.9068,0.0],[-72.0599,21.9032,0.0],[-72.0554,21.9024,0.186],[-72.0515,21.9063,0.0],[-72.0524,21.9085,0.0],[-72.0482,21.9104,0.0],[-72.0537,21.9218,1.152],[-72.0529,21.931,0.0],[-72.0499,21.9338,0.0],[-72.049,21.9376,0.9747]]]]}
,"properties": {"GID_1": "TCA.3_1","GID_0": "TCA","country": "TurksandCaicosIslands","province": "NorthCaicos","VARNAME_1": "NA","NL_NAME_1": "NA","TYPE_1": "District","ENGTYPE_1": "District","CC_1": "NA","HASC_1": "NA","ISO_1": "NA","name": "North_Caicos.province","area_km2": 258.6228,"hist_schema_id": "Elevation0-9000","hist_area_km2": {"0": 248.0002,"25": 10.6225}}}