{"type": "Feature","id": "5004","bbox": [-72.03624,21.82831,-71.85741,21.95921],"geometry": {"type": "Polygon","coordinates": [[[-72.02196,21.90461,0.3698],[-72.01301,21.89989,0.2212],[-72.00162,21.89777,1.2351],[-71.99193,21.89989,0.6336],[-71.98786,21.90778,7.6998],[-71.96402,21.93342,0.477],[-71.94758,21.94245,0.843],[-71.94001,21.92512,2.8838],[-71.94384,21.91315,7.7023],[-71.95922,21.8898,0.993],[-71.96052,21.8767,1.2637],[-71.95425,21.86693,1.1259],[-71.94298,21.85814,1.3819],[-71.93106,21.85187,2.016],[-71.92268,21.84935,3.2183],[-71.90966,21.84317,1.8793],[-71.89464,21.83218,1.3158],[-71.87731,21.82831,1.0592],[-71.85741,21.84317,0.0],[-71.88858,21.84618,0.0],[-71.90339,21.86652,0.0],[-71.9121,21.92512,0.0],[-71.90876,21.9405,1.9445],[-71.91104,21.94843,0.0],[-71.92268,21.95181,0.0],[-71.93049,21.95295,0.0],[-71.944,21.95808,0.0],[-71.94994,21.95921,0.0],[-72.00829,21.95921,2.9292],[-72.01745,21.95694,6.3573],[-72.02546,21.95258,4.3866],[-72.03181,21.94648,2.5055],[-72.03624,21.93879,9.6308],[-72.02501,21.93256,7.4734],[-72.02448,21.92377,6.2923],[-72.02611,21.91401,4.9286],[-72.02196,21.90461,0.3698]]]}
,"properties": {"ISO3166-1-Alpha-3": "TCA","country": "Turks and Caicos Islands","fill": "#F0F","name": "North Caicos","area_km2": 98.37483,"hist_schema_id": "Elevation0-9000","hist_area_km2": {"0": 88.95221,"25": 9.42263}}}