{"type": "Feature","bbox": [-82.2664,22.9357,-82.1986,23.0455],"geometry": {"type": "MultiPolygon","coordinates": [[[[-82.2469,22.9488,167.8162],[-82.2501,22.9357,218.844],[-82.2366,22.9368,213.7986],[-82.2322,22.9395,185.9675],[-82.2308,22.9451,206.4609],[-82.2308,22.9625,139.2685],[-82.2022,22.9783,129.0461],[-82.1986,22.9845,124.83],[-82.2007,22.9945,112.5916],[-82.2061,23.0018,102.8825],[-82.2082,23.0103,98.5266],[-82.208,23.0277,104.8292],[-82.2435,23.0455,115.2765],[-82.2581,23.0122,82.6414],[-82.2654,23.0017,88.5437],[-82.2664,22.9944,103.3803],[-82.2629,22.9877,103.7407],[-82.2438,22.9673,123.2473],[-82.2431,22.9607,137.6689],[-82.2469,22.9488,167.8162]]]]}
,"properties": {"GID_2": "CUB.4.5_1","GID_0": "CUB","country": "Cuba","GID_1": "CUB.4_1","province": "CiudaddelaHabana","NL_NAME_1": "NA","county": "Cotorro","VARNAME_2": "NA","NL_NAME_2": "NA","TYPE_2": "Municipio","ENGTYPE_2": "Municipality","CC_2": "NA","HASC_2": "CU.CH.CO","name": "Cotorro.county","area_km2": 45.57298,"hist_schema_id": "Elevation0-9000","hist_area_km2": {"75": 1.15139,"100": 29.62456,"125": 10.32602,"150": 1.75706,"175": 1.83532,"200": 0.82005,"225": 0.05858}}}