{"type":"Feature","properties":{"GID_1":"DOM.2_1","GID_0":"DOM","country":"DominicanRepublic","province":"Bahoruco","VARNAME_1":"Baoruco","NL_NAME_1":"NA","TYPE_1":"Provincia","ENGTYPE_1":"Province","CC_1":"NA","HASC_1":"DO.BR","ISO_1":"NA","name":"Bahoruco.province"},
"geometry":{"type": "MultiPolygon","coordinates": [[[[-71.3426,18.5918,1258.7863],[-71.343,18.589,1367.1794],[-71.3462,18.5878,1423.1609],[-71.3537,18.5896,1580.5394],[-71.3608,18.5886,1356.235],[-71.3665,18.5921,1582.0822],[-71.3749,18.5934,1647.5543],[-71.3793,18.5957,1758.6272],[-71.3824,18.6078,1575.3583],[-71.3901,18.611,1541.5117],[-71.3942,18.6148,1576.8613],[-71.3971,18.6145,1527.9407],[-71.406,18.6075,1364.9916],[-71.4114,18.6056,1599.3356],[-71.4166,18.6098,1633.8096],[-71.4246,18.6202,1478.9884],[-71.4366,18.6219,1578.0322],[-71.4481,18.627,1904.8496],[-71.4545,18.6269,1725.3203],[-71.4643,18.6229,1511.6493],[-71.471,18.6242,1880.485],[-71.477,18.6223,1891.9749],[-71.4835,18.6248,2015.9849],[-71.4989,18.6255,1880.7358],[-71.5105,18.6308,2220.082],[-71.5128,18.638,2003.1772],[-71.5174,18.641,2185.6042],[-71.5284,18.6443,2113.1323],[-71.5436,18.6451,1867.2626],[-71.5672,18.6544,2034.5026],[-71.5697,18.6467,1605.4971],[-71.5829,18.6328,1131.7633],[-71.5817,18.6196,1239.3491],[-71.5856,18.6125,1370.2013],[-71.5834,18.6053,870.5874],[-71.5835,18.5933,698.0048],[-71.5912,18.5893,852.0483],[-71.5972,18.5833,654.6511],[-71.5988,18.5748,468.427],[-71.6036,18.568,498.7993],[-71.6075,18.5501,153.7824],[-71.6105,18.5437,76.1689],[-71.6143,18.537,17.4711],[-71.624,18.5271,-37.0],[-71.6412,18.4956,-37.0],[-71.6127,18.485,-37.0],[-71.5455,18.4638,-37.0],[-71.5288,18.456,-37.0],[-71.5109,18.4503,-37.0],[-71.498,18.4494,-37.0],[-71.4789,18.4425,-34.8196],[-71.4724,18.4295,-32.3162],[-71.4671,18.4247,-32.5557],[-71.4598,18.4215,-29.4897],[-71.448,18.4236,-27.6258],[-71.4378,18.4206,-24.8675],[-71.4244,18.4111,-21.4086],[-71.4184,18.4005,-14.8442],[-71.4084,18.3916,-10.9654],[-71.4073,18.3761,-0.8526],[-71.4018,18.3708,-1.3618],[-71.3646,18.3819,2.7629],[-71.3512,18.3949,0.6235],[-71.319,18.407,2.3571],[-71.3124,18.4142,2.7748],[-71.2899,18.4144,6.0398],[-71.2763,18.4025,8.7712],[-71.2665,18.39,10.0188],[-71.2643,18.3843,10.3059],[-71.2577,18.3756,11.4386],[-71.2583,18.369,12.0327],[-71.2554,18.3646,13.1632],[-71.251,18.3623,13.9131],[-71.2469,18.3498,15.6064],[-71.244,18.3473,16.369],[-71.2384,18.3461,16.324],[-71.2378,18.3413,16.8713],[-71.2341,18.337,18.4268],[-71.2263,18.3331,38.6741],[-71.2089,18.329,22.0017],[-71.2011,18.3238,9.5762],[-71.1623,18.3235,12.9343],[-71.1575,18.324,11.5373],[-71.1557,18.3257,11.9898],[-71.1559,18.3424,12.7622],[-71.1603,18.3417,15.3744],[-71.1662,18.3325,13.2233],[-71.1771,18.3322,16.9269],[-71.1813,18.3355,16.7222],[-71.183,18.3454,17.2222],[-71.1924,18.3478,18.1394],[-71.1962,18.3516,20.3679],[-71.1961,18.3597,21.4103],[-71.1941,18.3662,22.3246],[-71.196,18.3745,23.7431],[-71.1886,18.3817,26.3174],[-71.183,18.384,28.0175],[-71.1809,18.3917,33.0298],[-71.1737,18.3957,54.12],[-71.1718,18.4035,39.7103],[-71.1663,18.4054,41.8546],[-71.1595,18.4029,71.5971],[-71.1531,18.4029,101.1935],[-71.1378,18.4128,108.3714],[-71.1273,18.4121,212.7335],[-71.1207,18.4188,185.2352],[-71.1227,18.4248,115.4821],[-71.1278,18.4277,87.1509],[-71.1358,18.4254,54.9382],[-71.1383,18.4262,56.675],[-71.1405,18.43,52.7065],[-71.1383,18.4353,62.5582],[-71.1189,18.4364,78.1675],[-71.1066,18.4393,89.4618],[-71.1009,18.4507,109.8438],[-71.0969,18.4547,78.8691],[-71.0923,18.4549,80.2197],[-71.0867,18.4487,143.6852],[-71.0805,18.4521,118.9134],[-71.0738,18.4532,121.7413],[-71.0703,18.458,159.6324],[-71.071,18.4646,128.4632],[-71.067,18.4686,135.8203],[-71.0604,18.4705,124.9198],[-71.0532,18.4749,152.4029],[-71.0446,18.4737,178.2508],[-71.0384,18.4763,135.3423],[-71.0366,18.479,148.8992],[-71.0339,18.4919,156.5205],[-71.0366,18.4945,151.2592],[-71.0455,18.4957,130.7359],[-71.0479,18.5,155.5276],[-71.0443,18.5032,119.0759],[-71.031,18.5008,156.4337],[-71.0198,18.5009,254.4446],[-71.0228,18.5068,196.6344],[-71.03,18.5128,187.9851],[-71.0305,18.5199,174.7593],[-71.0288,18.5227,147.1908],[-71.0188,18.5232,181.4725],[-71.0142,18.5214,186.5733],[-71.0054,18.5125,171.3689],[-71.0063,18.5042,161.3249],[-71.0028,18.5005,175.665],[-70.9984,18.5013,179.0311],[-70.9961,18.5082,182.2631],[-70.9846,18.5109,245.1921],[-70.9803,18.5072,213.5112],[-70.976,18.5098,225.4964],[-70.9737,18.5137,237.2325],[-70.9741,18.5191,228.568],[-70.977,18.5224,210.0242],[-70.9854,18.5276,195.5837],[-71.0194,18.5424,530.3835],[-71.0323,18.5433,579.0415],[-71.0395,18.5479,628.4265],[-71.0568,18.5522,845.2593],[-71.0639,18.5565,791.4434],[-71.091,18.5573,737.6004],[-71.1017,18.5548,689.7427],[-71.1163,18.5609,895.6146],[-71.1287,18.5691,831.8984],[-71.1383,18.5861,600.3746],[-71.1456,18.5919,577.6162],[-71.147,18.5997,548.4134],[-71.152,18.6072,632.0241],[-71.1512,18.6169,736.9407],[-71.1609,18.6176,784.1946],[-71.1673,18.6222,772.8001],[-71.176,18.6256,764.693],[-71.1817,18.625,746.5132],[-71.1887,18.6203,571.3129],[-71.1929,18.6202,538.6749],[-71.1959,18.6226,676.9109],[-71.1976,18.6287,595.8101],[-71.2013,18.6313,634.0337],[-71.2055,18.6309,660.925],[-71.2178,18.6235,643.6191],[-71.244,18.6121,506.398],[-71.2634,18.6123,675.0562],[-71.2966,18.6204,796.837],[-71.3058,18.6204,766.2782],[-71.3149,18.6158,743.4283],[-71.3233,18.6038,1232.0262],[-71.3351,18.5962,1304.7446],[-71.3409,18.5949,1392.2748],[-71.3426,18.5918,1258.7863]]]]}}