{"type": "Feature","id": "1969","bbox": [-71.62066,18.33599,-70.99328,18.65077],"geometry": {"type": "Polygon","coordinates": [[[-71.34486,18.59961,1301.8882],[-71.39354,18.60318,1732.7092],[-71.43845,18.62481,1784.4265],[-71.4879,18.63426,1953.5374],[-71.53498,18.65077,2005.6425],[-71.56746,18.6423,1354.8007],[-71.59947,18.63258,1396.9579],[-71.60428,18.62153,1339.4607],[-71.60268,18.60881,951.326],[-71.60945,18.58626,570.4756],[-71.62066,18.5653,254.6283],[-71.5926,18.47799,-37.0],[-71.48997,18.43975,-36.1019],[-71.45163,18.42327,-28.0553],[-71.41545,18.40211,-18.0865],[-71.37672,18.39273,-1.9102],[-71.3384,18.40702,1.8335],[-71.29055,18.40417,6.9882],[-71.26459,18.35787,13.0825],[-71.23673,18.33599,17.6283],[-71.20076,18.33836,17.8567],[-71.19779,18.37079,22.3773],[-71.18028,18.39707,37.5783],[-71.16353,18.40709,40.2069],[-71.14736,18.41766,47.7897],[-71.13599,18.43417,72.5835],[-71.11989,18.44665,70.2943],[-71.08922,18.4573,93.9409],[-71.06341,18.47531,100.2112],[-71.04778,18.49988,155.5276],[-71.03442,18.52587,139.3568],[-71.01476,18.50202,184.8301],[-70.99362,18.50962,176.9066],[-70.99328,18.52734,270.5008],[-71.01987,18.54427,532.8024],[-71.05139,18.54972,699.2611],[-71.11382,18.57029,689.3623],[-71.16131,18.61592,741.2333],[-71.19769,18.63537,615.0964],[-71.24521,18.62186,588.1866],[-71.27262,18.61731,732.2154],[-71.30024,18.62021,783.1287],[-71.32332,18.61277,974.5356],[-71.34486,18.59961,1301.8882]]]}
,"properties": {"ISO3166-1-Alpha-3": "DOM","country": "Dominican Republic","fill": "#FF0","name": "Bahoruco","area_km2": 1304.988,"hist_schema_id": "Elevation0-9000","hist_area_km2": {"-50": 0.04,"-25": 109.303,"0": 193.686,"25": 114.377,"50": 38.832,"75": 34.708,"100": 32.173,"125": 31.629,"150": 35.348,"175": 35.226,"200": 32.45,"225": 30.097,"250": 26.638,"275": 24.024,"300": 19.882,"325": 17.127,"350": 16.141,"375": 17.347,"400": 19.738,"425": 18.893,"450": 19.576,"475": 19.134,"500": 19.174,"525": 19.094,"550": 19.013,"575": 18.571,"600": 18.752,"625": 18.571,"650": 17.706,"675": 15.797,"700": 14.37,"725": 13.466,"750": 12.863,"775": 11.617,"800": 11.255,"825": 10.632,"850": 9.104,"875": 9.808,"900": 8.783,"925": 7.697,"950": 7.516,"975": 7.617,"1000": 8.26,"1025": 7.034,"1050": 7.395,"1075": 6.933,"1100": 6.25,"1125": 7.134,"1150": 7.476,"1175": 5.968,"1200": 6.27,"1225": 5.064,"1250": 5.024,"1275": 4.883,"1300": 4.24,"1325": 4.662,"1350": 4.159,"1375": 4.581,"1400": 3.717,"1425": 3.376,"1450": 3.516,"1475": 2.833,"1500": 2.693,"1525": 2.894,"1550": 3.074,"1575": 2.672,"1600": 2.13,"1625": 2.19,"1650": 1.849,"1675": 1.929,"1700": 1.447,"1725": 1.567,"1750": 1.165,"1775": 1.125,"1800": 0.824,"1825": 0.603,"1850": 0.563,"1875": 0.864,"1900": 0.563,"1925": 0.904,"1950": 0.804,"1975": 0.904,"2000": 0.804,"2025": 0.964,"2050": 1.226,"2075": 1.165,"2100": 0.583,"2125": 0.663,"2150": 0.663,"2175": 0.723,"2200": 0.522,"2225": 0.342,"2250": 0.02}}}