{"type":"Feature","properties":{"featurecla":"Alkaline Lake","scalerank":4,"name":"Lago Enriquillo","name_abb":"L. Enriquillo","name_alt":null,"note":null,"delta":null,"dam_name":null,"year":-99,"admin":null,"min_zoom":4.0,"min_label":5.0},
"geometry":{"type": "Polygon","coordinates": [[[-71.569482127963838,18.512085005128483,-8.5431],[-71.58184542130337,18.5159117387812,5.3219],[-71.591853801625845,18.517383559416857,14.3158],[-71.60186218194832,18.520327200688172,-5.6527],[-71.6140782932243,18.528863760374975,-26.6554],[-71.622173306720413,18.534751042917634,3.0349],[-71.66412019483667,18.55270725467264,-19.5218],[-71.682370770718833,18.563304363249387,217.4602],[-71.702534713427355,18.568308553410617,59.3398],[-71.723728930580833,18.556533988325356,-37.0],[-71.740802049954468,18.537400320061806,6.2422],[-71.76067162853586,18.520032836561029,-4.6531],[-71.78201302775291,18.5150286463998,-37.0],[-71.80291288077926,18.532396129900576,-37.0],[-71.819691636025766,18.541227053714522,-37.0],[-71.8199860001529,18.530924309264918,-37.0],[-71.813362807292435,18.515617374654056,-37.0],[-71.803648791097089,18.500604804170337,-37.0],[-71.790696769503285,18.496483706390507,-37.0],[-71.761849085044389,18.491479516229276,-37.0],[-71.725642297407191,18.472051483838584,-37.0],[-71.720343743118818,18.467636021931611,-37.0],[-71.714750824703316,18.459688190499037,-37.0],[-71.686933414689378,18.452329087320749,-37.0],[-71.669418749125043,18.44320379937966,-37.0],[-71.645133708636678,18.436727788582772,-37.0],[-71.63821615164909,18.432017962548656,-37.0],[-71.625116947991728,18.420537761590538,-37.0],[-71.61775784481344,18.416416663810679,-37.0],[-71.595974899405689,18.412884294285107,-37.0],[-71.582434149557642,18.413473022539364,-37.0],[-71.576252502887868,18.419654669209137,-37.0],[-71.52797678603828,18.429368685404484,-37.0],[-71.516938131270834,18.435844696201372,-37.0],[-71.510020574283246,18.442026342871145,-37.0],[-71.4942720934817,18.46410365240601,-37.0],[-71.508990299838288,18.476172581618414,-37.0],[-71.569482127963838,18.512085005128483,-8.5431]]]}}