{"type":"Feature","properties":{"featurecla":"River","scalerank":10,"rivernum":22250,"dissolve":"22250River","name":"null988","name_alt":null,"note":"ID is link back to CEC data","name_full":null,"min_zoom":6.0,"strokeweig":0.2,"uident":2020101,"min_label":7.0},
"geometry":{"type": "LineString","coordinates": [[-71.4942927725204,18.464178778119035,-37.0],[-71.457834439187067,18.482530015098206,7.0069],[-71.3939509756454,18.467962957806535,-9.8063],[-71.3502498037704,18.439072983848206,-1.8518],[-71.2623591787704,18.414129949994035,9.6435],[-71.238596157937067,18.396836655723206,13.8893],[-71.1881404287704,18.335638739056535,18.0394],[-71.192453579812067,18.280056056764863,8.2082],[-71.180653449603739,18.263210353639863,5.7058],[-71.106068488666239,18.251572983848206,0.0]]}}