{"type":"Feature","properties":{"GID_3":"HTI.5.4.1_1","GID_0":"HTI","country":"Haiti","GID_1":"HTI.5_1","province":"Nord-Est","NL_NAME_1":"NA","GID_2":"HTI.5.4_1","county":"Vallières","NL_NAME_2":"NA","city":"Carice","VARNAME_3":"NA","NL_NAME_3":"NA","TYPE_3":"Commune","ENGTYPE_3":"Commune","CC_3":"NA","HASC_3":"NA","name":"Carice.city"},
"geometry":{"type": "MultiPolygon","coordinates": [[[[-71.7804,19.3334,605.6722],[-71.7804,19.3346,620.295],[-71.7858,19.3317,586.9911],[-71.7985,19.3348,599.4369],[-71.7983,19.3371,591.5146],[-71.8032,19.3406,598.1646],[-71.8059,19.3463,610.5501],[-71.805,19.3488,613.8613],[-71.807,19.3532,611.0062],[-71.8085,19.3533,603.1656],[-71.8083,19.356,599.1828],[-71.8113,19.3588,619.014],[-71.8133,19.3578,601.6805],[-71.8147,19.3651,603.4667],[-71.8189,19.3662,612.6091],[-71.8202,19.3702,611.6889],[-71.8253,19.3738,612.972],[-71.8278,19.3815,612.4055],[-71.8268,19.3838,617.4515],[-71.8282,19.3831,610.8822],[-71.8318,19.3852,613.3493],[-71.8316,19.3893,613.9618],[-71.8403,19.4001,621.1561],[-71.8449,19.4003,630.8353],[-71.845,19.4023,626.8561],[-71.8476,19.4029,630.0145],[-71.8512,19.4072,642.0436],[-71.8535,19.4077,645.3739],[-71.8537,19.4056,636.9749],[-71.8547,19.406,636.9749],[-71.8592,19.4114,650.3879],[-71.8582,19.4193,665.3572],[-71.8534,19.4211,667.6485],[-71.8532,19.424,673.9362],[-71.8613,19.4269,883.7356],[-71.871,19.4271,965.4382],[-71.8752,19.4312,1004.6433],[-71.8763,19.4363,1011.6337],[-71.8775,19.4358,1011.6337],[-71.8811,19.4279,705.2028],[-71.8773,19.4176,729.6961],[-71.8801,19.4155,686.4495],[-71.885,19.4051,599.1132],[-71.8845,19.4022,588.9807],[-71.8784,19.3982,662.6246],[-71.8703,19.3899,811.0182],[-71.8696,19.3881,800.7822],[-71.8743,19.3866,869.025],[-71.8747,19.3852,958.4973],[-71.8649,19.3853,822.0088],[-71.8627,19.384,843.8683],[-71.8609,19.3787,848.061],[-71.8579,19.3769,757.6511],[-71.8572,19.369,694.6076],[-71.8545,19.3641,735.1023],[-71.8492,19.3615,767.6959],[-71.8486,19.358,859.5507],[-71.8375,19.3566,970.7686],[-71.8319,19.3461,902.1078],[-71.8356,19.3436,929.3748],[-71.8281,19.3392,927.5101],[-71.8221,19.3322,937.2679],[-71.814,19.3274,766.3858],[-71.8068,19.3165,794.9747],[-71.8081,19.3122,904.4877],[-71.8055,19.3092,944.2502],[-71.8022,19.3115,847.743],[-71.7968,19.3094,791.2096],[-71.7952,19.3035,756.4844],[-71.7896,19.2986,735.2592],[-71.7865,19.2901,730.3893],[-71.7829,19.2875,743.8001],[-71.7811,19.288,752.7395],[-71.7825,19.2843,681.5245],[-71.7732,19.2783,628.4241],[-71.7592,19.2754,580.3648],[-71.7479,19.2833,587.9888],[-71.752,19.2841,585.0573],[-71.752,19.2868,595.7151],[-71.7501,19.2868,623.5698],[-71.7501,19.2934,589.4402],[-71.7529,19.2954,586.8492],[-71.7576,19.2954,578.4927],[-71.7576,19.2973,570.1053],[-71.7561,19.2976,571.3362],[-71.7568,19.3008,570.1798],[-71.7529,19.302,590.7498],[-71.7529,19.3047,602.9501],[-71.7568,19.3055,592.9157],[-71.7556,19.3074,596.7775],[-71.7588,19.3074,592.5428],[-71.7595,19.3094,596.0159],[-71.7595,19.3074,592.5428],[-71.7615,19.3074,585.251],[-71.7595,19.3113,599.3118],[-71.7615,19.3121,602.1639],[-71.7623,19.316,598.5897],[-71.7635,19.316,592.8947],[-71.7643,19.3206,614.1545],[-71.767,19.3222,601.1274],[-71.7651,19.3241,615.0394],[-71.767,19.3253,606.5391],[-71.7709,19.3241,602.444],[-71.7709,19.3268,609.6526],[-71.7737,19.3268,608.8408],[-71.7737,19.3307,613.555],[-71.7764,19.3334,616.0488],[-71.7804,19.3334,605.6722]]]]}}