{"type": "Feature","bbox": [-79.5298,21.5426,-78.9646,21.8062],"geometry": {"type": "MultiPolygon","coordinates": [[[[-79.1246,21.7239,22.8795],[-79.146,21.7354,29.9241],[-79.1565,21.7185,19.5564],[-79.1677,21.7144,17.3036],[-79.2151,21.7148,27.2014],[-79.2367,21.721,30.4422],[-79.2622,21.7235,27.4379],[-79.2677,21.728,26.8549],[-79.2754,21.7475,30.3463],[-79.2787,21.7686,32.56],[-79.2881,21.7916,41.179],[-79.3386,21.8062,48.0541],[-79.3552,21.8021,31.3281],[-79.3639,21.7962,22.3358],[-79.3856,21.7645,17.6776],[-79.44,21.7522,22.1953],[-79.4486,21.7394,31.3777],[-79.4526,21.7228,17.1327],[-79.4618,21.7049,5.4148],[-79.4687,21.699,5.3107],[-79.4951,21.687,1.8104],[-79.5047,21.679,4.3345],[-79.5253,21.6496,1.0427],[-79.5298,21.6174,0.0],[-79.524,21.6182,0.0],[-79.524,21.6204,0.0],[-79.5201,21.6238,0.0],[-79.5171,21.6313,0.0],[-79.5182,21.6357,0.1934],[-79.5168,21.6388,1.568],[-79.5115,21.6413,0.585],[-79.506,21.641,0.9303],[-79.5032,21.6396,0.461],[-79.5057,21.6382,2.208],[-79.5051,21.6362,0.1963],[-79.4924,21.6249,0.0],[-79.4621,21.6024,0.18],[-79.4512,21.5974,0.0],[-79.4318,21.5954,0.0],[-79.4149,21.5918,0.0],[-79.4143,21.5938,0.511],[-79.4185,21.5932,0.0],[-79.4226,21.5965,0.1795],[-79.4207,21.5974,0.4739],[-79.4187,21.596,0.0],[-79.4176,21.5979,0.0],[-79.4143,21.5979,0.0],[-79.411,21.5963,1.8978],[-79.4115,21.5954,1.6473],[-79.414,21.596,0.0],[-79.4126,21.5946,1.6473],[-79.4129,21.591,0.1831],[-79.4093,21.5899,0.0],[-79.4082,21.5943,-0.5],[-79.4068,21.5943,-0.5],[-79.4062,21.5912,0.0636],[-79.4026,21.5912,0.0],[-79.3751,21.6001,1.0512],[-79.3724,21.599,1.8679],[-79.359,21.6015,0.0],[-79.3557,21.5976,1.3565],[-79.3504,21.5965,0.0],[-79.3429,21.5901,0.0],[-79.3435,21.5943,0.7125],[-79.3463,21.5954,2.1497],[-79.3454,21.5974,0.0],[-79.3471,21.5982,0.0],[-79.3471,21.601,1.3549],[-79.3332,21.5968,0.0],[-79.3326,21.5971,0.0],[-79.3343,21.5996,1.7285],[-79.3315,21.6004,0.0],[-79.3299,21.5979,1.3521],[-79.3265,21.5985,3.4361],[-79.3304,21.5965,1.7023],[-79.3285,21.5915,3.6621],[-79.3301,21.5912,0.0],[-79.3318,21.596,0.0],[-79.334,21.591,1.1847],[-79.3371,21.5921,0.0],[-79.3371,21.5904,2.4613],[-79.3399,21.5901,1.4574],[-79.3401,21.5885,0.2687],[-79.3379,21.5865,0.0],[-79.3351,21.5865,0.9233],[-79.3354,21.5846,0.0],[-79.3318,21.5826,0.0],[-79.3246,21.5812,0.5163],[-79.3179,21.5768,0.0],[-79.3154,21.5771,0.6885],[-79.3104,21.5724,0.6747],[-79.3032,21.5693,0.6853],[-79.2993,21.5646,0.0],[-79.2504,21.549,0.0],[-79.239,21.5479,0.0],[-79.2249,21.544,0.3502],[-79.2196,21.5446,1.7382],[-79.2085,21.5426,0.0],[-79.2018,21.5446,1.3243],[-79.1943,21.5443,0.0],[-79.1837,21.5476,0.8583],[-79.1696,21.5474,0.8063],[-79.1593,21.5532,1.3218],[-79.151,21.5543,0.7537],[-79.1474,21.5524,0.6212],[-79.1293,21.5562,0.0],[-79.1271,21.5585,0.0],[-79.1115,21.5643,0.0],[-79.1099,21.5671,1.6053],[-79.1049,21.5674,1.8664],[-79.1007,21.571,0.8626],[-79.0918,21.5726,0.5094],[-79.076,21.5796,0.0],[-79.0682,21.5879,7.0634],[-79.0585,21.5912,2.0765],[-79.0443,21.5915,2.6612],[-79.0362,21.589,3.3324],[-79.036,21.5868,0.0],[-79.034,21.589,3.3928],[-79.0326,21.5865,0.0],[-79.0268,21.586,1.2875],[-79.0029,21.5946,2.735],[-78.9782,21.5979,2.0112],[-78.9749,21.5965,2.6809],[-78.9724,21.586,0.0],[-78.9707,21.5851,0.0],[-78.9704,21.5901,0.0],[-78.9721,21.591,0.0],[-78.9732,21.5968,2.6809],[-78.9674,21.599,3.9757],[-78.9646,21.606,1.132],[-78.9656,21.6334,10.6528],[-78.9746,21.6495,11.8164],[-78.9975,21.6663,12.3926],[-79.0059,21.6692,12.1586],[-79.0128,21.6688,15.6158],[-79.0223,21.6625,12.2339],[-79.0475,21.6398,6.0929],[-79.0598,21.6352,4.9432],[-79.0828,21.6317,4.4937],[-79.1005,21.6315,5.4248],[-79.1086,21.6323,6.3342],[-79.1143,21.6358,7.2665],[-79.1165,21.6399,7.8109],[-79.115,21.6446,8.0155],[-79.0955,21.6726,8.414],[-79.091,21.6823,10.3488],[-79.089,21.69,11.6963],[-79.0891,21.6992,13.6083],[-79.0926,21.7047,15.5015],[-79.1033,21.7155,17.8753],[-79.1236,21.7221,23.8319],[-79.1246,21.7239,22.8795]]]]}
,"properties": {"GID_2": "CUB.14.4_1","GID_0": "CUB","country": "Cuba","GID_1": "CUB.14_1","province": "SanctiSpíritus","NL_NAME_1": "NA","county": "LaSierpe","VARNAME_2": "NA","NL_NAME_2": "NA","TYPE_2": "Municipio","ENGTYPE_2": "Municipality","CC_2": "NA","HASC_2": "CU.SS.LS","name": "La_Sierpe.county","area_km2": 878.4139,"hist_schema_id": "Elevation0-9000","hist_area_km2": {"0": 559.8162,"25": 293.5921,"50": 25.0056}}}