{"type": "Feature","bbox": [-71.7989,18.9386,-71.4909,19.0934],"geometry": {"type": "MultiPolygon","coordinates": [[[[-71.6367,18.9386,328.9603],[-71.6338,18.9414,333.218],[-71.6199,18.9451,371.6949],[-71.6175,18.9504,392.243],[-71.6109,18.9551,390.3225],[-71.6053,18.9653,390.556],[-71.5955,18.9742,402.4381],[-71.583,18.98,425.8648],[-71.573,18.9807,421.6153],[-71.569,18.9826,430.9953],[-71.5634,18.9886,438.9531],[-71.5615,18.9966,457.3949],[-71.5569,18.9995,479.9843],[-71.5476,19.0001,487.8437],[-71.5392,18.9974,478.6577],[-71.5209,18.997,478.4107],[-71.5134,18.9948,490.6671],[-71.509,18.9968,500.1519],[-71.4954,19.0105,544.5114],[-71.4996,19.0204,629.7979],[-71.5001,19.0273,743.7633],[-71.4915,19.043,722.3411],[-71.4909,19.0629,1042.5393],[-71.5029,19.0603,1039.1952],[-71.5128,19.0672,1270.9966],[-71.5259,19.0652,1123.2927],[-71.5314,19.0681,1199.2358],[-71.5354,19.0725,1229.7667],[-71.5401,19.0736,991.5935],[-71.545,19.0726,897.8262],[-71.5545,19.0654,698.2023],[-71.575,19.0625,728.497],[-71.5896,19.0662,1015.8303],[-71.6036,19.0786,689.8865],[-71.6258,19.0876,445.2495],[-71.6654,19.0883,387.1071],[-71.6929,19.0934,328.35],[-71.698,19.0891,255.5255],[-71.7054,19.0902,272.038],[-71.7074,19.0891,261.0519],[-71.7081,19.0828,264.6302],[-71.7046,19.0809,277.1666],[-71.6987,19.0809,281.6179],[-71.6971,19.079,276.5656],[-71.7018,19.0731,249.465],[-71.7101,19.0672,244.1496],[-71.7112,19.0706,253.1959],[-71.7162,19.0711,265.3097],[-71.7168,19.0688,243.7747],[-71.712,19.0677,261.1582],[-71.712,19.065,263.1613],[-71.714,19.063,261.6102],[-71.716,19.0642,249.5565],[-71.7172,19.0632,240.5569],[-71.7167,19.06,236.7494],[-71.7184,19.0586,262.3953],[-71.7255,19.0556,257.2882],[-71.7233,19.0536,253.6674],[-71.7342,19.0499,231.6421],[-71.7363,19.047,235.9737],[-71.7377,19.0478,233.985],[-71.7405,19.0433,247.3139],[-71.7495,19.0473,235.0326],[-71.7598,19.0388,227.442],[-71.7563,19.0341,245.8717],[-71.7571,19.0314,229.6227],[-71.7607,19.0303,223.1982],[-71.7611,19.0273,220.6021],[-71.7647,19.0262,227.2834],[-71.768,19.0318,218.7515],[-71.7705,19.0317,218.7586],[-71.7786,19.0221,216.4323],[-71.7771,19.0201,238.3809],[-71.7731,19.0201,249.0798],[-71.7712,19.0174,265.8652],[-71.7771,19.0143,214.029],[-71.7806,19.0162,215.6335],[-71.7865,19.0115,214.5217],[-71.7872,19.0049,226.3392],[-71.7825,19.0014,247.2298],[-71.7833,18.9976,274.5871],[-71.7868,18.9968,224.3146],[-71.7878,18.9941,209.6566],[-71.7917,18.9929,209.739],[-71.7989,18.996,217.172],[-71.7898,18.9856,328.0017],[-71.7869,18.9767,357.8775],[-71.7707,18.9759,338.5619],[-71.7617,18.9739,329.5408],[-71.7499,18.9785,299.3257],[-71.7405,18.9922,347.338],[-71.7215,18.9932,363.49],[-71.7191,19.0032,398.494],[-71.704,19.0095,400.7869],[-71.701,19.0187,384.0999],[-71.6963,19.0202,383.6432],[-71.6824,19.0079,459.6389],[-71.6791,19.0072,445.6779],[-71.6734,19.0088,454.0034],[-71.6696,19.0056,464.9416],[-71.67,18.9908,438.8718],[-71.6826,18.9854,411.2497],[-71.684,18.9826,394.9132],[-71.6823,18.9793,367.6141],[-71.6746,18.976,414.918],[-71.6658,18.978,391.3719],[-71.6496,18.9749,428.3032],[-71.6351,18.9676,402.3445],[-71.6343,18.9647,392.3472],[-71.6394,18.9458,336.4344],[-71.6391,18.9406,336.2793],[-71.6367,18.9386,328.9603]]]]}
,"properties": {"GID_2": "DOM.12.1_1","GID_0": "DOM","country": "DominicanRepublic","GID_1": "DOM.12_1","province": "LaEstrelleta","NL_NAME_1": "NA","county": "Banica","VARNAME_2": "SanFranciscodeBánica","NL_NAME_2": "NA","TYPE_2": "Municipio","ENGTYPE_2": "Municipality","CC_2": "NA","HASC_2": "DO.EP.BA","name": "Banica.county","area_km2": 280.1532,"hist_schema_id": "Elevation0-9000","hist_area_km2": {"200": 0.2406,"225": 3.0467,"250": 8.0571,"275": 14.7909,"300": 16.2148,"325": 18.1195,"350": 23.833,"375": 24.5751,"400": 28.9855,"425": 31.2109,"450": 24.3546,"475": 18.6816,"500": 15.8147,"525": 7.9371,"550": 6.8547,"575": 4.5095,"600": 3.0665,"625": 2.2447,"650": 2.405,"675": 2.1444,"700": 2.1444,"725": 1.8638,"750": 1.8438,"775": 1.8838,"800": 1.6033,"825": 1.7034,"850": 1.4229,"875": 1.8237,"900": 1.3627,"925": 1.022,"950": 1.022,"975": 0.7214,"1000": 0.7214,"1025": 0.6012,"1050": 0.5811,"1075": 0.3607,"1100": 0.501,"1125": 0.3206,"1150": 0.2405,"1175": 0.2204,"1200": 0.2004,"1225": 0.1603,"1250": 0.1403,"1275": 0.1403,"1300": 0.1202,"1325": 0.1002,"1350": 0.1202,"1375": 0.1002,"1400": 0.02}}}