{"type":"Feature","properties":{"ISO3166-1-Alpha-3":"BHS","country":"The Bahamas","fill":"#F0F","id":"5030","name":"Cat Island"},
"geometry":{"type": "Polygon","coordinates": [[[-75.31469,24.21735,0.0],[-75.35851,24.26142,0.0],[-75.36962,24.26826,9.7202],[-75.3756,24.27595,16.9573],[-75.40038,24.32347,0.0],[-75.41902,24.33784,0.0],[-75.45812,24.35733,0.0],[-75.47606,24.37059,0.0],[-75.53222,24.44489,0.0],[-75.55997,24.49144,8.0496],[-75.57201,24.52269,2.1319],[-75.58682,24.53852,0.0],[-75.60285,24.55191,13.1997],[-75.61262,24.56245,7.5932],[-75.61856,24.58124,0.0],[-75.62633,24.64501,0.0],[-75.63732,24.65697,0.0],[-75.64932,24.66307,0.0],[-75.67536,24.67231,7.9961],[-75.70222,24.69575,0.0],[-75.70885,24.70018,0.0],[-75.72387,24.70185,0.0],[-75.73217,24.69864,0.0],[-75.753,24.67601,8.3755],[-75.75756,24.66791,0.0],[-75.75658,24.66031,0.0],[-75.74983,24.6518,0.0],[-75.74108,24.64614,0.0],[-75.70885,24.63133,0.0],[-75.6647,24.59601,0.0],[-75.65783,24.59292,0.0],[-75.65274,24.58836,0.0],[-75.64737,24.57612,0.0],[-75.64415,24.56415,0.0],[-75.64265,24.5515,0.0],[-75.64346,24.53946,-0.4763],[-75.64737,24.52896,0.4839],[-75.61437,24.5266,0.0],[-75.58849,24.51264,0.0],[-75.57152,24.48876,15.0514],[-75.5655,24.45694,0.0],[-75.56111,24.44343,0.0],[-75.5419,24.41747,0.0],[-75.53401,24.38923,0.0],[-75.48058,24.30939,0.0],[-75.45995,24.29458,0.3706],[-75.43073,24.28872,0.0],[-75.41006,24.27289,0.0],[-75.40575,24.2403,0.0],[-75.41466,24.21312,0.0],[-75.43391,24.21361,0.0],[-75.44392,24.19872,0.0],[-75.46361,24.18561,0.8248],[-75.48493,24.17621,0.0],[-75.49962,24.17259,0.0],[-75.52131,24.16258,0.0],[-75.50992,24.14208,4.7549],[-75.48314,24.12572,2.0256],[-75.4584,24.12792,5.8246],[-75.44091,24.14204,10.9403],[-75.42512,24.14997,0.3056],[-75.37987,24.15839,-0.7155],[-75.35643,24.16014,15.5474],[-75.3358,24.15851,3.4296],[-75.29044,24.14472,0.0],[-75.307,24.20254,0.0],[-75.31469,24.21735,0.0]]]}}