{"type": "Feature","bbox": [-75.9732,24.114,-75.2932,24.6963],"geometry": {"type": "MultiPolygon","coordinates": [[[[-75.706,24.6963,0.0],[-75.7221,24.6935,0.0],[-75.7226,24.6899,0.0],[-75.7251,24.6871,0.0],[-75.7326,24.6821,0.0],[-75.7426,24.6782,5.5783],[-75.7607,24.6796,1.0829],[-75.7621,24.674,1.5503],[-75.7574,24.6729,4.8243],[-75.7574,24.671,0.0],[-75.7538,24.6682,0.0],[-75.7438,24.666,5.5411],[-75.741,24.6626,1.9774],[-75.7368,24.6565,0.0],[-75.7379,24.6424,0.2045],[-75.7365,24.6396,0.0],[-75.7279,24.644,1.7643],[-75.7121,24.6454,0.0],[-75.7029,24.6351,0.0],[-75.6862,24.6282,0.7096],[-75.6715,24.6193,1.0893],[-75.6696,24.616,0.4774],[-75.6657,24.6143,0.7379],[-75.6537,24.6024,-0.4365],[-75.6457,24.5918,0.0014],[-75.6426,24.5851,0.2298],[-75.6396,24.5699,0.0],[-75.641,24.5657,0.0],[-75.639,24.5637,4.9726],[-75.6413,24.559,0.0],[-75.641,24.5499,1.3194],[-75.6454,24.5401,0.7686],[-75.6496,24.5365,0.0],[-75.649,24.5293,0.0],[-75.6449,24.5279,0.0],[-75.626,24.531,3.477],[-75.6137,24.531,3.8371],[-75.6046,24.5293,1.4306],[-75.5965,24.5254,0.0],[-75.5957,24.5226,1.8678],[-75.5868,24.5138,3.3892],[-75.586,24.5099,5.8568],[-75.576,24.4999,2.928],[-75.5735,24.4929,8.2658],[-75.5729,24.484,0.0],[-75.5587,24.471,6.1708],[-75.5504,24.4579,6.4691],[-75.549,24.4549,6.4192],[-75.5499,24.4526,1.6737],[-75.5449,24.446,0.0],[-75.544,24.4401,0.0],[-75.5379,24.429,3.5065],[-75.5304,24.4063,2.1876],[-75.521,24.3893,0.5163],[-75.4965,24.3576,0.489],[-75.4801,24.341,3.4107],[-75.4762,24.3265,1.1173],[-75.4765,24.3221,0.7551],[-75.4732,24.3218,0.0],[-75.4713,24.3185,1.801],[-75.4715,24.3154,0.3914],[-75.4743,24.3121,0.0],[-75.4724,24.3115,0.5251],[-75.4687,24.304,0.6051],[-75.4632,24.3035,0.788],[-75.4638,24.3007,0.4282],[-75.459,24.2943,0.3706],[-75.4529,24.2954,0.0],[-75.449,24.294,0.1462],[-75.4388,24.299,2.982],[-75.4282,24.2971,0.947],[-75.4179,24.2913,1.7019],[-75.4096,24.2812,4.3959],[-75.4054,24.2713,0.8713],[-75.4029,24.2585,2.9236],[-75.3976,24.2565,0.1471],[-75.394,24.2476,0.3938],[-75.3926,24.2379,0.109],[-75.3976,24.2188,1.0408],[-75.4043,24.2085,0.713],[-75.4126,24.2035,0.1814],[-75.411,24.2024,0.0],[-75.404,24.206,0.1686],[-75.396,24.215699999999998,0.1073],[-75.3968,24.2101,0.0759],[-75.4046,24.2012,0.6883],[-75.411,24.2001,1.201],[-75.4129,24.1982,0.9104],[-75.4182,24.1993,0.0],[-75.4151,24.1968,0.837],[-75.4221,24.1968,0.2422],[-75.4199,24.2007,0.0],[-75.4268,24.199,0.0],[-75.4382,24.1938,0.0],[-75.4463,24.1926,0.0],[-75.4476,24.1896,3.932],[-75.4526,24.1921,0.0],[-75.4587,24.1876,0.4957],[-75.4668,24.1857,0.0],[-75.4704,24.1813,8.8764],[-75.5104,24.1585,4.2187],[-75.5232,24.1549,3.5611],[-75.5296,24.1557,1.1245],[-75.5324,24.1526,4.3186],[-75.5321,24.1493,2.8702],[-75.5163,24.1393,1.1087],[-75.5146,24.1335,0.0],[-75.5126,24.1338,4.2062],[-75.506,24.1299,1.0611],[-75.5038,24.1268,0.0],[-75.501,24.1268,0.5017],[-75.4979,24.1229,2.2892],[-75.4907,24.1257,6.2507],[-75.4799,24.126,4.0688],[-75.4665,24.1218,10.0542],[-75.4635,24.114,2.3439],[-75.4599,24.1188,3.1756],[-75.4543,24.1215,0.0],[-75.4501,24.1282,2.4857],[-75.4393,24.1396,6.4553],[-75.4318,24.1446,0.4535],[-75.424,24.1463,1.6797],[-75.4143,24.1468,0.6677],[-75.4076,24.1446,0.7771],[-75.4049,24.1399,0.9817],[-75.4079,24.1368,0.0],[-75.4043,24.1351,0.0],[-75.4024,24.1396,1.0789],[-75.3929,24.1393,3.0821],[-75.3846,24.1465,9.3054],[-75.3788,24.1457,10.7059],[-75.3712,24.1501,2.5904],[-75.3651,24.149,2.272],[-75.3599,24.1521,8.7313],[-75.3468,24.1557,3.8164],[-75.3349,24.1565,1.3915],[-75.3299,24.1551,0.5854],[-75.3268,24.1524,1.6237],[-75.3249,24.146,0.0],[-75.3135,24.1429,0.0],[-75.309,24.1463,5.8745],[-75.3021,24.1454,0.0],[-75.3032,24.1393,1.7351],[-75.2993,24.1382,0.0],[-75.2993,24.1357,2.2989],[-75.2965,24.1346,0.0],[-75.2965,24.1365,1.7832],[-75.2932,24.1374,0.0],[-75.2943,24.1396,2.3817],[-75.2937,24.1501,0.0],[-75.3001,24.1529,3.6728],[-75.2999,24.1549,0.5801],[-75.2965,24.1563,0.0],[-75.2993,24.1574,6.8971],[-75.3021,24.1674,8.2848],[-75.3171,24.1996,7.714],[-75.3215,24.2049,3.381],[-75.324,24.2118,0.0],[-75.3337,24.2237,3.5906],[-75.3357,24.231,0.0],[-75.3385,24.2326,0.0],[-75.341,24.2379,0.0],[-75.3479,24.2393,1.6273],[-75.3535,24.2457,0.0],[-75.3593,24.259,0.0],[-75.3613,24.2701,1.302],[-75.3649,24.2721,0.6855],[-75.3676,24.2776,0.0],[-75.3704,24.2787,5.5413],[-75.3793,24.289,2.7109],[-75.3796,24.294,0.4865],[-75.3824,24.299,2.4866],[-75.3818,24.3018,0.0],[-75.3901,24.3049,2.7731],[-75.3926,24.3087,0.0],[-75.4001,24.3146,0.6249],[-75.4046,24.3232,1.1444],[-75.4088,24.3237,4.0847],[-75.4157,24.3276,1.7409],[-75.4238,24.3354,0.754],[-75.4246,24.3382,0.4703],[-75.4285,24.3388,0.0],[-75.4351,24.3438,0.0],[-75.4388,24.3432,7.3853],[-75.4604,24.3563,4.4087],[-75.4679,24.3638,0.0],[-75.4721,24.3635,2.3846],[-75.4776,24.3688,2.7739],[-75.4771,24.3718,0.8358],[-75.4812,24.3718,15.3698],[-75.4885,24.3799,1.506],[-75.496,24.3918,3.6027],[-75.5226,24.4263,5.0105],[-75.5563,24.4849,4.411],[-75.5579,24.4929,2.907],[-75.5618,24.5018,4.092],[-75.5646,24.504,2.3276],[-75.5699,24.5224,3.6663],[-75.5774,24.5296,0.0],[-75.5857,24.5349,0.0],[-75.5904,24.5468,3.5509],[-75.5954,24.5501,1.5281],[-75.5993,24.5507,1.2778],[-75.6038,24.5546,0.0],[-75.6135,24.5665,8.2155],[-75.6201,24.5776,0.0],[-75.6179,24.5846,0.6181],[-75.624,24.5893,3.8741],[-75.626,24.6085,2.574],[-75.6254,24.6326,2.2322],[-75.6232,24.6332,0.0],[-75.6243,24.6382,0.5841],[-75.6274,24.6388,1.1654],[-75.6304,24.6424,0.0],[-75.6349,24.6424,0.7775],[-75.6401,24.6529,2.4239],[-75.6504,24.6612,2.0551],[-75.6551,24.6629,1.4898],[-75.6601,24.669,0.0],[-75.6649,24.6715,1.8076],[-75.6754,24.6849,0.8603],[-75.6885,24.6918,4.3582],[-75.691,24.6896,1.0893],[-75.6932,24.6899,4.7911],[-75.706,24.6963,0.0]]],
[[[-75.8096,24.564,0.0],[-75.8085,24.5651,0.0],[-75.8215,24.5635,0.0],[-75.8182,24.5632,0.0],[-75.8096,24.564,0.0]]],
[[[-75.6137,24.5876,0.1414],[-75.6149,24.5885,0.0],[-75.6157,24.5865,0.0],[-75.6135,24.5851,0.0],[-75.6132,24.5865,0.1266],[-75.6137,24.5876,0.1414]]],
[[[-75.8768,24.5754,0.6008],[-75.8793,24.5757,0.0],[-75.8735,24.5732,0.0],[-75.8629,24.5724,0.4036],[-75.864,24.5735,0.0],[-75.8768,24.5754,0.6008]]],
[[[-75.9696,24.5901,11.6417],[-75.9732,24.5901,0.0],[-75.9715,24.5868,0.0],[-75.9662,24.5851,0.0],[-75.9593,24.5857,11.2729],[-75.9532,24.5812,4.7676],[-75.9521,24.5751,2.6366],[-75.9538,24.5738,0.4564],[-75.9565,24.5746,0.0],[-75.9565,24.5732,0.0],[-75.9501,24.5724,2.7584],[-75.9418,24.5657,1.6513],[-75.9374,24.5651,0.6455],[-75.9351,24.5626,2.1598],[-75.9254,24.5663,0.0],[-75.9196,24.5651,0.0],[-75.9185,24.5635,0.0],[-75.9104,24.5649,0.0],[-75.9029,24.5671,0.0],[-75.9037,24.569,0.5759],[-75.9004,24.5704,0.9742],[-75.8976,24.5696,1.9229],[-75.8982,24.5668,0.0],[-75.896,24.5679,0.7525],[-75.8921,24.5671,1.279],[-75.8904,24.5701,0.0],[-75.8904,24.5757,0.0],[-75.9054,24.574,2.5247],[-75.916,24.5757,2.9845],[-75.944,24.5851,3.7517],[-75.9474,24.5888,0.0],[-75.9557,24.5871,1.0517],[-75.9696,24.5901,11.6417]]],
[[[-75.8896,24.5979,0.5265],[-75.8887,24.5993,0.7184],[-75.8935,24.5987,0.0],[-75.8932,24.5979,0.0],[-75.8896,24.5979,0.5265]]]]}
,"properties": {"GID_1": "BHS.5_1","GID_0": "BHS","country": "Bahamas","state": "CatIsland","VARNAME_1": "IlhadoGato|IsladelGato","NL_NAME_1": "NA","TYPE_1": "District","ENGTYPE_1": "District","CC_1": "NA","HASC_1": "BS.CI","ISO_1": "NA","name": "CatIsland.state","area_km2": 370.4828,"hist_schema_id": "Elevation0-9000","hist_area_km2": {"0": 272.5613,"25": 91.507,"50": 6.3952,"75": 0.0193}}}