{"type": "Feature","bbox": [-70.6381,19.447,-70.5398,19.5366],"geometry": {"type": "MultiPolygon","coordinates": [[[[-70.5398,19.5074,700.7711],[-70.5477,19.5146,721.5049],[-70.5668,19.5254,705.8079],[-70.5716,19.5326,897.7814],[-70.5827,19.5334,663.1812],[-70.5904,19.5358,682.2281],[-70.6127,19.5366,716.7982],[-70.6095,19.5304,637.2939],[-70.6117,19.5222,483.2114],[-70.6167,19.5167,536.3044],[-70.6247,19.5114,434.7444],[-70.6267,19.5008,330.8967],[-70.6346,19.4929,270.2628],[-70.6351,19.4687,224.5619],[-70.6381,19.4598,214.9006],[-70.6376,19.4559,211.4412],[-70.6354,19.4549,210.2863],[-70.628,19.457,212.0915],[-70.6012,19.4571,214.2337],[-70.5973,19.4559,217.2993],[-70.5942,19.4499,213.9571],[-70.5885,19.447,209.8268],[-70.576,19.4488,217.8877],[-70.5757,19.4602,228.5366],[-70.5786,19.4692,236.5103],[-70.5776,19.4741,252.439],[-70.5699,19.4786,401.3875],[-70.548,19.4861,555.4922],[-70.5398,19.5074,700.7711]]]]}
,"properties": {"GID_2": "DOM.30.7_1","GID_0": "DOM","country": "DominicanRepublic","GID_1": "DOM.30_1","province": "Santiago","NL_NAME_1": "NA","county": "Tamboril","VARNAME_2": "NA","NL_NAME_2": "NA","TYPE_2": "Municipio","ENGTYPE_2": "Municipality","CC_2": "NA","HASC_2": "DO.ST.TA","name": "Tamboril.county","area_km2": 63.87813,"hist_schema_id": "Elevation0-9000","hist_area_km2": {"200": 0.39984,"225": 12.45416,"250": 8.01548,"275": 3.25798,"300": 2.1986,"325": 2.75821,"350": 2.89807,"375": 2.83805,"400": 3.45757,"425": 3.4775,"450": 3.01781,"475": 2.75794,"500": 2.59801,"525": 2.27822,"550": 2.47803,"575": 1.85851,"600": 1.75858,"625": 1.47881,"650": 1.17902,"675": 0.9792,"700": 0.69941,"725": 0.57952,"750": 0.19983,"775": 0.1199,"800": 0.01998,"825": 0.05995,"850": 0.03996,"875": 0.01998}}}