{"type": "Feature","bbox": [-60.9318,14.4537,-60.8675,14.5411],"geometry": {"type": "MultiPolygon","coordinates": [[[[-60.8681,14.5088,108.4248],[-60.8678,14.5265,114.7642],[-60.8697,14.5293,129.6163],[-60.8812,14.5351,171.1458],[-60.8954,14.5411,207.7904],[-60.9175,14.5293,232.1385],[-60.9265,14.5354,172.4795],[-60.9303,14.5262,153.6368],[-60.926,14.5234,243.0958],[-60.9252,14.5206,263.4417],[-60.9318,14.4993,258.8445],[-60.9198,14.4947,253.6581],[-60.9164,14.4915,215.6293],[-60.9166,14.4685,0.0],[-60.9135,14.4674,0.0],[-60.9118,14.469,7.5073],[-60.9121,14.4596,0.0],[-60.9104,14.4601,0.0],[-60.904,14.4537,0.0],[-60.8913,14.4828,201.5786],[-60.8773,14.4886,57.359],[-60.8766,14.4972,144.9053],[-60.8675,14.5002,262.8981],[-60.8681,14.5088,108.4248]]]]}
,"properties": {"GID_2": "MTQ.2.8_1","GID_0": "MTQ","country": "Martinique","GID_1": "MTQ.2_1","province": "LeMarin","NL_NAME_1": "NA","county": "Rivière-Pilote","VARNAME_2": "NA","NL_NAME_2": "NA","TYPE_2": "Commune","ENGTYPE_2": "Commune","CC_2": "NA","HASC_2": "MQ.MA.RP","name": "Rivière-Pilote.county","area_km2": 39.00006,"hist_schema_id": "Elevation0-9000","hist_area_km2": {"0": 1.70392,"25": 2.99706,"50": 4.86487,"75": 4.98792,"100": 4.20787,"125": 3.38678,"150": 3.4689,"175": 3.09939,"200": 2.36047,"225": 2.60674,"250": 1.51887,"275": 1.16995,"300": 1.12892,"325": 0.92367,"350": 0.5542,"375": 0.02053}}}