{"type": "Feature","bbox": [-71.4399,18.5881,-71.2239,18.7435],"geometry": {"type": "MultiPolygon","coordinates": [[[[-71.3233,18.6038,1232.0262],[-71.3149,18.6158,743.4283],[-71.3043,18.6206,814.6676],[-71.2966,18.6204,796.837],[-71.2618,18.6121,669.9755],[-71.2455,18.6119,494.3362],[-71.2401,18.6137,488.2841],[-71.2454,18.6263,528.1785],[-71.2527,18.6375,580.4547],[-71.2533,18.6457,573.6133],[-71.2494,18.6546,633.8484],[-71.2368,18.6673,610.8323],[-71.2239,18.686,509.8133],[-71.2239,18.6955,487.2718],[-71.2306,18.7085,603.5533],[-71.2362,18.7105,551.7692],[-71.2523,18.7074,632.0106],[-71.2648,18.7003,612.1054],[-71.2758,18.6969,759.5929],[-71.3117,18.6968,1310.5737],[-71.323,18.6944,1203.3684],[-71.3397,18.7057,1341.8674],[-71.3516,18.7256,1457.8284],[-71.3665,18.7333,1510.1909],[-71.388,18.7392,1488.3568],[-71.4187,18.7435,1416.454],[-71.4392,18.737,1338.9585],[-71.4399,18.7343,1360.468],[-71.4353,18.7256,1135.61],[-71.4312,18.7098,871.3996],[-71.4263,18.6996,894.1078],[-71.431,18.6893,1072.4598],[-71.4305,18.6871,1034.2754],[-71.4081,18.6772,1119.0801],[-71.3873,18.6646,889.0498],[-71.3879,18.6602,921.4671],[-71.395,18.6527,1300.3855],[-71.3986,18.6457,1172.2793],[-71.3991,18.6264,1170.1757],[-71.4026,18.6114,1602.5178],[-71.396,18.6149,1540.4938],[-71.3937,18.6146,1576.8613],[-71.3901,18.611,1541.5117],[-71.3824,18.6078,1575.3583],[-71.3793,18.5957,1758.6272],[-71.3749,18.5934,1647.5543],[-71.3665,18.5921,1582.0822],[-71.3602,18.5885,1356.235],[-71.3537,18.5896,1580.5394],[-71.345,18.5881,1382.8942],[-71.343,18.589,1367.1794],[-71.3414,18.5945,1353.1511],[-71.3351,18.5962,1304.7446],[-71.3233,18.6038,1232.0262]]]]}
,"properties": {"GID_2": "DOM.26.6_1","GID_0": "DOM","country": "DominicanRepublic","GID_1": "DOM.26_1","province": "SanJuan","NL_NAME_1": "NA","county": "Vallejuelo","VARNAME_2": "NA","NL_NAME_2": "NA","TYPE_2": "Municipio","ENGTYPE_2": "Municipality","CC_2": "NA","HASC_2": "DO.JU.VA","name": "Vallejuelo.county","area_km2": 219.0876,"hist_schema_id": "Elevation0-9000","hist_area_km2": {"475": 0.0803,"500": 1.5866,"525": 2.1693,"550": 5.223,"575": 6.4081,"600": 9.7828,"625": 10.9077,"650": 11.9123,"675": 11.8318,"700": 10.9078,"725": 10.4456,"750": 11.3694,"775": 10.7666,"800": 9.7821,"825": 8.2151,"850": 6.1461,"875": 5.8249,"900": 5.9453,"925": 5.4634,"950": 4.6198,"975": 4.861,"1000": 4.64,"1025": 3.917,"1050": 4.0374,"1075": 3.6156,"1100": 3.6959,"1125": 3.5754,"1150": 3.3946,"1175": 3.0129,"1200": 3.0732,"1225": 3.5151,"1250": 3.033,"1275": 2.5307,"1300": 2.6914,"1325": 2.7718,"1350": 2.5908,"1375": 1.8275,"1400": 1.4662,"1425": 1.6068,"1450": 1.5264,"1475": 1.4861,"1500": 1.5467,"1525": 1.4666,"1550": 1.1251,"1575": 0.7636,"1600": 0.3416,"1625": 0.3617,"1650": 0.221,"1675": 0.2411,"1700": 0.2411,"1725": 0.2009,"1750": 0.1608,"1775": 0.1608}}}