{"type": "Feature","bbox": [-70.2775,19.137,-70.1665,19.2508],"geometry": {"type": "MultiPolygon","coordinates": [[[[-70.1665,19.2435,75.9012],[-70.1869,19.2508,74.9027],[-70.1952,19.2488,78.7955],[-70.2156,19.2482,67.7047],[-70.2234,19.2443,67.1624],[-70.2382,19.2302,58.6624],[-70.2396,19.2261,56.9226],[-70.2395,19.2127,52.0766],[-70.241,19.2099,50.1162],[-70.2624,19.2096,52.2108],[-70.2722,19.2125,52.0506],[-70.2771,19.2105,52.0574],[-70.2775,19.2036,54.5144],[-70.2566,19.1669,43.0158],[-70.2455,19.1531,41.841],[-70.2372,19.1488,47.4789],[-70.228,19.1495,38.2235],[-70.2232,19.1423,39.9226],[-70.2069,19.137,48.0588],[-70.2018,19.1411,39.0371],[-70.2,19.149,41.3655],[-70.191,19.1482,34.5871],[-70.1817,19.1566,35.1331],[-70.1772,19.1583,35.9201],[-70.1779,19.1636,36.0615],[-70.1829,19.1693,36.9659],[-70.1815,19.1814,41.6073],[-70.1855,19.1901,39.8803],[-70.1785,19.2085,51.7966],[-70.1827,19.2156,58.5552],[-70.183,19.2237,58.783],[-70.1762,19.2393,68.9742],[-70.1665,19.2435,75.9012]]]]}
,"properties": {"GID_2": "DOM.6.4_1","GID_0": "DOM","country": "DominicanRepublic","GID_1": "DOM.6_1","province": "Duarte","NL_NAME_1": "NA","county": "LasGuaranas","VARNAME_2": "NA","NL_NAME_2": "NA","TYPE_2": "Distritomunicipal","ENGTYPE_2": "Municipaldistrict","CC_2": "NA","HASC_2": "DO.DU.LG","name": "Las_Guaranas.county","area_km2": 85.46035,"hist_schema_id": "Elevation0-9000","hist_area_km2": {"25": 6.24844,"50": 69.46311,"75": 9.7488}}}