{"type":"Feature","properties":{"ISO3166-1-Alpha-3":"DOM","country":"Dominican Republic","fill":"#F00","id":"1984","name":"San Cristóbal"},
"geometry":{"type": "Polygon","coordinates": [[[-70.16718,18.73167,774.3649],[-70.19132,18.7487,356.5242],[-70.21723,18.7625,437.5418],[-70.23465,18.78172,323.1469],[-70.25118,18.80172,475.455],[-70.28539,18.78609,346.4537],[-70.29955,18.75762,969.9928],[-70.31307,18.71953,824.5815],[-70.35002,18.72015,974.7034],[-70.36875,18.67951,984.6984],[-70.37218,18.63633,804.415],[-70.3679,18.60104,689.3334],[-70.3788,18.56571,641.4249],[-70.37156,18.53329,449.3403],[-70.35655,18.50357,558.8135],[-70.30821,18.48357,830.8705],[-70.26873,18.44722,298.5719],[-70.23697,18.43301,207.1508],[-70.23889,18.4089,149.6548],[-70.26478,18.39469,389.2557],[-70.26974,18.3688,107.8113],[-70.25131,18.3465,92.0303],[-70.23126,18.32397,39.5412],[-70.22421,18.31121,42.1419],[-70.21672,18.29868,31.7721],[-70.20364,18.28648,23.9445],[-70.19083,18.27594,19.194],[-70.18659,18.25343,8.4626],[-70.18039,18.23413,1.3367],[-70.18039,18.23413,1.3367],[-70.17789,18.2342,3.2692],[-70.17178,18.23143,0.0],[-70.15807,18.24262,26.1362],[-70.13378,18.26927,21.5035],[-70.10001,18.29922,0.0],[-70.09594,18.31025,20.3777],[-70.09069,18.31753,34.2736],[-70.0677,18.32909,0.0],[-70.06241,18.33723,0.0],[-70.05578,18.36725,7.5619],[-70.03893,18.39248,14.988],[-70.01659,18.41136,0.0],[-70.00402,18.41747,0.0],[-70.004,18.41747,0.0],[-70.00771,18.42376,6.7481],[-70.00854,18.44539,12.3271],[-70.02122,18.46324,14.4796],[-70.0437,18.46404,23.4506],[-70.06631,18.46337,14.0268],[-70.07781,18.47513,82.8199],[-70.0805,18.49231,45.2627],[-70.09907,18.51386,89.8542],[-70.12365,18.53125,62.5655],[-70.14212,18.56316,126.8798],[-70.15284,18.59855,120.9314],[-70.14801,18.6231,208.1147],[-70.1393,18.64535,112.5697],[-70.16638,18.68692,201.0693],[-70.16718,18.73167,774.3649]]]}}