{"type":"Feature","properties":{"GID_1":"DOM.24_1","GID_0":"DOM","country":"DominicanRepublic","province":"SanCristóbal","VARNAME_1":"Trujillo","NL_NAME_1":"NA","TYPE_1":"Provincia","ENGTYPE_1":"Province","CC_1":"NA","HASC_1":"DO.CR","ISO_1":"NA","name":"San_Cristóbal.province"},
"geometry":{"type": "MultiPolygon","coordinates": [[[[-70.1814,18.24,0.0],[-70.1787,18.2335,0.1391],[-70.169,18.2368,0.0],[-70.166,18.2335,0.0],[-70.1624,18.2332,0.0],[-70.1596,18.229,4.0612],[-70.1551,18.2299,0.0],[-70.1507,18.2332,2.1043],[-70.1401,18.2496,0.0],[-70.1349,18.2629,2.1703],[-70.1246,18.2724,8.1417],[-70.1218,18.2726,0.0],[-70.1118,18.286,0.0],[-70.1099,18.2899,0.0],[-70.1099,18.2968,0.0],[-70.1021,18.3051,0.0],[-70.0979,18.3029,0.0],[-70.0932,18.3037,0.0],[-70.0824,18.3154,0.0],[-70.0726,18.3329,1.8602],[-70.071,18.3407,0.0],[-70.0671,18.3485,0.0],[-70.0649,18.3496,0.0],[-70.0643,18.3535,3.5641],[-70.0624,18.354,0.0],[-70.0565,18.3626,0.1985],[-70.0576,18.3643,1.9867],[-70.0551,18.3668,1.8867],[-70.0551,18.3713,1.5204],[-70.0524,18.3701,0.0],[-70.0488,18.3718,0.3206],[-70.0449,18.3768,1.2823],[-70.0476,18.3774,7.5304],[-70.0418,18.3832,2.0927],[-70.0401,18.3821,0.8953],[-70.0421,18.3799,0.0],[-70.039,18.3818,0.0],[-70.0362,18.3896,7.0125],[-70.034,18.3885,0.0],[-70.0268,18.4015,0.0],[-70.0246,18.4096,2.7807],[-70.0224,18.4121,9.183],[-70.0188,18.4126,0.524],[-70.0201,18.419,8.6708],[-70.0168,18.421,0.0],[-70.0176,18.4182,5.2963],[-70.0157,18.4165,0.0],[-70.0101,18.4207,1.2976],[-70.0066,18.4258,12.9523],[-69.9969,18.4302,28.7753],[-69.9984,18.4392,44.8207],[-69.9931,18.4464,40.4601],[-69.9942,18.449,15.3108],[-70.0006,18.4529,10.8406],[-70.0001,18.4576,17.3325],[-70.0017,18.4597,18.0555],[-70.0047,18.4606,17.539],[-70.0086,18.4581,2.783],[-70.0102,18.4592,1.3414],[-70.0048,18.4678,35.3886],[-70.0046,18.4723,27.8726],[-70.0066,18.4746,18.7106],[-70.0106,18.4736,10.3508],[-70.0174,18.4615,4.1098],[-70.0244,18.4605,24.6137],[-70.0276,18.4616,37.4251],[-70.0334,18.4691,16.1196],[-70.036,18.476,23.1573],[-70.0404,18.4771,33.347],[-70.0505,18.4705,17.6751],[-70.0553,18.4609,45.6453],[-70.0579,18.4655,16.618],[-70.0589,18.4791,31.8484],[-70.062,18.4806,46.6921],[-70.071,18.4807,22.2318],[-70.0732,18.4839,16.0105],[-70.0702,18.4865,16.861],[-70.0642,18.4835,48.9904],[-70.0583,18.4899,27.1421],[-70.0566,18.4952,32.5979],[-70.0608,18.4988,30.112],[-70.063,18.5032,30.9288],[-70.0604,18.5103,33.1219],[-70.0668,18.5124,30.2082],[-70.0775,18.5193,30.3942],[-70.0806,18.5339,45.3602],[-70.0896,18.534,42.4321],[-70.0861,18.5267,34.1209],[-70.0883,18.5236,63.3737],[-70.1012,18.5259,47.3012],[-70.1046,18.5239,53.5262],[-70.1059,18.5205,90.9961],[-70.1116,18.5209,95.5827],[-70.1169,18.524,59.5039],[-70.1175,18.5331,106.3006],[-70.1134,18.5391,110.428],[-70.1134,18.5414,108.4963],[-70.1242,18.5614,151.0564],[-70.1299,18.5613,88.6794],[-70.1318,18.5627,87.5809],[-70.1325,18.5664,81.4983],[-70.1306,18.5746,127.5871],[-70.1402,18.5846,117.8075],[-70.146,18.5934,126.66],[-70.1357,18.6095,153.5886],[-70.1361,18.6135,148.3352],[-70.141,18.6222,162.192],[-70.1407,18.6252,158.247],[-70.1383,18.6267,175.9483],[-70.1298,18.6254,134.9615],[-70.1248,18.6278,105.1455],[-70.1237,18.6305,105.9349],[-70.1246,18.6327,113.5559],[-70.1308,18.6354,105.3066],[-70.1311,18.6395,118.706],[-70.1362,18.65,132.1825],[-70.1431,18.6553,135.488],[-70.1494,18.6669,241.972],[-70.1475,18.6765,241.2143],[-70.1478,18.6862,281.8424],[-70.1527,18.6912,298.2056],[-70.1572,18.7045,344.4875],[-70.1647,18.711,281.4244],[-70.1648,18.7153,368.828],[-70.1595,18.726,810.4089],[-70.1599,18.7349,836.4852],[-70.1719,18.75,726.7219],[-70.1857,18.7598,782.1839],[-70.1929,18.7632,730.2608],[-70.206,18.7639,738.6407],[-70.2115,18.7668,686.5292],[-70.2145,18.7763,412.1058],[-70.2274,18.7916,490.9439],[-70.2438,18.8071,630.1477],[-70.2482,18.7985,380.487],[-70.2809,18.7861,309.2033],[-70.2856,18.7786,333.9609],[-70.2948,18.7733,423.9519],[-70.2962,18.7695,488.4604],[-70.2959,18.7629,691.5065],[-70.2884,18.75,735.4878],[-70.2907,18.7389,614.9294],[-70.297,18.7293,791.9849],[-70.3095,18.7178,646.7923],[-70.3198,18.7135,1088.1492],[-70.3394,18.723,1082.5784],[-70.3447,18.7105,1003.9863],[-70.3515,18.7028,994.0155],[-70.3551,18.6868,939.6665],[-70.3539,18.6798,878.4731],[-70.3557,18.671,977.0714],[-70.364,18.66,922.8926],[-70.3675,18.6494,883.5381],[-70.364,18.6283,911.3978],[-70.3591,18.6249,903.1152],[-70.3559,18.6189,911.3599],[-70.358,18.6084,683.9064],[-70.3533,18.6042,892.0293],[-70.3577,18.5978,868.5832],[-70.3607,18.5867,797.6421],[-70.3589,18.5737,887.0002],[-70.366,18.5669,702.6295],[-70.3628,18.5582,690.3152],[-70.3648,18.5563,620.6999],[-70.3712,18.5548,545.4518],[-70.373,18.5508,587.3174],[-70.3661,18.5399,580.4431],[-70.3649,18.5336,437.9075],[-70.3594,18.5288,498.5082],[-70.3534,18.5267,524.6877],[-70.3506,18.5228,702.4571],[-70.3422,18.5088,653.8521],[-70.3436,18.5049,508.7783],[-70.3423,18.5025,418.4603],[-70.3355,18.4997,477.5893],[-70.3222,18.5035,445.0315],[-70.3155,18.4997,532.5991],[-70.3094,18.4922,321.1411],[-70.3,18.4886,342.4821],[-70.2944,18.4828,531.2644],[-70.2921,18.4774,270.996],[-70.2846,18.4757,593.0267],[-70.2816,18.4733,579.347],[-70.2788,18.4671,736.5838],[-70.2829,18.4594,388.4059],[-70.2802,18.4531,444.6947],[-70.2775,18.4523,380.6967],[-70.2711,18.4558,359.5939],[-70.2659,18.4517,260.57],[-70.2584,18.4498,340.5073],[-70.2562,18.4463,519.3552],[-70.2524,18.4439,385.5013],[-70.2566,18.4357,185.111],[-70.2517,18.4324,224.7278],[-70.2505,18.4264,145.8987],[-70.2399,18.4248,150.0287],[-70.2344,18.4202,256.6191],[-70.2337,18.4155,263.2146],[-70.2374,18.4104,208.2574],[-70.2464,18.4038,181.8404],[-70.253,18.4011,150.6904],[-70.2587,18.3955,201.7545],[-70.2657,18.3993,145.0],[-70.2685,18.3989,145.0],[-70.2723,18.386,267.7649],[-70.279,18.386,95.3622],[-70.2807,18.383,88.2699],[-70.2759,18.3777,87.0474],[-70.2729,18.3784,134.1663],[-70.2693,18.3832,196.2952],[-70.2638,18.3801,270.7284],[-70.2605,18.3723,114.4225],[-70.2606,18.3583,180.5439],[-70.2591,18.3556,181.2778],[-70.2566,18.3558,145.3179],[-70.2475,18.3631,59.3823],[-70.2403,18.3625,188.9685],[-70.2369,18.3567,164.6851],[-70.2363,18.3423,85.4601],[-70.2327,18.3302,46.4439],[-70.2215,18.3234,57.0029],[-70.2181,18.3139,33.8823],[-70.211,18.3113,36.5564],[-70.2099,18.3067,25.8705],[-70.2037,18.3066,34.3464],[-70.2009,18.3049,31.3328],[-70.1983,18.3001,29.7468],[-70.1974,18.2899,26.7273],[-70.1946,18.2853,20.1354],[-70.1834,18.2806,52.6944],[-70.1739,18.2739,88.0367],[-70.1775,18.2471,24.756],[-70.1813,18.2425,5.9476],[-70.1814,18.24,0.0]]]]}}