{"type": "Feature","bbox": [-66.5933,18.3893,-66.5254,18.4904],"geometry": {"type": "MultiPolygon","coordinates": [[[[-66.588,18.3897,216.5094],[-66.5824,18.3893,170.5733],[-66.5758,18.4057,153.0221],[-66.5716,18.4111,148.9989],[-66.5654,18.4137,118.2902],[-66.5524,18.4111,155.8056],[-66.5501,18.4059,158.348],[-66.5426,18.4046,150.1993],[-66.5434,18.4187,95.7626],[-66.5268,18.4264,16.3472],[-66.5254,18.4307,6.7903],[-66.531,18.4345,6.3731],[-66.5366,18.4349,6.8194],[-66.5399,18.4435,6.4177],[-66.538,18.4468,5.6055],[-66.5302,18.4502,4.2536],[-66.526,18.454,3.5074],[-66.5302,18.4569,2.3977],[-66.5376,18.454,5.6325],[-66.5372,18.4568,4.4101],[-66.5325,18.4607,3.7259],[-66.5303,18.4664,2.9228],[-66.5308,18.4731,2.1968],[-66.5351,18.4813,0.6138],[-66.5493,18.4874,0.0],[-66.5537,18.4868,5.6032],[-66.5621,18.4904,4.4362],[-66.5629,18.4868,0.0],[-66.5657,18.4851,8.6796],[-66.5704,18.4857,2.2511],[-66.5796,18.4837,4.3462],[-66.5869,18.4846,3.429],[-66.5887,18.4732,1.9804],[-66.5845,18.4665,-1.0],[-66.5799,18.468,-0.0305],[-66.5851,18.4194,140.4675],[-66.5874,18.4103,153.861],[-66.5933,18.3988,165.9186],[-66.5914,18.3917,193.5128],[-66.588,18.3897,216.5094]]]]}
,"properties": {"GID_1": "PRI.9_1","GID_0": "PRI","country": "PuertoRico","province": "Barceloneta","VARNAME_1": "NA","NL_NAME_1": "NA","TYPE_1": "Municipio","ENGTYPE_1": "Municipality","CC_1": "NA","HASC_1": "PR.BC","ISO_1": "-","name": "Barceloneta.province","area_km2": 47.40618,"hist_schema_id": "Elevation0-9000","hist_area_km2": {"0": 19.44673,"25": 4.18323,"50": 4.94788,"75": 4.26425,"100": 5.9339,"125": 2.93693,"150": 3.31931,"175": 1.93133,"200": 0.4225,"225": 0.02012}}}