{"type": "Feature","bbox": [-71.5075,19.2026,-71.3586,19.4443],"geometry": {"type": "MultiPolygon","coordinates": [[[[-71.5075,19.3136,1025.7179],[-71.505,19.3082,1028.2676],[-71.4979,19.3052,1143.9006],[-71.4924,19.2994,1042.7483],[-71.4996,19.2895,810.8955],[-71.4996,19.2799,851.1743],[-71.4955,19.27,697.3826],[-71.4889,19.267,816.2425],[-71.4838,19.2606,820.1182],[-71.4807,19.2484,922.7309],[-71.4682,19.2479,853.8217],[-71.457,19.2503,933.9019],[-71.4344,19.2369,1190.6903],[-71.4287,19.2364,1229.9636],[-71.421,19.2383,1436.7966],[-71.4159,19.2316,1279.0194],[-71.4057,19.2284,1255.1307],[-71.3964,19.2172,1259.871],[-71.3838,19.2113,1320.1725],[-71.3725,19.2099,1301.0134],[-71.3648,19.2026,1406.4148],[-71.3619,19.2063,1171.7417],[-71.3586,19.2162,977.4466],[-71.3655,19.2365,910.0938],[-71.3618,19.2509,756.2108],[-71.365,19.2528,731.1575],[-71.3773,19.2538,788.5312],[-71.3829,19.2625,761.5544],[-71.3917,19.2664,792.7023],[-71.3973,19.2766,807.9817],[-71.406,19.283,753.895],[-71.4076,19.2857,697.2581],[-71.4049,19.2898,699.9288],[-71.3985,19.2907,619.8409],[-71.3788,19.3016,586.7924],[-71.3757,19.3086,546.8154],[-71.3809,19.3229,473.2986],[-71.381,19.3339,459.1456],[-71.3795,19.3404,498.7866],[-71.3815,19.3508,455.4948],[-71.3907,19.3652,335.1502],[-71.3968,19.3682,269.51],[-71.4042,19.3663,341.5665],[-71.4114,19.3673,351.1644],[-71.4197,19.3631,320.5154],[-71.4237,19.3633,307.4861],[-71.4256,19.3651,316.356],[-71.4257,19.3702,294.5807],[-71.4235,19.3733,336.0702],[-71.4177,19.3755,308.1063],[-71.4134,19.3793,278.3468],[-71.4032,19.3821,397.9281],[-71.3988,19.3957,272.4402],[-71.3995,19.4052,243.4343],[-71.4061,19.4164,223.1163],[-71.4131,19.4195,180.3206],[-71.4249,19.4151,220.3105],[-71.4283,19.4171,204.3684],[-71.428,19.4229,192.7039],[-71.4199,19.4352,168.4045],[-71.4201,19.4392,181.2644],[-71.4233,19.4441,130.7801],[-71.4263,19.4443,137.8388],[-71.4509,19.434,177.6151],[-71.4497,19.4225,228.2867],[-71.4546,19.4183,240.4406],[-71.454,19.4109,227.8322],[-71.4613,19.3978,259.3766],[-71.4611,19.3904,276.8353],[-71.4585,19.383,292.0561],[-71.4585,19.3688,397.7989],[-71.4604,19.3665,377.8707],[-71.4689,19.3647,254.1958],[-71.4732,19.3592,264.7414],[-71.4729,19.354,306.6087],[-71.4678,19.3479,380.6537],[-71.4709,19.3384,356.7698],[-71.4781,19.3309,358.2885],[-71.4955,19.3235,559.7465],[-71.4992,19.317,690.683],[-71.5075,19.3136,1025.7179]]]]}
,"properties": {"GID_2": "DOM.29.1_1","GID_0": "DOM","country": "DominicanRepublic","GID_1": "DOM.29_1","province": "SantiagoRodríguez","NL_NAME_1": "NA","county": "LosAlmácigos","VARNAME_2": "NA","NL_NAME_2": "NA","TYPE_2": "Distritomunicipal","ENGTYPE_2": "Municipaldistrict","CC_2": "NA","HASC_2": "DO.SR.LA","name": "Los_Almácigos.county","area_km2": 202.1096,"hist_schema_id": "Elevation0-9000","hist_area_km2": {"125": 0.06,"150": 1.5195,"175": 3.2392,"200": 5.1791,"225": 7.4592,"250": 7.9595,"275": 4.9201,"300": 3.2603,"325": 4.1605,"350": 6.321,"375": 6.4013,"400": 8.5821,"425": 10.7032,"450": 10.0636,"475": 8.9434,"500": 8.2434,"525": 7.5834,"550": 6.5432,"575": 3.6219,"600": 2.6814,"625": 2.2212,"650": 1.5008,"675": 1.9211,"700": 1.6209,"725": 1.7011,"750": 2.2215,"775": 2.7219,"800": 4.3631,"825": 6.1444,"850": 6.0043,"875": 6.3046,"900": 4.9637,"925": 4.7636,"950": 3.8029,"975": 3.4226,"1000": 3.0824,"1025": 3.0224,"1050": 2.7022,"1075": 1.8615,"1100": 2.1017,"1125": 1.9417,"1150": 1.6815,"1175": 1.6615,"1200": 1.5414,"1225": 1.5213,"1250": 1.4614,"1275": 1.141,"1300": 1.3012,"1325": 1.2211,"1350": 0.9809,"1375": 1.0009,"1400": 1.121,"1425": 0.7607,"1450": 0.5405,"1475": 0.1601,"1500": 0.1601,"1525": 0.02}}}