{"type":"Feature","properties":{"GID_1":"TCA.5_1","GID_0":"TCA","country":"TurksandCaicosIslands","province":"SaltCay","VARNAME_1":"NA","NL_NAME_1":"NA","TYPE_1":"District","ENGTYPE_1":"District","CC_1":"NA","HASC_1":"NA","ISO_1":"NA","name":"Salt_Cay.province"},
"geometry":{"type": "MultiPolygon","coordinates": [[[[-71.2487,21.2032,1.6826],[-71.2518,21.2029,1.0569],[-71.2487,21.1951,0.0],[-71.2507,21.186,0.0],[-71.2485,21.1818,0.0],[-71.2462,21.1815,0.0],[-71.2465,21.1871,0.0],[-71.2479,21.1865,5.2116],[-71.2482,21.1887,0.0],[-71.2468,21.1963,9.1967],[-71.2449,21.1976,0.0],[-71.2479,21.1988,0.0],[-71.2487,21.2032,1.6826]]],
[[[-71.181,21.3412,0.7641],[-71.1796,21.3443,0.0],[-71.2046,21.3393,0.0],[-71.2126,21.3415,0.0],[-71.2207,21.3015,0.0],[-71.2171,21.3007,0.0],[-71.2165,21.3032,0.0],[-71.2068,21.3135,0.0],[-71.2051,21.3171,0.8314],[-71.2032,21.3171,0.8314],[-71.2004,21.3201,0.0],[-71.1957,21.3288,4.8952],[-71.1926,21.3312,1.05],[-71.1904,21.3307,0.0],[-71.189,21.3332,0.7592],[-71.1862,21.3329,0.0],[-71.1857,21.3363,2.286],[-71.181,21.3412,0.7641]]],
[[[-71.1429,21.3688,0.0],[-71.159,21.3665,0.0],[-71.1632,21.3615,1.3535],[-71.1635,21.3587,0.0],[-71.1585,21.3576,0.0],[-71.1565,21.3593,1.3415],[-71.1524,21.3593,0.0],[-71.1507,21.3629,1.364],[-71.1482,21.3621,1.0597],[-71.1451,21.3662,0.6867],[-71.1415,21.3679,1.5303],[-71.1429,21.3688,0.0]]],
[[[-71.0876,21.3613,0.0],[-71.0896,21.3613,0.0],[-71.0918,21.3571,1.2978],[-71.0854,21.3487,0.0],[-71.0826,21.3479,0.0],[-71.0821,21.3499,1.5095],[-71.0857,21.3549,0.0],[-71.0846,21.3607,0.0],[-71.0874,21.3601,3.0109],[-71.0876,21.3613,0.0]]],
[[[-71.086,21.3757,0.0],[-71.0868,21.3768,0.0],[-71.0901,21.3754,0.0],[-71.0907,21.3718,0.0],[-71.0893,21.3704,0.0],[-71.0871,21.3707,0.0],[-71.0882,21.3746,2.8955],[-71.086,21.3757,0.0]]],
[[[-71.1215,21.3785,0.9976],[-71.1226,21.3788,0.0],[-71.1224,21.3746,0.0],[-71.1201,21.3724,0.0],[-71.1199,21.3743,0.0],[-71.1215,21.3785,0.9976]]]]}}