{"type": "Feature","id": "5008","bbox": [-71.21923,21.31061,-71.19249,21.34138],"geometry": {"type": "Polygon","coordinates": [[[-71.20983,21.34138,0.0],[-71.21426,21.33283,0.0],[-71.21923,21.31436,1.6842],[-71.21369,21.31061,3.4573],[-71.20124,21.32307,4.0193],[-71.19249,21.33503,8.5765],[-71.20006,21.34105,0.0],[-71.20983,21.34138,0.0]]]}
,"properties": {"ISO3166-1-Alpha-3": "TCA","country": "Turks and Caicos Islands","fill": "#F0F","name": "Salt Cay","area_km2": 5.095539,"hist_schema_id": "Elevation0-9000","hist_area_km2": {"0": 5.07579,"25": 0.019749}}}