{"type":"Feature","properties":{"GID_2":"HTI.8.3_1","GID_0":"HTI","country":"Haiti","GID_1":"HTI.8_1","province":"Ouest","NL_NAME_1":"NA","county":"LaGonâve","VARNAME_2":"NA","NL_NAME_2":"NA","TYPE_2":"Arrondissement","ENGTYPE_2":"District","CC_2":"NA","HASC_2":"HT.OU.LG","name":"La_Gonâve.county"},
"geometry":{"type": "MultiPolygon","coordinates": [[[[-72.804,18.7043,0.6061],[-72.8054,18.7049,0.6061],[-72.8057,18.7015,0.7606],[-72.8018,18.6996,0.0],[-72.8015,18.7007,0.0],[-72.804,18.7043,0.6061]]],
[[[-72.8531,18.7213,0.528],[-72.851,18.7201,0.0],[-72.8385,18.7231,0.9347],[-72.8366,18.7202,2.8915],[-72.839,18.7132,0.0],[-72.8354,18.7032,0.0],[-72.831,18.7018,0.6736],[-72.8238,18.6938,1.2468],[-72.8187,18.6943,3.1956],[-72.8179,18.7021,2.3692],[-72.815,18.7018,2.7062],[-72.8134,18.6995,0.0],[-72.806,18.7062,0.0],[-72.8093,18.7118,6.0277],[-72.8174,18.7176,3.6416],[-72.8185,18.721,9.7227],[-72.8167,18.7274,4.0084],[-72.813,18.7309,9.3213],[-72.7943,18.7351,0.0],[-72.7929,18.7376,0.0],[-72.8049,18.7543,0.0],[-72.804,18.7593,0.5823],[-72.8068,18.7626,0.0],[-72.8082,18.7699,73.1726],[-72.8065,18.7743,0.0],[-72.8071,18.7807,0.0],[-72.8096,18.7868,0.2426],[-72.8132,18.7885,5.5297],[-72.8218,18.8037,0.0],[-72.8304,18.8151,0.0],[-72.8485,18.8299,0.0],[-72.8543,18.8321,0.649],[-72.8468,18.8328,0.0],[-72.8465,18.8366,0.3294],[-72.8571,18.8362,0.1976],[-72.8676,18.8418,0.0],[-72.8796,18.8437,0.354],[-72.889,18.8487,0.362],[-72.8949,18.8496,0.8492],[-72.902,18.8539,0.0],[-72.9184,18.8524,0.0],[-72.9238,18.854,0.2845],[-72.9249,18.8568,0.0],[-72.931,18.8582,1.0947],[-72.9324,18.8601,0.0],[-72.9379,18.8578,0.5786],[-72.941,18.8618,0.8038],[-72.9454,18.8643,0.0],[-72.9365,18.864,0.0],[-72.944,18.8657,0.0],[-72.9468,18.8642,0.9353],[-72.954,18.8657,0.0],[-72.9587,18.8696,0.2017],[-72.9681,18.8718,0.4237],[-72.9812,18.8793,0.0],[-72.9924,18.8832,0.4639],[-72.999,18.894,0.0],[-73.0101,18.8979,0.6295],[-73.0229,18.9063,0.1998],[-73.0418,18.911,0.149],[-73.0471,18.9185,0.1656],[-73.0571,18.9251,0.2054],[-73.0693,18.9239,0.0],[-73.0833,18.9303,0.5533],[-73.1085,18.9307,0.0],[-73.135,18.9382,0.4181],[-73.149,18.9471,0.0],[-73.161,18.951,0.4335],[-73.1762,18.9621,0.0],[-73.1979,18.9699,0.0],[-73.2149,18.9699,0.1253],[-73.2385,18.9657,0.0],[-73.2529,18.9662,0.0],[-73.2676,18.9568,7.3235],[-73.2729,18.9557,0.0],[-73.2818,18.9501,0.0],[-73.2993,18.934,0.0],[-73.2993,18.9296,0.0],[-73.3021,18.9254,0.0],[-73.3008,18.9241,0.0],[-73.301,18.9132,0.0],[-73.2971,18.9063,1.316],[-73.2846,18.8993,0.9891],[-73.2829,18.896,0.1596],[-73.266,18.8865,0.1147],[-73.256,18.8735,0.0],[-73.2529,18.8665,0.0],[-73.2485,18.864,0.5528],[-73.239,18.8501,0.0],[-73.2368,18.8482,0.0],[-73.2307,18.849,0.6608],[-73.2279,18.8476,0.0],[-73.2175,18.8351,0.0],[-73.2082,18.834,1.6169],[-73.199,18.837,0.0],[-73.1918,18.8365,0.1013],[-73.1813,18.8332,0.0],[-73.1704,18.8265,0.0],[-73.1451,18.8213,0.0],[-73.1371,18.8218,0.243],[-73.1349,18.8199,0.0],[-73.1257,18.819,0.6024],[-73.1168,18.8115,0.0],[-73.1118,18.8104,0.7325],[-73.1079,18.8051,0.0],[-73.1024,18.8036,0.0],[-73.1001,18.8001,0.0],[-73.089,18.7976,0.1888],[-73.0833,18.7986,0.0],[-73.0753,18.7959,8.1296],[-73.0711,18.7916,0.9551],[-73.0704,18.7865,0.0],[-73.0615,18.7826,0.0],[-73.0535,18.7712,0.0],[-73.0452,18.7669,0.0],[-73.0361,18.7583,0.0],[-73.0301,18.7579,10.7372],[-73.0001,18.746,0.0],[-72.9643,18.7426,0.0],[-72.9577,18.7436,0.0],[-72.9518,18.7418,0.0],[-72.9488,18.7435,0.0],[-72.9429,18.7434,0.0],[-72.9352,18.7423,1.515],[-72.9326,18.7405,0.2719],[-72.9269,18.7434,0.0],[-72.9101,18.7352,0.0],[-72.8988,18.7335,0.0],[-72.8932,18.7296,0.1936],[-72.8824,18.7265,0.0],[-72.8657,18.7264,0.4549],[-72.8607,18.7215,0.0],[-72.8531,18.7213,0.528]]],
[[[-72.9054,18.8576,0.6211],[-72.9079,18.8582,0.7051],[-72.909,18.8568,0.0],[-72.9079,18.8563,0.0],[-72.9054,18.8576,0.6211]]],
[[[-73.0182,18.9107,0.0],[-73.0212,18.9112,0.2767],[-73.0226,18.9099,0.0],[-73.0182,18.9088,1.1694],[-73.0182,18.9107,0.0]]],
[[[-72.9999,18.9999,0.0],[-72.9999,19.0001,0.0],[-73.0001,19.0001,0.0],[-73.0001,18.9999,0.0],[-72.9999,18.9999,0.0]]]]}}