{"type":"Feature","properties":{"GID_2":"DOM.22.1_1","GID_0":"DOM","country":"DominicanRepublic","GID_1":"DOM.22_1","province":"Salcedo","NL_NAME_1":"NA","county":"Salcedo","VARNAME_2":"NA","NL_NAME_2":"NA","TYPE_2":"Municipio","ENGTYPE_2":"Municipality","CC_2":"NA","HASC_2":"DO.SC.SA","name":"Salcedo.county"},
"geometry":{"type": "MultiPolygon","coordinates": [[[[-70.4505,19.3364,139.6239],[-70.4417,19.3291,132.2168],[-70.4323,19.3292,132.109],[-70.425,19.3315,138.2525],[-70.4141,19.3322,128.5479],[-70.4075,19.3388,155.6207],[-70.3987,19.3409,145.5466],[-70.3956,19.3451,154.2193],[-70.3897,19.346,151.3713],[-70.3819,19.3447,145.9435],[-70.373,19.3378,139.5888],[-70.3555,19.3342,128.6683],[-70.3559,19.3408,123.061],[-70.365,19.37,169.1782],[-70.3694,19.3751,173.6686],[-70.3683,19.3819,186.8083],[-70.3759,19.3889,205.4247],[-70.3763,19.3997,260.3054],[-70.3741,19.4037,322.3241],[-70.3612,19.4128,415.2447],[-70.3552,19.4154,466.8564],[-70.3441,19.4173,547.0829],[-70.3439,19.4236,427.7006],[-70.3519,19.4388,515.5801],[-70.3552,19.4547,757.6691],[-70.3477,19.4627,621.6423],[-70.3326,19.4702,516.0106],[-70.3319,19.482,662.3021],[-70.3354,19.4895,710.8337],[-70.3387,19.4918,726.8116],[-70.3693,19.493,703.5219],[-70.3698,19.4953,631.0403],[-70.3639,19.5089,637.8253],[-70.3543,19.5186,572.5518],[-70.3743,19.5285,524.5099],[-70.3895,19.5293,396.7805],[-70.3969,19.5324,308.9819],[-70.4047,19.5394,401.2474],[-70.4096,19.5496,302.3799],[-70.417,19.5438,216.4971],[-70.4159,19.5344,283.6016],[-70.4187,19.53,429.2705],[-70.4263,19.5252,396.6534],[-70.4275,19.5126,439.85],[-70.4373,19.4961,399.8346],[-70.4292,19.4788,422.6817],[-70.4242,19.4719,479.3976],[-70.4241,19.4667,488.6643],[-70.4262,19.4622,463.9225],[-70.4213,19.4522,599.7004],[-70.4208,19.4427,494.4135],[-70.4219,19.4386,502.3111],[-70.4295,19.4269,361.5576],[-70.4297,19.4193,312.5006],[-70.4282,19.4136,266.9828],[-70.4302,19.4061,246.4529],[-70.4411,19.3881,216.9094],[-70.4396,19.3782,179.6416],[-70.4454,19.3672,184.0552],[-70.4477,19.3658,185.847],[-70.4482,19.3583,165.3618],[-70.4528,19.3516,161.9876],[-70.4505,19.3364,139.6239]]]]}}