{"type":"Feature","properties":{"GID_1":"PRI.72_1","GID_0":"PRI","country":"PuertoRico","province":"Utuado","VARNAME_1":"NA","NL_NAME_1":"NA","TYPE_1":"Municipio","ENGTYPE_1":"Municipality","CC_1":"NA","HASC_1":"PR.UT","ISO_1":"-","name":"Utuado.province"},
"geometry":{"type": "MultiPolygon","coordinates": [[[[-66.6704,18.1528,843.6676],[-66.6639,18.1538,829.5187],[-66.6538,18.1586,767.801],[-66.6496,18.1587,770.2604],[-66.6521,18.1825,915.4375],[-66.6419,18.1835,574.6411],[-66.6439,18.1945,600.6735],[-66.6398,18.2069,575.907],[-66.6338,18.2112,507.2355],[-66.6297,18.2208,462.0681],[-66.6265,18.2299,433.0286],[-66.6253,18.2471,916.8763],[-66.6225,18.249,913.5408],[-66.6197,18.2495,908.748],[-66.6174,18.2476,904.7362],[-66.5999,18.252,667.7542],[-66.599,18.2668,500.9872],[-66.5958,18.2763,440.9487],[-66.5986,18.282,414.4448],[-66.595,18.2849,384.772],[-66.5899,18.2831,390.4779],[-66.5783,18.2841,473.1717],[-66.5733,18.2946,405.8467],[-66.5668,18.2984,225.7531],[-66.5729,18.3089,223.8953],[-66.5817,18.3141,217.4717],[-66.585,18.3226,165.7853],[-66.6114,18.3225,115.8203],[-66.6068,18.3282,293.139],[-66.6124,18.3315,358.2866],[-66.6193,18.332,309.0485],[-66.6239,18.3286,220.8268],[-66.6323,18.3285,367.9026],[-66.6396,18.3247,316.4033],[-66.6531,18.3279,291.3951],[-66.6563,18.3226,91.6038],[-66.6627,18.3197,339.1772],[-66.673,18.3244,125.8599],[-66.6794,18.3215,322.7802],[-66.6817,18.3225,346.1799],[-66.6882,18.32,353.2036],[-66.6905,18.3219,340.0055],[-66.703,18.3204,361.328],[-66.7067,18.3165,371.5238],[-66.7131,18.3151,387.177],[-66.7173,18.316,387.0374],[-66.7183,18.3207,348.7469],[-66.7197,18.3207,348.5786],[-66.723,18.3317,327.1453],[-66.7198,18.3365,372.9574],[-66.7305,18.3493,219.7447],[-66.7384,18.3468,257.4535],[-66.7407,18.3444,263.3507],[-66.7568,18.3371,274.6847],[-66.7701,18.3251,267.6471],[-66.7701,18.3208,330.541],[-66.8261,18.3232,353.3005],[-66.8274,18.3146,331.5566],[-66.8246,18.3094,291.8738],[-66.8304,18.2779,365.2784],[-66.8266,18.2731,406.7401],[-66.8256,18.266,482.2736],[-66.8273,18.244,540.3762],[-66.817,18.2303,654.089],[-66.8008,18.2276,568.1768],[-66.799,18.23,569.1195],[-66.8009,18.2409,527.787],[-66.795,18.2496,492.6808],[-66.7825,18.2506,627.2664],[-66.7644,18.2374,786.2167],[-66.7606,18.226,856.0318],[-66.7555,18.2232,766.369],[-66.7393,18.2209,825.2915],[-66.7319,18.2262,420.009],[-66.7078,18.2169,384.5128],[-66.693,18.217,706.1815],[-66.6814,18.2042,668.3964],[-66.6809,18.2023,703.5287],[-66.6845,18.1937,612.0715],[-66.6817,18.188,651.1497],[-66.665,18.1757,638.3199],[-66.665,18.1729,645.5019],[-66.6769,18.1604,818.8962],[-66.6768,18.1508,861.0994],[-66.6704,18.1528,843.6676]]]]}}