{"type": "Feature","id": "5118","bbox": [-63.0779,18.21627,-63.04697,18.23135],"geometry": {"type": "Polygon","coordinates": [[[-63.04697,18.22672,30.5931],[-63.07272,18.23135,10.4767],[-63.0779,18.22597,0.0],[-63.07552,18.22051,0.0],[-63.07583,18.21627,0.0],[-63.06927,18.21955,0.0],[-63.06131,18.21915,28.8378],[-63.04697,18.22672,30.5931]]]}
,"properties": {"ISO3166-1-Alpha-3": "AIA","country": "Anguilla","fill": "#F0F","name": "North Hill","area_km2": 2.839549,"hist_schema_id": "Elevation0-9000","hist_area_km2": {"0": 1.127767,"25": 1.127761,"50": 0.584021}}}