{"type": "Feature","bbox": [-63.0925,18.2005,-63.0765,18.21],"geometry": {"type": "MultiPolygon","coordinates": [[[[-63.079,18.21,53.8022],[-63.09,18.209,0.0],[-63.0925,18.2045,25.4414],[-63.0842,18.2037,-1.0],[-63.0784,18.2005,28.63],[-63.0765,18.2045,44.6699],[-63.079,18.21,53.8022]]]]}
,"properties": {"GID_1": "AIA.5_1","GID_0": "AIA","country": "Anguilla","state": "NorthHill","VARNAME_1": "NA","NL_NAME_1": "NA","TYPE_1": "District","ENGTYPE_1": "District","CC_1": "NA","HASC_1": "AI.NH","ISO_1": "NA","name": "NorthHill.state","area_km2": 1.0070409,"hist_schema_id": "Elevation0-9000","hist_area_km2": {"0": 0.1611275,"25": 0.3222541,"50": 0.5236593}}}