{"type": "Feature","id": "5089","bbox": [-62.22546,16.73897,-62.17003,16.81932],"geometry": {"type": "Polygon","coordinates": [[[-62.17003,16.777,56.4751],[-62.17931,16.7945,89.5115],[-62.17467,16.81314,0.0],[-62.18293,16.81273,95.2659],[-62.18944,16.81444,247.0084],[-62.20202,16.81932,149.8472],[-62.21886,16.77631,78.9414],[-62.22546,16.74781,102.0609],[-62.20202,16.74492,294.2369],[-62.18863,16.73897,375.474],[-62.18417,16.75458,437.8669],[-62.17748,16.76797,236.1879],[-62.17003,16.777,56.4751]]]}
,"properties": {"ISO3166-1-Alpha-3": "MSR","country": "Montserrat","fill": "#00F","name": "Saint Peter","area_km2": 31.99226,"hist_schema_id": "Elevation0-9000","hist_area_km2": {"0": 1.19753,"25": 0.87281,"50": 1.48179,"75": 1.70506,"100": 2.72001,"125": 2.15171,"150": 2.63886,"175": 2.37496,"200": 1.98932,"225": 1.56306,"250": 1.56307,"275": 1.44128,"300": 1.23834,"325": 1.19775,"350": 1.15715,"375": 0.97449,"400": 0.83236,"425": 0.69026,"450": 0.71056,"475": 0.48724,"500": 0.54815,"525": 0.38573,"550": 0.50755,"575": 0.30453,"600": 0.36543,"625": 0.32483,"650": 0.28422,"675": 0.06091,"700": 0.14211,"725": 0.08121}}}