{"type":"Feature","properties":{"GID_1":"MSR.3_1","GID_0":"MSR","country":"Montserrat","province":"SaintPeter","VARNAME_1":"NA","NL_NAME_1":"NA","TYPE_1":"Parish","ENGTYPE_1":"Parish","CC_1":"NA","HASC_1":"MS.SP","ISO_1":"-","name":"Saint_Peter.province"},
"geometry":{"type": "MultiPolygon","coordinates": [[[[-62.1992,16.7294,170.3273],[-62.1996,16.7345,240.6189],[-62.1957,16.7474,435.7836],[-62.187,16.7663,330.8196],[-62.1829,16.7732,188.9249],[-62.1724,16.7826,10.8777],[-62.1754,16.7854,13.2464],[-62.1776,16.7957,0.0],[-62.181,16.7993,6.4002],[-62.1804,16.8057,32.7266],[-62.1779,16.8074,78.7771],[-62.1779,16.8099,69.0141],[-62.181,16.8168,20.6565],[-62.1937,16.8224,0.0],[-62.1971,16.8218,43.1426],[-62.1987,16.8243,0.0],[-62.2049,16.8201,0.0],[-62.2046,16.8151,0.0],[-62.2062,16.8129,0.0],[-62.2051,16.8079,0.0],[-62.2079,16.806,0.0],[-62.2054,16.8021,0.0],[-62.2074,16.7976,1.5216],[-62.2107,16.796,3.4597],[-62.2165,16.7835,59.7152],[-62.219,16.7813,0.0],[-62.2199,16.7729,25.8305],[-62.2235,16.7629,0.0],[-62.2318,16.7515,3.3095],[-62.2351,16.7496,12.3822],[-62.2351,16.7462,10.8749],[-62.2318,16.7429,2.6056],[-62.2329,16.7375,6.0573],[-62.2132,16.734,65.7576],[-62.2071,16.7346,101.2199],[-62.2017,16.7294,155.8804],[-62.1992,16.7294,170.3273]]]]}}