{"type":"Feature","properties":{"GID_3":"HTI.3.2.2_1","GID_0":"HTI","country":"Haiti","GID_1":"HTI.3_1","province":"L'Artibonite","NL_NAME_1":"NA","GID_2":"HTI.3.2_1","county":"Gros-Morne","NL_NAME_2":"NA","city":"Gros-Morne","VARNAME_3":"NA","NL_NAME_3":"NA","TYPE_3":"Commune","ENGTYPE_3":"Commune","CC_3":"NA","HASC_3":"NA","name":"Gros-Morne.city"},
"geometry":{"type": "MultiPolygon","coordinates": [[[[-72.6176,19.6293,626.0518],[-72.6202,19.6336,784.35],[-72.6057,19.6495,852.7325],[-72.5708,19.6441,852.6498],[-72.5718,19.6523,666.8375],[-72.5761,19.6572,657.5388],[-72.5738,19.6733,283.1454],[-72.5771,19.6751,262.5065],[-72.5831,19.6747,253.1515],[-72.5895,19.6797,457.6347],[-72.5985,19.6816,517.066],[-72.6095,19.6914,648.933],[-72.6149,19.6943,577.5561],[-72.6158,19.6975,643.6617],[-72.6117,19.7013,665.1011],[-72.6102,19.7004,645.9075],[-72.5992,19.7144,810.996],[-72.5977,19.7143,876.9529],[-72.5981,19.7241,979.1169],[-72.6088,19.7516,991.707],[-72.6143,19.7567,1061.6018],[-72.6234,19.7569,876.6058],[-72.6257,19.7523,899.7123],[-72.6246,19.7481,758.0281],[-72.6288,19.7423,766.7925],[-72.6311,19.7416,647.7581],[-72.6379,19.7444,914.255],[-72.6466,19.7452,1013.6395],[-72.6482,19.7615,826.4982],[-72.6471,19.7643,803.7467],[-72.6412,19.7678,1019.0398],[-72.6405,19.7716,1039.0142],[-72.6374,19.7737,830.0851],[-72.6385,19.7779,717.8758],[-72.6432,19.7854,725.5643],[-72.6563,19.7856,941.6898],[-72.6533,19.7766,951.537],[-72.6683,19.7762,561.1294],[-72.6736,19.7786,536.6039],[-72.6814,19.8037,793.076],[-72.678,19.8088,609.5681],[-72.6895,19.8085,751.6467],[-72.6993,19.8156,742.0538],[-72.7122,19.8116,703.1588],[-72.7197,19.8119,520.7257],[-72.727,19.8072,484.5429],[-72.7289,19.7994,367.0851],[-72.7339,19.7939,288.2426],[-72.7393,19.7907,308.7031],[-72.7394,19.786,309.6814],[-72.7417,19.7839,280.9524],[-72.7485,19.7829,290.1839],[-72.7568,19.7858,338.6726],[-72.7592,19.7885,372.4062],[-72.7652,19.7883,467.476],[-72.7754,19.7808,382.7886],[-72.784,19.7714,176.1304],[-72.7972,19.7643,129.5922],[-72.8069,19.7569,187.3241],[-72.8104,19.7519,198.8596],[-72.8113,19.7388,232.5569],[-72.8186,19.7346,396.8427],[-72.8244,19.7344,501.9804],[-72.8291,19.7315,499.6466],[-72.8306,19.7256,490.2838],[-72.8324,19.7244,500.6129],[-72.8328,19.723,572.2612],[-72.8308,19.7228,506.5669],[-72.8261,19.7157,536.6202],[-72.8215,19.7136,502.2231],[-72.8257,19.7088,538.1196],[-72.8249,19.7074,532.5105],[-72.8271,19.7003,702.7354],[-72.8304,19.6966,755.8558],[-72.8239,19.6942,726.604],[-72.8201,19.6899,751.5299],[-72.8082,19.6832,537.8502],[-72.8012,19.6813,559.4825],[-72.7982,19.685,507.894],[-72.7848,19.6777,502.4638],[-72.8001,19.6565,539.8296],[-72.8021,19.6492,508.0594],[-72.8019,19.6416,582.4669],[-72.798,19.6321,711.7525],[-72.7943,19.6274,701.7396],[-72.7899,19.6267,686.0587],[-72.7831,19.6295,951.9752],[-72.7757,19.6278,780.1556],[-72.7542,19.6295,484.2151],[-72.7518,19.6284,470.0088],[-72.7495,19.6231,518.347],[-72.7451,19.6239,555.6733],[-72.7322,19.6202,596.9767],[-72.7206,19.6201,384.6122],[-72.7131,19.6156,356.7234],[-72.7121,19.6122,331.7463],[-72.7133,19.611,338.9279],[-72.7095,19.6088,321.8715],[-72.7087,19.6062,317.5542],[-72.7026,19.6036,335.6148],[-72.6872,19.6059,287.1674],[-72.6874,19.6035,295.1276],[-72.6822,19.5966,233.8199],[-72.6722,19.6004,268.2069],[-72.6563,19.6015,190.3941],[-72.6575,19.6062,225.585],[-72.6542,19.6119,283.9406],[-72.6481,19.6133,283.6603],[-72.6458,19.6158,273.2912],[-72.6357,19.6196,298.4865],[-72.6292,19.6253,515.0029],[-72.6176,19.6293,626.0518]]]]}}