{"type": "Feature","bbox": [-72.6482,19.5213,-72.415,19.7716],"geometry": {"type": "MultiPolygon","coordinates": [[[[-72.4214,19.5537,636.6172],[-72.4248,19.5588,618.8215],[-72.423,19.5662,608.778],[-72.4273,19.5731,646.218],[-72.4438,19.5855,602.3732],[-72.4458,19.5898,519.6762],[-72.4442,19.5935,517.9948],[-72.4464,19.6013,552.5425],[-72.4449,19.6024,517.2834],[-72.4497,19.6057,493.0197],[-72.4519,19.6107,450.732],[-72.4486,19.6137,441.9131],[-72.4482,19.6167,507.7527],[-72.4537,19.6239,669.5144],[-72.4512,19.6288,540.5302],[-72.4512,19.6428,669.9758],[-72.4544,19.652,579.3367],[-72.4614,19.6628,911.6495],[-72.4578,19.6742,945.8776],[-72.4605,19.677,1027.5151],[-72.4656,19.6728,763.7797],[-72.4688,19.665,708.8166],[-72.4714,19.6631,799.6511],[-72.4759,19.6709,551.9973],[-72.474,19.6753,559.77],[-72.4795,19.6903,581.8708],[-72.4858,19.7004,491.1569],[-72.4892,19.6961,572.7249],[-72.492,19.6966,602.0345],[-72.5003,19.7036,461.5538],[-72.5078,19.7025,864.4091],[-72.5103,19.7143,788.1041],[-72.5068,19.7179,744.5441],[-72.5097,19.7247,683.6631],[-72.5152,19.7313,817.4193],[-72.5159,19.7427,1005.0441],[-72.5183,19.7385,969.4254],[-72.5289,19.7387,762.6517],[-72.5319,19.7373,707.15],[-72.5333,19.7331,741.8894],[-72.5432,19.7343,764.7141],[-72.5494,19.7329,944.1852],[-72.5555,19.7368,879.4462],[-72.5576,19.7343,775.5774],[-72.5655,19.739,699.521],[-72.5717,19.7393,717.4965],[-72.5739,19.7428,675.5326],[-72.5715,19.7467,629.4049],[-72.5786,19.7541,604.5922],[-72.5745,19.7658,153.2392],[-72.5756,19.7664,163.7828],[-72.5813,19.7672,230.6419],[-72.5833,19.7638,310.4656],[-72.5883,19.7639,350.11],[-72.597,19.7587,540.4787],[-72.6188,19.7645,1008.954],[-72.6243,19.7635,892.1583],[-72.631,19.7659,870.7177],[-72.6314,19.7712,725.4038],[-72.6405,19.7716,1039.0142],[-72.6412,19.7678,1019.0398],[-72.6471,19.7643,803.7467],[-72.6482,19.7615,826.4982],[-72.6466,19.7452,1013.6395],[-72.6379,19.7444,914.255],[-72.6311,19.7416,647.7581],[-72.6288,19.7423,766.7925],[-72.6246,19.7481,758.0281],[-72.6257,19.7523,899.7123],[-72.6234,19.7569,876.6058],[-72.6143,19.7567,1061.6018],[-72.6077,19.7498,1010.9774],[-72.5981,19.7241,979.1169],[-72.5977,19.7143,876.9529],[-72.5992,19.7144,810.996],[-72.6102,19.7004,645.9075],[-72.6117,19.7013,665.1011],[-72.6158,19.6975,643.6617],[-72.6149,19.6943,577.5561],[-72.6095,19.6914,648.933],[-72.5985,19.6816,517.066],[-72.5895,19.6797,457.6347],[-72.5831,19.6747,253.1515],[-72.5771,19.6751,262.5065],[-72.5738,19.6733,283.1454],[-72.5761,19.6572,657.5388],[-72.5718,19.6523,666.8375],[-72.5691,19.6338,823.2014],[-72.5651,19.6264,887.3674],[-72.5415,19.5987,1001.8698],[-72.5424,19.5887,894.9619],[-72.5359,19.5825,868.4775],[-72.5257,19.5781,925.1108],[-72.5213,19.5814,670.7755],[-72.5152,19.5818,621.8318],[-72.523,19.5741,905.8359],[-72.5211,19.5711,895.5985],[-72.5073,19.5621,713.8955],[-72.5005,19.5605,822.6432],[-72.4934,19.5556,798.0511],[-72.4881,19.5468,824.6028],[-72.4826,19.542,724.3461],[-72.4553,19.5223,957.4344],[-72.4472,19.5213,991.9094],[-72.4419,19.5227,1014.9863],[-72.44,19.528,1032.0116],[-72.4332,19.5252,992.4704],[-72.4247,19.5297,963.8706],[-72.415,19.545,620.0725],[-72.4214,19.5537,636.6172]]]]}
,"properties": {"GID_2": "HTI.7.6_1","GID_0": "HTI","country": "Haiti","GID_1": "HTI.7_1","province": "Nord","NL_NAME_1": "NA","county": "Plaisance","VARNAME_2": "NA","NL_NAME_2": "NA","TYPE_2": "Arrondissement","ENGTYPE_2": "District","CC_2": "NA","HASC_2": "HT.ND.PL","name": "Plaisance.county","area_km2": 257.5464,"hist_schema_id": "Elevation0-9000","hist_area_km2": {"175": 0.02,"200": 0.0399,"250": 1.5971,"275": 6.1692,"300": 8.5455,"325": 11.4216,"350": 15.2371,"375": 20.4511,"400": 15.5967,"425": 13.759,"450": 14.298,"475": 13.2391,"500": 12.3206,"525": 13.0789,"550": 11.2816,"575": 10.7225,"600": 10.1036,"625": 9.2651,"650": 8.8655,"675": 8.6258,"700": 6.8885,"725": 7.3876,"750": 5.5708,"775": 5.5903,"800": 5.1112,"825": 4.2727,"850": 4.0327,"875": 2.9945,"900": 2.4954,"925": 1.8566,"950": 1.7369,"975": 1.4573,"1000": 1.6174,"1025": 0.9386,"1050": 0.4591,"1075": 0.2395,"1100": 0.1995,"1125": 0.0599}}}