{"type":"Feature","properties":{"ISO3166-1-Alpha-3":"ATG","country":"Antigua and Barbuda","fill":"#F0F","id":"5095","name":"Saint Philip"},
"geometry":{"type": "Polygon","coordinates": [[[-61.72623,17.03848,0.0],[-61.70995,17.03417,103.2082],[-61.69701,17.02782,0.0],[-61.6857,17.02855,0.0],[-61.67443,17.04588,5.2303],[-61.67219,17.05756,0.0],[-61.67707,17.06293,0.0],[-61.68566,17.06826,9.7143],[-61.69494,17.07941,0.0],[-61.68814,17.07892,0.0],[-61.67439,17.0799,0.0],[-61.66759,17.07941,0.0],[-61.67211,17.09064,0.0],[-61.67553,17.09561,0.0],[-61.68065,17.10053,0.0],[-61.6881,17.10053,0.0],[-61.70165,17.09345,12.4791],[-61.71483,17.09309,10.8954],[-61.72829,17.08367,41.2438],[-61.73339,17.06428,29.3894],[-61.72623,17.03848,0.0]]]}}