{"type": "Feature","bbox": [-61.7465,17.0299,-61.6565,17.1071],"geometry": {"type": "MultiPolygon","coordinates": [[[[-61.679,17.0413,2.7595],[-61.681,17.0418,0.0],[-61.6807,17.039,0.0],[-61.679,17.0399,0.0],[-61.679,17.0413,2.7595]]],
[[[-61.6671,17.0526,0.0],[-61.6674,17.0546,0.0],[-61.6707,17.0543,0.0],[-61.6707,17.0513,0.0],[-61.6671,17.0526,0.0]]],
[[[-61.6715,17.0732,0.9944],[-61.6743,17.0732,0.0],[-61.6751,17.0696,0.0],[-61.6707,17.0701,0.0],[-61.6707,17.0685,0.0],[-61.6679,17.0674,0.5239],[-61.6671,17.0696,0.0],[-61.6643,17.0701,6.9402],[-61.664,17.0657,0.0],[-61.6565,17.0676,0.0],[-61.6565,17.0693,0.0],[-61.6587,17.069,2.0291],[-61.6596,17.071,0.0],[-61.6701,17.0718,8.6963],[-61.6715,17.0732,0.9944]]],
[[[-61.7431,17.0436,0.0],[-61.7401,17.0418,0.0],[-61.7376,17.0435,0.0],[-61.7324,17.0424,2.7399],[-61.7176,17.0335,0.0],[-61.7107,17.031,0.0],[-61.699,17.0318,0.0],[-61.6912,17.0299,0.0],[-61.6915,17.0335,0.0],[-61.6854,17.0326,0.0],[-61.6843,17.0354,0.0],[-61.689,17.036,4.907],[-61.689,17.039,6.0358],[-61.6832,17.0399,0.0],[-61.6821,17.0454,5.1904],[-61.6785,17.0443,2.4195],[-61.6776,17.0418,0.0],[-61.6729,17.0462,0.0],[-61.6729,17.0474,0.0],[-61.6751,17.0462,5.2303],[-61.6776,17.0474,0.0],[-61.6735,17.0535,0.0],[-61.6771,17.0549,0.0],[-61.6779,17.0593,7.2111],[-61.6724,17.0615,1.3008],[-61.6765,17.0618,0.0],[-61.6776,17.0646,0.0],[-61.6793,17.0649,10.6811],[-61.676,17.066,0.0],[-61.679,17.0674,14.6168],[-61.6779,17.0715,16.8374],[-61.6801,17.0721,0.0],[-61.6832,17.0682,25.6422],[-61.6862,17.069,0.0],[-61.6899,17.0663,7.3961],[-61.6924,17.0668,3.1361],[-61.6924,17.0696,1.2543],[-61.6963,17.0679,16.5511],[-61.6963,17.0699,12.079],[-61.6993,17.0713,2.0961],[-61.6985,17.0732,10.7089],[-61.7001,17.0751,0.0],[-61.7029,17.0746,0.0],[-61.7107,17.0685,13.0508],[-61.7124,17.0707,0.7299],[-61.709,17.0707,6.3154],[-61.7026,17.076,0.0],[-61.7043,17.0782,0.0],[-61.7026,17.0788,0.0],[-61.7043,17.0801,0.0],[-61.6971,17.0801,0.0],[-61.6949,17.0832,0.0],[-61.6924,17.0826,2.5481],[-61.6924,17.0893,1.4829],[-61.6912,17.0851,0.0],[-61.6896,17.0851,3.941],[-61.6904,17.0826,0.0],[-61.6879,17.0838,8.2756],[-61.6835,17.0824,0.0],[-61.6843,17.0871,14.9285],[-61.6821,17.0896,2.5171],[-61.6821,17.0929,3.7581],[-61.6851,17.0924,2.4414],[-61.6857,17.0935,2.4414],[-61.6807,17.0946,0.0],[-61.6774,17.1021,0.0],[-61.6796,17.1021,0.0],[-61.6826,17.0976,2.4732],[-61.6843,17.0987,7.5501],[-61.6876,17.0968,19.2518],[-61.6874,17.0982,2.756],[-61.6804,17.1021,0.0],[-61.6865,17.1026,0.0],[-61.6893,17.0987,7.6939],[-61.694,17.101,0.0],[-61.6949,17.0987,12.0607],[-61.6946,17.1021,0.0],[-61.6968,17.1015,17.3785],[-61.6974,17.1038,0.0],[-61.7007,17.1026,7.1136],[-61.7024,17.104,0.0],[-61.7043,17.1015,4.925],[-61.7074,17.104,0.0],[-61.7065,17.1018,3.1911],[-61.7079,17.1024,0.0],[-61.7082,17.1007,0.0],[-61.7054,17.1007,3.1911],[-61.7057,17.099,0.0],[-61.7026,17.0993,2.5488],[-61.704,17.0982,13.6029],[-61.7085,17.0987,0.0],[-61.7065,17.0954,10.8253],[-61.7101,17.0971,0.0],[-61.711,17.0926,0.2476],[-61.7121,17.0926,0.2476],[-61.7112,17.0976,0.0],[-61.7174,17.0929,4.0509],[-61.7193,17.0937,15.0723],[-61.7146,17.0999,0.0],[-61.7293,17.0963,0.7231],[-61.7349,17.0861,8.6734],[-61.7395,17.0864,12.3801],[-61.7465,17.0645,28.425],[-61.7431,17.0436,0.0]]],
[[[-61.7215,17.0996,0.0],[-61.7235,17.1007,0.0],[-61.7251,17.0976,0.0],[-61.7221,17.0985,4.8987],[-61.7215,17.0996,0.0]]],
[[[-61.7065,17.1071,0.0],[-61.7096,17.1071,0.0],[-61.7096,17.1049,0.0],[-61.706,17.106,2.8649],[-61.7035,17.104,1.5575],[-61.6996,17.1054,0.0],[-61.7007,17.1065,6.0581],[-61.7065,17.1071,0.0]]]]}
,"properties": {"GID_1": "ATG.8_1","GID_0": "ATG","country": "AntiguaandBarbuda","state": "SaintPhilip","VARNAME_1": "Carlisle","NL_NAME_1": "NA","TYPE_1": "Parish","ENGTYPE_1": "Parish","CC_1": "NA","HASC_1": "AG.PH","ISO_1": "AG-08","name": "SaintPhilip.state","area_km2": 43.96277,"hist_schema_id": "Elevation0-9000","hist_area_km2": {"0": 10.31632,"25": 18.03848,"50": 6.76995,"75": 7.05414,"100": 1.74334,"125": 0.04054}}}