{"type":"Feature","properties":{"GID_3":"HTI.4.2.2_1","GID_0":"HTI","country":"Haiti","GID_1":"HTI.4_1","province":"Nippes","NL_NAME_1":"NA","GID_2":"HTI.4.2_1","county":"Miragoâne","NL_NAME_2":"NA","city":"PetiteRivièredeNippes","VARNAME_3":"NA","NL_NAME_3":"NA","TYPE_3":"Commune","ENGTYPE_3":"Commune","CC_3":"NA","HASC_3":"NA","name":"Petite_Rivièrede_Nippes.city"},
"geometry":{"type": "MultiPolygon","coordinates": [[[[-73.2625,18.4144,731.9161],[-73.2617,18.411,775.1726],[-73.2586,18.4081,831.7778],[-73.258,18.4121,850.1926],[-73.2549,18.4141,835.5715],[-73.2546,18.4164,827.1478],[-73.2518,18.4165,816.2731],[-73.2493,18.4281,608.83],[-73.2481,18.4286,643.8502],[-73.2386,18.4201,848.5235],[-73.2282,18.4235,769.3045],[-73.2254,18.4231,816.1517],[-73.2206,18.4187,865.4943],[-73.2182,18.4203,850.64],[-73.2212,18.4233,873.8107],[-73.2191,18.4252,874.9242],[-73.2058,18.4258,872.3155],[-73.2019,18.4236,918.095],[-73.1966,18.4241,894.4376],[-73.1941,18.4193,891.3367],[-73.1905,18.4191,824.8073],[-73.1871,18.4259,777.5534],[-73.1966,18.4314,774.2942],[-73.1973,18.4339,696.7396],[-73.1938,18.4429,337.9834],[-73.1827,18.4366,508.2325],[-73.1674,18.4379,382.584],[-73.1515,18.4368,521.2305],[-73.1452,18.433,428.2521],[-73.142,18.4267,573.5531],[-73.1419,18.4331,446.9418],[-73.1387,18.4336,401.9073],[-73.137,18.4385,369.8615],[-73.1337,18.4396,325.6921],[-73.133,18.4415,303.0594],[-73.1368,18.4436,265.3539],[-73.1349,18.447,220.3796],[-73.1148,18.4474,63.3057],[-73.1051,18.449,0.0],[-73.1038,18.452,0.0],[-73.1068,18.4542,6.444],[-73.1061,18.4563,0.0],[-73.1083,18.4571,0.0],[-73.1115,18.4546,0.0],[-73.114,18.4556,0.0],[-73.1135,18.4568,0.0],[-73.1099,18.4562,0.083],[-73.1101,18.4607,0.0],[-73.1118,18.4607,0.0],[-73.1115,18.4585,0.4653],[-73.1132,18.4588,0.0],[-73.1153,18.4563,0.588],[-73.1162,18.4579,0.1945],[-73.1139,18.462,0.0],[-73.117,18.4613,0.077],[-73.1167,18.4633,0.0],[-73.1182,18.4607,0.077],[-73.1194,18.4623,0.0],[-73.1229,18.4611,0.1192],[-73.1226,18.463,0.0],[-73.124,18.4629,0.2607],[-73.1203,18.4652,0.0],[-73.1201,18.4679,0.0],[-73.1211,18.4673,0.0],[-73.1219,18.47,0.0],[-73.1251,18.4665,0.3744],[-73.1252,18.4748,0.1472],[-73.1558,18.482,3.3025],[-73.1607,18.486,0.0],[-73.1879,18.4899,3.7534],[-73.1963,18.489,0.0],[-73.2021,18.4874,0.0],[-73.2046,18.4846,7.1009],[-73.2127,18.4808,0.0],[-73.2232,18.4801,2.7877],[-73.2299,18.4776,1.6487],[-73.2351,18.4785,3.4965],[-73.2393,18.4763,1.3967],[-73.256,18.4807,0.0],[-73.2637,18.4813,2.6123],[-73.2665,18.4835,0.521],[-73.2738,18.4831,2.7822],[-73.2726,18.4755,17.0215],[-73.2749,18.4633,118.8971],[-73.2735,18.4592,168.3287],[-73.2742,18.4562,247.8661],[-73.2783,18.4527,327.3939],[-73.2761,18.4494,439.7567],[-73.263,18.4471,537.7681],[-73.2579,18.4415,282.9542],[-73.2575,18.4369,393.3495],[-73.2625,18.4144,731.9161]]]]}}