{"type": "Feature","bbox": [-61.8101,16.2685,-61.7565,16.371],"geometry": {"type": "MultiPolygon","coordinates": [[[[-61.8063,16.2685,5.3738],[-61.774,16.2732,624.7621],[-61.7565,16.2727,718.7546],[-61.7579,16.2831,621.9842],[-61.7645,16.2909,554.0349],[-61.7587,16.3178,397.5448],[-61.7593,16.3284,181.1042],[-61.7652,16.3369,200.7637],[-61.765,16.3535,47.7246],[-61.7679,16.351,9.6593],[-61.7765,16.3499,1.8443],[-61.7788,16.3454,0.0],[-61.7779,16.3424,11.9541],[-61.7824,16.3385,25.4652],[-61.7865,16.3376,0.0],[-61.7899,16.3326,0.0],[-61.7874,16.3288,0.0],[-61.7885,16.3226,3.7651],[-61.8015,16.3149,0.0],[-61.8018,16.3121,0.0],[-61.7954,16.3088,34.9881],[-61.7946,16.3057,3.5672],[-61.8012,16.304,0.0],[-61.8029,16.3007,0.0],[-61.8021,16.2857,0.0],[-61.8043,16.2807,0.0],[-61.8029,16.2779,1.6699],[-61.8049,16.2751,15.9807],[-61.8101,16.2732,0.0],[-61.809,16.269,13.119],[-61.8063,16.2685,5.3738]]],
[[[-61.7812,16.3707,0.0],[-61.7824,16.371,0.0],[-61.7821,16.366,14.916],[-61.7776,16.3635,0.0],[-61.7768,16.3685,4.0781],[-61.7812,16.3707,0.0]]]]}
,"properties": {"GID_2": "GLP.1.6_1","GID_0": "GLP","country": "Guadeloupe","GID_1": "GLP.1_1","province": "Basse-Terre","NL_NAME_1": "NA","county": "Deshaies","VARNAME_2": "NA","NL_NAME_2": "NA","TYPE_2": "Communesimple","ENGTYPE_2": "Commune","CC_2": "33","HASC_2": "NA","name": "Deshaies.county","area_km2": 32.39637,"hist_schema_id": "Elevation0-9000","hist_area_km2": {"0": 2.15684,"25": 2.42148,"50": 1.77033,"75": 2.19763,"100": 1.99421,"125": 2.09597,"150": 1.85178,"175": 1.66864,"200": 1.30234,"225": 1.50585,"250": 1.32272,"275": 1.32273,"300": 1.01749,"325": 1.03786,"350": 1.03784,"375": 0.91577,"400": 1.03786,"425": 0.85473,"450": 0.67157,"475": 0.91578,"500": 0.65122,"525": 0.61053,"550": 0.52913,"575": 0.5902,"600": 0.52915,"625": 0.20352,"650": 0.08141,"675": 0.02035,"700": 0.04071,"725": 0.04071}}}