{"type": "Feature","bbox": [-71.0714,19.6748,-70.9382,19.7924],"geometry": {"type": "MultiPolygon","coordinates": [[[[-70.9382,19.7326,173.9692],[-70.9513,19.7371,187.8873],[-70.953,19.7406,191.3501],[-70.9524,19.7474,254.0507],[-70.9604,19.7473,189.18],[-70.9613,19.7546,183.2632],[-70.9699,19.7591,249.8026],[-70.9767,19.7688,110.5191],[-70.9791,19.7684,150.0659],[-70.9831,19.7617,92.494],[-70.9977,19.756,136.0716],[-71.001,19.7563,170.6534],[-71.0032,19.7599,144.7597],[-71.0006,19.7668,121.7502],[-71.0011,19.7712,119.392],[-71.0107,19.777,134.0638],[-71.0138,19.7845,162.7363],[-71.0185,19.7867,160.5495],[-71.0314,19.7871,62.5145],[-71.0363,19.7924,57.5945],[-71.0519,19.7778,122.0253],[-71.0592,19.7747,130.3909],[-71.0639,19.7682,177.3591],[-71.0692,19.7665,217.3262],[-71.0714,19.7636,255.7444],[-71.0633,19.7403,722.4144],[-71.0636,19.7262,337.6192],[-71.0594,19.7138,474.7498],[-71.0563,19.71,400.269],[-71.0479,19.7056,537.8817],[-71.0227,19.6989,553.4656],[-71.0046,19.6992,474.3723],[-70.9926,19.7015,578.7593],[-70.9858,19.6945,554.425],[-70.9779,19.6924,794.6857],[-70.9754,19.6868,597.9429],[-70.97,19.6813,722.9691],[-70.9584,19.6748,721.6216],[-70.9502,19.6919,680.7344],[-70.9525,19.7071,276.8521],[-70.9447,19.7188,211.9029],[-70.9382,19.7326,173.9692]]]]}
,"properties": {"GID_2": "DOM.21.5_1","GID_0": "DOM","country": "DominicanRepublic","GID_1": "DOM.21_1","province": "PuertoPlata","NL_NAME_1": "NA","county": "LosHidalgos","VARNAME_2": "NA","NL_NAME_2": "NA","TYPE_2": "Municipio","ENGTYPE_2": "Municipality","CC_2": "NA","HASC_2": "DO.PP.LH","name": "Los_Hidalgos.county","area_km2": 100.24359,"hist_schema_id": "Elevation0-9000","hist_area_km2": {"50": 0.1596,"75": 1.9353,"100": 4.88836,"125": 7.62219,"150": 10.49609,"175": 11.7537,"200": 9.07999,"225": 7.44388,"250": 5.12904,"275": 4.63018,"300": 3.2931,"325": 2.69437,"350": 2.07568,"375": 2.15557,"400": 2.13561,"425": 2.09576,"450": 2.01589,"475": 2.25546,"500": 2.15566,"525": 2.09581,"550": 2.3553,"575": 2.13576,"600": 1.5569,"625": 1.39724,"650": 1.41721,"675": 1.03796,"700": 1.25757,"725": 0.73858,"750": 0.63878,"775": 0.45914,"800": 0.31941,"825": 0.13974,"850": 0.15971,"875": 0.15971,"900": 0.23956,"925": 0.09982,"950": 0.01996}}}