{"type": "Feature","id": "1964","bbox": [-71.77107,19.53222,-71.13397,19.91035],"geometry": {"type": "Polygon","coordinates": [[[-71.22177,19.83457,1.3354],[-71.22374,19.83405,1.0935],[-71.26806,19.83552,0.0],[-71.28246,19.84178,0.0],[-71.3026,19.8557,0.0],[-71.32921,19.84589,12.2642],[-71.35725,19.85126,3.1946],[-71.45271,19.8981,0.0],[-71.47851,19.90689,0.0],[-71.50463,19.91035,0.0],[-71.60733,19.9029,0.0],[-71.61095,19.90082,0.3088],[-71.61791,19.89142,2.3331],[-71.62125,19.88931,0.0],[-71.6289,19.89045,0.0],[-71.64086,19.89558,0.0],[-71.64859,19.89671,75.5037],[-71.66145,19.89362,0.0],[-71.66674,19.88569,0.0],[-71.66564,19.8745,0.0],[-71.6588,19.86197,0.0],[-71.67028,19.852,0.0],[-71.67903,19.84809,0.0],[-71.6879,19.84601,0.0],[-71.69982,19.8415,0.0],[-71.7058,19.83649,0.0],[-71.71691,19.82364,0.0],[-71.7237,19.82099,0.0],[-71.73485,19.82128,0.0],[-71.73998,19.82026,0.0],[-71.7445,19.81721,0.0],[-71.76024,19.80093,0.0],[-71.77107,19.78514,4.7209],[-71.76765,19.77448,4.3576],[-71.74079,19.77318,0.0],[-71.74079,19.76569,1.9908],[-71.74185,19.7558,1.297],[-71.72411,19.71719,1.3456],[-71.72033,19.69746,17.6771],[-71.73827,19.70612,1.6328],[-71.75744,19.71011,0.0],[-71.74861,19.6826,14.3204],[-71.74505,19.6649,4.3457],[-71.74604,19.64902,5.3374],[-71.73476,19.64629,5.2079],[-71.63771,19.60733,61.8464],[-71.5325,19.61963,123.0888],[-71.50736,19.61286,64.7048],[-71.4923,19.58684,81.993],[-71.45421,19.56294,126.5579],[-71.41305,19.54454,64.4631],[-71.3998,19.56054,63.703],[-71.38259,19.54837,99.6521],[-71.3522,19.53764,130.4881],[-71.31975,19.54025,166.8023],[-71.30029,19.54971,148.6705],[-71.27895,19.55232,281.2767],[-71.24776,19.53501,316.2359],[-71.21632,19.53222,302.8473],[-71.20151,19.54206,255.8878],[-71.1842,19.53651,257.3593],[-71.17278,19.57087,82.0281],[-71.17896,19.6073,53.9067],[-71.17268,19.62862,46.9209],[-71.14839,19.6263,49.5808],[-71.15082,19.65942,57.0365],[-71.15369,19.69249,127.5925],[-71.14503,19.72247,223.3836],[-71.13397,19.75177,463.6158],[-71.16392,19.76306,647.2646],[-71.19505,19.77158,584.2805],[-71.21498,19.80063,124.4945],[-71.22177,19.83455,1.3354],[-71.22177,19.83457,1.3354]]]}
,"properties": {"ISO3166-1-Alpha-3": "DOM","country": "Dominican Republic","fill": "#FF0","name": "Monte Cristi","area_km2": 1933.237,"hist_schema_id": "Elevation0-9000","hist_area_km2": {"0": 401.483,"25": 345.409,"50": 326.598,"75": 233.607,"100": 155.972,"125": 106.465,"150": 94.689,"175": 80.695,"200": 58.266,"225": 42.529,"250": 30.381,"275": 22.22,"300": 12.097,"325": 5.388,"350": 3.252,"375": 2.773,"400": 2.414,"425": 2.075,"450": 1.955,"475": 1.616,"500": 0.918,"525": 0.579,"550": 0.519,"575": 0.439,"600": 0.299,"625": 0.419,"650": 0.1,"675": 0.06,"700": 0.02}}}