{"type": "Feature","bbox": [-71.8196,19.5178,-71.1213,19.9123],"geometry": {"type": "MultiPolygon","coordinates": [[[[-71.5005,19.5839,95.8656],[-71.5031,19.5754,151.3291],[-71.4962,19.5739,105.1631],[-71.4893,19.5639,178.7827],[-71.4738,19.5566,166.822],[-71.4651,19.5581,145.5742],[-71.4559,19.5542,159.5672],[-71.4468,19.5547,101.3475],[-71.4438,19.5513,100.6636],[-71.4425,19.542,87.7151],[-71.4272,19.5403,78.1303],[-71.4233,19.5332,72.0119],[-71.4157,19.5265,97.1388],[-71.4118,19.5277,96.63],[-71.4093,19.533,83.0566],[-71.4055,19.5364,84.8373],[-71.4033,19.5431,62.193],[-71.4044,19.5508,69.0436],[-71.3988,19.5545,74.1531],[-71.3889,19.5545,86.1369],[-71.3837,19.5498,96.6526],[-71.3736,19.5465,110.1806],[-71.3596,19.5491,128.8859],[-71.342,19.5458,156.7856],[-71.3363,19.5409,148.7779],[-71.3306,19.5387,176.388],[-71.3267,19.5409,170.4218],[-71.3218,19.5467,190.4574],[-71.32,19.5516,235.308],[-71.3217,19.5603,274.207],[-71.3191,19.5624,274.8187],[-71.3071,19.5593,270.2872],[-71.301,19.5524,205.0522],[-71.2862,19.548,300.4704],[-71.2812,19.543,314.603],[-71.2678,19.5363,331.8283],[-71.259,19.5292,266.6618],[-71.2471,19.5236,216.7554],[-71.2386,19.525,258.3571],[-71.2218,19.5178,256.8128],[-71.2125,19.5332,294.8216],[-71.2068,19.5385,266.1281],[-71.2027,19.5396,297.3559],[-71.1984,19.538,294.8672],[-71.1925,19.5288,160.2398],[-71.1784,19.5238,331.1549],[-71.1723,19.5419,182.7539],[-71.1648,19.5509,134.5529],[-71.1613,19.5647,107.6212],[-71.1648,19.5785,82.577],[-71.1695,19.5855,73.7944],[-71.1706,19.5956,64.4917],[-71.174,19.6017,59.3808],[-71.1784,19.6055,55.2318],[-71.1786,19.6091,53.0778],[-71.1738,19.6142,49.6878],[-71.1717,19.6204,48.9586],[-71.1605,19.6167,49.69],[-71.1521,19.6227,48.1937],[-71.1506,19.6352,50.1539],[-71.1521,19.6436,46.5671],[-71.1494,19.6527,48.3781],[-71.1575,19.6637,66.9234],[-71.1583,19.6731,89.1317],[-71.1572,19.6778,98.0241],[-71.1526,19.6815,100.5988],[-71.1497,19.6874,112.7113],[-71.1546,19.6956,144.1199],[-71.1547,19.6992,135.0139],[-71.1497,19.7066,166.1161],[-71.1458,19.7273,259.8171],[-71.1395,19.7399,437.0675],[-71.1334,19.7448,404.269],[-71.1225,19.745,586.9713],[-71.1213,19.7527,484.4606],[-71.1259,19.7564,500.0226],[-71.157,19.7565,506.3673],[-71.1666,19.7592,478.0022],[-71.1802,19.7597,396.223],[-71.1935,19.7671,557.9104],[-71.2055,19.7714,340.8707],[-71.2162,19.7787,378.4567],[-71.221,19.7894,337.2231],[-71.2283,19.7915,285.5158],[-71.2287,19.7937,263.1815],[-71.2243,19.8007,119.1527],[-71.2372,19.8042,96.9197],[-71.2464,19.8216,34.7681],[-71.2485,19.8293,0.0],[-71.2596,19.8304,3.5428],[-71.2599,19.8329,0.0],[-71.2676,19.8316,3.8873],[-71.2729,19.8329,2.5035],[-71.2768,19.836,0.0],[-71.2804,19.834,0.0],[-71.2824,19.8351,3.7712],[-71.2815,19.8379,1.2582],[-71.2901,19.840699999999998,5.4607],[-71.2904,19.8421,1.8734],[-71.2888,19.8427,0.0],[-71.2907,19.8455,0.0],[-71.2974,19.8454,3.4543],[-71.3001,19.849,0.0],[-71.309,19.8482,3.8703],[-71.3118,19.8497,2.3063],[-71.3132,19.8463,2.5104],[-71.3159,19.8496,0.0],[-71.3179,19.8493,1.485],[-71.3165,19.8482,0.0],[-71.3176,19.8471,0.0],[-71.324,19.849,0.0],[-71.3251,19.8474,0.0],[-71.3285,19.8471,0.0],[-71.3299,19.8487,3.1771],[-71.3354,19.8482,4.785],[-71.3421,19.8504,1.3899],[-71.3468,19.8496,1.9188],[-71.3515,19.8526,0.7012],[-71.3634,19.8557,0.0],[-71.3785,19.8576,3.9477],[-71.3837,19.8624,0.0],[-71.3896,19.8643,0.0],[-71.396,19.8638,0.7766],[-71.399,19.8668,17.7227],[-71.4026,19.8665,2.023],[-71.4046,19.8701,0.0],[-71.4124,19.8724,0.192],[-71.4169,19.8763,0.0],[-71.4199,19.8754,0.8138],[-71.4293,19.881,0.0],[-71.4382,19.8824,1.3803],[-71.441,19.8868,1.0131],[-71.4501,19.891,3.4281],[-71.4507,19.8935,4.2617],[-71.4626,19.8971,0.0],[-71.4707,19.9021,0.0],[-71.4785,19.903199999999998,1.2344],[-71.4887,19.909,0.0],[-71.4946,19.9074,0.0],[-71.4976,19.9046,2.3304],[-71.5007,19.9046,6.1094],[-71.5065,19.9065,4.2607],[-71.534,19.9096,2.3263],[-71.5384,19.9123,0.0],[-71.5535,19.9091,0.0],[-71.5551,19.9071,0.0],[-71.5532,19.9068,3.823],[-71.5607,19.9046,5.7701],[-71.5599,19.9063,1.6901],[-71.5562,19.9071,0.0],[-71.5585,19.9082,1.9691],[-71.5626,19.9063,1.4987],[-71.5679,19.909,0.0],[-71.581,19.9102,0.8273],[-71.586,19.9074,0.0],[-71.5915,19.9068,1.1817],[-71.5951,19.9037,0.9416],[-71.5987,19.903199999999998,0.5928],[-71.6004,19.9004,1.6243],[-71.604,19.9029,0.0],[-71.6154,19.9007,0.0],[-71.619,19.8968,0.0],[-71.618,19.8879,0.2792],[-71.6235,19.8826,0.0],[-71.6299,19.8801,0.6423],[-71.6382,19.884,0.3498],[-71.6402,19.8932,0.0],[-71.6435,19.8965,24.4863],[-71.6488,19.8991,0.0],[-71.6543,19.8993,0.0],[-71.6554,19.8949,73.7738],[-71.659,19.8944,13.4551],[-71.6607,19.896,0.0],[-71.6612,19.8949,0.0],[-71.6604,19.8904,0.0],[-71.6554,19.8841,3.1411],[-71.6535,19.8719,1.3965],[-71.6554,19.8632,1.9503],[-71.6607,19.856,0.7609],[-71.6768,19.8432,0.0],[-71.6913,19.8399,0.0],[-71.6926,19.8307,1.5006],[-71.6957,19.8285,0.0],[-71.7179,19.8185,1.552],[-71.7415,19.8151,0.6153],[-71.7399,19.8132,2.4109],[-71.7399,19.8088,1.7634],[-71.7468,19.8037,3.5493],[-71.7418,19.8096,0.1991],[-71.744,19.8101,1.3661],[-71.7446,19.8137,1.1149],[-71.7468,19.8063,0.0],[-71.7568,19.7991,0.0],[-71.7624,19.7924,4.5261],[-71.7787,19.7785,1.8779],[-71.7765,19.7724,1.6922],[-71.7793,19.7604,0.0],[-71.7737,19.7587,0.0],[-71.7718,19.7626,0.0],[-71.7749,19.764,0.8585],[-71.7749,19.7687,0.0],[-71.769,19.7699,0.0],[-71.7643,19.7729,1.4258],[-71.7632,19.7771,0.0],[-71.7651,19.7774,1.7997],[-71.7668,19.7804,0.0],[-71.7588,19.779,1.0946],[-71.7593,19.7821,1.5236],[-71.7568,19.786,2.7684],[-71.7501,19.7857,0.0],[-71.7538,19.7893,0.0],[-71.7532,19.7935,0.9039],[-71.7468,19.7951,1.5793],[-71.7504,19.7899,2.4011],[-71.7485,19.7888,2.4011],[-71.7481,19.786,3.5841],[-71.7501,19.7829,2.0873],[-71.7485,19.781,0.0],[-71.7476,19.7713,2.0637],[-71.7501,19.7685,2.4939],[-71.7535,19.7685,0.0],[-71.7493,19.7646,0.4036],[-71.7476,19.7596,0.3451],[-71.7468,19.7601,0.3451],[-71.7482,19.7654,0.2803],[-71.7459,19.7671,3.0997],[-71.7438,19.766,3.4062],[-71.7423,19.7618,0.0],[-71.7435,19.7576,1.1152],[-71.7396,19.7577,2.1994],[-71.7379,19.7557,4.993],[-71.7443,19.7565,1.7906],[-71.7451,19.7585,0.0],[-71.7465,19.7565,0.0],[-71.7385,19.744,0.0],[-71.7374,19.7388,1.1317],[-71.736,19.7382,0.0],[-71.7318,19.7421,0.5737],[-71.7299,19.7374,0.0],[-71.7301,19.736,1.4072],[-71.7326,19.7371,0.0],[-71.731,19.7326,0.5434],[-71.7262,19.7296,1.0167],[-71.7257,19.7215,4.5902],[-71.7326,19.7024,0.0],[-71.7279,19.7029,1.2328],[-71.7232,19.7068,2.3816],[-71.7185,19.7021,7.2934],[-71.7204,19.7013,0.0],[-71.7201,19.6993,0.0],[-71.7235,19.6982,11.3766],[-71.724,19.6957,2.7265],[-71.7221,19.6946,0.0],[-71.7099,19.6951,4.5763],[-71.7104,19.6935,5.6551],[-71.7154,19.6918,5.6869],[-71.719,19.6943,0.0],[-71.7232,19.6937,6.932],[-71.7296,19.699,0.0],[-71.7349,19.701,0.0],[-71.734,19.7074,0.0],[-71.7421,19.7062,0.4824],[-71.7426,19.7107,0.0],[-71.744,19.7104,0.0],[-71.744,19.7062,2.7914],[-71.7594,19.702,3.9995],[-71.7583,19.7,4.1814],[-71.7602,19.6993,2.3048],[-71.7602,19.6965,3.8782],[-71.7575,19.6985,6.6592],[-71.7575,19.6965,7.2806],[-71.7555,19.6954,23.2941],[-71.7536,19.6965,24.4476],[-71.7536,19.6947,29.3035],[-71.7583,19.6919,2.3542],[-71.7583,19.6907,2.3542],[-71.7547,19.6907,2.3133],[-71.7555,19.6892,2.7483],[-71.7528,19.6899,11.7546],[-71.7547,19.6861,2.5297],[-71.7527,19.6833,6.563],[-71.7555,19.6806,3.4261],[-71.7516,19.6798,17.7193],[-71.7453,19.6705,19.3523],[-71.7433,19.6705,19.1191],[-71.7421,19.6686,22.1626],[-71.7366,19.6686,25.0631],[-71.7366,19.6666,8.7498],[-71.7341,19.6659,2.0],[-71.7329,19.6625,21.1904],[-71.7311,19.6499,4.2455],[-71.7348,19.6441,5.396],[-71.7348,19.6326,11.702],[-71.7273,19.6324,15.1294],[-71.7191,19.625,15.5147],[-71.7094,19.6272,4.9308],[-71.6928,19.6264,14.6079],[-71.6797,19.6182,24.8943],[-71.6774,19.6138,29.0198],[-71.6687,19.6088,33.4656],[-71.6627,19.6006,50.8564],[-71.6575,19.5971,74.4978],[-71.6452,19.5987,75.199],[-71.6339,19.5965,77.694],[-71.6245,19.5993,83.2788],[-71.6127,19.6063,77.2704],[-71.5869,19.6135,88.2501],[-71.5861,19.6086,74.5608],[-71.5843,19.607,96.3298],[-71.5814,19.6073,182.6331],[-71.5782,19.611,170.3943],[-71.5751,19.6118,153.0197],[-71.5651,19.6045,71.1213],[-71.5574,19.6033,70.4587],[-71.5475,19.5993,57.7891],[-71.5387,19.6024,77.5202],[-71.531,19.6008,130.1955],[-71.5187,19.6011,85.6599],[-71.5098,19.6044,58.622],[-71.5067,19.6094,57.0],[-71.5016,19.6089,57.0],[-71.4977,19.6065,57.0],[-71.4946,19.5998,65.0875],[-71.5005,19.5839,95.8656]]],
[[[-71.7954,19.8285,0.2489],[-71.7965,19.829,0.0],[-71.7976,19.8274,1.3041],[-71.7954,19.8268,0.0],[-71.7954,19.8285,0.2489]]],
[[[-71.7668,19.8647,0.0],[-71.7679,19.8635,0.4835],[-71.766,19.8622,1.4158],[-71.7657,19.8632,1.4158],[-71.7668,19.8647,0.0]]],
[[[-71.8176,19.877,1.7297],[-71.8196,19.8777,0.8645],[-71.8168,19.8743,0.5966],[-71.8171,19.8762,1.7297],[-71.8176,19.877,1.7297]]],
[[[-71.6668,19.8907,0.0],[-71.6699,19.8904,1.1533],[-71.6701,19.8857,3.1955],[-71.6676,19.8857,0.0],[-71.6651,19.8888,0.0],[-71.6668,19.8907,0.0]]],
[[[-71.8118,19.896,0.0],[-71.814,19.8949,2.2294],[-71.8099,19.8921,1.4699],[-71.8095,19.8932,1.4699],[-71.8118,19.896,0.0]]]]}
,"properties": {"GID_1": "DOM.17_1","GID_0": "DOM","country": "DominicanRepublic","province": "MonteCristi","VARNAME_1": "NA","NL_NAME_1": "NA","TYPE_1": "Provincia","ENGTYPE_1": "Province","CC_1": "NA","HASC_1": "DO.MC","ISO_1": "DO-15","name": "Monte_Cristi.province","area_km2": 1951.273,"hist_schema_id": "Elevation0-9000","hist_area_km2": {"0": 381.723,"25": 346.03,"50": 334.429,"75": 242.941,"100": 163.945,"125": 112.178,"150": 95.688,"175": 82.154,"200": 59.225,"225": 42.849,"250": 30.521,"275": 23.22,"300": 14.376,"325": 8.226,"350": 3.033,"375": 2.454,"400": 1.896,"425": 1.676,"450": 1.457,"475": 0.978,"500": 0.639,"525": 0.419,"550": 0.379,"575": 0.279,"600": 0.299,"625": 0.14,"650": 0.1,"675": 0.02}}}