{"type":"Feature","properties":{"featurecla":"River","scalerank":8,"rivernum":852,"dissolve":"852River","name":"Yaque2","name_alt":null,"note":null,"min_zoom":7.0,"strokeweig":0.25,"name_en":"Yaque del Norte","min_label":8.0},
"geometry":{"type": "LineString","coordinates": [[-71.33740234375,19.681756903119123,49.1594],[-71.351904296874991,19.683368231244117,48.7005],[-71.365405273437489,19.68817780155662,72.1851],[-71.378344726562489,19.690936590619117,71.5905],[-71.391357421875,19.686151434369123,30.9504],[-71.392749023437489,19.69049713749412,33.769],[-71.39453125,19.69330475468162,32.632],[-71.396582031249991,19.695917059369123,37.2393],[-71.398779296874991,19.69977448124412,34.2318],[-71.393798828125,19.711786199994123,54.1722],[-71.397216796875,19.71662018436912,59.2035],[-71.404711914062489,19.71466705936912,37.67],[-71.411791992187489,19.70661041874412,28.7384],[-71.423095703125,19.716669012494123,24.9023],[-71.426074218749989,19.72028229374412,25.3474],[-71.418627929687489,19.72772858280662,30.1636],[-71.426318359374989,19.73700592655662,28.4489],[-71.435302734375,19.74066803593162,51.2993],[-71.444628906249989,19.73956940311912,27.2837],[-71.453369140625,19.73456452030662,24.111],[-71.461035156249991,19.748309637494117,34.9553],[-71.478125,19.74579498905662,18.427],[-71.496435546874991,19.735956121869123,19.0447],[-71.507983398437489,19.72772858280662,16.8764],[-71.509692382812489,19.72418854374412,16.8523],[-71.513110351562489,19.708514715619117,15.3531],[-71.514819335937489,19.70490143436912,16.3129],[-71.522265624999989,19.712762762494123,14.6339],[-71.539160156249991,19.723016668744123,12.1454],[-71.548925781249991,19.73163483280662,11.3573],[-71.566259765624991,19.761102606244123,10.8946],[-71.577490234374991,19.77448151249412,9.2761],[-71.593994140625,19.780047918744117,7.3959],[-71.603857421874991,19.78644440311912,9.2486],[-71.623461914062489,19.814569403119123,6.222],[-71.6349609375,19.82099030155662,7.6973],[-71.648193359375,19.82208893436912,4.4138],[-71.662841796875,19.82562897343162,6.8882],[-71.674609374999989,19.832049871869117,5.3176],[-71.682543945312489,19.847040106244123,0.0]]}}