{"type":"Feature","properties":{"GID_2":"DOM.10.6_1","GID_0":"DOM","country":"DominicanRepublic","GID_1":"DOM.10_1","province":"Independencia","NL_NAME_1":"NA","county":"PostrerRio","VARNAME_2":"NA","NL_NAME_2":"NA","TYPE_2":"Municipio","ENGTYPE_2":"Municipality","CC_2":"NA","HASC_2":"DO.IN.PR","name":"Postrer_Rio.county"},
"geometry":{"type": "MultiPolygon","coordinates": [[[[-71.5672,18.6544,2034.5026],[-71.577,18.6569,1970.3781],[-71.5842,18.6614,1729.3877],[-71.5949,18.6626,1687.2837],[-71.607,18.6674,1668.6777],[-71.6144,18.6655,1744.6511],[-71.6249,18.6677,1762.0651],[-71.6378,18.6622,1871.264],[-71.652,18.665,1906.7996],[-71.6691,18.6652,1955.0922],[-71.6789,18.6609,1924.7399],[-71.6725,18.6489,1529.8293],[-71.6754,18.6363,1439.429],[-71.6738,18.6258,1302.7043],[-71.678,18.6185,949.5223],[-71.679,18.6062,619.142],[-71.6864,18.5952,462.5374],[-71.6873,18.5913,472.8748],[-71.6856,18.5878,440.8542],[-71.674,18.5793,622.0182],[-71.6723,18.5723,656.8362],[-71.6737,18.5696,460.3414],[-71.687,18.5633,143.8072],[-71.6896,18.5606,16.491],[-71.6929,18.5481,-37.0],[-71.6937,18.5365,-37.0],[-71.7044,18.5072,-37.0],[-71.7058,18.4993,-37.0],[-71.7098,18.4934,-16.9341],[-71.6717,18.4932,-20.7837],[-71.6601,18.4958,-30.1865],[-71.6412,18.4956,-37.0],[-71.624,18.5271,-37.0],[-71.6143,18.537,17.4711],[-71.6105,18.5437,76.1689],[-71.6075,18.5501,153.7824],[-71.6036,18.568,498.7993],[-71.5988,18.5748,468.427],[-71.5972,18.5833,654.6511],[-71.5912,18.5893,852.0483],[-71.5835,18.5933,698.0048],[-71.5834,18.6053,870.5874],[-71.5856,18.6125,1370.2013],[-71.5817,18.6196,1239.3491],[-71.5829,18.6328,1131.7633],[-71.5697,18.6467,1605.4971],[-71.5672,18.6544,2034.5026]]]]}}