{"type":"Feature","properties":{"GID_1":"JAM.3_1","GID_0":"JAM","country":"Jamaica","province":"Kingston","VARNAME_1":"KingstonandPortRoyal","NL_NAME_1":"NA","TYPE_1":"Parish","ENGTYPE_1":"Parish","CC_1":"NA","HASC_1":"JM.KI","ISO_1":"JM-01","name":"Kingston.province"},
"geometry":{"type": "MultiPolygon","coordinates": [[[[-76.7213,17.9457,1.0546],[-76.7196,17.9457,1.1199],[-76.7229,17.9478,0.828],[-76.7304,17.944,0.3144],[-76.7404,17.9421,0.0],[-76.7524,17.9451,0.363],[-76.764,17.9446,1.9565],[-76.771,17.9474,0.0],[-76.7785,17.944,0.0],[-76.7824,17.9471,0.0],[-76.7807,17.9413,0.0],[-76.7826,17.9365,0.9532],[-76.7974,17.9421,0.0],[-76.7996,17.9413,0.211],[-76.7999,17.9382,0.0],[-76.7832,17.9321,1.0518],[-76.7857,17.9301,1.7345],[-76.791,17.9346,1.1086],[-76.7962,17.9346,1.0876],[-76.7993,17.9374,0.0],[-76.8076,17.9374,0.7405],[-76.8121,17.9413,0.0],[-76.8149,17.9413,0.9146],[-76.8126,17.9401,1.4234],[-76.8146,17.9396,3.9048],[-76.8163,17.9413,0.9146],[-76.8246,17.9432,1.1434],[-76.8246,17.9415,0.0],[-76.8199,17.9396,2.5107],[-76.8213,17.9387,2.1199],[-76.8251,17.9413,2.7703],[-76.8249,17.944,2.1106],[-76.8279,17.9479,0.0],[-76.836,17.9479,0.0],[-76.836,17.9457,0.8643],[-76.8299,17.9438,1.9675],[-76.8304,17.9421,1.1466],[-76.8368,17.9429,0.0],[-76.8435,17.9396,0.0],[-76.844,17.9363,0.0],[-76.8468,17.9335,0.7976],[-76.8404,17.9324,0.3768],[-76.8374,17.9376,1.1935],[-76.834,17.9387,0.0],[-76.8182,17.9363,1.0766],[-76.8093,17.9374,2.0548],[-76.8063,17.934,0.0],[-76.7985,17.9351,0.0],[-76.7835,17.9274,0.0],[-76.7807,17.929,1.5077],[-76.7774,17.9274,0.0],[-76.7685,17.9363,0.0],[-76.7579,17.9438,1.2293],[-76.7518,17.9443,0.363],[-76.7368,17.9407,1.1161],[-76.7213,17.9457,1.0546]]],
[[[-76.8215,17.9471,0.0],[-76.8246,17.9474,0.0],[-76.8193,17.9435,0.0],[-76.8196,17.9457,0.0],[-76.8215,17.9471,0.0]]],
[[[-76.7249,17.9513,0.3425],[-76.7217,17.9583,44.2913],[-76.7226,17.9627,176.2845],[-76.7201,17.9716,104.1075],[-76.7239,17.9716,117.6285],[-76.7552,17.9823,119.8281],[-76.7778,17.9794,33.8548],[-76.778,17.9834,42.8509],[-76.7805,17.9826,42.5544],[-76.7821,17.9848,44.2944],[-76.7886,17.986,49.3203],[-76.7927,17.9856,42.8591],[-76.7972,17.9793,25.5898],[-76.8018,17.9809,24.3816],[-76.8044,17.9794,16.1396],[-76.811,17.9858,21.1269],[-76.8152,17.9789,4.4548],[-76.8145,17.9724,0.1804],[-76.8126,17.9726,0.1804],[-76.8101,17.9682,0.0],[-76.8035,17.9643,0.0],[-76.8001,17.9651,0.0],[-76.7979,17.9632,0.0],[-76.7768,17.9638,1.217],[-76.7737,17.9662,4.2905],[-76.7593,17.9662,1.051],[-76.7571,17.9682,0.4903],[-76.751,17.9671,1.0107],[-76.7468,17.9685,0.9236],[-76.7449,17.9679,1.1759],[-76.7451,17.966,0.0],[-76.744,17.9679,3.091],[-76.7401,17.9679,3.9852],[-76.736,17.9626,0.0],[-76.7332,17.9635,0.3176],[-76.7318,17.9604,0.0],[-76.7274,17.9579,13.2947],[-76.7249,17.9513,0.3425]]]]}}