{"type": "Feature","bbox": [-61.1249,14.5904,-61.0812,14.7046],"geometry": {"type": "MultiPolygon","coordinates": [[[[-61.1007,14.5918,0.0],[-61.1032,14.5921,0.0],[-61.1035,14.5907,0.0],[-61.101,14.5904,0.0],[-61.1007,14.5918,0.0]]],
[[[-61.1023,14.7028,758.6019],[-61.1025,14.7042,638.7847],[-61.1102,14.7046,1024.5385],[-61.1188,14.6918,741.5285],[-61.1095,14.6833,584.4327],[-61.1092,14.676,549.2275],[-61.1116,14.6602,392.0587],[-61.1199,14.6453,203.7744],[-61.1249,14.6305,46.8313],[-61.1229,14.6285,0.0],[-61.1196,14.6299,12.1266],[-61.1185,14.6276,0.0],[-61.111,14.6251,6.7999],[-61.111,14.6235,0.0],[-61.104,14.6182,0.0],[-61.1037,14.6157,0.3319],[-61.0999,14.6138,1.0469],[-61.0962,14.6051,0.0],[-61.0909,14.5988,6.0661],[-61.0812,14.6376,162.0902],[-61.0913,14.6519,170.1637],[-61.1023,14.7028,758.6019]]]]}
,"properties": {"GID_2": "MTQ.1.4_1","GID_0": "MTQ","country": "Martinique","GID_1": "MTQ.1_1","province": "Fort-de-France","NL_NAME_1": "NA","county": "Schœlcher","VARNAME_2": "NA","NL_NAME_2": "NA","TYPE_2": "Commune","ENGTYPE_2": "Commune","CC_2": "NA","HASC_2": "MQ.FF.SC","name": "Schœlcher.county","area_km2": 25.41559,"hist_schema_id": "Elevation0-9000","hist_area_km2": {"0": 0.98477,"25": 1.8259,"50": 1.8669,"75": 1.51813,"100": 1.64117,"125": 1.436,"150": 1.21033,"175": 1.23083,"200": 1.08722,"225": 0.90259,"250": 1.12823,"275": 0.73846,"300": 0.71795,"325": 0.45128,"350": 0.4923,"375": 0.57434,"400": 0.59484,"425": 0.63586,"450": 0.43074,"475": 0.45125,"500": 0.61532,"525": 0.51276,"550": 0.51275,"575": 0.45122,"600": 0.36918,"625": 0.24611,"650": 0.14356,"675": 0.2256,"700": 0.2256,"725": 0.16407,"750": 0.08203,"775": 0.2256,"800": 0.20509,"825": 0.06153,"850": 0.20509,"875": 0.20509,"900": 0.10254,"925": 0.10254,"950": 0.26661,"975": 0.14356,"1000": 0.12305,"1025": 0.10254,"1050": 0.10254,"1075": 0.04102,"1100": 0.02051,"1150": 0.04102}}}