{"type":"Feature","properties":{"GID_2":"DOM.17.3_1","GID_0":"DOM","country":"DominicanRepublic","GID_1":"DOM.17_1","province":"MonteCristi","NL_NAME_1":"NA","county":"LasMatasdeSantaCruz","VARNAME_2":"NA","NL_NAME_2":"NA","TYPE_2":"Municipio","ENGTYPE_2":"Municipality","CC_2":"NA","HASC_2":"DO.MC.LM","name":"Las_Matasde_Santa_Cruz.county"},
"geometry":{"type": "MultiPolygon","coordinates": [[[[-71.5031,19.5754,151.3291],[-71.4962,19.5739,105.1631],[-71.4903,19.5646,178.7827],[-71.479,19.5586,198.0007],[-71.4732,19.5565,166.822],[-71.463,19.5579,142.0936],[-71.4559,19.5542,159.5672],[-71.4541,19.5634,126.5579],[-71.4492,19.5659,109.517],[-71.4401,19.5674,105.863],[-71.4299,19.5751,100.3224],[-71.4285,19.5784,88.7225],[-71.4295,19.5824,83.2081],[-71.4459,19.5935,118.7504],[-71.4408,19.6046,93.2708],[-71.4399,19.6197,89.7492],[-71.4254,19.6307,65.5667],[-71.408,19.6372,40.2599],[-71.3917,19.6467,38.8184],[-71.39,19.6502,49.7235],[-71.3899,19.6568,52.1628],[-71.393,19.6705,31.1896],[-71.39,19.6705,35.8125],[-71.3867,19.668,39.8237],[-71.3844,19.6696,38.0974],[-71.388,19.678,53.3863],[-71.3966,19.679,29.2164],[-71.3984,19.6765,30.9802],[-71.396,19.6705,36.3649],[-71.4028,19.671,28.1985],[-71.4075,19.6746,31.8676],[-71.4128,19.6746,28.844],[-71.4153,19.6797,28.1469],[-71.4219,19.6855,26.1946],[-71.4238,19.6906,24.6889],[-71.44,19.6905,23.5403],[-71.4429,19.689,23.3587],[-71.4442,19.6825,24.0289],[-71.4463,19.6802,34.1168],[-71.4582,19.676,26.0189],[-71.4765,19.6659,35.4446],[-71.4862,19.6633,34.3544],[-71.489,19.6672,34.165],[-71.4925,19.668,30.1299],[-71.5014,19.6633,38.6537],[-71.502,19.661,36.478],[-71.4985,19.6564,39.6186],[-71.505,19.649,43.7892],[-71.506,19.6457,39.6335],[-71.5031,19.6351,46.0668],[-71.5034,19.629,51.9505],[-71.5068,19.6241,90.0622],[-71.5133,19.6229,98.7727],[-71.5143,19.6209,75.4748],[-71.507,19.615,63.4701],[-71.5067,19.6094,57.0],[-71.4986,19.6075,57.0],[-71.4947,19.6004,65.0875],[-71.5031,19.5754,151.3291]]]]}}