{"type":"Feature","properties":{"GID_2":"CUB.14.7_1","GID_0":"CUB","country":"Cuba","GID_1":"CUB.14_1","province":"SanctiSpíritus","NL_NAME_1":"NA","county":"Trinidad","VARNAME_2":"NA","NL_NAME_2":"NA","TYPE_2":"Municipio","ENGTYPE_2":"Municipality","CC_2":"NA","HASC_2":"CU.SS.TR","name":"Trinidad.county"},
"geometry":{"type": "MultiPolygon","coordinates": [[[[-79.7726,21.5979,0.8282],[-79.774,21.5985,1.0511],[-79.7776,21.594,0.5259],[-79.7765,21.5938,0.5259],[-79.7726,21.5979,0.8282]]],
[[[-79.7962,21.6546,1.5481],[-79.7971,21.6563,0.0],[-79.7982,21.6524,1.7738],[-79.7949,21.6471,1.0456],[-79.794,21.6507,0.0],[-79.7962,21.6546,1.5481]]],
[[[-79.801,21.666,0.3043],[-79.8032,21.6654,0.2811],[-79.7999,21.6604,0.0],[-79.7982,21.664,0.0],[-79.801,21.666,0.3043]]],
[[[-79.8051,21.6685,1.1585],[-79.8065,21.669,0.0],[-79.8074,21.6674,0.0],[-79.8043,21.6651,0.2811],[-79.8037,21.6663,0.2381],[-79.8051,21.6685,1.1585]]],
[[[-79.884,21.6404,0.4152],[-79.8938,21.6368,0.0],[-79.884,21.6365,0.0],[-79.8824,21.639,0.0],[-79.884,21.6404,0.4152]]],
[[[-79.816,21.696,0.2167],[-79.8168,21.6971,0.0],[-79.8199,21.6949,0.542],[-79.8185,21.6921,1.0528],[-79.8124,21.6938,0.0],[-79.816,21.696,0.2167]]],
[[[-79.9257,21.7174,0.0],[-79.929,21.7143,0.0],[-79.9271,21.7093,0.4919],[-79.926,21.7096,0.4919],[-79.9257,21.7174,0.0]]],
[[[-79.9082,21.7196,0.3337],[-79.9101,21.719,0.4344],[-79.9079,21.7182,0.3465],[-79.9085,21.7165,0.8115],[-79.9143,21.7171,0.0],[-79.9118,21.7149,0.0],[-79.9074,21.7151,0.0],[-79.9049,21.7132,0.4358],[-79.9057,21.7168,0.5029],[-79.9082,21.7196,0.3337]]],
[[[-79.8087,21.6746,0.882],[-79.8104,21.6746,0.882],[-79.8101,21.6704,0.0],[-79.8079,21.671,0.3627],[-79.8087,21.6746,0.882]]],
[[[-79.8068,21.6782,0.9701],[-79.8065,21.6799,0.8112],[-79.8074,21.6807,0.0],[-79.8085,21.6768,0.0],[-79.8068,21.6782,0.9701]]],
[[[-79.8024,21.6882,0.5673],[-79.8057,21.6882,0.0],[-79.8051,21.6835,0.0],[-79.8021,21.6838,0.0],[-79.8024,21.6849,1.1213],[-79.8043,21.6843,1.1213],[-79.8012,21.6874,0.2375],[-79.8024,21.6882,0.5673]]],
[[[-79.9018,21.7221,0.0],[-79.9029,21.7226,0.0],[-79.9021,21.7207,0.0],[-79.9062,21.7188,0.0],[-79.9026,21.7193,0.0],[-79.9013,21.7207,0.0],[-79.9018,21.7221,0.0]]],
[[[-79.9535,21.741,0.0],[-79.9549,21.7421,0.6977],[-79.9565,21.739,0.3628],[-79.9554,21.739,0.3628],[-79.9535,21.741,0.0]]],
[[[-80.1045,21.8405,36.0762],[-80.1069,21.8199,22.2404],[-80.1121,21.8229,5.2874],[-80.1099,21.8188,2.8727],[-80.0965,21.8135,0.0],[-80.0771,21.8129,0.0],[-80.0757,21.8143,10.3153],[-80.071,21.8096,0.3044],[-80.0657,21.8076,1.2463],[-80.0418,21.8057,2.1554],[-80.0387,21.8071,10.0463],[-80.0376,21.8065,1.7988],[-80.0382,21.8032,0.6145],[-80.0321,21.8018,2.7764],[-80.0354,21.7974,0.3997],[-80.0376,21.7968,0.7592],[-80.0385,21.7935,1.1344],[-80.0324,21.784,6.1066],[-80.031,21.7654,0.0],[-80.0237,21.7551,1.5068],[-80.0229,21.7426,0.041],[-80.0182,21.7418,0.0],[-80.0143,21.7365,0.0],[-80.0115,21.7376,0.8468],[-80.004,21.7368,1.7129],[-79.9896,21.7271,1.1398],[-79.9779,21.7254,0.0],[-79.9757,21.7271,-0.0054],[-79.976,21.7251,0.0],[-79.9743,21.7246,0.5607],[-79.9724,21.7304,0.7995],[-79.9821,21.7313,0.3561],[-79.9865,21.7296,0.6764],[-79.9857,21.7318,0.514],[-79.981,21.7346,0.0],[-79.9871,21.7354,0.5737],[-79.9874,21.7376,0.0],[-79.9912,21.7415,1.2337],[-79.9935,21.7388,0.5773],[-79.9985,21.7371,0.0],[-80.0129,21.7404,2.3467],[-80.0151,21.7449,0.0],[-80.0154,21.7501,0.0],[-80.0085,21.7521,1.1593],[-80.0082,21.7549,0.7282],[-80.0015,21.754,0.705],[-79.9971,21.7551,0.3123],[-79.9887,21.7518,1.2109],[-79.9865,21.7479,0.711],[-79.9821,21.7501,0.0],[-79.9774,21.746,0.1188],[-79.9776,21.7485,0.1142],[-79.9735,21.749,0.5799],[-79.9682,21.7432,0.855],[-79.9674,21.7401,0.0],[-79.9646,21.7435,0.0],[-79.9629,21.7415,0.0],[-79.9615,21.7435,0.0],[-79.9565,21.7424,0.6977],[-79.949,21.7432,0.5234],[-79.9476,21.741,0.2354],[-79.9499,21.7393,0.0],[-79.9499,21.7371,0.3134],[-79.9454,21.7412,0.0],[-79.946,21.7382,0.1409],[-79.9443,21.7363,0.0],[-79.9422,21.7374,1.0145],[-79.9404,21.7363,0.454],[-79.9396,21.7407,0.313],[-79.936,21.7401,0.4613],[-79.9365,21.7374,0.0],[-79.9335,21.7401,0.0],[-79.9313,21.7401,0.1752],[-79.9318,21.7354,0.253],[-79.9349,21.7337,0.4556],[-79.9343,21.7324,0.4556],[-79.9293,21.7349,0.0],[-79.9274,21.739,0.6208],[-79.9221,21.7374,0.5784],[-79.9265,21.7326,0.3904],[-79.9257,21.7315,0.0],[-79.9201,21.7371,0.8641],[-79.9171,21.736,0.7637],[-79.919,21.734,0.8328],[-79.9174,21.7321,1.3453],[-79.9146,21.7321,0.5926],[-79.9137,21.7346,0.4838],[-79.9121,21.7349,0.2352],[-79.9096,21.7332,0.211],[-79.9104,21.7304,0.337],[-79.909,21.7299,0.0],[-79.9088,21.7351,0.0],[-79.906,21.7393,0.7628],[-79.9057,21.7507,1.5027],[-79.904,21.7529,0.7314],[-79.891,21.7563,0.9914],[-79.8835,21.756,1.4576],[-79.8796,21.7538,0.6312],[-79.8746,21.7549,0.8835],[-79.8712,21.7532,1.2104],[-79.8724,21.7454,1.3877],[-79.8743,21.7454,1.3877],[-79.8757,21.7488,0.0],[-79.8785,21.7504,0.5559],[-79.8901,21.7507,0.212],[-79.889,21.7443,0.0],[-79.8854,21.741,0.0],[-79.8854,21.7365,0.0],[-79.8871,21.7343,0.0],[-79.8874,21.7296,0.2418],[-79.8924,21.7271,0.152],[-79.8968,21.7213,0.4822],[-79.8918,21.7204,0.0],[-79.8904,21.7251,0.0],[-79.8835,21.7268,0.0],[-79.8807,21.731,0.8703],[-79.8724,21.7301,0.3206],[-79.8721,21.7265,0.3389],[-79.8701,21.7243,0.9893],[-79.8735,21.7162,0.8839],[-79.8793,21.7138,0.0],[-79.8851,21.7074,0.1386],[-79.891,21.706,0.1461],[-79.8915,21.7038,0.3565],[-79.8896,21.7024,0.6367],[-79.8818,21.7029,0.3292],[-79.8715,21.7088,0.9232],[-79.8665,21.7082,0.0],[-79.8657,21.7104,0.0],[-79.8615,21.7093,1.6504],[-79.8593,21.7049,0.0],[-79.856,21.706,1.7493],[-79.8557,21.704,1.2186],[-79.8629,21.6982,1.0348],[-79.8696,21.6996,0.5102],[-79.8699,21.7026,0.2905],[-79.8751,21.7001,0.968],[-79.8793,21.701,0.3329],[-79.8824,21.6971,2.2574],[-79.8857,21.6976,0.2815],[-79.8863,21.6946,0.5321],[-79.8799,21.6935,0.0],[-79.8729,21.6957,1.4316],[-79.866,21.6954,1.2225],[-79.8835,21.6915,0.0],[-79.8879,21.6954,0.4181],[-79.8879,21.691,0.0],[-79.8846,21.6896,0.0],[-79.8665,21.6938,1.0491],[-79.8601,21.6924,0.2732],[-79.856,21.6893,0.2497],[-79.8504,21.6974,1.4245],[-79.8476,21.6993,2.3312],[-79.844,21.6985,0.0],[-79.8396,21.696,0.8528],[-79.8428,21.694,0.0],[-79.8421,21.6907,0.0],[-79.8443,21.689,0.0],[-79.8407,21.6818,0.7173],[-79.8418,21.6815,0.8709],[-79.8424,21.6838,0.3058],[-79.8415,21.6757,0.0],[-79.836,21.6718,0.0],[-79.829,21.6696,0.5881],[-79.8265,21.6704,0.7054],[-79.8246,21.6671,0.8007],[-79.8213,21.6701,0.0],[-79.8215,21.6749,0.2622],[-79.819,21.6793,0.4426],[-79.8196,21.6829,0.0],[-79.8226,21.684,0.0],[-79.8235,21.686,1.0035],[-79.8218,21.6932,0.0],[-79.8199,21.6954,0.542],[-79.8221,21.6993,0.8408],[-79.8187,21.6988,0.0],[-79.8196,21.7032,0.8634],[-79.8165,21.7099,0.0],[-79.8138,21.7104,0.0],[-79.8124,21.7076,0.0],[-79.8138,21.7124,0.0],[-79.8124,21.7146,0.2493],[-79.8101,21.7151,0.2732],[-79.8071,21.7132,0.0],[-79.804,21.7051,0.0],[-79.8018,21.7099,0.2741],[-79.794,21.7096,0.0],[-79.7926,21.7126,0.1911],[-79.7899,21.7088,0.4197],[-79.7871,21.7101,0.5057],[-79.7879,21.7085,0.0],[-79.7868,21.7082,0.0],[-79.7832,21.7099,0.9112],[-79.7799,21.7079,0.0],[-79.766,21.714,0.6399],[-79.764,21.7165,0.3577],[-79.7615,21.7129,0.0],[-79.759,21.7129,0.2179],[-79.7607,21.711,0.5056],[-79.7585,21.7096,0.384],[-79.7574,21.7049,0.0],[-79.7425,21.7054,0.0733],[-79.73,21.7085,4.1181],[-79.7216,21.7322,20.3052],[-79.7193,21.7573,40.5707],[-79.7133,21.7729,67.0368],[-79.711,21.798,109.8643],[-79.7039,21.8226,175.0682],[-79.7317,21.8752,139.5732],[-79.745,21.8913,100.1123],[-79.7665,21.9291,126.0355],[-79.7922,21.9391,45.1873],[-79.8168,21.9426,79.3566],[-79.844,21.9534,237.6767],[-79.8438,21.9636,259.5073],[-79.8577,21.9707,233.389],[-79.8774,21.9766,356.0238],[-79.9102,21.9823,205.4854],[-79.9229,21.9804,277.8875],[-79.9309,21.977,302.6114],[-79.9367,21.9698,289.561],[-79.9402,21.9598,277.204],[-79.9383,21.9421,329.8279],[-79.9398,21.9368,473.1275],[-79.9462,21.9352,462.5183],[-79.9594,21.9412,521.3429],[-79.9663,21.9414,579.8326],[-79.9727,21.9366,654.8672],[-79.9829,21.919,586.0198],[-79.9931,21.9118,563.6749],[-80.0063,21.9077,675.1723],[-80.0287,21.9052,705.1143],[-80.0279,21.8971,732.743],[-80.0328,21.8911,570.1908],[-80.061,21.8889,765.4108],[-80.0781,21.8851,492.6927],[-80.0891,21.8767,175.1501],[-80.0967,21.8657,132.9019],[-80.1045,21.8405,36.0762]]]]}}