{"type":"Feature","properties":{"GID_2":"CUB.4.4_1","GID_0":"CUB","country":"Cuba","GID_1":"CUB.4_1","province":"CiudaddelaHabana","NL_NAME_1":"NA","county":"Cerro","VARNAME_2":"NA","NL_NAME_2":"NA","TYPE_2":"Municipio","ENGTYPE_2":"Municipality","CC_2":"NA","HASC_2":"CU.CH.CE","name":"Cerro.county"},
"geometry":{"type": "MultiPolygon","coordinates": [[[[-82.3796,23.111,28.3326],[-82.388,23.1059,38.9533],[-82.3952,23.0967,31.7543],[-82.3556,23.0814,38.4627],[-82.347,23.0896,17.4967],[-82.3478,23.1249,0.0],[-82.3515,23.1226,0.0],[-82.3638,23.1203,9.931],[-82.3796,23.111,28.3326]]]]}}