{"type":"Feature","properties":{"GID_3":"HTI.1.3.2_1","GID_0":"HTI","country":"Haiti","GID_1":"HTI.1_1","province":"Centre","NL_NAME_1":"NA","GID_2":"HTI.1.3_1","county":"Lascahobas","NL_NAME_2":"NA","city":"Lascahobas","VARNAME_3":"NA","NL_NAME_3":"NA","TYPE_3":"Commune","ENGTYPE_3":"Commune","CC_3":"NA","HASC_3":"NA","name":"Lascahobas.city"},
"geometry":{"type": "MultiPolygon","coordinates": [[[[-71.8925,18.8341,288.5161],[-71.9034,18.8534,209.8405],[-71.9037,18.8611,188.5831],[-71.8991,18.8677,173.3806],[-71.8915,18.8708,209.0859],[-71.8886,18.8738,205.2852],[-71.8927,18.8755,170.5],[-71.8906,18.8794,170.5],[-71.9019,18.8737,170.5],[-71.9057,18.8747,170.5],[-71.9114,18.8804,171.5824],[-71.9155,18.8798,171.0],[-71.9155,18.8826,170.704],[-71.9144,18.8862,171.7475],[-71.9058,18.8878,173.0608],[-71.9058,18.8915,189.1613],[-71.8854,18.9055,215.107],[-71.8832,18.9131,172.5941],[-71.887,18.9107,172.583],[-71.89,18.9122,172.7885],[-71.8909,18.9171,179.2152],[-71.8848,18.9338,173.1805],[-71.8833,18.9514,178.8932],[-71.8902,18.9537,188.2425],[-71.8934,18.9525,211.2718],[-71.907,18.9527,241.7472],[-71.9152,18.9487,203.2547],[-71.9176,18.9457,238.8201],[-71.9211,18.9463,215.0293],[-71.9255,18.9495,195.53],[-71.9394,18.9519,260.5242],[-71.9514,18.9407,284.4291],[-71.9562,18.9431,297.3555],[-71.9678,18.9448,331.1561],[-71.9744,18.9485,378.9966],[-71.9733,18.9521,311.2563],[-71.9687,18.9553,382.2089],[-71.9693,18.9569,395.3345],[-71.9747,18.9564,382.0537],[-71.9969,18.9686,333.8784],[-72.0005,18.9665,333.8253],[-71.9993,18.9629,409.8594],[-72.0008,18.9616,417.2705],[-72.0046,18.963,403.0702],[-72.0076,18.9584,430.3552],[-72.007,18.9539,443.1307],[-71.9991,18.9414,405.1221],[-71.997,18.9332,379.5523],[-71.9986,18.929,393.3525],[-71.9967,18.9245,184.3959],[-72.0196,18.9066,170.5],[-72.0311,18.9055,170.5],[-72.0424,18.8979,239.7384],[-72.0455,18.8972,281.7973],[-72.0569,18.9025,145.4161],[-72.0622,18.8989,174.2966],[-72.065,18.9012,207.1097],[-72.0647,18.893,257.8301],[-72.0594,18.8915,378.1953],[-72.0406,18.873,779.5941],[-72.0364,18.8606,804.501],[-72.0287,18.8519,1010.6151],[-72.0248,18.8426,851.3212],[-72.0026,18.8278,795.6292],[-71.9956,18.826,1031.2909],[-71.9819,18.8126,848.3688],[-71.9765,18.8129,739.729],[-71.9687,18.7958,345.8125],[-71.9697,18.7921,279.995],[-71.9672,18.7897,235.2224],[-71.9632,18.78,300.2025],[-71.9607,18.7779,287.1648],[-71.9522,18.7761,458.8213],[-71.95,18.7729,477.9156],[-71.9439,18.775,502.5299],[-71.939,18.7724,480.0745],[-71.9361,18.7739,544.9648],[-71.9377,18.7773,635.2352],[-71.9364,18.7795,723.7421],[-71.9237,18.7803,847.5071],[-71.9189,18.7837,889.5414],[-71.9023,18.7799,925.7922],[-71.8983,18.7805,939.9182],[-71.8974,18.7792,941.3165],[-71.899,18.7761,915.8472],[-71.8821,18.767,910.164],[-71.8671,18.766,1035.1663],[-71.8572,18.7849,915.4138],[-71.8688,18.8016,577.0825],[-71.8673,18.8143,677.5507],[-71.8738,18.8197,450.2354],[-71.8755,18.8238,343.7635],[-71.8925,18.8341,288.5161]]]]}}