{"type": "Feature","bbox": [-71.3425,18.2646,-71.2011,18.4145],"geometry": {"type": "MultiPolygon","coordinates": [[[[-71.3425,18.3981,3.2978],[-71.3312,18.3696,7.7121],[-71.3275,18.3527,9.0914],[-71.3278,18.341,8.5923],[-71.3321,18.3331,13.2906],[-71.3308,18.3234,5.8372],[-71.3416,18.311,10.0008],[-71.3423,18.3034,16.8872],[-71.3408,18.3008,18.9651],[-71.3269,18.2883,66.5109],[-71.3095,18.2801,18.8596],[-71.2952,18.2759,9.0797],[-71.2702,18.2655,3.5],[-71.2618,18.2646,3.5],[-71.247,18.2727,3.5],[-71.2364,18.2743,3.5],[-71.2289,18.2956,3.5],[-71.2235,18.3043,4.763],[-71.2261,18.3107,31.2954],[-71.2252,18.3137,11.0282],[-71.212,18.3203,7.7161],[-71.2011,18.3238,9.5762],[-71.2089,18.329,22.0017],[-71.2263,18.3331,38.6741],[-71.2329,18.3361,17.8646],[-71.2375,18.3407,16.8713],[-71.2384,18.3461,16.324],[-71.2457,18.3484,15.7933],[-71.2497,18.3555,14.183],[-71.251,18.3623,13.9131],[-71.2554,18.3646,13.1632],[-71.2583,18.369,12.0327],[-71.2577,18.3756,11.4386],[-71.2643,18.3843,10.3059],[-71.2665,18.39,10.0188],[-71.2763,18.4025,8.7712],[-71.2885,18.4138,6.8113],[-71.3117,18.4145,2.4979],[-71.319,18.407,2.3571],[-71.3425,18.3981,3.2978]]]]}
,"properties": {"GID_2": "DOM.10.1_1","GID_0": "DOM","country": "DominicanRepublic","GID_1": "DOM.10_1","province": "Independencia","NL_NAME_1": "NA","county": "Cristobal","VARNAME_2": "NA","NL_NAME_2": "NA","TYPE_2": "Distritomunicipal","ENGTYPE_2": "Municipaldistrict","CC_2": "NA","HASC_2": "DO.IN.CR","name": "Cristobal.county","area_km2": 144.9462,"hist_schema_id": "Elevation0-9000","hist_area_km2": {"0": 109.8049,"25": 31.3772,"50": 2.2746,"75": 0.9863,"100": 0.4831,"125": 0.0201}}}