{"type": "Feature","id": "1976","bbox": [-70.59238,18.71953,-70.22385,19.11173],"geometry": {"type": "Polygon","coordinates": [[[-70.39231,19.07232,205.2338],[-70.39978,19.09827,210.1067],[-70.42373,19.11173,217.4547],[-70.44342,19.10509,240.6237],[-70.4542,19.08648,335.6851],[-70.50184,19.07421,753.6937],[-70.52264,19.03737,1309.516],[-70.52352,18.96905,849.9722],[-70.58333,18.92246,1798.4355],[-70.59238,18.85324,1502.1741],[-70.53367,18.78795,1604.7546],[-70.49169,18.76472,1520.024],[-70.45146,18.73661,838.8467],[-70.42647,18.73917,749.382],[-70.40229,18.74738,1061.7074],[-70.37562,18.73715,888.6461],[-70.35002,18.72015,974.7034],[-70.31307,18.71953,824.5815],[-70.29955,18.75762,969.9928],[-70.28539,18.78609,346.4537],[-70.25118,18.80172,475.455],[-70.24441,18.83301,659.7263],[-70.22385,18.85477,288.162],[-70.24992,18.89761,118.4969],[-70.29291,18.92673,97.7173],[-70.31387,18.94127,167.8105],[-70.32958,18.96101,296.6703],[-70.33265,18.97572,135.1182],[-70.3418,18.98683,176.7795],[-70.36712,18.99843,141.7498],[-70.37182,19.02545,163.3876],[-70.38089,19.04868,293.9015],[-70.39231,19.07232,205.2338]]]}
,"properties": {"ISO3166-1-Alpha-3": "DOM","country": "Dominican Republic","fill": "#F0F","name": "Monseñor Nouel","area_km2": 978.986,"hist_schema_id": "Elevation0-9000","hist_area_km2": {"100": 3.1089,"125": 36.5483,"150": 61.1273,"175": 86.5706,"200": 66.8072,"225": 46.5348,"250": 36.8283,"275": 27.9045,"300": 24.9762,"325": 21.5263,"350": 19.7421,"375": 18.9798,"400": 17.4553,"425": 17.5354,"450": 15.9908,"475": 15.89,"500": 15.7899,"525": 14.8867,"550": 14.8259,"575": 14.6262,"600": 13.242,"625": 12.8004,"650": 12.3392,"675": 11.6769,"700": 12.3594,"725": 12.3198,"750": 11.6173,"775": 12.9214,"800": 14.3066,"825": 13.6845,"850": 12.721,"875": 12.6609,"900": 13.0019,"925": 12.3997,"950": 12.941,"975": 13.1614,"1000": 12.4196,"1025": 12.6007,"1050": 12.0591,"1075": 12.4,"1100": 11.3362,"1125": 10.754,"1150": 9.711,"1175": 8.5465,"1200": 7.3422,"1225": 6.9208,"1250": 6.6596,"1275": 6.5591,"1300": 6.4991,"1325": 6.3788,"1350": 5.396,"1375": 5.9979,"1400": 4.6742,"1425": 4.9553,"1450": 4.8352,"1475": 4.3339,"1500": 3.8925,"1525": 4.1536,"1550": 3.7322,"1575": 3.0096,"1600": 2.6282,"1625": 1.9861,"1650": 1.645,"1675": 1.6452,"1700": 1.6852,"1725": 1.565,"1750": 1.2038,"1775": 1.1637,"1800": 0.8428,"1825": 0.7626,"1850": 0.4616,"1875": 0.5418,"1900": 0.9834,"1925": 0.5419,"1950": 0.5017,"1975": 0.5419,"2000": 0.301,"2025": 0.4816,"2050": 0.2208,"2075": 0.3412,"2100": 0.2408,"2125": 0.1806,"2150": 0.2408,"2175": 0.2207,"2200": 0.1806,"2225": 0.2207,"2250": 0.1806,"2275": 0.2007,"2300": 0.1806,"2325": 0.0602,"2350": 0.0401,"2375": 0.0201}}}