{"type": "Feature","bbox": [-70.5757,18.7135,-70.2171,19.1247],"geometry": {"type": "MultiPolygon","coordinates": [[[[-70.2395,18.8221,323.2058],[-70.2389,18.8369,516.2762],[-70.2328,18.842,440.5647],[-70.2247,18.8455,439.4622],[-70.2243,18.8559,243.3422],[-70.2171,18.8709,186.9778],[-70.2192,18.8763,161.7207],[-70.2267,18.882,130.1258],[-70.2303,18.8932,124.4246],[-70.2485,18.9065,101.506],[-70.2511,18.9114,113.3013],[-70.2497,18.919,148.0597],[-70.2517,18.9234,117.5001],[-70.2584,18.9234,89.7567],[-70.268,18.9273,90.3846],[-70.2833,18.9279,96.667],[-70.2883,18.9305,96.1104],[-70.2965,18.9461,108.048],[-70.302,18.9475,103.7023],[-70.3058,18.9522,109.9022],[-70.3135,18.9538,110.5035],[-70.3164,18.9563,117.6534],[-70.325,18.9704,126.8533],[-70.323,18.98,154.0652],[-70.3265,18.9851,122.8612],[-70.3312,18.9871,147.3252],[-70.3464,18.9878,245.3057],[-70.3623,18.9965,140.2676],[-70.3639,19.0001,141.5765],[-70.3629,19.0048,148.9328],[-70.3661,19.0127,161.0523],[-70.3644,19.0191,172.9912],[-70.365,19.0256,205.927],[-70.387,19.0398,214.5292],[-70.3907,19.0444,218.6046],[-70.3892,19.0467,261.9825],[-70.3744,19.0513,400.6943],[-70.3728,19.0544,346.2228],[-70.3741,19.0595,281.5261],[-70.4023,19.0887,147.6461],[-70.4029,19.0956,152.188],[-70.4006,19.1025,134.5369],[-70.4072,19.1078,167.0298],[-70.413,19.1154,255.3913],[-70.426,19.1247,234.6915],[-70.4326,19.1229,165.3045],[-70.4344,19.1208,167.8646],[-70.4347,19.1161,219.7663],[-70.4407,19.1111,249.364],[-70.4439,19.1047,286.2937],[-70.4644,19.0938,675.868],[-70.4685,19.0952,651.4824],[-70.4762,19.087,648.796],[-70.4831,19.0892,801.7143],[-70.4888,19.0955,846.2439],[-70.493,19.1041,893.3645],[-70.4976,19.1067,998.298],[-70.5039,19.1061,925.371],[-70.5085,19.1017,709.2698],[-70.518,19.1006,664.4144],[-70.5234,19.0962,769.4078],[-70.532,19.0942,1075.7671],[-70.5321,19.0909,1121.6492],[-70.5226,19.0811,1122.2598],[-70.5213,19.0732,1145.3003],[-70.5145,19.057,1229.5046],[-70.516,19.0447,1372.2496],[-70.5126,19.0258,1332.0403],[-70.5074,19.0149,1241.3718],[-70.5097,19.0058,1314.6797],[-70.5079,18.9979,1268.7015],[-70.5126,18.9945,1092.1705],[-70.5274,18.9898,1264.9259],[-70.5317,18.9796,1210.0537],[-70.5391,18.9684,1080.0106],[-70.5432,18.9498,1561.061],[-70.5466,18.9429,1361.625],[-70.5508,18.939,1395.1368],[-70.5589,18.9361,1567.3052],[-70.5616,18.9245,1616.2164],[-70.5741,18.9178,1522.158],[-70.5757,18.9121,1578.5149],[-70.5749,18.8969,1191.6624],[-70.568,18.8908,1015.5276],[-70.5631,18.8799,705.9586],[-70.5583,18.8771,1086.829],[-70.5567,18.8681,1318.9719],[-70.5465,18.8586,1022.7264],[-70.5466,18.8554,1092.4467],[-70.5571,18.8332,1917.8934],[-70.5577,18.8271,2249.7375],[-70.555,18.8223,2275.1145],[-70.546,18.8166,1961.9194],[-70.5378,18.8083,1569.6309],[-70.5374,18.7948,1748.6166],[-70.5232,18.7912,1503.432],[-70.5069,18.7899,1395.9285],[-70.4978,18.7712,1537.3615],[-70.4942,18.7685,1498.1992],[-70.4653,18.7678,886.9076],[-70.4571,18.7597,972.3952],[-70.4465,18.7643,757.5581],[-70.4358,18.7595,788.8745],[-70.4165,18.7643,1103.4939],[-70.4101,18.7597,1194.5823],[-70.4026,18.7595,1052.3076],[-70.4022,18.7515,1098.672],[-70.3872,18.7493,1249.1458],[-70.3737,18.7367,929.8527],[-70.3671,18.7284,1198.524],[-70.3598,18.7252,1113.6346],[-70.3438,18.7244,1022.3702],[-70.3349,18.7215,1134.9015],[-70.3198,18.7135,1088.1492],[-70.3079,18.7191,780.4261],[-70.2947,18.7318,779.5601],[-70.2907,18.7389,614.9294],[-70.2884,18.7505,714.0961],[-70.2959,18.7629,691.5065],[-70.2962,18.7695,488.4604],[-70.2948,18.7733,423.9519],[-70.2856,18.7786,333.9609],[-70.2809,18.7861,309.2033],[-70.2477,18.7988,415.6765],[-70.2403,18.812,494.0153],[-70.2395,18.8221,323.2058]]]]}
,"properties": {"GID_1": "DOM.16_1","GID_0": "DOM","country": "DominicanRepublic","province": "MonseñorNouel","VARNAME_1": "MonsenorNovel","NL_NAME_1": "NA","TYPE_1": "Provincia","ENGTYPE_1": "Province","CC_1": "NA","HASC_1": "DO.MN","ISO_1": "NA","name": "Monseñor_Nouel.province","area_km2": 974.9854,"hist_schema_id": "Elevation0-9000","hist_area_km2": {"100": 13.0768,"125": 42.9463,"150": 65.6193,"175": 89.8991,"200": 68.8918,"225": 48.0376,"250": 37.7299,"275": 28.3257,"300": 25.177,"325": 22.4488,"350": 20.8852,"375": 19.8224,"400": 18.2374,"425": 18.2373,"450": 16.4923,"475": 16.3913,"500": 16.191,"525": 15.3076,"550": 15.9082,"575": 16.1892,"600": 14.8652,"625": 14.4838,"650": 13.6618,"675": 12.9596,"700": 13.3614,"725": 12.4589,"750": 11.5763,"775": 12.5992,"800": 13.8037,"825": 13.2823,"850": 12.5197,"875": 12.3191,"900": 12.4389,"925": 11.5358,"950": 12.2174,"975": 12.2371,"1000": 11.2941,"1025": 10.994,"1050": 10.9542,"1075": 11.0546,"1100": 10.1514,"1125": 9.6094,"1150": 8.4662,"1175": 7.3823,"1200": 6.1786,"1225": 5.5768,"1250": 5.3359,"1275": 4.9748,"1300": 4.7743,"1325": 4.7343,"1350": 3.9119,"1375": 4.1928,"1400": 3.4505,"1425": 3.5108,"1450": 3.5712,"1475": 3.1299,"1500": 2.4276,"1525": 2.4278,"1550": 2.4279,"1575": 1.7857,"1600": 1.4244,"1625": 1.1035,"1650": 1.0833,"1675": 0.8829,"1700": 0.7424,"1725": 0.9631,"1750": 0.5217,"1775": 0.5017,"1800": 0.4214,"1825": 0.4215,"1850": 0.2408,"1875": 0.2609,"1900": 0.5218,"1925": 0.2609,"1950": 0.2007,"1975": 0.2609,"2000": 0.1605,"2025": 0.1605,"2050": 0.1003,"2075": 0.0803,"2100": 0.0201,"2125": 0.0201,"2150": 0.0201,"2175": 0.0401,"2200": 0.0401,"2225": 0.0401,"2250": 0.0401}}}