{"type": "Feature","bbox": [-62.8151,17.9009,-62.7999,17.9106],"geometry": {"type": "MultiPolygon","coordinates": [[[[-62.8055,17.9106,12.4557],[-62.814,17.9104,67.4772],[-62.8151,17.9081,84.4748],[-62.8131,17.9062,118.9429],[-62.8085,17.906,99.1901],[-62.8046,17.9009,151.958],[-62.8023,17.9012,101.808],[-62.7999,17.9031,20.9608],[-62.8038,17.9063,21.3575],[-62.8055,17.9106,12.4557]]]]}
,"properties": {"GID_2": "BLM.1.7_1","GID_0": "BLM","country": "Saint-Barthélemy","GID_1": "BLM.1_1","province": "AuVent","NL_NAME_1": "NA","county": "GrandCul-de-Sac","VARNAME_2": "NA","NL_NAME_2": "NA","TYPE_2": "Quartier","ENGTYPE_2": "Quarter","CC_2": "NA","HASC_2": "NA","name": "Grand_Cul-de-Sac.county","area_km2": 0.7868317,"hist_schema_id": "Elevation0-9000","hist_area_km2": {"0": 0.0605256,"25": 0.1815761,"50": 0.1412251,"75": 0.1614017,"100": 0.2017519,"125": 0.0403513}}}