{"type": "Feature","bbox": [-62.813,17.8916,-62.8006,17.9003],"geometry": {"type": "MultiPolygon","coordinates": [[[[-62.813,17.8958,20.8966],[-62.8089,17.8916,0.0],[-62.8006,17.8952,0.0],[-62.8047,17.9003,186.6543],[-62.8125,17.898,23.0564],[-62.813,17.8958,20.8966]]]]}
,"properties": {"GID_2": "BLM.1.8_1","GID_0": "BLM","country": "Saint-Barthélemy","GID_1": "BLM.1_1","province": "AuVent","NL_NAME_1": "NA","county": "GrandFond","VARNAME_2": "NA","NL_NAME_2": "NA","TYPE_2": "Quartier","ENGTYPE_2": "Quarter","CC_2": "NA","HASC_2": "NA","name": "Grand_Fond.county","area_km2": 0.7465246,"hist_schema_id": "Elevation0-9000","hist_area_km2": {"0": 0.141236,"25": 0.2017643,"50": 0.0605289,"75": 0.1008815,"100": 0.0403527,"125": 0.0201762,"150": 0.0403525,"175": 0.0605283,"200": 0.0403521,"225": 0.0201761,"275": 0.020176}}}