{"type": "Feature","bbox": [-60.9771,13.9613,-60.8732,14.1104],"geometry": {"type": "MultiPolygon","coordinates": [[[[-60.9442,13.9613,410.6504],[-60.9354,13.9696,314.1995],[-60.9313,13.9713,352.6232],[-60.9272,13.9659,187.6891],[-60.92,13.9708,332.702],[-60.911,13.9681,376.399],[-60.9061,13.9641,190.9409],[-60.8932,13.9689,132.0282],[-60.8776,13.9644,0.0],[-60.8732,13.9699,0.0],[-60.8751,13.9729,0.0],[-60.8732,13.9737,0.0],[-60.8732,13.976,0.0],[-60.876,13.9796,4.942],[-60.8746,13.9818,0.0],[-60.8754,13.9888,0.0],[-60.8818,13.9924,37.9318],[-60.8818,13.9957,4.9158],[-60.8835,13.9965,16.5926],[-60.8871,14.006,0.0],[-60.8838,14.0143,12.0331],[-60.8849,14.0179,0.0],[-60.8893,14.0185,19.0247],[-60.8871,14.0226,0.0],[-60.8871,14.0288,0.0],[-60.8907,14.0307,0.0],[-60.8963,14.0307,3.8705],[-60.891,14.0335,0.0],[-60.8907,14.0357,0.0],[-60.8965,14.0396,6.4736],[-60.8879,14.039,3.0346],[-60.8862,14.0485,0.0],[-60.8832,14.0518,0.0],[-60.889,14.0568,0.0],[-60.8918,14.0615,18.5187],[-60.896,14.0635,30.2804],[-60.8963,14.0654,3.6686],[-60.9007,14.0671,0.0],[-60.904,14.0649,60.4945],[-60.9065,14.0657,0.0],[-60.9124,14.061,2.6814],[-60.9115,14.0646,1.2495],[-60.9129,14.066,10.9296],[-60.9104,14.0682,12.3821],[-60.9121,14.0735,0.0],[-60.9079,14.0738,0.0],[-60.909,14.0763,1.2385],[-60.9129,14.0765,4.5439],[-60.9104,14.0801,6.2133],[-60.9129,14.0807,0.0],[-60.9154,14.0776,2.6173],[-60.9179,14.0771,0.0],[-60.9215,14.0804,10.4763],[-60.9204,14.0821,0.0],[-60.9224,14.086,0.0],[-60.9274,14.086,4.9956],[-60.9282,14.0879,0.7298],[-60.9271,14.0913,4.9231],[-60.9168,14.0924,20.0994],[-60.9171,14.0949,11.5334],[-60.9185,14.0951,18.7242],[-60.9188,14.0993,10.3608],[-60.9174,14.101,2.1507],[-60.9185,14.1035,18.1942],[-60.9221,14.1038,0.0],[-60.9249,14.1068,10.4072],[-60.929,14.1046,9.3971],[-60.9301,14.1076,0.0],[-60.9338,14.1085,11.7635],[-60.941,14.1074,13.5991],[-60.9451,14.1104,9.272],[-60.9454,14.1085,41.0952],[-60.9479,14.1076,0.0],[-60.9476,14.1026,11.2393],[-60.9512,14.0996,21.5972],[-60.9507,14.0968,7.3572],[-60.9543,14.0965,7.9319],[-60.9546,14.0926,3.4524],[-60.9668,14.0951,3.363],[-60.9671,14.0901,0.0],[-60.9615,14.0921,3.8077],[-60.9554,14.0876,6.199],[-60.954,14.0776,1.013],[-60.9576,14.0712,6.2292],[-60.9632,14.0724,0.0],[-60.9674,14.0682,0.0],[-60.971,14.0685,5.3266],[-60.9729,14.0665,0.0],[-60.9735,14.0685,0.0],[-60.9757,14.0682,6.1707],[-60.9749,14.0618,21.7032],[-60.9771,14.0615,0.0],[-60.9771,14.0585,0.0],[-60.9743,14.0574,2.6335],[-60.9754,14.0529,9.3761],[-60.9729,14.0485,0.0],[-60.9726,14.0383,0.0],[-60.9604,14.0275,36.8525],[-60.9568,14.0169,37.4819],[-60.9535,14.015,42.5382],[-60.9386,14.0125,217.2261],[-60.9281,13.996,38.6686],[-60.9301,13.9883,110.1672],[-60.9418,13.9817,142.8753],[-60.9433,13.9767,183.7091],[-60.9485,13.9735,260.5199],[-60.9488,13.9699,308.0823],[-60.9442,13.9613,410.6504]]]]}
,"properties": {"GID_1": "LCA.6_1","GID_0": "LCA","country": "SaintLucia","province": "GrosIslet","VARNAME_1": "NA","NL_NAME_1": "NA","TYPE_1": "Quarter","ENGTYPE_1": "Quarter","CC_1": "NA","HASC_1": "LC.GI","ISO_1": "LC-06","name": "Gros_Islet.province","area_km2": 100.87288,"hist_schema_id": "Elevation0-9000","hist_area_km2": {"0": 10.4687,"25": 17.05054,"50": 13.18428,"75": 10.51079,"100": 9.35915,"125": 7.69328,"150": 6.68544,"175": 5.59523,"200": 4.31985,"225": 3.47656,"250": 2.42752,"275": 1.93386,"300": 1.99554,"325": 1.46073,"350": 1.25498,"375": 1.17269,"400": 0.69952,"425": 0.39092,"450": 0.2469,"475": 0.2469,"500": 0.18518,"525": 0.20575,"550": 0.10287,"575": 0.04115,"600": 0.06172,"625": 0.06172,"650": 0.04115}}}