{"type":"Feature","properties":{"ISO3166-1-Alpha-3":"LCA","country":"Saint Lucia","fill":"#00F","id":"5081","name":"Gros Islet"},
"geometry":{"type": "Polygon","coordinates": [[[-60.90103,14.07339,0.0],[-60.91194,14.07949,6.2133],[-60.91861,14.08845,0.0],[-60.91413,14.1057,0.0],[-60.93346,14.11188,0.0],[-60.94762,14.10228,11.2393],[-60.97208,14.0681,0.0],[-60.97606,14.06118,21.7032],[-60.97997,14.043519999999999,0.0],[-60.96559,14.03442,19.8392],[-60.95807,14.02188,43.3076],[-60.93559,14.01796,287.5096],[-60.933,14.03692,163.4048],[-60.92799,14.05322,45.1799],[-60.91546,14.06449,44.9162],[-60.90103,14.07339,0.0]]]}}