{"type": "Feature","id": "5146","bbox": [-63.11889,18.01911,-63.01757,18.06211],"geometry": {"type": "Polygon","coordinates": [[[-63.01757,18.03339,0.0],[-63.08589,18.05851,15.6285],[-63.107,18.06211,0.0],[-63.107,18.05948,3.5215],[-63.11889,18.0515,7.8583],[-63.11217,18.04304,2.06],[-63.09765,18.03596,0.0],[-63.03063,18.01911,97.315],[-63.01757,18.03339,0.0]]]}
,"properties": {"ISO3166-1-Alpha-3": "SXM","country": "Sint Maarten","fill": "#F0F","name": "Sint Maarten","area_km2": 23.48622,"hist_schema_id": "Elevation0-9000","hist_area_km2": {"0": 12.01517,"25": 4.05216,"50": 1.73377,"75": 1.51201,"100": 1.39106,"125": 0.62497,"150": 0.72576,"175": 0.32255,"200": 0.40319,"225": 0.22175,"250": 0.30239,"275": 0.1008,"300": 0.06048,"325": 0.02016}}}