{"type": "Feature","bbox": [-70.0641,19.4701,-69.8685,19.6838],"geometry": {"type": "MultiPolygon","coordinates": [[[[-70.026,19.6792,9.9851],[-70.0143,19.6765,20.6361],[-70.0017,19.6762,40.4729],[-69.9991,19.6608,155.688],[-70.0043,19.6527,228.6255],[-70.0051,19.6405,230.3498],[-70.0082,19.6342,248.353],[-70.0162,19.6299,272.6631],[-70.0264,19.6123,233.092],[-70.0371,19.6041,166.6997],[-70.0466,19.6022,142.4373],[-70.0505,19.5958,101.6467],[-70.0574,19.5917,83.3165],[-70.0562,19.583,70.4516],[-70.0591,19.5787,67.6046],[-70.0632,19.5771,76.7405],[-70.0641,19.5736,75.1635],[-70.061,19.5691,74.3183],[-70.0533,19.5639,64.5214],[-70.0506,19.5537,56.1481],[-70.0461,19.5502,59.2297],[-70.0383,19.5486,42.3544],[-70.0323,19.5394,33.6061],[-70.0206,19.5344,24.7713],[-70.0183,19.5233,32.8178],[-70.0086,19.5202,18.3147],[-70.0015,19.5102,15.4119],[-69.9942,19.5072,22.2632],[-69.9842,19.5083,10.8277],[-69.9815,19.5038,7.9257],[-69.9809,19.4954,8.3364],[-69.9794,19.4933,8.7191],[-69.9535,19.4896,3.3918],[-69.9461,19.4868,4.0747],[-69.943,19.4837,6.9587],[-69.9397,19.4759,6.1947],[-69.9332,19.4704,3.7651],[-69.9254,19.4701,3.5356],[-69.9123,19.4776,2.5045],[-69.8913,19.4829,6.2027],[-69.8729,19.4801,1.0985],[-69.8712,19.4979,0.0],[-69.8729,19.5021,3.8079],[-69.8685,19.509,0.0],[-69.8737,19.5115,2.874],[-69.874,19.5129,3.3667],[-69.8718,19.5124,0.0],[-69.8718,19.5135,0.0],[-69.8768,19.5168,0.0],[-69.884,19.5174,0.0],[-69.8887,19.5204,5.9572],[-69.8879,19.5226,0.0],[-69.8929,19.5293,0.0],[-69.8968,19.5296,7.3403],[-69.9046,19.5468,0.0],[-69.904,19.5507,0.9154],[-69.8982,19.5554,0.0],[-69.8979,19.5571,0.0],[-69.8996,19.5571,4.7463],[-69.8949,19.564,0.0],[-69.8957,19.5685,0.0],[-69.8943,19.5735,0.0],[-69.8968,19.5779,5.6665],[-69.8943,19.5779,0.0],[-69.8929,19.5874,3.1781],[-69.8863,19.5949,8.8372],[-69.8835,19.6054,0.0],[-69.8857,19.6176,0.0],[-69.8913,19.626,2.7419],[-69.8949,19.6354,1.9398],[-69.8976,19.6379,8.4699],[-69.8999,19.6454,0.0],[-69.9068,19.6485,2.8094],[-69.9096,19.6471,0.0],[-69.9112,19.6496,1.6256],[-69.9143,19.6482,4.1423],[-69.921,19.6557,0.0],[-69.9265,19.6518,54.1477],[-69.9299,19.653199999999998,28.4038],[-69.9357,19.6582,27.0287],[-69.9362,19.6621,0.0],[-69.9379,19.6624,0.0],[-69.9357,19.6654,3.5116],[-69.9362,19.6671,0.0],[-69.9421,19.6676,16.0758],[-69.9451,19.6746,0.0],[-69.9526,19.6749,13.2493],[-69.9543,19.6776,2.0904],[-69.9618,19.6812,0.0],[-69.9657,19.6804,17.9569],[-69.9662,19.6821,0.0],[-69.9693,19.6824,0.0],[-69.974,19.6804,13.7949],[-69.9779,19.6832,4.8734],[-69.9821,19.6832,10.3831],[-69.9885,19.681,8.0105],[-69.9887,19.6835,0.0],[-69.991,19.6838,0.0],[-69.9938,19.6787,40.452],[-69.9993,19.6779,29.86],[-70.0043,19.6801,8.9592],[-70.0051,19.6785,22.9325],[-70.0093,19.6776,8.442],[-70.0168,19.6779,11.6665],[-70.0176,19.6812,0.0],[-70.0218,19.6812,0.0],[-70.0221,19.6793,0.0],[-70.0249,19.681,0.0],[-70.026,19.6792,9.9851]]]]}
,"properties": {"GID_2": "DOM.15.1_1","GID_0": "DOM","country": "DominicanRepublic","GID_1": "DOM.15_1","province": "MaríaTrinidadSánchez","NL_NAME_1": "NA","county": "Cabrera","VARNAME_2": "NA","NL_NAME_2": "NA","TYPE_2": "Municipio","ENGTYPE_2": "Municipality","CC_2": "NA","HASC_2": "DO.MT.CA","name": "Cabrera.county","area_km2": 287.2056,"hist_schema_id": "Elevation0-9000","hist_area_km2": {"0": 56.9355,"25": 50.0461,"50": 28.5087,"75": 20.056,"100": 14.2024,"125": 12.1634,"150": 13.5214,"175": 13.4809,"200": 13.5214,"225": 12.3629,"250": 11.0247,"275": 12.6023,"300": 10.3855,"325": 8.628,"350": 5.792,"375": 2.7563,"400": 0.8189,"425": 0.3995}}}