{"type":"Feature","properties":{"GID_1":"DOM.7_1","GID_0":"DOM","country":"DominicanRepublic","province":"ElSeybo","VARNAME_1":"ElSeibo","NL_NAME_1":"NA","TYPE_1":"Provincia","ENGTYPE_1":"Province","CC_1":"NA","HASC_1":"DO.SE","ISO_1":"NA","name":"El_Seybo.province"},
"geometry":{"type": "MultiPolygon","coordinates": [[[[-68.8352,18.8991,192.8685],[-68.8417,18.8994,143.3891],[-68.8421,18.9068,168.1],[-68.8375,18.9121,110.0778],[-68.8192,18.923,50.4055],[-68.8187,18.9329,44.407],[-68.8211,18.94,40.8373],[-68.8195,18.9435,32.1381],[-68.8073,18.9523,25.9142],[-68.8011,18.9601,25.9203],[-68.7919,18.9582,18.6412],[-68.788,18.9592,4.6576],[-68.7864,18.9625,5.1266],[-68.7885,18.9673,0.3347],[-68.7878,18.9701,1.9822],[-68.7851,18.971,0.5435],[-68.7784,18.9673,6.1094],[-68.7765,18.9735,5.0555],[-68.7838,18.9749,7.8638],[-68.7957,18.9813,2.9932],[-68.8079,18.9826,0.0],[-68.8132,18.9807,3.1735],[-68.8274,18.9879,8.17],[-68.8354,18.9951,4.6317],[-68.8501,18.9965,4.7009],[-68.8557,18.9918,4.0834],[-68.8637,18.9915,3.1984],[-68.8729,18.9957,0.7668],[-68.8771,19.0001,0.0],[-68.9076,19.0193,1.7573],[-68.916,19.0263,1.8893],[-68.9207,19.0282,1.4337],[-68.929,19.0271,0.0],[-68.9418,19.0315,4.4709],[-68.9482,19.0315,0.0],[-68.954,19.026,1.7545],[-68.9693,19.0312,0.0],[-68.9696,19.0296,5.9428],[-68.9793,19.0249,0.0],[-68.9776,19.0215,0.0],[-68.9799,19.0168,7.2085],[-68.9857,19.0138,0.0],[-68.9965,19.014,1.696],[-69.0001,19.0154,5.9599],[-69.0035,19.0193,0.0],[-69.014,19.0149,1.6757],[-69.0143,19.0113,0.0],[-69.0076,19.0065,0.8933],[-69.0026,19.0001,0.0],[-69.0043,18.9938,0.898],[-69.0115,18.9882,2.6145],[-69.0254,18.9851,2.9783],[-69.0349,18.9851,5.9172],[-69.0424,18.9876,0.385],[-69.0446,18.986,0.0],[-69.0593,18.9857,0.0],[-69.0632,18.9843,6.8003],[-69.0687,18.9876,0.0],[-69.074,18.9865,11.1773],[-69.0835,18.9963,3.4316],[-69.0862,18.9946,5.438],[-69.0957,18.999,0.0],[-69.0993,19.0107,0.9174],[-69.1085,19.0099,4.586],[-69.1154,19.0115,6.2165],[-69.1215,19.0193,0.0],[-69.126,19.0304,5.1364],[-69.131,19.0354,6.3234],[-69.134,19.0413,1.1638],[-69.1465,19.0438,0.0],[-69.1551,19.0371,0.8779],[-69.1504,19.0396,2.3749],[-69.1432,19.0401,0.342],[-69.139,19.0365,2.6985],[-69.1363,19.0279,1.3653],[-69.1354,19.0124,0.0],[-69.1368,19.0049,4.4924],[-69.1404,18.999,4.9915],[-69.1454,18.9968,3.4923],[-69.1515,18.9999,6.222],[-69.1521,19.0024,6.4385],[-69.149,19.0071,0.0],[-69.1526,19.0076,0.5551],[-69.1543,19.0129,0.7823],[-69.1585,19.0113,1.176],[-69.1632,19.0129,2.4315],[-69.1671,19.0096,4.8061],[-69.1859,19.0062,4.4675],[-69.1815,18.9984,13.0374],[-69.1809,18.9755,54.1388],[-69.177,18.968,82.927],[-69.1642,18.9532,257.3956],[-69.1387,18.9393,455.8144],[-69.1202,18.9238,537.5638],[-69.131,18.9185,486.407],[-69.1465,18.9158,417.9263],[-69.154,18.9178,416.2595],[-69.1677,18.9184,419.94],[-69.1936,18.9277,378.6908],[-69.2041,18.9378,294.4041],[-69.2205,18.938,380.2681],[-69.2324,18.9338,327.8447],[-69.2371,18.9362,316.383],[-69.2429,18.9456,285.3614],[-69.2493,18.9489,336.2699],[-69.2606,18.9501,279.0443],[-69.2923,18.9596,234.2092],[-69.2952,18.9523,226.3815],[-69.301,18.9452,76.4872],[-69.3171,18.9413,146.2496],[-69.3205,18.9385,158.5041],[-69.3212,18.9164,285.8939],[-69.3234,18.9092,329.8677],[-69.3187,18.9001,364.6165],[-69.3236,18.8924,320.5459],[-69.3197,18.8844,236.3793],[-69.3078,18.8757,223.7641],[-69.2982,18.8762,231.1671],[-69.287,18.8721,251.9176],[-69.2847,18.8598,303.1877],[-69.2787,18.8462,326.0208],[-69.2736,18.8458,332.4729],[-69.2657,18.8523,288.7809],[-69.2625,18.8517,299.7011],[-69.2531,18.8359,188.9094],[-69.2518,18.8178,148.5629],[-69.2405,18.812,141.657],[-69.2306,18.8111,117.8197],[-69.2266,18.8092,121.2022],[-69.2124,18.7924,101.0176],[-69.203,18.7777,95.8321],[-69.2016,18.767,88.175],[-69.1971,18.7608,76.2851],[-69.1964,18.757,116.5785],[-69.2011,18.7534,126.224],[-69.2,18.7465,100.1892],[-69.2072,18.7376,81.3866],[-69.2065,18.7317,75.5773],[-69.2085,18.7268,70.2212],[-69.2145,18.7166,58.7675],[-69.2196,18.7116,51.7959],[-69.22,18.693,44.5543],[-69.2228,18.6841,42.3731],[-69.2229,18.6759,43.1234],[-69.2174,18.6753,50.9785],[-69.2143,18.672,60.7191],[-69.2135,18.6435,68.191],[-69.2087,18.6417,57.4367],[-69.1888,18.642,52.5568],[-69.1853,18.6408,58.1261],[-69.1828,18.6324,61.5043],[-69.1758,18.6252,44.1154],[-69.1559,18.6141,10.055],[-69.1539,18.6063,23.0621],[-69.1494,18.5981,42.7514],[-69.1516,18.5911,18.552],[-69.1497,18.5882,28.8962],[-69.1468,18.5885,44.9553],[-69.1417,18.5931,52.534],[-69.1297,18.5963,49.438],[-69.1154,18.5961,72.4408],[-69.1062,18.5934,71.9748],[-69.067,18.5927,78.2305],[-69.066,18.5912,78.413],[-69.0671,18.581,76.1356],[-69.0775,18.5755,70.3688],[-69.0801,18.5706,62.9885],[-69.0788,18.565,68.4767],[-69.0801,18.5569,63.9601],[-69.0779,18.5495,74.9613],[-69.08,18.5438,61.9299],[-69.0796,18.537,67.6676],[-69.0779,18.5339,76.3834],[-69.0691,18.5339,78.2067],[-69.0596,18.5372,59.9938],[-69.0488,18.5455,73.9925],[-69.0368,18.5611,77.4152],[-69.0339,18.5716,66.2344],[-69.0127,18.5836,74.638],[-68.9983,18.6003,89.0329],[-68.983,18.6262,93.2502],[-68.9787,18.6444,106.6345],[-68.9736,18.6499,112.5104],[-68.9709,18.6582,120.7868],[-68.9732,18.6659,137.6864],[-68.9717,18.67,130.1776],[-68.968,18.6711,134.8694],[-68.9606,18.669,107.9849],[-68.951,18.6712,162.4179],[-68.9408,18.6679,103.2902],[-68.9337,18.6632,102.4478],[-68.9259,18.6643,65.7841],[-68.921,18.6747,118.1204],[-68.924,18.6782,130.7324],[-68.9319,18.6828,85.0895],[-68.9342,18.6875,74.7462],[-68.9311,18.6936,95.0431],[-68.926,18.6985,80.4996],[-68.926,18.7062,115.735],[-68.9305,18.7104,83.4189],[-68.9309,18.7125,82.9296],[-68.9277,18.7195,93.7212],[-68.9218,18.7267,114.7341],[-68.8915,18.7327,311.4288],[-68.8824,18.7248,193.0394],[-68.8717,18.7281,172.6932],[-68.8654,18.7338,184.8067],[-68.8528,18.7515,235.5583],[-68.8572,18.7618,303.1846],[-68.8492,18.7726,353.1815],[-68.8502,18.78,256.056],[-68.8391,18.7844,183.0097],[-68.8267,18.7946,385.1977],[-68.8207,18.7972,216.681],[-68.811,18.7981,553.2327],[-68.8046,18.8055,496.0377],[-68.8043,18.8114,468.8618],[-68.8121,18.826,346.787],[-68.8135,18.8328,364.8372],[-68.808,18.840699999999998,497.3151],[-68.8265,18.8734,339.7693],[-68.8251,18.8832,184.0321],[-68.8298,18.8865,295.029],[-68.8311,18.896,238.7628],[-68.8352,18.8991,192.8685]]],
[[[-68.7764,18.9743,0.0],[-68.7765,18.9743,0.0],[-68.7765,18.9735,5.0555],[-68.7764,18.9743,0.0]]],
[[[-69.1701,19.016,0.0],[-69.1729,19.016,0.0],[-69.1743,19.0143,0.0],[-69.1679,19.0146,0.0],[-69.1701,19.016,0.0]]]]}}