{"type": "Feature","bbox": [-64.8501,18.4276,-64.7063,18.4596],"geometry": {"type": "MultiPolygon","coordinates": [[[[-64.8429,18.4326,0.0],[-64.8446,18.4332,0.0],[-64.8493,18.4307,0.0],[-64.8501,18.4287,4.498],[-64.8454,18.4276,12.0454],[-64.8429,18.4326,0.0]]],
[[[-64.8251,18.4521,0.0],[-64.8304,18.4501,0.0],[-64.8274,18.4454,13.4797],[-64.829,18.4404,0.0],[-64.8271,18.439,10.8116],[-64.8193,18.4415,3.7551],[-64.8251,18.4521,0.0]]],
[[[-64.7535,18.4582,8.1123],[-64.7585,18.4574,0.0],[-64.7588,18.4532,0.0],[-64.7618,18.4529,0.0],[-64.7618,18.4501,23.6682],[-64.7693,18.4493,0.0],[-64.7704,18.4454,73.2337],[-64.7782,18.4463,5.6307],[-64.7812,18.4435,0.0],[-64.7796,18.441,1.4526],[-64.776,18.4399,0.0],[-64.7682,18.4396,0.0],[-64.7654,18.4426,2.4099],[-64.7596,18.4421,21.6608],[-64.7582,18.4385,0.0],[-64.7557,18.4374,6.8268],[-64.7538,18.4385,0.0],[-64.7538,18.4424,0.0],[-64.7515,18.4446,0.0],[-64.7449,18.4376,8.3116],[-64.7368,18.4349,0.0],[-64.7307,18.4363,13.376],[-64.7304,18.439,0.0],[-64.7282,18.4399,0.0],[-64.724,18.4368,0.0],[-64.7207,18.4371,0.0],[-64.7215,18.444,11.0832],[-64.7254,18.444,29.6135],[-64.7279,18.4465,21.4773],[-64.7254,18.4488,0.3726],[-64.7282,18.4518,2.2487],[-64.7285,18.4546,0.0],[-64.7332,18.4551,52.9517],[-64.7351,18.4571,0.0],[-64.7418,18.4554,98.7467],[-64.7479,18.4582,0.0],[-64.7535,18.4582,8.1123]]],
[[[-64.7082,18.4368,4.9294],[-64.711,18.4368,0.8682],[-64.7107,18.4349,0.0],[-64.7063,18.4354,0.0],[-64.7082,18.4368,4.9294]]],
[[[-64.7079,18.4549,5.9195],[-64.7099,18.4551,7.1977],[-64.7093,18.4513,0.0],[-64.7074,18.4521,7.4239],[-64.7079,18.4549,5.9195]]],
[[[-64.719,18.4585,0.0],[-64.7213,18.4596,0.0],[-64.7237,18.4582,0.0],[-64.7232,18.4562,40.5268],[-64.7268,18.4565,2.0065],[-64.7257,18.4513,0.0],[-64.7187,18.4504,0.0],[-64.7162,18.4529,7.2628],[-64.7107,18.4529,2.1976],[-64.7124,18.4549,1.9959],[-64.7201,18.4565,32.1106],[-64.719,18.4585,0.0]]]]}
,"properties": {"GID_1": "VGB.2_1","GID_0": "VGB","country": "BritishVirginIslands","province": "JostVanDyke","VARNAME_1": "NA","NL_NAME_1": "NA","TYPE_1": "District","ENGTYPE_1": "District","CC_1": "NA","HASC_1": "NA","ISO_1": "NA","name": "Jost_Van_Dyke.province","area_km2": 11.283291,"hist_schema_id": "Elevation0-9000","hist_area_km2": {"0": 1.95095,"25": 1.548687,"50": 1.468253,"75": 1.226883,"100": 1.086091,"125": 1.025757,"150": 0.603385,"175": 0.623493,"200": 0.563155,"225": 0.422363,"250": 0.382137,"275": 0.301687,"300": 0.08045}}}