{"type": "Feature","bbox": [-61.5363,16.286,-61.4018,16.3567],"geometry": {"type": "MultiPolygon","coordinates": [[[[-61.4268,16.3389,29.6236],[-61.4294,16.3424,26.5096],[-61.4356,16.3389,20.2867],[-61.451,16.3567,26.2962],[-61.4792,16.3519,6.803],[-61.4938,16.3539,4.5428],[-61.4993,16.3518,2.6924],[-61.5049,16.3518,0.3914],[-61.5076,16.351,0.0],[-61.5071,16.3499,5.8309],[-61.5104,16.3501,2.5761],[-61.5054,16.346,0.0],[-61.5057,16.3454,2.0526],[-61.5074,16.3462,0.0],[-61.5082,16.3421,1.0677],[-61.5096,16.3435,0.4886],[-61.521,16.3438,0.0],[-61.5232,16.3462,0.0],[-61.5265,16.3396,2.3411],[-61.5301,16.3399,0.0],[-61.5288,16.3374,3.6617],[-61.5357,16.3315,1.2038],[-61.5335,16.3229,3.6737],[-61.5363,16.3187,0.3582],[-61.5343,16.3163,1.2017],[-61.5354,16.3128,4.1837],[-61.5081,16.3009,6.8383],[-61.4986,16.3051,14.7191],[-61.4637,16.2998,63.8213],[-61.4478,16.286,79.8173],[-61.4415,16.2876,63.7598],[-61.4414,16.2912,68.4913],[-61.4283,16.308,56.7498],[-61.4185,16.3038,53.6406],[-61.4018,16.3104,26.7246],[-61.4068,16.3304,35.2429],[-61.4211,16.3309,21.0556],[-61.4268,16.3389,29.6236]]],
[[[-61.5254,16.3512,0.0],[-61.5307,16.3501,0.0],[-61.5243,16.3479,0.0],[-61.5235,16.3493,0.6889],[-61.5254,16.3512,0.0]]]]}
,"properties": {"GID_2": "GLP.2.8_1","GID_0": "GLP","country": "Guadeloupe","GID_1": "GLP.2_1","province": "Pointe-à-Pitre","NL_NAME_1": "NA","county": "Morne-à-L'eau","VARNAME_2": "NA","NL_NAME_2": "NA","TYPE_2": "Chef-lieucanton","ENGTYPE_2": "Commune","CC_2": "95","HASC_2": "NA","name": "Morne-à-L'eau.county","area_km2": 67.89954,"hist_schema_id": "Elevation0-9000","hist_area_km2": {"0": 28.01736,"25": 25.29189,"50": 8.30227,"75": 5.77925,"100": 0.50876}}}