{"type":"Feature","properties":{"GID_3":"HTI.5.2.1_1","GID_0":"HTI","country":"Haiti","GID_1":"HTI.5_1","province":"Nord-Est","NL_NAME_1":"NA","GID_2":"HTI.5.2_1","county":"leTrou-du-Nord","NL_NAME_2":"NA","city":"Caracol","VARNAME_3":"NA","NL_NAME_3":"NA","TYPE_3":"Commune","ENGTYPE_3":"Commune","CC_3":"NA","HASC_3":"NA","name":"Caracol.city"},
"geometry":{"type": "MultiPolygon","coordinates": [[[[-72.01,19.6397,25.8216],[-72.0071,19.6361,26.3985],[-71.9945,19.651,23.6834],[-71.9834,19.6479,31.8961],[-71.9788,19.668,8.9933],[-71.976,19.6676,10.3284],[-71.9739,19.6713,7.9472],[-71.9614,19.6704,12.6802],[-71.9581,19.6878,8.4024],[-71.969,19.702,0.5488],[-71.9666,19.7041,1.1147],[-71.9525,19.7081,1.0508],[-71.9457,19.7076,0.5516],[-71.9386,19.712,0.6952],[-71.9311,19.7124,0.7892],[-71.9248,19.7153,0.5607],[-71.9248,19.7223,0.8544],[-71.9205,19.7265,0.9035],[-71.929,19.7269,3.2082],[-71.9398,19.7302,1.0717],[-71.9478,19.7269,0.2936],[-71.9615,19.7346,0.2458],[-71.9676,19.7357,0.0],[-71.9818,19.7326,0.9159],[-71.9871,19.7337,0.748],[-71.9896,19.7315,0.2721],[-71.9861,19.7318,0.3707],[-71.9846,19.7293,0.6632],[-71.9901,19.7301,0.862],[-71.9924,19.726,0.0],[-71.9901,19.7049,0.4172],[-71.9929,19.6985,0.6134],[-71.9962,19.6985,0.7793],[-72.0001,19.7007,0.9155],[-72.004,19.7062,0.0],[-72.0071,19.7065,0.5765],[-72.0074,19.7015,1.4338],[-72.0096,19.6996,2.2539],[-72.0165,19.6988,0.0],[-72.0193,19.6968,0.5038],[-72.0337,19.7009,0.0],[-72.0415,19.7001,0.4137],[-72.0385,19.6979,0.0],[-72.0393,19.6932,0.2831],[-72.0428,19.6937,0.273],[-72.0501,19.6897,0.3382],[-72.0532,19.6899,0.7499],[-72.0526,19.6932,0.0],[-72.0568,19.6957,0.0],[-72.0628,19.6853,1.4555],[-72.0586,19.6758,6.2587],[-72.0589,19.6715,8.5741],[-72.0612,19.6627,15.9372],[-72.0665,19.6556,22.5146],[-72.0481,19.6485,20.8865],[-72.0445,19.6441,21.385],[-72.0173,19.6422,25.9889],[-72.0119,19.6406,29.8221],[-72.0114,19.6421,24.1353],[-72.01,19.6397,25.8216]]],
[[[-72.0479,19.6971,0.0],[-72.0499,19.6963,0.0],[-72.0504,19.694,0.3652],[-72.0485,19.694,0.0],[-72.0479,19.6971,0.0]]]]}}