{"type": "Feature","id": "1980","bbox": [-69.63784,18.52197,-69.18954,19.11115],"geometry": {"type": "Polygon","coordinates": [[[-69.21174,19.02098,0.0],[-69.3046,19.04487,0.0],[-69.33898,19.0489,0.0],[-69.35607,19.05321,0.0],[-69.37295,19.06538,0.0],[-69.38671,19.0961,0.0],[-69.40445,19.10847,0.0],[-69.41999,19.11115,0.0],[-69.47338,19.10847,0.0],[-69.47338,19.10163,0.0],[-69.46231,19.10029,0.0],[-69.45275,19.09691,2.3425],[-69.44473,19.09235,0.0],[-69.43863,19.08735,3.4745],[-69.46345,19.0847,0.0],[-69.51049,19.10204,0.0],[-69.53425,19.09479,0.0],[-69.55329,19.10147,0.0],[-69.60847,19.09345,0.0],[-69.62088,19.10196,0.0],[-69.62089,19.10196,0.0],[-69.62156,19.09457,0.0],[-69.61864,19.06793,98.2431],[-69.62445,19.03747,206.6509],[-69.63784,19.00889,299.7121],[-69.59166,18.96972,316.0252],[-69.53472,18.94236,314.4589],[-69.48451,18.91874,309.8566],[-69.4356,18.89327,308.952],[-69.39935,18.88877,324.7965],[-69.38088,18.87112,270.0868],[-69.39992,18.85862,252.9469],[-69.42046,18.84655,242.5578],[-69.44131,18.82588,180.6579],[-69.45911,18.80257,123.8607],[-69.45917,18.76792,79.9933],[-69.44126,18.73627,59.6777],[-69.43558,18.69483,37.4782],[-69.42855,18.65411,28.5305],[-69.40576,18.62111,9.5691],[-69.38292,18.58812,18.7727],[-69.36899,18.55473,10.9377],[-69.35375,18.52197,35.017],[-69.3253,18.55378,12.2185],[-69.3039,18.58024,24.4296],[-69.28768,18.61757,37.3865],[-69.25357,18.64023,39.1129],[-69.24153,18.67713,52.6736],[-69.22419,18.71511,58.0371],[-69.21983,18.7578,115.5153],[-69.23528,18.79795,128.3334],[-69.29264,18.85453,291.8982],[-69.32855,18.92406,255.4988],[-69.27199,18.9336,162.4911],[-69.18954,18.91528,342.6656],[-69.21706,18.96238,53.7339],[-69.21233,19.01706,8.0181],[-69.21228,19.01737,0.0],[-69.21174,19.02098,0.0]]]}
,"properties": {"ISO3166-1-Alpha-3": "DOM","country": "Dominican Republic","fill": "#FF0","name": "Hato Mayor","area_km2": 1384.672,"hist_schema_id": "Elevation0-9000","hist_area_km2": {"0": 121.614,"25": 186.082,"50": 197.448,"75": 139.318,"100": 99.018,"125": 77.609,"150": 66.503,"175": 80.441,"200": 85.054,"225": 72.397,"250": 71.477,"275": 76.032,"300": 65.964,"325": 28.724,"350": 10.251,"375": 4.433,"400": 1.866,"425": 0.441}}}