{"type":"Feature","properties":{"GID_1":"DOM.9_1","GID_0":"DOM","country":"DominicanRepublic","province":"HatoMayor","VARNAME_1":"HatoMajor","NL_NAME_1":"NA","TYPE_1":"Provincia","ENGTYPE_1":"Province","CC_1":"NA","HASC_1":"DO.HM","ISO_1":"DO-30","name":"Hato_Mayor.province"},
"geometry":{"type": "MultiPolygon","coordinates": [[[[-69.3197,18.8844,236.3793],[-69.3236,18.8924,320.5459],[-69.3187,18.9001,364.6165],[-69.3234,18.9092,329.8677],[-69.3212,18.9164,285.8939],[-69.3205,18.9385,158.5041],[-69.3171,18.9413,146.2496],[-69.301,18.9452,76.4872],[-69.2952,18.9523,226.3815],[-69.2923,18.9596,234.2092],[-69.2606,18.9501,279.0443],[-69.2493,18.9489,336.2699],[-69.2429,18.9456,285.3614],[-69.2371,18.9362,316.383],[-69.2324,18.9338,327.8447],[-69.2205,18.938,380.2681],[-69.2041,18.9378,294.4041],[-69.1936,18.9277,378.6908],[-69.1677,18.9184,419.94],[-69.154,18.9178,416.2595],[-69.1465,18.9158,417.9263],[-69.131,18.9185,486.407],[-69.1202,18.9238,537.5638],[-69.1387,18.9393,455.8144],[-69.1642,18.9532,257.3956],[-69.1778,18.9691,135.6346],[-69.1812,18.9769,54.1388],[-69.1815,18.9984,13.0374],[-69.1859,19.0062,4.4675],[-69.1837,19.009,0.89],[-69.174,19.0113,0.0],[-69.1787,19.0124,0.0],[-69.1837,19.0113,0.0],[-69.1851,19.0132,1.495],[-69.184,19.0165,0.0],[-69.1899,19.0115,0.5145],[-69.1901,19.0093,0.9173],[-69.1946,19.011,0.0],[-69.2038,19.0076,5.8302],[-69.2057,19.009,7.8884],[-69.2057,19.0143,1.491],[-69.2146,19.0176,1.3461],[-69.2171,19.0226,0.0],[-69.2221,19.0246,6.9529],[-69.2232,19.0276,0.0],[-69.2276,19.0263,1.4435],[-69.2307,19.0276,0.0],[-69.2376,19.024,4.328],[-69.2424,19.0243,0.0],[-69.2579,19.0163,4.1486],[-69.2618,19.016,0.0],[-69.2715,19.0224,0.0],[-69.274,19.0263,4.5631],[-69.279,19.0276,0.0],[-69.2801,19.031,0.0],[-69.2965,19.0349,4.2339],[-69.299,19.0379,0.0],[-69.2985,19.0407,0.0],[-69.3001,19.0418,12.5051],[-69.3029,19.041,3.7655],[-69.3068,19.0471,0.0],[-69.3104,19.0488,0.0],[-69.3243,19.0479,0.0],[-69.3329,19.0435,2.4693],[-69.3424,19.0435,4.3816],[-69.3476,19.0496,2.446],[-69.3524,19.0496,3.779],[-69.3538,19.0524,0.0],[-69.3596,19.0518,8.4719],[-69.3621,19.0546,2.323],[-69.379,19.0582,4.8803],[-69.3851,19.0676,1.6767],[-69.3854,19.0726,2.6866],[-69.3818,19.0763,0.0],[-69.3851,19.0796,3.6725],[-69.3851,19.0812,3.1382],[-69.3829,19.0824,0.4291],[-69.3832,19.0846,0.0],[-69.3896,19.0863,3.7554],[-69.4024,19.0979,0.0],[-69.4126,19.1029,0.0],[-69.4218,19.1026,0.0],[-69.4351,19.0996,4.8661],[-69.4499,19.1015,1.4733],[-69.4785,19.0938,0.5597],[-69.4779,19.0913,2.1753],[-69.466,19.096,3.7208],[-69.4632,19.0932,0.0],[-69.4615,19.0946,2.1232],[-69.459,19.0935,0.0],[-69.4593,19.0957,3.6123],[-69.4568,19.0985,0.0],[-69.4543,19.0985,0.0],[-69.4518,19.0946,0.0],[-69.4493,19.0993,3.7046],[-69.4393,19.0971,4.3513],[-69.4379,19.0924,1.8772],[-69.4404,19.0882,0.0],[-69.4424,19.076,0.0],[-69.4476,19.0721,0.9165],[-69.454,19.0704,2.2704],[-69.4574,19.0721,0.0],[-69.4557,19.0751,0.0],[-69.4571,19.0776,0.0],[-69.459,19.076,0.562],[-69.4593,19.0768,0.562],[-69.459,19.0776,0.0],[-69.461,19.0765,6.3116],[-69.4618,19.0793,0.0],[-69.4635,19.0771,0.9231],[-69.4624,19.0807,0.0],[-69.4668,19.0815,0.0],[-69.469,19.0788,0.0],[-69.4715,19.0793,6.9636],[-69.4718,19.0782,35.3003],[-69.4768,19.0799,0.0],[-69.4768,19.0785,11.2244],[-69.4796,19.0782,12.1083],[-69.4837,19.0796,0.0],[-69.4882,19.0768,19.4059],[-69.4901,19.0771,0.0],[-69.4904,19.0793,0.0],[-69.4929,19.0776,17.604],[-69.4926,19.0821,0.0],[-69.4951,19.0812,1.6213],[-69.4943,19.084,0.0],[-69.4968,19.0851,1.0372],[-69.4962,19.0871,0.0],[-69.4987,19.0874,0.0],[-69.4987,19.089,0.0],[-69.5013,19.0901,1.1117],[-69.5018,19.089,0.0],[-69.5007,19.0879,3.916],[-69.5035,19.0851,9.4433],[-69.5046,19.0854,9.4433],[-69.5043,19.0885,2.3277],[-69.5057,19.0874,1.1276],[-69.5079,19.089,0.0],[-69.5076,19.0868,14.2088],[-69.511,19.0888,0.6132],[-69.5113,19.0863,8.4773],[-69.5135,19.086,9.4763],[-69.5154,19.0826,53.2435],[-69.5174,19.0879,0.0],[-69.5179,19.0846,8.9226],[-69.5199,19.0857,0.0],[-69.5212,19.0824,15.8321],[-69.5249,19.0835,7.4055],[-69.5268,19.0801,21.4955],[-69.5315,19.0829,-0.7934],[-69.5304,19.0804,28.0536],[-69.5321,19.0804,28.0536],[-69.5324,19.0779,32.5674],[-69.5357,19.0796,14.1907],[-69.536,19.0824,0.3116],[-69.5376,19.081,24.2365],[-69.5401,19.0826,4.7359],[-69.541,19.0807,39.6056],[-69.5432,19.0835,32.3745],[-69.5449,19.0815,59.4506],[-69.5465,19.084,0.0],[-69.5485,19.0824,7.9747],[-69.5504,19.0835,21.0312],[-69.5504,19.0865,0.0],[-69.5535,19.0871,0.0],[-69.5551,19.0846,13.4375],[-69.5571,19.0846,53.656],[-69.5571,19.0824,78.5595],[-69.5576,19.0863,1.185],[-69.5607,19.0865,9.1552],[-69.5596,19.089,1.1736],[-69.5638,19.0901,28.0605],[-69.5649,19.0921,0.0],[-69.566,19.0921,0.0],[-69.5651,19.0871,4.1332],[-69.5679,19.091,3.6246],[-69.5696,19.0874,0.0],[-69.5749,19.0888,0.0],[-69.5762,19.0868,1.8467],[-69.5757,19.0885,3.9575],[-69.5776,19.0882,1.9383],[-69.5776,19.0849,19.9194],[-69.5796,19.0849,0.0],[-69.5801,19.0832,43.9269],[-69.5826,19.0849,5.7508],[-69.5843,19.0826,10.9943],[-69.5899,19.0835,4.6844],[-69.5912,19.0812,11.3013],[-69.5985,19.081,7.3022],[-69.612799999999993,19.0261,233.9238],[-69.6178,19.0158,261.2016],[-69.6212,18.9926,299.1747],[-69.5955,18.988,292.2707],[-69.5806,18.9781,301.6592],[-69.5732,18.9785,294.0383],[-69.568,18.9765,274.8804],[-69.5503,18.9636,302.8897],[-69.5402,18.9586,303.7495],[-69.5308,18.9478,323.0835],[-69.5241,18.9447,299.8148],[-69.5171,18.9377,305.0946],[-69.5125,18.9387,304.9224],[-69.5065,18.9473,286.6056],[-69.5034,18.9483,293.4696],[-69.4948,18.9405,273.6177],[-69.4924,18.935,275.702],[-69.4853,18.9269,286.8994],[-69.4743,18.9226,290.038],[-69.4694,18.9177,315.413],[-69.4562,18.9154,286.9843],[-69.4451,18.9072,288.1872],[-69.4419,18.9009,294.0435],[-69.4251,18.8865,315.3798],[-69.4161,18.8914,323.7726],[-69.4013,18.8886,319.1236],[-69.3846,18.8938,322.2718],[-69.3631,18.8945,274.4718],[-69.3633,18.8857,317.4573],[-69.3703,18.8758,294.1178],[-69.3937,18.8671,254.1796],[-69.3977,18.86,253.8242],[-69.3998,18.8495,247.1264],[-69.4137,18.849,263.7934],[-69.4174,18.8474,257.5286],[-69.4315,18.8279,222.9748],[-69.4388,18.8231,203.3035],[-69.4375,18.8162,181.2998],[-69.4402,18.811,163.1706],[-69.4488,18.8098,119.2963],[-69.4534,18.805,107.4309],[-69.4542,18.7944,122.6779],[-69.4518,18.7859,103.0526],[-69.4549,18.7732,84.2462],[-69.4516,18.7679,76.875],[-69.4456,18.7652,68.507],[-69.4373,18.7642,73.8475],[-69.4349,18.7621,74.9496],[-69.4366,18.7514,50.6308],[-69.4289,18.7424,49.2615],[-69.4254,18.7355,44.3843],[-69.4249,18.7019,29.0219],[-69.4196,18.6919,30.1008],[-69.4302,18.6804,21.606],[-69.4326,18.6739,22.4655],[-69.4169,18.6609,15.409],[-69.4097,18.65,24.3924],[-69.4048,18.6457,21.4663],[-69.399,18.6345,29.7422],[-69.4007,18.6236,7.4704],[-69.3945,18.6146,23.1431],[-69.3787,18.606,26.4439],[-69.3749,18.6005,15.2482],[-69.3718,18.5935,17.474],[-69.3745,18.5837,25.9881],[-69.3739,18.5755,12.5301],[-69.3658,18.5659,21.6354],[-69.362,18.5529,32.0922],[-69.3546,18.5472,30.4304],[-69.3502,18.5369,25.1513],[-69.3444,18.5284,26.6649],[-69.3359,18.5327,24.1984],[-69.3376,18.5434,6.8273],[-69.3365,18.5458,8.4297],[-69.3195,18.5539,32.3171],[-69.3117,18.5638,13.7827],[-69.3042,18.5674,7.5566],[-69.3021,18.5767,9.7619],[-69.2947,18.5782,25.1611],[-69.2927,18.5801,41.9822],[-69.2934,18.5843,22.9227],[-69.2916,18.5896,28.9567],[-69.2943,18.5998,23.4595],[-69.2886,18.6103,44.4325],[-69.2908,18.6213,18.4887],[-69.2896,18.6244,15.7081],[-69.2844,18.628,14.0036],[-69.2678,18.6288,23.5032],[-69.2446,18.6402,31.8908],[-69.2407,18.648,49.0425],[-69.2425,18.6611,32.5349],[-69.2333,18.6651,38.2165],[-69.2302,18.6696,34.0077],[-69.2236,18.6717,41.9315],[-69.2226,18.6855,44.7073],[-69.22,18.693,44.5543],[-69.2196,18.7116,51.7959],[-69.2145,18.7166,58.7675],[-69.2085,18.7268,70.2212],[-69.2065,18.7317,75.5773],[-69.2072,18.7376,81.3866],[-69.2,18.7465,100.1892],[-69.2011,18.7534,126.224],[-69.1972,18.7555,191.254],[-69.1963,18.7576,85.1898],[-69.2016,18.767,88.175],[-69.2025,18.7764,101.9966],[-69.206,18.7833,105.2649],[-69.2222,18.8049,120.4712],[-69.2291,18.8107,135.6605],[-69.2405,18.812,141.657],[-69.2518,18.8178,148.5629],[-69.2531,18.8359,188.9094],[-69.2625,18.8517,299.7011],[-69.2652,18.8526,288.7809],[-69.2724,18.8464,350.106],[-69.2782,18.8459,326.0208],[-69.2821,18.8519,336.3921],[-69.287,18.8721,251.9176],[-69.2982,18.8762,231.1671],[-69.3067,18.8752,229.3974],[-69.3197,18.8844,236.3793]]],
[[[-69.1843,19.0071,0.0],[-69.1843,19.0067,5.3075],[-69.1835,19.007,5.3075],[-69.1843,19.0071,0.0]]],
[[[-69.1835,19.0074,0.0],[-69.1835,19.007,5.3075],[-69.1826,19.0074,0.0],[-69.1835,19.0074,0.0]]],
[[[-69.1826,19.0076,0.0],[-69.1826,19.0074,0.0],[-69.1818,19.0076,0.0],[-69.1826,19.0076,0.0]]],
[[[-69.541,19.0871,9.2424],[-69.5424,19.0882,9.2424],[-69.5426,19.0851,0.0],[-69.5401,19.0854,0.0],[-69.541,19.0871,9.2424]]],
[[[-69.5449,19.0896,4.3854],[-69.5462,19.0904,4.3854],[-69.544,19.0871,0.0],[-69.544,19.0885,0.0],[-69.5449,19.0896,4.3854]]],
[[[-69.544,19.0949,0.0],[-69.5454,19.0926,4.4427],[-69.5446,19.0915,5.2934],[-69.544,19.0918,0.0],[-69.544,19.0949,0.0]]]]}}