{"type": "Feature","bbox": [-74.1061,18.2326,-74.0158,18.3305],"geometry": {"type": "MultiPolygon","coordinates": [[[[-74.1061,18.2518,1.5079],[-74.1024,18.2493,1.3792],[-74.0913,18.2474,19.6695],[-74.0886,18.2446,0.0],[-74.0882,18.2395,0.0],[-74.0866,18.239,20.2493],[-74.0849,18.2349,2.7154],[-74.0763,18.2326,22.1617],[-74.0733,18.2406,121.2728],[-74.0661,18.2466,134.9295],[-74.0623,18.2535,267.4293],[-74.062,18.2605,417.5765],[-74.0587,18.2652,661.5233],[-74.0557,18.2656,763.8873],[-74.0539,18.2725,575.1516],[-74.0497,18.2786,330.8547],[-74.046,18.2825,359.7827],[-74.0407,18.2807,342.2328],[-74.0307,18.2869,283.0171],[-74.0276,18.2868,381.399],[-74.0235,18.2904,440.3406],[-74.0187,18.2911,435.2083],[-74.018,18.3014,778.9958],[-74.0158,18.3065,863.7706],[-74.0413,18.3305,1010.4657],[-74.0515,18.3286,717.5717],[-74.0561,18.3239,512.9294],[-74.0622,18.3225,520.1599],[-74.0683,18.3266,414.068],[-74.077,18.3233,372.1444],[-74.0844,18.3269,308.4959],[-74.0911,18.3163,239.586],[-74.1056,18.3034,138.0098],[-74.1053,18.3008,131.6124],[-74.1006,18.2962,113.2086],[-74.1021,18.2901,108.9157],[-74.1012,18.2863,98.88],[-74.0965,18.2813,112.8879],[-74.0939,18.265,45.938],[-74.1024,18.2608,16.5251],[-74.1061,18.2518,1.5079]]]]}
,"properties": {"GID_3": "HTI.10.4.2_1","GID_0": "HTI","country": "Haiti","GID_1": "HTI.10_1","province": "Sud","NL_NAME_1": "NA","GID_2": "HTI.10.4_1","county": "lesCôteaux","NL_NAME_2": "NA","city": "Port-A-Piment","VARNAME_3": "NA","NL_NAME_3": "NA","TYPE_3": "Commune","ENGTYPE_3": "Commune","CC_3": "NA","HASC_3": "NA","name": "Port-A-Piment.city","area_km2": 57.51469,"hist_schema_id": "Elevation0-9000","hist_area_km2": {"0": 0.86584,"25": 1.20812,"50": 1.55036,"75": 1.87249,"100": 2.19461,"125": 2.47643,"150": 2.33544,"175": 2.49642,"200": 2.65745,"225": 2.35542,"250": 2.49635,"275": 2.5164,"300": 2.21443,"325": 2.29495,"350": 1.83189,"375": 2.27477,"400": 1.67081,"425": 1.69094,"450": 1.48965,"475": 1.71102,"500": 1.65065,"525": 1.54997,"550": 1.26817,"575": 1.54994,"600": 1.24801,"625": 0.98632,"650": 1.28825,"675": 1.44928,"700": 1.20772,"725": 1.00645,"750": 0.96617,"775": 0.9259,"800": 0.64412,"825": 0.32204,"850": 0.38243,"875": 0.24153,"900": 0.24153,"925": 0.20127,"950": 0.08051,"975": 0.06038,"1000": 0.04025}}}