{"type": "Feature","bbox": [-70.9505,18.6789,-70.2666,19.367],"geometry": {"type": "MultiPolygon","coordinates": [[[[-70.6763,18.681,1295.5522],[-70.6621,18.6844,1356.9014],[-70.6465,18.6846,1630.0781],[-70.6326,18.6873,1414.0223],[-70.6263,18.6865,1381.6824],[-70.6167,18.6815,1455.4814],[-70.5869,18.682,1855.0651],[-70.5823,18.6847,1868.9948],[-70.5815,18.6877,2175.7959],[-70.5866,18.7003,2096.2932],[-70.5862,18.703,2010.7467],[-70.5773,18.7054,1543.6284],[-70.5669,18.7197,1402.7036],[-70.5554,18.7185,1252.697],[-70.553,18.7228,1096.7302],[-70.5541,18.7316,1465.2863],[-70.5484,18.74,1057.9491],[-70.5225,18.7554,1240.5513],[-70.5227,18.7603,1123.6963],[-70.5276,18.7674,1166.4288],[-70.5286,18.7794,1439.7822],[-70.5366,18.7897,1582.9401],[-70.5374,18.8077,1569.6309],[-70.5574,18.8258,2306.0957],[-70.5571,18.8332,1917.8934],[-70.5466,18.8554,1092.4467],[-70.5465,18.8586,1022.7264],[-70.5567,18.8681,1318.9719],[-70.5583,18.8771,1086.829],[-70.5638,18.8808,687.053],[-70.5673,18.8896,955.8684],[-70.5745,18.8963,1191.6624],[-70.5756,18.9008,1262.2284],[-70.575,18.9168,1533.5232],[-70.5616,18.9245,1616.2164],[-70.5597,18.9351,1682.7598],[-70.5508,18.939,1395.1368],[-70.5466,18.9429,1361.625],[-70.5432,18.9498,1561.061],[-70.5391,18.9684,1080.0106],[-70.5317,18.9796,1210.0537],[-70.5274,18.9898,1264.9259],[-70.5126,18.9945,1092.1705],[-70.5079,18.9979,1268.7015],[-70.5097,19.0058,1314.6797],[-70.5074,19.0149,1241.3718],[-70.5126,19.0258,1332.0403],[-70.516,19.0447,1372.2496],[-70.5145,19.057,1229.5046],[-70.5213,19.0732,1145.3003],[-70.5226,19.0811,1122.2598],[-70.5321,19.0909,1121.6492],[-70.532,19.0942,1075.7671],[-70.5234,19.0962,769.4078],[-70.518,19.1006,664.4144],[-70.5085,19.1017,709.2698],[-70.5039,19.1061,925.371],[-70.4976,19.1067,998.298],[-70.493,19.1041,893.3645],[-70.4888,19.0955,846.2439],[-70.4831,19.0892,801.7143],[-70.4762,19.087,648.796],[-70.4685,19.0952,651.4824],[-70.4644,19.0938,675.868],[-70.4444,19.1043,286.2937],[-70.4407,19.1111,249.364],[-70.4347,19.1161,219.7663],[-70.4339,19.1217,167.8646],[-70.4269,19.1249,234.6915],[-70.413,19.1154,255.3913],[-70.4072,19.1078,167.0298],[-70.4014,19.1041,114.6799],[-70.4006,19.101,163.8128],[-70.4031,19.0937,133.9029],[-70.4023,19.0887,147.6461],[-70.3741,19.0595,281.5261],[-70.3683,19.0616,171.1434],[-70.3527,19.0763,86.0645],[-70.342,19.0824,79.1713],[-70.3399,19.0884,75.3471],[-70.3354,19.0928,76.1134],[-70.3312,19.1026,61.318],[-70.3242,19.1106,54.0946],[-70.3312,19.1205,54.7965],[-70.3252,19.1363,52.4381],[-70.3135,19.1463,49.3328],[-70.3065,19.1475,48.2606],[-70.2964,19.1444,48.5809],[-70.2944,19.1423,47.1288],[-70.2953,19.1378,48.9448],[-70.2928,19.1365,45.439],[-70.2833,19.1393,48.2986],[-70.276,19.1369,51.0777],[-70.2666,19.1408,51.1654],[-70.2673,19.144,47.0311],[-70.2868,19.158,45.2271],[-70.2982,19.1621,47.5243],[-70.3034,19.1669,47.7833],[-70.3166,19.173,51.5586],[-70.3247,19.1843,54.8418],[-70.3275,19.1914,55.1851],[-70.3476,19.2028,57.7027],[-70.3538,19.2086,59.5152],[-70.3555,19.213,62.3363],[-70.3555,19.2242,62.9657],[-70.4051,19.2254,65.8258],[-70.4062,19.2326,67.6267],[-70.4046,19.2449,71.1451],[-70.4074,19.2495,73.8622],[-70.4076,19.2531,75.6328],[-70.4112,19.2573,78.3309],[-70.4091,19.265,81.2509],[-70.4096,19.2807,89.3047],[-70.4124,19.2833,91.4698],[-70.4219,19.2852,93.5998],[-70.4349,19.295,101.7228],[-70.4358,19.3002,104.077],[-70.4335,19.3092,114.0915],[-70.4367,19.3154,117.903],[-70.4437,19.323,124.4465],[-70.4422,19.33,132.2168],[-70.4505,19.3364,139.6239],[-70.4593,19.3302,133.4245],[-70.4679,19.3278,132.8622],[-70.4725,19.3077,111.9868],[-70.4817,19.3017,112.4024],[-70.489,19.301,113.429],[-70.4947,19.3043,116.2706],[-70.4953,19.3144,119.2582],[-70.4863,19.3322,130.7093],[-70.5073,19.346,141.9846],[-70.5131,19.3481,146.4784],[-70.5224,19.3464,145.7123],[-70.5321,19.3409,126.9639],[-70.5722,19.3412,191.9768],[-70.5871,19.3489,220.1476],[-70.5983,19.3508,212.4022],[-70.6067,19.367,204.6441],[-70.6149,19.364,199.7982],[-70.6283,19.3659,206.5788],[-70.6317,19.3605,213.3548],[-70.6326,19.3502,252.0171],[-70.6383,19.3399,262.2634],[-70.647,19.3337,277.1141],[-70.6595,19.3292,324.1732],[-70.667,19.319,373.7937],[-70.6675,19.3101,399.1867],[-70.665,19.3035,419.5685],[-70.6631,19.2881,413.3432],[-70.6667,19.2823,429.0294],[-70.667,19.2751,443.1676],[-70.6756,19.2743,402.1416],[-70.6829,19.282,443.739],[-70.7,19.2862,376.4221],[-70.707,19.2907,370.0894],[-70.7103,19.29,326.0091],[-70.7182,19.2828,322.0],[-70.7097,19.2723,329.4666],[-70.7013,19.271,322.0],[-70.6941,19.2664,335.6169],[-70.6858,19.265,322.0],[-70.672,19.2576,398.987],[-70.6766,19.2487,357.3407],[-70.671,19.2446,353.7182],[-70.6684,19.2403,513.9286],[-70.6735,19.2334,562.3804],[-70.6706,19.2257,645.3917],[-70.6734,19.2164,513.0117],[-70.6715,19.2131,578.124],[-70.6728,19.1986,503.474],[-70.6647,19.1894,475.7195],[-70.6647,19.1866,500.0657],[-70.6739,19.1778,441.8374],[-70.6813,19.1739,591.6414],[-70.6854,19.1751,602.9941],[-70.6905,19.1807,491.1428],[-70.6932,19.1908,653.4683],[-70.6985,19.1942,677.1987],[-70.7045,19.2022,701.2478],[-70.7092,19.2033,668.9111],[-70.7137,19.1999,634.1788],[-70.7151,19.1968,632.0944],[-70.7146,19.1937,648.7194],[-70.7107,19.1905,651.3983],[-70.7098,19.1876,675.8422],[-70.7148,19.1775,715.1631],[-70.7161,19.1624,751.6594],[-70.7305,19.1581,708.469],[-70.7452,19.1482,732.2455],[-70.7554,19.147,778.1611],[-70.7591,19.1406,772.4293],[-70.7666,19.1379,829.7213],[-70.7749,19.1314,884.6647],[-70.7858,19.1309,985.5087],[-70.7947,19.1333,1002.1354],[-70.8012,19.1306,1115.183],[-70.8085,19.1185,1386.4973],[-70.8303,19.1037,1392.3083],[-70.8408,19.0928,1630.6226],[-70.8481,19.0939,1670.136],[-70.8594,19.0919,1611.7479],[-70.8696,19.0941,1705.6852],[-70.8722,19.0916,1673.002],[-70.8737,19.0844,1664.8236],[-70.879,19.0833,1630.3801],[-70.9131,19.0863,1712.9231],[-70.9243,19.0919,1904.7749],[-70.9334,19.0925,2033.4365],[-70.9373,19.0914,1923.7395],[-70.9435,19.0836,1877.1918],[-70.9441,19.0764,1933.5496],[-70.9426,19.0698,1890.4941],[-70.9468,19.062,2140.3677],[-70.9448,19.0537,2185.4739],[-70.9505,19.04,2834.8569],[-70.9461,19.0351,2518.6501],[-70.9348,19.0322,2672.4221],[-70.9207,19.0225,2189.9172],[-70.9111,19.0208,1986.3542],[-70.8921,19.0087,2094.4624],[-70.8796,18.9965,2102.4409],[-70.8793,18.9934,2067.1116],[-70.882,18.9886,2092.3899],[-70.8747,18.988,1902.3835],[-70.8695,18.9926,1799.8051],[-70.8625,18.9955,1833.5398],[-70.8485,18.9958,1661.1357],[-70.8297,18.9829,1927.4186],[-70.8312,18.9777,2008.4585],[-70.8367,18.9723,1751.6772],[-70.8367,18.9629,1508.1025],[-70.8335,18.952,1121.5383],[-70.8256,18.9466,1146.8569],[-70.8215,18.9351,1192.4824],[-70.8161,18.9294,1184.2281],[-70.82,18.9232,1361.9991],[-70.8289,18.9223,1160.7869],[-70.8305,18.9206,1127.6307],[-70.8283,18.913,1282.9922],[-70.828,18.8938,940.923],[-70.8253,18.8855,1219.7675],[-70.8281,18.8739,1683.2037],[-70.8265,18.8704,1589.7535],[-70.8171,18.8652,1615.1785],[-70.814,18.8607,1578.7881],[-70.811,18.8544,1649.7764],[-70.8052,18.8328,1837.2817],[-70.7952,18.8269,1731.6957],[-70.7755,18.8226,1723.1234],[-70.7682,18.8066,1629.6039],[-70.7611,18.7989,1310.4796],[-70.7574,18.792,1627.4271],[-70.7529,18.7778,1611.119],[-70.7467,18.7714,1538.2653],[-70.7437,18.771,1520.1656],[-70.7299,18.7775,1898.5891],[-70.7249,18.7781,2032.3689],[-70.7191,18.7776,2179.8638],[-70.7046,18.7725,2330.833],[-70.6924,18.7718,2299.667],[-70.6872,18.768,2288.6387],[-70.6817,18.7587,2120.2349],[-70.674,18.754,2139.009],[-70.6709,18.7486,2120.9336],[-70.6708,18.7425,2076.1021],[-70.679,18.7277,1919.2494],[-70.6681,18.7079,1664.2197],[-70.671,18.7027,1596.4651],[-70.6765,18.6998,1742.8767],[-70.6803,18.6888,1337.9602],[-70.6847,18.685,1163.8669],[-70.6856,18.6821,1201.8257],[-70.6847,18.6798,1292.698],[-70.6823,18.6789,1352.6735],[-70.6763,18.681,1295.5522]]]]}
,"properties": {"GID_1": "DOM.14_1","GID_0": "DOM","country": "DominicanRepublic","province": "LaVega","VARNAME_1": "NA","NL_NAME_1": "NA","TYPE_1": "Provincia","ENGTYPE_1": "Province","CC_1": "NA","HASC_1": "DO.VE","ISO_1": "DO-13","name": "La_Vega.province","area_km2": 2252.783,"hist_schema_id": "Elevation0-9000","hist_area_km2": {"50": 109.605,"75": 142.37,"100": 94.205,"125": 54.12,"150": 29.145,"175": 26.663,"200": 27.68,"225": 27.079,"250": 20.856,"275": 19.976,"300": 20.857,"325": 22.36,"350": 19.959,"375": 18.017,"400": 15.035,"425": 12.674,"450": 12.094,"475": 12.756,"500": 15.04,"525": 24.976,"550": 38.536,"575": 28.321,"600": 26.037,"625": 21.03,"650": 18.007,"675": 15.444,"700": 14.483,"725": 13.161,"750": 14.183,"775": 12.22,"800": 10.077,"825": 9.457,"850": 8.495,"875": 9.678,"900": 11.382,"925": 12.444,"950": 13.247,"975": 12.907,"1000": 15.753,"1025": 18.179,"1050": 23.111,"1075": 31.009,"1100": 34.598,"1125": 36.103,"1150": 39.615,"1175": 39.456,"1200": 39.978,"1225": 39.759,"1250": 38.757,"1275": 38.216,"1300": 38.077,"1325": 36.313,"1350": 35.833,"1375": 32.785,"1400": 31.884,"1425": 31.022,"1450": 28.616,"1475": 28.638,"1500": 27.916,"1525": 26.993,"1550": 26.211,"1575": 26.854,"1600": 26.714,"1625": 25.49,"1650": 25.11,"1675": 25.25,"1700": 22.764,"1725": 20.92,"1750": 18.313,"1775": 16.55,"1800": 15.287,"1825": 13.662,"1850": 13.362,"1875": 12.881,"1900": 12.802,"1925": 11.077,"1950": 10.354,"1975": 10.274,"2000": 9.472,"2025": 9.151,"2050": 8.429,"2075": 9.131,"2100": 9.031,"2125": 8.671,"2150": 9.072,"2175": 9.052,"2200": 8.952,"2225": 8.491,"2250": 9.213,"2275": 10.699,"2300": 10.337,"2325": 11.662,"2350": 8.953,"2375": 9.394,"2400": 8.35,"2425": 7.005,"2450": 6.122,"2475": 4.998,"2500": 3.492,"2525": 3.01,"2550": 2.328,"2575": 1.625,"2600": 1.364,"2625": 0.943,"2650": 0.602,"2675": 0.722,"2700": 0.481,"2725": 0.381,"2750": 0.301,"2775": 0.14,"2800": 0.12,"2825": 0.02}}}