{"type":"Feature","properties":{"featurecla":"River","scalerank":8,"rivernum":852,"dissolve":"852River","name":"Yaque1","name_alt":null,"note":null,"min_zoom":7.0,"strokeweig":0.2,"name_en":"Yaque del Norte","min_label":8.0},
"geometry":{"type": "LineString","coordinates": [[-70.666601562499991,19.183221746869123,578.3802],[-70.666601562499991,19.19672272343162,449.7831],[-70.670996093749991,19.223504949994123,594.6732],[-70.682373046875,19.258172918744123,331.7355],[-70.685791015625,19.264911199994117,322.0],[-70.703417968749989,19.28400299686912,377.5402],[-70.7060546875,19.28998444218162,354.6585],[-70.705810546875,19.325067449994123,248.7962],[-70.709277343749989,19.34235260624412,222.5174],[-70.719335937499991,19.354999090619117,227.0265],[-70.703906249999989,19.42377350468162,181.208],[-70.70556640625,19.460223699994117,158.8319],[-70.709716796875,19.478143621869123,190.6208],[-70.716723632812489,19.49469635624412,169.5086],[-70.738623046874991,19.484979559369123,166.2728],[-70.7490234375,19.48309967655662,161.4193],[-70.761328124999991,19.48749420780662,151.7361],[-70.766455078124991,19.49579498905662,128.7853],[-70.771044921874989,19.51727936405662,129.8895],[-70.778369140624989,19.52167389530662,127.8296],[-70.791113281249991,19.525165106244117,126.417],[-70.913134765624989,19.573114324994123,124.1599],[-70.93603515625,19.57623932499412,123.0921],[-70.97900390625,19.574481512494117,99.635],[-70.996826171875,19.576190496869117,78.8278],[-71.014599609375,19.583124090619123,74.4362],[-71.064379882812489,19.619012762494123,53.9909],[-71.079443359374991,19.62470123905662,53.8686],[-71.087207031249989,19.626239324994117,51.9726],[-71.094677734375,19.63019440311912,50.2556],[-71.101489257812489,19.63556549686912,49.9424],[-71.107348632812489,19.641473699994123,48.9759],[-71.11865234375,19.64935944218162,49.0535],[-71.129199218749989,19.64984772343162,47.4196],[-71.151708984374991,19.64520905155662,47.1974],[-71.178955078125,19.64533112186912,53.941],[-71.191650390625,19.64325592655662,50.1805],[-71.206958007812489,19.63776276249412,45.5627],[-71.245947265624991,19.668475653119117,45.4672],[-71.258154296874991,19.672479559369123,49.3663],[-71.2724609375,19.674090887494117,46.0182],[-71.288818359375,19.67841217655662,44.662],[-71.304370117187489,19.68488190311912,51.2019],[-71.316210937499989,19.692987371869123,72.6264],[-71.321826171874989,19.688251043744117,59.2892],[-71.327197265624989,19.68488190311912,53.9288],[-71.332373046874991,19.68280670780662,48.5401],[-71.33740234375,19.681756903119123,49.1594]]}}