{"type": "Feature","bbox": [-71.2562,17.957,-71.1304,18.1208],"geometry": {"type": "MultiPolygon","coordinates": [[[[-71.1829,17.957,0.0],[-71.1776,17.9629,3.6767],[-71.1757,17.9693,0.0],[-71.1721,17.9729,0.0],[-71.1643,17.9879,8.4162],[-71.1574,17.9949,0.0],[-71.1524,17.9957,18.8755],[-71.1446,18.0076,18.3362],[-71.1376,18.0085,0.0],[-71.1368,18.0135,0.0],[-71.1396,18.0232,46.8852],[-71.1357,18.0304,6.5784],[-71.1315,18.0313,0.0],[-71.1304,18.0332,0.0],[-71.1435,18.0368,365.3243],[-71.1476,18.0411,557.4438],[-71.1686,18.0547,983.021],[-71.1753,18.063,986.8004],[-71.184,18.0679,976.0361],[-71.185,18.0749,1027.0409],[-71.1817,18.0869,1055.9574],[-71.1837,18.0926,1143.1316],[-71.1908,18.0954,1179.4381],[-71.1963,18.0927,1049.2278],[-71.2061,18.0934,633.97],[-71.2111,18.0968,966.313],[-71.2197,18.1141,1351.5469],[-71.2337,18.1157,1389.7173],[-71.2415,18.1206,1429.809],[-71.246,18.1208,1361.8204],[-71.2471,18.1171,1230.6746],[-71.2421,18.1123,1321.4236],[-71.2399,18.1019,1064.265],[-71.2427,18.0948,893.4272],[-71.2298,18.0846,885.275],[-71.2187,18.0701,509.4439],[-71.2207,18.0657,521.6749],[-71.2237,18.0651,452.2979],[-71.2282,18.0678,595.7906],[-71.2309,18.0726,683.7053],[-71.2353,18.0731,607.483],[-71.2404,18.0679,454.2327],[-71.2543,18.0646,619.6799],[-71.2562,18.0622,651.4996],[-71.2561,18.0532,1168.7124],[-71.2514,18.048,1177.5647],[-71.2508,18.0437,1141.9863],[-71.2387,18.0374,770.1453],[-71.2389,18.0338,682.987],[-71.2436,18.0257,1150.1803],[-71.2434,18.022,1119.2712],[-71.2341,18.0156,845.3545],[-71.2298,18.0102,925.9045],[-71.2301,18.0056,1132.6281],[-71.2348,17.999,1043.321],[-71.2318,17.9859,772.1871],[-71.2251,17.9749,661.797],[-71.2149,17.9736,501.5598],[-71.206,17.9667,377.4188],[-71.1971,17.965,287.223],[-71.1829,17.957,0.0]]]]}
,"properties": {"GID_2": "DOM.3.8_1","GID_0": "DOM","country": "DominicanRepublic","GID_1": "DOM.3_1","province": "Barahona","NL_NAME_1": "NA","county": "Paraiso","VARNAME_2": "NA","NL_NAME_2": "NA","TYPE_2": "Municipio","ENGTYPE_2": "Municipality","CC_2": "NA","HASC_2": "DO.BH.PA","name": "Paraiso.county","area_km2": 120.62174,"hist_schema_id": "Elevation0-9000","hist_area_km2": {"0": 1.0083,"25": 2.03672,"50": 1.51238,"75": 1.69386,"100": 1.85514,"125": 2.25841,"150": 2.07691,"175": 2.58094,"200": 2.52046,"225": 2.78245,"250": 2.54049,"275": 3.04446,"300": 3.125,"325": 3.44759,"350": 3.16538,"375": 3.12512,"400": 3.30647,"425": 3.08459,"450": 3.56853,"475": 3.42741,"500": 3.891,"525": 3.50803,"550": 3.70965,"575": 3.06455,"600": 2.80236,"625": 3.32653,"650": 3.06458,"675": 2.45961,"700": 3.06448,"725": 3.06441,"750": 3.85066,"775": 2.82247,"800": 2.62081,"825": 2.07636,"850": 2.56016,"875": 2.25775,"900": 2.0965,"925": 1.69335,"950": 1.91511,"975": 1.2498,"1000": 1.18934,"1025": 1.12887,"1050": 0.88691,"1075": 1.08851,"1100": 1.12883,"1125": 1.20938,"1150": 0.56437,"1175": 0.6248,"1200": 0.82633,"1225": 0.74569,"1250": 0.32245,"1275": 0.26198,"1300": 0.38289,"1325": 0.48365,"1350": 0.94714,"1375": 0.44334,"1400": 0.76576,"1425": 0.28212,"1450": 0.0806}}}