{"type": "Feature","bbox": [-61.1249,14.5596,-60.9488,14.7211],"geometry": {"type": "MultiPolygon","coordinates": [[[[-61.0869,14.7094,497.6198],[-61.0874,14.708,468.7357],[-61.0973,14.7049,544.1361],[-61.1102,14.7046,1024.5385],[-61.1188,14.6918,741.5285],[-61.1095,14.6833,584.4327],[-61.1092,14.676,549.2275],[-61.1116,14.6602,392.0587],[-61.1199,14.6453,203.7744],[-61.1249,14.6301,0.0],[-61.1229,14.6285,0.0],[-61.1196,14.6299,12.1266],[-61.1185,14.6276,0.0],[-61.1126,14.6263,1.008],[-61.1107,14.6232,0.0],[-61.1068,14.6212,14.0181],[-61.1037,14.6157,0.3319],[-61.0985,14.6118,8.4723],[-61.0974,14.6071,12.4268],[-61.091,14.5999,6.0661],[-61.0915,14.5988,0.0],[-61.0821,14.5996,0.0],[-61.0754,14.6021,12.3142],[-61.0754,14.6007,0.2135],[-61.0726,14.6007,0.0],[-61.074,14.599,0.0],[-61.0726,14.5985,0.0],[-61.0682,14.6012,0.6841],[-61.0657,14.5971,8.5225],[-61.0643,14.5976,0.0],[-61.0651,14.6004,15.4875],[-61.0632,14.601,0.7692],[-61.061,14.6001,0.0],[-61.0615,14.5957,0.0],[-61.0604,14.596,2.0585],[-61.061,14.594,0.0],[-61.0585,14.5924,0.0],[-61.0543,14.5974,1.823],[-61.049,14.5965,0.0],[-61.051,14.5938,0.0],[-61.0499,14.5896,0.0],[-61.0471,14.5901,0.0],[-61.0443,14.5951,2.4934],[-61.0399,14.5951,0.0],[-61.0368,14.5926,0.0],[-61.0399,14.6051,17.7793],[-61.0293,14.6065,0.0],[-61.0251,14.6121,7.6768],[-61.0226,14.6118,2.2326],[-61.0221,14.6026,0.0],[-61.0204,14.6015,0.0544],[-61.0246,14.6007,0.0],[-61.0251,14.599,-0.0922],[-61.0185,14.5988,1.1592],[-61.0174,14.5954,1.0819],[-61.0199,14.5921,2.1696],[-61.024,14.5921,0.0],[-61.024,14.5835,0.0],[-61.0157,14.5821,1.3754],[-61.014,14.5787,0.0],[-61.0171,14.579,0.0],[-61.0174,14.5771,0.0],[-61.0151,14.5751,0.0],[-61.0104,14.5782,2.4508],[-61.0099,14.5763,0.2545],[-61.0143,14.5713,0.0],[-61.014,14.5685,0.0],[-61.0107,14.5665,3.0774],[-61.011,14.5604,0.0],[-61.009,14.5599,0.0],[-61.0065,14.5618,0.0],[-61.0018,14.5596,2.2136],[-60.9717,14.6013,15.6688],[-60.9488,14.6097,196.0425],[-60.9534,14.6208,230.8886],[-60.949,14.6315,248.3477],[-60.9518,14.6448,150.9549],[-60.9817,14.6915,217.4509],[-60.9965,14.6755,56.2501],[-61.016,14.6834,142.2489],[-61.0416,14.6989,305.2904],[-61.0513,14.6969,400.5555],[-61.0864,14.7211,652.6214],[-61.0869,14.7094,497.6198]]],
[[[-61.1004,14.5918,0.0],[-61.1032,14.5921,0.0],[-61.1035,14.5907,0.0],[-61.101,14.5904,0.0],[-61.1004,14.5918,0.0]]]]}
,"properties": {"GID_1": "MTQ.1_1","GID_0": "MTQ","country": "Martinique","province": "Fort-de-France","VARNAME_1": "NA","NL_NAME_1": "NA","TYPE_1": "Arrondissement","ENGTYPE_1": "Arrondissement","CC_1": "NA","HASC_1": "MQ.FF","ISO_1": "NA","name": "Fort-de-France.province","area_km2": 188.3756,"hist_schema_id": "Elevation0-9000","hist_area_km2": {"0": 35.0439,"25": 22.0743,"50": 14.7085,"75": 14.5646,"100": 12.2466,"125": 10.5439,"150": 9.4566,"175": 8.3897,"200": 8.3075,"225": 6.3588,"250": 5.1895,"275": 4.5741,"300": 4.0202,"325": 3.7945,"350": 3.0355,"375": 2.4612,"400": 2.5227,"425": 2.5432,"450": 2.2151,"475": 2.2971,"500": 2.4201,"525": 2.297,"550": 2.1535,"575": 1.4972,"600": 1.251,"625": 0.6973,"650": 0.3692,"675": 0.3692,"700": 0.3897,"725": 0.1641,"750": 0.1641,"775": 0.3486,"800": 0.2051,"825": 0.0615,"850": 0.3076,"875": 0.2256,"900": 0.1231,"925": 0.123,"950": 0.2871,"975": 0.1436,"1000": 0.1231,"1025": 0.1025,"1050": 0.1025,"1075": 0.041,"1100": 0.0205,"1150": 0.041}}}