{"type":"Feature","properties":{"featurecla":"River","scalerank":10,"rivernum":22272,"dissolve":"22272River","name":"null23","name_alt":null,"note":"ID is link back to CEC data","name_full":null,"min_zoom":6.0,"strokeweig":0.15,"uident":2018101,"min_label":7.0},
"geometry":{"type": "LineString","coordinates": [[-75.880197720437067,20.232692775514863,133.0004],[-75.791493293353739,20.169948634889863,183.6658],[-75.730295376687067,20.083807684369035,268.3676],[-75.6534724600204,20.041774806764863,644.541],[-75.610910611062067,20.034043686973206,616.9492]]}}