{"type":"Feature","properties":{"GID_2":"HTI.5.2_1","GID_0":"HTI","country":"Haiti","GID_1":"HTI.5_1","province":"Nord-Est","NL_NAME_1":"NA","county":"leTrou-du-Nord","VARNAME_2":"NA","NL_NAME_2":"NA","TYPE_2":"Arrondissement","ENGTYPE_2":"District","CC_2":"NA","HASC_2":"HT.NE.TN","name":"le_Trou-du-Nord.county"},
"geometry":{"type": "MultiPolygon","coordinates": [[[[-72.0252,19.4938,574.5479],[-72.0231,19.4969,551.9542],[-72.0193,19.497,473.1266],[-72.0097,19.5106,501.352],[-72.0161,19.5189,591.0335],[-72.019,19.5257,802.4276],[-72.0,19.5235,698.948],[-71.9695,19.5082,920.6426],[-71.9697,19.5146,673.6442],[-71.9639,19.5228,397.6957],[-71.976,19.5333,255.5501],[-71.9773,19.5393,264.8142],[-71.9751,19.5406,257.6189],[-71.9589,19.5393,197.118],[-71.9539,19.5421,173.9035],[-71.9519,19.548,208.8791],[-71.9468,19.5506,274.1504],[-71.9353,19.5499,277.3839],[-71.9299,19.544,188.9023],[-71.9156,19.5356,137.8228],[-71.9118,19.5305,110.505],[-71.9056,19.5283,116.6496],[-71.8968,19.5308,83.2225],[-71.8948,19.534,71.3849],[-71.8942,19.5434,60.5654],[-71.8827,19.5465,58.3937],[-71.8862,19.5475,52.1233],[-71.8829,19.5509,46.1485],[-71.8845,19.5544,46.8366],[-71.8838,19.5606,69.3246],[-71.8912,19.5696,100.2757],[-71.8961,19.571,135.731],[-71.8997,19.5752,196.525],[-71.8951,19.581,75.8694],[-71.8955,19.5861,62.5149],[-71.9065,19.6022,95.0923],[-71.9038,19.6074,134.7375],[-71.8965,19.6133,291.8677],[-71.8941,19.6135,336.6461],[-71.9012,19.6254,99.3987],[-71.9008,19.6302,71.8559],[-71.8978,19.6345,51.396],[-71.8981,19.6374,43.7889],[-71.8922,19.6473,25.1104],[-71.894,19.6527,23.8956],[-71.8926,19.6707,0.0],[-71.8956,19.6687,2.4761],[-71.8968,19.6704,2.3207],[-71.8909,19.6769,0.8546],[-71.886,19.6771,0.0],[-71.886,19.6785,0.0],[-71.8874,19.6818,4.4459],[-71.8899,19.6821,0.0],[-71.8943,19.6782,5.8517],[-71.8971,19.6804,1.9762],[-71.9021,19.6799,1.2422],[-71.901,19.6821,0.0],[-71.9025,19.6824,0.0],[-71.9035,19.6865,0.0],[-71.8965,19.6851,0.967],[-71.896,19.6826,0.5076],[-71.8929,19.6871,7.0439],[-71.889,19.6843,0.8971],[-71.8838,19.6857,7.4353],[-71.8835,19.6826,1.4802],[-71.8815,19.684,3.0608],[-71.8785,19.6832,0.0],[-71.8757,19.6793,0.5747],[-71.8716,19.6805,0.0],[-71.872,19.6842,5.7169],[-71.8668,19.6851,0.0],[-71.8672,19.6879,0.5485],[-71.8624,19.691,8.2026],[-71.8587,19.6901,0.0],[-71.8571,19.6924,13.2072],[-71.8549,19.6896,0.8282],[-71.8535,19.6899,0.8282],[-71.8487,19.6943,0.0],[-71.8485,19.7013,0.6548],[-71.846,19.7025,2.3483],[-71.8457,19.7076,1.5983],[-71.849,19.7151,0.0],[-71.8549,19.7176,0.0],[-71.8676,19.7161,1.0346],[-71.8785,19.7199,1.1647],[-71.8907,19.7196,1.2202],[-71.9074,19.7263,0.9337],[-71.929,19.7269,3.2082],[-71.9379,19.7301,1.9952],[-71.9435,19.7296,0.7303],[-71.9478,19.7269,0.2936],[-71.9615,19.7346,0.2458],[-71.9676,19.7357,0.0],[-71.9818,19.7326,0.9159],[-71.9871,19.7337,0.748],[-71.9896,19.7315,0.2721],[-71.9861,19.7318,0.3707],[-71.9846,19.7293,0.6632],[-71.9901,19.7301,0.862],[-71.9924,19.726,0.0],[-71.9901,19.7049,0.4172],[-71.9929,19.6985,0.6134],[-71.9962,19.6985,0.7793],[-72.0001,19.7007,0.9155],[-72.004,19.7062,0.0],[-72.0071,19.7065,0.5765],[-72.0074,19.7015,1.4338],[-72.0096,19.6996,2.2539],[-72.0165,19.6988,0.0],[-72.0193,19.6968,0.5038],[-72.0357,19.701,0.0],[-72.0415,19.7001,0.4137],[-72.0385,19.6979,0.0],[-72.0399,19.6926,0.2831],[-72.0428,19.6937,0.273],[-72.0518,19.6897,0.2705],[-72.0537,19.6906,0.6973],[-72.0526,19.6932,0.0],[-72.0568,19.6957,0.0],[-72.0591,19.6932,0.6697],[-72.0628,19.6853,1.4555],[-72.0587,19.6731,7.4221],[-72.0612,19.6627,15.9372],[-72.0665,19.6556,22.5146],[-72.0645,19.6515,26.7034],[-72.0672,19.6487,30.8039],[-72.0641,19.6427,34.782],[-72.0656,19.6401,39.3212],[-72.0648,19.6374,39.4728],[-72.0672,19.634,43.4502],[-72.0716,19.6308,53.1309],[-72.0789,19.6315,62.7976],[-72.0935,19.6261,310.3546],[-72.1061,19.6346,371.4688],[-72.1101,19.6344,399.4912],[-72.1083,19.6227,227.4693],[-72.1134,19.6186,72.6561],[-72.1115,19.6144,123.5664],[-72.1124,19.6106,264.0108],[-72.1057,19.6029,462.4823],[-72.1069,19.5997,417.3929],[-72.1123,19.5955,433.0631],[-72.1138,19.5915,368.9995],[-72.1211,19.5887,345.2474],[-72.1221,19.5855,345.2491],[-72.1184,19.5797,323.3293],[-72.12,19.5748,277.2059],[-72.1153,19.5752,308.8295],[-72.112,19.5703,317.4648],[-72.1117,19.5614,285.6388],[-72.1141,19.5587,133.9144],[-72.1081,19.5593,249.7404],[-72.1055,19.5537,267.2466],[-72.1028,19.5518,283.9971],[-72.1043,19.5493,299.1968],[-72.1013,19.5484,290.4839],[-72.101,19.5427,290.6362],[-72.0998,19.5433,291.6743],[-72.098,19.5413,296.7083],[-72.0968,19.5369,365.6573],[-72.0978,19.5315,499.5561],[-72.1026,19.5288,522.7958],[-72.1036,19.5238,577.0238],[-72.0996,19.5184,636.5298],[-72.0939,19.5152,676.4644],[-72.095,19.5112,736.0084],[-72.0933,19.5098,712.335],[-72.0932,19.5032,649.9415],[-72.0911,19.4974,596.1339],[-72.0829,19.4903,509.0734],[-72.0761,19.4884,425.5283],[-72.0698,19.4831,391.7458],[-72.063,19.4801,336.1363],[-72.0621,19.4776,333.7885],[-72.0643,19.4746,313.5883],[-72.0627,19.4721,279.3906],[-72.0662,19.4718,228.2487],[-72.067,19.4653,258.392],[-72.0706,19.4612,220.2299],[-72.0699,19.4554,214.5819],[-72.0801,19.4585,172.3726],[-72.0839,19.4554,166.6699],[-72.0875,19.449,146.1057],[-72.0918,19.4469,137.7569],[-72.0882,19.4461,141.9737],[-72.0822,19.4399,168.7139],[-72.0794,19.4432,182.0836],[-72.079,19.437,161.2496],[-72.0728,19.4348,163.816],[-72.067,19.4346,165.7918],[-72.0644,19.437,168.1611],[-72.0665,19.4401,161.3661],[-72.0687,19.4397,166.9006],[-72.0691,19.4416,183.8136],[-72.0653,19.4452,174.3877],[-72.0635,19.4449,187.0558],[-72.0507,19.4372,183.8882],[-72.0466,19.4383,193.893],[-72.0441,19.4322,205.8837],[-72.0384,19.4324,253.6578],[-72.0368,19.4295,223.7709],[-72.032,19.4314,236.0871],[-72.0233,19.4406,303.9739],[-72.0087,19.449,340.3166],[-72.0063,19.4464,313.8577],[-72.0032,19.4458,330.7436],[-72.0043,19.4538,440.5833],[-72.0128,19.4703,644.6154],[-72.0218,19.475,750.4525],[-72.0236,19.4781,719.2585],[-72.0252,19.4938,574.5479]]],
[[[-72.0482,19.6965,0.0],[-72.0499,19.6963,0.0],[-72.0504,19.694,0.3652],[-72.0485,19.694,0.0],[-72.0482,19.6965,0.0]]],
[[[-71.854,19.6826,0.9142],[-71.8557,19.6832,0.0],[-71.8571,19.6804,0.0],[-71.856,19.6799,0.0],[-71.854,19.6826,0.9142]]]]}}