{"type":"Feature","properties":{"GID_3":"HTI.3.1.3_1","GID_0":"HTI","country":"Haiti","GID_1":"HTI.3_1","province":"L'Artibonite","NL_NAME_1":"NA","GID_2":"HTI.3.1_1","county":"Dessalines","NL_NAME_2":"NA","city":"GrandeSaline","VARNAME_3":"NA","NL_NAME_3":"NA","TYPE_3":"Commune","ENGTYPE_3":"Commune","CC_3":"NA","HASC_3":"NA","name":"Grande_Saline.city"},
"geometry":{"type": "MultiPolygon","coordinates": [[[[-72.7187,19.2885,0.4031],[-72.7221,19.2843,0.0],[-72.7265,19.2832,0.3842],[-72.7319,19.2872,0.0],[-72.7315,19.2928,0.1205],[-72.7354,19.294,0.0],[-72.7396,19.2899,0.0],[-72.7385,19.2879,0.0],[-72.7408,19.2823,0.0],[-72.7471,19.2779,0.1377],[-72.7664,19.2843,0.0],[-72.7705,19.2847,0.0964],[-72.7735,19.2828,0.0],[-72.7746,19.2789,0.0],[-72.7734,19.2763,0.0],[-72.7705,19.2798,0.4135],[-72.7671,19.2764,0.0],[-72.7667,19.2729,0.3304],[-72.7699,19.2676,0.6332],[-72.7726,19.2674,0.0611],[-72.774,19.2701,0.168],[-72.7732,19.2745,0.1703],[-72.7709,19.2769,0.0],[-72.7744,19.2748,0.1703],[-72.7756,19.2438,0.0],[-72.7795,19.2376,0.1247],[-72.7754,19.2397,0.1747],[-72.7707,19.2483,0.0],[-72.761,19.2505,0.297],[-72.7562,19.2479,0.6454],[-72.7608,19.2555,0.6937],[-72.7597,19.2567,1.2287],[-72.7546,19.2556,1.6233],[-72.7525,19.2488,1.2787],[-72.752,19.2525,1.8049],[-72.7503,19.2537,1.9484],[-72.7479,19.2514,0.8306],[-72.7491,19.2576,1.7054],[-72.7463,19.2613,2.2853],[-72.7459,19.2566,3.3148],[-72.7399,19.2575,2.0064],[-72.7399,19.2558,2.965],[-72.7366,19.2539,2.9153],[-72.7328,19.2552,2.071],[-72.7327,19.2583,1.9137],[-72.7306,19.2589,2.1111],[-72.7301,19.2537,2.3623],[-72.7263,19.2477,3.7945],[-72.7209,19.25,5.0022],[-72.7206,19.2441,3.4786],[-72.7181,19.2446,4.6767],[-72.7165,19.248,4.0716],[-72.7129,19.2432,3.6521],[-72.709,19.2415,3.8369],[-72.7068,19.2422,2.588],[-72.7069,19.2441,3.8941],[-72.7123,19.2455,4.9448],[-72.7129,19.2482,5.8438],[-72.7101,19.2498,5.1864],[-72.7064,19.2487,3.7688],[-72.7044,19.2501,3.2852],[-72.7038,19.255,3.5923],[-72.6976,19.258,5.0258],[-72.6932,19.2549,5.679],[-72.6964,19.2517,4.0968],[-72.6965,19.2484,4.3874],[-72.6906,19.2432,4.8646],[-72.6913,19.2475,5.0998],[-72.6886,19.2489,4.3289],[-72.6882,19.251,4.1203],[-72.6892,19.2543,4.8329],[-72.6858,19.2577,5.6381],[-72.6841,19.2565,6.4763],[-72.6856,19.2525,4.5821],[-72.6839,19.2497,5.7534],[-72.6709,19.2467,6.6225],[-72.6684,19.2418,5.8603],[-72.663,19.2405,6.6181],[-72.6681,19.2394,5.5566],[-72.6714,19.2264,6.4315],[-72.6666,19.2218,6.6474],[-72.6602,19.2242,7.2343],[-72.6594,19.2208,5.4293],[-72.6539,19.228,8.0395],[-72.6468,19.2288,6.6093],[-72.6425,19.2251,7.5092],[-72.6436,19.2213,8.5304],[-72.6424,19.2203,8.5695],[-72.6386,19.2289,8.1976],[-72.6348,19.2305,9.1242],[-72.6354,19.2246,8.5855],[-72.6311,19.2235,7.9034],[-72.6315,19.2278,8.6776],[-72.6282,19.2416,6.5508],[-72.624,19.2513,6.9391],[-72.6294,19.2548,6.2094],[-72.6323,19.2597,5.2979],[-72.6354,19.2569,5.6517],[-72.6464,19.2588,3.5867],[-72.6609,19.2585,2.6306],[-72.6633,19.2607,2.4461],[-72.6765,19.2657,3.1633],[-72.6801,19.2698,2.2667],[-72.6913,19.2768,2.777],[-72.7033,19.2784,0.6822],[-72.7187,19.2885,0.4031]]]]}}