{"type":"Feature","properties":{"ISO3166-1-Alpha-3":"BHS","country":"The Bahamas","fill":"#F0F","id":"5015","name":"Central Abaco"},
"geometry":{"type": "MultiPolygon","coordinates": [[[[-77.29922,26.35582,0.0],[-77.31355,26.34972,0.0],[-77.31949,26.34504,0.7592],[-77.31721,26.34158,0.0],[-77.30541,26.34903,0.8393],[-77.30012,26.34894,0.0],[-77.29617,26.3463,0.0],[-77.28877,26.33051,0.5459],[-77.29369,26.30952,0.0],[-77.28844,26.30602,0.0],[-77.28576,26.30915,0.459],[-77.28262,26.33206,0.2479],[-77.28384,26.33832,0.2409],[-77.28738,26.34329,0.0],[-77.28795,26.34699,0.3314],[-77.28751,26.35155,0.1066],[-77.28974,26.35472,0.0],[-77.29585,26.35293,0.125],[-77.29922,26.35582,0.0]]],
[[[-77.29247,26.40799,0.1481],[-77.27465,26.41629,0.3103],[-77.26411,26.42516,0.2821],[-77.26175,26.43203,0.0],[-77.2696,26.43175,0.0],[-77.27986,26.42357,0.0],[-77.29337,26.41234,0.0],[-77.29495,26.40766,0.0],[-77.29247,26.40799,0.1481]]],
[[[-77.23762,26.47407,0.353],[-77.24425,26.47846,0.2004],[-77.25377,26.48005,0.1411],[-77.26183,26.47785,0.0789],[-77.26757,26.47256,0.0],[-77.27237,26.46947,0.0],[-77.27668,26.46996,0.2839],[-77.27823,26.46581,0.1875],[-77.27233,26.46068,0.2643],[-77.26745,26.45327,0.0],[-77.2633,26.44221,0.2784],[-77.25455,26.43814,0.1633],[-77.25056,26.43822,0.3716],[-77.24665,26.43867,0.1862],[-77.24104,26.44282,0.2817],[-77.24352,26.45441,0.2406],[-77.2425,26.46621,0.2418],[-77.24047,26.46662,0.1235],[-77.24071,26.46735,0.1369],[-77.24299,26.46906,0.0548],[-77.2421,26.47061,0.1007],[-77.23843,26.47016,0.0],[-77.23656,26.46939,0.0],[-77.23607,26.47036,0.4997],[-77.23762,26.47407,0.353]]],
[[[-77.43326,26.62157,0.6347],[-77.43545,26.62149,2.7672],[-77.43257,26.61563,0.0],[-77.43415,26.61009,0.0],[-77.43277,26.60484,0.0],[-77.4239,26.60167,0.167],[-77.42081,26.60334,0.1825],[-77.42374,26.60521,0.0612],[-77.42439,26.60806,0.3874],[-77.42394,26.61669,0.0479],[-77.42593,26.62092,0.0],[-77.42931,26.61945,0.0],[-77.43326,26.62157,0.6347]]],
[[[-77.25914,26.6767,0.0],[-77.2506,26.68769,0.0],[-77.28368,26.68968,0.0],[-77.30712,26.69644,4.1841],[-77.32795,26.70913,2.2558],[-77.37536,26.69953,0.1304],[-77.37011,26.6979,0.0],[-77.36657,26.69302,0.0],[-77.36144,26.68232,0.0],[-77.35009,26.66901,6.6619],[-77.34732,26.66031,0.0],[-77.34846,26.65217,0.0],[-77.35302,26.64606,0.0],[-77.34097,26.62153,3.3329],[-77.32974,26.60456,3.4536],[-77.31216,26.59467,0.349],[-77.21955,26.58242,0.585],[-77.19616,26.57266,0.0],[-77.16072,26.5642,4.5353],[-77.15355,26.54947,0.0],[-77.15795,26.53144,0.0],[-77.16808,26.51577,0.0],[-77.173,26.51284,0.0],[-77.18017,26.51008,0.0],[-77.18643,26.50593,0.0542],[-77.1892,26.49897,0.0645],[-77.1881,26.4798,0.0],[-77.1892,26.4748,0.0],[-77.1962,26.46288,0.0],[-77.20458,26.45331,0.0],[-77.21544,26.4477,0.0],[-77.23013,26.44746,0.0],[-77.22863,26.37694,0.0657],[-77.21988,26.36494,0.0],[-77.21862,26.35529,0.6433],[-77.25036,26.31306,0.3041],[-77.23339,26.298,0.0],[-77.23058,26.2851,0.0],[-77.03156,26.35529,0.1048],[-77.03002,26.36274,2.7503],[-77.0172,26.38597,0.0],[-77.03295,26.38988,0.5426],[-77.04625,26.39631,3.4572],[-77.05541,26.40693,6.3097],[-77.05883,26.42324,2.5501],[-77.05858,26.46784,0.2783],[-77.05541,26.4748,0.4508],[-77.04214,26.48184,0.0],[-77.04231,26.49803,1.777],[-77.04979,26.51634,0.0],[-77.05883,26.52936,13.2795],[-77.07055,26.53852,6.3398],[-77.10725,26.55671,3.5031],[-77.15526,26.58808,0.0],[-77.18277,26.60029,0.4999],[-77.24389,26.6105,1.5212],[-77.26989,26.62507,2.1243],[-77.2906,26.64696,1.2864],[-77.30525,26.67402,0.0],[-77.27261,26.673,5.7515],[-77.25914,26.6767,0.0]]]]}}