{"type": "Feature","bbox": [-77.4443,26.2571,-76.9924,26.7049],"geometry": {"type": "MultiPolygon","coordinates": [[[[-77.0499,26.4732,0.0],[-77.0507,26.4721,0.0],[-77.0507,26.471,0.5868],[-77.0479,26.4737,0.0],[-77.0499,26.4732,0.0]]],
[[[-77.2157,26.4735,0.0],[-77.2174,26.4746,0.0],[-77.2199,26.4724,0.0],[-77.216,26.4715,0.1064],[-77.2157,26.4735,0.0]]],
[[[-77.1985,26.4632,0.2135],[-77.1968,26.4629,0.0],[-77.1968,26.4643,0.0],[-77.1996,26.4651,0.0],[-77.1993,26.464,0.2228],[-77.1985,26.4632,0.2135]]],
[[[-77.2368,26.4643,0.0844],[-77.2351,26.4646,0.0],[-77.236,26.4674,0.1446],[-77.2376,26.4671,0.0],[-77.2382,26.4638,0.0844],[-77.2368,26.4643,0.0844]]],
[[[-77.2015,26.464,0.1719],[-77.2007,26.4651,0.0],[-77.2032,26.465699999999998,0.0615],[-77.2029,26.4635,0.0],[-77.2015,26.464,0.1719]]],
[[[-77.194,26.4607,0.0],[-77.196,26.4618,0.1066],[-77.1974,26.4615,0.0],[-77.1971,26.4604,0.0],[-77.194,26.4607,0.0]]],
[[[-77.2271,26.4568,0.0],[-77.2271,26.4588,0.0],[-77.229,26.4585,0.0],[-77.2293,26.4565,0.0],[-77.2271,26.4568,0.0]]],
[[[-77.2326,26.4549,0.1526],[-77.2329,26.4568,0.1616],[-77.2351,26.4551,0.0763],[-77.2332,26.4526,0.1011],[-77.2326,26.4549,0.1526]]],
[[[-77.2093,26.4571,0.0],[-77.2118,26.4576,0.0],[-77.2107,26.4529,0.0],[-77.2074,26.4543,0.0],[-77.2071,26.4565,0.0],[-77.2093,26.4571,0.0]]],
[[[-77.2093,26.4615,0.0],[-77.2104,26.4629,0.0],[-77.2121,26.4626,0.0],[-77.2115,26.4612,0.1208],[-77.2093,26.4615,0.0]]],
[[[-77.2179,26.4851,0.8991],[-77.2204,26.4863,0.0],[-77.2226,26.4849,0.0],[-77.2226,26.4835,0.0],[-77.2204,26.4829,0.0],[-77.2207,26.4801,0.4621],[-77.2246,26.4788,0.0],[-77.2237,26.4757,0.1164],[-77.2265,26.4701,0.2007],[-77.2224,26.469,0.0],[-77.2265,26.4688,0.2007],[-77.2276,26.4713,0.0677],[-77.2262,26.4726,0.2424],[-77.2288,26.4735,0.0],[-77.2293,26.4699,0.0],[-77.2276,26.4665,0.1312],[-77.2293,26.465699999999998,0.0],[-77.2276,26.4643,0.1008],[-77.2201,26.4651,0.0],[-77.2196,26.4624,0.1981],[-77.2226,26.4588,0.0],[-77.2168,26.4551,0.0],[-77.216,26.4565,0.1324],[-77.2185,26.4582,0.4159],[-77.2174,26.4649,0.0],[-77.2157,26.466,0.0891],[-77.216,26.464,0.0],[-77.2129,26.464,0.1589],[-77.2118,26.465699999999998,0.0],[-77.2162,26.4701,0.2149],[-77.221,26.4696,0.206],[-77.2229,26.4718,0.2107],[-77.2221,26.4743,0.2091],[-77.2185,26.476,0.1637],[-77.2182,26.4796,0.3002],[-77.2157,26.4799,0.0],[-77.2135,26.4837,0.0],[-77.2179,26.4851,0.8991]]],
[[[-77.2829,26.4751,0.0782],[-77.2829,26.4774,0.0],[-77.2846,26.476,0.1118],[-77.2879,26.4774,0.0],[-77.2896,26.4765,0.1444],[-77.2871,26.4693,0.2678],[-77.2846,26.4707,0.2309],[-77.2829,26.4751,0.0782]]],
[[[-77.1999,26.4746,0.1224],[-77.199,26.4763,0.0],[-77.2001,26.4768,0.1472],[-77.2012,26.4746,0.1224],[-77.2026,26.4749,0.0],[-77.2024,26.4721,0.0],[-77.2001,26.4721,0.0],[-77.1999,26.4746,0.1224]]],
[[[-77.2271,26.476,0.2444],[-77.229,26.4771,0.0],[-77.2304,26.4746,0.0],[-77.2268,26.4749,0.0],[-77.2271,26.476,0.2444]]],
[[[-77.3112,26.4885,0.7618],[-77.314,26.4896,0.0],[-77.3149,26.4882,0.0994],[-77.3124,26.4821,0.5129],[-77.309,26.4851,0.1285],[-77.3112,26.4885,0.7618]]],
[[[-77.2918,26.4774,0.0645],[-77.2924,26.4796,0.2321],[-77.2954,26.4793,0.0853],[-77.2985,26.476,0.0],[-77.2965,26.4749,0.0],[-77.2946,26.4776,0.2774],[-77.2918,26.4774,0.0645]]],
[[[-77.3004,26.4799,0.4435],[-77.3026,26.481,0.1495],[-77.3043,26.4785,0.0],[-77.3004,26.4771,0.9419],[-77.2993,26.4793,0.1174],[-77.3004,26.4799,0.4435]]],
[[[-77.2112,26.4774,0.0],[-77.2138,26.479,0.0],[-77.214,26.4768,0.0],[-77.2124,26.4763,0.0962],[-77.2135,26.474,0.2173],[-77.2093,26.4751,0.0],[-77.2087,26.4774,0.0],[-77.2112,26.4774,0.0]]],
[[[-77.2093,26.4815,0.0],[-77.2118,26.4799,0.0],[-77.209,26.4801,0.0],[-77.2079,26.4821,0.0],[-77.2093,26.4815,0.0]]],
[[[-77.2782,26.4801,0.1821],[-77.2787,26.479,0.1821],[-77.2774,26.4788,0.0],[-77.2763,26.4818,0.0],[-77.2771,26.4818,0.0],[-77.2782,26.4801,0.1821]]],
[[[-77.259,26.4821,0.0849],[-77.2588,26.4837,0.0],[-77.2621,26.481,0.1799],[-77.261,26.481,0.0],[-77.259,26.4821,0.0849]]],
[[[-77.3043,26.4843,0.0],[-77.3029,26.4843,0.1208],[-77.3029,26.486,0.0],[-77.3054,26.486,0.0],[-77.3043,26.4843,0.0]]],
[[[-77.3074,26.4799,0.0],[-77.3026,26.4818,0.1495],[-77.3068,26.4826,0.0],[-77.3082,26.4818,0.3729],[-77.3074,26.4799,0.0]]],
[[[-77.3226,26.4921,0.0],[-77.3246,26.4946,0.1596],[-77.3221,26.489,1.1763],[-77.3165,26.4868,0.0],[-77.3196,26.4907,0.0],[-77.3226,26.4921,0.0]]],
[[[-77.204,26.4918,0.2145],[-77.2051,26.4949,0.0],[-77.2076,26.4946,0.0917],[-77.2071,26.4904,0.3273],[-77.2096,26.4888,0.1495],[-77.2063,26.486,0.4311],[-77.2063,26.4818,0.0],[-77.204,26.4813,0.0838],[-77.2046,26.479,0.0],[-77.2024,26.4799,0.0842],[-77.2001,26.4776,0.0842],[-77.1968,26.4793,0.2869],[-77.1963,26.471,0.3369],[-77.199,26.4701,0.0763],[-77.196,26.469,0.0812],[-77.1963,26.4654,0.0],[-77.1926,26.4649,0.0],[-77.1924,26.4676,0.0517],[-77.196,26.4699,0.0812],[-77.1926,26.4746,0.1012],[-77.194,26.476,0.2637],[-77.1932,26.4796,0.3497],[-77.1949,26.4826,0.0],[-77.2007,26.4815,0.1133],[-77.204,26.4835,0.5094],[-77.2038,26.4863,2.0971],[-77.2015,26.4865,0.0],[-77.201,26.4888,0.0],[-77.2032,26.4888,0.0],[-77.204,26.4918,0.2145]]],
[[[-77.2418,26.491,0.0755],[-77.2446,26.4924,0.0],[-77.2462,26.4901,0.0],[-77.2421,26.4899,0.0],[-77.2418,26.491,0.0755]]],
[[[-77.2471,26.4971,0.0],[-77.2496,26.4974,0.0],[-77.2496,26.4962,0.0],[-77.2468,26.4951,0.0],[-77.2471,26.4971,0.0]]],
[[[-77.1826,26.4946,0.0],[-77.1832,26.4976,0.0],[-77.1874,26.4974,0.0],[-77.1913,26.4907,0.0],[-77.1862,26.4915,0.0],[-77.1826,26.4946,0.0]]],
[[[-77.2365,26.4935,0.0],[-77.2351,26.4946,0.0],[-77.236,26.4971,0.0],[-77.2382,26.4954,0.1705],[-77.2365,26.4935,0.0]]],
[[[-77.209,26.4957,0.0],[-77.2129,26.4968,0.1407],[-77.2129,26.4949,0.0],[-77.2079,26.4949,0.0917],[-77.209,26.4957,0.0]]],
[[[-77.1629,26.4996,0.0398],[-77.1643,26.4996,0.0398],[-77.1651,26.4979,0.1297],[-77.1624,26.4979,0.0339],[-77.1629,26.4996,0.0398]]],
[[[-77.0762,26.2799,0.6597],[-77.079,26.281,0.3474],[-77.0829,26.2779,0.8129],[-77.0801,26.2749,0.0],[-77.0807,26.2724,0.0],[-77.0707,26.2738,3.0635],[-77.0718,26.2774,2.4133],[-77.0762,26.2799,0.6597]]],
[[[-77.279,26.281,0.0],[-77.279,26.2854,0.0],[-77.2821,26.2854,0.121],[-77.2826,26.2829,0.0],[-77.2801,26.2804,0.0],[-77.279,26.281,0.0]]],
[[[-77.2121,26.2826,0.3572],[-77.214,26.2843,0.0],[-77.2138,26.2824,0.0],[-77.216,26.2807,0.0],[-77.2118,26.2801,0.0],[-77.2121,26.2826,0.3572]]],
[[[-77.2165,26.2835,0.2012],[-77.2154,26.2854,0.0],[-77.2171,26.2857,0.0],[-77.2176,26.2804,0.0],[-77.2162,26.2821,0.2012],[-77.2165,26.2835,0.2012]]],
[[[-77.0154,26.2918,0.0],[-77.0146,26.2929,0.3459],[-77.0174,26.2913,0.0],[-77.016,26.2913,0.0],[-77.0154,26.2918,0.0]]],
[[[-77.0515,26.2974,0.6885],[-77.051,26.2993,0.0],[-77.0574,26.2976,0.0],[-77.0587,26.2946,0.565],[-77.0549,26.2896,0.136],[-77.0532,26.2907,0.0],[-77.0515,26.2974,0.6885]]],
[[[-77.0429,26.2957,0.4707],[-77.0424,26.2968,0.4707],[-77.0446,26.2974,0.0],[-77.049,26.2938,0.3392],[-77.0462,26.2954,0.1018],[-77.0435,26.2943,0.4611],[-77.0429,26.2957,0.4707]]],
[[[-76.9985,26.351,0.0],[-76.9982,26.3537,0.0],[-76.9999,26.3554,0.0],[-77.0001,26.3521,0.0],[-77.0032,26.3513,1.0083],[-76.9998,26.3479,0.0],[-76.9985,26.351,0.0]]],
[[[-77.0204,26.3285,0.0],[-77.0235,26.3296,0.0],[-77.0246,26.3279,0.0],[-77.0229,26.3262,0.1785],[-77.0226,26.3279,0.1699],[-77.0204,26.3274,0.0],[-77.0204,26.3285,0.0]]],
[[[-77.2379,26.336,0.1068],[-77.2382,26.3376,0.0],[-77.2401,26.3379,0.1357],[-77.2415,26.3343,0.1442],[-77.2435,26.3349,0.0949],[-77.2457,26.3326,0.0],[-77.2421,26.3315,0.0],[-77.2379,26.336,0.1068]]],
[[[-77.2854,26.299,0.0],[-77.2879,26.3004,0.0],[-77.2907,26.2985,0.0],[-77.2907,26.296,0.0],[-77.2838,26.2896,0.0],[-77.2832,26.2915,0.1711],[-77.2854,26.2918,0.2252],[-77.2887,26.296,0.1102],[-77.2887,26.2979,0.3472],[-77.2874,26.2968,0.0],[-77.2854,26.299,0.0]]],
[[[-77.0499,26.3004,0.0],[-77.0485,26.3015,0.0],[-77.0512,26.3015,0.0],[-77.051,26.3007,0.3662],[-77.0499,26.3004,0.0]]],
[[[-77.2485,26.3715,0.0],[-77.2501,26.3738,0.0],[-77.2504,26.3687,0.0],[-77.2487,26.3685,0.0621],[-77.2485,26.3715,0.0]]],
[[[-77.2299,26.3876,0.1263],[-77.2296,26.389,0.0],[-77.2318,26.389,0.0],[-77.2315,26.3865,0.0725],[-77.2299,26.3876,0.1263]]],
[[[-77.2896,26.3854,0.2026],[-77.291,26.3865,0.1495],[-77.294,26.3857,0.0],[-77.2924,26.3793,0.2534],[-77.2937,26.3788,0.2534],[-77.2951,26.3721,0.2209],[-77.2918,26.3704,0.4125],[-77.2949,26.3696,0.0967],[-77.2951,26.3651,0.0],[-77.2893,26.3654,0.0],[-77.2868,26.3674,0.4642],[-77.2862,26.3651,0.0],[-77.284,26.366,0.3559],[-77.2807,26.3643,0.1139],[-77.2782,26.3679,0.1041],[-77.2726,26.3699,0.0],[-77.2735,26.3715,0.2002],[-77.2804,26.369,0.0],[-77.2913,26.3704,0.4125],[-77.286,26.3749,0.1375],[-77.2876,26.3762,0.0502],[-77.2885,26.3746,0.15],[-77.2918,26.3749,0.0978],[-77.2871,26.3815,0.0],[-77.2896,26.3854,0.2026]]],
[[[-77.2565,26.389,0.078],[-77.256,26.3904,0.078],[-77.2588,26.3899,0.219],[-77.2585,26.3882,0.0],[-77.2565,26.389,0.078]]],
[[[-77.286,26.3876,0.1974],[-77.2851,26.3901,0.0],[-77.2868,26.3896,0.1757],[-77.2868,26.3868,0.0],[-77.286,26.3876,0.1974]]],
[[[-77.2854,26.3554,0.0],[-77.2887,26.3557,0.0],[-77.2882,26.3532,0.0],[-77.2913,26.349,0.102],[-77.2946,26.3496,0.18],[-77.2968,26.3543,0.0],[-77.2935,26.3529,0.0],[-77.2907,26.3549,0.2301],[-77.2968,26.3557,0.0],[-77.2996,26.3537,0.1846],[-77.2996,26.3521,0.1846],[-77.3037,26.3513,0.1253],[-77.306,26.349,0.8393],[-77.3126,26.3468,0.0044],[-77.3213,26.3476,0.2515],[-77.3221,26.3454,0.426],[-77.3187,26.3418,0.0],[-77.3063,26.3371,0.0],[-77.3087,26.3429,0.2458],[-77.3065,26.346,0.1188],[-77.3074,26.3479,0.103],[-77.2985,26.3507,0.3095],[-77.2901,26.346,0.0],[-77.2918,26.3432,0.2966],[-77.2946,26.344,0.0871],[-77.2915,26.3385,0.0655],[-77.2862,26.3363,0.0764],[-77.2826,26.3304,0.0],[-77.284,26.3232,0.1399],[-77.2829,26.3201,-0.0332],[-77.2849,26.3221,0.1399],[-77.2865,26.3199,0.3388],[-77.2851,26.316,0.051],[-77.2876,26.3168,-0.3947],[-77.2893,26.3143,0.1268],[-77.2946,26.3121,0.2279],[-77.2924,26.3104,0.0],[-77.2926,26.3121,0.0739],[-77.2907,26.3121,-0.1234],[-77.291,26.3099,0.0],[-77.2838,26.306,0.4125],[-77.281,26.3068,0.0],[-77.2832,26.3107,0.0759],[-77.2804,26.324,-0.0333],[-77.2815,26.3301,0.0],[-77.279,26.3351,0.0],[-77.2826,26.3418,0.1968],[-77.2874,26.3426,0.0],[-77.2857,26.3457,0.0],[-77.2854,26.3554,0.0]]],
[[[-77.3015,26.3385,0.0],[-77.3004,26.3399,0.1134],[-77.304,26.3399,0.265],[-77.3051,26.3363,0.3181],[-77.2885,26.3296,0.5551],[-77.2899,26.3338,0.0],[-77.2971,26.3349,0.1674],[-77.2935,26.3368,0.0],[-77.2932,26.3388,0.0],[-77.2985,26.3382,0.0],[-77.2982,26.3343,0.1734],[-77.3001,26.3349,0.1734],[-77.3015,26.3385,0.0]]],
[[[-77.2474,26.3463,0.0689],[-77.2496,26.3471,0.2426],[-77.2482,26.3507,0.0],[-77.2496,26.3507,0.0],[-77.2499,26.3482,0.2426],[-77.2524,26.3476,0.0926],[-77.2515,26.3454,0.4907],[-77.2532,26.3421,0.0],[-77.2529,26.3376,0.0],[-77.2479,26.3343,0.0854],[-77.2471,26.3354,0.0854],[-77.2499,26.3388,0.0],[-77.2482,26.341,0.0],[-77.2499,26.3432,0.0],[-77.244,26.3457,0.0],[-77.2443,26.3468,0.0],[-77.2474,26.3463,0.0689]]],
[[[-77.196,26.3515,0.0],[-77.194,26.3515,0.1047],[-77.1943,26.354,0.0],[-77.1979,26.354,0.0],[-77.1976,26.3532,0.0847],[-77.196,26.3515,0.0]]],
[[[-77.0293,26.3537,0.1132],[-77.0296,26.3521,0.1132],[-77.0268,26.3554,0.4278],[-77.0287,26.3551,0.0],[-77.0293,26.3537,0.1132]]],
[[[-77.1832,26.3554,0.4441],[-77.1857,26.3565,0.0723],[-77.1874,26.3529,0.0],[-77.1843,26.3535,0.0917],[-77.1849,26.3518,0.146],[-77.1835,26.351,0.146],[-77.1821,26.3537,0.0],[-77.1832,26.3554,0.4441]]],
[[[-77.1685,26.354,0.2261],[-77.1704,26.3554,0.2261],[-77.1707,26.3526,0.0],[-77.1676,26.3526,0.0653],[-77.1685,26.354,0.2261]]],
[[[-77.2663,26.3649,0.0],[-77.2657,26.3665,0.1499],[-77.2674,26.3671,0.0],[-77.2699,26.364,0.1097],[-77.271,26.3587,0.3684],[-77.2676,26.354,0.5722],[-77.2712,26.3501,0.4679],[-77.2685,26.3465,0.2296],[-77.2637,26.3454,0.0],[-77.261,26.3429,0.0],[-77.256,26.3479,0.0],[-77.2585,26.3493,0.0],[-77.2599,26.3482,0.1987],[-77.2588,26.3463,0.1624],[-77.2599,26.3463,0.067],[-77.2632,26.349,0.5441],[-77.2646,26.354,0.1811],[-77.2613,26.3596,0.002],[-77.2663,26.3629,0.0936],[-77.2663,26.3649,0.0]]],
[[[-77.2621,26.4093,0.0874],[-77.2601,26.4096,0.0],[-77.2607,26.4126,0.0],[-77.2626,26.4121,0.0672],[-77.2621,26.4093,0.0874]]],
[[[-77.0426,26.4301,0.0],[-77.044,26.4274,0.0],[-77.0413,26.4201,0.0],[-77.0385,26.416,0.837],[-77.034,26.414,0.0],[-77.0346,26.4157,0.0],[-77.0382,26.4179,1.7407],[-77.0426,26.4301,0.0]]],
[[[-77.2096,26.4146,0.0],[-77.2096,26.4168,0.0],[-77.2112,26.4174,0.0],[-77.2112,26.4149,0.0],[-77.2096,26.4146,0.0]]],
[[[-77.2121,26.4201,0.1164],[-77.211,26.4207,0.0737],[-77.2126,26.4226,0.0763],[-77.2157,26.4218,0.1871],[-77.2165,26.4193,0.0],[-77.2157,26.4188,0.1792],[-77.2121,26.4201,0.1164]]],
[[[-77.246,26.4274,0.1547],[-77.2485,26.4285,0.2102],[-77.2518,26.4226,0.0],[-77.2513,26.4204,0.0],[-77.2485,26.4218,0.0],[-77.2504,26.4221,0.0],[-77.2499,26.4249,0.0719],[-77.2482,26.4249,0.1614],[-77.2482,26.4232,0.1024],[-77.2457,26.4243,0.217],[-77.246,26.4274,0.1547]]],
[[[-77.0457,26.431,0.0],[-77.0451,26.429,0.0],[-77.0437,26.4293,0.0],[-77.0451,26.4318,0.0],[-77.0449,26.4324,0.5135],[-77.0437,26.4318,0.0],[-77.0443,26.4346,0.0],[-77.0471,26.4374,0.0],[-77.0474,26.4357,0.7001],[-77.0457,26.431,0.0]]],
[[[-77.176,26.4315,0.0677],[-77.1768,26.4296,0.0],[-77.1768,26.4287,0.0],[-77.1746,26.4301,0.0],[-77.176,26.4315,0.0677]]],
[[[-77.2387,26.4138,0.0673],[-77.2365,26.4129,0.0713],[-77.2324,26.4185,0.1111],[-77.2288,26.4201,0.0],[-77.2282,26.4238,0.1946],[-77.2249,26.4246,0.0],[-77.2237,26.4265,0.093],[-77.2226,26.4265,0.093],[-77.2235,26.424,0.0889],[-77.221,26.4249,0.0],[-77.2224,26.4196,0.0],[-77.2187,26.4199,0.2345],[-77.2168,26.4215,0.0],[-77.2171,26.4229,0.0],[-77.2196,26.4232,0.3373],[-77.2176,26.4265,0.0],[-77.2218,26.4274,0.0],[-77.2224,26.429,0.0],[-77.2262,26.4276,0.4928],[-77.2268,26.4346,0.1605],[-77.2288,26.4351,0.1027],[-77.2307,26.4329,0.0792],[-77.2279,26.4301,0.1577],[-77.2296,26.4265,0.2281],[-77.2321,26.426,0.0629],[-77.2312,26.4299,0.0673],[-77.234,26.4282,0.2165],[-77.2321,26.4304,0.0673],[-77.2332,26.4321,0.09],[-77.2371,26.4279,0.1456],[-77.2412,26.4287,0.1167],[-77.2443,26.426,0.1118],[-77.246,26.4193,0.0],[-77.251,26.4182,0.0624],[-77.2513,26.414,0.1073],[-77.2524,26.4162,0.1384],[-77.254,26.4157,0.0],[-77.2538,26.4124,0.0],[-77.246,26.4126,0.0631],[-77.2468,26.4143,0.0534],[-77.2487,26.4138,0.0534],[-77.2482,26.4157,0.1229],[-77.2435,26.4179,0.0647],[-77.2363,26.4176,0.1446],[-77.2376,26.4204,0.1056],[-77.2357,26.4201,0.319],[-77.2351,26.416,0.1646],[-77.2387,26.4162,0.0],[-77.2387,26.4138,0.0673]]],
[[[-77.2176,26.4299,0.0],[-77.2196,26.4299,0.2134],[-77.2199,26.4315,0.0],[-77.2213,26.431,0.0],[-77.2196,26.4285,0.0],[-77.2176,26.4299,0.0]]],
[[[-77.1824,26.4296,0.0696],[-77.181,26.4304,0.0696],[-77.184,26.4307,0.0],[-77.1835,26.4299,0.0],[-77.1824,26.4296,0.0696]]],
[[[-77.2385,26.4354,0.3142],[-77.2374,26.4374,0.0401],[-77.2399,26.4376,0.0452],[-77.2415,26.4346,0.1015],[-77.2387,26.4332,0.0],[-77.2379,26.4301,0.0],[-77.2346,26.4332,0.194],[-77.2357,26.4365,0.0],[-77.2368,26.4363,0.0883],[-77.236,26.4343,0.0698],[-77.2385,26.434,0.3142],[-77.2385,26.4354,0.3142]]],
[[[-77.2243,26.4365,0.2103],[-77.2218,26.4379,0.0671],[-77.2265,26.4365,0.0],[-77.2268,26.4351,0.1605],[-77.2243,26.4365,0.2103]]],
[[[-77.2304,26.4399,0.5967],[-77.2332,26.4404,0.0989],[-77.2321,26.4379,0.2361],[-77.2301,26.4382,0.0],[-77.2304,26.4399,0.5967]]],
[[[-77.1729,26.4396,0.0],[-77.1757,26.4404,0.0],[-77.1754,26.4387,0.0],[-77.1729,26.4385,0.0],[-77.1729,26.4396,0.0]]],
[[[-77.2065,26.4451,0.0],[-77.2054,26.4451,0.0],[-77.206,26.4471,0.0],[-77.2085,26.4465,0.084],[-77.2085,26.446,0.084],[-77.2065,26.4451,0.0]]],
[[[-77.2249,26.4501,0.0828],[-77.2304,26.451,0.0],[-77.2285,26.4479,0.0],[-77.2262,26.4479,0.2267],[-77.2249,26.4501,0.0828]]],
[[[-77.2935,26.4029,0.091],[-77.2915,26.4046,0.0],[-77.2999,26.4015,0.4885],[-77.3001,26.3982,0.5641],[-77.3029,26.3946,0.28],[-77.3024,26.391,0.1058],[-77.3065,26.3915,0.0],[-77.3121,26.3868,0.441],[-77.3112,26.3807,0.179],[-77.3029,26.3801,0.0],[-77.3018,26.3826,0.0],[-77.3046,26.3843,0.1479],[-77.2937,26.389,0.0],[-77.2937,26.3913,0.0],[-77.2982,26.3896,0.267],[-77.2974,26.3949,0.0],[-77.2988,26.3968,0.3188],[-77.2935,26.4029,0.091]]],
[[[-77.2399,26.3949,0.0],[-77.2399,26.3963,0.0422],[-77.2418,26.396,0.0],[-77.2415,26.3935,0.0],[-77.2387,26.3907,0.1294],[-77.2382,26.3926,0.0],[-77.2399,26.3949,0.0]]],
[[[-77.2862,26.3926,0.1175],[-77.2838,26.3924,0.1759],[-77.2835,26.3943,0.0],[-77.2865,26.3946,0.0686],[-77.2862,26.3926,0.1175]]],
[[[-77.2785,26.4001,0.0],[-77.2799,26.4035,0.1459],[-77.2812,26.399,0.0806],[-77.2793,26.3985,0.0],[-77.2785,26.4001,0.0]]],
[[[-77.2554,26.4071,0.0943],[-77.259,26.4082,0.0],[-77.2618,26.4051,0.142],[-77.2635,26.4068,0.1924],[-77.266,26.4057,0.0],[-77.2665,26.404,0.1875],[-77.264,26.403199999999998,0.0],[-77.264,26.3988,0.0],[-77.2626,26.3982,0.2021],[-77.2629,26.394,0.3641],[-77.2599,26.3946,0.0],[-77.2599,26.4029,0.0667],[-77.2546,26.4057,0.0],[-77.2549,26.4029,0.0749],[-77.2571,26.4037,0.0],[-77.2588,26.401,0.0721],[-77.2574,26.4004,0.0],[-77.2568,26.4026,0.0749],[-77.2538,26.4021,0.1467],[-77.254,26.4065,0.0],[-77.2554,26.4071,0.0943]]],
[[[-77.2299,26.3974,0.0],[-77.2324,26.3993,0.0102],[-77.2346,26.3988,0.0],[-77.2351,26.396,0.126],[-77.2376,26.3943,0.0563],[-77.2363,26.3935,-0.1008],[-77.2374,26.3899,0.1176],[-77.2393,26.3882,0.1184],[-77.2449,26.3876,0.3277],[-77.2443,26.3893,0.0],[-77.2485,26.3918,0.0428],[-77.249,26.3951,0.1568],[-77.2515,26.3949,0.1003],[-77.2515,26.3968,0.0713],[-77.2532,26.3965,0.116],[-77.2521,26.3988,0.0],[-77.2546,26.3985,0.2259],[-77.2532,26.391,0.0],[-77.2518,26.3901,0.0],[-77.2504,26.3918,0.1608],[-77.2493,26.3893,0.0],[-77.2529,26.3868,0.0],[-77.2526,26.3846,0.6357],[-77.2557,26.3807,0.0499],[-77.2585,26.384,0.0],[-77.2579,26.386,0.0745],[-77.2599,26.386,0.0411],[-77.259,26.3882,0.1382],[-77.261,26.3888,0.0],[-77.261,26.391,0.0],[-77.2646,26.3915,0.1564],[-77.2674,26.3901,0.285],[-77.269,26.3937,0.0496],[-77.266,26.3951,0.0],[-77.2718,26.3949,0.0],[-77.271,26.391,0.367],[-77.266,26.3863,0.0],[-77.2626,26.3854,0.2407],[-77.2629,26.3815,0.0],[-77.261,26.3818,0.2548],[-77.2613,26.3776,0.0699],[-77.2568,26.3718,0.3064],[-77.2588,26.371,0.0833],[-77.2579,26.3679,0.2037],[-77.2596,26.3665,0.106],[-77.2576,26.3643,0.1233],[-77.2515,26.3662,0.0],[-77.2529,26.3724,0.5268],[-77.2487,26.3757,0.0],[-77.2487,26.3821,0.1455],[-77.2443,26.3804,0.0],[-77.2401,26.3815,0.0624],[-77.2407,26.3793,0.0],[-77.2424,26.3799,0.0],[-77.2465,26.3774,0.0],[-77.2465,26.3738,0.1277],[-77.2432,26.374,0.1123],[-77.2432,26.3726,0.0641],[-77.2496,26.3668,0.0771],[-77.2507,26.3621,0.1768],[-77.2471,26.3635,0.0],[-77.2468,26.3599,0.0],[-77.249,26.3563,0.0],[-77.2443,26.354,0.0769],[-77.2432,26.3554,0.0769],[-77.244,26.3613,0.0],[-77.2415,26.3638,0.0],[-77.2418,26.3654,0.0],[-77.2404,26.3651,0.1226],[-77.2426,26.3554,0.0769],[-77.2418,26.3521,0.2312],[-77.2401,26.3524,0.0],[-77.2396,26.3554,0.0417],[-77.2349,26.3607,0.1103],[-77.2351,26.354,0.168],[-77.2337,26.3529,0.2096],[-77.2404,26.3499,0.2053],[-77.2393,26.3476,0.0],[-77.2368,26.3482,0.0],[-77.2349,26.3457,0.1359],[-77.2396,26.3424,0.0],[-77.2382,26.3399,0.0],[-77.2349,26.3396,0.0],[-77.2326,26.3479,0.1454],[-77.2296,26.3515,0.0767],[-77.2196,26.3415,0.0],[-77.2176,26.3493,0.0],[-77.2215,26.3482,0.3865],[-77.2235,26.3521,0.0827],[-77.2174,26.3532,0.0],[-77.2126,26.3601,0.0],[-77.2138,26.3604,0.1608],[-77.2154,26.359,0.1608],[-77.2162,26.3596,0.0655],[-77.2182,26.3576,0.3216],[-77.219,26.3629,0.0791],[-77.2213,26.3604,0.1368],[-77.2226,26.361,0.1162],[-77.2179,26.3682,-0.3083],[-77.2185,26.3735,-0.0045],[-77.2215,26.3735,0.2303],[-77.2229,26.3765,0.0793],[-77.2257,26.374,0.3062],[-77.2288,26.3765,0.0657],[-77.2315,26.3749,0.139],[-77.2312,26.3782,0.0641],[-77.2282,26.3801,0.7548],[-77.2285,26.384,0.0],[-77.2307,26.3793,0.0],[-77.2326,26.3826,0.0658],[-77.2349,26.3815,0.1275],[-77.2332,26.3776,0.13],[-77.234,26.3757,0.1931],[-77.2324,26.3749,0.0],[-77.2326,26.3713,0.0],[-77.2354,26.3679,0.1096],[-77.2401,26.3687,0.2036],[-77.2382,26.3746,0.0],[-77.2351,26.3782,0.0],[-77.2371,26.3826,0.3063],[-77.2357,26.3851,0.0867],[-77.2335,26.3835,0.0658],[-77.2365,26.3885,0.2722],[-77.2335,26.3904,0.0],[-77.2299,26.3974,0.0]]],
[[[-77.2435,26.4024,0.0],[-77.2446,26.4046,0.0587],[-77.2465,26.4037,0.0718],[-77.2451,26.4015,0.0],[-77.2435,26.4024,0.0]]],
[[[-77.2879,26.414,0.0],[-77.2921,26.4146,0.0],[-77.2904,26.4101,0.2813],[-77.2946,26.4096,0.0],[-77.2913,26.4062,0.1882],[-77.289,26.4071,0.3013],[-77.2896,26.4096,0.2701],[-77.2857,26.4126,0.142],[-77.2879,26.414,0.0]]],
[[[-77.2385,26.4115,0.0],[-77.2368,26.4124,0.0713],[-77.2399,26.4118,0.0],[-77.2429,26.4135,0.1674],[-77.2421,26.4104,0.2387],[-77.2438,26.4054,0.0],[-77.2415,26.4062,0.2485],[-77.2404,26.4046,0.0],[-77.2412,26.4107,0.2356],[-77.2385,26.4115,0.0]]],
[[[-77.2376,26.4482,0.1524],[-77.2396,26.4496,0.0495],[-77.2449,26.4438,0.1323],[-77.2504,26.4443,0.1342],[-77.2576,26.4387,0.1496],[-77.2624,26.4413,0.0],[-77.2657,26.4401,0.1951],[-77.2637,26.4438,0.0],[-77.2671,26.4421,0.0],[-77.2679,26.446,0.0838],[-77.2699,26.4463,0.0],[-77.2676,26.436,0.2906],[-77.2732,26.4296,0.0],[-77.2715,26.4296,0.0],[-77.2688,26.4332,0.0],[-77.2615,26.4346,0.0],[-77.2585,26.4371,0.1496],[-77.2551,26.4368,0.0],[-77.254,26.4335,0.114],[-77.259,26.4343,0.0],[-77.2613,26.4307,0.0],[-77.2654,26.4329,0.0],[-77.2743,26.4274,0.0],[-77.279,26.4182,0.3088],[-77.2826,26.4138,0.0],[-77.2851,26.4132,0.142],[-77.2838,26.4071,0.0],[-77.2887,26.4057,0.0],[-77.2907,26.403199999999998,0.0],[-77.2921,26.3968,0.1765],[-77.294,26.3954,0.0],[-77.2921,26.3924,0.0],[-77.2882,26.3979,0.4014],[-77.2812,26.4013,0.0674],[-77.2818,26.411,0.3966],[-77.2757,26.4118,0.0],[-77.2699,26.419,0.3301],[-77.2646,26.419,0.0524],[-77.264,26.421,0.2164],[-77.2624,26.4171,2.1032],[-77.2585,26.4168,0.0],[-77.2557,26.4224,0.0],[-77.2593,26.4215,0.2939],[-77.2624,26.4268,0.0],[-77.2579,26.429,0.0748],[-77.2579,26.4324,0.3143],[-77.2562,26.4271,0.8687],[-77.2496,26.4287,0.0],[-77.2493,26.4307,0.1411],[-77.2435,26.429,0.0],[-77.2429,26.4365,0.0362],[-77.2443,26.4393,0.0],[-77.2418,26.4404,0.2172],[-77.2412,26.4382,0.0559],[-77.2357,26.4396,0.0],[-77.2363,26.4443,0.0],[-77.234,26.4465,0.0],[-77.2349,26.4479,0.0],[-77.2371,26.4468,0.2297],[-77.2376,26.4482,0.1524]]],
[[[-77.194,26.4501,0.2247],[-77.194,26.4521,0.0],[-77.1982,26.4507,0.0],[-77.1976,26.4485,0.0],[-77.194,26.4485,0.0],[-77.194,26.4501,0.2247]]],
[[[-77.2363,26.4499,0.0],[-77.2357,26.4526,0.0],[-77.2376,26.4507,0.0],[-77.2371,26.449,0.0],[-77.2363,26.4499,0.0]]],
[[[-77.2179,26.4535,0.0921],[-77.2171,26.4549,0.0],[-77.2213,26.4538,0.0],[-77.2215,26.4513,0.1073],[-77.2196,26.4504,0.0],[-77.2179,26.4535,0.0921]]],
[[[-77.3579,26.5182,0.2172],[-77.3587,26.5196,0.2865],[-77.361,26.5193,0.0],[-77.3596,26.5171,0.2172],[-77.3579,26.5182,0.2172]]],
[[[-77.3743,26.5326,0.7088],[-77.3737,26.5343,0.0872],[-77.376,26.5354,0.437],[-77.3754,26.5329,0.7088],[-77.3743,26.5326,0.7088]]],
[[[-77.3785,26.5374,0.0],[-77.3765,26.5382,0.5731],[-77.3796,26.5388,0.0],[-77.3796,26.5371,0.0],[-77.3785,26.5374,0.0]]],
[[[-77.3712,26.539,0.0],[-77.3693,26.541,0.0],[-77.3746,26.5379,0.1551],[-77.374,26.5351,0.0872],[-77.3696,26.5343,0.0892],[-77.3676,26.5321,0.1577],[-77.366,26.5326,0.1577],[-77.3654,26.5365,0.0],[-77.371,26.5351,0.0759],[-77.3712,26.539,0.0]]],
[[[-77.3993,26.5699,0.5016],[-77.4032,26.571,0.0],[-77.4004,26.5687,1.3064],[-77.3999,26.5651,0.0],[-77.3946,26.566,0.3592],[-77.3901,26.5607,0.2495],[-77.3871,26.5621,0.4472],[-77.3874,26.5663,0.1965],[-77.3971,26.5676,0.0],[-77.3993,26.5699,0.5016]]],
[[[-77.3871,26.6465,0.3514],[-77.3885,26.6487,0.7768],[-77.391,26.6457,0.0],[-77.3879,26.6413,0.0839],[-77.3879,26.6396,0.2412],[-77.3904,26.6385,0.4657],[-77.3901,26.636,0.0],[-77.3876,26.634,0.0828],[-77.386,26.6354,0.0576],[-77.3857,26.6413,0.1492],[-77.3871,26.6465,0.3514]]],
[[[-77.3715,26.6435,0.0],[-77.3721,26.6457,0.0],[-77.3751,26.6449,0.1134],[-77.3751,26.6437,0.0],[-77.3715,26.6435,0.0]]],
[[[-77.3874,26.6126,0.0],[-77.386,26.6135,0.0],[-77.3899,26.6132,0.0689],[-77.3899,26.6124,0.0689],[-77.3874,26.6126,0.0]]],
[[[-77.4032,26.6271,0.0],[-77.406,26.6285,0.0],[-77.4035,26.6257,0.0],[-77.3976,26.6257,0.0],[-77.3979,26.6268,0.0],[-77.4024,26.626,0.1774],[-77.4032,26.6271,0.0]]],
[[[-77.4171,26.6229,0.0],[-77.4165,26.626,0.0],[-77.4199,26.6254,0.0],[-77.4212,26.6235,0.1135],[-77.4201,26.6212,0.0],[-77.4171,26.6229,0.0]]],
[[[-77.3915,26.6185,0.08],[-77.3951,26.6196,0.0],[-77.3946,26.6162,0.0727],[-77.3924,26.6151,0.0],[-77.3907,26.6154,0.0],[-77.3915,26.6185,0.08]]],
[[[-77.4112,26.6221,0.0],[-77.4126,26.6238,0.0],[-77.4149,26.6229,0.039],[-77.4118,26.621,0.0],[-77.4135,26.6196,0.1294],[-77.4165,26.6218,0.0679],[-77.4174,26.621,0.0679],[-77.4137,26.6179,0.0479],[-77.4126,26.6146,0.045],[-77.4096,26.6154,0.0536],[-77.4079,26.6124,0.0],[-77.406,26.6138,0.0526],[-77.406,26.6185,0.1068],[-77.4112,26.6221,0.0]]],
[[[-77.4096,26.599,0.0364],[-77.4124,26.5999,0.1749],[-77.4124,26.6018,0.0392],[-77.4149,26.6013,0.2834],[-77.4201,26.5957,0.0],[-77.4099,26.5976,0.0563],[-77.4096,26.599,0.0364]]],
[[[-77.4129,26.6054,0.0],[-77.4143,26.6071,0.0484],[-77.4157,26.6046,0.0],[-77.4129,26.6049,0.0],[-77.4129,26.6054,0.0]]],
[[[-77.4021,26.6101,0.0],[-77.4043,26.6115,0.0746],[-77.4065,26.6096,0.0547],[-77.406,26.6054,0.0],[-77.4046,26.606,0.0],[-77.4046,26.6085,0.0],[-77.4013,26.606,0.0],[-77.4021,26.6101,0.0]]],
[[[-77.4146,26.6085,0.0484],[-77.416,26.611,0.0452],[-77.4187,26.609,0.0003],[-77.4157,26.6074,0.1149],[-77.4146,26.6085,0.0484]]],
[[[-77.3799,26.616,0.0],[-77.3815,26.6174,0.0],[-77.3812,26.6138,0.1628],[-77.3796,26.6124,0.2291],[-77.3807,26.6085,0.0],[-77.3779,26.6063,0.0767],[-77.3754,26.6129,0.0],[-77.3799,26.616,0.0]]],
[[[-77.4276,26.6535,0.0],[-77.4301,26.6546,0.0],[-77.4349,26.6529,0.789],[-77.441,26.6487,0.1168],[-77.444,26.6451,0.3523],[-77.4443,26.6407,0.2041],[-77.4407,26.6351,0.0],[-77.4379,26.6343,0.0535],[-77.439,26.6324,0.0576],[-77.4421,26.6326,0.4693],[-77.4396,26.6262,0.1134],[-77.4374,26.6257,0.2674],[-77.4371,26.6229,0.7387],[-77.4279,26.6132,0.0],[-77.4307,26.6104,0.9948],[-77.4337,26.6104,0.3737],[-77.434,26.6087,0.3631],[-77.4313,26.6085,-0.09],[-77.4326,26.6068,0.5022],[-77.4343,26.6076,0.3631],[-77.4346,26.6057,0.7105],[-77.4249,26.6015,0.167],[-77.4221,26.6026,0.1282],[-77.4182,26.6015,0.0519],[-77.4215,26.6051,0.0764],[-77.4212,26.6162,0.0721],[-77.4193,26.6176,0.0],[-77.4226,26.6204,0.1188],[-77.4224,26.624,0.0328],[-77.4238,26.6246,0.0],[-77.4246,26.6229,0.0506],[-77.4249,26.616,0.0479],[-77.4307,26.6185,0.513],[-77.4307,26.6212,0.0206],[-77.4349,26.6243,0.0357],[-77.4335,26.6251,0.0],[-77.4321,26.6238,0.0],[-77.4318,26.6249,0.0],[-77.4351,26.6265,0.0553],[-77.4351,26.6332,0.0],[-77.4404,26.6393,0.0115],[-77.439,26.6401,0.0],[-77.436,26.6388,0.1156],[-77.4362,26.6451,0.0799],[-77.4318,26.649,0.4515],[-77.4271,26.6493,0.0],[-77.4276,26.6535,0.0]]],
[[[-77.406,26.5965,0.0],[-77.4076,26.5979,0.0],[-77.409,26.5968,0.0],[-77.4051,26.5946,0.0],[-77.406,26.5965,0.0]]],
[[[-77.4024,26.5918,0.0],[-77.4043,26.5943,0.0],[-77.4057,26.594,0.0],[-77.4049,26.5918,0.167],[-77.4062,26.5893,0.0774],[-77.4013,26.5882,0.0],[-77.399,26.591,0.0],[-77.4013,26.5921,0.0],[-77.4021,26.5896,0.0656],[-77.4024,26.5918,0.0]]],
[[[-77.3624,26.5857,0.1205],[-77.3635,26.5896,0.0621],[-77.3674,26.5882,0.7381],[-77.3674,26.5865,0.335],[-77.3643,26.5854,0.0],[-77.3632,26.5829,0.0],[-77.3624,26.5857,0.1205]]],
[[[-77.3946,26.5965,0.0731],[-77.3951,26.5987,0.0],[-77.3985,26.5943,0.0718],[-77.3976,26.594,0.0718],[-77.3946,26.5965,0.0731]]],
[[[-77.4013,26.6001,0.0727],[-77.4007,26.6018,0.0],[-77.4032,26.6004,0.0],[-77.4037,26.5949,0.0],[-77.4013,26.596,0.0],[-77.4024,26.5987,0.0],[-77.4013,26.6001,0.0727]]],
[[[-77.3882,26.6018,0.0597],[-77.3879,26.6035,0.161],[-77.3904,26.6021,0.1046],[-77.3896,26.5976,0.0],[-77.3887,26.5982,0.0],[-77.3882,26.6018,0.0597]]],
[[[-77.404,26.6021,0.0652],[-77.4032,26.604,0.0],[-77.4049,26.6043,0.0],[-77.4051,26.6024,0.0],[-77.4074,26.6013,0.0],[-77.406,26.6001,0.0],[-77.404,26.6021,0.0652]]],
[[[-77.3721,26.619,0.0],[-77.3751,26.6199,0.1157],[-77.374,26.6165,0.3376],[-77.3707,26.6143,0.169],[-77.3707,26.6101,0.0],[-77.3674,26.6107,0.2929],[-77.3662,26.6093,0.1992],[-77.3665,26.601,0.0563],[-77.3618,26.601,0.0],[-77.3604,26.6082,0.2831],[-77.3654,26.6118,0.2773],[-77.3668,26.6168,0.0],[-77.3693,26.6162,0.1782],[-77.3721,26.619,0.0]]],
[[[-77.3729,26.5637,0.0],[-77.3724,26.5671,0.0],[-77.3754,26.5624,0.1124],[-77.3804,26.5607,0.1414],[-77.3799,26.5576,0.208],[-77.3782,26.5576,0.0],[-77.3782,26.5607,0.2393],[-77.3746,26.561,0.0],[-77.3729,26.5637,0.0]]],
[[[-77.379,26.564,0.0977],[-77.3765,26.5651,0.0],[-77.3768,26.5668,0.1591],[-77.379,26.5651,0.0977],[-77.3807,26.566,0.0],[-77.3829,26.5632,0.0],[-77.386,26.5632,0.0],[-77.3824,26.5621,0.291],[-77.379,26.564,0.0977]]],
[[[-77.3424,26.5051,0.0],[-77.3399,26.5057,0.0],[-77.3399,26.5065,0.0],[-77.3432,26.5068,0.7659],[-77.3424,26.5051,0.0]]],
[[[-77.1474,26.5101,0.0],[-77.1493,26.5115,0.0],[-77.1524,26.5107,0.0431],[-77.1524,26.509,0.0],[-77.1504,26.5085,0.0],[-77.1496,26.5101,0.0],[-77.1474,26.5101,0.0]]],
[[[-77.2965,26.5049,0.0],[-77.2993,26.5068,0.1617],[-77.3029,26.5046,0.0783],[-77.2982,26.5035,0.0],[-77.2965,26.5049,0.0]]],
[[[-77.3351,26.5076,0.0],[-77.3379,26.5088,0.0],[-77.3385,26.5068,0.1963],[-77.3329,26.5051,0.0],[-77.3351,26.5076,0.0]]],
[[[-77.2321,26.5057,0.0],[-77.2321,26.5088,0.0],[-77.2329,26.509,0.0],[-77.2337,26.5057,0.0],[-77.2321,26.5057,0.0]]],
[[[-77.3279,26.4979,0.2909],[-77.3285,26.5007,0.0],[-77.3321,26.4993,0.5465],[-77.3265,26.4932,0.201],[-77.3265,26.4976,0.2468],[-77.3279,26.4979,0.2909]]],
[[[-77.2226,26.4993,0.0759],[-77.2246,26.5012,0.0945],[-77.226,26.4982,0.3306],[-77.226,26.4962,0.1721],[-77.2232,26.4951,0.1505],[-77.2237,26.4899,0.0],[-77.2213,26.4907,0.0],[-77.2224,26.4926,0.1904],[-77.2199,26.4938,0.324],[-77.2193,26.4968,0.1914],[-77.2157,26.4974,0.0],[-77.2201,26.501,0.0],[-77.2226,26.4993,0.0759]]],
[[[-77.214,26.4999,0.129],[-77.2149,26.5012,0.0],[-77.2168,26.5012,0.0],[-77.2154,26.4993,0.129],[-77.214,26.4999,0.129]]],
[[[-77.1882,26.5038,0.0],[-77.1907,26.5051,0.4235],[-77.1924,26.5035,0.0],[-77.1926,26.5001,0.0],[-77.1904,26.4982,0.0],[-77.1893,26.4982,0.0],[-77.1904,26.5004,0.0645],[-77.1893,26.5021,0.386],[-77.1843,26.5024,0.1542],[-77.1851,26.5049,0.1779],[-77.1882,26.5038,0.0]]],
[[[-77.351,26.5168,0.1214],[-77.3551,26.5171,0.1874],[-77.3532,26.5137,0.0],[-77.3487,26.5135,0.455],[-77.3499,26.5115,0.0],[-77.3465,26.5096,0.0],[-77.3446,26.5121,0.0],[-77.3515,26.5149,0.5202],[-77.351,26.5168,0.1214]]],
[[[-77.2326,26.5132,0.0],[-77.2318,26.5154,0.0],[-77.2368,26.5143,0.0],[-77.2365,26.5132,0.0],[-77.2326,26.5132,0.0]]],
[[[-77.2804,26.5196,0.1244],[-77.2829,26.5213,0.0722],[-77.284,26.5165,0.1352],[-77.2882,26.516,0.0],[-77.2882,26.5146,0.0],[-77.2854,26.5135,0.0],[-77.2707,26.5143,0.0],[-77.2712,26.5187,0.0],[-77.2732,26.519,0.0],[-77.2749,26.5171,0.0546],[-77.2746,26.5201,0.0433],[-77.2768,26.5193,0.0],[-77.2796,26.5207,0.0],[-77.2804,26.5196,0.1244]]],
[[[-77.2785,26.511,0.104],[-77.2776,26.5126,0.0],[-77.2801,26.5121,0.0],[-77.2796,26.5107,0.0],[-77.2785,26.511,0.104]]],
[[[-77.2646,26.5126,0.0],[-77.2613,26.5124,0.0],[-77.2613,26.5137,0.0],[-77.2637,26.5143,0.0],[-77.2646,26.5126,0.0]]],
[[[-77.0615,26.5521,2.7807],[-77.0612,26.5507,2.7001],[-77.0649,26.5501,0.0],[-77.0582,26.5493,2.4701],[-77.051,26.5515,5.8185],[-77.0501,26.5482,3.2795],[-77.0526,26.5482,0.0],[-77.054,26.5451,2.8841],[-77.061,26.5432,2.7031],[-77.0629,26.544,0.0],[-77.0657,26.5415,2.3581],[-77.0724,26.5429,4.744],[-77.0721,26.5451,1.6826],[-77.0801,26.5454,8.3205],[-77.094,26.5546,0.0],[-77.1054,26.5599,6.4762],[-77.1135,26.569,1.3272],[-77.1171,26.5718,2.0903],[-77.1207,26.5721,0.7292],[-77.1212,26.5738,0.7557],[-77.1162,26.5735,0.0],[-77.1179,26.576,0.4531],[-77.121,26.576,0.0],[-77.1224,26.5776,0.0],[-77.1307,26.5765,3.9991],[-77.1332,26.5782,0.2881],[-77.1351,26.5754,0.8574],[-77.1376,26.5782,2.3579],[-77.1435,26.5785,4.5525],[-77.1432,26.5818,0.425],[-77.1462,26.5807,1.9137],[-77.1551,26.5885,0.0],[-77.1626,26.5915,2.1949],[-77.1654,26.5951,0.0],[-77.1699,26.596,0.0],[-77.1679,26.5979,0.0],[-77.1704,26.6046,0.0],[-77.1757,26.6051,1.7881],[-77.1762,26.6021,0.3232],[-77.1793,26.6021,0.0],[-77.1796,26.5996,0.489],[-77.1824,26.6007,0.0],[-77.1832,26.5982,0.8422],[-77.1857,26.6001,0.2503],[-77.1943,26.5965,1.4663],[-77.2046,26.5963,1.4019],[-77.2151,26.5996,0.0],[-77.2204,26.599,1.2919],[-77.2243,26.6037,0.7451],[-77.2279,26.6015,0.71],[-77.2321,26.6054,1.2408],[-77.2343,26.6051,2.1001],[-77.2379,26.6079,0.5812],[-77.2404,26.6074,0.0],[-77.2412,26.6121,0.0],[-77.2487,26.6132,1.6908],[-77.2629,26.6238,0.0],[-77.2676,26.6243,0.8589],[-77.2679,26.6262,0.4573],[-77.2699,26.6262,0.2],[-77.2665,26.6288,0.0],[-77.2693,26.6301,1.294],[-77.2712,26.6293,1.294],[-77.2707,26.6304,1.294],[-77.2732,26.6324,0.0],[-77.2749,26.6304,1.111],[-77.2774,26.6313,0.2549],[-77.2765,26.6357,0.0],[-77.2796,26.6396,0.8568],[-77.2818,26.6396,0.3953],[-77.2804,26.6382,0.0],[-77.2812,26.6354,0.2295],[-77.279,26.6354,1.2992],[-77.2812,26.6338,0.2295],[-77.2918,26.6407,0.0],[-77.296,26.6468,0.533],[-77.2907,26.644,2.5961],[-77.289,26.641,0.0],[-77.2829,26.6393,0.3953],[-77.2907,26.6451,2.5961],[-77.296,26.653199999999998,0.0],[-77.2985,26.6535,2.9142],[-77.3049,26.661,0.8855],[-77.3051,26.6649,0.0],[-77.309,26.6682,5.4155],[-77.3129,26.6749,3.8949],[-77.3146,26.6813,2.9732],[-77.3135,26.6849,0.0],[-77.3151,26.6881,1.7366],[-77.3279,26.6787,0.1098],[-77.326,26.6768,0.0651],[-77.3279,26.6732,0.0774],[-77.3296,26.6735,0.0637],[-77.3288,26.671,0.1348],[-77.3301,26.6693,0.0],[-77.3288,26.6671,2.1243],[-77.3318,26.6682,0.0],[-77.3332,26.6668,0.274],[-77.3346,26.6704,0.1479],[-77.3376,26.6696,1.156],[-77.3507,26.6715,1.6858],[-77.3557,26.666,0.261],[-77.3532,26.6604,0.0],[-77.3393,26.666,3.5899],[-77.3374,26.6654,0.0707],[-77.339,26.6615,0.9326],[-77.3326,26.6626,0.0],[-77.331,26.6654,0.061],[-77.326,26.6646,2.4505],[-77.3232,26.6671,5.0679],[-77.3226,26.666,1.5544],[-77.3243,26.6635,0.0],[-77.316,26.6654,0.0],[-77.3138,26.6646,1.0079],[-77.3176,26.6621,0.0],[-77.3315,26.6585,0.6418],[-77.334,26.6557,0.0],[-77.3321,26.6526,0.3182],[-77.3343,26.6496,0.0],[-77.3335,26.6471,0.0],[-77.3482,26.6351,4.142],[-77.346,26.6279,2.1355],[-77.3479,26.6212,0.065],[-77.3437,26.6099,0.0],[-77.341,26.6082,0.0],[-77.3362,26.6093,0.3782],[-77.3321,26.6043,0.9487],[-77.3307,26.5999,0.1616],[-77.3288,26.5982,0.0868],[-77.324,26.5985,0.0],[-77.3207,26.5968,0.4708],[-77.3199,26.5929,0.0722],[-77.299,26.5976,2.4987],[-77.2946,26.616,0.0],[-77.2951,26.6229,0.1367],[-77.294,26.6229,0.1367],[-77.2921,26.6204,0.0],[-77.2937,26.6135,0.0],[-77.2932,26.6051,0.7261],[-77.2971,26.5971,1.41],[-77.2976,26.591,1.2736],[-77.2993,26.5912,0.0698],[-77.2996,26.5865,0.1907],[-77.2957,26.5874,0.4055],[-77.2937,26.586,0.4571],[-77.294,26.5807,0.0],[-77.2904,26.5815,0.1547],[-77.2871,26.581,0.3754],[-77.2865,26.5793,0.0715],[-77.2776,26.5785,0.0],[-77.2763,26.5829,0.1729],[-77.274,26.5832,0.0],[-77.2746,26.5765,0.2459],[-77.2774,26.5746,0.1083],[-77.2735,26.574,0.1838],[-77.2701,26.5715,0.0],[-77.2601,26.5746,0.4493],[-77.2574,26.574,0.2229],[-77.2487,26.5838,0.3075],[-77.2476,26.5829,0.1803],[-77.249,26.5793,0.0],[-77.2462,26.5776,0.2347],[-77.2487,26.5726,5.2116],[-77.2465,26.5715,0.832],[-77.2432,26.5724,0.0],[-77.244,26.5749,0.0],[-77.2421,26.5782,0.1018],[-77.239,26.574,1.9836],[-77.2337,26.5735,0.0],[-77.2274,26.5757,3.7841],[-77.2274,26.5807,0.0916],[-77.2312,26.5829,1.1872],[-77.2304,26.584,0.4902],[-77.226,26.5838,3.7874],[-77.2229,26.5801,0.2076],[-77.2229,26.5771,0.1547],[-77.2193,26.574,1.7934],[-77.214,26.5768,0.0],[-77.2112,26.5749,0.0],[-77.2057,26.5757,0.2315],[-77.2038,26.5779,0.2773],[-77.1996,26.579,0.6187],[-77.1907,26.5746,0.6542],[-77.1837,26.5735,0.0],[-77.1757,26.5779,0.0],[-77.1751,26.5765,0.0],[-77.1813,26.5676,0.5164],[-77.1804,26.5635,0.5367],[-77.1782,26.5615,0.3056],[-77.1479,26.5579,1.1238],[-77.1438,26.5626,2.8744],[-77.1457,26.5685,0.0],[-77.1418,26.5693,2.3061],[-77.1318,26.5526,0.0],[-77.129,26.544,0.6443],[-77.1282,26.5349,0.9031],[-77.1307,26.5257,0.4727],[-77.1351,26.5226,0.0953],[-77.1335,26.5215,0.0],[-77.1335,26.5182,0.0],[-77.136,26.5149,0.0],[-77.1346,26.5104,0.096],[-77.1393,26.5113,0.0317],[-77.1404,26.5096,0.162],[-77.1404,26.5115,0.0],[-77.1462,26.5065,0.3222],[-77.1485,26.5068,0.0],[-77.1507,26.5046,0.0],[-77.1513,26.499,0.159],[-77.1549,26.4988,0.0],[-77.1537,26.5004,0.0],[-77.1554,26.5018,0.0],[-77.1562,26.5001,0.1171],[-77.1601,26.499,0.046],[-77.161,26.4957,0.0455],[-77.1571,26.4974,0.1094],[-77.1593,26.4946,0.1035],[-77.1643,26.4954,0.1612],[-77.1665,26.4985,-0.5],[-77.1665,26.501,0.069],[-77.1629,26.5012,0.0648],[-77.166,26.506,0.0],[-77.1651,26.5085,-0.064],[-77.1626,26.511,0.1122],[-77.1599,26.5107,0.1659],[-77.1571,26.5079,0.0],[-77.1582,26.5012,0.0],[-77.156,26.5029,0.0658],[-77.1521,26.5026,0.1804],[-77.1524,26.5043,0.0],[-77.1551,26.5038,0.0],[-77.1546,26.506,0.1696],[-77.1521,26.5071,0.112],[-77.1524,26.5088,0.0],[-77.1549,26.5096,0.1101],[-77.1501,26.5143,0.1514],[-77.1462,26.5124,0.0431],[-77.1415,26.5132,0.0],[-77.1374,26.5179,0.0],[-77.1413,26.5182,0.0127],[-77.1399,26.5151,0.1221],[-77.1443,26.5137,0.1101],[-77.1435,26.5176,0.0],[-77.1518,26.5174,0.0],[-77.1499,26.5199,0.0],[-77.1529,26.5226,0.0],[-77.1593,26.5207,0.0],[-77.1612,26.5174,0.0344],[-77.1685,26.5201,0.0],[-77.1674,26.5229,0.0642],[-77.1646,26.5226,0.0],[-77.1676,26.5265,0.0739],[-77.1626,26.529,0.1234],[-77.1637,26.534,0.0],[-77.1665,26.5299,0.2615],[-77.1704,26.5307,0.0],[-77.1696,26.528199999999998,0.1729],[-77.1721,26.5265,0.2161],[-77.1738,26.5287,0.0],[-77.1751,26.5271,0.0],[-77.1787,26.5274,0.0],[-77.1837,26.5299,0.1777],[-77.1837,26.5313,0.2109],[-77.1801,26.5332,0.0],[-77.1807,26.5357,0.1973],[-77.1774,26.5346,0.0536],[-77.1768,26.5362,0.1623],[-77.1782,26.5374,0.0],[-77.1871,26.5357,0.0],[-77.1876,26.5343,0.0],[-77.1862,26.5338,0.1877],[-77.1882,26.5332,0.1108],[-77.1929,26.5349,0.2578],[-77.1921,26.5362,0.0489],[-77.189,26.5354,0.0],[-77.1899,26.5379,0.0536],[-77.1949,26.5357,0.0],[-77.1974,26.5382,0.0],[-77.1976,26.5368,0.2008],[-77.2012,26.5362,0.1879],[-77.2068,26.5324,0.0557],[-77.2057,26.5346,0.0577],[-77.2107,26.5365,0.1305],[-77.2132,26.5393,0.0],[-77.2129,26.5374,0.0],[-77.2162,26.5362,0.0723],[-77.2199,26.5324,0.1651],[-77.2207,26.5329,0.1651],[-77.2196,26.5346,0.0731],[-77.2232,26.5354,0.2293],[-77.2271,26.5287,0.0],[-77.2237,26.5232,0.0],[-77.2135,26.5279,0.0],[-77.2129,26.5304,0.0],[-77.2104,26.5287,0.0696],[-77.2115,26.5268,0.0],[-77.209,26.5254,0.278],[-77.209,26.5243,0.278],[-77.2149,26.5246,0.0],[-77.2171,26.5232,0.2559],[-77.2176,26.5215,0.0],[-77.2149,26.521,0.3124],[-77.2157,26.5193,0.158],[-77.2187,26.5213,0.2649],[-77.2182,26.5238,0.0436],[-77.2207,26.5243,0.0659],[-77.2246,26.5185,0.2221],[-77.2276,26.5174,0.0],[-77.2274,26.516,0.0],[-77.2235,26.5165,0.1722],[-77.2237,26.514,0.2108],[-77.2204,26.5118,0.0],[-77.2215,26.5096,0.1569],[-77.2262,26.5082,0.0],[-77.2268,26.5063,0.0],[-77.2232,26.5071,0.3285],[-77.2193,26.5051,0.0],[-77.2179,26.5063,0.2365],[-77.2146,26.5054,0.0],[-77.2101,26.501,0.0],[-77.2026,26.5026,0.1922],[-77.2021,26.5012,0.0608],[-77.2054,26.501,0.185],[-77.2026,26.4993,0.0994],[-77.2038,26.4954,0.0],[-77.2007,26.4946,0.0],[-77.1996,26.4918,0.0],[-77.1974,26.4932,0.0997],[-77.196,26.491,1.7656],[-77.1929,26.4918,0.0],[-77.1937,26.4938,0.0],[-77.1999,26.4949,0.0],[-77.1974,26.4957,0.1704],[-77.1976,26.4976,0.1248],[-77.194,26.5004,0.0],[-77.1946,26.5024,0.4643],[-77.1929,26.5043,0.1761],[-77.1993,26.506,0.0],[-77.201,26.509,0.0],[-77.1999,26.511,-0.4686],[-77.1974,26.5104,0.0],[-77.1963,26.5076,0.0624],[-77.1879,26.5085,0.0],[-77.1865,26.5063,0.0542],[-77.1824,26.5057,0.2347],[-77.1813,26.5035,0.0],[-77.179,26.504,0.2617],[-77.1807,26.4974,0.2782],[-77.1771,26.4974,0.2359],[-77.1807,26.4901,0.2175],[-77.1815,26.4826,0.135],[-77.186,26.481,0.0474],[-77.1837,26.4788,0.0],[-77.179,26.4776,0.1489],[-77.1837,26.4771,0.0],[-77.1865,26.4746,0.0811],[-77.186,26.4721,0.2004],[-77.1888,26.4654,0.3241],[-77.1926,26.4629,0.0],[-77.1888,26.4601,0.4889],[-77.189,26.4571,0.3581],[-77.1924,26.4562,0.1472],[-77.1901,26.4549,0.2991],[-77.1896,26.4513,0.3523],[-77.1929,26.446,0.2661],[-77.1971,26.4454,1.1158],[-77.1976,26.4413,0.1362],[-77.2024,26.4387,0.575],[-77.2074,26.4399,0.0896],[-77.2115,26.4387,0.1856],[-77.2126,26.4449,0.1275],[-77.2146,26.4432,0.455],[-77.2232,26.4426,0.0569],[-77.2237,26.4399,0.0713],[-77.2174,26.4418,0.2685],[-77.2168,26.4407,0.2685],[-77.2193,26.4401,0.1763],[-77.2193,26.4382,0.0],[-77.2157,26.4393,0.702],[-77.2143,26.4382,0.1283],[-77.2135,26.4332,0.2787],[-77.2149,26.4313,0.0777],[-77.2124,26.4301,0.0],[-77.2082,26.4307,0.0],[-77.2118,26.4332,0.2787],[-77.2115,26.4349,0.0539],[-77.2082,26.434,0.0818],[-77.204,26.4376,0.2203],[-77.201,26.4346,0.0],[-77.2021,26.4368,0.0799],[-77.199,26.4374,0.3966],[-77.1974,26.4335,0.163],[-77.2032,26.4285,0.1037],[-77.2015,26.4232,0.0],[-77.1982,26.4276,0.1144],[-77.1963,26.4263,0.047],[-77.1926,26.4271,0.0623],[-77.1949,26.4293,0.0335],[-77.1937,26.4313,0.19],[-77.1924,26.429,0.1883],[-77.1901,26.4299,0.0],[-77.1885,26.4354,0.0],[-77.1782,26.4329,0.0],[-77.1801,26.436,0.0945],[-77.1779,26.4401,0.0891],[-77.1743,26.4418,0.0],[-77.1732,26.4449,0.0],[-77.1707,26.4413,0.0733],[-77.1707,26.4376,0.0],[-77.1729,26.4287,0.0],[-77.1718,26.4246,0.2362],[-77.1743,26.4246,0.0995],[-77.1754,26.4276,0.074],[-77.1782,26.4257,0.0762],[-77.1843,26.4254,0.2294],[-77.1843,26.4279,0.0],[-77.186,26.4287,0.1893],[-77.1921,26.4251,0.0],[-77.1896,26.4238,0.206],[-77.1913,26.421,0.0],[-77.1957,26.4193,0.1373],[-77.1976,26.4229,0.0891],[-77.1985,26.4215,0.0897],[-77.1971,26.4204,0.1373],[-77.1988,26.4193,0.0519],[-77.2004,26.4215,0.0],[-77.209,26.4251,0.5641],[-77.2079,26.421,0.2087],[-77.2046,26.4188,0.2869],[-77.2057,26.4157,0.0],[-77.2046,26.4143,0.141],[-77.2071,26.4104,0.1665],[-77.2138,26.4101,0.0502],[-77.2157,26.4124,0.0],[-77.2185,26.4115,0.0],[-77.2176,26.4085,0.0],[-77.209,26.4085,0.3526],[-77.2126,26.4037,0.2376],[-77.2174,26.404,0.0],[-77.2168,26.3985,0.3139],[-77.2193,26.4026,0.1265],[-77.2179,26.4076,0.2321],[-77.2232,26.4088,0.0],[-77.2249,26.4121,0.0],[-77.2274,26.4121,0.2511],[-77.224,26.4168,0.0],[-77.2312,26.4129,0.1348],[-77.2337,26.4132,0.1643],[-77.2337,26.4096,0.3187],[-77.2363,26.4099,0.0],[-77.2374,26.4079,0.0],[-77.2374,26.4029,0.0],[-77.2337,26.401,0.0],[-77.231,26.4037,0.0],[-77.2276,26.403199999999998,0.0],[-77.2288,26.4007,0.0],[-77.2265,26.3999,0.0],[-77.224,26.4001,0.0],[-77.2237,26.4021,0.3463],[-77.2207,26.4018,0.0],[-77.2224,26.3993,0.0],[-77.2218,26.3971,0.0954],[-77.2232,26.3965,0.0356],[-77.221,26.3951,0.0495],[-77.2213,26.3929,0.0],[-77.2174,26.396,0.1807],[-77.2154,26.3932,0.0544],[-77.2096,26.394,0.4895],[-77.2121,26.3899,0.1194],[-77.2149,26.3904,0.1542],[-77.214,26.3882,-0.0067],[-77.2171,26.3868,0.2324],[-77.216,26.3835,0.0758],[-77.2126,26.3843,-0.1164],[-77.211,26.3818,0.2344],[-77.2162,26.3804,0.0736],[-77.2174,26.3818,0.0929],[-77.2179,26.3804,0.1027],[-77.2154,26.3796,0.2438],[-77.2171,26.3774,0.0661],[-77.2165,26.3729,0.0973],[-77.2124,26.369,0.0729],[-77.2151,26.3651,0.2538],[-77.2121,26.3632,0.0],[-77.2085,26.3638,0.0],[-77.2085,26.3613,0.2758],[-77.2065,26.3599,0.0],[-77.2082,26.3554,0.0943],[-77.2029,26.3554,0.0],[-77.1951,26.3587,0.0],[-77.1935,26.3546,0.0],[-77.189,26.3554,0.0],[-77.189,26.3574,0.0],[-77.1918,26.3582,0.36],[-77.1904,26.3599,0.0],[-77.1924,26.3613,0.2474],[-77.1904,26.3638,-0.211],[-77.1882,26.3632,0.0],[-77.1879,26.3593,0.1036],[-77.1807,26.3587,0.0],[-77.171,26.3615,0.0771],[-77.171,26.3601,0.4174],[-77.1785,26.3554,0.1108],[-77.1768,26.3546,0.1108],[-77.1771,26.3518,0.0],[-77.1757,26.3521,0.1897],[-77.1735,26.3579,0.0],[-77.1668,26.3607,0.4004],[-77.164,26.3599,0.3856],[-77.1621,26.3546,0.0],[-77.1601,26.3568,0.0],[-77.1571,26.3557,0.1082],[-77.1654,26.3515,0.1677],[-77.1654,26.3499,0.0],[-77.1632,26.3487,0.2389],[-77.164,26.3474,0.2389],[-77.1715,26.3476,0.0999],[-77.1718,26.3501,0.0],[-77.1768,26.3482,0.0872],[-77.1793,26.351,0.0],[-77.1815,26.3493,0.1008],[-77.1851,26.3499,0.0],[-77.1849,26.3479,0.1431],[-77.1921,26.3479,0.0],[-77.1949,26.3438,0.0955],[-77.199,26.3435,0.2281],[-77.2071,26.3454,0.2558],[-77.2074,26.3471,0.209],[-77.2049,26.3487,0.0],[-77.2024,26.3463,0.0],[-77.1999,26.3476,0.1335],[-77.2029,26.3487,0.2041],[-77.2043,26.3526,0.0],[-77.2096,26.354,0.0943],[-77.2129,26.3476,0.0821],[-77.2135,26.3357,0.2156],[-77.2165,26.3307,0.1127],[-77.2207,26.3307,0.0],[-77.2218,26.3288,0.3438],[-77.2246,26.3282,0.2266],[-77.2257,26.324,0.4535],[-77.231,26.3199,0.2725],[-77.2399,26.3182,0.3092],[-77.2426,26.3163,-0.1296],[-77.2482,26.319,0.0],[-77.2543,26.3163,0.27],[-77.254,26.3129,0.0],[-77.2513,26.3115,0.2817],[-77.2446,26.3118,0.0],[-77.2396,26.314,0.5091],[-77.2307,26.3085,0.0],[-77.2293,26.309,0.4833],[-77.229,26.304,0.0],[-77.2265,26.3063,0.4095],[-77.2254,26.3037,0.304],[-77.2254,26.3013,0.4359],[-77.2285,26.2996,0.0],[-77.2274,26.2976,0.0],[-77.2229,26.2993,0.3596],[-77.2138,26.294,0.1098],[-77.2138,26.2893,0.0],[-77.2168,26.2865,0.0],[-77.2143,26.2865,0.0],[-77.2096,26.2924,0.0874],[-77.2079,26.2918,0.0663],[-77.2079,26.2899,0.2653],[-77.2135,26.2862,0.3463],[-77.2124,26.2849,0.1443],[-77.2099,26.2874,0.2043],[-77.209,26.2851,0.4983],[-77.2112,26.2821,0.0],[-77.2082,26.2821,0.6615],[-77.204,26.276,0.0],[-77.2124,26.2749,0.0],[-77.2124,26.2679,0.1282],[-77.216,26.2651,0.0],[-77.2071,26.2604,0.5185],[-77.2046,26.2571,0.3171],[-77.1807,26.2686,4.9221],[-77.1497,26.2788,7.4764],[-77.1313,26.2823,7.0554],[-77.1204,26.2827,2.6878],[-77.1157,26.2813,3.242],[-77.1068,26.2874,5.2764],[-77.0996,26.2879,0.0],[-77.0993,26.2901,1.5408],[-77.096,26.2915,1.5784],[-77.0837,26.291,0.6662],[-77.0821,26.2929,1.3254],[-77.0824,26.2962,0.2722],[-77.0896,26.2976,0.8655],[-77.0843,26.3013,2.2716],[-77.071,26.3007,1.4319],[-77.0651,26.3037,0.0],[-77.0454,26.3065,0.0],[-77.0449,26.3018,0.0],[-77.0401,26.3032,0.3177],[-77.0374,26.3021,0.7401],[-77.0418,26.2949,0.4828],[-77.0376,26.2907,0.3284],[-77.0415,26.2904,0.1744],[-77.0399,26.2888,0.6054],[-77.0424,26.2882,0.6913],[-77.0504,26.291,0.0],[-77.0543,26.2846,0.454],[-77.0593,26.2879,0.4375],[-77.0618,26.2879,0.0],[-77.0624,26.2862,0.457],[-77.0512,26.2779,0.0],[-77.0521,26.2724,0.0],[-77.0499,26.2699,1.4536],[-77.0518,26.2665,0.0],[-77.0421,26.2757,4.5358],[-77.0338,26.279,0.0],[-77.0296,26.2854,0.0],[-77.0321,26.2896,0.6091],[-77.0287,26.294,4.8229],[-77.0212,26.2965,1.7749],[-77.016,26.2954,0.0],[-77.0129,26.2968,1.216],[-77.0107,26.2904,0.0],[-77.0076,26.2996,0.0],[-77.0035,26.304,0.0],[-76.9996,26.3129,0.0],[-77.0013,26.314,5.6085],[-77.0004,26.319,9.8],[-76.9982,26.3232,0.4489],[-76.9965,26.3235,0.0],[-76.9971,26.3254,0.0],[-76.9924,26.3324,0.0],[-76.9968,26.3299,5.5822],[-76.999,26.3307,0.0],[-76.9985,26.3274,1.5553],[-77.0007,26.3254,10.0498],[-77.0013,26.3276,4.2517],[-76.9999,26.3353,0.0],[-77.0013,26.3321,0.7279],[-77.0038,26.3324,0.0],[-77.0021,26.3307,0.0],[-77.0038,26.3285,4.3406],[-77.0096,26.3262,1.1374],[-77.0101,26.324,0.0],[-77.0143,26.3246,0.2135],[-77.0115,26.3254,0.0],[-77.0193,26.3279,0.2719],[-77.019,26.3262,0.0],[-77.0146,26.3251,0.2135],[-77.0165,26.3246,0.3997],[-77.019,26.3251,0.0],[-77.0174,26.3235,0.0642],[-77.0182,26.3201,0.0973],[-77.014,26.3185,5.8217],[-77.0151,26.3174,1.5204],[-77.0207,26.3179,0.4253],[-77.0251,26.3207,0.4599],[-77.0224,26.3229,0.2199],[-77.0254,26.3232,0.5912],[-77.0285,26.326,0.0],[-77.0279,26.3274,0.2434],[-77.0251,26.3257,0.1235],[-77.0282,26.3304,0.145],[-77.0243,26.3296,0.0],[-77.0271,26.3332,4.3265],[-77.0274,26.3399,0.1579],[-77.0293,26.3393,0.2879],[-77.0276,26.3499,0.2943],[-77.0296,26.3485,0.0],[-77.0307,26.3432,0.0],[-77.0301,26.3365,0.9913],[-77.0318,26.3382,0.0613],[-77.0324,26.3432,0.0],[-77.0299,26.3501,0.0],[-77.0315,26.3501,0.2061],[-77.0332,26.3451,0.3041],[-77.0326,26.3385,0.0613],[-77.0354,26.3365,1.3161],[-77.0365,26.3396,0.4751],[-77.034,26.340699999999998,1.0492],[-77.0362,26.3468,0.2208],[-77.0335,26.3471,0.0],[-77.0346,26.3507,0.3611],[-77.0312,26.3524,0.0],[-77.0287,26.3593,1.0072],[-77.0263,26.3604,0.0],[-77.0237,26.3596,0.6037],[-77.0274,26.3582,0.0],[-77.0268,26.3557,0.0],[-77.0243,26.3579,0.8713],[-77.0215,26.3574,0.8786],[-77.016,26.3599,0.8613],[-77.0124,26.3554,0.0],[-77.0062,26.3565,2.9029],[-77.0029,26.3551,0.0],[-77.0013,26.3593,6.4511],[-76.9976,26.3607,0.0],[-76.999,26.3618,0.0],[-76.9993,26.3807,0.0],[-77.0049,26.381,0.4273],[-77.0049,26.3782,6.2339],[-77.0107,26.3724,0.5556],[-77.019,26.3726,1.6726],[-77.0299,26.3804,3.0593],[-77.0346,26.3926,0.0],[-77.0368,26.3921,0.0],[-77.0368,26.3893,0.2194],[-77.0393,26.3893,0.3952],[-77.0421,26.3968,0.1159],[-77.0443,26.3985,0.7517],[-77.0432,26.3999,1.1459],[-77.0404,26.399,0.0],[-77.0424,26.4007,0.0],[-77.0413,26.4024,3.0133],[-77.0379,26.399,2.0399],[-77.0365,26.3999,0.5192],[-77.0426,26.4057,0.0],[-77.044,26.4126,1.8004],[-77.0404,26.4107,2.8815],[-77.0404,26.4071,1.9943],[-77.0343,26.4024,1.2549],[-77.0362,26.3982,0.0],[-77.0354,26.396,0.0],[-77.0279,26.3971,0.8798],[-77.0268,26.4007,1.5215],[-77.0293,26.4029,0.0],[-77.0301,26.3979,0.9442],[-77.0351,26.3976,0.0],[-77.0332,26.3993,0.9553],[-77.031,26.3993,0.4083],[-77.0315,26.4021,0.0],[-77.0346,26.4035,1.2549],[-77.039,26.4096,1.9147],[-77.0393,26.4154,1.358],[-77.046,26.421,1.2817],[-77.0462,26.4282,1.1127],[-77.0479,26.4299,2.0156],[-77.0488,26.4287,2.5766],[-77.0479,26.4193,0.3789],[-77.0507,26.4201,0.3682],[-77.049,26.4204,0.3789],[-77.049,26.4224,0.4978],[-77.0507,26.4243,0.0],[-77.0521,26.4238,0.0],[-77.0499,26.416,0.8235],[-77.0518,26.4165,0.9478],[-77.0526,26.4196,0.1427],[-77.0549,26.4199,0.3734],[-77.0574,26.429,0.8892],[-77.0571,26.4351,0.0],[-77.059,26.4376,0.0],[-77.0593,26.4496,0.0],[-77.0574,26.4529,0.5336],[-77.0543,26.4532,0.3299],[-77.0543,26.451,0.2574],[-77.0526,26.4501,0.2454],[-77.0543,26.4457,0.0],[-77.0526,26.4413,3.2692],[-77.0524,26.4351,0.2664],[-77.0537,26.4326,0.0],[-77.0518,26.4307,0.8448],[-77.0524,26.4276,0.0],[-77.0501,26.4282,0.5273],[-77.0496,26.4307,1.6588],[-77.0471,26.431,3.2707],[-77.0518,26.4471,3.9002],[-77.051,26.4501,0.6762],[-77.0488,26.4493,0.6359],[-77.0474,26.451,0.3808],[-77.0515,26.4521,5.0661],[-77.0518,26.4604,1.479],[-77.054,26.4585,2.4124],[-77.0543,26.4593,2.0628],[-77.0537,26.4607,0.0],[-77.0574,26.4576,0.2322],[-77.0585,26.4588,0.1986],[-77.0585,26.4607,1.2619],[-77.0563,26.4615,0.4832],[-77.056,26.465699999999998,0.2511],[-77.0526,26.4654,0.0],[-77.0521,26.4618,0.0],[-77.0479,26.4599,0.0],[-77.049,26.4668,0.0],[-77.0563,26.4665,0.2511],[-77.0579,26.4682,0.2783],[-77.0554,26.4696,0.4813],[-77.056,26.4754,0.4508],[-77.051,26.4743,0.0],[-77.0526,26.4774,0.5359],[-77.0454,26.4826,0.8824],[-77.0465,26.4863,0.1934],[-77.0482,26.4865,0.2865],[-77.0471,26.4904,0.4058],[-77.0454,26.4901,0.0],[-77.0454,26.4871,0.0],[-77.0435,26.486,0.6436],[-77.0376,26.4938,0.5949],[-77.041,26.499,0.0],[-77.0474,26.5021,1.2243],[-77.0465,26.5043,0.4474],[-77.0501,26.5063,0.1599],[-77.051,26.5113,0.0],[-77.0532,26.5113,0.2203],[-77.0512,26.5137,0.461],[-77.0532,26.5149,1.2243],[-77.0518,26.5201,1.405],[-77.0537,26.5274,1.4592],[-77.051,26.5412,0.0],[-77.0485,26.5449,0.7687],[-77.046,26.5446,0.0],[-77.0471,26.5429,0.0],[-77.0454,26.5435,0.0],[-77.0418,26.5488,6.3482],[-77.0393,26.549,2.6697],[-77.0365,26.5526,0.8775],[-77.0312,26.5524,0.6834],[-77.0207,26.5568,0.0],[-77.0251,26.5568,0.4779],[-77.0304,26.5551,2.4464],[-77.0318,26.5532,0.6834],[-77.0357,26.5535,0.8775],[-77.039,26.5518,6.1905],[-77.0512,26.5532,3.4415],[-77.0568,26.5518,4.7702],[-77.061,26.554,2.4707],[-77.0607,26.5557,0.0],[-77.0643,26.5549,0.0],[-77.0671,26.5568,0.0],[-77.0654,26.554,0.0],[-77.0615,26.5521,2.7807]]],
[[[-77.2635,26.4821,0.2054],[-77.256,26.4865,0.0486],[-77.2562,26.4921,0.0],[-77.2593,26.4918,0.093],[-77.259,26.4965,0.1128],[-77.2571,26.4968,0.0],[-77.2554,26.4943,0.1386],[-77.2529,26.4979,0.1735],[-77.2562,26.4982,0.0],[-77.2554,26.4999,0.1315],[-77.2585,26.5043,0.0],[-77.2582,26.5093,0.0],[-77.2613,26.5085,0.0783],[-77.2626,26.4982,0.2135],[-77.2646,26.4979,0.1134],[-77.2696,26.5007,0.0],[-77.2749,26.4985,0.1727],[-77.2732,26.5004,0.0],[-77.274,26.5026,0.0],[-77.2768,26.5004,0.2116],[-77.2774,26.504,0.1128],[-77.2701,26.5057,0.0],[-77.2718,26.509,0.0],[-77.2818,26.5107,0.0],[-77.2829,26.5101,0.0679],[-77.2821,26.5071,0.0],[-77.2857,26.5046,0.3052],[-77.2907,26.504,0.0831],[-77.2921,26.5057,0.3939],[-77.2876,26.5101,0.0],[-77.2893,26.5129,0.0873],[-77.2901,26.5101,0.2251],[-77.294,26.5115,0.0673],[-77.2979,26.5099,0.2693],[-77.2976,26.5071,0.3401],[-77.2935,26.5049,0.1764],[-77.296,26.504,0.0],[-77.2965,26.5021,0.0536],[-77.3018,26.5012,0.2432],[-77.3015,26.5001,0.0],[-77.2974,26.5004,0.1808],[-77.3004,26.4965,0.0],[-77.2985,26.4918,0.0],[-77.2962,26.4918,0.0],[-77.2971,26.4949,0.0],[-77.289,26.4999,0.091],[-77.2929,26.491,0.1819],[-77.2896,26.4904,0.0],[-77.2887,26.4918,0.0],[-77.2865,26.4896,0.2786],[-77.2918,26.4876,0.0876],[-77.2924,26.4857,0.0],[-77.2849,26.4882,0.0],[-77.2838,26.4912,0.1526],[-77.2851,26.4957,0.0347],[-77.2838,26.496,0.0347],[-77.2824,26.4915,0.0919],[-77.2838,26.4882,0.0],[-77.2771,26.4888,0.3398],[-77.2787,26.4851,0.0],[-77.2757,26.4888,0.3398],[-77.2704,26.4893,0.5002],[-77.2707,26.4879,0.2958],[-77.2737,26.4885,0.0459],[-77.2763,26.4857,0.065],[-77.2763,26.4843,0.0801],[-77.2726,26.4854,0.0],[-77.2746,26.4821,0.0828],[-77.2712,26.4788,0.2941],[-77.2715,26.4763,0.0],[-77.2646,26.4771,0.1115],[-77.266,26.4746,0.0],[-77.2618,26.476,0.0756],[-77.2632,26.4732,0.0],[-77.2596,26.4718,0.0],[-77.2571,26.4718,0.0],[-77.2576,26.4754,0.1069],[-77.2557,26.4771,0.1734],[-77.2526,26.476,0.1638],[-77.2526,26.4749,0.0542],[-77.2562,26.4749,0.0],[-77.2557,26.471,0.0399],[-77.2632,26.4679,0.0],[-77.2621,26.4718,0.0],[-77.2635,26.4721,0.0],[-77.2646,26.4674,0.0],[-77.2679,26.4679,0.0],[-77.2712,26.465699999999998,0.131],[-77.2735,26.4662,0.1692],[-77.2746,26.471,0.0],[-77.279,26.4735,0.0],[-77.2812,26.4737,0.1936],[-77.2838,26.4713,0.2309],[-77.2843,26.4685,0.0],[-77.276,26.461,0.1113],[-77.2749,26.4557,0.1359],[-77.2721,26.4599,0.1235],[-77.2699,26.4588,0.1211],[-77.2632,26.4618,0.0592],[-77.2637,26.4585,0.261],[-77.2657,26.4588,0.0],[-77.2637,26.4515,0.0482],[-77.2701,26.451,0.0],[-77.2701,26.4479,0.1471],[-77.2626,26.4485,0.3516],[-77.2635,26.4438,0.0],[-77.2588,26.441,0.0909],[-77.2571,26.4413,0.0909],[-77.2568,26.4432,0.0],[-77.2532,26.4426,0.1778],[-77.2526,26.4443,0.0],[-77.249,26.4457,0.261],[-77.2471,26.4457,0.2272],[-77.2457,26.444,0.1323],[-77.2396,26.4504,0.0495],[-77.2396,26.4546,0.1723],[-77.2365,26.4582,0.147],[-77.2374,26.4599,0.1498],[-77.2337,26.4626,0.0],[-77.2351,26.464,0.0],[-77.239,26.4615,0.2156],[-77.2401,26.4638,0.0],[-77.2457,26.464,0.0839],[-77.2462,26.466,0.1466],[-77.241,26.4646,0.0692],[-77.239,26.466,0.1235],[-77.2407,26.4679,0.1369],[-77.2451,26.4685,0.2582],[-77.2462,26.4704,0.0731],[-77.2429,26.4696,0.0548],[-77.2393,26.4724,0.2176],[-77.2363,26.4718,0.3534],[-77.2343,26.4688,0.2842],[-77.2351,26.4662,0.1259],[-77.2326,26.4649,0.0],[-77.2304,26.465699999999998,0.1323],[-77.2299,26.4707,0.0],[-77.2351,26.4754,0.0],[-77.2282,26.4832,0.2841],[-77.2312,26.4849,0.2749],[-77.2312,26.4876,0.0],[-77.2335,26.4868,0.0556],[-77.2332,26.4832,0.1596],[-77.2354,26.4854,0.0614],[-77.236,26.4879,0.0],[-77.2329,26.4907,0.0728],[-77.2335,26.494,0.0],[-77.2351,26.4946,0.0],[-77.2343,26.4915,0.0728],[-77.2365,26.4879,0.0736],[-77.2376,26.4915,0.0761],[-77.2399,26.491,0.0721],[-77.2396,26.4885,0.2926],[-77.2421,26.4885,0.0745],[-77.2415,26.4865,0.0],[-77.2382,26.4871,0.0736],[-77.2371,26.4843,0.1119],[-77.2387,26.486,0.0],[-77.2421,26.4849,0.121],[-77.2418,26.4863,0.0],[-77.2435,26.4863,0.2139],[-77.2432,26.4837,0.2691],[-77.2465,26.4849,0.0564],[-77.244,26.481,0.1308],[-77.2457,26.481,0.1634],[-77.2468,26.4837,0.1113],[-77.2496,26.4821,0.0771],[-77.2462,26.489,0.0],[-77.2487,26.491,0.0],[-77.2485,26.4954,0.0],[-77.2518,26.4971,0.0],[-77.2526,26.4932,0.4896],[-77.2546,26.4924,0.0552],[-77.2546,26.4893,0.0845],[-77.251,26.489,0.281],[-77.2479,26.4865,0.0487],[-77.2529,26.4874,0.0],[-77.2562,26.4793,0.0712],[-77.2588,26.479,0.0],[-77.2599,26.4768,0.4545],[-77.2637,26.4782,0.1115],[-77.2635,26.4821,0.2054]]],
[[[-77.1415,26.5201,0.0],[-77.1413,26.5213,0.0],[-77.1435,26.5218,0.0919],[-77.1449,26.5196,0.1216],[-77.1424,26.5196,0.0],[-77.1415,26.5201,0.0]]],
[[[-77.299,26.5187,0.0],[-77.299,26.5199,0.2157],[-77.3018,26.5204,0.1758],[-77.3015,26.5193,0.1758],[-77.299,26.5187,0.0]]],
[[[-77.3499,26.5226,0.0951],[-77.3546,26.5235,0.1653],[-77.3557,26.5204,0.0],[-77.3518,26.519,0.4355],[-77.351,26.5204,0.0827],[-77.3538,26.5204,0.0],[-77.3543,26.5221,0.1653],[-77.3501,26.521,0.0],[-77.3499,26.5226,0.0951]]],
[[[-77.2282,26.5232,0.3006],[-77.2307,26.524,0.0],[-77.2312,26.5207,0.1487],[-77.2279,26.5213,0.1423],[-77.2282,26.5232,0.3006]]],
[[[-77.2846,26.5213,0.1022],[-77.2871,26.5226,0.0],[-77.2915,26.519,0.0861],[-77.2868,26.519,0.2047],[-77.2846,26.5213,0.1022]]],
[[[-77.2285,26.5307,0.2215],[-77.2279,26.5326,0.0659],[-77.2288,26.5329,0.0],[-77.2304,26.5307,0.0],[-77.2285,26.5307,0.2215]]],
[[[-77.331,26.528199999999998,0.0],[-77.33011176470589,26.529301411764706,0.1352],[-77.3326,26.5296,0.0835],[-77.3332,26.5271,0.0],[-77.331,26.528199999999998,0.0]]],
[[[-77.2763,26.5315,0.128],[-77.2774,26.5335,0.0],[-77.2793,26.5335,0.1879],[-77.2826,26.5315,0.0667],[-77.2804,26.5246,0.1325],[-77.2815,26.5268,0.0454],[-77.2851,26.5268,0.1586],[-77.2857,26.5296,0.0],[-77.2874,26.5299,0.0593],[-77.2862,26.5274,0.073],[-77.2893,26.524,0.0],[-77.2793,26.5235,0.0],[-77.279,26.526,0.0],[-77.2749,26.5279,0.0],[-77.2763,26.5315,0.128]]],
[[[-77.311,26.5226,0.0],[-77.309,26.5224,0.0963],[-77.3082,26.524,0.0],[-77.3112,26.5238,0.0],[-77.311,26.5226,0.0]]],
[[[-77.2951,26.5243,0.0],[-77.2974,26.5263,0.0879],[-77.299,26.5226,0.0],[-77.2949,26.5226,0.1208],[-77.2951,26.5243,0.0]]],
[[[-77.33011176470589,26.529301411764706,0.1352],[-77.3301,26.5293,0.1352],[-77.3285,26.5313,0.0],[-77.33011176470589,26.529301411764706,0.1352]]],
[[[-77.1407,26.5362,1.1852],[-77.1426,26.5374,0.0],[-77.1426,26.5332,0.0],[-77.1399,26.534,2.4754],[-77.1407,26.5362,1.1852]]],
[[[-77.1471,26.5329,0.1101],[-77.1457,26.5338,0.0],[-77.1471,26.534,0.0],[-77.1485,26.5315,0.0],[-77.1476,26.5315,0.0],[-77.1471,26.5329,0.1101]]],
[[[-77.2921,26.5343,0.1427],[-77.2918,26.5357,0.0],[-77.2946,26.5346,0.0],[-77.2937,26.534,0.1427],[-77.2921,26.5343,0.1427]]],
[[[-77.2712,26.5332,0.0],[-77.2718,26.536,0.0],[-77.2768,26.5346,0.1571],[-77.2749,26.5329,0.1644],[-77.2712,26.5332,0.0]]],
[[[-77.2763,26.536,0.0],[-77.2749,26.5376,0.0],[-77.2776,26.5379,0.0],[-77.2776,26.5368,0.0],[-77.2763,26.536,0.0]]],
[[[-77.0201,26.5518,0.0],[-77.0199,26.5546,0.888],[-77.0165,26.556,0.4315],[-77.0163,26.5585,0.0],[-77.0207,26.5543,2.0618],[-77.0285,26.5526,1.192],[-77.0296,26.5493,0.22],[-77.0271,26.5482,0.0],[-77.0271,26.5507,3.1531],[-77.0243,26.551,0.5871],[-77.0232,26.549,0.8019],[-77.0257,26.5488,0.0],[-77.0207,26.5449,0.0],[-77.0201,26.5518,0.0]]],
[[[-77.0682,26.5521,0.0],[-77.0674,26.5515,0.0],[-77.0638,26.5513,0.9605],[-77.0676,26.5526,0.0],[-77.0682,26.5521,0.0]]],
[[[-77.1551,26.551,0.0],[-77.1574,26.5526,0.0],[-77.1593,26.5513,0.0],[-77.1571,26.5479,0.0],[-77.1549,26.5485,0.0],[-77.1551,26.551,0.0]]],
[[[-77.2951,26.5526,0.0],[-77.2954,26.5554,0.0],[-77.2965,26.5557,0.0],[-77.2979,26.5532,0.1841],[-77.2951,26.5526,0.0]]],
[[[-77.1762,26.5565,0.7133],[-77.1824,26.5568,1.5827],[-77.1826,26.5549,5.9181],[-77.1857,26.5529,0.0],[-77.1843,26.5507,2.3989],[-77.1796,26.5501,0.0],[-77.174,26.554,0.1963],[-77.1724,26.5504,0.0],[-77.1701,26.5501,0.0],[-77.1718,26.5546,0.0],[-77.1762,26.5565,0.7133]]],
[[[-77.2107,26.5537,0.1128],[-77.2101,26.5549,0.3562],[-77.2121,26.5551,0.1628],[-77.2143,26.5532,0.0757],[-77.2112,26.5518,0.0],[-77.2107,26.5537,0.1128]]],
[[[-77.2635,26.5532,0.0],[-77.2621,26.5521,0.0],[-77.2626,26.5563,0.0],[-77.2646,26.5549,0.0],[-77.2635,26.5532,0.0]]],
[[[-77.1854,26.5574,0.0433],[-77.1871,26.5582,0.065],[-77.1879,26.5571,0.065],[-77.1862,26.556,0.074],[-77.1854,26.5574,0.0433]]],
[[[-77.2396,26.539,0.2334],[-77.239,26.541,0.0],[-77.2426,26.5399,0.051],[-77.2443,26.5371,0.2435],[-77.2468,26.5385,0.0],[-77.246,26.5346,0.0],[-77.2485,26.5365,0.0],[-77.2501,26.5357,0.0721],[-77.2507,26.5332,0.0916],[-77.2482,26.5346,0.0],[-77.2449,26.5329,0.0],[-77.2479,26.5307,0.0],[-77.2518,26.5304,0.1571],[-77.2521,26.5263,0.1888],[-77.2585,26.519,0.0703],[-77.2601,26.5126,0.1019],[-77.2585,26.5107,0.0566],[-77.256,26.5135,0.041],[-77.2526,26.5129,0.2085],[-77.2526,26.5099,0.1131],[-77.2496,26.5082,0.1145],[-77.2496,26.5051,0.0],[-77.2471,26.504,0.1373],[-77.2454,26.506,0.0995],[-77.2462,26.5032,0.0614],[-77.2426,26.4999,0.0],[-77.2399,26.5024,0.0],[-77.2396,26.5057,0.0],[-77.2415,26.506,0.0539],[-77.244,26.5124,0.0],[-77.2479,26.5104,0.2037],[-77.2479,26.5137,0.1004],[-77.236,26.5163,0.0],[-77.236,26.5182,0.0],[-77.2396,26.5215,0.0668],[-77.2354,26.5229,0.0],[-77.2346,26.526,0.1617],[-77.2337,26.524,0.1423],[-77.2312,26.5257,0.1233],[-77.2301,26.528199999999998,0.0],[-77.2318,26.5287,0.1569],[-77.2321,26.5313,0.0],[-77.229,26.5362,0.1906],[-77.2307,26.5388,0.0],[-77.234,26.5368,0.322],[-77.2363,26.5374,0.0],[-77.2393,26.5343,0.0602],[-77.2415,26.5362,0.0685],[-77.2443,26.5343,0.2031],[-77.244,26.5362,0.111],[-77.2396,26.539,0.2334]]],
[[[-77.3485,26.5393,0.0],[-77.3507,26.5401,0.0],[-77.3518,26.5357,0.0],[-77.3485,26.5351,0.1618],[-77.3471,26.5332,0.1987],[-77.3479,26.5301,0.1125],[-77.3454,26.5276,0.2405],[-77.3474,26.5257,0.2898],[-77.3454,26.5243,0.0512],[-77.3421,26.5254,0.0],[-77.3385,26.5235,0.0],[-77.3354,26.5243,0.1355],[-77.3374,26.5268,0.1462],[-77.3349,26.5362,0.0],[-77.3385,26.5343,0.3896],[-77.3399,26.5365,0.0427],[-77.3468,26.5346,0.1149],[-77.3465,26.5371,0.0],[-77.3485,26.5393,0.0]]],
[[[-77.2543,26.5412,0.0879],[-77.2554,26.5443,0.0],[-77.2554,26.5424,0.0],[-77.2588,26.5399,-0.1395],[-77.2574,26.5321,-1.5],[-77.2621,26.5321,-1.5],[-77.2607,26.5351,-1.5],[-77.2588,26.5354,-1.1699],[-77.2601,26.5379,-0.3355],[-77.2668,26.5299,0.1145],[-77.2665,26.528199999999998,0.0],[-77.2643,26.5276,0.0728],[-77.2643,26.5249,0.0579],[-77.2668,26.5276,0.0],[-77.2676,26.5243,0.0],[-77.2649,26.5235,0.1126],[-77.264,26.5185,0.0],[-77.2626,26.519,0.0],[-77.2629,26.5221,0.1308],[-77.2604,26.5221,0.0],[-77.2604,26.5257,0.2259],[-77.2571,26.5238,0.6138],[-77.2546,26.5263,0.0518],[-77.2554,26.5299,0.2228],[-77.2538,26.5304,0.0],[-77.2538,26.5332,0.0973],[-77.256,26.5382,0.1051],[-77.2543,26.5412,0.0879]]],
[[[-77.1787,26.5429,0.0],[-77.1785,26.544,0.0],[-77.1813,26.544,0.0],[-77.1804,26.5421,0.1481],[-77.1787,26.5429,0.0]]],
[[[-77.299,26.5412,0.0765],[-77.3026,26.5418,0.1283],[-77.3071,26.5401,0.0],[-77.3054,26.5385,0.29],[-77.3065,26.5357,0.1246],[-77.3124,26.5396,0.057],[-77.3129,26.5365,0.1937],[-77.3151,26.5349,0.0],[-77.3146,26.5326,0.0],[-77.3187,26.5338,0.0],[-77.3193,26.5307,0.0955],[-77.321,26.5338,0.245],[-77.3171,26.5351,0.0],[-77.3171,26.5368,0.315],[-77.3174,26.5379,0.1131],[-77.3221,26.5376,0.0],[-77.3201,26.5407,0.0],[-77.3257,26.5396,0.0919],[-77.3288,26.5365,0.0],[-77.3254,26.5371,0.2183],[-77.3243,26.5335,0.0],[-77.3215,26.5326,0.1495],[-77.3226,26.5293,0.3446],[-77.321,26.528199999999998,0.1068],[-77.3149,26.529,0.1892],[-77.3185,26.5254,0.2255],[-77.3176,26.5224,0.1182],[-77.3149,26.5246,0.2867],[-77.316,26.5268,0.1516],[-77.3149,26.5279,0.1442],[-77.3118,26.5265,0.0],[-77.3104,26.5287,0.0965],[-77.3065,26.526,0.0],[-77.3046,26.5271,0.303],[-77.3024,26.526,0.1084],[-77.3012,26.5299,0.094],[-77.2999,26.5299,0.0819],[-77.3012,26.528199999999998,0.0],[-77.3001,26.5271,0.2002],[-77.2957,26.5307,0.5298],[-77.2921,26.5304,0.0],[-77.2913,26.5276,0.0884],[-77.2893,26.5274,0.1781],[-77.2868,26.5315,0.0],[-77.2918,26.5329,0.0],[-77.2935,26.5315,0.1101],[-77.2962,26.5357,0.0],[-77.2988,26.5357,0.1208],[-77.299,26.5374,0.2907],[-77.2949,26.536,0.0873],[-77.2943,26.5376,0.0635],[-77.299,26.5412,0.0765]]],
[[[-77.354,26.5388,0.0634],[-77.3574,26.5399,0.1795],[-77.3579,26.5376,0.0],[-77.3551,26.5338,0.421],[-77.3557,26.5315,0.1599],[-77.3515,26.5313,0.0],[-77.3535,26.5335,0.0673],[-77.354,26.5388,0.0634]]],
[[[-77.2335,26.541,0.0754],[-77.2329,26.5426,0.0],[-77.2357,26.5424,0.0],[-77.2349,26.5412,0.1008],[-77.2335,26.541,0.0754]]],
[[[-77.1671,26.546,0.4136],[-77.1665,26.5474,0.0],[-77.1724,26.5435,0.16],[-77.1721,26.5407,0.0],[-77.1712,26.5429,0.16],[-77.169,26.5426,0.0552],[-77.1701,26.5368,0.0],[-77.1676,26.5415,0.1582],[-77.166,26.5418,0.0],[-77.1679,26.5446,-0.1834],[-77.1671,26.546,0.4136]]],
[[[-77.2249,26.5379,0.1173],[-77.2237,26.5396,0.0],[-77.2257,26.5399,0.1359],[-77.226,26.5376,0.1173],[-77.2249,26.5379,0.1173]]],
[[[-77.2076,26.5382,0.0],[-77.2057,26.5376,0.0793],[-77.2046,26.5404,0.0],[-77.206,26.5404,0.194],[-77.2076,26.5382,0.0]]],
[[[-77.2279,26.5407,0.0],[-77.2279,26.5376,0.0],[-77.2268,26.5376,0.0],[-77.2265,26.5407,0.0],[-77.2279,26.5407,0.0]]],
[[[-77.2407,26.5462,0.0679],[-77.241,26.5485,0.2107],[-77.2451,26.5468,0.0],[-77.2449,26.5449,0.0694],[-77.2474,26.5438,0.0],[-77.2465,26.5396,0.0],[-77.2446,26.5407,0.1106],[-77.246,26.5438,0.0694],[-77.2443,26.5435,0.0],[-77.2424,26.5471,0.2107],[-77.2407,26.5462,0.0679]]],
[[[-77.1826,26.5449,0.0],[-77.184,26.5474,0.2155],[-77.1862,26.546,0.0],[-77.1829,26.5426,0.0],[-77.1826,26.5449,0.0]]],
[[[-77.1396,26.5446,0.0],[-77.1396,26.5465,0.0],[-77.1407,26.5471,0.0],[-77.1404,26.5432,0.0],[-77.1396,26.5446,0.0]]],
[[[-77.211,26.5418,0.0],[-77.2104,26.5446,0.0645],[-77.2115,26.5449,0.0645],[-77.2124,26.5424,0.0],[-77.211,26.5418,0.0]]],
[[[-77.2146,26.5479,0.1216],[-77.2168,26.5496,0.0],[-77.2196,26.549,0.0],[-77.2232,26.546,0.0936],[-77.224,26.5418,0.0],[-77.2182,26.5424,0.3008],[-77.2182,26.5399,0.0],[-77.2165,26.5396,0.0],[-77.2146,26.5479,0.1216]]],
[[[-77.2312,26.5471,0.22],[-77.2326,26.5482,0.0],[-77.2343,26.546,0.1721],[-77.2332,26.546,0.1721],[-77.2312,26.5471,0.22]]],
[[[-77.1893,26.5518,0.0],[-77.1943,26.5524,-0.5],[-77.1965,26.5493,-0.152],[-77.1949,26.5462,0.4391],[-77.1974,26.5435,0.0],[-77.1971,26.5388,0.1569],[-77.1949,26.5443,0.2018],[-77.1937,26.5443,0.2018],[-77.1943,26.5418,0.0],[-77.1929,26.5399,0.0],[-77.1926,26.5421,0.2292],[-77.1893,26.5438,0.1263],[-77.191,26.5471,0.2765],[-77.1885,26.5479,0.0],[-77.1893,26.5518,0.0]]],
[[[-77.2176,26.5563,0.0],[-77.2182,26.5579,0.1668],[-77.2207,26.5582,0.0763],[-77.2312,26.549,0.1013],[-77.2288,26.5496,0.181],[-77.2251,26.5474,0.0987],[-77.2185,26.5546,0.3855],[-77.2182,26.5526,1.2796],[-77.2168,26.5526,0.0],[-77.2162,26.5551,0.0691],[-77.2176,26.5563,0.0]]],
[[[-77.3093,26.5738,0.1792],[-77.3104,26.5765,0.0656],[-77.3135,26.5743,0.2902],[-77.3112,26.5726,0.1784],[-77.3093,26.5738,0.1792]]],
[[[-77.316,26.5701,0.0],[-77.3146,26.5721,0.0],[-77.3171,26.5726,0.0],[-77.3171,26.5701,0.0],[-77.316,26.5701,0.0]]],
[[[-77.3007,26.5835,0.0],[-77.3004,26.586,0.0],[-77.3043,26.5849,0.0],[-77.304,26.5835,0.0],[-77.3007,26.5835,0.0]]],
[[[-77.3465,26.6574,0.0],[-77.354,26.6579,0.0],[-77.3551,26.654,4.6517],[-77.359,26.6504,0.0],[-77.3593,26.6399,0.0],[-77.3576,26.6399,0.0],[-77.3549,26.6468,0.0],[-77.3504,26.6465,0.0],[-77.3449,26.6507,0.2303],[-77.3426,26.6576,0.0876],[-77.3465,26.6574,0.0]]],
[[[-77.3313,26.6754,0.0794],[-77.3326,26.6765,0.0849],[-77.334,26.6743,0.0],[-77.3321,26.674,0.0794],[-77.3313,26.6754,0.0794]]],
[[[-77.3107,26.7037,8.9858],[-77.3128,26.6918,0.0],[-77.3074,26.6738,0.0],[-77.2951,26.6599,0.3788],[-77.2932,26.661,0.0],[-77.2954,26.666,0.3506],[-77.2921,26.6638,0.7587],[-77.2924,26.666,1.0944],[-77.2893,26.6665,0.0],[-77.2821,26.6729,1.1252],[-77.2793,26.671,1.9417],[-77.2793,26.6693,2.51],[-77.2824,26.6701,1.0284],[-77.2826,26.6676,2.1565],[-77.2849,26.6688,0.0],[-77.284,26.6665,0.0],[-77.2801,26.6679,2.5298],[-77.2774,26.6665,0.0],[-77.274,26.6674,2.5335],[-77.2696,26.6715,0.0],[-77.2643,26.6815,1.6142],[-77.2676,26.6813,0.9999],[-77.2696,26.6779,3.3924],[-77.2751,26.6762,4.3922],[-77.2871,26.6787,3.9769],[-77.3001,26.6865,2.9145],[-77.3032,26.6907,1.4301],[-77.3037,26.696,1.8864],[-77.3007,26.6963,2.5119],[-77.3026,26.6996,1.0885],[-77.3012,26.7012,0.0],[-77.3085,26.7049,0.0],[-77.3107,26.7037,8.9858]]],
[[[-77.3321,26.6724,0.0],[-77.3329,26.6707,0.1892],[-77.3301,26.6712,0.0],[-77.3301,26.6724,0.0637],[-77.3321,26.6724,0.0]]],
[[[-77.349,26.5893,0.0],[-77.3499,26.5915,0.0856],[-77.3526,26.590699999999998,0.0],[-77.3515,26.5843,0.2629],[-77.3549,26.5824,0.1922],[-77.3538,26.5801,0.0],[-77.3501,26.5785,0.0],[-77.3499,26.5765,0.0],[-77.3468,26.5779,0.0],[-77.349,26.5893,0.0]]],
[[[-77.3443,26.6024,0.0],[-77.3482,26.6026,0.0],[-77.3474,26.5985,0.0983],[-77.3493,26.5982,0.0758],[-77.3493,26.5937,0.0],[-77.3474,26.5943,0.0],[-77.3465,26.5982,0.0983],[-77.344,26.5987,0.0],[-77.3399,26.5946,0.191],[-77.3421,26.5899,0.0],[-77.3415,26.5871,0.0],[-77.3388,26.5926,0.1744],[-77.3337,26.5896,0.0],[-77.3313,26.5865,0.2317],[-77.3304,26.5807,0.2874],[-77.3262,26.5765,0.1703],[-77.3268,26.5738,0.2015],[-77.3254,26.5724,0.1822],[-77.3274,26.5693,0.0],[-77.3232,26.5687,0.0],[-77.3246,26.5754,0.1375],[-77.3215,26.5757,0.0],[-77.3201,26.5799,0.0],[-77.321,26.5824,0.0],[-77.3251,26.5818,0.3099],[-77.3279,26.5835,0.3516],[-77.3276,26.5876,0.0597],[-77.3307,26.5899,0.0],[-77.3296,26.5937,0.0464],[-77.3354,26.5965,0.3575],[-77.3368,26.601,0.0],[-77.3388,26.6026,0.0],[-77.3426,26.601,0.0945],[-77.3443,26.6024,0.0]]],
[[[-77.3201,26.5885,0.0],[-77.3179,26.5901,0.0],[-77.3213,26.5901,0.1067],[-77.3224,26.5876,0.0],[-77.3201,26.5885,0.0]]],
[[[-77.3071,26.5879,0.319],[-77.3035,26.5915,0.0],[-77.3093,26.5904,0.2877],[-77.3096,26.5885,0.2967],[-77.3115,26.589,0.0],[-77.3121,26.5863,0.354],[-77.3082,26.5865,0.0],[-77.3071,26.5879,0.319]]],
[[[-77.3507,26.606,0.0701],[-77.3526,26.6074,0.0531],[-77.3532,26.6046,0.3275],[-77.3562,26.6026,0.0604],[-77.3571,26.5971,0.1566],[-77.361,26.5968,0.0828],[-77.361,26.5926,0.129],[-77.3632,26.5896,0.0621],[-77.3613,26.5896,0.0311],[-77.3604,26.5935,0.129],[-77.3554,26.5915,0.0],[-77.3538,26.5924,0.068],[-77.3529,26.6013,0.1682],[-77.3493,26.604,0.0],[-77.3507,26.606,0.0701]]],
[[[-77.2082,26.5607,0.0],[-77.2099,26.5618,0.0],[-77.2107,26.5588,0.0],[-77.2074,26.5593,0.0],[-77.2082,26.5607,0.0]]],
[[[-77.1926,26.5651,0.2296],[-77.194,26.566,0.0],[-77.1951,26.5646,0.1767],[-77.1935,26.5626,0.0602],[-77.1943,26.5613,0.1883],[-77.1982,26.5637,0.1865],[-77.1996,26.5635,0.1097],[-77.1999,26.5607,0.1704],[-77.2043,26.5618,0.0],[-77.204,26.5604,0.9209],[-77.2087,26.5554,0.2584],[-77.2087,26.549,0.2102],[-77.2063,26.5488,0.0591],[-77.2057,26.5563,0.1634],[-77.204,26.5551,0.0],[-77.2043,26.5574,3.8322],[-77.2026,26.5582,0.3973],[-77.2004,26.5563,1.1656],[-77.2015,26.5515,0.0],[-77.1988,26.5493,0.0641],[-77.2032,26.549,0.0],[-77.2043,26.5446,0.0],[-77.2029,26.5421,0.336],[-77.2004,26.5432,0.0],[-77.1996,26.5474,0.1885],[-77.1974,26.5488,0.0641],[-77.1988,26.5543,-0.3822],[-77.1968,26.5554,-0.5],[-77.1963,26.5585,-0.2513],[-77.1954,26.5568,-0.5],[-77.1918,26.5574,-0.1757],[-77.1935,26.5535,-0.5],[-77.1926,26.5524,0.144],[-77.1874,26.5543,0.0],[-77.1904,26.5551,0.127],[-77.1885,26.5582,0.065],[-77.1913,26.5596,0.0181],[-77.1871,26.5615,0.0789],[-77.1926,26.5651,0.2296]]],
[[[-77.0129,26.5674,0.0],[-77.0121,26.5682,0.0],[-77.0135,26.5687,0.0],[-77.0193,26.5643,0.0],[-77.0193,26.5632,0.0],[-77.0163,26.5643,3.1887],[-77.0151,26.5632,3.8721],[-77.0157,26.5593,0.778],[-77.0118,26.5607,0.0],[-77.014,26.5646,0.0],[-77.0129,26.5674,0.0]]],
[[[-77.3196,26.5646,0.0786],[-77.321,26.5663,0.1128],[-77.3226,26.5632,0.2816],[-77.3268,26.5626,0.0],[-77.3229,26.5613,0.0916],[-77.3215,26.5632,0.2816],[-77.321,26.5613,0.1246],[-77.3163,26.5596,0.0],[-77.3204,26.5629,0.1527],[-77.3196,26.5646,0.0786]]],
[[[-77.3235,26.566,0.2776],[-77.3249,26.5674,0.0],[-77.326,26.5674,0.0],[-77.3251,26.5649,0.0],[-77.3235,26.566,0.2776]]]]}
,"properties": {"GID_1": "BHS.6_1","GID_0": "BHS","country": "Bahamas","state": "CentralAbaco","VARNAME_1": "NA","NL_NAME_1": "NA","TYPE_1": "District","ENGTYPE_1": "District","CC_1": "NA","HASC_1": "BS.CB","ISO_1": "BS-CO","name": "CentralAbaco.state","area_km2": 710.9525,"hist_schema_id": "Elevation0-9000","hist_area_km2": {"0": 696.961,"25": 13.9915}}}