{"type": "Feature","bbox": [-71.4184,18.1675,-71.2618,18.3067],"geometry": {"type": "MultiPolygon","coordinates": [[[[-71.2618,18.2646,3.5],[-71.2798,18.2686,3.5],[-71.2952,18.2759,9.0797],[-71.3155,18.2828,21.2164],[-71.329,18.2896,50.5498],[-71.3468,18.3065,17.7032],[-71.3525,18.3067,21.2912],[-71.3599,18.3004,30.8625],[-71.37,18.2955,42.4484],[-71.3732,18.2892,49.0072],[-71.3786,18.2851,84.2501],[-71.381,18.2811,158.0769],[-71.3807,18.2723,90.27],[-71.3758,18.2627,54.1797],[-71.3663,18.2346,105.8531],[-71.3668,18.2292,121.1334],[-71.3779,18.207,271.3067],[-71.3772,18.2033,341.5482],[-71.3724,18.1964,330.0215],[-71.3726,18.188,350.3486],[-71.3787,18.1851,584.6773],[-71.388,18.1892,602.9683],[-71.3986,18.1904,757.8873],[-71.4068,18.1973,1057.167],[-71.4118,18.1981,1050.0948],[-71.4139,18.1951,923.3344],[-71.4141,18.1865,1217.1616],[-71.4161,18.1799,1276.6096],[-71.4153,18.1752,1302.0182],[-71.4184,18.1703,1309.4111],[-71.4086,18.1709,1083.2362],[-71.4041,18.1815,1220.853],[-71.4006,18.1835,1076.4877],[-71.3904,18.1764,1198.7334],[-71.3761,18.1751,753.5863],[-71.3674,18.1683,682.7828],[-71.3634,18.1675,606.7295],[-71.3512,18.1746,428.7804],[-71.3424,18.1724,368.2727],[-71.3379,18.1728,432.5115],[-71.3366,18.1755,488.056],[-71.3384,18.1829,440.557],[-71.3291,18.186,481.6506],[-71.3149,18.1795,898.8019],[-71.3083,18.1684,1093.9604],[-71.3055,18.1678,1131.3982],[-71.301,18.1697,1178.0],[-71.2984,18.1725,1261.7502],[-71.2955,18.1809,1235.3213],[-71.292,18.1978,739.6296],[-71.2915,18.2164,484.7929],[-71.2867,18.226,232.5846],[-71.2855,18.2332,154.7286],[-71.2772,18.2416,71.5772],[-71.2682,18.2443,38.5506],[-71.2626,18.2575,3.5],[-71.2618,18.2646,3.5]]]]}
,"properties": {"GID_2": "DOM.3.7_1","GID_0": "DOM","country": "DominicanRepublic","GID_1": "DOM.3_1","province": "Barahona","NL_NAME_1": "NA","county": "LasSalinas","VARNAME_2": "NA","NL_NAME_2": "NA","TYPE_2": "Distritomunicipal","ENGTYPE_2": "Municipaldistrict","CC_2": "NA","HASC_2": "DO.BH.LS","name": "Las_Salinas.county","area_km2": 128.63959,"hist_schema_id": "Elevation0-9000","hist_area_km2": {"0": 5.87915,"25": 11.63658,"50": 11.07311,"75": 12.76558,"100": 10.65201,"125": 8.09499,"150": 7.00783,"175": 6.4239,"200": 6.42393,"225": 5.25605,"250": 3.68553,"275": 2.51756,"300": 2.75929,"325": 2.47736,"350": 2.0746,"375": 1.99401,"400": 1.99408,"425": 2.0545,"450": 1.91355,"475": 1.55097,"500": 1.47041,"525": 1.38985,"550": 1.22873,"575": 1.10785,"600": 1.10786,"625": 0.92656,"650": 0.88628,"675": 0.54386,"700": 0.62443,"725": 0.52371,"750": 0.78556,"775": 0.46328,"800": 0.44314,"825": 0.52372,"850": 0.38271,"875": 0.38272,"900": 0.46329,"925": 0.34244,"950": 0.52373,"975": 0.32229,"1000": 0.40286,"1025": 0.46331,"1050": 0.6446,"1075": 0.3223,"1100": 0.58417,"1125": 0.64461,"1150": 0.48346,"1175": 0.5036,"1200": 0.42303,"1225": 0.44317,"1250": 0.5036,"1275": 0.24173,"1300": 0.24172,"1325": 0.06043}}}