{"type": "Feature","bbox": [-66.5654,17.9229,-66.4213,18.1531],"geometry": {"type": "MultiPolygon","coordinates": [[[[-66.4568,17.9329,1.5511],[-66.4593,17.9332,0.0],[-66.4574,17.9232,0.0],[-66.4538,17.9229,0.5234],[-66.4538,17.9285,2.899],[-66.4568,17.9329,1.5511]]],
[[[-66.4275,18.0717,122.6445],[-66.4303,18.0822,171.4576],[-66.434,18.0836,197.6034],[-66.4391,18.085,200.7663],[-66.4599,18.0835,531.0522],[-66.4793,18.0877,501.0148],[-66.4918,18.0962,142.2363],[-66.5019,18.0957,103.5],[-66.5052,18.0937,103.5],[-66.5056,18.0918,103.5],[-66.5019,18.0876,103.5],[-66.5074,18.0808,111.1737],[-66.518,18.0851,342.7899],[-66.5222,18.0898,435.299],[-66.5302,18.107,330.9894],[-66.5269,18.1098,299.2395],[-66.5233,18.1223,608.7517],[-66.5284,18.1318,794.2195],[-66.5266,18.1408,915.4487],[-66.5234,18.1452,922.6801],[-66.5221,18.1518,1035.3427],[-66.5304,18.1528,953.323],[-66.5415,18.1474,1002.0957],[-66.547,18.1531,1169.0763],[-66.5526,18.1521,1192.4457],[-66.5562,18.1469,974.0966],[-66.5632,18.1435,798.0821],[-66.5654,18.1301,588.3447],[-66.5616,18.1154,558.5202],[-66.5556,18.1159,566.458],[-66.549,18.0954,417.5725],[-66.5554,18.0844,270.9693],[-66.5499,18.0796,186.3068],[-66.5452,18.0687,109.3524],[-66.5372,18.0411,46.056],[-66.5427,18.0324,41.5495],[-66.539,18.0258,26.578],[-66.5305,18.001,10.2686],[-66.536,17.9924,7.7658],[-66.5415,17.9904,8.9159],[-66.5393,17.9737,0.0],[-66.5126,17.9851,1.4289],[-66.4954,17.9899,1.7415],[-66.4837,17.9904,0.5018],[-66.4785,17.9871,2.2115],[-66.4707,17.9904,0.2336],[-66.461,17.9901,0.0],[-66.4543,17.9868,1.8209],[-66.4538,17.9824,0.0],[-66.4521,17.9815,0.0],[-66.447,17.9876,7.4692],[-66.4378,17.9915,13.0364],[-66.4346,17.9967,17.2686],[-66.4346,18.0072,24.6052],[-66.4309,18.0101,31.2078],[-66.4282,18.0097,35.5165],[-66.4213,18.0188,41.9502],[-66.4269,18.0373,70.8315],[-66.4242,18.0526,86.5853],[-66.4316,18.0636,144.5396],[-66.4275,18.0717,122.6445]]]]}
,"properties": {"GID_1": "PRI.39_1","GID_0": "PRI","country": "PuertoRico","province": "JuanaDíaz","VARNAME_1": "NA","NL_NAME_1": "NA","TYPE_1": "Municipio","ENGTYPE_1": "Municipality","CC_1": "NA","HASC_1": "PR.JD","ISO_1": "NA","name": "Juana_Díaz.province","area_km2": 157.2377,"hist_schema_id": "Elevation0-9000","hist_area_km2": {"0": 25.2869,"25": 20.4247,"50": 14.979,"75": 15.4623,"100": 11.6114,"125": 10.1799,"150": 7.3777,"175": 5.906,"200": 5.3616,"225": 5.2606,"250": 3.9706,"275": 3.0837,"300": 2.9426,"325": 2.8216,"350": 2.6402,"375": 1.9146,"400": 1.4107,"425": 1.3099,"450": 1.2696,"475": 1.0076,"500": 1.1285,"525": 0.7658,"550": 0.6247,"575": 0.7456,"600": 0.6045,"625": 0.5239,"650": 0.4433,"675": 0.5642,"700": 0.5239,"725": 0.403,"750": 0.4836,"775": 0.5037,"800": 0.8462,"825": 0.6851,"850": 0.8261,"875": 0.6246,"900": 0.7253,"925": 0.4231,"950": 0.4432,"975": 0.2821,"1000": 0.141,"1025": 0.2015,"1050": 0.141,"1075": 0.0604,"1100": 0.1007,"1125": 0.0806,"1150": 0.0604,"1175": 0.0604}}}