{"type": "Feature","id": "1395","bbox": [-70.39231,18.85477,-69.90777,19.15563],"geometry": {"type": "Polygon","coordinates": [[[-70.2261,19.14695,39.8809],[-70.24708,19.15059,43.0359],[-70.26643,19.15563,45.7996],[-70.28501,19.14984,47.0858],[-70.28188,19.15067,46.1316],[-70.28144,19.14643,47.1065],[-70.27955,19.14374,45.1084],[-70.27764,19.14108,47.4399],[-70.29986,19.13325,47.2444],[-70.32436,19.12118,52.6954],[-70.36412,19.1033,83.8316],[-70.39231,19.07232,205.2338],[-70.38089,19.04868,293.9015],[-70.37182,19.02545,163.3876],[-70.36712,18.99843,141.7498],[-70.3418,18.98683,176.7795],[-70.33265,18.97572,135.1182],[-70.32958,18.96101,296.6703],[-70.31387,18.94127,167.8105],[-70.29291,18.92673,97.7173],[-70.24992,18.89761,118.4969],[-70.22385,18.85477,288.162],[-70.17199,18.86521,397.4359],[-70.12962,18.87492,351.4449],[-70.11047,18.89107,253.8269],[-70.08411,18.89722,155.7393],[-70.06316,18.89324,199.7997],[-70.04536,18.89053,199.2578],[-70.03308,18.90805,152.2529],[-70.01309,18.90456,185.4985],[-69.98055,18.88939,121.4586],[-69.95255,18.90998,78.4926],[-69.93531,18.97497,141.7352],[-69.92033,19.03925,74.1665],[-69.91115,19.06685,121.6749],[-69.90777,19.09349,126.0436],[-69.92906,19.10638,16.7473],[-69.95384,19.11369,135.0506],[-69.98614,19.11581,89.6062],[-70.01691,19.11615,128.1522],[-70.04053,19.12312,32.7085],[-70.06306,19.13307,26.2305],[-70.08908,19.14428,38.0619],[-70.11745,19.14633,28.4256],[-70.16124,19.15116,33.6645],[-70.2055,19.15043,37.5645],[-70.2261,19.14695,39.8809]]]}
,"properties": {"ISO3166-1-Alpha-3": "DOM","country": "Dominican Republic","fill": "#FF0","name": "Sánchez Ramírez","area_km2": 1199.4894,"hist_schema_id": "Elevation0-9000","hist_area_km2": {"25": 51.903,"50": 189.1239,"75": 186.1979,"100": 200.1583,"125": 168.2519,"150": 110.6642,"175": 71.2172,"200": 45.7974,"225": 34.2075,"250": 28.4129,"275": 22.1568,"300": 19.1294,"325": 16.8639,"350": 14.157,"375": 11.3496,"400": 9.0437,"425": 6.8381,"450": 4.9332,"475": 3.5695,"500": 2.2258,"525": 1.5038,"550": 0.9223,"575": 0.3008,"600": 0.3208,"625": 0.1404,"650": 0.0802,"675": 0.0201}}}