{"type":"Feature","properties":{"GID_1":"DOM.28_1","GID_0":"DOM","country":"DominicanRepublic","province":"SánchezRamírez","VARNAME_1":"NA","NL_NAME_1":"NA","TYPE_1":"Provincia","ENGTYPE_1":"Province","CC_1":"NA","HASC_1":"DO.SZ","ISO_1":"NA","name":"Sánchez_Ramírez.province"},
"geometry":{"type": "MultiPolygon","coordinates": [[[[-70.3688,19.0613,171.1434],[-70.3741,19.0595,281.5261],[-70.3729,19.0538,346.2228],[-70.3754,19.0506,400.6943],[-70.3892,19.0467,261.9825],[-70.3907,19.0444,218.6046],[-70.387,19.0398,214.5292],[-70.365,19.0256,205.927],[-70.3644,19.0191,172.9912],[-70.3661,19.0127,161.0523],[-70.3629,19.0048,148.9328],[-70.3631,18.9976,139.6828],[-70.359,18.9937,158.2522],[-70.3464,18.9878,245.3057],[-70.3312,18.9871,147.3252],[-70.3265,18.9851,122.8612],[-70.323,18.98,154.0652],[-70.325,18.9704,126.8533],[-70.3164,18.9563,117.6534],[-70.3135,18.9538,110.5035],[-70.3058,18.9522,109.9022],[-70.302,18.9475,103.7023],[-70.2965,18.9461,108.048],[-70.2883,18.9305,96.1104],[-70.2833,18.9279,96.667],[-70.268,18.9273,90.3846],[-70.2584,18.9234,89.7567],[-70.2517,18.9234,117.5001],[-70.2497,18.919,148.0597],[-70.2511,18.9114,113.3013],[-70.2485,18.9065,101.506],[-70.2303,18.8932,124.4246],[-70.2267,18.882,130.1258],[-70.22,18.8772,136.8145],[-70.2172,18.872,186.9778],[-70.2246,18.8546,288.162],[-70.2247,18.8455,439.4622],[-70.2217,18.8427,335.5612],[-70.2116,18.8524,266.9498],[-70.2032,18.8659,347.972],[-70.2,18.8676,429.9715],[-70.191,18.8683,396.8768],[-70.1866,18.8721,437.0434],[-70.1771,18.8662,409.9396],[-70.1721,18.867,436.984],[-70.1639,18.8651,348.5715],[-70.1523,18.8722,363.8743],[-70.1429,18.8697,399.9387],[-70.1369,18.865,276.8176],[-70.1281,18.8668,321.5565],[-70.1159,18.8645,410.3175],[-70.1121,18.8658,342.9775],[-70.1089,18.8718,306.8372],[-70.1088,18.8815,314.3304],[-70.1113,18.8846,311.098],[-70.1103,18.8866,292.4863],[-70.1058,18.8843,274.7579],[-70.101,18.8868,265.6462],[-70.0971,18.887,222.7761],[-70.0907,18.8819,235.2866],[-70.0873,18.8814,234.4874],[-70.0834,18.8829,252.1564],[-70.0772,18.8885,236.0463],[-70.0739,18.8893,238.3271],[-70.0698,18.8867,220.0377],[-70.0629,18.8771,200.4814],[-70.0567,18.8754,174.2427],[-70.0461,18.8791,147.8099],[-70.0407,18.8865,175.3519],[-70.0366,18.8892,212.757],[-70.0317,18.8889,228.1589],[-70.0239,18.8845,210.9613],[-70.0217,18.8954,215.5506],[-70.0183,18.9016,159.8364],[-70.0113,18.9076,233.1571],[-70.0105,18.9127,357.7702],[-70.0001,18.907,235.3463],[-69.998,18.8945,257.8372],[-69.9952,18.888,188.6457],[-69.9932,18.8868,211.3861],[-69.9819,18.8867,147.5578],[-69.9711,18.8915,99.7605],[-69.9611,18.8922,104.0606],[-69.9574,18.8943,104.3183],[-69.9518,18.9005,93.6666],[-69.9503,18.9119,76.0686],[-69.9405,18.9242,71.9486],[-69.934,18.9297,112.6282],[-69.9325,18.9371,68.0027],[-69.922,18.9546,70.9935],[-69.9191,18.9664,59.9286],[-69.923,18.9734,50.221],[-69.9189,18.9799,99.7733],[-69.9184,18.9853,70.1413],[-69.9213,18.9895,44.6158],[-69.9287,18.9919,61.4482],[-69.9298,18.996,46.118],[-69.9268,19.0098,40.7379],[-69.9222,19.0143,40.2806],[-69.9201,19.0192,35.5661],[-69.9136,19.0239,35.5482],[-69.9118,19.0323,32.7582],[-69.9074,19.0385,31.4298],[-69.9039,19.0503,41.172],[-69.9021,19.0636,65.8952],[-69.9029,19.069,25.5663],[-69.8951,19.0842,164.9279],[-69.8946,19.0935,72.3577],[-69.8976,19.0973,22.8879],[-69.9176,19.1007,41.191],[-69.9242,19.1036,17.2418],[-69.9271,19.107,20.938],[-69.9284,19.1193,17.2127],[-69.9393,19.1225,16.4247],[-69.9462,19.1201,100.7817],[-69.9481,19.1178,128.7207],[-69.943,19.1035,167.8356],[-69.9446,19.1006,159.145],[-69.9589,19.1006,145.1305],[-69.9687,19.1033,122.3936],[-69.9813,19.1035,113.7061],[-69.9839,19.0968,122.6395],[-69.9817,19.0792,87.1453],[-69.9935,19.071,57.1229],[-70.0005,19.0782,121.6089],[-70.02,19.085,98.2891],[-70.0329,19.0938,91.8176],[-70.0391,19.1001,114.4809],[-70.0428,19.1069,118.1939],[-70.0433,19.1257,77.6907],[-70.0447,19.1301,64.33],[-70.0597,19.1386,29.4164],[-70.0626,19.1426,20.2796],[-70.0716,19.1415,31.7909],[-70.0774,19.1513,21.8236],[-70.0801,19.1508,25.3937],[-70.084,19.1469,30.1144],[-70.0969,19.145,39.2898],[-70.1021,19.1476,25.1633],[-70.1038,19.1512,27.4508],[-70.1063,19.1522,32.9173],[-70.1251,19.1509,33.1356],[-70.1273,19.1556,30.6181],[-70.1307,19.1574,28.5923],[-70.1323,19.1563,31.2374],[-70.1326,19.1524,29.1388],[-70.1405,19.1522,30.7038],[-70.1461,19.1493,33.9819],[-70.1471,19.1462,31.5449],[-70.1452,19.1397,32.6584],[-70.15,19.1381,32.0425],[-70.1528,19.1399,31.2982],[-70.1557,19.1471,33.6681],[-70.1594,19.1484,32.8173],[-70.1672,19.148,33.2548],[-70.1698,19.1576,32.01],[-70.1772,19.1583,35.9201],[-70.1817,19.1566,35.1331],[-70.191,19.1482,34.5871],[-70.2,19.149,41.3655],[-70.2018,19.1411,39.0371],[-70.2069,19.137,48.0588],[-70.2232,19.1423,39.9226],[-70.228,19.1495,38.2235],[-70.2372,19.1488,47.4789],[-70.2485,19.1559,40.6054],[-70.2595,19.1538,50.7487],[-70.2651,19.1581,43.9274],[-70.2753,19.1504,45.4703],[-70.2713,19.1458,45.0847],[-70.2669,19.1436,47.6666],[-70.2666,19.1408,51.1654],[-70.2688,19.1389,53.4261],[-70.276,19.1369,51.0777],[-70.2833,19.1393,48.2986],[-70.294,19.1367,47.93],[-70.2955,19.1384,48.9448],[-70.2944,19.1423,47.1288],[-70.2959,19.1441,48.5809],[-70.3087,19.1476,49.4766],[-70.3135,19.1463,49.3328],[-70.324,19.1378,50.4117],[-70.3312,19.1218,54.7965],[-70.3304,19.1187,57.1395],[-70.3247,19.1129,57.2796],[-70.3247,19.1095,56.5332],[-70.3312,19.1026,61.318],[-70.3354,19.0928,76.1134],[-70.3399,19.0884,75.3471],[-70.342,19.0824,79.1713],[-70.3527,19.0763,86.0645],[-70.3688,19.0613,171.1434]]]]}}