{"type":"Feature","properties":{"GID_3":"HTI.3.5.3_1","GID_0":"HTI","country":"Haiti","GID_1":"HTI.3_1","province":"L'Artibonite","NL_NAME_1":"NA","GID_2":"HTI.3.5_1","county":"Saint-Marc","NL_NAME_2":"NA","city":"Verettes","VARNAME_3":"NA","NL_NAME_3":"NA","TYPE_3":"Commune","ENGTYPE_3":"Commune","CC_3":"NA","HASC_3":"NA","name":"Verettes.city"},
"geometry":{"type": "MultiPolygon","coordinates": [[[[-72.3789,18.9711,95.2773],[-72.3778,18.9756,75.3782],[-72.3735,18.9822,64.5291],[-72.3651,18.9849,46.1812],[-72.3576,18.9823,46.8764],[-72.354,18.9864,45.9335],[-72.3562,18.9901,45.5622],[-72.3612,18.9886,44.8998],[-72.3673,18.9912,43.3888],[-72.3728,18.9891,46.2588],[-72.3736,18.992,43.6529],[-72.3685,18.996,40.0],[-72.3685,19.0039,40.5587],[-72.3733,19.005,39.243],[-72.3768,19.0114,41.2841],[-72.3808,19.0121,39.125],[-72.3821,19.0148,39.6304],[-72.3861,19.0161,39.7511],[-72.3799,19.0232,38.8284],[-72.3797,19.0254,39.1971],[-72.3912,19.0338,37.7991],[-72.3972,19.0332,36.7995],[-72.401,19.0358,35.2455],[-72.4049,19.036,34.3287],[-72.4086,19.0404,33.3345],[-72.4135,19.0388,32.375],[-72.4144,19.0444,34.8647],[-72.4163,19.0458,39.5012],[-72.4191,19.0462,34.1008],[-72.4198,19.044,34.0404],[-72.4176,19.0366,32.0],[-72.4186,19.0349,33.9278],[-72.4217,19.0369,36.5787],[-72.4266,19.0459,33.8618],[-72.4309,19.044,32.2127],[-72.4349,19.045,31.0414],[-72.4364,19.048,30.9422],[-72.4351,19.0534,31.906],[-72.4403,19.0571,30.8004],[-72.4409,19.0627,36.7008],[-72.4484,19.0644,38.6708],[-72.4522,19.0703,36.1557],[-72.45,19.0767,29.6811],[-72.4507,19.0836,28.369],[-72.463,19.0831,26.6374],[-72.4652,19.0782,25.6818],[-72.4643,19.0759,31.8314],[-72.4684,19.0722,23.6249],[-72.473,19.0757,24.3351],[-72.4715,19.0795,22.978],[-72.4684,19.0811,26.8102],[-72.4702,19.0841,27.9428],[-72.474,19.0846,24.4273],[-72.4774,19.0829,21.8782],[-72.4782,19.0807,24.9617],[-72.4769,19.0782,24.3669],[-72.4793,19.077,27.4062],[-72.4802,19.0815,22.0721],[-72.4827,19.0833,24.5705],[-72.4808,19.0866,25.674],[-72.4814,19.0908,23.7661],[-72.4879,19.0915,24.4771],[-72.4891,19.0931,25.2372],[-72.4861,19.0971,24.8747],[-72.4834,19.097,23.7495],[-72.4795,19.0922,23.3731],[-72.4732,19.0934,22.3779],[-72.4745,19.0982,22.9371],[-72.479,19.0996,21.4205],[-72.4797,19.1013,20.5065],[-72.4751,19.108,21.4262],[-72.4764,19.1167,20.6429],[-72.4817,19.12,20.1559],[-72.4902,19.1187,23.4712],[-72.4914,19.1197,20.0742],[-72.492,19.1224,19.7219],[-72.488,19.1264,21.1108],[-72.4931,19.1249,20.9917],[-72.4945,19.12,19.8242],[-72.4989,19.1205,20.4747],[-72.5045,19.1249,19.1421],[-72.5043,19.1286,18.7286],[-72.5073,19.1316,18.9394],[-72.5064,19.1355,23.0893],[-72.5136,19.1329,17.4509],[-72.5155,19.1299,20.4087],[-72.5195,19.1307,17.1044],[-72.519,19.1362,17.5912],[-72.514,19.1386,18.1192],[-72.5188,19.1438,19.840699999999998],[-72.5181,19.1466,22.314],[-72.5161,19.1482,17.2903],[-72.5122,19.148,17.6521],[-72.513,19.1526,19.086],[-72.5211,19.1544,18.1846],[-72.5248,19.1507,16.8286],[-72.5325,19.1481,16.511],[-72.5393,19.1406,15.7905],[-72.5526,19.1489,18.3463],[-72.5591,19.1443,19.4024],[-72.5632,19.146,16.5098],[-72.5656,19.1408,16.1153],[-72.5737,19.1392,17.4056],[-72.5794,19.1422,16.8803],[-72.5806,19.1448,16.289],[-72.5796,19.1496,15.7363],[-72.5825,19.1528,15.7225],[-72.5895,19.1483,14.313],[-72.5974,19.1502,16.3491],[-72.6,19.1585,13.0758],[-72.6082,19.1562,13.4992],[-72.6045,19.151,12.5777],[-72.6078,19.1493,13.8947],[-72.6082,19.1355,106.2169],[-72.5973,19.1296,173.2962],[-72.5856,19.1259,110.2177],[-72.5546,19.1062,98.4694],[-72.5528,19.1013,97.1914],[-72.558,19.0944,153.5833],[-72.558,19.0899,173.7289],[-72.5546,19.0832,235.9244],[-72.5473,19.0791,322.9799],[-72.5475,19.0772,319.514],[-72.5537,19.0753,191.136],[-72.5532,19.0703,203.0514],[-72.5562,19.069,214.1915],[-72.5559,19.0663,254.1327],[-72.5604,19.0621,252.4827],[-72.5634,19.0536,310.0178],[-72.5687,19.047,349.7538],[-72.5768,19.0437,491.5358],[-72.5848,19.035,627.3047],[-72.5866,19.0293,856.4282],[-72.5799,19.0179,1116.8496],[-72.5838,19.0117,1151.6217],[-72.5835,19.0031,1025.5254],[-72.5892,18.9964,1016.2028],[-72.5889,18.9912,811.6241],[-72.5923,18.9844,787.5735],[-72.5941,18.9737,404.4617],[-72.586,18.9697,430.3193],[-72.5803,18.9685,454.995],[-72.5727,18.9692,483.8256],[-72.5661,18.9648,487.7162],[-72.5585,18.9649,515.6183],[-72.5546,18.9614,534.0598],[-72.5413,18.9616,565.5189],[-72.5365,18.9572,600.397],[-72.5308,18.9595,696.5717],[-72.5252,18.9577,744.9179],[-72.521,18.9584,770.0098],[-72.5182,18.9558,777.5675],[-72.5145,18.9553,701.3525],[-72.509,18.9595,794.5281],[-72.5038,18.9577,790.0059],[-72.4957,18.9588,1119.585],[-72.467,18.9257,1178.6306],[-72.4644,18.9251,1177.5597],[-72.4624,18.9276,1281.2445],[-72.4595,18.9272,1257.7874],[-72.4568,18.9208,1152.2047],[-72.4549,18.9197,1205.1427],[-72.443,18.9239,1216.448],[-72.4356,18.9234,1194.3202],[-72.4371,18.9202,1311.3826],[-72.4285,18.9172,1275.3833],[-72.4281,18.9147,1333.0597],[-72.4206,18.9194,1022.0656],[-72.4175,18.9235,859.5079],[-72.4163,18.9288,683.506],[-72.4174,18.9349,558.6874],[-72.4157,18.9376,493.9955],[-72.3952,18.9459,255.1043],[-72.3892,18.9593,163.2681],[-72.3823,18.9657,105.7943],[-72.3789,18.9711,95.2773]]]]}}