{"type": "Feature","bbox": [-82.3951,23.111,-82.3377,23.1604],"geometry": {"type": "MultiPolygon","coordinates": [[[[-82.3807,23.1158,18.513],[-82.3796,23.111,28.3326],[-82.3638,23.1203,9.931],[-82.3529,23.1227,0.0],[-82.354,23.124,0.0],[-82.3571,23.1224,0.0],[-82.3574,23.1243,0.3373],[-82.3476,23.1285,0.0],[-82.3451,23.1376,0.0],[-82.349,23.1421,0.0],[-82.3576,23.1468,1.3559],[-82.3635,23.1421,3.6128999999999998],[-82.3685,23.1418,7.2652],[-82.3737,23.1421,0.0],[-82.3868,23.1468,2.1277],[-82.3951,23.146,0.6046],[-82.3839,23.1295,38.0321],[-82.3807,23.1158,18.513]]],
[[[-82.3388,23.141,0.0],[-82.3377,23.141,0.0],[-82.3388,23.1604,4.1446],[-82.3493,23.1571,0.0],[-82.3501,23.1549,2.1585],[-82.3576,23.1513,13.4037],[-82.3576,23.1499,5.609],[-82.3512,23.1468,5.8548],[-82.346,23.1413,0.0],[-82.3421,23.1415,0.0],[-82.3396,23.1399,0.0],[-82.3388,23.141,0.0]]]]}
,"properties": {"GID_2": "CUB.4.3_1","GID_0": "CUB","country": "Cuba","GID_1": "CUB.4_1","province": "CiudaddelaHabana","NL_NAME_1": "NA","county": "CentroHabana","VARNAME_2": "NA","NL_NAME_2": "NA","TYPE_2": "Municipio","ENGTYPE_2": "Municipality","CC_2": "NA","HASC_2": "CU.CH.CH","name": "Centro_Habana.county","area_km2": 13.72592,"hist_schema_id": "Elevation0-9000","hist_area_km2": {"0": 5.26422,"25": 7.64286,"50": 0.81884}}}