{"type":"Feature","properties":{"GID_2":"CUB.16.8_1","GID_0":"CUB","country":"Cuba","GID_1":"CUB.16_1","province":"VillaClara","NL_NAME_1":"NA","county":"QuemadodeGüines","VARNAME_2":"NA","NL_NAME_2":"NA","TYPE_2":"Municipio","ENGTYPE_2":"Municipality","CC_2":"NA","HASC_2":"CU.VC.QG","name":"Quemadode_Güines.county"},
"geometry":{"type": "MultiPolygon","coordinates": [[[[-80.3838,22.7262,60.9197],[-80.3934,22.7041,62.7503],[-80.3616,22.7036,53.9475],[-80.3405,22.6971,53.0047],[-80.3136,22.695,49.7511],[-80.2631,22.6706,51.766],[-80.2527,22.6854,39.7364],[-80.2133,22.7228,30.5],[-80.2071,22.7358,36.8258],[-80.2085,22.7833,69.2509],[-80.2335,22.8333,29.0748],[-80.2354,22.9096,0.171],[-80.239,22.9076,0.1555],[-80.2504,22.9076,0.63],[-80.2535,22.906,0.0],[-80.2524,22.9043,0.8021],[-80.2474,22.904,0.3926],[-80.2454,22.9021,0.3776],[-80.2482,22.8993,0.8158],[-80.251,22.8993,0.5887],[-80.256,22.9015,1.2511],[-80.2585,22.9004,2.5093],[-80.2637,22.9013,1.8346],[-80.2707,22.9082,0.4341],[-80.2735,22.9076,0.2658],[-80.2754,22.9049,4.7925],[-80.2846,22.9068,5.5719],[-80.2887,22.9112,4.2153],[-80.3044,22.8825,11.1164],[-80.344,22.8273,78.8063],[-80.3697,22.7783,67.9607],[-80.3794,22.7504,68.3864],[-80.3838,22.7262,60.9197]]],
[[[-80.2571,22.9085,0.0],[-80.2585,22.9088,0.83],[-80.2585,22.9057,1.9985],[-80.256,22.9065,1.1303],[-80.2571,22.9085,0.0]]]]}}