{"type":"Feature","properties":{"GID_1":"BRB.4_1","GID_0":"BRB","country":"Barbados","province":"SaintJames","VARNAME_1":"NA","NL_NAME_1":"NA","TYPE_1":"Parish","ENGTYPE_1":"Parish","CC_1":"NA","HASC_1":"BB.JM","ISO_1":"BB-04","name":"Saint_James.province"},
"geometry":{"type": "MultiPolygon","coordinates": [[[[-59.6006,13.2361,262.8816],[-59.6427,13.2249,1.3017],[-59.6401,13.2101,9.3577],[-59.6404,13.2029,11.5305],[-59.6426,13.1979,6.9622],[-59.6413,13.191,0.0],[-59.6379,13.1885,3.0042],[-59.6396,13.1826,0.6438],[-59.6396,13.1771,1.2978],[-59.6374,13.1729,0.0],[-59.6387,13.169,0.0],[-59.6371,13.1671,2.4271],[-59.6387,13.1437,0.0],[-59.6362,13.136,5.2856],[-59.614,13.1444,116.9098],[-59.6173,13.1874,117.185],[-59.6019,13.2023,222.4221],[-59.5977,13.2154,268.0773],[-59.6006,13.2361,262.8816]]]]}}