{"type":"Feature","properties":{"GID_1":"PRI.32_1","GID_0":"PRI","country":"PuertoRico","province":"Guaynabo","VARNAME_1":"NA","NL_NAME_1":"NA","TYPE_1":"Municipio","ENGTYPE_1":"Municipality","CC_1":"NA","HASC_1":"PR.GB","ISO_1":"-","name":"Guaynabo.province"},
"geometry":{"type": "MultiPolygon","coordinates": [[[[-66.0806,18.2973,185.9478],[-66.0852,18.3002,132.2097],[-66.0824,18.3078,134.2276],[-66.0885,18.3197,192.0825],[-66.0866,18.3321,170.7896],[-66.0963,18.3378,107.8386],[-66.0996,18.3426,129.7442],[-66.0964,18.3535,45.3077],[-66.0885,18.3573,85.7379],[-66.0927,18.3721,53.2401],[-66.095,18.3778,60.3258],[-66.1024,18.3797,57.5399],[-66.1061,18.3826,67.5574],[-66.108,18.3888,45.9911],[-66.1071,18.4016,16.7998],[-66.0969,18.4002,44.5476],[-66.095,18.4036,35.9804],[-66.0992,18.4193,7.982],[-66.1101,18.4293,0.0],[-66.1096,18.4374,0.0],[-66.1141,18.4407,2.5592],[-66.1316,18.4245,4.5743],[-66.1321,18.4207,1.5814],[-66.1251,18.4188,5.8437],[-66.121,18.4145,12.169],[-66.1242,18.4097,31.1898],[-66.1265,18.3959,24.5556],[-66.1186,18.3788,64.4433],[-66.1223,18.3764,77.769],[-66.133,18.3816,15.5061],[-66.1376,18.3792,13.3619],[-66.1353,18.3725,15.4094],[-66.1417,18.3616,22.0531],[-66.1417,18.3578,22.3492],[-66.1362,18.3501,26.2706],[-66.1334,18.3354,42.0173],[-66.1417,18.3292,42.8876],[-66.1417,18.3244,43.6308],[-66.1398,18.3182,56.7747],[-66.1324,18.313,89.7949],[-66.1417,18.3091,60.6312],[-66.1412,18.301,84.7889],[-66.1379,18.2982,92.137],[-66.1439,18.2796,165.9988],[-66.1208,18.2815,260.7719],[-66.1083,18.2777,486.6622],[-66.0995,18.2815,346.0735],[-66.094,18.292,184.3376],[-66.0806,18.2973,185.9478]]]]}}