{"type":"Feature","properties":{"ISO3166-1-Alpha-3":"BHS","country":"The Bahamas","fill":"#F0F","id":"5024","name":"Exuma"},
"geometry":{"type": "MultiPolygon","coordinates": [[[[-75.53978,23.42768,0.0],[-75.57698,23.44587,0.0],[-75.61998,23.4571,0.0],[-75.65355,23.45946,0.8763],[-75.63732,23.43549,0.0512],[-75.60188,23.42341,1.3588],[-75.5598,23.41559,4.6078],[-75.52383,23.40485,7.0867],[-75.53978,23.42768,0.0]]],
[[[-75.97704,23.67744,0.0],[-75.98225,23.68268,0.0],[-75.98998,23.68598,0.0],[-75.99608,23.68456,5.534],[-76.00259,23.68016,0.33],[-76.01122,23.67695,0.131],[-76.02355,23.67919,1.0068],[-76.03148,23.66852,2.2853],[-76.02945,23.65567,6.9664],[-76.02115,23.64411,0.8799],[-76.01057,23.6376,1.0804],[-76.01159,23.63203,1.0183],[-76.00495,23.62295,0.0],[-76.00304,23.614,0.0],[-76.00768,23.61176,1.2548],[-76.03718,23.60346,0.0],[-76.03718,23.59663,0.806],[-75.9877,23.60082,7.3593],[-75.94546,23.58804,7.7556],[-75.90807,23.5624,0.0],[-75.87336,23.52839,0.0],[-75.85924,23.53754,11.2915],[-75.84191,23.52851,8.9198],[-75.82299,23.5124,-0.0979],[-75.80443,23.50043,0.0],[-75.81273,23.47956,0.1203],[-75.79377,23.47053,0.518],[-75.74299,23.46695,13.5439],[-75.69823,23.44428,0.0093],[-75.67536,23.43854,1.3684],[-75.66104,23.45262,0.4099],[-75.74494,23.48273,0.0],[-75.78254,23.50755,9.597],[-75.79821,23.53864,1.3909],[-75.80895,23.54198,0.0],[-75.85631,23.56729,0.0],[-75.92174,23.63142,11.7567],[-75.91588,23.63467,0.0],[-75.91324,23.63752,0.0],[-75.91145,23.64077,0.0],[-75.90807,23.64501,0.0],[-75.92931,23.64582,0.0],[-75.94498,23.64883,0.0],[-75.95718,23.65485,5.8548],[-75.96825,23.66494,0.0],[-75.97704,23.67744,0.0]]]]}}