{"type":"Feature","properties":{"GID_1":"BHS.12_1","GID_0":"BHS","country":"Bahamas","state":"Exuma","VARNAME_1":"NA","NL_NAME_1":"NA","TYPE_1":"District","ENGTYPE_1":"District","CC_1":"NA","HASC_1":"BS.EM","ISO_1":"NA","name":"Exuma.state"},
"geometry":{"type": "MultiPolygon","coordinates": [[[[-75.4515,23.3929,0.7757],[-75.4568,23.3943,0.0],[-75.4549,23.3915,0.0736],[-75.4529,23.3918,0.2522],[-75.4496,23.389,0.6152],[-75.4515,23.3929,0.7757]]],
[[[-75.4388,23.3968,0.0],[-75.4401,23.3996,0.0],[-75.4404,23.396,0.0],[-75.4388,23.3954,0.0],[-75.4388,23.3968,0.0]]],
[[[-75.436,23.4001,0.3689],[-75.4371,23.3996,0.3689],[-75.4374,23.3971,0.0],[-75.434,23.3996,0.0],[-75.436,23.4001,0.3689]]],
[[[-75.5071,23.4029,0.0],[-75.5101,23.404,0.0],[-75.509,23.4015,0.1025],[-75.5126,23.3999,0.3477],[-75.5096,23.3996,0.5631],[-75.5088,23.3979,0.1154],[-75.5046,23.3988,4.1874],[-75.4949,23.3963,1.0269],[-75.4907,23.3929,0.0],[-75.4832,23.3918,0.0],[-75.481,23.3885,0.0],[-75.4735,23.3893,1.147],[-75.4715,23.386,1.1291],[-75.4638,23.389,1.885],[-75.4612,23.3882,0.0],[-75.4571,23.3907,0.0],[-75.4676,23.394,0.0],[-75.4707,23.3971,0.0],[-75.4926,23.3985,6.2533],[-75.5071,23.4029,0.0]]],
[[[-75.4318,23.403199999999998,1.163],[-75.4332,23.4051,1.1793],[-75.4385,23.4018,0.0],[-75.4321,23.4015,0.0],[-75.4318,23.403199999999998,1.163]]],
[[[-75.8015,23.5585,0.4717],[-75.804,23.5593,0.0],[-75.8015,23.5557,1.246],[-75.7996,23.5557,0.0],[-75.7996,23.5568,0.0],[-75.8015,23.5585,0.4717]]],
[[[-75.8318,23.5726,0.0],[-75.8321,23.5746,0.0],[-75.8362,23.5715,0.0],[-75.8337,23.571,0.5907],[-75.8318,23.5726,0.0]]],
[[[-75.8254,23.574,0.7732],[-75.8279,23.5751,1.2532],[-75.8288,23.5729,2.7713],[-75.8257,23.5713,0.0],[-75.8218,23.5715,0.0],[-75.8226,23.5732,0.0],[-75.8254,23.574,0.7732]]],
[[[-76.0665,23.5735,0.0],[-76.066,23.576,0.0],[-76.0682,23.5768,0.0795],[-76.0707,23.5726,0.0],[-76.0685,23.5721,0.0],[-76.0665,23.5735,0.0]]],
[[[-76.0585,23.576,0.0],[-76.059,23.5776,0.0],[-76.0604,23.5751,0.0],[-76.0599,23.5749,0.0],[-76.0585,23.576,0.0]]],
[[[-76.0593,23.5821,0.0],[-76.059,23.5838,0.0],[-76.0615,23.5824,0.3706],[-76.0635,23.5838,0.0],[-76.0671,23.5774,0.124],[-76.064,23.5763,0.0],[-76.0638,23.5782,0.9354],[-76.0593,23.5821,0.0]]],
[[[-76.061,23.5857,0.0],[-76.0599,23.5871,0.0],[-76.0601,23.5885,0.0],[-76.0626,23.5865,0.0],[-76.061,23.5857,0.0]]],
[[[-75.8543,23.5885,1.6718],[-75.8585,23.5896,0.3787],[-75.8596,23.5876,2.7757],[-75.8579,23.5863,0.0],[-75.8521,23.5865,0.3819],[-75.8543,23.5885,1.6718]]],
[[[-76.0512,23.6049,0.0],[-76.0515,23.6032,0.0],[-76.0496,23.6032,0.0],[-76.0493,23.6054,1.3478],[-76.0512,23.6049,0.0]]],
[[[-75.9282,23.649,0.0],[-75.9293,23.6521,0.0],[-75.9313,23.651,0.0],[-75.9304,23.6474,0.0],[-75.9282,23.649,0.0]]],
[[[-75.9535,23.6715,0.0],[-75.9538,23.6735,0.0],[-75.9585,23.6726,0.0],[-75.9576,23.6712,0.0],[-75.9535,23.6715,0.0]]],
[[[-75.956,23.6804,0.0],[-75.9585,23.6815,0.0],[-75.9593,23.6782,0.0],[-75.9571,23.6757,0.0],[-75.9538,23.6751,0.0],[-75.9532,23.6771,0.0],[-75.956,23.6804,0.0]]],
[[[-75.9499,23.669,0.0],[-75.9529,23.6701,1.0888],[-75.9549,23.6671,0.6853],[-75.9476,23.6649,0.0],[-75.9471,23.6663,0.7239],[-75.9499,23.669,0.0]]],
[[[-76.0343,23.6785,0.0],[-76.0357,23.6804,1.1099],[-76.0446,23.6735,1.5496],[-76.0435,23.6688,0.0],[-76.0454,23.6679,0.0],[-76.0449,23.6654,0.1449],[-76.0399,23.6612,0.4645],[-76.0343,23.6621,0.0],[-76.029,23.6699,1.2764],[-76.0301,23.6749,0.0],[-76.0343,23.6785,0.0]]],
[[[-76.1326,23.6999,2.7112],[-76.1374,23.701,0.0],[-76.1365,23.6976,0.6338],[-76.1318,23.696,0.0],[-76.1279,23.6965,0.0],[-76.1285,23.6985,0.0],[-76.1326,23.6999,2.7112]]],
[[[-76.1199,23.6963,2.7627],[-76.1271,23.6971,0.0],[-76.1237,23.6943,0.0],[-76.1188,23.6949,2.6418],[-76.1129,23.6924,2.1067],[-76.1124,23.6893,0.0],[-76.1087,23.6918,0.0],[-76.1154,23.696,0.4962],[-76.1199,23.6963,2.7627]]],
[[[-76.0943,23.6938,0.0],[-76.1029,23.694,0.0],[-76.1062,23.6926,0.0],[-76.0999,23.6921,5.6106],[-76.0937,23.6863,0.0],[-76.0918,23.6896,0.0],[-76.0943,23.6938,0.0]]],
[[[-76.0821,23.6968,4.8609],[-76.0832,23.6985,1.6039],[-76.0865,23.6982,0.0],[-76.0912,23.6946,0.085],[-76.0857,23.6932,0.0],[-76.0818,23.6954,0.0],[-76.0821,23.6968,4.8609]]],
[[[-75.9665,23.6826,0.0],[-75.9668,23.684,0.0],[-75.9699,23.6846,0.6677],[-75.9693,23.6826,0.0],[-75.9665,23.6826,0.0]]],
[[[-75.9762,23.6904,0.0],[-75.976,23.6915,0.0],[-75.9776,23.6915,0.5194],[-75.9796,23.6899,0.0],[-75.9782,23.6893,0.0],[-75.9762,23.6904,0.0]]],
[[[-75.9751,23.6879,1.7734],[-75.9771,23.6887,0.0],[-75.9757,23.6849,0.0],[-75.9715,23.6829,0.0],[-75.9713,23.6846,0.0],[-75.9751,23.6879,1.7734]]],
[[[-75.9935,23.706,1.435],[-75.994,23.7085,1.1432],[-75.9957,23.7085,0.0],[-75.9987,23.7029,3.5839],[-75.9912,23.7018,0.0],[-75.9907,23.7038,0.0],[-75.9935,23.706,1.435]]],
[[[-76.0032,23.7146,0.0],[-76.006,23.7154,0.0],[-76.0004,23.7104,0.0],[-76.0007,23.7085,0.0],[-75.9974,23.7074,0.0],[-75.9982,23.7107,0.0],[-76.0032,23.7146,0.0]]],
[[[-75.9832,23.6988,1.9787],[-75.9857,23.7001,1.0],[-75.9865,23.6979,1.2732],[-75.981,23.6926,0.0],[-75.9807,23.6957,0.0],[-75.9832,23.6988,1.9787]]],
[[[-76.0729,23.696,0.8022],[-76.0726,23.6999,0.4192],[-76.0776,23.6993,0.4606],[-76.0793,23.6965,0.1458],[-76.0774,23.6957,1.2996],[-76.0768,23.6932,0.8324],[-76.0729,23.696,0.8022]]],
[[[-76.0049,23.6985,2.8968],[-76.0065,23.7001,1.5246],[-76.0076,23.6971,8.3336],[-76.0038,23.6949,0.0],[-76.0035,23.6976,0.0],[-76.0049,23.6985,2.8968]]],
[[[-75.7857,23.426,0.0],[-75.7868,23.424,0.0],[-75.7826,23.4265,0.0],[-75.7851,23.4265,0.0],[-75.7857,23.426,0.0]]],
[[[-75.6424,23.4332,0.0],[-75.639,23.4335,0.0893],[-75.6387,23.4346,0.0],[-75.6457,23.4349,0.0],[-75.6424,23.4332,0.0]]],
[[[-75.7307,23.4326,0.0],[-75.7304,23.4315,0.0],[-75.7285,23.4335,0.1677],[-75.7301,23.4332,0.0],[-75.7307,23.4326,0.0]]],
[[[-75.9543,23.4335,0.0],[-75.9538,23.4326,0.0],[-75.9501,23.436,0.0],[-75.9515,23.4357,0.0],[-75.9543,23.4335,0.0]]],
[[[-75.8649,23.4349,0.0],[-75.8682,23.4346,0.0],[-75.8682,23.4326,0.0],[-75.8671,23.4324,0.0],[-75.8649,23.4349,0.0]]],
[[[-75.8838,23.4274,0.0],[-75.8835,23.4285,0.0],[-75.8871,23.4282,0.0],[-75.8857,23.4268,0.0],[-75.8838,23.4274,0.0]]],
[[[-75.7796,23.4276,0.0],[-75.7779,23.4276,0.0],[-75.7768,23.4287,0.0],[-75.7818,23.4268,0.0],[-75.7796,23.4276,0.0]]],
[[[-75.6762,23.4299,0.0],[-75.6785,23.431,0.0],[-75.6799,23.4287,0.0],[-75.6782,23.4285,0.0],[-75.6762,23.4299,0.0]]],
[[[-75.9251,23.4365,0.0],[-75.9232,23.4368,0.0],[-75.9229,23.4376,0.0],[-75.9257,23.4376,0.0],[-75.9251,23.4365,0.0]]],
[[[-75.796,23.4371,0.0],[-75.7954,23.4393,0.0],[-75.7968,23.4399,0.0],[-75.8007,23.4382,0.0],[-75.7999,23.4343,0.2127],[-75.8024,23.4304,0.0],[-75.7951,23.4346,0.0],[-75.796,23.4371,0.0]]],
[[[-75.859,23.4368,0.1715],[-75.861,23.4349,0.0],[-75.8562,23.4374,0.0],[-75.8585,23.4374,0.0],[-75.859,23.4368,0.1715]]],
[[[-75.6515,23.4399,0.0],[-75.6535,23.4415,0.0],[-75.6551,23.4376,0.1127],[-75.6504,23.4371,0.0],[-75.6515,23.4399,0.0]]],
[[[-75.7299,23.4396,0.3069],[-75.7299,23.4407,0.0],[-75.734,23.4407,0.0],[-75.7379,23.4365,0.0],[-75.7321,23.4376,0.0],[-75.7299,23.4396,0.3069]]],
[[[-75.9515,23.4385,0.0],[-75.951,23.4401,0.9993],[-75.9549,23.4376,0.0],[-75.9538,23.4374,0.0],[-75.9515,23.4385,0.0]]],
[[[-75.919,23.4387,0.0],[-75.9179,23.4401,0.0],[-75.9207,23.4379,0.0],[-75.9199,23.4376,0.0],[-75.919,23.4387,0.0]]],
[[[-75.9107,23.4393,0.0],[-75.9099,23.4401,0.0],[-75.9115,23.4404,0.3887],[-75.9135,23.4387,0.0],[-75.9118,23.4382,0.0],[-75.9107,23.4393,0.0]]],
[[[-75.8304,23.4387,0.0],[-75.8282,23.439,0.0],[-75.8282,23.4399,0.0],[-75.8318,23.4393,0.3999],[-75.8304,23.4387,0.0]]],
[[[-76.0407,23.4518,0.0],[-76.0415,23.4529,0.0],[-76.044,23.4521,0.0],[-76.0443,23.449,0.0],[-76.0393,23.449,0.0],[-76.0407,23.4518,0.0]]],
[[[-75.9424,23.4638,0.0],[-75.9465,23.4643,0.0],[-75.9446,23.4604,1.229],[-75.9476,23.4568,0.7995],[-75.9474,23.4524,0.0],[-75.939,23.454,5.4162],[-75.934,23.4576,0.7453],[-75.9349,23.4596,0.0],[-75.9424,23.4638,0.0]]],
[[[-75.9376,23.4643,0.0],[-75.9379,23.4651,0.0],[-75.9396,23.465699999999998,0.0],[-75.9371,23.4632,0.0],[-75.9376,23.4643,0.0]]],
[[[-75.9037,23.4604,0.5132],[-75.9035,23.4626,0.0],[-75.909,23.4621,0.0],[-75.9126,23.461,0.0],[-75.9137,23.4576,0.0],[-75.9129,23.4565,0.0],[-75.9057,23.4574,0.4759],[-75.9037,23.4604,0.5132]]],
[[[-75.9107,23.4651,0.0],[-75.9112,23.4674,0.0],[-75.916,23.4668,0.2721],[-75.9313,23.4601,1.5488],[-75.9326,23.4576,0.0],[-75.9238,23.4574,0.1336],[-75.9149,23.461,0.0],[-75.9143,23.4635,0.2612],[-75.9107,23.4651,0.0]]],
[[[-75.6235,23.474,0.8549],[-75.6271,23.4746,1.8417],[-75.6246,23.4715,0.3043],[-75.6215,23.4718,0.0],[-75.6235,23.474,0.8549]]],
[[[-75.6438,23.4804,0.0],[-75.6429,23.481,0.0],[-75.6457,23.4821,0.0],[-75.6454,23.4804,0.0],[-75.6438,23.4804,0.0]]],
[[[-75.779,23.5443,0.0],[-75.7818,23.5449,0.0],[-75.7807,23.5415,0.0],[-75.7643,23.528199999999998,0.6407],[-75.7613,23.5199,0.0],[-75.7565,23.5199,0.5078],[-75.7546,23.5168,0.0],[-75.7496,23.5165,0.3838],[-75.7485,23.5149,0.0],[-75.7432,23.5154,0.4888],[-75.7371,23.5079,0.0],[-75.734,23.5085,0.0],[-75.7357,23.5121,0.0],[-75.7337,23.5121,0.0],[-75.7326,23.5082,0.0],[-75.7265,23.5065,1.0027],[-75.721,23.5015,0.0],[-75.7185,23.5046,1.5053],[-75.7162,23.5049,0.0],[-75.7274,23.5096,0.0],[-75.7288,23.5115,0.9431],[-75.7337,23.5126,0.0],[-75.7357,23.5163,0.0],[-75.7399,23.516,0.0],[-75.7493,23.5218,0.2835],[-75.7513,23.5215,2.5398],[-75.779,23.5443,0.0]]],
[[[-75.8604,23.5393,0.0645],[-75.8624,23.5407,0.0806],[-75.8621,23.5371,0.1311],[-75.8607,23.5368,0.0],[-75.8604,23.5393,0.0645]]],
[[[-75.7835,23.5471,0.0],[-75.7846,23.5488,0.0],[-75.786,23.5482,0.0],[-75.7838,23.5449,0.0],[-75.7835,23.5471,0.0]]],
[[[-75.6487,23.484,0.0],[-75.6507,23.4851,0.0],[-75.6518,23.4849,0.0],[-75.6493,23.4832,0.0],[-75.6487,23.484,0.0]]],
[[[-75.661,23.4882,0.4284],[-75.664,23.489,0.0],[-75.6624,23.4865,0.0],[-75.6588,23.4863,0.0],[-75.661,23.4882,0.4284]]],
[[[-75.6999,23.4965,0.0],[-75.706,23.4974,0.0],[-75.7065,23.4954,0.0],[-75.7035,23.4938,1.8661],[-75.6999,23.4965,0.0]]],
[[[-75.7099,23.5024,0.0],[-75.7138,23.5035,0.7277],[-75.7157,23.501,0.0],[-75.7082,23.4982,0.0],[-75.7057,23.499,0.0],[-75.7099,23.5024,0.0]]],
[[[-75.7501,23.5038,0.0],[-75.7524,23.5054,0.0],[-75.7515,23.5021,3.7789],[-75.7471,23.4999,0.0],[-75.7468,23.501,0.0],[-75.7501,23.5038,0.0]]],
[[[-75.6607,23.4568,3.0616],[-75.6624,23.4585,1.0974],[-75.6651,23.4546,0.0],[-75.6599,23.4515,0.0],[-75.6599,23.4535,0.0],[-75.6607,23.4568,3.0616]]],
[[[-75.729,23.4574,-0.0017],[-75.726,23.4582,0.0],[-75.726,23.4588,0.5241],[-75.7301,23.4582,0.0091],[-75.729,23.4574,-0.0017]]],
[[[-75.8507,23.4638,0.6662],[-75.8504,23.4651,0.6662],[-75.8532,23.466,0.0],[-75.8543,23.4629,0.0],[-75.8529,23.4626,0.8799],[-75.8507,23.4638,0.6662]]],
[[[-75.8515,23.4754,3.7564],[-75.8518,23.4774,0.0],[-75.8546,23.4776,0.0],[-75.8632,23.4763,1.0087],[-75.8671,23.4721,1.2013],[-75.8685,23.4599,0.0],[-75.8643,23.4599,0.0],[-75.8582,23.4626,0.0],[-75.8568,23.4651,0.0],[-75.8582,23.4707,0.0],[-75.8515,23.4754,3.7564]]],
[[[-75.8782,23.4646,0.0],[-75.8796,23.4668,3.2076],[-75.8812,23.4662,0.8342],[-75.8821,23.4585,0.0],[-75.8807,23.4565,0.0],[-75.8754,23.4593,0.0],[-75.876,23.4626,0.0],[-75.8782,23.4646,0.0]]],
[[[-75.8913,23.4693,0.0],[-75.8915,23.471,0.0],[-75.8943,23.4707,0.0],[-75.8993,23.4687,0.6347],[-75.9035,23.4646,0.0],[-75.8996,23.4607,0.2644],[-75.8993,23.4571,1.2926],[-75.8957,23.4582,0.0],[-75.8968,23.456,0.0],[-75.8957,23.4549,0.0],[-75.8932,23.4554,0.0],[-75.8918,23.4585,0.0],[-75.8893,23.4579,0.0966],[-75.8879,23.4621,0.335],[-75.8843,23.4601,0.0],[-75.8835,23.465699999999998,1.4274],[-75.8804,23.4687,3.4012],[-75.8812,23.4701,1.1257],[-75.8854,23.4699,0.0],[-75.889,23.4676,0.0638],[-75.8901,23.469,0.0],[-75.8918,23.4682,0.1092],[-75.8913,23.4693,0.0]]],
[[[-75.8718,23.4724,0.9734],[-75.8701,23.4732,0.9734],[-75.8704,23.4754,5.6313],[-75.8801,23.4737,1.9176],[-75.879,23.4668,3.2076],[-75.8735,23.4624,0.658],[-75.8724,23.459,0.0],[-75.8693,23.461,0.9086],[-75.8699,23.4696,0.0],[-75.8718,23.4701,1.1477],[-75.8718,23.4724,0.9734]]],
[[[-75.8838,23.474,0.0],[-75.8871,23.4754,0.0],[-75.8868,23.474,0.0],[-75.8832,23.4724,0.0],[-75.8838,23.474,0.0]]],
[[[-75.846,23.4757,1.3054],[-75.8479,23.4768,3.8616],[-75.8493,23.4757,3.8616],[-75.8479,23.4715,0.0],[-75.8501,23.4685,0.0],[-75.8479,23.4615,0.0],[-75.8362,23.4624,0.0],[-75.8393,23.4699,0.052],[-75.844,23.4715,0.116],[-75.846,23.4757,1.3054]]],
[[[-75.6937,23.4832,0.8534],[-75.6982,23.4843,0.0],[-75.6968,23.4779,0.3668],[-75.7029,23.4732,0.0],[-75.7012,23.4713,0.0],[-75.7001,23.4743,0.1525],[-75.6976,23.4743,0.0],[-75.6979,23.4687,0.0],[-75.696,23.4693,0.1342],[-75.696,23.4638,0.0],[-75.691,23.4568,0.3536],[-75.6913,23.4607,0.0],[-75.6949,23.4671,0.7176],[-75.6943,23.4751,0.3393],[-75.6963,23.4763,0.0],[-75.6876,23.4787,0.0],[-75.6879,23.4804,0.0],[-75.6937,23.4832,0.8534]]],
[[[-75.824,23.4988,0.0],[-75.8268,23.4999,0.0253],[-75.8293,23.4982,0.0],[-75.8299,23.4935,0.0],[-75.8271,23.4938,0.0709],[-75.8335,23.486,0.0],[-75.8335,23.484,0.0],[-75.8371,23.4826,0.0],[-75.8393,23.4793,1.5022],[-75.8449,23.4799,0.0],[-75.8463,23.4765,1.3054],[-75.844,23.4732,0.1031],[-75.8399,23.4729,0.0],[-75.8343,23.4626,1.8031],[-75.8304,23.4635,0.0],[-75.8279,23.4665,0.0],[-75.8262,23.4643,1.1345],[-75.8176,23.466,0.066],[-75.8129,23.4635,0.0],[-75.8051,23.4651,0.0],[-75.8049,23.4674,0.0],[-75.8082,23.4676,0.0],[-75.8093,23.4718,0.0356],[-75.8054,23.4732,0.0],[-75.8065,23.476,0.0415],[-75.8107,23.4765,0.0],[-75.8112,23.4718,0.0264],[-75.816,23.4724,0.0],[-75.8185,23.4757,0.0],[-75.8179,23.4768,0.0],[-75.8143,23.4757,0.0],[-75.8112,23.4796,0.0],[-75.8093,23.4799,0.0],[-75.8085,23.4832,0.83],[-75.806,23.4846,0.1897],[-75.8074,23.489,0.0347],[-75.8118,23.4924,0.0],[-75.8182,23.4915,4.0341],[-75.821,23.4929,2.7645],[-75.824,23.4988,0.0]]],
[[[-76.0426,23.4432,0.0],[-76.044,23.4449,0.0],[-76.0457,23.4418,0.0],[-76.0435,23.4418,0.0],[-76.0426,23.4432,0.0]]],
[[[-76.0038,23.444,4.0797],[-76.004,23.4471,0.0],[-76.0068,23.4476,0.0],[-76.0171,23.4438,0.0],[-76.0218,23.4399,0.9271],[-76.016,23.4363,0.0],[-76.0096,23.4376,2.568],[-76.0049,23.4365,0.0],[-76.0043,23.4387,0.2703],[-76.0007,23.4376,1.8534],[-75.9982,23.4387,0.0],[-75.9987,23.441,0.0],[-76.0029,23.4421,0.0],[-76.0038,23.444,4.0797]]],
[[[-75.9779,23.4415,0.5656],[-75.9793,23.4426,0.0],[-75.9807,23.4396,0.9635],[-75.979,23.4399,0.0],[-75.9779,23.4415,0.5656]]],
[[[-75.8262,23.4415,0.0],[-75.8265,23.4401,0.0],[-75.8229,23.4432,0.0],[-75.8246,23.4429,0.0],[-75.8262,23.4415,0.0]]],
[[[-75.8985,23.441,0.0],[-75.8965,23.441,0.0],[-75.896,23.4429,0.4278],[-75.8985,23.4429,0.6379],[-75.8985,23.441,0.0]]],
[[[-75.9365,23.4424,0.0],[-75.9368,23.444,0.0],[-75.9396,23.4438,0.0],[-75.9388,23.4413,0.0],[-75.9365,23.4424,0.0]]],
[[[-75.7424,23.4446,0.0],[-75.7449,23.4454,0.0],[-75.7432,23.4421,0.0],[-75.7462,23.4404,0.0],[-75.7457,23.4393,0.0],[-75.7407,23.4407,0.2994],[-75.7424,23.4446,0.0]]],
[[[-75.829,23.4457,0.0],[-75.8371,23.4465,0.0],[-75.844,23.4385,0.0],[-75.8349,23.4438,1.5579],[-75.8313,23.4429,0.0],[-75.829,23.4457,0.0]]],
[[[-75.9604,23.4532,1.5188],[-75.9662,23.4543,0.0],[-75.9713,23.4513,0.1115],[-75.9743,23.4426,0.0],[-75.9726,23.4418,0.0],[-75.9685,23.4454,0.0],[-75.9574,23.4496,0.7368],[-75.9568,23.4529,2.4059],[-75.9604,23.4532,1.5188]]],
[[[-75.8065,23.4526,0.0493],[-75.8085,23.4551,0.0],[-75.8104,23.4521,0.0],[-75.809,23.4471,0.0],[-75.804,23.4493,0.0],[-75.8065,23.4526,0.0493]]],
[[[-75.8121,23.4479,0.0],[-75.8112,23.4499,0.0208],[-75.8129,23.451,0.0],[-75.8151,23.4471,0.0],[-75.8121,23.4479,0.0]]],
[[[-75.7771,23.456,0.0],[-75.7979,23.4571,0.0],[-75.8001,23.4543,0.0],[-75.8001,23.4463,0.0],[-75.7921,23.4463,0.1445],[-75.7932,23.449,0.2868],[-75.7854,23.451,0.0],[-75.7799,23.4546,1.7548],[-75.7774,23.4543,0.0],[-75.7771,23.456,0.0]]],
[[[-76.0274,23.6904,0.1827],[-76.029,23.6949,0.0],[-76.0312,23.6921,0.0],[-76.0287,23.6851,0.1716],[-76.0307,23.6849,0.0],[-76.0324,23.6863,0.0],[-76.0312,23.6876,0.0],[-76.0332,23.6882,0.0],[-76.0338,23.6849,0.0],[-76.0312,23.6843,0.0],[-76.0304,23.6796,0.0],[-76.0282,23.6838,0.0],[-76.0265,23.6835,0.0],[-76.0212,23.6762,0.2436],[-76.0229,23.6746,0.3758],[-76.0251,23.6774,0.0],[-76.0296,23.6779,0.1692],[-76.0276,23.6701,0.6064],[-76.0332,23.6607,1.1511],[-76.0335,23.6565,0.2011],[-76.0351,23.6557,0.6381],[-76.0349,23.6513,0.3057],[-76.0396,23.6451,0.9456],[-76.0479,23.6404,0.0],[-76.0476,23.6393,0.0],[-76.0396,23.6396,0.3237],[-76.0407,23.6382,0.2704],[-76.0385,23.6365,0.6591],[-76.0368,23.6313,0.1486],[-76.0401,23.6293,0.3597],[-76.0404,23.6246,0.0],[-76.0351,23.6251,0.0],[-76.029,23.619,0.0],[-76.0326,23.616,0.0],[-76.0326,23.6126,0.6986],[-76.0304,23.6129,1.6388],[-76.0232,23.6093,0.6332],[-76.0201,23.6101,0.8254],[-76.0268,23.606,0.1801],[-76.0349,23.6043,0.0],[-76.039,23.5963,0.2181],[-76.0418,23.5965,0.1792],[-76.044,23.6004,0.3016],[-76.046,23.5999,0.0],[-76.0468,23.5965,0.2709],[-76.0424,23.5912,1.3725],[-76.044,23.5851,0.0],[-76.0368,23.5793,0.0],[-76.0346,23.5796,0.0],[-76.034,23.5832,0.0],[-76.0379,23.5835,0.5662],[-76.0396,23.5863,0.0],[-76.0371,23.5963,0.806],[-76.0318,23.6013,0.5182],[-76.0257,23.6026,0.6152],[-76.0082,23.5996,0.2349],[-76.0029,23.5963,0.0],[-75.9999,23.5976,1.2531],[-75.9863,23.5938,1.792],[-75.9782,23.5932,0.0],[-75.9757,23.5904,0.0],[-75.9615,23.5888,1.5353],[-75.9582,23.5865,0.0],[-75.9532,23.586,2.9346],[-75.9454,23.5796,0.1587],[-75.9379,23.5801,1.4086],[-75.9365,23.5785,0.0],[-75.9293,23.5768,0.477],[-75.9238,23.571,0.0],[-75.9196,23.5721,0.5778],[-75.919,23.5707,0.4459],[-75.8985,23.5618,0.1355],[-75.8896,23.5513,0.0],[-75.8826,23.5474,0.0],[-75.8821,23.5443,12.1371],[-75.8785,23.5418,0.0],[-75.8768,23.536,0.0],[-75.8712,23.5326,1.5578],[-75.8668,23.5251,0.0],[-75.8654,23.5254,0.0],[-75.8646,23.5287,0.0],[-75.8657,23.5324,0.0],[-75.8629,23.5346,0.0],[-75.8632,23.5407,0.0806],[-75.8615,23.5454,0.0],[-75.8596,23.5401,2.8287],[-75.8599,23.534,0.0],[-75.8512,23.5246,1.5241],[-75.8512,23.519,0.0],[-75.8465,23.5151,0.0],[-75.8443,23.5146,0.0],[-75.8426,23.5163,0.0],[-75.8432,23.5129,0.0],[-75.8418,23.5126,0.0],[-75.8396,23.5165,0.0],[-75.8307,23.5193,0.2833],[-75.8176,23.5149,0.2703],[-75.8285,23.514,0.0],[-75.829,23.5121,0.0],[-75.8262,23.5093,0.0],[-75.8265,23.5051,0.1013],[-75.829,23.5035,0.0],[-75.8224,23.5032,0.0439],[-75.8199,23.4999,0.1247],[-75.8224,23.4996,0.0976],[-75.8221,23.4951,0.1012],[-75.8179,23.4924,0.085],[-75.8146,23.4935,0.0],[-75.809,23.4918,0.0],[-75.809,23.4935,0.1553],[-75.8051,23.496,0.0527],[-75.8054,23.499,0.0],[-75.8082,23.5018,-0.0077],[-75.8046,23.5029,0.0462],[-75.8018,23.5012,3.3428],[-75.801,23.4971,0.0],[-75.8043,23.4965,0.0527],[-75.8079,23.4932,0.1363],[-75.8057,23.4907,0.1486],[-75.8068,23.4885,0.0324],[-75.8046,23.4879,0.0379],[-75.8046,23.4849,0.1897],[-75.8082,23.479,0.0],[-75.8054,23.4793,0.2421],[-75.8043,23.4724,0.0],[-75.8012,23.4737,0.0],[-75.7999,23.4724,0.1241],[-75.8054,23.4707,0.0689],[-75.8035,23.466,0.8646],[-75.7974,23.4671,0.0462],[-75.794,23.4626,0.5166],[-75.7724,23.4582,0.0],[-75.7546,23.4604,0.0],[-75.7535,23.4629,1.8686],[-75.7518,23.461,0.0457],[-75.746,23.4615,0.0],[-75.7393,23.459,0.6298],[-75.7265,23.4599,0.5241],[-75.7218,23.4588,2.9996],[-75.7201,23.4571,0.0],[-75.7199,23.4529,0.0],[-75.711,23.4538,4.0409],[-75.6985,23.4429,0.0],[-75.6951,23.4424,-0.0248],[-75.6988,23.4404,0.025],[-75.699,23.4376,-0.0569],[-75.7018,23.4374,-0.1409],[-75.6993,23.441,0.0],[-75.7043,23.4413,0.02],[-75.7049,23.4438,0.0],[-75.7071,23.4443,0.0],[-75.7099,23.4393,0.0],[-75.7154,23.4365,0.7305],[-75.7149,23.4351,0.0],[-75.7082,23.4363,0.3985],[-75.7046,23.4318,0.0],[-75.696,23.436,0.5456],[-75.6937,23.4349,0.0],[-75.684,23.4368,0.0],[-75.6704,23.4338,2.2878],[-75.6571,23.4379,0.0],[-75.6546,23.4401,0.0711],[-75.654,23.4449,0.1687],[-75.6571,23.4485,0.0],[-75.6612,23.4482,0.0377],[-75.6615,23.4465,0.015],[-75.6651,23.4457,0.0],[-75.6674,23.4429,0.0388],[-75.6687,23.4429,2.9415],[-75.669,23.4454,1.8402],[-75.666,23.4451,0.1871],[-75.6649,23.4476,1.8699],[-75.6621,23.4476,0.0377],[-75.661,23.4499,1.4638],[-75.656,23.4507,3.2752],[-75.6504,23.4471,0.1589],[-75.6501,23.4432,0.0],[-75.6449,23.4407,0.0],[-75.6462,23.4357,1.5174],[-75.6379,23.4349,0.0],[-75.6387,23.4326,0.0893],[-75.6468,23.4324,0.0],[-75.6482,23.436,0.0],[-75.651,23.4363,0.0],[-75.6535,23.4304,0.0],[-75.6518,23.4285,0.0],[-75.6454,23.4299,0.1031],[-75.6399,23.429,0.1724],[-75.6374,23.4271,0.4774],[-75.636,23.4154,0.0],[-75.6288,23.4188,0.0],[-75.6312,23.4204,0.1878],[-75.6301,23.4249,0.0],[-75.6246,23.4249,0.0],[-75.6257,23.4335,0.444],[-75.6282,23.4332,0.1385],[-75.6324,23.4365,0.0393],[-75.624,23.4363,0.4945],[-75.6224,23.4346,0.0165],[-75.6249,23.4315,-0.0073],[-75.6232,23.4235,0.0],[-75.6243,23.4215,0.0],[-75.6188,23.421,0.4741],[-75.6132,23.414,0.0],[-75.5879,23.4224,3.8488],[-75.5824,23.4204,0.0],[-75.5818,23.4174,0.2425],[-75.5774,23.4146,0.8436],[-75.569,23.4126,1.2395],[-75.5696,23.4096,0.0],[-75.5649,23.4065,0.0],[-75.5532,23.4071,1.9721],[-75.5357,23.4107,2.2183],[-75.5287,23.4079,0.0],[-75.5296,23.4046,0.0],[-75.5193,23.401,0.418],[-75.5132,23.4015,0.0],[-75.5137,23.4035,0.0],[-75.5193,23.4029,2.8826],[-75.5204,23.4074,0.1359],[-75.5237,23.4096,0.2618],[-75.5271,23.4157,0.6042],[-75.5338,23.4179,0.0],[-75.5365,23.4215,0.7754],[-75.539,23.421,3.4834],[-75.5401,23.4226,0.0],[-75.5476,23.4249,5.6434],[-75.5485,23.4268,0.0],[-75.5649,23.4307,0.0],[-75.5696,23.434,0.4542],[-75.5851,23.4393,0.0],[-75.5879,23.4382,2.8747],[-75.5921,23.441,0.0],[-75.5946,23.4396,1.59],[-75.6038,23.4404,3.7294],[-75.6099,23.4449,0.9443],[-75.6093,23.4476,1.1787],[-75.6146,23.4474,0.0],[-75.6243,23.4532,1.047],[-75.6263,23.4524,0.0],[-75.6282,23.454,0.0],[-75.6368,23.4557,0.0],[-75.6657,23.4713,0.0],[-75.671,23.4721,0.0],[-75.6726,23.4699,0.0],[-75.6718,23.4662,0.2721],[-75.6735,23.4654,0.2345],[-75.6735,23.4632,0.2009],[-75.6879,23.4571,0.0668],[-75.6849,23.4543,0.0],[-75.6754,23.4557,0.3299],[-75.6746,23.4543,0.0],[-75.6704,23.454,0.0],[-75.6657,23.4618,0.0],[-75.6624,23.4615,-0.0099],[-75.6593,23.4599,0.0],[-75.6582,23.456,0.0],[-75.6599,23.4507,0.0],[-75.6635,23.4526,0.0],[-75.6676,23.4507,0.0],[-75.679,23.4496,3.1205],[-75.689,23.451,2.1987],[-75.6937,23.4535,7.7334],[-75.6971,23.4621,0.0],[-75.7012,23.4671,0.0],[-75.7262,23.4735,0.8787],[-75.7288,23.4735,0.0],[-75.7285,23.4707,0.0],[-75.7262,23.4704,0.0646],[-75.7271,23.4687,0.3263],[-75.7354,23.4668,2.5962],[-75.7396,23.4699,1.7263],[-75.7404,23.4724,0.0],[-75.7429,23.4713,0.0],[-75.7485,23.4765,0.0],[-75.7479,23.4768,0.0],[-75.7449,23.474,0.0],[-75.7407,23.4746,0.1473],[-75.739,23.4726,0.0],[-75.7379,23.4749,0.0],[-75.7418,23.4782,0.0],[-75.744,23.4771,0.0],[-75.7454,23.4793,0.2317],[-75.751,23.4804,0.0],[-75.7565,23.4843,0.0],[-75.7551,23.4854,0.0],[-75.751,23.4829,0.0],[-75.7507,23.4843,0.0],[-75.7538,23.4857,0.0],[-75.7515,23.4876,0.0],[-75.7532,23.4899,1.6947],[-75.7479,23.4912,1.031],[-75.7465,23.4851,0.0],[-75.7446,23.4837,0.0],[-75.7415,23.4832,0.0],[-75.7454,23.4865,1.0158],[-75.7418,23.4893,4.1935],[-75.7404,23.4865,0.0],[-75.7351,23.4857,3.8717],[-75.7332,23.4837,0.0],[-75.7374,23.4793,0.0],[-75.7376,23.4813,0.0],[-75.7407,23.4813,0.0],[-75.7404,23.4785,0.0],[-75.7368,23.4743,0.0],[-75.736,23.476,0.0],[-75.7368,23.4782,2.1536],[-75.7307,23.4782,0.0],[-75.7329,23.481,0.0],[-75.7315,23.4826,0.0],[-75.7321,23.4851,0.0],[-75.7401,23.4918,1.465],[-75.7443,23.4924,1.0384],[-75.7421,23.4935,0.0],[-75.7457,23.4979,0.0],[-75.7479,23.4943,0.3842],[-75.7493,23.4985,0.7612],[-75.7504,23.4971,0.7612],[-75.7529,23.4979,0.0],[-75.751,23.4935,2.2512],[-75.756,23.4896,0.0],[-75.756,23.4863,0.5536],[-75.7615,23.4893,0.2211],[-75.766,23.4943,0.6251],[-75.7607,23.4951,0.0],[-75.7585,23.4982,0.0],[-75.7626,23.4985,3.0616],[-75.7624,23.5004,0.0],[-75.7668,23.5029,0.0],[-75.766,23.504,0.0],[-75.7676,23.506,0.2527],[-75.7654,23.506,0.0],[-75.7654,23.5076,0.0],[-75.7757,23.5088,0.0],[-75.7812,23.5132,2.8874],[-75.7821,23.5174,0.0],[-75.7857,23.5182,2.6579],[-75.7857,23.5218,1.7271],[-75.7832,23.5243,0.0],[-75.7835,23.5293,0.0],[-75.7849,23.524,2.3276],[-75.789,23.5229,0.0],[-75.7896,23.5257,0.0],[-75.7932,23.528199999999998,0.0],[-75.7937,23.5332,0.0],[-75.7993,23.5374,1.3909],[-75.8012,23.5418,0.0],[-75.8035,23.5399,0.6111],[-75.801,23.5338,0.0],[-75.8037,23.531,3.0067],[-75.8096,23.5301,5.6876],[-75.8151,23.5343,0.9407],[-75.8215,23.5354,7.4531],[-75.826,23.5388,0.0],[-75.8262,23.5407,0.0],[-75.829,23.5407,0.946],[-75.841,23.5518,0.0],[-75.8446,23.5529,0.9137],[-75.8482,23.5588,0.0],[-75.8532,23.5604,3.5593],[-75.8637,23.5724,0.0],[-75.8665,23.5779,0.0],[-75.8721,23.5804,4.4216],[-75.8824,23.5921,0.0],[-75.8854,23.5932,5.2101],[-75.9065,23.6168,0.0],[-75.911,23.6193,0.0],[-75.9126,23.6168,1.7892],[-75.9143,23.6168,4.1929],[-75.9163,23.6201,2.0863],[-75.9163,23.6257,2.4717],[-75.9065,23.6268,0.0],[-75.9037,23.6293,0.7132],[-75.9068,23.631,0.0],[-75.9112,23.629,1.8489],[-75.9201,23.6379,0.0],[-75.9249,23.6382,1.207],[-75.9293,23.6329,9.1749],[-75.9365,23.6354,3.1211],[-75.9415,23.6401,1.0037],[-75.9407,23.6437,1.287],[-75.9524,23.6521,0.7728],[-75.9579,23.661,0.0],[-75.9621,23.6599,0.812],[-75.9765,23.6682,0.9535],[-75.9804,23.6746,0.0],[-75.9912,23.6824,0.0],[-75.9993,23.6924,0.0],[-76.0007,23.6913,0.0],[-76.0001,23.6875,0.0],[-75.9979,23.6863,1.8984],[-75.9987,23.6815,0.0],[-75.9951,23.6821,5.1525],[-75.9938,23.6782,0.4499],[-75.9949,23.6768,2.804],[-75.9971,23.6774,0.0],[-75.9962,23.6813,0.0],[-75.9999,23.6757,0.5677],[-75.9999,23.6817,0.2934],[-76.0018,23.6799,0.33],[-76.0124,23.6796,0.0],[-76.0132,23.6776,0.0],[-76.006,23.676,0.0],[-76.0032,23.6771,0.1667],[-76.0018,23.674,0.0],[-76.0065,23.6712,0.0],[-76.0068,23.6679,0.5753],[-76.0174,23.6693,0.3684],[-76.0174,23.6712,0.0],[-76.0137,23.6707,0.0],[-76.0126,23.6724,0.0],[-76.014,23.6735,0.0],[-76.0085,23.6749,0.0],[-76.0115,23.6768,0.131],[-76.0179,23.6771,0.0],[-76.0182,23.6793,1.8727],[-76.0154,23.6796,0.0],[-76.0151,23.6813,0.0],[-76.0218,23.6826,0.0],[-76.0263,23.6865,0.0],[-76.0274,23.6904,0.1827]]],
[[[-76.0296,23.7304,1.241],[-76.0324,23.7313,0.4337],[-76.0229,23.7249,0.0],[-76.0257,23.7299,0.0],[-76.0296,23.7304,1.241]]],
[[[-76.0488,23.7282,0.0],[-76.0518,23.7285,0.0],[-76.0504,23.726,0.5136],[-76.0485,23.7268,0.0],[-76.0488,23.7282,0.0]]],
[[[-76.0454,23.7376,0.0],[-76.0479,23.7393,0.3892],[-76.0451,23.7332,0.0],[-76.0482,23.7285,0.0],[-76.039,23.7276,1.6941],[-76.0346,23.729,0.0],[-76.0346,23.7299,0.0],[-76.0365,23.7299,1.4228],[-76.0454,23.7376,0.0]]],
[[[-76.1824,23.7346,0.0],[-76.1862,23.7357,0.0],[-76.1876,23.7321,0.0],[-76.1871,23.7271,0.0],[-76.1837,23.7251,0.0],[-76.1846,23.7221,0.1705],[-76.1801,23.7232,0.0],[-76.179,23.7257,0.5975],[-76.179,23.729,0.0],[-76.1824,23.7346,0.0]]],
[[[-76.2021,23.7451,0.7801],[-76.209,23.7446,0.0],[-76.2068,23.7415,0.0],[-76.2012,23.739,0.0],[-76.2004,23.7449,0.0],[-76.2021,23.7451,0.7801]]],
[[[-76.1732,23.7485,0.6889],[-76.1824,23.7493,0.0],[-76.1807,23.7463,0.6838],[-76.1779,23.7451,0.0],[-76.1729,23.7465,0.0],[-76.1657,23.746,0.0],[-76.1651,23.7471,0.0],[-76.1671,23.7488,0.0],[-76.1732,23.7485,0.6889]]],
[[[-76.1949,23.7515,0.2564],[-76.1935,23.7515,0.2564],[-76.194,23.7529,0.3587],[-76.1971,23.7532,0.3507],[-76.1968,23.7518,0.0],[-76.1949,23.7515,0.2564]]],
[[[-76.1846,23.749,0.0],[-76.1865,23.7501,0.0],[-76.1888,23.7493,0.0],[-76.1854,23.7476,0.0],[-76.1846,23.749,0.0]]],
[[[-76.194,23.7407,0.1061],[-76.1943,23.7426,0.0],[-76.1974,23.7429,0.0],[-76.1951,23.7404,0.0],[-76.194,23.7407,0.1061]]],
[[[-76.1888,23.7388,0.0],[-76.1899,23.7404,0.0],[-76.1915,23.7393,0.0],[-76.1904,23.7349,0.0],[-76.1876,23.7368,0.0],[-76.1888,23.7388,0.0]]],
[[[-76.1082,23.7818,0.5914],[-76.111,23.7835,0.0],[-76.1124,23.7799,3.5726],[-76.119,23.7754,7.3444],[-76.1185,23.7738,7.3444],[-76.116,23.7726,4.0692],[-76.1043,23.7735,6.3578],[-76.101,23.7676,2.5592],[-76.0965,23.7665,0.7282],[-76.096,23.7646,6.1528],[-76.0926,23.7649,11.4545],[-76.091,23.7626,2.2119],[-76.086,23.7618,4.1692],[-76.0843,23.7549,0.8747],[-76.0818,23.754,13.7831],[-76.081,23.7518,0.0],[-76.0685,23.7488,7.2741],[-76.0674,23.7468,6.3015],[-76.0682,23.7435,0.0],[-76.0624,23.7418,0.0],[-76.0626,23.7393,0.0],[-76.0576,23.7404,0.0],[-76.0535,23.739,1.2382],[-76.0532,23.741,2.3488],[-76.0554,23.7426,0.9144],[-76.0615,23.7446,4.8446],[-76.0638,23.749,0.0],[-76.0718,23.7515,0.9955],[-76.0779,23.7593,0.0],[-76.0801,23.7588,1.741],[-76.0876,23.7657,0.0],[-76.0926,23.7674,2.6896],[-76.0949,23.7701,3.5544],[-76.0946,23.7721,0.0],[-76.1012,23.7765,1.8895],[-76.0999,23.7787,0.0],[-76.1012,23.7804,2.5277],[-76.1032,23.7793,0.8652],[-76.1049,23.7807,0.0],[-76.1065,23.7787,4.807],[-76.1085,23.7801,1.2031],[-76.1082,23.7818,0.5914]]],
[[[-76.1207,23.7929,0.0],[-76.1218,23.7951,0.0],[-76.1254,23.794,0.0],[-76.1251,23.7921,0.6719],[-76.1226,23.7913,1.7047],[-76.1199,23.7913,0.0],[-76.1207,23.7929,0.0]]],
[[[-76.5537,24.3118,0.6622],[-76.5551,24.3115,0.6622],[-76.5543,24.3146,1.0306],[-76.5554,24.3146,0.0],[-76.5593,24.3126,1.992],[-76.5607,24.3093,10.0902],[-76.564,24.3096,0.0],[-76.5646,24.3043,0.0],[-76.5612,24.3026,12.729],[-76.5601,24.2999,0.0],[-76.5537,24.3001,0.0],[-76.5488,24.3021,0.0],[-76.549,24.3037,0.0],[-76.5468,24.3049,0.0],[-76.5482,24.3057,0.0],[-76.5521,24.3049,2.813],[-76.5501,24.3071,0.0],[-76.5532,24.3076,3.1327],[-76.5535,24.3096,2.5989],[-76.5512,24.3113,3.0945],[-76.5537,24.3118,0.6622]]],
[[[-76.5582,24.3174,0.0],[-76.559,24.3193,0.0],[-76.5612,24.319,0.0],[-76.5607,24.3174,3.0274],[-76.5587,24.3168,0.0],[-76.5582,24.3174,0.0]]],
[[[-76.5574,24.3421,0.8866],[-76.5596,24.3443,0.0],[-76.5574,24.3376,0.8458],[-76.5582,24.3321,3.9224],[-76.5571,24.3301,0.2666],[-76.5543,24.3301,0.0],[-76.5532,24.3263,0.0],[-76.5554,24.3237,1.1236],[-76.5571,24.3251,0.0],[-76.5563,24.321,1.2962],[-76.551,24.3154,0.0],[-76.5474,24.3149,0.5565],[-76.5468,24.3163,0.0],[-76.5501,24.3204,1.6406],[-76.5524,24.3293,0.1531],[-76.5565,24.3368,1.2283],[-76.5574,24.3421,0.8866]]],
[[[-76.1351,23.7976,0.0],[-76.1376,23.7971,0.0],[-76.1338,23.7938,0.0],[-76.1332,23.7954,0.0],[-76.1351,23.7976,0.0]]],
[[[-76.1263,23.7988,0.0],[-76.1271,23.7996,0.0],[-76.131,23.7996,0.3375],[-76.1304,23.7976,0.0],[-76.1263,23.7988,0.0]]],
[[[-76.5699,24.3526,1.269],[-76.5718,24.3538,0.0],[-76.5713,24.3515,0.0],[-76.5696,24.3515,0.0],[-76.5699,24.3526,1.269]]],
[[[-76.6024,24.3624,0.0],[-76.6054,24.3638,0.0],[-76.6068,24.3615,0.0],[-76.6038,24.3604,0.0],[-76.6012,24.3615,0.0],[-76.6024,24.3624,0.0]]],
[[[-76.6387,24.396,0.0],[-76.641,24.3968,1.7094],[-76.6421,24.3926,0.151],[-76.6374,24.391,0.0],[-76.6371,24.394,0.0],[-76.6387,24.396,0.0]]],
[[[-76.6338,24.369,0.2937],[-76.6321,24.371,0.0],[-76.6354,24.3699,0.2937],[-76.6368,24.3665,0.0],[-76.6343,24.3676,0.5597],[-76.6338,24.369,0.2937]]],
[[[-76.6018,24.3693,0.0],[-76.6043,24.371,0.0],[-76.6038,24.3688,0.3255],[-76.6068,24.3696,0.0],[-76.6074,24.3682,0.0],[-76.6018,24.3679,0.0],[-76.6018,24.3693,0.0]]],
[[[-76.6324,24.404,0.0],[-76.6349,24.4051,0.902],[-76.636,24.4021,0.0],[-76.6307,24.3968,4.14],[-76.6329,24.3946,0.0],[-76.6332,24.3915,0.2257],[-76.6285,24.3921,1.0885],[-76.6251,24.3899,2.2275],[-76.6254,24.3879,0.0],[-76.6215,24.384,1.3513],[-76.6218,24.3782,0.0],[-76.6143,24.3696,0.3535],[-76.6076,24.3696,0.0],[-76.6096,24.374,0.0],[-76.6157,24.3768,0.0],[-76.609,24.371,0.4409],[-76.6149,24.3726,1.2148],[-76.6185,24.381,0.0],[-76.6176,24.3876,0.0],[-76.6299,24.3979,0.6269],[-76.6324,24.404,0.0]]],
[[[-76.5882,24.3707,0.5045],[-76.5899,24.3726,0.1369],[-76.5912,24.3693,0.2112],[-76.5888,24.3638,0.0],[-76.5885,24.354,0.0],[-76.5851,24.3535,0.3333],[-76.5846,24.351,0.7948],[-76.5818,24.3504,1.9523],[-76.5776,24.3401,0.0],[-76.574,24.340699999999998,1.331],[-76.5657,24.3251,0.0],[-76.5621,24.324,2.4279],[-76.5621,24.3268,2.2109],[-76.5665,24.3296,0.7526],[-76.5668,24.3321,0.0],[-76.5699,24.3343,0.0],[-76.5718,24.3418,1.7184],[-76.5751,24.3424,0.0],[-76.5779,24.3468,3.3671],[-76.5776,24.3521,0.0],[-76.5799,24.3546,2.37],[-76.5804,24.359,3.181],[-76.5762,24.3596,0.433],[-76.5799,24.3638,0.0],[-76.581,24.3679,0.8879],[-76.5843,24.3662,3.7154],[-76.5882,24.3707,0.5045]]],
[[[-76.1379,23.789,0.0],[-76.1421,23.7899,0.0],[-76.1343,23.7799,3.0804],[-76.1299,23.7613,0.3601],[-76.1274,23.7621,0.672],[-76.126,23.7604,0.0],[-76.1224,23.7626,6.6795],[-76.1193,23.7599,0.8951],[-76.1268,23.778199999999998,0.0],[-76.1379,23.789,0.0]]],
[[[-76.1126,23.7885,0.0],[-76.1146,23.7899,0.7939],[-76.114,23.7868,0.0],[-76.1118,23.7874,0.0],[-76.1126,23.7885,0.0]]],
[[[-76.129,23.7907,0.0],[-76.1293,23.7935,0.0],[-76.1293,23.7907,0.0],[-76.1321,23.7874,0.0],[-76.1312,23.7857,2.7954],[-76.1218,23.7846,1.22],[-76.129,23.7882,0.0],[-76.129,23.7907,0.0]]],
[[[-76.6532,24.4149,0.0],[-76.6546,24.416,0.0],[-76.6554,24.4157,0.0],[-76.6524,24.4143,0.0],[-76.6532,24.4149,0.0]]],
[[[-76.6588,24.4154,0.0],[-76.6565,24.4151,0.0],[-76.656,24.4162,0.0],[-76.6588,24.4162,0.0],[-76.6588,24.4154,0.0]]],
[[[-76.6904,24.4263,0.0],[-76.6932,24.4271,0.0],[-76.6896,24.4232,0.0],[-76.686,24.4235,0.0],[-76.6893,24.4246,0.0],[-76.6904,24.4263,0.0]]],
[[[-76.6963,24.4279,0.0],[-76.6971,24.4287,0.0],[-76.6982,24.4285,0.0],[-76.6971,24.4263,0.5775],[-76.6963,24.4279,0.0]]],
[[[-76.7138,24.4332,0.4658],[-76.716,24.4343,0.0],[-76.7157,24.4332,0.4658],[-76.7124,24.431,2.1789],[-76.7093,24.431,0.0],[-76.7101,24.4321,0.0],[-76.7138,24.4332,0.4658]]],
[[[-76.7229,24.4282,0.3402],[-76.724,24.4299,0.5165],[-76.7262,24.429,0.0],[-76.724,24.4268,0.0],[-76.7229,24.4282,0.3402]]],
[[[-76.7299,24.4476,0.0],[-76.7315,24.4488,0.0],[-76.7318,24.4446,3.4814],[-76.7296,24.4396,2.1626],[-76.7318,24.4368,0.9742],[-76.7301,24.4338,3.0478],[-76.7262,24.4346,3.8009],[-76.7224,24.4307,0.0],[-76.7179,24.4296,0.0],[-76.7257,24.4368,0.5849],[-76.726,24.4418,0.0],[-76.7299,24.4476,0.0]]],
[[[-76.7554,24.4551,2.5026],[-76.7557,24.4582,4.7747],[-76.7601,24.4565,2.0567],[-76.7582,24.4535,0.0],[-76.7554,24.4551,2.5026]]],
[[[-76.7404,24.4599,0.0],[-76.7418,24.4618,0.0],[-76.7429,24.456,1.0299],[-76.7379,24.4551,0.0],[-76.7376,24.4565,0.7149],[-76.7404,24.4599,0.0]]],
[[[-76.7585,24.5032,0.0],[-76.7607,24.5049,0.8759],[-76.7604,24.5024,3.381],[-76.7571,24.5015,0.0],[-76.7585,24.5032,0.0]]],
[[[-76.7576,24.4613,0.0],[-76.7607,24.4638,0.0],[-76.7626,24.4601,0.0],[-76.7601,24.4601,0.0],[-76.7576,24.4613,0.0]]],
[[[-76.7654,24.5068,0.4986],[-76.7646,24.5082,0.0],[-76.7685,24.5038,0.5938],[-76.774,24.5035,0.0],[-76.7724,24.4996,1.3734],[-76.7732,24.4871,6.1827],[-76.7696,24.4846,1.4497],[-76.769,24.4821,3.6094],[-76.7737,24.4737,0.0],[-76.7726,24.4715,0.0],[-76.769,24.4701,2.3381],[-76.7674,24.4676,0.8122],[-76.7674,24.4624,0.0],[-76.7646,24.461,0.0],[-76.7651,24.4635,0.0],[-76.7601,24.4665,0.3765],[-76.7546,24.4643,0.0],[-76.7565,24.4679,0.0],[-76.7599,24.4682,1.5495],[-76.7621,24.4707,0.0],[-76.7646,24.4774,2.1525],[-76.7649,24.4851,0.0],[-76.7679,24.4885,3.007],[-76.7685,24.4976,0.0],[-76.7654,24.5068,0.4986]]],
[[[-76.7879,24.5676,4.4284],[-76.7896,24.5696,0.0],[-76.791,24.5668,0.0],[-76.7882,24.5674,4.4284],[-76.789,24.5626,0.0],[-76.7871,24.561,0.0],[-76.7854,24.5615,0.0],[-76.7862,24.5629,1.9229],[-76.7843,24.5668,0.0],[-76.7879,24.5676,4.4284]]],
[[[-76.8151,24.5846,0.0],[-76.8124,24.5843,0.0],[-76.8129,24.5871,0.0],[-76.8149,24.5868,0.0],[-76.8151,24.5846,0.0]]],
[[[-76.7946,24.614,0.6367],[-76.7937,24.6168,0.0],[-76.7954,24.6168,0.0],[-76.7968,24.6118,0.0],[-76.7951,24.6118,0.0],[-76.7946,24.614,0.6367]]],
[[[-76.8138,24.6513,0.0],[-76.8143,24.6529,0.0],[-76.8151,24.6504,0.0],[-76.814,24.6499,0.0],[-76.8138,24.6513,0.0]]],
[[[-76.8093,24.6557,0.4738],[-76.8101,24.6585,0.0],[-76.8124,24.6568,5.4751],[-76.8126,24.6521,0.0],[-76.8096,24.6485,0.0],[-76.8085,24.649,0.0],[-76.8093,24.6557,0.4738]]],
[[[-76.8196,24.6726,0.5467],[-76.8235,24.6732,0.0],[-76.8232,24.6721,0.0],[-76.8174,24.671,1.2557],[-76.8196,24.6726,0.5467]]],
[[[-76.8107,24.6626,0.0],[-76.8104,24.6674,1.9057],[-76.8124,24.6685,0.0],[-76.8121,24.6624,0.0],[-76.8107,24.6626,0.0]]],
[[[-76.8124,24.669,0.0],[-76.811,24.6688,0.0],[-76.8115,24.6726,0.0],[-76.8132,24.6726,0.0],[-76.8124,24.669,0.0]]],
[[[-76.8032,24.6021,0.0],[-76.8051,24.6032,5.0478],[-76.806,24.6021,5.0478],[-76.8057,24.5963,1.4122],[-76.8015,24.596,0.0],[-76.8029,24.5971,3.04],[-76.8032,24.6021,0.0]]],
[[[-76.797092058823523,24.603216764705888,0.0],[-76.7971,24.6032,0.0],[-76.7976,24.6004,0.0],[-76.797092058823523,24.603216764705888,0.0]]],
[[[-76.797092058823523,24.603216764705888,0.0],[-76.7962,24.6051,0.0],[-76.7965,24.6065,0.0],[-76.797092058823523,24.603216764705888,0.0]]],
[[[-76.7985,24.5882,1.0393],[-76.7982,24.591,0.0],[-76.7993,24.5913,0.0],[-76.7996,24.5876,1.0393],[-76.8051,24.5874,0.7446],[-76.8054,24.586,5.5946],[-76.801,24.5826,2.9936],[-76.799,24.5779,0.6443],[-76.7926,24.574,0.0],[-76.7965,24.5774,0.0],[-76.7985,24.5882,1.0393]]],
[[[-76.8112,24.6471,0.7452],[-76.8135,24.649,0.0],[-76.8154,24.6476,0.0],[-76.819,24.619,0.0],[-76.8176,24.6154,2.0935],[-76.8196,24.6079,1.3748],[-76.8179,24.6049,2.4045],[-76.8182,24.6004,2.8136],[-76.8226,24.5913,4.4697],[-76.8176,24.5882,0.0],[-76.8151,24.5893,4.482],[-76.816,24.5957,0.4],[-76.8174,24.5957,2.7732],[-76.816,24.6013,1.9199],[-76.8168,24.6076,3.6018],[-76.8093,24.6099,1.5127],[-76.8063,24.6074,0.0],[-76.8071,24.6154,5.2597],[-76.8049,24.6232,0.9931],[-76.7996,24.6254,0.8912],[-76.7982,24.6232,0.0],[-76.7982,24.629,0.0],[-76.7996,24.626,2.0783],[-76.8043,24.6282,3.9407],[-76.8035,24.6318,0.0],[-76.8057,24.6321,0.0],[-76.8071,24.6357,6.0887],[-76.8063,24.6399,5.76],[-76.8093,24.6463,0.791],[-76.8112,24.6471,0.7452]]],
[[[-76.8104,24.5146,0.7642],[-76.8168,24.5157,0.0],[-76.816,24.5135,0.0],[-76.8063,24.5129,1.006],[-76.8104,24.5146,0.7642]]],
[[[-76.7924,24.5149,2.2472],[-76.7924,24.5165,3.2948],[-76.7937,24.5171,0.0],[-76.7935,24.5135,0.0],[-76.7924,24.5149,2.2472]]],
[[[-76.7854,24.5593,0.0],[-76.7874,24.5604,3.6592],[-76.7882,24.5582,3.826],[-76.7904,24.5576,0.0],[-76.7871,24.5518,3.2414],[-76.7885,24.551,0.0],[-76.7893,24.546,0.9719],[-76.7937,24.5421,0.7426],[-76.7957,24.5379,2.0207],[-76.7993,24.5371,0.0],[-76.8007,24.5393,0.0],[-76.8021,24.5385,0.0],[-76.8007,24.5362,0.0],[-76.7971,24.5357,3.7523],[-76.7954,24.5321,2.1269],[-76.7924,24.5324,0.9142],[-76.7929,24.5299,2.8831],[-76.7949,24.5296,0.0],[-76.7937,24.5276,0.0],[-76.7913,24.528199999999998,0.9555],[-76.7949,24.5243,0.6109],[-76.7838,24.5187,0.0],[-76.7782,24.519,0.8183],[-76.7776,24.5157,0.83],[-76.774,24.5138,0.9881],[-76.7757,24.5121,0.0],[-76.7743,24.511,1.6587],[-76.7704,24.5149,0.0],[-76.7663,24.5157,1.255],[-76.7726,24.528199999999998,1.4221],[-76.7757,24.5246,0.1256],[-76.7793,24.526,0.0],[-76.7776,24.5285,0.1564],[-76.7732,24.5287,1.4221],[-76.7737,24.5371,5.0128],[-76.7724,24.5385,0.0],[-76.7726,24.5438,4.0185],[-76.7707,24.5454,0.0],[-76.7787,24.546,1.422],[-76.7826,24.5521,3.3836],[-76.7829,24.5593,0.0],[-76.7854,24.5593,0.0]]],
[[[-76.6649,24.4085,1.4143],[-76.6671,24.4101,0.5328],[-76.666,24.4068,3.0966],[-76.6637,24.4054,0.0],[-76.654,24.4037,0.0],[-76.6546,24.4049,0.7843],[-76.6649,24.4085,1.4143]]],
[[[-76.6457,24.4088,0.0],[-76.6501,24.4096,0.0],[-76.6401,24.4054,0.0],[-76.6401,24.4071,0.0],[-76.6457,24.4088,0.0]]],
[[[-76.8249,24.6957,1.2236],[-76.8262,24.6982,0.7396],[-76.8254,24.6904,0.0],[-76.8235,24.6887,0.0],[-76.8232,24.6901,0.8318],[-76.8249,24.6957,1.2236]]],
[[[-76.8393,24.7432,1.1229],[-76.8407,24.7449,0.0],[-76.8407,24.7412,0.0],[-76.8385,24.7443,0.0],[-76.8393,24.7432,1.1229]]],
[[[-76.8251,24.704,0.6451],[-76.8246,24.7054,0.0],[-76.8265,24.7032,1.7946],[-76.826,24.699,0.0],[-76.8249,24.7007,0.3813],[-76.8251,24.704,0.6451]]],
[[[-76.8146,24.7296,13.0864],[-76.8096,24.7401,0.0],[-76.8182,24.7346,3.6465],[-76.8179,24.7299,5.2785],[-76.8207,24.7282,0.0],[-76.8229,24.7199,1.3125],[-76.8262,24.7201,3.5017],[-76.8276,24.7243,1.0049],[-76.831,24.7218,0.9383],[-76.8257,24.711,0.9638],[-76.8257,24.7082,0.0],[-76.8246,24.7096,0.0],[-76.8215,24.7085,2.8522],[-76.819,24.704,0.7181],[-76.8163,24.7046,0.0],[-76.8199,24.7126,2.1401],[-76.8146,24.7296,13.0864]]],
[[[-76.8282,24.7493,0.0],[-76.8268,24.7493,0.0],[-76.8265,24.7512,0.0],[-76.8288,24.7507,0.0],[-76.8282,24.7493,0.0]]],
[[[-76.8385,24.7515,0.0],[-76.8388,24.7549,0.0],[-76.8407,24.7471,2.438],[-76.8349,24.746,0.0],[-76.836,24.7482,3.0873],[-76.8337,24.7515,0.0],[-76.8385,24.7471,0.0],[-76.8385,24.7515,0.0]]],
[[[-76.8349,24.7526,0.0],[-76.8337,24.7526,0.0],[-76.8321,24.7521,0.0],[-76.8332,24.7535,0.0],[-76.8349,24.7526,0.0]]],
[[[-76.8304,24.7763,0.0],[-76.8324,24.7796,0.0],[-76.8321,24.776,0.0],[-76.8307,24.7749,0.0],[-76.8304,24.7763,0.0]]],
[[[-76.8315,24.7965,2.9515],[-76.8324,24.7985,1.2812],[-76.8318,24.7943,0.6915],[-76.831,24.7949,0.6915],[-76.8315,24.7965,2.9515]]],
[[[-76.8282,24.7576,0.5548],[-76.8276,24.759,0.4377],[-76.8293,24.7596,0.3576],[-76.8296,24.7576,1.7533],[-76.8279,24.7549,0.3021],[-76.8282,24.7557,0.6162],[-76.8282,24.7576,0.5548]]],
[[[-76.8329,24.7671,0.0],[-76.8335,24.7751,0.0],[-76.8343,24.7607,0.0],[-76.8332,24.759,0.0],[-76.8329,24.7671,0.0]]],
[[[-76.8099,24.8479,0.0],[-76.8093,24.8501,0.6183],[-76.8107,24.8501,0.0],[-76.8112,24.8479,0.0],[-76.8099,24.8479,0.0]]],
[[[-76.8079,24.851,0.6592],[-76.8074,24.8524,0.0],[-76.8087,24.8526,0.0],[-76.8101,24.8504,0.6183],[-76.8085,24.8504,0.6183],[-76.8079,24.851,0.6592]]],
[[[-76.8065,24.8526,0.0],[-76.8051,24.8529,0.0],[-76.8054,24.856,0.0],[-76.8076,24.8551,0.0],[-76.8065,24.8526,0.0]]],
[[[-76.8324,24.8593,0.8767],[-76.8315,24.8585,0.0],[-76.831,24.8615,1.0806],[-76.8318,24.8615,1.0806],[-76.8324,24.8593,0.8767]]],
[[[-76.8251,24.876,0.0],[-76.8249,24.8779,0.0],[-76.8271,24.8749,0.0],[-76.826,24.8746,0.0],[-76.8251,24.876,0.0]]],
[[[-76.8018,24.9046,0.0],[-76.8012,24.9063,0.0],[-76.8029,24.9063,0.0],[-76.8032,24.904,0.2554],[-76.8018,24.9046,0.0]]],
[[[-76.769,24.9493,0.0],[-76.7676,24.9482,0.0],[-76.7643,24.9512,0.0],[-76.7688,24.9499,0.0],[-76.769,24.9493,0.0]]],
[[[-76.766,24.9457,0.0],[-76.7704,24.9468,0.0],[-76.7729,24.944,0.0],[-76.7688,24.9446,0.265],[-76.7763,24.9387,0.4454],[-76.7799,24.9324,0.0],[-76.7782,24.9318,0.0],[-76.7774,24.9349,0.0],[-76.766,24.9457,0.0]]],
[[[-76.7729,24.9451,0.0],[-76.7726,24.9474,0.0],[-76.7771,24.9429,0.0],[-76.7749,24.9449,0.0],[-76.7729,24.9451,0.0]]],
[[[-76.7504,24.959,0.0],[-76.7496,24.9599,0.0],[-76.751,24.9601,0.0],[-76.7554,24.9582,0.0],[-76.7576,24.9551,0.0],[-76.7626,24.9529,0.0],[-76.7557,24.9549,0.0],[-76.7504,24.959,0.0]]],
[[[-76.7426,25.1279,0.9437],[-76.7421,25.1293,0.0],[-76.744,25.1293,0.8495],[-76.7468,25.1249,0.0],[-76.7446,25.1254,0.0],[-76.7426,25.1279,0.9437]]],
[[[-76.8004,24.911,0.4316],[-76.8015,24.9129,0.0],[-76.8024,24.9085,0.0],[-76.801,24.9068,0.0],[-76.7999,24.9074,0.0],[-76.8004,24.911,0.4316]]],
[[[-76.8021,24.9146,0.0],[-76.8015,24.9171,0.0],[-76.804,24.9149,0.0],[-76.8049,24.9112,0.0],[-76.804,24.9115,0.0],[-76.8021,24.9146,0.0]]],
[[[-76.8257,24.8032,0.6942],[-76.8251,24.8051,0.0],[-76.8276,24.8037,0.0],[-76.8313,24.7924,2.0181],[-76.831,24.7829,0.0],[-76.8288,24.796,0.0],[-76.8257,24.8032,0.6942]]],
[[[-76.8196,24.8215,4.1761],[-76.8204,24.8257,0.6393],[-76.8146,24.8385,2.8733],[-76.8129,24.8393,1.0035],[-76.8107,24.8474,0.0],[-76.8126,24.846,0.7696],[-76.8196,24.8296,3.0731],[-76.8265,24.8187,2.9373],[-76.8276,24.814,0.0],[-76.8265,24.8107,4.5998],[-76.8299,24.8035,0.4803],[-76.8313,24.8037,0.9297],[-76.8326,24.8015,1.8148],[-76.8307,24.7996,0.0],[-76.8296,24.8032,0.4803],[-76.824,24.8079,5.2041],[-76.8213,24.8154,1.3455],[-76.8154,24.8226,0.4552],[-76.8196,24.8215,4.1761]]],
[[[-76.8051,24.6851,0.0],[-76.8046,24.6885,0.8668],[-76.8068,24.6849,0.0],[-76.8096,24.6713,1.8377],[-76.8079,24.6621,0.0],[-76.8076,24.674,1.3048],[-76.8051,24.6851,0.0]]],
[[[-76.8238,24.6768,0.0],[-76.8229,24.6782,0.0],[-76.8246,24.6785,0.0],[-76.8251,24.676,0.0],[-76.8238,24.6768,0.0]]],
[[[-76.8199,24.6824,0.0],[-76.8226,24.6829,0.0],[-76.8213,24.6813,0.0],[-76.8196,24.6813,0.0],[-76.8199,24.6824,0.0]]],
[[[-76.1562,23.7126,0.0],[-76.1574,23.7143,0.0],[-76.1596,23.7132,0.0],[-76.1596,23.7071,0.0],[-76.1576,23.704,6.3997],[-76.1526,23.7021,2.6951],[-76.1515,23.7029,1.8938],[-76.1496,23.6999,0.0],[-76.1429,23.6965,0.0],[-76.1376,23.6979,0.0],[-76.1399,23.7029,1.0189],[-76.1504,23.7057,1.6213],[-76.1562,23.7126,0.0]]],
[[[-76.066,23.7207,1.9061],[-76.0674,23.7218,1.9061],[-76.0732,23.7213,0.0],[-76.0676,23.7199,3.0627],[-76.0638,23.7135,0.0],[-76.0646,23.7082,0.2491],[-76.0718,23.7018,0.0],[-76.0651,23.6893,1.6755],[-76.0687,23.6824,0.1091],[-76.0685,23.676,1.3793],[-76.0663,23.6712,0.0],[-76.0632,23.6724,1.2404],[-76.0612,23.6699,0.0],[-76.0574,23.6696,0.0],[-76.059,23.6671,0.397],[-76.0576,23.6643,0.1062],[-76.0593,23.6629,0.2223],[-76.056,23.6615,0.0],[-76.0554,23.6596,0.0],[-76.0579,23.6551,0.0],[-76.0535,23.654,0.5539],[-76.0521,23.6521,0.0],[-76.0468,23.6521,1.3858],[-76.0449,23.6496,0.6128],[-76.0457,23.6446,0.0],[-76.0437,23.6443,0.5043],[-76.0365,23.651,0.3057],[-76.0354,23.6582,0.4617],[-76.0396,23.6568,0.9354],[-76.0404,23.6546,0.912],[-76.0387,23.6521,0.8762],[-76.0404,23.6518,0.8837],[-76.0418,23.6549,0.7052],[-76.0399,23.6596,0.4833],[-76.0449,23.6604,0.9444],[-76.0462,23.6588,0.4837],[-76.0471,23.6626,0.3494],[-76.0501,23.6657,0.0],[-76.051,23.6707,0.0],[-76.0488,23.6743,0.855],[-76.0379,23.6793,1.2469],[-76.0401,23.6896,0.0],[-76.0379,23.6915,0.0],[-76.034,23.6904,0.0],[-76.0326,23.6929,0.0],[-76.034,23.6949,0.0],[-76.0251,23.699,0.0],[-76.034,23.7024,0.0],[-76.034,23.6993,2.7394],[-76.0324,23.6979,1.791],[-76.0354,23.6957,0.0],[-76.0385,23.6971,0.0],[-76.0387,23.6988,0.0],[-76.0468,23.7001,6.6302],[-76.0579,23.7101,11.7375],[-76.0604,23.7154,0.0],[-76.066,23.7207,1.9061]]],
[[[-76.0085,23.7138,0.0],[-76.0068,23.7151,0.0],[-76.0104,23.7154,0.0],[-76.0104,23.7143,0.0],[-76.0085,23.7138,0.0]]],
[[[-76.021,23.7213,0.7497],[-76.0207,23.7232,0.0],[-76.0224,23.7237,0.0],[-76.0212,23.7213,0.7497],[-76.0235,23.7199,0.8212],[-76.0232,23.7185,0.0],[-76.0104,23.715699999999998,0.4438],[-76.0118,23.7176,0.0],[-76.014,23.7174,0.0],[-76.0135,23.7188,0.0],[-76.016,23.7207,0.0],[-76.021,23.7213,0.7497]]],
[[[-76.1738,23.7293,0.0],[-76.1749,23.7318,0.0],[-76.1765,23.7315,0.0],[-76.1762,23.7279,0.6246],[-76.179,23.7232,0.0],[-76.1787,23.7174,0.0],[-76.1765,23.7174,0.0],[-76.1774,23.721,1.1809],[-76.1757,23.721,1.2242],[-76.1754,23.7154,0.0],[-76.1632,23.7088,0.7168],[-76.1612,23.715699999999998,0.0],[-76.1585,23.7176,0.0],[-76.1671,23.7229,0.0],[-76.1699,23.7232,0.0],[-76.1687,23.7213,0.0],[-76.1699,23.7213,0.0],[-76.1726,23.724,0.0],[-76.1751,23.7235,2.1691],[-76.1757,23.7257,0.6285],[-76.1738,23.7293,0.0]]]]}}