{"type": "Feature","bbox": [-81.3348,22.3772,-80.9648,22.7189],"geometry": {"type": "MultiPolygon","coordinates": [[[[-81.005,22.6212,27.3106],[-81.0051,22.6293,27.9076],[-81.0125,22.633,26.8962],[-81.0386,22.6623,24.819],[-81.0472,22.6787,27.9607],[-81.0595,22.7183,28.4217],[-81.098,22.7189,38.5524],[-81.1109,22.7159,35.1455],[-81.1174,22.7096,33.458],[-81.1565,22.6512,22.4325],[-81.1644,22.6461,22.3192],[-81.1829,22.6441,22.9965],[-81.2115,22.6307,6.7461],[-81.2255,22.6169,9.8917],[-81.2371,22.5983,6.3324],[-81.2487,22.5896,5.3841],[-81.2617,22.5877,2.9399],[-81.3341,22.5878,7.8822],[-81.3348,22.5436,1.896],[-81.3305,22.5317,2.0087],[-81.3165,22.5236,2.5931],[-81.2951,22.516,2.0454],[-81.2624,22.5302,2.0343],[-81.2464,22.5287,2.7555],[-81.2398,22.5223,2.1909],[-81.2237,22.4913,4.0004],[-81.2103,22.4504,5.6639],[-81.2009,22.4356,2.4973],[-81.0781,22.3772,4.9434],[-81.0471,22.3867,3.1453],[-81.0283,22.3956,8.2165],[-80.9996,22.4362,8.0905],[-80.9709,22.4537,10.2043],[-80.9713,22.4602,10.8662],[-80.9848,22.4834,12.8305],[-80.9862,22.493,14.0208],[-80.9843,22.5003,14.8288],[-80.9655,22.5351,27.0432],[-80.9648,22.5415,27.9355],[-81.003,22.5812,32.1956],[-81.005,22.6212,27.3106]]]]}
,"properties": {"GID_2": "CUB.11.5_1","GID_0": "CUB","country": "Cuba","GID_1": "CUB.11_1","province": "Matanzas","NL_NAME_1": "NA","county": "JagüeyGrande","VARNAME_2": "NA","NL_NAME_2": "NA","TYPE_2": "Municipio","ENGTYPE_2": "Municipality","CC_2": "NA","HASC_2": "CU.MA.JG","name": "Jagüey_Grande.county","area_km2": 790.9349,"hist_schema_id": "Elevation0-9000","hist_area_km2": {"0": 404.3012,"25": 378.044,"50": 8.5896}}}