{"type":"Feature","properties":{"GID_2":"CUB.3.1_1","GID_0":"CUB","country":"Cuba","GID_1":"CUB.3_1","province":"Cienfuegos","NL_NAME_1":"NA","county":"Abreus","VARNAME_2":"NA","NL_NAME_2":"NA","TYPE_2":"Municipio","ENGTYPE_2":"Municipality","CC_2":"NA","HASC_2":"CU.CF.AB","name":"Abreus.county"},
"geometry":{"type": "MultiPolygon","coordinates": [[[[-80.8477,22.1443,3.195],[-80.8143,22.1154,1.7925],[-80.8099,22.1131,1.6884],[-80.8,22.1121,6.7997],[-80.7856,22.1232,1.6806],[-80.7797,22.1242,1.7518],[-80.7762,22.1225,1.7657],[-80.7754,22.1101,2.0539],[-80.7718,22.1028,2.3618],[-80.7558,22.0965,6.553],[-80.7476,22.0914,5.6199],[-80.7425,22.0847,3.7725],[-80.7369,22.0836,2.201],[-80.7273,22.089,1.5968],[-80.6918,22.1031,1.7542],[-80.632,22.0996,1.7499],[-80.6195,22.0968,2.8297],[-80.6029,22.09,2.7192],[-80.5975,22.0836,12.2435],[-80.5926,22.0713,12.9217],[-80.5911,22.0479,0.0],[-80.5796,22.0546,0.8115],[-80.5643,22.059,3.8748],[-80.5741,22.0654,10.1698],[-80.5819,22.0797,12.5029],[-80.5923,22.1129,10.0897],[-80.592,22.1351,22.0734],[-80.5849,22.1551,31.1467],[-80.5826,22.1814,20.636],[-80.5853,22.2028,32.0526],[-80.5922,22.2201,23.7064],[-80.5953,22.2554,30.0408],[-80.6224,22.3058,42.6929],[-80.6368,22.3256,51.9455],[-80.6556,22.3147,45.7622],[-80.6819,22.3103,41.8115],[-80.7594,22.2736,28.1833],[-80.803,22.2612,13.6561],[-80.8842,22.1868,2.2715],[-80.8783,22.1731,2.2696],[-80.8713,22.165,3.3379],[-80.8593,22.153,6.6854],[-80.8477,22.1443,3.195]]]]}}