{"type": "Feature","bbox": [-67.2154,17.9151,-67.0974,18.1688],"geometry": {"type": "MultiPolygon","coordinates": [[[[-67.0974,17.9229,0.0],[-67.1071,17.9176,0.0],[-67.1207,17.9176,0.0],[-67.1232,17.9196,0.0],[-67.1243,17.9179,0.0],[-67.1246,17.9201,0.0],[-67.1265,17.9188,0.0],[-67.1235,17.916,0.0],[-67.121,17.9171,0.0],[-67.1146,17.9163,0.0],[-67.1151,17.9151,0.0],[-67.1104,17.9154,0.0],[-67.099,17.9193,0.0],[-67.0974,17.9229,0.0]]],
[[[-67.1773,18.1649,2.2019],[-67.1815,18.1688,0.0],[-67.1857,18.1657,2.5227],[-67.1826,18.1604,0.0],[-67.1785,18.1588,3.3699],[-67.1768,18.151,2.4675],[-67.1796,18.141,5.5819],[-67.1868,18.1351,0.0],[-67.1868,18.1321,0.0],[-67.1829,18.1265,1.7],[-67.1849,18.1193,0.6424],[-67.1818,18.1126,3.237],[-67.1824,18.1085,1.8981],[-67.1849,18.1026,2.9572],[-67.189,18.1015,0.4656],[-67.1951,18.0971,0.0],[-67.196,18.0937,4.0461],[-67.1993,18.0912,2.0264],[-67.1968,18.0874,0.0],[-67.1999,18.0871,0.0],[-67.199,18.0838,0.0],[-67.2021,18.0815,1.9772],[-67.1979,18.0765,1.1538],[-67.1999,18.076,0.9555],[-67.1996,18.0743,0.948],[-67.1963,18.0735,2.4331],[-67.1974,18.0707,0.0],[-67.196,18.0704,0.0],[-67.1918,18.0765,0.4814],[-67.1893,18.0735,0.0],[-67.186,18.0732,5.1782],[-67.1849,18.0682,3.465],[-67.1904,18.0649,3.527],[-67.1968,18.0665,0.0],[-67.1979,18.0624,0.9864],[-67.2018,18.0574,2.0046],[-67.199,18.0499,0.0],[-67.1996,18.0468,7.3131],[-67.2074,18.0399,0.0],[-67.2099,18.0351,0.0],[-67.2038,18.036,0.8447],[-67.2012,18.0329,0.0],[-67.1885,18.0296,0.0],[-67.1862,18.0304,4.3461],[-67.1843,18.0271,1.2068],[-67.1801,18.0293,2.2962],[-67.1801,18.026,0.7656],[-67.1768,18.0271,3.7598],[-67.1724,18.0226,0.0],[-67.1724,18.0174,0.0],[-67.1735,18.0124,4.9068],[-67.1768,18.0088,2.1823],[-67.1821,18.0088,0.0],[-67.2076,17.9985,1.1639],[-67.2135,17.9929,0.0],[-67.2129,17.9901,26.908],[-67.2154,17.986,0.0],[-67.2124,17.9713,0.0],[-67.2146,17.9632,1.7433],[-67.2121,17.9565,0.0],[-67.2124,17.954,0.4157],[-67.2151,17.9515,0.0],[-67.2051,17.9543,2.1426],[-67.1954,17.9507,0.6028],[-67.1932,17.9401,1.6547],[-67.1971,17.9376,0.0],[-67.1963,17.9332,0.0],[-67.1921,17.9321,5.7099],[-67.1899,17.9335,0.0],[-67.1899,17.9357,0.0],[-67.1882,17.9357,0.4367],[-67.1879,17.9313,0.0],[-67.1865,17.9307,0.0],[-67.1829,17.9318,0.0],[-67.1829,17.9374,0.0],[-67.1899,17.9438,0.0],[-67.1899,17.9485,0.0],[-67.1921,17.9524,0.0],[-67.1901,17.9565,0.0],[-67.184,17.9626,1.233],[-67.1796,17.9646,0.5544],[-67.1693,17.964,3.2887],[-67.1626,17.961,0.0],[-67.159,17.9568,2.5836],[-67.159,17.9535,0.0],[-67.151,17.9551,1.8741],[-67.1479,17.9535,0.0],[-67.1435,17.954,7.0704],[-67.1363,17.9526,4.0067],[-67.1351,17.9504,0.0],[-67.131,17.9485,0.0],[-67.1271,17.9507,3.26],[-67.1288,17.9471,0.0],[-67.1254,17.946,1.0099],[-67.1204,17.9474,2.2596],[-67.1171,17.9465,0.0],[-67.1162,17.9476,2.2415],[-67.1179,17.9496,1.1848],[-67.1157,17.9501,1.696],[-67.1149,17.9468,0.0],[-67.1129,17.9476,2.1405],[-67.1121,17.9457,2.9081],[-67.1099,17.9454,0.0],[-67.1066,17.9567,7.102],[-67.1071,17.9639,16.6591],[-67.1022,17.9749,26.659],[-67.1101,17.9791,49.1057],[-67.1105,18.0125,15.974],[-67.1158,18.032,27.2197],[-67.1108,18.0397,37.2706],[-67.1136,18.043,45.4307],[-67.1141,18.0464,59.9324],[-67.1069,18.0622,129.4394],[-67.0991,18.0676,215.9557],[-67.0986,18.0695,235.3768],[-67.0987,18.0714,232.1667],[-67.1019,18.0747,102.8607],[-67.1061,18.0746,92.0154],[-67.1049,18.0899,24.3234],[-67.1004,18.1062,21.7707],[-67.1264,18.1154,13.2962],[-67.1283,18.1202,13.826],[-67.1334,18.1215,10.5503],[-67.1348,18.1234,10.8116],[-67.1433,18.14,9.2313],[-67.1517,18.1433,15.433],[-67.1545,18.1499,8.9055],[-67.1671,18.1555,3.9808],[-67.1773,18.1649,2.2019]]]]}
,"properties": {"GID_1": "PRI.12_1","GID_0": "PRI","country": "PuertoRico","province": "CaboRojo","VARNAME_1": "NA","NL_NAME_1": "NA","TYPE_1": "Municipio","ENGTYPE_1": "Municipality","CC_1": "NA","HASC_1": "PR.CR","ISO_1": "-","name": "Cabo_Rojo.province","area_km2": 191.0545,"hist_schema_id": "Elevation0-9000","hist_area_km2": {"0": 59.9584,"25": 71.0009,"50": 28.566,"75": 12.3574,"100": 6.4105,"125": 3.7498,"150": 3.9111,"175": 2.8023,"200": 1.2097,"225": 0.6451,"250": 0.2822,"275": 0.1411,"300": 0.0202}}}