{"type": "Feature","id": "50","bbox": [-60.70424,11.20417,-60.52208,11.35106],"geometry": {"type": "Polygon","coordinates": [[[-60.64712,11.20417,119.3467],[-60.63606,11.21076,72.5609],[-60.62877,11.21654,48.9812],[-60.60558,11.23066,49.7838],[-60.60204,11.23143,44.6201],[-60.58707,11.25113,10.6286],[-60.58511,11.25552,38.607],[-60.57527,11.25576,71.2951],[-60.5653,11.25243,10.2962],[-60.55651,11.2541,56.8346],[-60.55036,11.26911,70.5246],[-60.54418,11.26911,19.13],[-60.53303,11.26651,99.6839],[-60.52554,11.28815,100.5749],[-60.52208,11.31883,60.1716],[-60.52306,11.34365,0.0],[-60.53051,11.35106,0.0],[-60.54133,11.34341,0.0],[-60.56037,11.32119,0.0],[-60.56774,11.3203,0.0],[-60.58365,11.32954,0.0],[-60.59581,11.3273,0.0],[-60.60757,11.32071,67.405],[-60.63581,11.31485,0.0],[-60.65471,11.30798,0.0],[-60.647,11.29193,108.2503],[-60.66662,11.26818,327.7139],[-60.69441,11.25026,307.8061],[-60.70424,11.24075,249.046],[-60.67902,11.231,263.826],[-60.66456,11.2186,305.0429],[-60.64712,11.20417,119.3467]]]}
,"properties": {"ISO3166-1-Alpha-3": "TTO","country": "Trinidad and Tobago","fill": "#F0F","name": "Eastern Tobago","area_km2": 151.5178,"hist_schema_id": "Elevation0-9000","hist_area_km2": {"0": 10.3538,"25": 6.1757,"50": 6.1548,"75": 7.6519,"100": 8.2757,"125": 8.2757,"150": 8.4212,"175": 7.8597,"200": 9.2114,"225": 9.4609,"250": 8.1511,"275": 9.4195,"300": 8.4421,"325": 7.735,"350": 6.4457,"375": 6.2377,"400": 5.011,"425": 4.2001,"450": 3.8258,"475": 3.9921,"500": 2.911,"525": 2.2872,"550": 0.9357,"575": 0.0832}}}