{"type": "Feature","bbox": [-73.4435,19.6226,-73.27,19.7722],"geometry": {"type": "MultiPolygon","coordinates": [[[[-73.2709,19.7274,152.4703],[-73.27,19.7295,149.8172],[-73.2823,19.7388,172.4747],[-73.2813,19.7446,230.4961],[-73.2865,19.7481,180.6102],[-73.3003,19.765,230.6091],[-73.3087,19.7722,249.5766],[-73.3164,19.7685,252.3253],[-73.3194,19.761,268.304],[-73.3348,19.756,289.8594],[-73.3475,19.7494,292.0537],[-73.352,19.7493,292.5474],[-73.3587,19.7518,277.6774],[-73.3766,19.7454,240.2628],[-73.3791,19.7375,211.7017],[-73.3777,19.7283,274.6115],[-73.3872,19.7317,348.0567],[-73.3954,19.7398,326.4909],[-73.4006,19.7383,318.3117],[-73.4025,19.7327,345.2308],[-73.4077,19.7267,359.0252],[-73.4119,19.6988,511.3462],[-73.4158,19.6944,555.6432],[-73.4246,19.6929,409.699],[-73.4366,19.6793,141.4648],[-73.443,19.6775,12.9501],[-73.4435,19.676,6.3014],[-73.4388,19.6704,0.0],[-73.4382,19.6676,0.0],[-73.4357,19.6671,38.0458],[-73.4315,19.6615,0.0],[-73.4215,19.6546,0.0],[-73.4168,19.6485,0.0],[-73.411,19.6482,13.8391],[-73.3987,19.6385,0.0],[-73.3921,19.6363,3.1837],[-73.3913,19.634,2.3142],[-73.3826,19.6326,1.0875],[-73.377,19.63,0.0],[-73.374,19.6315,0.0],[-73.3699,19.6257,0.0],[-73.3646,19.6226,0.0],[-73.3566,19.626,1.8007],[-73.3499,19.624,3.0147],[-73.3407,19.624,0.0],[-73.334,19.6269,0.0],[-73.3212,19.6242,4.0622],[-73.316,19.6261,2.7574],[-73.3115,19.6257,1.7182],[-73.3046,19.629,4.384],[-73.2956,19.6289,18.058],[-73.2916,19.6559,470.0287],[-73.2934,19.6696,467.7308],[-73.2865,19.6761,448.3815],[-73.2846,19.6807,454.0473],[-73.2792,19.7064,357.9152],[-73.2718,19.7193,199.4312],[-73.2709,19.7274,152.4703]]]]}
,"properties": {"GID_3": "HTI.6.1.2_1","GID_0": "HTI","country": "Haiti","GID_1": "HTI.6_1","province": "Nord-Ouest","NL_NAME_1": "NA","GID_2": "HTI.6.1_1","county": "MôleSaint-Nicolas","NL_NAME_2": "NA","city": "Bombardopolis","VARNAME_3": "NA","NL_NAME_3": "NA","TYPE_3": "Commune","ENGTYPE_3": "Commune","CC_3": "NA","HASC_3": "NA","name": "Bombardopolis.city","area_km2": 188.5248,"hist_schema_id": "Elevation0-9000","hist_area_km2": {"0": 5.0521,"25": 8.1672,"50": 5.8905,"75": 5.0518,"100": 3.7139,"125": 3.1948,"150": 2.4159,"175": 2.9747,"200": 3.6531,"225": 4.2317,"250": 5.1093,"275": 4.7904,"300": 5.3889,"325": 6.2271,"350": 12.0943,"375": 10.7777,"400": 9.8601,"425": 10.1198,"450": 16.4485,"475": 21.5399,"500": 18.0857,"525": 6.648,"550": 5.3905,"575": 4.0329,"600": 2.9148,"625": 2.6552,"650": 1.1179,"675": 0.5789,"700": 0.3194,"725": 0.0798}}}