{"type": "Feature","bbox": [-66.3191,18.3166,-66.1969,18.4014],"geometry": {"type": "MultiPolygon","coordinates": [[[[-66.1969,18.3891,83.0479],[-66.234,18.4014,59.8339],[-66.2441,18.3947,12.8094],[-66.2525,18.3942,10.3509],[-66.258,18.3875,34.7013],[-66.264,18.388,36.2057],[-66.2705,18.3856,46.2291],[-66.2714,18.3837,66.7987],[-66.2862,18.3831,81.6966],[-66.2886,18.3855,66.5365],[-66.3085,18.3831,98.3372],[-66.3145,18.3802,120.3903],[-66.3191,18.3716,184.1339],[-66.3186,18.3673,150.6548],[-66.3126,18.3645,137.3305],[-66.3079,18.365,153.3486],[-66.3042,18.3674,132.7565],[-66.2899,18.355,171.1958],[-66.2782,18.3298,146.9532],[-66.2629,18.3298,230.7438],[-66.2588,18.3322,201.3397],[-66.2486,18.3261,87.5732],[-66.2463,18.3313,68.5555],[-66.2384,18.3328,52.0],[-66.2328,18.3237,60.1407],[-66.2213,18.3328,98.2579],[-66.2171,18.3338,61.4361],[-66.2139,18.3247,90.5326],[-66.2074,18.3238,66.5983],[-66.2055,18.3166,67.0877],[-66.2014,18.329,135.9507],[-66.2037,18.3367,114.2686],[-66.1996,18.34,112.7985],[-66.2005,18.3467,116.8248],[-66.1973,18.3619,88.9888],[-66.1996,18.3696,47.3978],[-66.1969,18.3891,83.0479]]]]}
,"properties": {"GID_1": "PRI.69_1","GID_0": "PRI","country": "PuertoRico","province": "ToaAlta","VARNAME_1": "NA","NL_NAME_1": "NA","TYPE_1": "Municipio","ENGTYPE_1": "Municipality","CC_1": "NA","HASC_1": "PR.TA","ISO_1": "-","name": "Toa_Alta.province","area_km2": 71.77748,"hist_schema_id": "Elevation0-9000","hist_area_km2": {"0": 1.18715,"25": 9.98007,"50": 14.24644,"75": 10.84601,"100": 11.75208,"125": 10.2629,"150": 7.72737,"175": 4.5076599999999996,"200": 1.06655,"225": 0.20125}}}