{"type": "Feature","bbox": [-65.5776,17.9999,-64.9999,18.1626],"geometry": {"type": "MultiPolygon","coordinates": [[[[-65.0001,18.0001,0.0],[-65.0001,17.9999,0.0],[-64.9999,17.9999,0.0],[-64.9999,18.0001,0.0],[-65.0001,18.0001,0.0]]],
[[[-65.4715,18.0899,0.0],[-65.474,18.0899,6.1777],[-65.4737,18.0868,0.0],[-65.4713,18.0868,0.0],[-65.4715,18.0899,0.0]]],
[[[-65.3835,18.1099,0.0],[-65.3854,18.109,0.0],[-65.3843,18.1049,0.0],[-65.3821,18.1054,0.0],[-65.3835,18.1099,0.0]]],
[[[-65.3921,18.1626,0.0],[-65.4396,18.1582,0.0],[-65.444,18.1554,0.0],[-65.4435,18.1513,0.0],[-65.4454,18.1474,7.9506],[-65.4713,18.144,0.0],[-65.484,18.1399,4.2908],[-65.4876,18.1368,5.0963],[-65.4965,18.1351,10.288],[-65.5029,18.1365,3.3873],[-65.506,18.1335,4.137],[-65.5115,18.134,0.0],[-65.514,18.1513,0.0],[-65.514,18.1485,0.0],[-65.5157,18.1485,0.0],[-65.514,18.1479,0.0],[-65.5124,18.1324,0.0],[-65.5151,18.1299,5.8743],[-65.5246,18.1279,0.4661],[-65.5482,18.1193,2.5166],[-65.5596,18.121,0.0],[-65.5626,18.1196,2.6236],[-65.5685,18.1207,0.0],[-65.5713,18.1185,3.6454],[-65.5771,18.1196,2.6817],[-65.5754,18.1093,0.0],[-65.5776,18.1021,0.0],[-65.5718,18.099,8.6486],[-65.5696,18.0912,0.0],[-65.5663,18.0901,0.0],[-65.5657,18.0885,0.0],[-65.5612,18.0879,0.0],[-65.5585,18.0843,0.0],[-65.5512,18.0843,7.587],[-65.5426,18.081,0.0],[-65.5349,18.0818,1.4093],[-65.5335,18.0799,0.0],[-65.5312,18.0799,0.0],[-65.5307,18.0815,1.2489],[-65.5249,18.0812,0.0],[-65.511,18.0907,0.8083],[-65.4926,18.0951,0.0],[-65.4885,18.0932,0.0],[-65.4804,18.0963,2.5942],[-65.4687,18.0929,0.6926],[-65.4693,18.0893,0.0],[-65.4674,18.0871,0.924],[-65.4651,18.0882,0.0],[-65.4676,18.0929,0.0],[-65.4654,18.0963,0.7104],[-65.4565,18.096,1.0938],[-65.4543,18.0943,1.4413],[-65.4543,18.0924,2.3273],[-65.4571,18.0879,4.2296],[-65.451,18.086,0.0],[-65.451,18.0907,2.4747],[-65.4493,18.0907,7.8887],[-65.449,18.0871,6.2252],[-65.4471,18.0876,0.0],[-65.4401,18.0968,1.1671],[-65.4424,18.0993,0.0],[-65.4504,18.1001,1.1774],[-65.4504,18.1043,1.7392],[-65.446,18.1054,0.0378],[-65.4399,18.104,0.1062],[-65.4396,18.101,4.0551],[-65.441,18.1004,12.4208],[-65.439,18.0979,15.9354],[-65.4399,18.0935,0.8396],[-65.4382,18.0915,0.0],[-65.4335,18.0915,0.0],[-65.431,18.0937,0.0],[-65.424,18.0951,0.0],[-65.4221,18.099,0.0],[-65.4262,18.1038,0.0],[-65.436,18.1065,1.4035],[-65.4285,18.1113,1.1086],[-65.4254,18.1107,0.43],[-65.4218,18.1018,0.0],[-65.4199,18.1012,0.0],[-65.4168,18.1024,14.6559],[-65.4185,18.1049,2.2137],[-65.4165,18.1082,3.8332],[-65.4126,18.1087,0.0],[-65.4118,18.106,4.2334],[-65.4074,18.1068,0.0],[-65.4076,18.109,0.0],[-65.4107,18.1113,3.0619],[-65.4085,18.1138,3.6869],[-65.4054,18.1129,-1.5662],[-65.4062,18.1079,0.0],[-65.4026,18.1087,0.0],[-65.4015,18.1115,2.2046],[-65.399,18.1087,0.0],[-65.3965,18.1115,7.9207],[-65.3943,18.1099,0.9419],[-65.3943,18.1074,0.0],[-65.3924,18.1071,0.2735],[-65.3907,18.1126,2.1639],[-65.384,18.1115,0.0],[-65.3815,18.1126,2.966],[-65.3779,18.1104,0.9438],[-65.379,18.1068,0.0],[-65.3774,18.1082,2.6026],[-65.3743,18.1068,0.0],[-65.374,18.1087,0.8662],[-65.3768,18.1113,0.0],[-65.3765,18.1171,3.2307],[-65.3751,18.1179,3.7746],[-65.3721,18.1157,0.0],[-65.3718,18.1174,1.3624],[-65.3746,18.1204,8.3395],[-65.3743,18.1235,0.3426],[-65.3685,18.1251,2.5419],[-65.3662,18.1204,0.0],[-65.3646,18.1201,0.0],[-65.3654,18.1251,2.2409],[-65.3637,18.126,4.6602],[-65.3637,18.1301,2.4292],[-65.3618,18.1301,0.0],[-65.359,18.1268,1.8407],[-65.359,18.1235,0.0],[-65.3568,18.1265,0.4707],[-65.3524,18.1251,0.0],[-65.3501,18.1265,2.0477],[-65.3496,18.1221,2.4826],[-65.3454,18.1224,2.6484],[-65.3437,18.1204,0.0],[-65.3404,18.1204,1.3082],[-65.3435,18.1157,4.0656],[-65.356,18.1135,0.0],[-65.3518,18.1115,0.0],[-65.3487,18.1124,18.0552],[-65.3463,18.1104,0.0],[-65.346,18.1121,9.0008],[-65.3418,18.1118,0.0],[-65.341,18.1162,4.8992],[-65.3396,18.116,6.4352],[-65.3396,18.1121,0.0],[-65.336,18.1143,0.0],[-65.3379,18.1207,5.8185],[-65.3335,18.1168,0.0],[-65.3354,18.1212,1.8502],[-65.3337,18.1215,0.0],[-65.3346,18.1243,0.5339],[-65.3335,18.1257,1.2704],[-65.3313,18.1257,2.659],[-65.3304,18.1224,0.0],[-65.3274,18.1199,0.0],[-65.3274,18.1243,3.4145],[-65.3224,18.1265,0.3126],[-65.3193,18.1268,0.0],[-65.3168,18.1232,0.0],[-65.3157,18.1251,0.0],[-65.3101,18.1268,1.6743],[-65.3079,18.1257,0.0],[-65.3074,18.1288,0.0],[-65.3101,18.1296,2.0677],[-65.3101,18.1318,2.8438],[-65.3068,18.1354,0.0],[-65.3054,18.1338,0.0],[-65.3046,18.1354,0.0],[-65.3029,18.134,1.4728],[-65.2988,18.1351,2.9333],[-65.2957,18.1268,0.0],[-65.2921,18.1299,2.2207],[-65.2835,18.1329,5.8367],[-65.276,18.1318,0.0],[-65.2724,18.1288,0.0],[-65.2704,18.1338,10.1966],[-65.2671,18.134,9.4423],[-65.269,18.1363,4.0408],[-65.2754,18.1338,4.3704],[-65.2782,18.1365,2.2384],[-65.2774,18.139,0.0],[-65.2807,18.1401,1.5359],[-65.2824,18.1451,0.0],[-65.2843,18.1457,0.0],[-65.2849,18.144,8.0368],[-65.2865,18.144,2.5161],[-65.2882,18.1485,0.0],[-65.294,18.146,0.0],[-65.2954,18.1429,2.6908],[-65.3015,18.1443,0.0],[-65.3032,18.1415,1.6256],[-65.3085,18.1454,0.3106],[-65.3138,18.1443,3.7758],[-65.3215,18.1463,12.0722],[-65.3249,18.1499,4.0555],[-65.3313,18.1468,1.6456],[-65.3321,18.1487,0.0],[-65.3354,18.1485,1.7971],[-65.3346,18.1504,0.0],[-65.341,18.1493,2.0788],[-65.3562,18.156,0.0],[-65.3607,18.153199999999998,2.0396],[-65.3654,18.1582,3.3355],[-65.3749,18.1574,0.389],[-65.384,18.161,1.3156],[-65.3893,18.1604,6.3597],[-65.3921,18.1626,0.0]]]]}
,"properties": {"GID_1": "PRI.75_1","GID_0": "PRI","country": "PuertoRico","province": "Vieques","VARNAME_1": "NA","NL_NAME_1": "NA","TYPE_1": "Municipio","ENGTYPE_1": "Municipality","CC_1": "NA","HASC_1": "PR.VQ","ISO_1": "-","name": "Vieques.province","area_km2": 137.4254,"hist_schema_id": "Elevation0-9000","hist_area_km2": {"0": 34.357,"25": 45.821,"50": 25.8323,"75": 15.2941,"100": 8.6648,"125": 4.6146,"150": 1.8338,"175": 0.4031,"200": 0.2015,"225": 0.1008,"250": 0.2217,"275": 0.0605,"300": 0.0202}}}