{"type": "Feature","bbox": [-61.2626,13.2557,-61.1639,13.3812],"geometry": {"type": "MultiPolygon","coordinates": [[[[-61.2471,13.2996,5.7545],[-61.2485,13.299,7.9256],[-61.2457,13.2954,0.0],[-61.2451,13.2974,0.0],[-61.2471,13.2996,5.7545]]],
[[[-61.1735,13.3798,63.2425],[-61.1754,13.3812,31.5956],[-61.179,13.3788,0.0],[-61.1807,13.3807,0.0],[-61.1837,13.3788,7.1198],[-61.186,13.3799,6.9426],[-61.1949,13.3704,75.8577],[-61.2021,13.3715,20.5178],[-61.2015,13.3682,50.3953],[-61.2054,13.3674,0.0],[-61.2071,13.3604,4.1862],[-61.2107,13.3568,0.0],[-61.2099,13.3549,38.7416],[-61.2121,13.3538,1.4702],[-61.2093,13.3518,112.0467],[-61.2121,13.3482,41.2902],[-61.2151,13.3476,0.0],[-61.2146,13.341,178.7075],[-61.2168,13.3385,46.1326],[-61.2193,13.3382,0.8261],[-61.2201,13.3337,86.0365],[-61.2224,13.3326,15.3258],[-61.2268,13.3171,11.3882],[-61.2349,13.3124,0.8489],[-61.2354,13.3057,0.0],[-61.2335,13.2988,0.0],[-61.2351,13.2951,7.05],[-61.2415,13.291,2.9695],[-61.2451,13.2943,0.0],[-61.246,13.2899,4.0919],[-61.2485,13.2899,4.9293],[-61.2507,13.2876,7.4649],[-61.261,13.2879,0.3872],[-61.2626,13.2829,1.4079],[-61.2596,13.2787,16.8573],[-61.2626,13.2743,5.8905],[-61.2598,13.2742,85.1409],[-61.2448,13.2651,259.1826],[-61.2406,13.2644,367.1615],[-61.2352,13.2587,333.8868],[-61.2295,13.2557,372.5043],[-61.2093,13.2578,695.5424],[-61.2024,13.2629,647.3875],[-61.1963,13.2628,675.1005],[-61.1899,13.2559,785.3809],[-61.1713,13.2602,646.6018],[-61.1701,13.264099999999999,659.1305],[-61.1734,13.2693,719.6849],[-61.1741,13.2761,823.9126],[-61.1778,13.2808,726.3526],[-61.175,13.2851,611.9864],[-61.1688,13.2892,849.431],[-61.1679,13.2928,754.929],[-61.1688,13.2974,794.3415],[-61.1736,13.3022,522.2972],[-61.1722,13.3108,578.4077],[-61.177,13.3239,850.178],[-61.1736,13.3342,1000.5037],[-61.1786,13.3459,1076.3447],[-61.1774,13.3479,1189.9397],[-61.171,13.3463,1122.2036],[-61.1669,13.3472,996.1786],[-61.1639,13.3513,918.9005],[-61.166,13.358,879.416],[-61.1724,13.3625,747.2294],[-61.1705,13.3759,144.2236],[-61.1735,13.3798,63.2425]]]]}
,"properties": {"GID_1": "VCT.4_1","GID_0": "VCT","country": "SaintVincentandtheGrenadines","province": "SaintDavid","VARNAME_1": "NA","NL_NAME_1": "NA","TYPE_1": "Parish","ENGTYPE_1": "Parish","CC_1": "NA","HASC_1": "VC.DA","ISO_1": "NA","name": "Saint_David.province","area_km2": 80.94281,"hist_schema_id": "Elevation0-9000","hist_area_km2": {"0": 1.13477,"25": 1.89819,"50": 2.22832,"75": 2.29027,"100": 2.10449,"125": 2.41399,"150": 2.41392,"175": 2.47593,"200": 2.6203,"225": 2.57907,"250": 2.39341,"275": 2.22836,"300": 2.80614,"325": 2.59981,"350": 2.53794,"375": 2.72361,"400": 2.35217,"425": 2.29026,"450": 2.29027,"475": 2.74421,"500": 2.33159,"525": 2.59981,"550": 2.97121,"575": 2.74427,"600": 2.55861,"625": 2.82687,"650": 2.51737,"675": 1.91895,"700": 1.67134,"725": 1.62996,"750": 1.58871,"775": 1.11412,"800": 1.05222,"825": 0.94906,"850": 0.68083,"875": 0.76338,"900": 0.78394,"925": 0.55703,"950": 0.33008,"975": 0.43323,"1000": 0.33008,"1025": 0.41261,"1050": 0.37133,"1075": 0.2063,"1100": 0.22693,"1125": 0.10315,"1150": 0.04126,"1175": 0.04126,"1200": 0.06189}}}