{"type":"Feature","properties":{"ISO3166-1-Alpha-3":"VCT","country":"Saint Vincent and the Grenadines","fill":"#FF0","id":"5066","name":"Saint David"},
"geometry":{"type": "Polygon","coordinates": [[[-61.17126,13.37995,57.4867],[-61.17638,13.38076,7.3807],[-61.18712,13.38044,0.0],[-61.19913,13.37702,0.0],[-61.21203,13.36888,0.0],[-61.22496,13.34577,0.0],[-61.23184,13.31696,0.0],[-61.2434,13.29438,0.0],[-61.27038,13.29011,0.0],[-61.26553,13.28022,0.0],[-61.26293,13.27643,0.0],[-61.26839,13.26591,0.0],[-61.24998,13.26028,50.5382],[-61.2279,13.25533,397.4307],[-61.21458,13.26421,521.1091],[-61.20082,13.27601,526.5091],[-61.18771,13.2629,643.6742],[-61.17459,13.26028,646.569],[-61.17197,13.27339,822.782],[-61.17066,13.2924,593.4999],[-61.17197,13.30879,563.1937],[-61.17263,13.32255,690.5886],[-61.16935,13.34091,1086.0421],[-61.16083,13.34222,890.8743],[-61.16148,13.35533,868.9733],[-61.17132,13.35927,781.9666],[-61.17126,13.37995,57.4867]]]}}