{"type":"Feature","properties":{"GID_3":"HTI.2.3.5_1","GID_0":"HTI","country":"Haiti","GID_1":"HTI.2_1","province":"Grand'Anse","NL_NAME_1":"NA","GID_2":"HTI.2.3_1","county":"Jérémie","NL_NAME_2":"NA","city":"Moron","VARNAME_3":"NA","NL_NAME_3":"NA","TYPE_3":"Commune","ENGTYPE_3":"Commune","CC_3":"NA","HASC_3":"NA","name":"Moron.city"},
"geometry":{"type": "MultiPolygon","coordinates": [[[[-74.3327,18.4218,244.5752],[-74.3343,18.4186,291.2462],[-74.3325,18.4159,288.8581],[-74.3269,18.4156,305.5147],[-74.3212,18.4182,264.8152],[-74.3173,18.4165,254.4639],[-74.3024,18.4158,464.5932],[-74.3033,18.4114,473.9371],[-74.2963,18.3959,593.7269],[-74.2866,18.39,434.1345],[-74.277,18.3813,471.5026],[-74.265,18.3813,398.9703],[-74.2603,18.3764,483.5142],[-74.2502,18.3747,624.7682],[-74.2355,18.3768,765.8966],[-74.2305,18.3799,1013.6072],[-74.2229,18.3799,924.8289],[-74.2208,18.3834,990.9964],[-74.2232,18.3882,835.1764],[-74.2174,18.3919,727.7714],[-74.2171,18.402,881.7188],[-74.215,18.4039,811.1697],[-74.2189,18.4064,672.7295],[-74.2169,18.419,643.1976],[-74.2197,18.4278,577.8787],[-74.2254,18.4358,878.9617],[-74.2253,18.4389,668.7523],[-74.2237,18.4413,640.6923],[-74.223,18.4507,522.3593],[-74.2165,18.4604,887.5873],[-74.2171,18.4632,949.8629],[-74.2204,18.4651,977.1138],[-74.2356,18.4574,952.1307],[-74.2419,18.4572,1131.1926],[-74.2447,18.4585,991.8823],[-74.2458,18.4679,936.7982],[-74.2533,18.4776,809.8033],[-74.2531,18.4803,747.1123],[-74.2447,18.4872,589.372],[-74.2414,18.494,498.2852],[-74.2278,18.5023,402.079],[-74.2332,18.5104,312.7965],[-74.23,18.5171,363.5423],[-74.2307,18.5253,270.8453],[-74.2246,18.5347,209.2293],[-74.2232,18.5416,335.3015],[-74.2256,18.5438,308.2966],[-74.2238,18.5558,192.4755],[-74.2286,18.5745,49.8934],[-74.2282,18.5781,112.7105],[-74.2412,18.5888,591.0554],[-74.2524,18.5927,631.3148],[-74.2656,18.5945,622.9449],[-74.2756,18.5881,631.6316],[-74.2782,18.5846,617.8599],[-74.2792,18.5785,332.9969],[-74.2828,18.5767,318.9949],[-74.2849,18.5733,235.0388],[-74.2856,18.5694,196.1723],[-74.2884,18.5664,165.6075],[-74.2888,18.5614,105.8997],[-74.2869,18.5495,122.2874],[-74.2912,18.5449,108.366],[-74.2949,18.5446,94.4901],[-74.2998,18.5417,110.4602],[-74.2997,18.54,105.9179],[-74.2953,18.5387,115.3474],[-74.2951,18.532,190.8634],[-74.2973,18.5304,191.8515],[-74.2981,18.5247,153.7377],[-74.3039,18.5155,195.3556],[-74.3072,18.5008,565.619],[-74.3129,18.4924,671.1279],[-74.3115,18.4862,475.9453],[-74.3152,18.4787,203.3333],[-74.3114,18.4729,339.1818],[-74.3128,18.4675,535.8811],[-74.3109,18.4615,309.636],[-74.3044,18.4585,458.3141],[-74.3074,18.4538,564.0913],[-74.308,18.4459,283.7252],[-74.3151,18.4388,430.281],[-74.314,18.4286,641.4857],[-74.3275,18.4277,544.4644],[-74.3327,18.4218,244.5752]]]]}}