{"type": "Feature","id": "5097","bbox": [-61.89037,17.00483,-61.80407,17.0949],"geometry": {"type": "Polygon","coordinates": [[[-61.83544,17.04286,268.0796],[-61.83135,17.06837,31.6582],[-61.82625,17.07959,36.9991],[-61.82727,17.08265,27.3307],[-61.84462,17.08673,7.5966],[-61.8538,17.0949,3.8296],[-61.8662,17.08686,83.5046],[-61.88244,17.0788,50.5429],[-61.8828,17.07022,3.5039],[-61.87922,17.06045,90.3342],[-61.88362,17.04902,26.2698],[-61.89037,17.03539,10.4442],[-61.88366,17.02627,3.0081],[-61.85171,17.00764,0.0],[-61.83869,17.00483,0.0],[-61.81786,17.00495,0.0],[-61.80407,17.00731,0.0],[-61.81095,17.02347,73.4334],[-61.80788,17.03469,170.8914],[-61.81503,17.04796,64.5594],[-61.82013,17.05918,85.9414],[-61.83544,17.04286,268.0796]]]}
,"properties": {"ISO3166-1-Alpha-3": "ATG","country": "Antigua and Barbuda","fill": "#F0F","name": "Saint Mary","area_km2": 58.27891,"hist_schema_id": "Elevation0-9000","hist_area_km2": {"0": 13.31842,"25": 10.05384,"50": 6.18256,"75": 4.84476,"100": 3.99335,"125": 3.70957,"150": 3.04067,"175": 2.49337,"200": 2.51362,"225": 1.98659,"250": 1.80413,"275": 1.43925,"300": 1.17572,"325": 0.97303,"350": 0.54732,"375": 0.20271}}}