{"type":"Feature","properties":{"GID_1":"ATG.5_1","GID_0":"ATG","country":"AntiguaandBarbuda","state":"SaintMary","VARNAME_1":"Bolands","NL_NAME_1":"NA","TYPE_1":"Parish","ENGTYPE_1":"Parish","CC_1":"NA","HASC_1":"AG.MA","ISO_1":"AG-05","name":"SaintMary.state"},
"geometry":{"type": "MultiPolygon","coordinates": [[[[-61.8784,17.1049,0.597],[-61.8749,17.1035,0.0],[-61.8746,17.0999,0.8931],[-61.8757,17.0965,0.0],[-61.8779,17.096,0.0],[-61.8815,17.0871,0.0],[-61.891,17.0888,0.0],[-61.894,17.0846,6.685],[-61.8974,17.0843,16.6045],[-61.899,17.0863,0.0],[-61.9035,17.0854,2.7702],[-61.9043,17.0824,0.0],[-61.9065,17.081,0.0],[-61.9054,17.0782,0.0],[-61.9038,17.0801,0.0],[-61.8982,17.0801,0.0],[-61.8963,17.0776,0.0],[-61.8918,17.079,0.4572],[-61.8901,17.0765,0.0],[-61.8907,17.0732,0.3723],[-61.8868,17.0751,2.7532],[-61.8885,17.0724,0.4299],[-61.8862,17.0704,0.9368],[-61.8846,17.071,0.1648],[-61.8843,17.0737,0.7909],[-61.8838,17.0657,0.0],[-61.8854,17.066,0.0],[-61.886,17.0699,0.9368],[-61.8935,17.074,0.0],[-61.8957,17.0726,8.5084],[-61.8951,17.0704,0.0],[-61.8921,17.0715,1.389],[-61.889,17.0693,2.8453],[-61.8882,17.0649,3.6414],[-61.8918,17.0546,0.0],[-61.8949,17.0546,1.8134],[-61.896,17.0521,0.0],[-61.8985,17.0518,0.0],[-61.8982,17.0499,0.0],[-61.8965,17.0507,2.1548],[-61.8965,17.046,3.2129],[-61.8946,17.0435,0.0],[-61.8926,17.0438,0.3545],[-61.8918,17.0468,9.3795],[-61.8899,17.0446,0.0],[-61.8899,17.0435,0.1677],[-61.8915,17.0443,0.0],[-61.8907,17.0413,0.0902],[-61.8924,17.0396,10.0935],[-61.8946,17.0426,0.0],[-61.8943,17.0368,0.0],[-61.8901,17.0296,0.0],[-61.8907,17.0263,0.0],[-61.8879,17.026,1.7815],[-61.8874,17.0235,0.0],[-61.8846,17.0243,1.5201],[-61.8846,17.0224,0.0],[-61.8826,17.0212,0.0],[-61.8737,17.0226,0.0],[-61.8654,17.0221,0.5297],[-61.8638,17.0201,0.0],[-61.8607,17.0221,1.8757],[-61.8587,17.0207,4.2986],[-61.8587,17.0165,0.0],[-61.8454,17.0171,2.9408],[-61.8437,17.016,5.5495],[-61.8449,17.0124,0.0],[-61.8432,17.0118,0.0],[-61.8396,17.014,23.6413],[-61.8376,17.0115,0.0],[-61.8354,17.0157,2.9647],[-61.8338,17.016,3.9277],[-61.8315,17.0146,1.4645],[-61.8332,17.0124,4.7485],[-61.8321,17.0112,0.0],[-61.8326,17.0063,7.781],[-61.834,17.0051,14.0003],[-61.8326,17.0035,0.0],[-61.831,17.0054,8.2764],[-61.8218,17.0065,0.0],[-61.8201,17.0082,2.5937],[-61.8162,17.0076,2.0907],[-61.8149,17.0093,4.9846],[-61.8118,17.0093,7.4227],[-61.811,17.0082,0.0],[-61.809,17.0143,2.2978],[-61.812,17.0218,64.2017],[-61.8121,17.0284,323.9795],[-61.8094,17.0362,151.2187],[-61.8194,17.0537,79.1356],[-61.8232,17.0568,88.4581],[-61.8235,17.0592,120.9365],[-61.8462,17.0518,102.3619],[-61.8446,17.0583,178.7777],[-61.8466,17.0618,115.2773],[-61.8438,17.0675,131.0938],[-61.8441,17.0722,21.998],[-61.8352,17.088,10.1825],[-61.8426,17.0932,7.2803],[-61.8588,17.0962,1.0319],[-61.8707,17.1093,4.41],[-61.8784,17.1049,0.597]]]]}}