{"type": "Feature","bbox": [-72.181,19.3846,-72.0621,19.5161],"geometry": {"type": "MultiPolygon","coordinates": [[[[-72.112,19.4043,240.7367],[-72.1112,19.4052,240.7367],[-72.1149,19.4082,288.933],[-72.1104,19.4118,245.2737],[-72.1108,19.4166,247.8248],[-72.1079,19.4194,212.3712],[-72.1104,19.4217,206.6065],[-72.1054,19.4244,242.8543],[-72.1061,19.4277,300.0386],[-72.1091,19.4308,218.0774],[-72.1076,19.4325,198.7325],[-72.109,19.4326,190.5495],[-72.1085,19.4347,217.4278],[-72.1058,19.4375,216.2207],[-72.1069,19.4396,170.9323],[-72.1052,19.4402,177.5237],[-72.1056,19.4421,184.1925],[-72.1024,19.4414,164.6873],[-72.0979,19.4496,137.5834],[-72.0963,19.4473,138.3133],[-72.0922,19.4489,156.0754],[-72.0895,19.4485,143.3158],[-72.0896,19.4471,143.3158],[-72.0801,19.4585,172.3726],[-72.0699,19.4554,214.5819],[-72.0708,19.4608,220.2299],[-72.0664,19.4669,215.2911],[-72.0671,19.4704,272.6831],[-72.0625,19.4727,279.3906],[-72.0643,19.4746,313.5883],[-72.0621,19.4776,333.7885],[-72.063,19.4801,336.1363],[-72.0698,19.4831,391.7458],[-72.0761,19.4884,425.5283],[-72.0829,19.4903,509.0734],[-72.0911,19.4974,596.1339],[-72.0932,19.5032,649.9415],[-72.0933,19.5098,712.335],[-72.095,19.5112,736.0084],[-72.0935,19.5137,683.9237],[-72.0953,19.5161,629.934],[-72.0975,19.5115,629.5236],[-72.1031,19.5109,538.5907],[-72.1127,19.5051,399.2917],[-72.1271,19.5021,244.5924],[-72.1317,19.5019,121.956],[-72.1308,19.5055,138.4788],[-72.1326,19.5071,108.7151],[-72.1408,19.5027,145.5342],[-72.1452,19.5022,152.4018],[-72.154,19.506,440.8549],[-72.1706,19.4989,365.5374],[-72.181,19.4921,683.401],[-72.1674,19.4768,1006.5641],[-72.1492,19.442,939.1854],[-72.1447,19.4371,891.6936],[-72.143,19.4315,846.1768],[-72.1388,19.4296,705.6864],[-72.1342,19.4215,689.6775],[-72.1316,19.4103,708.61],[-72.1339,19.4057,782.7128],[-72.1338,19.3974,648.3278],[-72.132,19.3927,571.5696],[-72.1274,19.3892,428.8893],[-72.1273,19.3846,353.862],[-72.1225,19.3883,344.0457],[-72.1175,19.3897,342.8315],[-72.1148,19.394,336.0346],[-72.1137,19.4023,266.8675],[-72.112,19.4043,240.7367]]]]}
,"properties": {"GID_3": "HTI.7.2.1_1","GID_0": "HTI","country": "Haiti","GID_1": "HTI.7_1","province": "Nord","NL_NAME_1": "NA","GID_2": "HTI.7.2_1","county": "Grande-RivièreduNord","NL_NAME_2": "NA","city": "Bahon","VARNAME_3": "NA","NL_NAME_3": "NA","TYPE_3": "Commune","ENGTYPE_3": "Commune","CC_3": "NA","HASC_3": "NA","name": "Bahon.city","area_km2": 79.16227,"hist_schema_id": "Elevation0-9000","hist_area_km2": {"100": 1.09928,"125": 2.49857,"150": 3.81791,"175": 4.59759,"200": 4.35781,"225": 4.13798,"250": 3.49839,"275": 3.55833,"300": 3.31864,"325": 5.49803,"350": 6.67732,"375": 5.47741,"400": 4.63762,"425": 4.01794,"450": 3.63811,"475": 2.37876,"500": 1.93894,"525": 1.61922,"550": 1.4993,"575": 1.25945,"600": 0.79958,"625": 0.81962,"650": 1.1395,"675": 0.79968,"700": 0.63973,"725": 0.7197,"750": 0.47978,"775": 0.47979,"800": 0.47978,"825": 0.47979,"850": 0.55975,"875": 0.41982,"900": 0.53974,"925": 0.33985,"950": 0.39982,"975": 0.17992,"1000": 0.2399,"1025": 0.09994,"1075": 0.01999}}}