{"type":"Feature","properties":{"GID_3":"HTI.3.3.1_1","GID_0":"HTI","country":"Haiti","GID_1":"HTI.3_1","province":"L'Artibonite","NL_NAME_1":"NA","GID_2":"HTI.3.3_1","county":"lesGonaïves","NL_NAME_2":"NA","city":"Ennery","VARNAME_3":"NA","NL_NAME_3":"NA","TYPE_3":"Commune","ENGTYPE_3":"Commune","CC_3":"NA","HASC_3":"NA","name":"Ennery.city"},
"geometry":{"type": "MultiPolygon","coordinates": [[[[-72.4165,19.4632,520.5197],[-72.4174,19.4648,492.6208],[-72.4127,19.4698,594.142],[-72.4073,19.4696,612.3664],[-72.4035,19.4721,559.164],[-72.4025,19.4752,588.5472],[-72.4045,19.4776,591.723],[-72.404,19.4805,660.84],[-72.4097,19.4843,690.3174],[-72.414,19.4914,791.8958],[-72.415,19.4984,746.5402],[-72.4187,19.5022,956.8391],[-72.4318,19.5083,857.1904],[-72.4354,19.515,886.0077],[-72.4394,19.5127,825.4924],[-72.446,19.5175,975.2502],[-72.4472,19.5213,991.9094],[-72.4553,19.5223,957.4344],[-72.4624,19.5263,899.8936],[-72.4881,19.5468,824.6028],[-72.4934,19.5556,798.0511],[-72.5005,19.5605,822.6432],[-72.5073,19.5621,713.8955],[-72.5211,19.5711,895.5985],[-72.523,19.5741,905.8359],[-72.5152,19.5818,621.8318],[-72.5213,19.5814,670.7755],[-72.5257,19.5781,925.1108],[-72.5359,19.5825,868.4775],[-72.5414,19.5782,717.1821],[-72.5474,19.5693,794.4011],[-72.5544,19.5733,840.6395],[-72.5598,19.5713,696.6856],[-72.5709,19.5611,473.6532],[-72.5725,19.5569,446.3768],[-72.5749,19.5559,393.7796],[-72.5785,19.5451,196.9045],[-72.5827,19.5406,188.0635],[-72.5837,19.5295,155.5801],[-72.5941,19.5286,205.7105],[-72.591,19.5178,242.4553],[-72.5821,19.5111,320.8779],[-72.5811,19.5057,338.1041],[-72.5759,19.4984,453.5527],[-72.5679,19.492,474.8485],[-72.5641,19.4909,510.3696],[-72.5592,19.4911,545.6492],[-72.5577,19.4941,452.4821],[-72.5505,19.4919,682.6853],[-72.5408,19.4925,839.4939],[-72.5374,19.4913,852.2255],[-72.5351,19.4861,890.4398],[-72.5264,19.4838,845.7032],[-72.5239,19.4717,924.8546],[-72.5186,19.4643,843.641],[-72.5142,19.4641,1015.2012],[-72.5097,19.4603,947.6153],[-72.5056,19.4617,911.0597],[-72.5014,19.4603,885.5482],[-72.4971,19.4414,838.2646],[-72.4816,19.4286,1029.0391],[-72.478,19.4288,945.3225],[-72.4703,19.424,868.9908],[-72.4595,19.407,1441.1378],[-72.4472,19.4046,1120.3956],[-72.4368,19.3971,976.071],[-72.4251,19.3985,630.4087],[-72.4261,19.4056,647.0001],[-72.4122,19.4075,594.7845],[-72.4108,19.4087,575.9822],[-72.4139,19.4157,724.5416],[-72.4123,19.4184,605.7147],[-72.4063,19.4222,550.1678],[-72.3898,19.4262,507.5657],[-72.3887,19.4298,530.1619],[-72.39,19.4354,541.7183],[-72.3872,19.439,538.7219],[-72.3876,19.4445,567.4992],[-72.3791,19.4407,585.8489],[-72.378,19.4431,572.8593],[-72.3817,19.4479,600.5767],[-72.3819,19.453,650.0266],[-72.3781,19.4574,690.8316],[-72.3661,19.4603,626.3542],[-72.3577,19.4732,684.5507],[-72.3575,19.4769,777.9929],[-72.3634,19.477,803.7561],[-72.3702,19.4701,775.0693],[-72.3731,19.4635,661.9531],[-72.3751,19.4631,655.7411],[-72.3798,19.4701,656.6255],[-72.3871,19.4665,681.2908],[-72.393,19.467,679.0065],[-72.4021,19.4615,618.9662],[-72.4165,19.4632,520.5197]]]]}}