{"type": "Feature","id": "5093","bbox": [-61.80584,17.07143,-61.75584,17.16494],"geometry": {"type": "Polygon","coordinates": [[[-61.75642,17.11416,4.3462],[-61.77302,17.12653,0.0],[-61.78067,17.14716,0.0],[-61.79337,17.16494,0.0],[-61.79156,17.1449,19.8285],[-61.80584,17.14388,46.954],[-61.80482,17.12347,21.5529],[-61.79666,17.11633,12.7194],[-61.7936,17.0949,13.8411],[-61.79564,17.08367,76.7418],[-61.78135,17.07449,38.2165],[-61.77421,17.07143,35.8411],[-61.76707,17.08571,53.0989],[-61.75584,17.0898,32.7879],[-61.75686,17.1,34.8503],[-61.76196,17.10816,4.2421],[-61.75642,17.11416,4.3462]]]}
,"properties": {"ISO3166-1-Alpha-3": "ATG","country": "Antigua and Barbuda","fill": "#F0F","name": "Saint George","area_km2": 28.04478,"hist_schema_id": "Elevation0-9000","hist_area_km2": {"0": 13.23145,"25": 10.90224,"50": 3.42477,"75": 0.36475,"100": 0.12157}}}