{"type":"Feature","properties":{"GID_1":"ATG.3_1","GID_0":"ATG","country":"AntiguaandBarbuda","state":"SaintGeorge","VARNAME_1":"Parham","NL_NAME_1":"NA","TYPE_1":"Parish","ENGTYPE_1":"Parish","CC_1":"NA","HASC_1":"AG.GE","ISO_1":"AG-03","name":"SaintGeorge.state"},
"geometry":{"type": "MultiPolygon","coordinates": [[[[-61.7777,17.1118,1.6752],[-61.7774,17.1171,6.2019],[-61.7754,17.1185,1.9604],[-61.7774,17.1204,6.2029],[-61.7771,17.1243,3.5526],[-61.7821,17.1235,13.972],[-61.7865,17.1201,1.8678],[-61.784,17.1238,0.0],[-61.7857,17.1243,0.0],[-61.7879,17.1224,4.1773],[-61.7885,17.1265,0.0],[-61.7804,17.1304,0.0],[-61.7812,17.1329,0.2247],[-61.7793,17.1343,0.0],[-61.7818,17.1346,0.0],[-61.7801,17.1374,5.4821],[-61.7776,17.1363,0.3034],[-61.7785,17.1349,0.0],[-61.7757,17.1343,0.2028],[-61.7729,17.1399,0.0],[-61.7879,17.1476,1.5567],[-61.7887,17.1499,0.0],[-61.7868,17.1524,0.0],[-61.7893,17.1521,2.2572],[-61.7904,17.1537,2.2572],[-61.7896,17.1585,2.5976],[-61.7968,17.1607,0.207],[-61.8001,17.1646,0.6778],[-61.8021,17.1701,9.2832],[-61.8006,17.1571,13.1801],[-61.806399999999996,17.1574,40.0909],[-61.806399999999996,17.1557,28.4289],[-61.8166,17.155,78.7433],[-61.8165,17.1426,49.6433],[-61.8095,17.1416,66.7097],[-61.8083,17.1121,17.3692],[-61.8049,17.112,11.3656],[-61.8102,17.0898,48.6785],[-61.8033,17.0803,77.4373],[-61.7926,17.0789,78.4745],[-61.7912,17.0876,24.4536],[-61.7811,17.0904,15.9383],[-61.7814,17.0962,21.8267],[-61.7842,17.098,12.799],[-61.7844,17.1118,13.967],[-61.7777,17.1118,1.6752]]],
[[[-61.764,17.1499,0.0],[-61.7654,17.1474,0.0],[-61.7629,17.1421,1.5216],[-61.7618,17.1454,0.0],[-61.764,17.1499,0.0]]],
[[[-61.7574,17.1612,0.0],[-61.7568,17.1626,0.0],[-61.7593,17.1624,0.0],[-61.759,17.1593,0.0],[-61.761,17.1579,0.0],[-61.7601,17.1554,0.0],[-61.7626,17.1518,0.0],[-61.7601,17.1485,0.0],[-61.7551,17.1518,2.6892],[-61.7535,17.1485,0.0],[-61.7532,17.1518,0.768],[-61.7518,17.151,0.0],[-61.749,17.154,7.0045],[-61.7454,17.1543,0.0],[-61.7465,17.1588,0.0],[-61.751,17.159,0.0],[-61.754,17.1612,0.0],[-61.7535,17.1596,1.1558],[-61.7549,17.1588,0.0],[-61.7574,17.1612,0.0]]]]}}