{"type":"Feature","properties":{"GID_2":"DOM.2.4_1","GID_0":"DOM","country":"DominicanRepublic","GID_1":"DOM.2_1","province":"Bahoruco","NL_NAME_1":"NA","county":"Tamayo","VARNAME_2":"NA","NL_NAME_2":"NA","TYPE_2":"Municipio","ENGTYPE_2":"Municipality","CC_2":"NA","HASC_2":"DO.BR.TA","name":"Tamayo.county"},
"geometry":{"type": "MultiPolygon","coordinates": [[[[-71.1512,18.6169,736.9407],[-71.1609,18.6176,784.1946],[-71.1673,18.6222,772.8001],[-71.176,18.6256,764.693],[-71.1817,18.625,746.5132],[-71.1887,18.6203,571.3129],[-71.1929,18.6202,538.6749],[-71.1959,18.6226,676.9109],[-71.1984,18.6297,584.5026],[-71.2028,18.6314,634.0337],[-71.244,18.6121,506.398],[-71.2634,18.6123,675.0562],[-71.2966,18.6204,796.837],[-71.3058,18.6204,766.2782],[-71.3149,18.6158,743.4283],[-71.3233,18.6038,1232.0262],[-71.3041,18.5955,982.4252],[-71.295,18.5851,995.7481],[-71.2904,18.5732,1138.8857],[-71.2721,18.5722,1044.774],[-71.2612,18.5673,958.2721],[-71.2512,18.5665,1018.84],[-71.2457,18.5636,818.114],[-71.2415,18.5503,648.9825],[-71.2414,18.5331,449.0443],[-71.2401,18.529,414.0199],[-71.2329,18.5224,528.3858],[-71.2215,18.5212,338.6891],[-71.2151,18.5174,281.4883],[-71.2156,18.5041,139.3994],[-71.237,18.4802,47.4637],[-71.2419,18.4722,27.2755],[-71.2468,18.4695,18.6043],[-71.2476,18.4629,13.4306],[-71.2446,18.4596,13.6839],[-71.2216,18.4592,26.8837],[-71.2188,18.4574,34.0942],[-71.2175,18.4542,27.2325],[-71.2178,18.3962,22.0265],[-71.2223,18.3873,20.3018],[-71.237,18.3755,13.7927],[-71.2277,18.3551,18.7656],[-71.2302,18.3501,17.7165],[-71.2384,18.3461,16.324],[-71.2378,18.3413,16.8713],[-71.2317,18.3355,18.2664],[-71.2089,18.329,22.0017],[-71.2011,18.3238,9.5762],[-71.1598,18.3236,12.7953],[-71.1557,18.3257,11.9898],[-71.1559,18.3424,12.7622],[-71.1603,18.3417,15.3744],[-71.1662,18.3325,13.2233],[-71.1771,18.3322,16.9269],[-71.1813,18.3355,16.7222],[-71.183,18.3454,17.2222],[-71.1912,18.3472,18.1394],[-71.1958,18.35,17.6106],[-71.1961,18.3597,21.4103],[-71.1941,18.3662,22.3246],[-71.1962,18.3738,23.7431],[-71.1886,18.3817,26.3174],[-71.183,18.384,28.0175],[-71.1809,18.3917,33.0298],[-71.1741,18.3953,46.672],[-71.1725,18.4024,38.336],[-71.1704,18.4047,38.7887],[-71.1663,18.4054,41.8546],[-71.1595,18.4029,71.5971],[-71.1531,18.4029,101.1935],[-71.1378,18.4128,108.3714],[-71.1286,18.4116,215.484],[-71.1225,18.4161,217.9165],[-71.1207,18.42,185.2352],[-71.1245,18.4267,104.6571],[-71.1292,18.4277,65.9735],[-71.1358,18.4254,54.9382],[-71.1393,18.427,63.7336],[-71.1405,18.4314,54.0478],[-71.1383,18.4353,62.5582],[-71.1189,18.4364,78.1675],[-71.1066,18.4393,89.4618],[-71.1009,18.4507,109.8438],[-71.0969,18.4547,78.8691],[-71.0923,18.4549,80.2197],[-71.0867,18.4487,143.6852],[-71.0805,18.4521,118.9134],[-71.0738,18.4532,121.7413],[-71.0703,18.458,159.6324],[-71.071,18.4646,128.4632],[-71.067,18.4686,135.8203],[-71.0604,18.4705,124.9198],[-71.0532,18.4749,152.4029],[-71.0446,18.4737,178.2508],[-71.0384,18.4763,135.3423],[-71.0366,18.479,148.8992],[-71.0339,18.4919,156.5205],[-71.0366,18.4945,151.2592],[-71.0455,18.4957,130.7359],[-71.0479,18.5,155.5276],[-71.0443,18.5032,119.0759],[-71.031,18.5008,156.4337],[-71.0198,18.5009,254.4446],[-71.0228,18.5068,196.6344],[-71.03,18.5128,187.9851],[-71.0305,18.5199,174.7593],[-71.0288,18.5227,147.1908],[-71.0188,18.5232,181.4725],[-71.0142,18.5214,186.5733],[-71.0054,18.5125,171.3689],[-71.0063,18.5042,161.3249],[-71.0028,18.5005,175.665],[-70.9984,18.5013,179.0311],[-70.9961,18.5082,182.2631],[-70.9846,18.5109,245.1921],[-70.9803,18.5072,213.5112],[-70.976,18.5098,225.4964],[-70.9737,18.5137,237.2325],[-70.9741,18.5191,228.568],[-70.977,18.5224,210.0242],[-70.9854,18.5276,195.5837],[-71.0194,18.5424,530.3835],[-71.0323,18.5433,579.0415],[-71.0395,18.5479,628.4265],[-71.0568,18.5522,845.2593],[-71.0639,18.5565,791.4434],[-71.091,18.5573,737.6004],[-71.1017,18.5548,689.7427],[-71.1163,18.5609,895.6146],[-71.1287,18.5691,831.8984],[-71.1383,18.5861,600.3746],[-71.1456,18.5919,577.6162],[-71.147,18.5997,548.4134],[-71.152,18.6072,632.0241],[-71.1512,18.6169,736.9407]]]]}}