{"type": "Feature","bbox": [-77.5153,19.9652,-77.274,20.1979],"geometry": {"type": "MultiPolygon","coordinates": [[[[-77.3978,20.1979,0.0],[-77.4029,20.1937,6.7033],[-77.411,20.1774,5.9815],[-77.4207,20.1763,0.0],[-77.4254,20.1718,1.5761],[-77.4271,20.1671,2.1627],[-77.4343,20.1651,0.8872],[-77.4371,20.1601,5.4334],[-77.4421,20.1593,0.2513],[-77.4435,20.1568,1.5383],[-77.449,20.154,0.0],[-77.4565,20.1543,0.0],[-77.4587,20.1504,0.9425],[-77.4635,20.1485,1.0372],[-77.471,20.149,0.0],[-77.4799,20.1349,1.7098],[-77.4829,20.1318,1.8516],[-77.4857,20.1324,0.0],[-77.4863,20.1288,0.4057],[-77.4907,20.1251,0.0],[-77.5038,20.1035,3.2233],[-77.5071,20.1013,1.5228],[-77.5121,20.1007,0.0],[-77.5153,20.0957,0.0],[-77.5002,20.0726,27.7696],[-77.4885,20.0211,84.6621],[-77.4792,19.9981,113.1579],[-77.4705,19.9941,141.1859],[-77.4332,19.9927,154.1702],[-77.4283,19.9843,170.4362],[-77.4287,19.9652,168.8861],[-77.4018,19.9764,172.9073],[-77.3908,19.9781,203.7445],[-77.3727,19.9773,189.2822],[-77.3539,19.9707,203.5401],[-77.338,19.9706,231.231],[-77.2944,19.9856,176.6836],[-77.2824,20.0032,350.8232],[-77.275,20.0177,246.6587],[-77.274,20.0249,174.1211],[-77.2861,20.0474,96.7445],[-77.3139,20.067,97.6663],[-77.3325,20.1008,48.4782],[-77.3341,20.1164,38.8283],[-77.3262,20.137,23.7444],[-77.3273,20.1484,18.1171],[-77.3352,20.1561,14.3001],[-77.3635,20.1687,3.9477],[-77.3978,20.1979,0.0]]]]}
,"properties": {"GID_2": "CUB.5.9_1","GID_0": "CUB","country": "Cuba","GID_1": "CUB.5_1","province": "Granma","NL_NAME_1": "NA","county": "MediaLuna","VARNAME_2": "NA","NL_NAME_2": "NA","TYPE_2": "Municipio","ENGTYPE_2": "Municipality","CC_2": "NA","HASC_2": "CU.GR.ML","name": "Media_Luna.county","area_km2": 397.5001,"hist_schema_id": "Elevation0-9000","hist_area_km2": {"0": 50.1403,"25": 79.8719,"50": 53.8048,"75": 42.1226,"100": 44.2991,"125": 45.977,"150": 35.1632,"175": 20.142,"200": 9.8421,"225": 5.3791,"250": 3.8848,"275": 3.3071,"300": 2.1715,"325": 0.9563,"350": 0.1992,"375": 0.1992,"400": 0.0398}}}