{"type":"Feature","properties":{"GID_1":"GLP.1_1","GID_0":"GLP","country":"Guadeloupe","province":"Basse-Terre","VARNAME_1":"NA","NL_NAME_1":"NA","TYPE_1":"Arrondissement","ENGTYPE_1":"District","CC_1":"NA","HASC_1":"GP.BT","ISO_1":"NA","name":"Basse-Terre.province"},
"geometry":{"type": "MultiPolygon","coordinates": [[[[-61.6101,15.8388,0.4986],[-61.6113,15.8399,0.4986],[-61.6121,15.8376,0.0],[-61.6087,15.8338,0.0],[-61.6046,15.8351,0.0],[-61.6085,15.836,4.1304],[-61.6101,15.8388,0.4986]]],
[[[-61.5901,15.8413,2.5292],[-61.5915,15.8429,0.0],[-61.5988,15.836,0.9615],[-61.5857,15.8315,0.0],[-61.5835,15.8354,8.4975],[-61.5901,15.8413,2.5292]]],
[[[-61.5726,15.8829,4.452],[-61.574,15.884,0.0],[-61.5774,15.8738,0.0],[-61.5793,15.876,7.5946],[-61.5801,15.881,0.0],[-61.5826,15.8799,18.4965],[-61.5857,15.8749,0.0],[-61.5857,15.8696,0.0],[-61.5843,15.8679,0.0],[-61.5879,15.8643,3.2569],[-61.5901,15.866,0.0],[-61.5921,15.8637,72.5288],[-61.5974,15.8637,28.1038],[-61.5993,15.8657,0.0],[-61.6007,15.8601,13.9431],[-61.6054,15.8601,19.5528],[-61.6068,15.8562,0.0],[-61.6029,15.8576,10.4958],[-61.6004,15.8543,0.0],[-61.5926,15.8524,17.3736],[-61.5879,15.8588,10.6748],[-61.5865,15.8565,0.0],[-61.5799,15.8571,6.7925],[-61.5804,15.8554,0.0],[-61.5782,15.8549,0.0],[-61.576,15.8576,12.3006],[-61.579,15.859,9.5569],[-61.5776,15.8651,2.8453],[-61.576,15.8671,48.975],[-61.5682,15.8693,3.6036],[-61.5657,15.8738,6.604],[-61.5668,15.876,0.0],[-61.5679,15.8718,23.8236],[-61.5701,15.8713,19.5475],[-61.5713,15.8726,3.7973],[-61.5682,15.8796,0.0],[-61.571,15.8813,12.2932],[-61.5699,15.8832,0.0],[-61.5726,15.8829,4.452]]],
[[[-61.5985,15.8779,0.0],[-61.6001,15.8793,0.0],[-61.6015,15.8757,4.5318],[-61.5993,15.8757,11.5472],[-61.5951,15.8715,0.0],[-61.5935,15.8715,0.0],[-61.5904,15.876,0.0],[-61.5904,15.8782,0.0],[-61.5929,15.879,0.0],[-61.5943,15.8774,0.0],[-61.5985,15.8779,0.0]]],
[[[-61.6349,15.8696,12.2113],[-61.6349,15.871,3.5494],[-61.6368,15.8707,0.0],[-61.6382,15.8657,17.5128],[-61.644,15.8607,0.0],[-61.6471,15.8615,0.0],[-61.6465,15.8571,19.8326],[-61.6507,15.8471,53.3676],[-61.6335,15.8396,0.0],[-61.6268,15.8435,9.9533],[-61.6257,15.8474,1.6164],[-61.6218,15.8515,0.0],[-61.6215,15.8546,4.4257],[-61.6199,15.8554,10.5637],[-61.619,15.8513,0.0],[-61.6179,15.8513,0.0],[-61.614,15.8557,4.7481],[-61.6165,15.8582,11.2229],[-61.6246,15.8593,1.5998],[-61.6246,15.8624,19.541],[-61.6226,15.8643,13.7808],[-61.624,15.8668,2.878],[-61.6346,15.8676,12.5252],[-61.6349,15.8696,12.2113]]],
[[[-61.6143,15.9815,2.8809],[-61.6143,15.9876,23.976],[-61.6121,15.9913,29.8059],[-61.6071,15.9918,0.0],[-61.6074,15.9935,0.0],[-61.6035,15.9954,0.0],[-61.6021,15.9999,1.2901],[-61.5982,16.0007,0.0],[-61.5968,16.004,8.6895],[-61.5913,16.0063,0.0],[-61.5904,16.009,6.9055],[-61.5882,16.0088,0.0],[-61.5879,16.0115,0.0],[-61.5824,16.0138,0.0],[-61.5801,16.0182,0.0],[-61.5687,16.0254,0.0],[-61.569,16.029,11.4209],[-61.564,16.0335,0.0],[-61.5638,16.0426,0.0],[-61.5568,16.0501,0.5852],[-61.5574,16.0537,3.6262],[-61.5551,16.0543,0.0],[-61.5601,16.0604,3.3657],[-61.5607,16.0718,3.768],[-61.5588,16.0785,7.8211],[-61.5601,16.0796,2.7498],[-61.5601,16.086,0.0],[-61.5588,16.094,3.4556],[-61.561,16.096,5.5412],[-61.5607,16.1015,1.6649],[-61.5635,16.1037,2.9852],[-61.5621,16.1068,0.0],[-61.5682,16.1096,6.0863],[-61.5704,16.1157,0.0],[-61.5693,16.1221,1.0508],[-61.5632,16.126,0.0],[-61.5604,16.1307,0.0],[-61.564,16.1349,2.6329],[-61.5674,16.1346,9.8458],[-61.5743,16.1376,3.7706],[-61.5779,16.1435,7.8161],[-61.5757,16.1449,3.0565],[-61.576,16.1493,9.1469],[-61.5746,16.151,3.6547],[-61.5762,16.1537,8.7203],[-61.5815,16.1549,4.713],[-61.5821,16.1607,0.0],[-61.5843,16.1621,3.6857],[-61.5849,16.1668,0.0],[-61.5838,16.1712,9.012],[-61.5793,16.1732,0.9498],[-61.5801,16.1785,0.0],[-61.5812,16.1799,3.4595],[-61.5863,16.1801,4.2229],[-61.586,16.1829,2.9221],[-61.5887,16.1854,8.0067],[-61.5904,16.1929,0.0],[-61.5885,16.1982,0.0],[-61.5832,16.204,25.9708],[-61.5876,16.2079,15.2132],[-61.586,16.2151,5.3548],[-61.5887,16.216,10.6609],[-61.589,16.219,0.0],[-61.5857,16.2254,1.1744],[-61.5843,16.2332,4.547],[-61.5818,16.2365,0.6201],[-61.5793,16.2374,7.476],[-61.5751,16.234,5.6244],[-61.5724,16.236,8.5823],[-61.5674,16.2357,4.2831],[-61.5662,16.2329,1.0179],[-61.5626,16.231,1.6194],[-61.5624,16.234,1.3269],[-61.5596,16.2354,0.0],[-61.5557,16.2324,6.9],[-61.5551,16.2307,4.8832],[-61.5568,16.229,0.0],[-61.5537,16.2276,3.935],[-61.5532,16.2249,0.7066],[-61.5551,16.224,0.0],[-61.5537,16.2215,0.0],[-61.5493,16.2221,0.0],[-61.5465,16.2207,0.0],[-61.5504,16.2237,1.2096],[-61.5451,16.2235,0.0],[-61.546,16.2276,0.0],[-61.5418,16.2321,0.0],[-61.5443,16.2343,0.0],[-61.5493,16.2337,0.4226],[-61.5501,16.2382,0.0],[-61.5485,16.2418,5.286],[-61.5529,16.2501,2.6083],[-61.5472,16.2606,1.4973],[-61.5483,16.2734,1.562],[-61.5565,16.276,0.5576],[-61.5585,16.2871,0.0],[-61.5615,16.2862,0.5656],[-61.5604,16.2851,2.0929],[-61.5615,16.2835,3.6369],[-61.5643,16.2868,0.2618],[-61.5696,16.2846,0.7299],[-61.5701,16.2815,4.693],[-61.5751,16.2813,2.7128],[-61.5754,16.2854,0.9725],[-61.5776,16.2838,0.0],[-61.5801,16.2843,0.0],[-61.5812,16.2824,0.0],[-61.5799,16.2824,1.2875],[-61.579,16.2785,10.6611],[-61.5843,16.2746,0.0],[-61.5838,16.2715,1.6159],[-61.5904,16.2665,18.2203],[-61.5979,16.2662,7.0812],[-61.5999,16.2682,9.183],[-61.6004,16.2715,4.3927],[-61.5974,16.2724,0.0],[-61.5968,16.2743,0.0],[-61.5988,16.2776,0.0],[-61.5968,16.2818,0.0],[-61.5996,16.2824,0.0],[-61.6024,16.2732,4.3638],[-61.6051,16.2724,0.0],[-61.6068,16.2687,12.8372],[-61.6124,16.2674,1.7113],[-61.6149,16.269,2.0021],[-61.6149,16.2707,5.4418],[-61.611,16.276,0.0],[-61.6113,16.2793,0.0],[-61.6246,16.2763,2.0676],[-61.6263,16.2785,0.0],[-61.6263,16.2824,5.4198],[-61.6193,16.2865,4.7505],[-61.6204,16.2924,14.3485],[-61.6182,16.2912,1.568],[-61.6174,16.2868,2.3144],[-61.621,16.2832,2.0967],[-61.6149,16.2826,1.0241],[-61.6121,16.2854,0.8931],[-61.6107,16.2938,4.0012],[-61.6021,16.2993,6.4627],[-61.6018,16.3037,9.7415],[-61.6093,16.3046,3.2047],[-61.6243,16.3013,2.5944],[-61.6285,16.3046,1.5464],[-61.6329,16.3043,5.3799],[-61.6379,16.3099,1.7661],[-61.6435,16.3093,2.1709],[-61.6446,16.3132,3.5266],[-61.6407,16.316,0.0],[-61.6496,16.3201,2.1369],[-61.6499,16.3215,0.0],[-61.656,16.3193,5.4193],[-61.6632,16.3207,0.0],[-61.6646,16.3182,1.801],[-61.6646,16.3215,0.6904],[-61.6682,16.3207,0.0],[-61.6699,16.3226,0.0],[-61.6715,16.3207,1.1177],[-61.6732,16.3249,3.0129],[-61.6762,16.3257,1.6519],[-61.6799,16.3301,0.5463],[-61.6818,16.3293,0.5463],[-61.6818,16.3257,2.7431],[-61.6849,16.3251,2.7614],[-61.6862,16.329,1.4709],[-61.691,16.331,6.525],[-61.6937,16.3349,0.7879],[-61.6971,16.3343,1.899],[-61.7004,16.336,0.0],[-61.7012,16.3346,3.2342],[-61.7049,16.3371,0.0],[-61.7082,16.3363,6.7435],[-61.716,16.3393,6.0144],[-61.7176,16.3424,10.7318],[-61.7151,16.3451,1.7994],[-61.7174,16.3449,9.9157],[-61.7193,16.3479,0.0],[-61.7218,16.3476,0.0],[-61.7215,16.3501,1.8568],[-61.7246,16.3521,4.6187],[-61.7243,16.3546,0.0],[-61.7274,16.3549,3.8683],[-61.7293,16.3576,0.0],[-61.7321,16.3563,2.0858],[-61.739,16.3585,3.2193],[-61.7387,16.3604,0.0],[-61.7435,16.3621,0.0],[-61.7465,16.3618,0.0],[-61.7465,16.3571,4.457],[-61.749,16.3565,0.0],[-61.7487,16.3551,2.4529],[-61.7507,16.354,0.0],[-61.7532,16.3549,0.0],[-61.7537,16.3535,10.534],[-61.7601,16.356,0.0],[-61.7665,16.3532,0.0],[-61.7679,16.351,9.6593],[-61.7743,16.3493,2.5748],[-61.776,16.3504,1.8443],[-61.7788,16.3454,0.0],[-61.7779,16.3424,11.9541],[-61.7824,16.3385,25.4652],[-61.7865,16.3376,0.0],[-61.7899,16.3326,0.0],[-61.7874,16.3288,0.0],[-61.7885,16.3226,3.7651],[-61.8015,16.3149,0.0],[-61.8018,16.3121,0.0],[-61.7954,16.3088,34.9881],[-61.7946,16.3057,3.5672],[-61.8021,16.3032,0.0],[-61.8035,16.2943,0.0],[-61.8021,16.2857,0.0],[-61.8043,16.2826,0.0],[-61.8029,16.2779,1.6699],[-61.8049,16.2751,15.9807],[-61.8101,16.2724,0.0],[-61.809,16.269,13.119],[-61.8063,16.2685,5.3738],[-61.8074,16.2665,0.0],[-61.8057,16.264,5.5895],[-61.8065,16.2576,10.2786],[-61.8032,16.2515,9.6757],[-61.8021,16.2432,0.0],[-61.7971,16.2399,34.5303],[-61.7957,16.2362,0.0],[-61.7926,16.2351,9.6703],[-61.7868,16.2285,3.0509],[-61.7849,16.2243,0.0],[-61.7851,16.2182,0.0],[-61.7824,16.214,54.4841],[-61.7832,16.2071,2.9617],[-61.7857,16.2043,0.0],[-61.786,16.2005,0.0],[-61.7876,16.2001,0.0],[-61.7868,16.1963,21.8288],[-61.7879,16.1946,0.0],[-61.7826,16.1884,43.3215],[-61.784,16.1863,29.134],[-61.7835,16.1776,42.6996],[-61.7846,16.1771,42.6996],[-61.7832,16.1738,11.2878],[-61.7785,16.1743,55.4693],[-61.7762,16.1724,19.6937],[-61.7776,16.1696,0.0],[-61.7757,16.1663,0.6895],[-61.7757,16.1479,0.0],[-61.7807,16.1399,0.0],[-61.7757,16.139,40.0189],[-61.7721,16.136,36.8062],[-61.7701,16.1301,1.9089],[-61.7707,16.1279,0.7731],[-61.7743,16.1268,4.2202],[-61.7749,16.1165,0.0],[-61.7735,16.1121,26.2573],[-61.7746,16.1101,0.0],[-61.7732,16.1093,15.4144],[-61.7729,16.1054,26.586],[-61.7746,16.1049,0.0],[-61.7751,16.1024,0.0],[-61.7726,16.1018,0.0],[-61.7743,16.0976,8.4877],[-61.7713,16.096,2.0908],[-61.7737,16.0932,4.6346],[-61.7735,16.0912,2.5951],[-61.7715,16.0893,3.2678],[-61.7671,16.0901,0.0],[-61.7699,16.0868,2.6969],[-61.7693,16.0846,0.0],[-61.7679,16.0846,6.0526],[-61.7679,16.0815,2.5176],[-61.7696,16.0799,1.3671],[-61.7687,16.0715,0.0],[-61.771,16.0618,0.0],[-61.7687,16.0554,0.0],[-61.7657,16.0524,24.8767],[-61.7651,16.049,8.9479],[-61.7618,16.0476,33.8741],[-61.7565,16.0399,0.0],[-61.7549,16.0401,6.5951],[-61.7543,16.0362,0.0],[-61.749,16.0299,0.0],[-61.746,16.0093,0.8374],[-61.7357,16.0001,1.0958],[-61.7343,15.9962,0.0],[-61.7251,15.9868,0.0],[-61.7193,15.9843,2.3924],[-61.7137,15.9782,0.0],[-61.7124,15.9785,132.759],[-61.709,15.9685,21.6931],[-61.7085,15.9607,27.3871],[-61.7099,15.954,7.2455],[-61.7074,15.9515,6.8957],[-61.7076,15.9474,0.6757],[-61.7035,15.9487,6.5547],[-61.701,15.9465,0.0],[-61.6971,15.946,1.7866],[-61.689,15.9493,17.1297],[-61.6804,15.9499,0.0],[-61.6729,15.9549,0.0],[-61.6726,15.9579,4.682],[-61.6699,15.9613,9.9009],[-61.6621,15.9643,19.8781],[-61.6615,15.9615,0.0],[-61.6582,15.9593,0.0],[-61.6549,15.9654,0.0],[-61.6518,15.966,0.0],[-61.6493,15.969,21.1055],[-61.644,15.966,0.0],[-61.6401,15.9679,17.1947],[-61.6343,15.9649,0.0],[-61.6321,15.9668,0.0],[-61.629,15.9663,0.0],[-61.6293,15.9693,5.3786],[-61.6265,15.9715,9.1128],[-61.6243,15.9701,0.0],[-61.6182,15.9712,0.0],[-61.6176,15.9743,0.0],[-61.6199,15.9762,1.8685],[-61.6196,15.9779,8.8699],[-61.6143,15.9815,2.8809]]],
[[[-61.5415,16.2174,0.0],[-61.5435,16.2193,0.0],[-61.544,16.214,5.7072],[-61.5343,16.2132,0.0],[-61.536,16.2157,0.0],[-61.5407,16.2154,9.6524],[-61.5415,16.2174,0.0]]],
[[[-61.5876,16.3535,2.2574],[-61.5904,16.3546,0.0],[-61.5918,16.3532,0.0],[-61.5918,16.3496,0.0],[-61.5974,16.3429,3.0934],[-61.5965,16.3415,0.0],[-61.594,16.3421,2.3036],[-61.5915,16.3465,3.2911],[-61.5829,16.3443,0.0],[-61.5799,16.3457,0.0],[-61.5793,16.3504,1.1784],[-61.5876,16.3535,2.2574]]],
[[[-61.6501,16.3368,0.0],[-61.6515,16.3376,0.0],[-61.6529,16.3365,1.289],[-61.6499,16.3357,0.0],[-61.6501,16.3368,0.0]]],
[[[-61.7879,16.1693,0.0],[-61.7907,16.1699,4.7003],[-61.7924,16.1671,9.1499],[-61.7879,16.1657,0.0],[-61.7879,16.1693,0.0]]],
[[[-61.7804,16.3704,0.0],[-61.7824,16.371,0.0],[-61.7821,16.366,14.916],[-61.7776,16.3635,0.0],[-61.7768,16.3685,4.0781],[-61.7804,16.3704,0.0]]],
[[[-61.6738,16.3449,0.3656],[-61.6771,16.3457,0.0],[-61.6782,16.3432,0.0],[-61.6749,16.3424,0.6957],[-61.6724,16.344,0.4567],[-61.6738,16.3449,0.3656]]],
[[[-61.6837,16.3479,0.0],[-61.6854,16.3487,0.0],[-61.686,16.3468,0.0],[-61.681,16.3451,0.0],[-61.6804,16.3465,0.6787],[-61.6837,16.3479,0.0]]]]}}