{"type":"Feature","properties":{"ISO3166-1-Alpha-3":"CUB","country":"Cuba","fill":"#00F","id":"1368","name":"Las Tunas"},
"geometry":{"type": "Polygon","coordinates": [[[-76.31355,21.2519,4.2124],[-76.31652,21.25422,0.0],[-76.34878,21.26606,0.0],[-76.36303,21.27709,0.0],[-76.38756,21.28433,0.0],[-76.50731,21.28767,0.0],[-76.52554,21.28205,0.0],[-76.53238,21.26862,0.0],[-76.52904,21.25263,0.7352],[-76.51696,21.23924,1.5722],[-76.50426,21.23481,4.9671],[-76.47159,21.23066,1.5994],[-76.45613,21.22557,2.2957],[-76.46764,21.22134,1.0174],[-76.49706,21.20515,0.0],[-76.50243,21.20474,0.0],[-76.50894,21.20547,0.0],[-76.51456,21.20527,0.0],[-76.51696,21.20205,0.0],[-76.51952,21.19725,0.0],[-76.5255,21.1916,0.0],[-76.53238,21.18671,0.0],[-76.53746,21.18464,0.0],[-76.54674,21.18781,1.0547],[-76.55679,21.20523,0.395],[-76.56534,21.21198,0.0],[-76.5773,21.21137,0.0],[-76.58845,21.20637,0.0],[-76.59826,21.20588,0.0],[-76.60631,21.21874,3.6744],[-76.60237,21.2202,0.76],[-76.59268,21.22557,0.7],[-76.61315,21.22557,0.4136],[-76.61315,21.23237,1.5135],[-76.55989,21.23452,3.6334],[-76.54841,21.24763,2.7463],[-76.54491,21.28767,0.0],[-76.55167,21.28767,0.0],[-76.55167,21.26659,0.9862],[-76.55793,21.26659,0.4009],[-76.57079,21.28242,0.0],[-76.59293,21.29483,0.0],[-76.61677,21.30183,0.0],[-76.63427,21.30134,1.2329],[-76.65355,21.29413,0.0264],[-76.65404,21.28775,1.2032],[-76.64733,21.27338,0.0],[-76.64147,21.26463,0.0],[-76.63492,21.26008,0.4137],[-76.61315,21.25292,0.0],[-76.61315,21.24673,0.0707],[-76.63439,21.24799,0.0],[-76.65331,21.2519,0.0],[-76.67016,21.25902,0.0],[-76.68521,21.26996,0.0],[-76.70116,21.27586,1.6099],[-76.72134,21.27904,0.0],[-76.73469,21.28555,0.1722],[-76.72985,21.30134,0.0],[-76.73143,21.31192,1.2224],[-76.72151,21.31147,0.3241],[-76.71231,21.30264,0.0],[-76.71618,21.28767,0.0],[-76.66015,21.31159,1.6171],[-76.64391,21.31501,3.7115],[-76.63659,21.32136,0.759],[-76.64249,21.33552,2.2023],[-76.65608,21.34955,2.1571],[-76.6715,21.35594,0.0],[-76.68228,21.35663,0.0],[-76.70934,21.36278,1.1912],[-76.72614,21.37328,0.0],[-76.73058,21.37495,0.0],[-76.73839,21.37055,0.0],[-76.74413,21.37027,0.0],[-76.80557,21.39008,0.8454],[-76.80728,21.37812,2.8646],[-76.81143,21.36807,2.6222],[-76.82543,21.34854,0.0],[-76.81859,21.34854,2.1335],[-76.82258,21.33657,2.5501],[-76.82502,21.32441,1.3358],[-76.82946,21.31411,1.946],[-76.8391,21.30756,0.0],[-76.83617,21.33246,2.0499],[-76.88728,21.30736,0.0],[-76.90119,21.33202,1.8776],[-76.89745,21.3461,1.1318],[-76.88744,21.35566,1.5607],[-76.87316,21.36107,3.5562],[-76.83772,21.36319,1.2184],[-76.82555,21.36664,1.6404],[-76.81762,21.3769,0.9492],[-76.81176,21.39753,0.0],[-76.83226,21.39753,0.1726],[-76.82543,21.4112,0.0],[-76.83845,21.4206,1.0563],[-76.89371,21.43163,1.0276],[-76.92992,21.44794,0.4657],[-76.94481,21.45775,0.0],[-76.94721,21.4558,1.1358],[-76.95537,21.44843,0.0],[-76.97127,21.44246,0.0],[-76.99974,21.42164,1.5304],[-77.01243,21.41616,0.0],[-77.03956,21.4098,0.0],[-77.05746,21.40903,2.7825],[-77.08069,21.41433,1.881],[-77.10048,21.41647,2.5386],[-77.11635,21.37069,11.8331],[-77.12467,21.36146,16.2233],[-77.13074,21.34849,13.2115],[-77.13159,21.33911,10.8459],[-77.12715,21.3227,17.168],[-77.12229,21.31684,19.4834],[-77.11779,21.31389,17.7265],[-77.0795,21.3141,16.0651],[-77.07369,21.31265,16.1702],[-77.07167,21.30916,15.357],[-77.07325,21.30552,17.0212],[-77.12971,21.25669,31.5443],[-77.1348,21.24493,30.7758],[-77.13552,21.23808,37.0591],[-77.13113,21.17351,54.7099],[-77.16756,21.11683,87.8156],[-77.17407,21.10954,92.5615],[-77.18699,21.09905,98.8166],[-77.19347,21.09711,93.307],[-77.22272,21.09122,87.1966],[-77.22774,21.08918,88.7881],[-77.23709,21.08365,84.0559],[-77.24895,21.07835,79.0],[-77.263,21.0599,78.6028],[-77.29184,20.99502,61.6827],[-77.30008,20.99115,53.9221],[-77.3083,20.9934,59.927],[-77.31427,20.99619,60.438],[-77.32429,21.00526,73.6315],[-77.329,21.00849,74.008],[-77.33365,21.00949,72.9325],[-77.33969,21.00657,69.5141],[-77.34631,21.00151,70.0685],[-77.35659,20.98066,66.5039],[-77.36664,20.99045,74.618],[-77.36979,20.99712,78.8411],[-77.36966,21.00024,78.8081],[-77.36897,21.00309,82.7183],[-77.36233,21.01252,86.7918],[-77.36153,21.0152,89.2054],[-77.36184,21.01748,89.3],[-77.3639,21.02011,91.544],[-77.36879,21.02159,84.2107],[-77.37724,21.02303,89.8592],[-77.39393,21.02422,75.3188],[-77.41142,21.02846,78.9941],[-77.41369,21.0305,77.9061],[-77.41452,21.03303,78.5623],[-77.41405,21.03897,83.6265],[-77.41491,21.04357,85.074],[-77.41692,21.04817,79.7718],[-77.4256,21.06065,78.0],[-77.42863,21.06381,84.2415],[-77.43286,21.0691,85.0461],[-77.43449,21.07169,86.369],[-77.43563,21.07417,87.364],[-77.43612,21.07626,88.5927],[-77.43767,21.0761,88.5927],[-77.44106,21.07391,93.7913],[-77.44793,21.06608,93.415],[-77.4624,21.05939,92.4287],[-77.46596,21.05696,93.2123],[-77.4679,21.05368,96.7486],[-77.46777,21.04786,94.6737],[-77.46707,21.04352,91.9204],[-77.46475,21.03595,89.9161],[-77.46483,21.03458,93.0158],[-77.46894,21.02585,85.8245],[-77.46999,21.01895,87.2266],[-77.47317,21.012,77.8269],[-77.47974,21.00409,74.483],[-77.49793,21.00068,74.0316],[-77.51136,20.99936,78.6429],[-77.52418,21.00022,69.2407],[-77.52679,21.00014,64.2011],[-77.5294,20.99691,64.0234],[-77.53219,20.98229,89.2088],[-77.54666,20.98027,91.7195],[-77.56691,20.97469,50.8333],[-77.57699,20.96944,58.2251],[-77.58231,20.95598,69.5491],[-77.58226,20.94335,53.007],[-77.58423,20.94027,51.3079],[-77.58735,20.93779,50.7568],[-77.59497,20.93864,51.378],[-77.60014,20.93978,68.337],[-77.61151,20.94048,84.2405],[-77.61701,20.94133,118.8372],[-77.62081,20.94443,87.5498],[-77.62588,20.95079,85.4669],[-77.62978,20.95699,100.1122],[-77.63528,20.96402,68.3957],[-77.64081,20.96624,72.9457],[-77.64743,20.96515,73.0034],[-77.65513,20.96014,71.094],[-77.65515,20.95218,64.5547],[-77.65352,20.94575,65.3458],[-77.65264,20.93939,62.8286],[-77.65332,20.93366,72.8796],[-77.65753,20.91748,56.9126],[-77.65854,20.90968,53.6562],[-77.65869,20.90265,50.5718],[-77.6581,20.89686,48.4323],[-77.66603,20.89152,46.283],[-77.68117,20.88573,74.78],[-77.74217,20.87467,65.9058],[-77.76579,20.87619,64.6714],[-77.81773,20.80731,21.1935],[-77.83111,20.72569,7.2946],[-77.83113,20.72556,7.2946],[-77.82213,20.72305,5.6271],[-77.79556,20.70588,0.0],[-77.77843,20.70075,0.9128],[-77.72932,20.69798,0.6726],[-77.71642,20.69888,0.7143],[-77.71272,20.70112,0.6104],[-77.70613,20.69741,0.6185],[-77.68668,20.69204,1.1597],[-77.67886,20.69115,0.0],[-77.64928,20.69257,0.7078],[-77.64171,20.69115,2.0937],[-77.635,20.68793,0.2806],[-77.62051,20.67756,0.0],[-77.61164,20.67845,0.0],[-77.57274,20.69798,1.788],[-77.52196,20.68032,0.0],[-77.50451,20.67756,1.3438],[-77.4934,20.67748,3.427],[-77.48672,20.67919,0.7821],[-77.4803,20.68179,2.9335],[-77.46972,20.68439,3.1839],[-77.46272,20.687,3.2149],[-77.45767,20.68989,0.0],[-77.45189,20.69001,1.3348],[-77.44237,20.68439,2.7346],[-77.42935,20.69843,3.7245],[-77.40319,20.70917,1.4934],[-77.37173,20.71613,0.9129],[-77.34313,20.71849,2.5491],[-77.33668,20.71634,1.2861],[-77.33654,20.71644,1.2861],[-77.33241,20.71923,1.8301],[-77.31685,20.72602,0.2486],[-77.31272,20.7284,3.9721],[-77.31078,20.7306,6.9687],[-77.30962,20.73297,5.776],[-77.30727,20.7393,8.4247],[-77.30367,20.74496,7.7358],[-77.29373,20.75574,13.5526],[-77.29135,20.76062,13.2077],[-77.28936,20.76641,15.1965],[-77.28812,20.77708,19.0539],[-77.28533,20.78163,20.7557],[-77.28169,20.78274,21.0547],[-77.27626,20.77703,16.7848],[-77.2722,20.76747,16.0758],[-77.2682,20.76754,14.8192],[-77.26182,20.77057,15.4895],[-77.24621,20.78103,19.9655],[-77.23864,20.78421,20.8862],[-77.23221,20.78421,18.8338],[-77.22836,20.77816,18.424],[-77.22588,20.77222,17.2159],[-77.20249,20.76615,14.8192],[-77.10436,20.76344,20.5067],[-77.06803,20.75062,19.9305],[-77.05346,20.74088,20.4115],[-77.04687,20.73876,21.6711],[-77.03806,20.73899,21.3281],[-77.02162,20.74395,20.7893],[-77.00808,20.7445,20.2356],[-76.99323,20.74646,23.7244],[-76.97096,20.75357,26.3023],[-76.92925,20.74654,27.8374],[-76.92122,20.7476,26.891],[-76.90122,20.74786,25.0311],[-76.85869,20.7431,25.4546],[-76.83611,20.74333,32.3389],[-76.8213,20.73977,31.3958],[-76.81202,20.73261,32.3573],[-76.79345,20.69527,20.2916],[-76.78288,20.69099,23.2699],[-76.76629,20.70429,24.6096],[-76.76218,20.70695,24.8595],[-76.7219,20.7223,34.1752],[-76.71239,20.72563,33.1796],[-76.70224,20.73207,32.5573],[-76.69947,20.73656,34.9099],[-76.69883,20.74264,36.0182],[-76.70255,20.75245,36.4829],[-76.70782,20.75953,37.0702],[-76.71872,20.77083,39.9213],[-76.72089,20.77641,40.5948],[-76.72113,20.78429,44.0172],[-76.71965,20.79728,50.4681],[-76.71678,20.8064,54.9613],[-76.70958,20.81961,61.5672],[-76.69131,20.84193,83.1435],[-76.68792,20.85152,84.4122],[-76.68635,20.8655,102.4115],[-76.6873,20.93614,114.1629],[-76.67467,20.97035,127.1535],[-76.66276,20.96531,125.1842],[-76.65281,20.95689,127.3342],[-76.64728,20.95332,133.8515],[-76.64281,20.95156,135.9713],[-76.63679,20.9511,146.7326],[-76.62974,20.95164,136.6577],[-76.61359,20.95518,160.8798],[-76.56083,20.97663,131.1578],[-76.5478,20.9798,113.7417],[-76.53842,20.9804,123.9061],[-76.53256,20.97833,118.5521],[-76.52762,20.97756,119.4942],[-76.52078,20.97841,138.0055],[-76.51724,20.98128,127.3065],[-76.51437,20.99621,87.3439],[-76.50246,21.0242,60.206],[-76.48357,21.04231,42.0548],[-76.45882,21.06065,36.0],[-76.45308,21.0636,36.0],[-76.43701,21.07636,47.3441],[-76.39259,21.10318,37.1546],[-76.37084,21.11171,32.7079],[-76.34391,21.1275,75.1519],[-76.33851,21.13406,64.7034],[-76.33686,21.14034,26.6749],[-76.3403,21.15824,25.4029],[-76.33996,21.16447,22.8226],[-76.33474,21.17106,18.9976],[-76.33084,21.17444,24.0456],[-76.32567,21.17757,19.6478],[-76.31808,21.19426,8.7386],[-76.3142,21.25067,4.2124],[-76.31355,21.2519,4.2124]]]}}