{"type": "Feature","bbox": [-77.8086,20.5035,-76.3005,21.4576],"geometry": {"type": "MultiPolygon","coordinates": [[[[-77.6312,20.5246,0.0],[-77.6321,20.528199999999998,0.2913],[-77.6351,20.5232,0.5799],[-77.6332,20.5199,0.3818],[-77.6387,20.516,0.4588],[-77.639,20.5121,0.714],[-77.6432,20.5076,0.3143],[-77.6424,20.5035,0.0],[-77.641,20.5065,0.5582],[-77.6363,20.5093,0.1512],[-77.6346,20.5137,0.0],[-77.631,20.5149,1.1599],[-77.6265,20.5132,0.0],[-77.6249,20.5143,0.0],[-77.6254,20.516,0.2369],[-77.6299,20.5177,0.398],[-77.6312,20.5246,0.0]]],
[[[-77.436,20.6196,1.793],[-77.4382,20.6204,0.0],[-77.4388,20.616,1.3729],[-77.4418,20.6165,1.4252],[-77.4388,20.614,0.5993],[-77.4351,20.6138,1.8061],[-77.4343,20.6176,1.2627],[-77.436,20.6196,1.793]]],
[[[-77.4437,20.6196,0.0],[-77.4446,20.6207,0.0],[-77.4454,20.6204,0.0],[-77.4432,20.6182,0.0],[-77.4437,20.6196,0.0]]],
[[[-77.446,20.629,0.0],[-77.449,20.6262,0.0],[-77.4471,20.621,0.0],[-77.4465,20.6215,0.0],[-77.4482,20.6262,0.0],[-77.446,20.629,0.0]]],
[[[-77.4432,20.6374,0.2751],[-77.4476,20.6382,0.0],[-77.4457,20.6368,1.7785],[-77.4454,20.6307,0.5787],[-77.4435,20.6354,0.3195],[-77.441,20.6343,1.0025],[-77.4385,20.6262,0.0],[-77.439,20.6226,0.0],[-77.4376,20.6224,0.0],[-77.4371,20.6251,0.0],[-77.4399,20.6335,0.7046],[-77.4432,20.6374,0.2751]]],
[[[-77.4515,20.6393,0.765],[-77.4526,20.6404,0.817],[-77.4535,20.6393,0.817],[-77.4521,20.6368,0.0],[-77.4501,20.6379,0.0],[-77.4515,20.6393,0.765]]],
[[[-77.4501,20.6435,0.0],[-77.4504,20.6454,1.0793],[-77.4515,20.6457,0.0],[-77.4521,20.6426,1.19],[-77.4501,20.6435,0.0]]],
[[[-77.6968,20.6726,0.316],[-77.6971,20.674,0.0],[-77.7018,20.6704,0.4476],[-77.7051,20.6712,0.7119],[-77.7082,20.6685,0.4596],[-77.7104,20.6688,0.4553],[-77.7096,20.671,0.0],[-77.7112,20.6688,0.4553],[-77.7104,20.6671,0.0],[-77.7021,20.6682,0.3671],[-77.6968,20.6726,0.316]]],
[[[-77.5774,20.9073,35.9857],[-77.599,20.9183,96.6265],[-77.6143,20.9237,66.6809],[-77.6288,20.9371,72.8128],[-77.637,20.942,75.6894],[-77.6481,20.9416,66.486],[-77.6536,20.935,80.1385],[-77.6551,20.9256,70.1983],[-77.6549,20.8961,47.89],[-77.6597,20.881,53.1492],[-77.6608,20.8721,52.2096],[-77.6595,20.8674,63.0968],[-77.6532,20.8634,55.1548],[-77.6553,20.8566,58.722],[-77.6583,20.8542,55.3832],[-77.6729,20.852,48.1322],[-77.7124,20.8547,52.0584],[-77.7417,20.8541,52.3297],[-77.755,20.851,43.2641],[-77.7605,20.848,42.0511],[-77.7896,20.8161,23.9137],[-77.8008,20.8,19.0678],[-77.8042,20.792,16.5422],[-77.8086,20.7536,12.7616],[-77.8084,20.706,0.0],[-77.8026,20.7062,0.2357],[-77.8026,20.7043,0.0],[-77.7935,20.7046,0.1631],[-77.7907,20.7015,0.0],[-77.7882,20.7021,0.5191],[-77.7904,20.7071,0.1007],[-77.7874,20.7038,0.5556],[-77.7793,20.7051,0.4709],[-77.7807,20.7026,0.7121],[-77.7835,20.7038,0.2801],[-77.7857,20.7018,1.663],[-77.7821,20.6974,0.2597],[-77.779,20.6999,0.3819],[-77.7771,20.6988,0.0],[-77.7774,20.7012,0.9909],[-77.7749,20.7007,0.3179],[-77.7751,20.704,0.7997],[-77.774,20.7043,0.7997],[-77.7732,20.6996,1.1449],[-77.7757,20.6993,0.0],[-77.7768,20.696,1.1375],[-77.7749,20.6935,0.0],[-77.7701,20.6921,0.8104],[-77.764,20.6924,0.8463],[-77.7626,20.6954,0.3301],[-77.7562,20.6926,0.4389],[-77.7543,20.6938,0.5002],[-77.7549,20.6971,1.2115],[-77.7532,20.6976,1.2115],[-77.7521,20.6963,0.0],[-77.7515,20.6976,0.415],[-77.7493,20.6985,0.5858],[-77.7504,20.6976,0.5858],[-77.7499,20.6938,0.5943],[-77.7465,20.6971,1.8111],[-77.7457,20.6949,1.1116],[-77.7487,20.6938,0.0],[-77.7485,20.6893,0.7627],[-77.7518,20.6901,0.4201],[-77.7521,20.6887,0.0],[-77.7462,20.6846,0.0],[-77.7435,20.6846,0.0],[-77.7421,20.6885,0.2336],[-77.7385,20.6876,1.3573],[-77.7251,20.6918,0.0],[-77.7254,20.694,0.0921],[-77.7221,20.6963,0.5117],[-77.719,20.6963,0.2238],[-77.7187,20.6976,1.0462],[-77.7176,20.6971,0.545],[-77.7187,20.6932,0.0],[-77.7124,20.6915,0.0],[-77.7112,20.6935,0.0],[-77.7076,20.694,0.6853],[-77.706,20.6907,0.0],[-77.6982,20.6871,0.7804],[-77.6954,20.6887,0.1693],[-77.6896,20.6865,0.0],[-77.6862,20.6874,0.1627],[-77.6846,20.6899,0.0],[-77.6799,20.6918,0.0],[-77.6804,20.6954,0.2518],[-77.6779,20.6915,0.0],[-77.6729,20.6924,0.2515],[-77.6726,20.6907,0.0],[-77.671,20.6907,0.4345],[-77.6693,20.6924,0.2143],[-77.669,20.6904,0.0],[-77.6624,20.6893,0.507],[-77.6612,20.6904,0.1975],[-77.6554,20.6865,0.0],[-77.6426,20.6863,0.0],[-77.6326,20.6882,0.0],[-77.6312,20.6901,0.5979],[-77.6301,20.689,0.5979],[-77.6218,20.6896,0.0],[-77.6185,20.6882,2.0003],[-77.6199,20.6824,0.0],[-77.6171,20.6835,0.0],[-77.6154,20.6768,0.0],[-77.6118,20.6762,0.9462],[-77.6132,20.6729,0.0],[-77.6151,20.6729,0.0],[-77.6146,20.6749,0.0],[-77.6162,20.6754,0.9115],[-77.6165,20.6724,0.0],[-77.6121,20.6712,0.0],[-77.6096,20.6743,0.0],[-77.6146,20.6818,0.854],[-77.6157,20.6876,2.1132],[-77.614,20.6904,0.4741],[-77.601,20.6929,1.0035],[-77.5926,20.6926,0.0],[-77.5879,20.6946,1.1164],[-77.5638,20.6938,0.7832],[-77.5632,20.696,0.4551],[-77.5621,20.6924,0.0],[-77.5532,20.6893,0.0],[-77.5396,20.6893,1.5687],[-77.5379,20.6876,0.4323],[-77.5193,20.6835,0.0],[-77.5062,20.6782,0.4538],[-77.4957,20.6712,0.0],[-77.4943,20.6724,0.0],[-77.4926,20.6693,0.0],[-77.4882,20.6712,1.4362],[-77.4885,20.6696,0.0],[-77.4835,20.671,0.9446],[-77.4735,20.6688,0.0],[-77.4651,20.6771,0.626],[-77.4651,20.681,3.653],[-77.4587,20.6849,1.3846],[-77.4504,20.6813,0.0],[-77.4449,20.6815,0.0],[-77.4362,20.689,0.7769],[-77.431,20.6915,0.0],[-77.4296,20.6951,0.0],[-77.4221,20.696,0.6236],[-77.4218,20.694,0.0],[-77.4196,20.6929,0.0],[-77.4154,20.6949,0.0],[-77.4107,20.694,0.0],[-77.4071,20.6985,0.0],[-77.4035,20.7007,1.7198],[-77.3985,20.7012,0.0],[-77.394,20.7057,1.0987],[-77.3901,20.7054,0.0],[-77.3882,20.7082,0.44],[-77.3835,20.7082,0.0],[-77.3824,20.7096,0.3084],[-77.3768,20.7085,0.0],[-77.3737,20.7115,0.0],[-77.3662,20.714,1.0734],[-77.3479,20.715699999999998,1.5593],[-77.3471,20.7143,0.3884],[-77.3332,20.7126,0.8832],[-77.3326,20.7101,0.0],[-77.3285,20.7107,0.4467],[-77.3174,20.7049,0.355],[-77.3076,20.6943,0.1782],[-77.2982,20.6807,0.0],[-77.2907,20.694,1.1619],[-77.2943,20.6857,0.0],[-77.2937,20.684,1.9907],[-77.2962,20.6821,1.1097],[-77.2796,20.6596,0.0],[-77.2763,20.6579,0.0],[-77.2743,20.6601,0.9249],[-77.276,20.6549,0.0],[-77.2715,20.6485,0.0],[-77.269,20.6476,2.585],[-77.2649,20.6426,0.6265],[-77.2624,20.6424,0.0],[-77.2613,20.6446,0.0],[-77.2635,20.6487,1.4109],[-77.2637,20.6537,2.6746],[-77.2613,20.6579,2.4135],[-77.2599,20.6579,0.0],[-77.2606,20.6614,0.1661],[-77.2581,20.6649,0.0],[-77.2427,20.672,0.4866],[-77.2388,20.6724,0.7366],[-77.2405,20.6665,2.8498],[-77.2386,20.6617,0.1612],[-77.2332,20.6582,0.0],[-77.2191,20.6723,4.3615],[-77.2176,20.6778,0.8426],[-77.2115,20.68,0.0],[-77.2075,20.6852,0.9216],[-77.2038,20.6932,1.1121],[-77.204,20.7233,11.2875],[-77.2023,20.7331,12.2003],[-77.1968,20.742,13.8646],[-77.1872,20.748,13.7981],[-77.1615,20.7527,16.9937],[-77.082,20.7545,20.0381],[-77.0754,20.7523,18.7873],[-77.0685,20.7473,18.1454],[-77.052,20.7257,14.3416],[-77.0441,20.7184,11.4849],[-77.0385,20.7155,10.2147],[-77.0322,20.7147,9.8195],[-77.0229,20.7166,10.1996],[-77.0079,20.7318,17.5045],[-77.0023,20.7334,18.1123],[-76.9815,20.7304,17.438],[-76.9756,20.7319,17.9194],[-76.9614,20.7412,22.3187],[-76.9524,20.7428,20.3586],[-76.9397,20.7418,27.4966],[-76.9156,20.735,21.0318],[-76.8982,20.7331,19.7841],[-76.8755,20.7325,25.2327],[-76.8478,20.7337,26.8317],[-76.8286,20.7369,28.0365],[-76.8193,20.7361,31.1852],[-76.8027,20.7286,27.9669],[-76.7894,20.7161,24.5512],[-76.7834,20.7056,27.2031],[-76.7769,20.6871,22.6842],[-76.767,20.673,22.9461],[-76.7604,20.669,23.3341],[-76.747,20.6668,23.3083],[-76.7436,20.668,22.4945],[-76.734,20.6911,27.8325],[-76.7254,20.7003,28.6687],[-76.7128,20.709,29.8396],[-76.6804,20.7239,36.6869],[-76.6761,20.7281,37.7817],[-76.6731,20.7349,39.3499],[-76.6748,20.7428,39.1241],[-76.6925,20.7644,46.6301],[-76.712,20.7957,51.6751],[-76.7145,20.8013,53.3376],[-76.7146,20.8087,56.0468],[-76.6847,20.8456,87.2979],[-76.6808,20.8568,94.4442],[-76.673,20.8953,134.3911],[-76.6796,20.9202,117.8308],[-76.6807,20.932,119.1533],[-76.6791,20.9474,120.4272],[-76.674,20.9598,117.5],[-76.6697,20.9655,125.5531],[-76.6601,20.9691,136.748],[-76.6496,20.9701,134.4787],[-76.639,20.9685,142.2547],[-76.6162,20.9605,161.7409],[-76.6062,20.9615,184.3125],[-76.5796,20.9712,135.5845],[-76.5585,20.9733,129.4919],[-76.5414,20.9717,118.2897],[-76.5302,20.9724,130.9082],[-76.5238,20.9769,136.3119],[-76.5168,20.9912,110.0536],[-76.5102,21.0248,56.6455],[-76.5066,21.0358,54.415],[-76.4915,21.0445,43.8731],[-76.476,21.0488,48.476],[-76.4656,21.0575,46.6864],[-76.4283,21.101,39.4512],[-76.4133,21.1159,29.6735],[-76.4096,21.1186,32.7556],[-76.3835,21.1174,27.4642],[-76.3652,21.1262,44.4791],[-76.3514,21.1376,32.3274],[-76.3431,21.1424,29.4122],[-76.3183,21.1459,22.8145],[-76.3084,21.1505,27.3242],[-76.306,21.1561,19.3954],[-76.307,21.1587,23.0014],[-76.3176,21.1633,21.0334],[-76.3177,21.1692,23.9465],[-76.3043,21.1891,8.796],[-76.3005,21.2404,1.8478],[-76.304,21.2432,0.0],[-76.3085,21.251,1.2792],[-76.3132,21.2538,0.0],[-76.316,21.2518,2.1645],[-76.3218,21.2521,0.0],[-76.3285,21.2571,0.0],[-76.3332,21.2551,0.0],[-76.339,21.2571,0.0],[-76.3424,21.2607,0.0],[-76.3465,21.2621,0.3997],[-76.3532,21.269,0.0],[-76.3565,21.2687,0.0],[-76.3596,21.271,0.0],[-76.3629,21.2704,1.6166],[-76.3657,21.2721,0.0],[-76.3679,21.2713,1.4383],[-76.3701,21.2732,0.2302],[-76.3735,21.2721,0.0],[-76.3801,21.2771,0.0],[-76.4079,21.2807,0.0],[-76.4293,21.2813,0.0],[-76.4365,21.2787,0.9127],[-76.4354,21.276,2.4685],[-76.4368,21.2754,2.1457],[-76.4437,21.2779,0.4908],[-76.4496,21.2771,0.6299],[-76.4649,21.284,0.0],[-76.471,21.2835,0.2365],[-76.4724,21.2799,0.2518],[-76.4757,21.2776,1.0081],[-76.4851,21.2804,2.2239],[-76.4954,21.2799,1.8313],[-76.4976,21.2824,0.0],[-76.5049,21.2835,0.6117],[-76.5079,21.2796,0.0804],[-76.5151,21.2807,0.0],[-76.5182,21.2779,2.0046],[-76.5201,21.2785,1.0007],[-76.5193,21.2732,0.8798],[-76.5224,21.2718,0.0],[-76.5218,21.2704,1.5091],[-76.5246,21.2668,1.3557],[-76.5346,21.2649,1.5774],[-76.5351,21.2582,0.0],[-76.5335,21.2501,0.0],[-76.5285,21.2471,0.5004],[-76.5243,21.2374,1.1188],[-76.5193,21.2396,0.7095],[-76.514,21.2374,3.1442],[-76.5129,21.2354,0.0],[-76.5113,21.2362,0.9205],[-76.5088,21.2329,0.6],[-76.5015,21.2332,1.8008],[-76.499,21.2318,0.0],[-76.4899,21.2329,0.596],[-76.4871,21.2299,0.0],[-76.4843,21.2301,0.0],[-76.4754,21.2235,0.0],[-76.4696,21.2246,0.5128],[-76.4685,21.2232,0.7376],[-76.4751,21.2207,0.0],[-76.4812,21.2207,0.0],[-76.4826,21.2179,0.2628],[-76.484,21.2185,0.269],[-76.496,21.2004,1.0969],[-76.5062,21.2032,0.2426],[-76.5079,21.2007,0.7413],[-76.5071,21.1974,0.8974],[-76.5085,21.191,0.0],[-76.5163,21.1837,0.8556],[-76.5176,21.1857,0.0],[-76.5199,21.1857,0.0],[-76.5204,21.1799,0.2059],[-76.5229,21.1782,0.8787],[-76.5265,21.1799,0.9525],[-76.5362,21.1804,1.8683],[-76.5418,21.1885,0.0],[-76.5507,21.1896,0.0],[-76.5537,21.1954,1.1262],[-76.5535,21.1985,1.6231],[-76.5443,21.2038,1.3181],[-76.5446,21.2071,2.2588],[-76.5424,21.2104,0.0],[-76.5454,21.2121,0.243],[-76.5454,21.2188,0.2977],[-76.5393,21.2229,0.7469],[-76.5362,21.2276,0.3634],[-76.5376,21.2288,0.9188],[-76.5368,21.2329,1.2263],[-76.5396,21.234,0.0],[-76.544,21.2282,0.0],[-76.5432,21.2232,0.0],[-76.5462,21.2199,0.2977],[-76.5465,21.2121,0.243],[-76.5499,21.2121,0.0],[-76.5512,21.2085,0.4615],[-76.5587,21.2062,0.4388],[-76.5604,21.2007,0.9906],[-76.5643,21.2007,1.0541],[-76.5632,21.2026,0.0],[-76.5674,21.2099,0.2815],[-76.5865,21.1938,0.0],[-76.5899,21.1943,1.3066],[-76.596,21.1976,0.2475],[-76.5993,21.2026,0.0],[-76.6049,21.204,2.8839],[-76.6051,21.2088,0.8397],[-76.6079,21.2107,0.5297],[-76.6054,21.2146,1.16],[-76.5971,21.2165,0.377],[-76.5915,21.2218,0.0],[-76.5874,21.2235,0.2524],[-76.5868,21.2274,0.4563],[-76.5904,21.2274,0.4002],[-76.5921,21.229,0.5201],[-76.5865,21.229,1.0061],[-76.5846,21.2265,0.0],[-76.5821,21.2263,0.0],[-76.5632,21.2271,1.0084],[-76.5551,21.224,0.6077],[-76.5535,21.2288,1.0706],[-76.546,21.2329,1.2712],[-76.5443,21.2385,0.7842],[-76.5346,21.2388,0.6075],[-76.5312,21.2426,0.662],[-76.5326,21.246,0.0],[-76.5357,21.246,1.9388],[-76.5382,21.2546,0.6114],[-76.5382,21.2665,0.6668],[-76.5349,21.2696,1.7543],[-76.5354,21.2746,0.9716],[-76.5421,21.2796,0.0],[-76.5474,21.2901,0.4064],[-76.5493,21.2899,0.1998],[-76.5515,21.2851,0.4846],[-76.5543,21.2854,0.6109],[-76.556,21.2824,0.0],[-76.5543,21.2801,0.4523],[-76.5551,21.2787,0.175],[-76.5499,21.274,1.0367],[-76.551,21.2687,0.4719],[-76.5551,21.266,0.125],[-76.554,21.2679,0.0],[-76.5563,21.2679,0.0],[-76.5532,21.271,0.8844],[-76.5535,21.2746,0.8213],[-76.5554,21.2779,0.3092],[-76.5626,21.2815,0.0],[-76.566,21.2804,0.4001],[-76.571,21.2813,0.1978],[-76.5726,21.2796,0.3532],[-76.574,21.2815,0.289],[-76.5768,21.2787,1.6948],[-76.5771,21.2824,0.0],[-76.584,21.2843,0.0],[-76.586,21.2876,0.0],[-76.6007,21.2865,0.6448],[-76.6082,21.294,0.0],[-76.6185,21.2974,0.0],[-76.6237,21.3013,0.5266],[-76.6288,21.3001,0.2997],[-76.6329,21.301,0.2696],[-76.6346,21.3029,0.3172],[-76.6454,21.3026,0.2579],[-76.6549,21.2982,0.2295],[-76.6612,21.2918,0.0],[-76.6607,21.2913,0.0],[-76.6582,21.2921,0.4733],[-76.6582,21.2862,0.0],[-76.6601,21.284,0.0669],[-76.6576,21.2821,0.201],[-76.659,21.281,0.0],[-76.6579,21.2785,0.0],[-76.6487,21.2779,0.2935],[-76.6429,21.2726,0.1012],[-76.6435,21.2699,0.0811],[-76.6421,21.2676,0.0],[-76.6451,21.2626,0.0903],[-76.6474,21.2624,0.0],[-76.6451,21.2663,0.0],[-76.6468,21.2674,0.1314],[-76.6501,21.2618,0.0603],[-76.6526,21.2624,0.1322],[-76.6524,21.261,0.0351],[-76.6496,21.2604,0.1579],[-76.6504,21.2579,0.0],[-76.6487,21.2546,0.0],[-76.6504,21.2529,0.0293],[-76.649,21.2488,0.148],[-76.6515,21.2479,0.0],[-76.6557,21.2512,0.0],[-76.661,21.2507,0.1965],[-76.6651,21.2551,0.0595],[-76.6679,21.2546,0.1582],[-76.6701,21.256,0.0743],[-76.6726,21.2599,0.1093],[-76.6732,21.259,0.1093],[-76.6721,21.2565,0.2263],[-76.6771,21.2596,0.0],[-76.6779,21.2571,0.1029],[-76.681,21.2565,0.4667],[-76.6826,21.2582,0.0],[-76.6824,21.2613,0.0],[-76.6746,21.261,0.2086],[-76.6776,21.2654,0.0581],[-76.6793,21.264,0.194],[-76.6818,21.2676,0.0],[-76.6843,21.2663,0.3578],[-76.686,21.2676,0.0],[-76.6879,21.2657,0.2342],[-76.6882,21.269,0.0],[-76.6988,21.2729,0.255],[-76.6999,21.2763,1.6099],[-76.7043,21.276,0.745],[-76.7051,21.2779,0.0],[-76.7074,21.278199999999998,0.7092],[-76.7082,21.2813,0.4681],[-76.7207,21.2765,0.4307],[-76.7235,21.2765,0.3224],[-76.7268,21.2813,0.171],[-76.7285,21.2801,0.5743],[-76.7326,21.2818,0.3975],[-76.7351,21.2801,0.9158],[-76.7385,21.2807,0.5869],[-76.734,21.2854,0.0],[-76.7357,21.2874,0.1682],[-76.734,21.289,0.0925],[-76.731,21.2899,0.0989],[-76.7293,21.2888,0.8063],[-76.7301,21.2829,0.0],[-76.7254,21.2851,0.0],[-76.7224,21.2918,0.3775],[-76.7243,21.2946,1.3696],[-76.7251,21.3037,0.1047],[-76.7268,21.3035,0.2187],[-76.7257,21.3021,0.1047],[-76.7276,21.3007,0.5747],[-76.7257,21.2949,1.3696],[-76.7288,21.2971,0.0],[-76.7321,21.2971,0.0],[-76.7329,21.3004,0.2913],[-76.7299,21.3021,0.0],[-76.7307,21.306,0.6203],[-76.7268,21.309,0.4035],[-76.7121,21.3065,0.0632],[-76.7099,21.3024,0.0],[-76.7138,21.301,0.0],[-76.7138,21.2979,0.0],[-76.7096,21.3001,0.3854],[-76.7068,21.3004,0.0712],[-76.706,21.299,0.0712],[-76.7054,21.3004,0.0],[-76.7026,21.3001,0.0],[-76.7021,21.3037,0.0],[-76.6999,21.3037,0.0761],[-76.6979,21.3007,0.0],[-76.6949,21.2996,0.3213],[-76.6896,21.304,0.5922],[-76.6899,21.3004,1.1881],[-76.6918,21.2985,0.4799],[-76.6996,21.2968,0.143],[-76.704,21.2904,0.0605],[-76.7087,21.2882,0.0],[-76.7024,21.2899,0.1257],[-76.7007,21.2888,0.1119],[-76.6924,21.2896,0.0],[-76.6915,21.2918,1.2445],[-76.6937,21.2938,0.4661],[-76.6932,21.2968,0.1144],[-76.6901,21.296,0.342],[-76.6882,21.2921,0.0834],[-76.686,21.2913,0.0],[-76.6862,21.2888,0.1153],[-76.6835,21.2876,0.0891],[-76.6815,21.2899,0.0],[-76.6843,21.2901,0.4121],[-76.6874,21.2929,0.0834],[-76.6876,21.2954,0.2844],[-76.6832,21.2943,0.1142],[-76.6832,21.2918,0.0],[-76.681,21.2904,0.0],[-76.6729,21.2915,0.0],[-76.6701,21.2943,0.4076],[-76.6657,21.2943,0.0],[-76.6468,21.3049,0.2752],[-76.644,21.3099,1.1765],[-76.6401,21.3107,0.5851],[-76.6404,21.3126,0.8223],[-76.6338,21.3154,0.0],[-76.6335,21.3176,0.8571],[-76.631,21.3174,0.0],[-76.6324,21.3182,0.5278],[-76.6335,21.3271,1.6454],[-76.6374,21.336,0.0],[-76.6418,21.3385,3.283],[-76.6568,21.356,0.6587],[-76.6604,21.3551,0.0],[-76.6593,21.3515,1.5668],[-76.6615,21.3504,2.5866],[-76.6846,21.3518,1.0996],[-76.7038,21.3626,0.2882],[-76.7099,21.3629,2.9369],[-76.7262,21.369,0.0],[-76.7315,21.3679,1.3164],[-76.7535,21.3713,0.4587],[-76.7782,21.3724,0.0],[-76.7838,21.3768,1.0576],[-76.7924,21.3799,1.6582],[-76.8032,21.3924,0.0],[-76.8051,21.3901,0.8454],[-76.8026,21.389,1.3312],[-76.8012,21.3851,1.3988],[-76.8035,21.3824,2.1651],[-76.8076,21.3813,0.7422],[-76.8121,21.3768,2.0538],[-76.8135,21.3729,0.6522],[-76.8071,21.3751,0.4482],[-76.8051,21.3732,0.9524],[-76.8082,21.3715,1.0648],[-76.8135,21.3715,1.5307],[-76.8151,21.3604,1.6804],[-76.821,21.3538,0.0],[-76.8213,21.3479,1.6676],[-76.8304,21.3388,0.852],[-76.8288,21.3293,1.9983],[-76.8332,21.3254,0.0],[-76.8337,21.3215,0.0],[-76.8299,21.3162,0.9557],[-76.8371,21.3101,1.774],[-76.8362,21.304,0.3199],[-76.8337,21.3007,0.0],[-76.8382,21.3035,3.3652],[-76.8399,21.3065,0.4747],[-76.8379,21.3082,0.0],[-76.8393,21.311,1.2602],[-76.8368,21.3121,0.4809],[-76.8351,21.3154,1.5701],[-76.8388,21.316,0.3094],[-76.8421,21.3118,0.9836],[-76.844,21.3118,1.1976],[-76.8426,21.316,1.5035],[-76.8382,21.3188,0.2816],[-76.839,21.3226,0.767],[-76.8362,21.3229,0.3552],[-76.8362,21.3251,0.934],[-76.8318,21.3285,0.2849],[-76.8351,21.3335,2.0499],[-76.8329,21.336,0.0],[-76.8346,21.3379,1.1543],[-76.8479,21.3296,0.4439],[-76.8485,21.3249,2.3124],[-76.8526,21.3196,1.0574],[-76.8579,21.3196,0.0],[-76.8615,21.3174,0.5422],[-76.8613,21.3118,1.5788],[-76.8724,21.2985,1.0116],[-76.8754,21.2976,0.0],[-76.8771,21.301,0.0],[-76.8807,21.3015,1.0836],[-76.8835,21.2993,1.2526],[-76.884,21.3026,0.0],[-76.894,21.2993,0.0],[-76.8971,21.3029,1.3664],[-76.8938,21.306,0.0],[-76.894,21.3082,0.0],[-76.8965,21.3099,0.7431],[-76.9026,21.309,0.0],[-76.9037,21.3104,1.6783],[-76.9029,21.3151,0.0],[-76.894,21.3168,0.0],[-76.8882,21.3218,0.6092],[-76.8821,21.3199,0.0],[-76.881,21.3215,0.411],[-76.8838,21.3229,0.0],[-76.884,21.3257,0.344],[-76.8782,21.329,0.0],[-76.8887,21.3296,1.0883],[-76.8863,21.3312,0.0],[-76.889,21.3349,0.4782],[-76.8957,21.3388,0.6076],[-76.8968,21.3424,0.3501],[-76.8954,21.3446,1.2757],[-76.8896,21.349,0.8155],[-76.8846,21.3499,0.0],[-76.8818,21.3521,1.4353],[-76.8568,21.3524,0.6289],[-76.856,21.3549,3.8121],[-76.8535,21.3549,0.3981],[-76.8568,21.3582,1.1686],[-76.8543,21.3596,0.8593],[-76.8465,21.3565,0.5274],[-76.8487,21.3551,1.2501],[-76.8521,21.3563,0.0],[-76.8529,21.3549,0.3981],[-76.8474,21.351,1.0452],[-76.8296,21.3485,0.3937],[-76.8193,21.3696,1.1197],[-76.8199,21.3726,1.1298],[-76.8135,21.3851,0.0],[-76.8129,21.3918,0.7047],[-76.8151,21.3946,0.6394],[-76.8229,21.396,0.0],[-76.8276,21.3876,0.6922],[-76.834,21.3896,1.1864],[-76.8368,21.3965,0.0],[-76.829,21.3999,0.7632],[-76.8329,21.406,0.0],[-76.8357,21.419,0.6021],[-76.839,21.4246,0.0],[-76.8415,21.4249,0.0],[-76.8463,21.4204,3.0696],[-76.8688,21.4218,2.8581],[-76.8904,21.4299,0.7121],[-76.9015,21.4382,0.0],[-76.9049,21.4382,0.8106],[-76.9082,21.4413,0.0],[-76.9232,21.4421,0.0],[-76.9321,21.4546,0.0],[-76.9371,21.4543,0.2184],[-76.9449,21.4576,0.0],[-76.9496,21.4574,0.0],[-76.9493,21.4549,0.0],[-76.9474,21.4554,0.0],[-76.9463,21.454,0.0],[-76.9488,21.4538,0.0],[-76.9485,21.4513,0.0],[-76.9515,21.4474,0.1021],[-76.9551,21.4463,0.0],[-76.9549,21.4413,0.3292],[-76.9571,21.4407,0.2981],[-76.9579,21.4368,1.4723],[-76.9662,21.4343,0.177],[-76.9668,21.4282,0.0],[-76.9732,21.4201,1.3752],[-76.9801,21.4199,1.9556],[-76.9826,21.4176,0.0],[-76.9837,21.4074,1.2919],[-76.9876,21.4188,0.2714],[-76.989,21.419,0.2714],[-76.9974,21.416,2.5012],[-77.0043,21.416,0.0],[-77.0057,21.414,2.5679],[-77.0099,21.4146,0.9965],[-77.0171,21.4107,0.0],[-77.024,21.4112,1.0523],[-77.0296,21.4096,1.0863],[-77.0315,21.4071,0.5383],[-77.0354,21.4082,1.215],[-77.0399,21.4057,1.0151],[-77.0429,21.4074,0.0],[-77.0401,21.411,0.0],[-77.0479,21.4114,2.2698],[-77.0623,21.4152,2.2438],[-77.076,21.4127,1.4281],[-77.0876,21.4043,2.7273],[-77.1049,21.3546,8.5026],[-77.1086,21.351,10.285],[-77.1247,21.3481,14.1351],[-77.1287,21.344,10.9203],[-77.1398,21.3143,17.9957],[-77.14,21.3081,16.7851],[-77.1334,21.305,18.6742],[-77.0806,21.3091,17.0908],[-77.0747,21.3068,17.2344],[-77.0712,21.3025,17.2297],[-77.0717,21.293,16.0334],[-77.0744,21.2865,18.9908],[-77.105,21.2537,29.2572],[-77.1211,21.2282,35.9626],[-77.1232,21.2225,38.0241],[-77.1269,21.2045,43.2805],[-77.1255,21.1697,56.7137],[-77.1271,21.1517,59.9457],[-77.1339,21.1331,69.4827],[-77.1407,21.1256,74.6541],[-77.1527,21.1178,94.7949],[-77.1625,21.1077,91.0528],[-77.1694,21.092,99.6767],[-77.1777,21.0839,104.7967],[-77.2137,21.082,92.4081],[-77.2364,21.0776,79.0],[-77.2545,21.0659,75.3992],[-77.2643,21.0567,72.372],[-77.2753,21.043,65.2362],[-77.2931,21.0024,61.23],[-77.3043,20.9887,58.5308],[-77.309,20.9641,52.9466],[-77.3145,20.9629,48.2891],[-77.3381,20.9762,65.1722],[-77.3486,20.9769,59.3891],[-77.3514,20.9746,62.3432],[-77.3526,20.9707,60.1312],[-77.3532,20.953,57.9781],[-77.356,20.9527,56.1434],[-77.3645,20.9561,64.5527],[-77.3724,20.9672,76.4818],[-77.3725,20.9725,74.8569],[-77.3683,20.9817,67.839],[-77.3603,20.9892,69.4615],[-77.3573,20.9945,72.0325],[-77.3559,21.0055,75.4185],[-77.3585,21.0107,78.5803],[-77.3625,21.0133,86.7918],[-77.371,21.015,84.6598],[-77.3927,21.0136,73.8516],[-77.3986,21.0138,70.3658],[-77.4043,21.0161,65.7744],[-77.4068,21.0193,67.4218],[-77.4109,21.0417,86.1856],[-77.4172,21.0507,78.0],[-77.4216,21.0548,78.0],[-77.4313,21.0594,83.761],[-77.4447,21.059,84.2804],[-77.4499,21.0512,87.8967],[-77.4573,21.027,83.2822],[-77.4695,21.0139,84.3829],[-77.4704,21.0085,78.5709],[-77.4655,20.993,73.4262],[-77.4654,20.9859,76.1524],[-77.4668,20.9788,73.4047],[-77.4702,20.9746,67.1797],[-77.4801,20.9739,70.0282],[-77.4963,20.9773,66.4555],[-77.5321,20.9975,64.6223],[-77.5405,20.998,63.4176],[-77.5404,20.9933,60.8782],[-77.5308,20.9775,170.3667],[-77.5286,20.9704,82.9968],[-77.5287,20.9618,66.0614],[-77.5342,20.9529,56.4997],[-77.5388,20.9491,60.5587],[-77.5638,20.9393,47.7928],[-77.57,20.9328,39.3671],[-77.5665,20.911,49.1589],[-77.5689,20.906,66.6791],[-77.5774,20.9073,35.9857]]],
[[[-76.4837,21.2263,0.7737],[-76.484,21.2287,0.7207],[-76.4854,21.2287,0.468],[-76.4887,21.2254,0.0],[-76.4843,21.2254,0.0],[-76.4837,21.2263,0.7737]]],
[[[-76.5268,21.2351,3.1682],[-76.5293,21.236,0.0],[-76.5315,21.234,0.8602],[-76.5279,21.2318,0.6429],[-76.5271,21.2282,0.0],[-76.5235,21.2254,0.0],[-76.5154,21.2254,0.0],[-76.5126,21.2276,0.8242],[-76.5126,21.229,0.0],[-76.5201,21.2315,1.7322],[-76.5196,21.2354,1.4656],[-76.5235,21.2349,1.3238],[-76.524,21.2326,2.1663],[-76.5268,21.2326,2.901],[-76.5268,21.2351,3.1682]]],
[[[-76.6571,21.2574,0.0759],[-76.6604,21.2582,0.0947],[-76.6612,21.2568,0.1099],[-76.661,21.2549,0.0],[-76.6582,21.2549,0.0],[-76.6579,21.2526,0.0],[-76.6568,21.2532,0.0],[-76.6571,21.2574,0.0759]]],
[[[-76.706,21.2954,0.2],[-76.7079,21.2965,0.0],[-76.709,21.2946,0.2354],[-76.7068,21.2929,0.0],[-76.706,21.2954,0.2]]],
[[[-76.8721,21.3251,0.0],[-76.8718,21.3276,0.0],[-76.8735,21.3251,0.507],[-76.8788,21.3232,0.0],[-76.879,21.3213,0.0],[-76.8768,21.3204,0.0],[-76.8754,21.3235,0.0],[-76.8721,21.3251,0.0]]],
[[[-76.8574,21.3424,0.0],[-76.8607,21.3429,0.5647],[-76.8649,21.3382,0.2893],[-76.8607,21.3388,1.8086],[-76.8574,21.3424,0.0]]],
[[[-76.6762,21.2821,0.0],[-76.6771,21.284,0.0],[-76.6804,21.2835,0.0],[-76.6779,21.2821,0.2286],[-76.6821,21.2807,0.0],[-76.6826,21.2826,0.0],[-76.6849,21.2799,0.0],[-76.6815,21.2799,0.0],[-76.6762,21.2821,0.0]]],
[[[-76.6854,21.2865,0.373],[-76.6868,21.2874,0.3421],[-76.6888,21.2857,0.152],[-76.6862,21.2851,0.0],[-76.6854,21.2865,0.373]]],
[[[-76.6651,21.2901,0.0],[-76.6646,21.2913,0.1387],[-76.6682,21.2904,1.1772],[-76.6687,21.2888,0.0],[-76.6676,21.2885,0.0],[-76.6651,21.2901,0.0]]],
[[[-76.5526,21.2946,0.0884],[-76.5549,21.2949,0.3062],[-76.5557,21.2879,0.0],[-76.5543,21.2893,0.909],[-76.5524,21.2882,0.0],[-76.5493,21.2907,0.1599],[-76.5526,21.2946,0.0884]]],
[[[-76.6996,21.301,0.0],[-76.7012,21.301,0.0],[-76.7001,21.2988,0.1001],[-76.699,21.2993,0.0],[-76.6996,21.301,0.0]]],
[[[-76.6349,21.309,0.0],[-76.6418,21.3093,0.0],[-76.6446,21.3071,0.0],[-76.6451,21.304,0.4372],[-76.6374,21.3043,0.0],[-76.6338,21.3074,0.1034],[-76.6349,21.309,0.0]]],
[[[-76.9701,21.4332,0.0],[-76.971,21.4343,0.0],[-76.9726,21.4321,1.3221],[-76.9713,21.4321,1.3221],[-76.9701,21.4332,0.0]]],
[[[-76.9621,21.4499,0.8743],[-76.9654,21.4499,0.4575],[-76.9665,21.4465,1.3204],[-76.9665,21.4371,1.4031],[-76.964,21.4354,1.728],[-76.9587,21.4371,1.3637],[-76.9582,21.4449,0.0],[-76.9571,21.4451,0.0],[-76.9576,21.4488,0.0],[-76.9621,21.4499,0.8743]]]]}
,"properties": {"GID_1": "CUB.10_1","GID_0": "CUB","country": "Cuba","province": "LasTunas","VARNAME_1": "NA","NL_NAME_1": "NA","TYPE_1": "Provincia","ENGTYPE_1": "Province","CC_1": "NA","HASC_1": "CU.LT","ISO_1": "CU-10","name": "Las_Tunas.province","area_km2": 6568.977,"hist_schema_id": "Elevation0-9000","hist_area_km2": {"0": 1501.343,"25": 1870.034,"50": 1370.457,"75": 976.605,"100": 615.808,"125": 179.636,"150": 46.105,"175": 8.731,"200": 0.257}}}