{"type":"Feature","properties":{"GID_2":"CUB.12.11_1","GID_0":"CUB","country":"Cuba","GID_1":"CUB.12_1","province":"Mayabeque","NL_NAME_1":"NA","county":"SantaCruzdelNorte","VARNAME_2":"NA","NL_NAME_2":"NA","TYPE_2":"Municipio","ENGTYPE_2":"Municipality","CC_2":"NA","HASC_2":"CU.LH.SC","name":"Santa_Cruzdel_Norte.county"},
"geometry":{"type": "MultiPolygon","coordinates": [[[[-82.0633,23.1037,56.9049],[-82.0432,23.1229,37.397],[-81.9947,23.1075,50.1185],[-81.9484,23.1066,114.6221],[-81.925,23.0998,105.4885],[-81.891,23.0973,81.9273],[-81.875,23.0654,119.1177],[-81.8465,23.0337,113.3657],[-81.7513,23.0327,211.0851],[-81.7405,23.0194,255.2742],[-81.7194,22.9803,66.0814],[-81.7144,22.9754,72.6613],[-81.7048,22.977,49.1568],[-81.6987,22.9809,49.0236],[-81.6923,22.9881,68.6139],[-81.6881,22.9976,38.2148],[-81.6885,23.0164,117.2469],[-81.6921,23.0235,147.6134],[-81.6981,23.0299,145.9554],[-81.6988,23.0334,145.6595],[-81.6948,23.0373,136.2077],[-81.6671,23.0371,167.4328],[-81.661,23.0402,185.5589],[-81.6558,23.0461,78.3094],[-81.6519,23.0544,91.3667],[-81.6513,23.0689,70.0511],[-81.6601,23.1045,88.08],[-81.6612,23.1465,1.8834],[-81.6726,23.146,1.825],[-81.6771,23.1418,35.5205],[-81.6787,23.1465,0.0],[-81.6865,23.1476,4.2392],[-81.6874,23.1504,15.4772],[-81.6913,23.149,19.6114],[-81.711,23.1549,3.271],[-81.7149,23.1546,4.5735],[-81.7199,23.1518,4.7095],[-81.7232,23.1468,34.5351],[-81.7276,23.1449,5.5516],[-81.736,23.1474,0.0],[-81.7521,23.1479,2.8486],[-81.7676,23.146,8.9757],[-81.771,23.1468,7.997],[-81.7801,23.1435,23.67],[-81.781,23.1457,0.0],[-81.786,23.1474,0.0],[-81.7985,23.1474,9.4297],[-81.8132,23.1501,4.7985],[-81.821,23.1493,1.9293],[-81.8243,23.151,0.0],[-81.8365,23.1499,4.9447],[-81.8424,23.1515,1.3191],[-81.8601,23.1462,2.7775],[-81.8618,23.1465,3.1063],[-81.8607,23.149,2.8771],[-81.8626,23.1513,1.2013],[-81.8746,23.1554,2.61],[-81.8868,23.1537,4.9286],[-81.9143,23.1582,1.6753],[-81.9171,23.1568,4.8605],[-81.9165,23.1579,0.0],[-81.9185,23.159,0.0],[-81.9212,23.1582,0.0],[-81.9204,23.1554,1.5774],[-81.9215,23.1543,1.5774],[-81.9221,23.1571,1.4113],[-81.924,23.1582,2.5325],[-81.9426,23.1588,0.0],[-81.9507,23.1629,0.2929],[-81.9593,23.1626,2.4091],[-81.9668,23.1651,1.7091],[-81.976,23.1646,2.8302],[-81.9851,23.1688,0.0],[-81.9879,23.1749,2.212],[-81.9924,23.1768,11.9496],[-81.9996,23.184,0.0],[-82.0085,23.1835,0.0],[-82.0074,23.1749,1.2693],[-82.0107,23.1785,7.0781],[-82.0101,23.1818,0.0],[-82.0129,23.1843,0.0],[-82.0254,23.1876,0.0],[-82.0354,23.1868,0.0],[-82.0362,23.1854,3.071],[-82.0435,23.1849,1.0656],[-82.0529,23.1812,1.8989],[-82.069,23.1832,1.6134],[-82.0824,23.179,1.7725],[-82.0819,23.1494,34.0976],[-82.0633,23.1037,56.9049]]]]}}