{"type":"Feature","properties":{"GID_1":"TTO.1_1","GID_0":"TTO","country":"TrinidadandTobago","province":"Arima","VARNAME_1":"NA","NL_NAME_1":"NA","TYPE_1":"Borough","ENGTYPE_1":"Borough","CC_1":"NA","HASC_1":"TT.AR","ISO_1":"TT-ARI","name":"Arima.province"},
"geometry":{"type": "MultiPolygon","coordinates": [[[[-61.2713,10.6062,28.9738],[-61.2632,10.6083,29.6613],[-61.2626,10.6105,30.7554],[-61.2626,10.6132,31.8142],[-61.2658,10.6159,33.2253],[-61.2679,10.6208,38.4402],[-61.2678,10.631,49.8874],[-61.2694,10.6342,51.4249],[-61.2683,10.6444,67.4884],[-61.286,10.6553,99.4423],[-61.2897,10.6553,127.3683],[-61.2919,10.6531,132.6261],[-61.2887,10.6434,64.4832],[-61.2914,10.6413,57.395],[-61.2898,10.6364,49.1812],[-61.2926,10.6321,48.2568],[-61.2899,10.6262,37.6825],[-61.2905,10.623,37.18],[-61.2921,10.6176,33.0823],[-61.2969,10.6171,31.982],[-61.2975,10.6144,30.7971],[-61.2879,10.6079,27.9839],[-61.2761,10.6051,25.3529],[-61.2713,10.6062,28.9738]]]]}}