{"type":"Feature","properties":{"ISO3166-1-Alpha-3":"TTO","country":"Trinidad and Tobago","fill":"#F0F","id":"53","name":"Arima"},
"geometry":{"type": "Polygon","coordinates": [[[-61.27452,10.60736,27.6598],[-61.26979,10.6085,30.1208],[-61.26677,10.60974,30.3909],[-61.26522,10.61362,29.6751],[-61.26548,10.61966,35.6388],[-61.26985,10.63372,46.8896],[-61.27127,10.64064,60.455],[-61.28543,10.65398,99.4423],[-61.28656,10.64504,81.8436],[-61.28641,10.64261,71.7985],[-61.28556,10.641,66.9683],[-61.28525,10.63976,58.0084],[-61.28581,10.63858,58.0811],[-61.28672,10.63754,58.0811],[-61.28752,10.63604,49.5213],[-61.28788,10.63444,48.919],[-61.28798,10.63258,43.2246],[-61.28773,10.63072,42.3021],[-61.28757,10.62891,41.6744],[-61.28868,10.62328,41.1366],[-61.29028,10.62111,36.459],[-61.29406,10.6176,31.5386],[-61.29522,10.61579,29.0102],[-61.29556,10.61387,26.5902],[-61.29499,10.61212,29.6614],[-61.29253,10.61052,30.0164],[-61.28333,10.60757,28.2276],[-61.27452,10.60736,27.6598]]]}}