{"type":"Feature","properties":{"GID_3":"HTI.3.3.2_1","GID_0":"HTI","country":"Haiti","GID_1":"HTI.3_1","province":"L'Artibonite","NL_NAME_1":"NA","GID_2":"HTI.3.3_1","county":"lesGonaïves","NL_NAME_2":"NA","city":"Gonaïves","VARNAME_3":"NA","NL_NAME_3":"NA","TYPE_3":"Commune","ENGTYPE_3":"Commune","CC_3":"NA","HASC_3":"NA","name":"Gonaïves.city"},
"geometry":{"type": "MultiPolygon","coordinates": [[[[-72.5047,19.3373,600.2713],[-72.4965,19.337,708.8163],[-72.4933,19.3533,593.4191],[-72.496,19.3598,431.5237],[-72.4953,19.3696,440.7147],[-72.486,19.3684,569.4365],[-72.4823,19.3746,650.9388],[-72.4773,19.3776,597.4786],[-72.4766,19.3793,606.591],[-72.4785,19.3821,612.2684],[-72.4774,19.3832,612.2684],[-72.4676,19.3838,741.0642],[-72.4656,19.3894,785.7374],[-72.4627,19.392,1097.0793],[-72.4522,19.3953,1400.9664],[-72.4539,19.4006,1429.8468],[-72.4577,19.4023,1424.8074],[-72.4682,19.422,926.048],[-72.478,19.4288,945.3225],[-72.4816,19.4286,1029.0391],[-72.4971,19.4414,838.2646],[-72.5014,19.4603,885.5482],[-72.5056,19.4617,911.0597],[-72.5097,19.4603,947.6153],[-72.5142,19.4641,1015.2012],[-72.5186,19.4643,843.641],[-72.5204,19.4662,834.1757],[-72.5239,19.4717,924.8546],[-72.5264,19.4838,845.7032],[-72.5351,19.4861,890.4398],[-72.5374,19.4913,852.2255],[-72.5408,19.4925,839.4939],[-72.5505,19.4919,682.6853],[-72.5577,19.4941,452.4821],[-72.5592,19.4911,545.6492],[-72.5679,19.492,474.8485],[-72.5759,19.4984,453.5527],[-72.5811,19.5057,338.1041],[-72.5821,19.5111,320.8779],[-72.591,19.5178,242.4553],[-72.5941,19.5286,205.7105],[-72.5837,19.5295,155.5801],[-72.5827,19.5406,188.0635],[-72.5785,19.5451,196.9045],[-72.5749,19.5559,393.7796],[-72.5725,19.5569,446.3768],[-72.5709,19.5611,473.6532],[-72.5562,19.5733,808.4697],[-72.5474,19.5693,794.4011],[-72.5414,19.5782,717.1821],[-72.5359,19.5825,868.4775],[-72.543,19.5903,928.0774],[-72.5414,19.5926,890.0908],[-72.5415,19.5987,1001.8698],[-72.5651,19.6264,887.3674],[-72.5691,19.6338,823.2014],[-72.5708,19.6441,852.6498],[-72.6057,19.6495,852.7325],[-72.6202,19.6336,784.35],[-72.6176,19.6293,626.0518],[-72.6292,19.6253,515.0029],[-72.6357,19.6196,298.4865],[-72.6458,19.6158,273.2912],[-72.6481,19.6133,283.6603],[-72.6542,19.6119,283.9406],[-72.6575,19.6062,225.585],[-72.6563,19.6015,190.3941],[-72.6722,19.6004,268.2069],[-72.6822,19.5966,233.8199],[-72.6874,19.6035,295.1276],[-72.6872,19.6059,287.1674],[-72.7026,19.6036,335.6148],[-72.7087,19.6062,317.5542],[-72.7095,19.6088,321.8715],[-72.7133,19.611,338.9279],[-72.7149,19.6104,364.7114],[-72.7147,19.608,392.0497],[-72.7179,19.6033,495.8782],[-72.7269,19.6023,649.163],[-72.7292,19.5964,724.6517],[-72.7284,19.5947,722.3614],[-72.7231,19.59,688.0864],[-72.72,19.5896,663.4185],[-72.7186,19.5855,578.2858],[-72.7216,19.5812,524.5773],[-72.7308,19.5765,779.4178],[-72.7346,19.5723,755.1506],[-72.7443,19.5752,843.4407],[-72.7438,19.5717,812.6544],[-72.7399,19.5674,715.3378],[-72.7394,19.561,763.4703],[-72.7423,19.5592,860.3553],[-72.748,19.5589,850.3301],[-72.7458,19.5509,738.8672],[-72.7426,19.5491,694.8409],[-72.7384,19.542,563.684],[-72.7306,19.5432,420.1854],[-72.7281,19.5363,429.9767],[-72.7304,19.534,408.5638],[-72.7299,19.5314,363.113],[-72.7409,19.5217,691.7905],[-72.7506,19.523,660.2862],[-72.7626,19.514,756.6864],[-72.7658,19.5132,630.6661],[-72.7781,19.52,530.3243],[-72.7829,19.5281,458.492],[-72.7854,19.5214,377.2988],[-72.7907,19.5186,197.1421],[-72.7932,19.5109,84.6586],[-72.8051,19.501,1.6634],[-72.7799,19.4721,9.3516],[-72.7712,19.4535,0.0],[-72.7621,19.4521,47.3872],[-72.759,19.4479,0.0],[-72.7446,19.4448,0.0],[-72.7395,19.447,0.0],[-72.7318,19.4473,0.0243],[-72.731,19.4534,2.6394],[-72.7265,19.4546,0.0],[-72.7243,19.4576,1.3732],[-72.7185,19.4551,0.2808],[-72.7204,19.4532,0.0],[-72.7221,19.4557,0.0],[-72.7226,19.4521,0.057],[-72.7174,19.4524,13.6765],[-72.716,19.4494,0.0],[-72.7143,19.4493,0.0],[-72.7092,19.454,0.0],[-72.7129,19.4529,0.1166],[-72.7139,19.4546,10.1534],[-72.7057,19.4584,0.137],[-72.6976,19.4574,0.4421],[-72.6974,19.4555,0.2938],[-72.7033,19.455,0.0],[-72.697,19.4518,0.0],[-72.6988,19.4471,0.0],[-72.6982,19.4427,0.0207],[-72.7004,19.4415,-0.092],[-72.7004,19.4278,0.2599],[-72.6946,19.4254,0.0459],[-72.689,19.4194,0.0],[-72.6893,19.4166,0.0],[-72.6857,19.4159,0.1203],[-72.6821,19.4119,0.3091],[-72.6829,19.4065,0.2167],[-72.6854,19.4033,0.057],[-72.6777,19.3938,0.4095],[-72.6711,19.3923,0.547],[-72.6559,19.4032,46.1731],[-72.6527,19.4035,204.1889],[-72.6441,19.3965,219.9763],[-72.6394,19.397,252.9411],[-72.6353,19.393,273.4341],[-72.6287,19.392,268.4042],[-72.6255,19.3955,143.805],[-72.6236,19.4017,77.6332],[-72.6199,19.4046,10.8477],[-72.6154,19.4019,12.5152],[-72.6063,19.4047,20.2446],[-72.5819,19.3914,58.5965],[-72.5723,19.3922,90.6161],[-72.5642,19.3948,164.1404],[-72.5614,19.3904,180.5925],[-72.5578,19.3886,108.0418],[-72.549,19.3892,150.2906],[-72.5392,19.3571,352.1588],[-72.5342,19.3548,546.0782],[-72.5238,19.3446,595.1578],[-72.5199,19.3436,514.9064],[-72.5105,19.3366,625.7437],[-72.5047,19.3373,600.2713]]]]}}