{"type": "Feature","bbox": [-72.1537,18.3487,-71.875,18.6213],"geometry": {"type": "MultiPolygon","coordinates": [[[[-72.0145,18.3972,1268.3245],[-72.011,18.3954,1143.8965],[-71.9931,18.3925,1381.8967],[-71.9877,18.3861,1468.6416],[-71.9748,18.3861,1623.9923],[-71.9732,18.3767,1953.0739],[-71.9662,18.3707,2243.873],[-71.9673,18.3606,2564.9353],[-71.9651,18.3562,2365.0425],[-71.9653,18.3524,2305.3765],[-71.9599,18.3498,2351.9348],[-71.9508,18.351,2335.4612],[-71.9485,18.3487,2248.1108],[-71.9453,18.3509,2260.175],[-71.9354,18.349,2114.7378],[-71.9329,18.3502,2029.5492],[-71.927,18.3583,2161.5947],[-71.9324,18.371,2240.5872],[-71.9329,18.3797,2169.1553],[-71.9391,18.3841,2097.1619],[-71.9383,18.3885,1829.1876],[-71.9289,18.3985,1192.9742],[-71.9329,18.4092,904.1633],[-71.9319,18.4163,822.2095],[-71.928,18.4204,778.1082],[-71.9219,18.4218,695.0389],[-71.9178,18.4247,619.8839],[-71.9033,18.4405,525.2479],[-71.897,18.4413,590.2057],[-71.8934,18.4437,442.1481],[-71.8825,18.4444,381.6789],[-71.8807,18.4473,363.2527],[-71.8783,18.4466,447.7995],[-71.8757,18.4492,416.8575],[-71.8992,18.459,616.6696],[-71.9084,18.4861,346.6592],[-71.8807,18.4902,21.9058],[-71.8808,18.4917,20.0],[-71.875,18.4928,20.0],[-71.8758,18.5056,44.9188],[-71.9504,18.5813,20.0],[-71.9607,18.6054,39.88],[-71.9627,18.6073,29.5229],[-71.9709,18.6073,63.1193],[-71.9756,18.6127,109.9893],[-71.9776,18.6127,96.2346],[-71.9815,18.6213,316.6309],[-71.9862,18.6193,138.9217],[-71.993,18.6202,148.0094],[-72.0384,18.5891,20.0],[-72.0479,18.5943,20.0],[-72.049,18.6014,20.0],[-72.0474,18.6041,20.0],[-72.0518,18.6052,20.0],[-72.0606,18.6122,20.0],[-72.0699,18.6121,22.878],[-72.0711,18.62,20.4275],[-72.0746,18.6209,23.4354],[-72.0875,18.6188,26.6724],[-72.0934,18.6163,28.3128],[-72.0935,18.6108,29.0487],[-72.0833,18.6124,27.299],[-72.0818,18.6049,29.7343],[-72.087,18.6009,32.2794],[-72.0895,18.5969,33.1969],[-72.0858,18.5906,31.2849],[-72.0907,18.5816,41.381],[-72.0894,18.5759,41.2988],[-72.0919,18.5719,47.1486],[-72.0909,18.5675,51.0362],[-72.0931,18.5628,51.003],[-72.1036,18.5698,43.7853],[-72.1071,18.5686,43.2274],[-72.1182,18.5699,49.2957],[-72.1177,18.5734,47.2998],[-72.1234,18.5724,53.1874],[-72.1238,18.5711,54.2337],[-72.1313,18.5719,58.5821],[-72.1294,18.5861,43.8034],[-72.1419,18.5878,44.5916],[-72.1444,18.5626,66.1803],[-72.1511,18.5641,62.4411],[-72.1485,18.5619,65.3494],[-72.1503,18.5577,68.5691],[-72.1537,18.555,72.2128],[-72.1531,18.5414,83.6606],[-72.141,18.5405,99.2301],[-72.142,18.5248,120.97],[-72.1306,18.5193,156.5711],[-72.1309,18.5135,191.8973],[-72.1206,18.505,206.465],[-72.1199,18.5003,220.9239],[-72.1163,18.4961,260.5459],[-72.1163,18.4928,266.1982],[-72.1207,18.4871,365.41],[-72.1198,18.4788,404.4069],[-72.121,18.4739,401.8304],[-72.1121,18.4565,456.7073],[-72.112,18.4506,440.321],[-72.1031,18.4462,459.8574],[-72.1017,18.4422,500.8527],[-72.098,18.4423,477.4595],[-72.0954,18.4405,540.6989],[-72.0956,18.437,545.1504],[-72.0929,18.4345,524.2491],[-72.0839,18.4393,560.4878],[-72.0772,18.4387,602.335],[-72.0729,18.433,615.5483],[-72.064,18.43,672.1326],[-72.0652,18.4225,716.4312],[-72.0512,18.4106,836.0699],[-72.05,18.4018,838.883],[-72.0419,18.392,935.2692],[-72.0344,18.3981,978.7187],[-72.0181,18.3939,1062.0312],[-72.0145,18.3972,1268.3245]]]]}
,"properties": {"GID_3": "HTI.8.1.4_1","GID_0": "HTI","country": "Haiti","GID_1": "HTI.8_1","province": "Ouest","NL_NAME_1": "NA","GID_2": "HTI.8.1_1","county": "Croix-des-Bouquets","NL_NAME_2": "NA","city": "Ganthier","VARNAME_3": "NA","NL_NAME_3": "NA","TYPE_3": "Commune","ENGTYPE_3": "Commune","CC_3": "NA","HASC_3": "NA","name": "Ganthier.city","area_km2": 506.589,"hist_schema_id": "Elevation0-9000","hist_area_km2": {"25": 134.6675,"50": 32.5234,"75": 26.2735,"100": 18.4547,"125": 17.5704,"150": 15.4601,"175": 12.3847,"200": 9.2688,"225": 7.5398,"250": 5.5293,"275": 4.4235,"300": 3.8606,"325": 3.9211,"350": 4.1222,"375": 3.9413,"400": 2.9359,"425": 2.7952,"450": 3.4186,"475": 3.3986,"500": 3.0567,"525": 3.7807,"550": 4.1427,"575": 3.9819,"600": 5.068,"625": 6.0535,"650": 5.9932,"675": 5.41,"700": 5.4905,"725": 4.7263,"750": 4.6459,"775": 4.6861,"800": 4.9677,"825": 4.0024,"850": 3.3588,"875": 3.4191,"900": 3.9421,"925": 3.5399,"950": 3.7209,"975": 3.7813,"1000": 3.8416,"1025": 4.6864,"1050": 4.0829,"1075": 4.1634,"1100": 4.4249,"1125": 4.4049,"1150": 4.1233,"1175": 3.7813,"1200": 4.2037,"1225": 4.3848,"1250": 4.767,"1275": 4.6664,"1300": 3.9624,"1325": 4.6665,"1350": 3.7413,"1375": 2.7157,"1400": 2.4945,"1425": 2.414,"1450": 2.2531,"1475": 2.1123,"1500": 1.7703,"1525": 1.3479,"1550": 1.4284,"1575": 1.368,"1600": 1.4485,"1625": 1.6899,"1650": 1.5491,"1675": 1.368,"1700": 1.0864,"1725": 0.9858,"1750": 0.4225,"1775": 0.2414,"1800": 0.1811,"1825": 0.4225,"1850": 0.1811,"1875": 0.2213,"1900": 0.2817,"1925": 0.2817,"1950": 0.2414,"1975": 0.5231,"2000": 0.342,"2025": 0.5433,"2050": 0.2616,"2075": 0.3622,"2100": 0.2817,"2125": 0.4024,"2150": 0.6238,"2175": 0.7445,"2200": 0.8854,"2225": 0.825,"2250": 0.8652,"2275": 1.2476,"2300": 1.1268,"2325": 0.8049,"2350": 0.9659,"2375": 0.6842,"2400": 0.5836,"2425": 0.4025,"2450": 0.3823,"2475": 0.4427,"2500": 0.2616,"2525": 0.1207,"2550": 0.1207,"2575": 0.1207}}}