{"type":"Feature","properties":{"GID_1":"CYM.4_1","GID_0":"CYM","country":"CaymanIslands","province":"GeorgeTown","VARNAME_1":"NA","NL_NAME_1":"NA","TYPE_1":"District","ENGTYPE_1":"District","CC_1":"NA","HASC_1":"KY.GT","ISO_1":"NA","name":"George_Town.province"},
"geometry":{"type": "MultiPolygon","coordinates": [[[[-81.3829,19.3267,2.7793],[-81.3868,19.311,3.0459],[-81.386,19.3074,0.5096],[-81.3835,19.3054,3.6051],[-81.3824,19.2979,6.2742],[-81.3932,19.2824,0.0],[-81.3913,19.2754,2.7405],[-81.3918,19.2699,0.8739],[-81.3901,19.2682,0.6692],[-81.381,19.2651,0.0],[-81.3665,19.2715,0.9242],[-81.3615,19.2754,0.0],[-81.3463,19.2799,1.0051],[-81.3415,19.279,2.8291],[-81.3412,19.2751,0.0],[-81.3385,19.2715,0.0],[-81.3335,19.2738,4.2345],[-81.3307,19.2718,0.0],[-81.3105,19.2718,1.4338],[-81.3167,19.296,1.9688],[-81.3215,19.2935,1.8721],[-81.3254,19.2957,0.7649],[-81.3354,19.2951,2.5334],[-81.3376,19.2979,0.4023],[-81.3404,19.2943,0.5075],[-81.3468,19.2921,0.0],[-81.3474,19.2946,0.0],[-81.3493,19.2946,1.8407],[-81.3485,19.2971,0.494],[-81.3521,19.3007,0.6212],[-81.359,19.3026,2.4407],[-81.3582,19.3065,3.5855],[-81.3615,19.3124,0.0],[-81.3668,19.3146,3.5385],[-81.3646,19.3165,0.0],[-81.3643,19.3201,1.2611],[-81.3665,19.3229,0.7306],[-81.3693,19.3221,1.9341],[-81.3685,19.3268,2.8968],[-81.3829,19.3267,2.7793]]]]}}