{"type": "Feature","id": "1433","bbox": [-61.33457,15.31666,-61.24926,15.50991],"geometry": {"type": "Polygon","coordinates": [[[-61.25406,15.33266,95.6223],[-61.25406,15.33267,95.6223],[-61.25552,15.36457,88.7062],[-61.24926,15.40107,101.2244],[-61.25422,15.40298,12.7607],[-61.25837,15.40632,112.4408],[-61.26293,15.4079,121.0689],[-61.25601,15.43594,0.0],[-61.25768,15.4726,174.2224],[-61.26716,15.5078,214.1348],[-61.26863,15.50991,134.4923],[-61.27414,15.50314,86.7142],[-61.27576,15.49944,34.4175],[-61.27538,15.49802,38.0291],[-61.27465,15.47771,230.0607],[-61.27491,15.47577,220.883],[-61.2753,15.47562,220.883],[-61.27592,15.47515,251.6035],[-61.27954,15.47156,275.4448],[-61.28057,15.47074,275.4448],[-61.28114,15.47043,224.0502],[-61.28168,15.47027,214.3157],[-61.28215,15.47019,214.3157],[-61.28377,15.47017,213.4652],[-61.28411,15.47009,213.4652],[-61.2845,15.46993,213.4652],[-61.28703,15.46784,253.3991],[-61.28873,15.46603,273.0633],[-61.28959,15.46531,267.7397],[-61.29028,15.46492,267.7397],[-61.29062,15.46492,267.7397],[-61.29129,15.46505,299.5493],[-61.29168,15.46508,299.5493],[-61.2924,15.46492,299.5493],[-61.29269,15.46487,299.5493],[-61.29302,15.465,353.1689],[-61.29346,15.46515,353.1689],[-61.29385,15.46539,353.1689],[-61.29842,15.46229,407.1224],[-61.31736,15.44487,581.8203],[-61.33457,15.40495,420.8801],[-61.32744,15.38777,630.6536],[-61.32757,15.34552,871.9272],[-61.31124,15.33519,706.882],[-61.30791,15.33224,762.9166],[-61.30832,15.33059,792.0892],[-61.30827,15.32989,790.138],[-61.30809,15.32914,790.138],[-61.30729,15.32713,832.6567],[-61.30682,15.32547,858.0215],[-61.30661,15.32356,864.8568],[-61.30667,15.32248,864.8568],[-61.30822,15.31666,810.9868],[-61.30018,15.32359,1003.9438],[-61.29638,15.3255,871.5614],[-61.25406,15.33266,95.6223]]]}
,"properties": {"ISO3166-1-Alpha-3": "DMA","country": "Dominica","fill": "#FF0","name": "Saint David","area_km2": 117.86281,"hist_schema_id": "Elevation0-9000","hist_area_km2": {"0": 0.75621,"25": 1.57382,"50": 2.02363,"75": 2.94345,"100": 3.51583,"125": 4.39469,"150": 5.53931,"175": 5.02841,"200": 6.70433,"225": 6.41811,"250": 5.55966,"275": 5.88682,"300": 6.05029,"325": 5.88684,"350": 5.66184,"375": 4.96703,"400": 4.88515,"425": 4.82379,"450": 4.8443,"475": 3.67926,"500": 2.98429,"525": 2.14628,"550": 1.57392,"575": 1.36963,"600": 1.30836,"625": 1.12442,"650": 1.06311,"675": 0.96093,"700": 0.71557,"725": 0.83826,"750": 0.77693,"775": 1.08364,"800": 0.87917,"825": 1.1041,"850": 0.94051,"875": 1.00183,"900": 1.20629,"925": 0.81782,"950": 0.34757,"975": 0.55203,"1000": 0.47024,"1025": 0.34757,"1050": 0.30668,"1075": 0.34756,"1100": 0.26578,"1125": 0.24534,"1150": 0.2249,"1175": 0.14311,"1200": 0.14311,"1225": 0.06133,"1250": 0.16355,"1275": 0.42933,"1300": 0.26577,"1325": 0.26577,"1350": 0.184,"1375": 0.06133}}}