{"type":"Feature","properties":{"GID_1":"DMA.2_1","GID_0":"DMA","country":"Dominica","province":"SaintDavid","VARNAME_1":"NA","NL_NAME_1":"NA","TYPE_1":"Parish","ENGTYPE_1":"Parish","CC_1":"NA","HASC_1":"DM.DA","ISO_1":"NA","name":"Saint_David.province"},
"geometry":{"type": "MultiPolygon","coordinates": [[[[-61.3151,15.4522,489.6595],[-61.3162,15.4365,474.6861],[-61.3215,15.4292,466.8636],[-61.3259,15.4265,476.1242],[-61.3289,15.4119,548.9343],[-61.3223,15.4028,434.6137],[-61.3214,15.3982,422.115],[-61.3214,15.3937,483.2771],[-61.3269,15.379,1070.8564],[-61.3271,15.3739,1322.9614],[-61.3238,15.369,1308.6932],[-61.3237,15.3647,1276.3864],[-61.3202,15.3602,1172.4774],[-61.3213,15.3519,871.4327],[-61.3142,15.3496,853.1793],[-61.3035,15.343,756.4662],[-61.301,15.3352,884.7961],[-61.3025,15.3276,956.4384],[-61.3015,15.3243,973.2104],[-61.2922,15.3352,625.3433],[-61.2689,15.3374,222.3996],[-61.2627,15.3405,167.9114],[-61.2468,15.3432,1.1473],[-61.2499,15.3499,70.7298],[-61.2518,15.3707,0.9257],[-61.2504,15.3765,24.1582],[-61.2474,15.3762,0.0],[-61.2438,15.3785,1.985],[-61.2449,15.3813,5.0097],[-61.2518,15.3829,11.9916],[-61.2504,15.3871,6.2518],[-61.2521,15.3901,56.196],[-61.2507,15.3921,42.6011],[-61.2435,15.3926,-0.0713],[-61.2401,15.3954,0.0],[-61.2421,15.399,33.564],[-61.241,15.4004,3.4718],[-61.2418,15.4037,61.4754],[-61.2521,15.4024,13.1462],[-61.2546,15.4049,7.2229],[-61.2518,15.4071,0.0],[-61.2513,15.4099,0.9314],[-61.249,15.409,8.1688],[-61.2468,15.4115,0.0],[-61.2465,15.4149,2.1835],[-61.2493,15.4163,0.0],[-61.2471,15.419,0.0],[-61.2499,15.4199,54.2157],[-61.2504,15.426,38.0421],[-61.2476,15.4279,0.0],[-61.249,15.4315,0.0],[-61.246,15.4346,1.2572],[-61.2543,15.4315,12.6498],[-61.2574,15.4368,0.0],[-61.2546,15.4399,0.0],[-61.2518,15.4485,0.0],[-61.2476,15.4496,0.0],[-61.2485,15.4532,0.0],[-61.2463,15.4546,0.0],[-61.2446,15.459,0.0],[-61.2468,15.4607,0.0],[-61.2463,15.464,18.1652],[-61.2418,15.4654,0.0],[-61.2412,15.4671,0.553],[-61.2449,15.469,0.5114],[-61.2435,15.4751,0.0],[-61.246,15.4746,28.4566],[-61.2471,15.4762,0.0],[-61.2474,15.4815,0.0],[-61.2457,15.4835,3.8315],[-61.2493,15.4871,0.0],[-61.2476,15.4921,0.0],[-61.2529,15.496,5.6243],[-61.2513,15.4996,1.2035],[-61.2571,15.5015,23.8597],[-61.2588,15.504,28.135],[-61.2565,15.5082,0.0],[-61.256,15.5182,3.2437],[-61.2588,15.5179,63.1365],[-61.2582,15.5199,12.333],[-61.2593,15.5201,12.333],[-61.2618,15.5182,41.6377],[-61.264,15.5204,2.4883],[-61.2696,15.5174,5.9559],[-61.2732,15.519,0.0],[-61.2755,15.5102,21.6544],[-61.2727,15.5027,86.7142],[-61.2741,15.4869,138.2332],[-61.2781,15.4831,85.9514],[-61.2791,15.4794,120.5203],[-61.2845,15.4777,109.9292],[-61.2885,15.473,185.6672],[-61.2959,15.4735,192.0948],[-61.3054,15.4584,342.2976],[-61.3094,15.4577,344.7576],[-61.3151,15.4522,489.6595]]]]}}