{"type": "Feature","id": "1441","bbox": [-61.484,15.46633,-61.40568,15.53417],"geometry": {"type": "Polygon","coordinates": [[[-61.4773,15.53365,0.0],[-61.47952,15.53417,0.0],[-61.4803,15.53373,0.0],[-61.48071,15.53339,0.0],[-61.48399,15.5296,0.0],[-61.484,15.52958,0.0],[-61.47936,15.52546,0.0],[-61.47521,15.51777,0.0],[-61.47427,15.49348,0.0],[-61.47208,15.48139,0.0],[-61.46557,15.47614,0.0],[-61.46003,15.47289,0.0],[-61.455329999999996,15.46633,68.1611],[-61.45531,15.46634,68.1611],[-61.43916,15.47952,475.23],[-61.43307,15.48549,544.1354],[-61.43208,15.48714,634.1084],[-61.43066,15.4889,630.8687],[-61.42384,15.49208,760.5737],[-61.40568,15.49446,895.7449],[-61.40772,15.50301,1010.8704],[-61.46322,15.53179,147.5925],[-61.46358,15.53164,147.5925],[-61.46423,15.53156,116.7355],[-61.465,15.53161,116.7355],[-61.46927,15.53241,81.9311],[-61.4697,15.53239,81.9311],[-61.47492,15.5337,23.4288],[-61.47575,15.53381,24.0254],[-61.47668,15.53365,0.0],[-61.4773,15.53365,0.0]]]}
,"properties": {"ISO3166-1-Alpha-3": "DMA","country": "Dominica","fill": "#F00","name": "Saint Peter","area_km2": 31.21842,"hist_schema_id": "Elevation0-9000","hist_area_km2": {"0": 4.94429,"25": 0.77638,"50": 0.93982,"75": 1.06242,"100": 1.06241,"125": 1.24629,"150": 1.34845,"175": 1.10327,"200": 1.18499,"225": 0.96025,"250": 1.10327,"275": 0.77637,"300": 1.04198,"325": 0.91938,"350": 0.83765,"375": 0.67423,"400": 0.73551,"425": 0.69465,"450": 0.63336,"475": 0.69465,"500": 0.73551,"525": 0.65379,"550": 0.79681,"575": 0.6742,"600": 0.69464,"625": 0.71508,"650": 0.32689,"675": 0.38818,"700": 0.34732,"725": 0.22474,"750": 0.2656,"775": 0.16345,"800": 0.22474,"825": 0.24517,"850": 0.20431,"875": 0.12259,"900": 0.24517,"925": 0.14302,"950": 0.10215,"975": 0.24517,"1000": 0.18388,"1025": 0.14302,"1050": 0.20431,"1075": 0.10216,"1100": 0.10216,"1125": 0.08172,"1150": 0.06129,"1175": 0.02043,"1200": 0.04086,"1225": 0.02043}}}