{"type":"Feature","properties":{"GID_1":"DMA.10_1","GID_0":"DMA","country":"Dominica","province":"SaintPeter","VARNAME_1":"NA","NL_NAME_1":"NA","TYPE_1":"Parish","ENGTYPE_1":"Parish","CC_1":"NA","HASC_1":"DM.PR","ISO_1":"NA","name":"Saint_Peter.province"},
"geometry":{"type": "MultiPolygon","coordinates": [[[[-61.4012,15.5096,1153.3982],[-61.4187,15.5128,634.1545],[-61.4242,15.5215,537.9763],[-61.4415,15.529,289.7163],[-61.4526,15.5372,202.5672],[-61.4696,15.5386,63.2909],[-61.4721,15.5372,47.9869],[-61.4757,15.5311,14.6651],[-61.4718,15.5215,47.2256],[-61.4718,15.5174,18.1301],[-61.4674,15.5088,33.8152],[-61.4671,15.5043,29.1961],[-61.4696,15.5015,0.0],[-61.4707,15.4965,0.0],[-61.466,15.4904,15.7431],[-61.4643,15.484,0.0],[-61.4626,15.484,6.8202],[-61.4624,15.4815,0.0],[-61.4596,15.4793,73.4965],[-61.4585,15.4701,3.2309],[-61.4557,15.4671,16.49],[-61.4549,15.4618,0.0],[-61.4408,15.4765,495.8124],[-61.4321,15.4809,608.9881],[-61.419,15.4983,958.8942],[-61.4094,15.5012,1025.8953],[-61.4005,15.5015,1323.3303],[-61.3998,15.5065,1350.7217],[-61.4012,15.5096,1153.3982]]]]}}