{"type": "Feature","bbox": [-74.0001,19.6761,-73.2146,20.0001],"geometry": {"type": "MultiPolygon","coordinates": [[[[-73.2568,19.7157,103.8376],[-73.255,19.7123,80.1255],[-73.2425,19.7181,246.0147],[-73.2341,19.7273,362.2892],[-73.228,19.7285,394.1132],[-73.2205,19.7333,471.5453],[-73.2148,19.7382,516.4691],[-73.2146,19.7402,497.1761],[-73.2241,19.7548,531.5361],[-73.2275,19.7553,557.2034],[-73.2307,19.7516,489.3799],[-73.2402,19.7509,461.1936],[-73.2496,19.7709,513.9886],[-73.2549,19.7725,553.5139],[-73.2575,19.7838,612.5961],[-73.26,19.7865,610.3815],[-73.261,19.7928,621.9265],[-73.2636,19.7961,619.0636],[-73.2632,19.8017,631.734],[-73.2594,19.8036,643.9703],[-73.2615,19.8119,654.245],[-73.2601,19.8205,658.02],[-73.2616,19.8231,645.4899],[-73.2704,19.8267,558.5718],[-73.2677,19.8329,493.3964],[-73.2687,19.8389,382.1382],[-73.2654,19.8415,360.0597],[-73.2681,19.8475,283.2974],[-73.2717,19.8499,242.8367],[-73.2719,19.8543,174.6491],[-73.274,19.8562,148.2695],[-73.2759,19.8641,4.2002],[-73.2719,19.8646,5.7084],[-73.265,19.8694,0.0],[-73.2602,19.8704,17.5991],[-73.2651,19.8699,0.0],[-73.2718,19.866,0.0],[-73.2724,19.8649,5.7084],[-73.291,19.8621,0.0],[-73.3051,19.8574,0.0],[-73.3168,19.8499,1.6609],[-73.3271,19.8471,0.0],[-73.3315,19.8426,4.9686],[-73.3437,19.8374,0.0],[-73.3526,19.8385,8.4676],[-73.3654,19.8463,0.0],[-73.3835,19.8429,0.6478],[-73.3843,19.8415,4.5514],[-73.3913,19.8412,3.5663],[-73.4021,19.844,0.0],[-73.4093,19.8432,1.1584],[-73.4138,19.8382,0.0],[-73.4149,19.8346,4.0483],[-73.4226,19.8276,0.0],[-73.421,19.8235,0.0],[-73.414,19.8199,0.0],[-73.4071,19.8232,0.0],[-73.3943,19.8215,3.4587],[-73.3835,19.8176,0.0],[-73.374,19.8193,0.0],[-73.3693,19.8246,2.0538],[-73.3648,19.8343,2.9711],[-73.3626,19.8354,0.0],[-73.3604,19.8335,1.0162],[-73.3651,19.8224,13.5702],[-73.3683,19.821,0.0],[-73.3724,19.8093,0.9252],[-73.3799,19.809,0.0],[-73.381,19.8033,2.1612],[-73.3849,19.7996,4.0807],[-73.3893,19.7979,6.9413],[-73.4007,19.7974,0.0],[-73.4107,19.791,32.6075],[-73.418,19.7915,26.182],[-73.4214,19.7965,4.6074],[-73.4262,19.7968,0.7216],[-73.4315,19.7868,12.4461],[-73.4396,19.7782,0.0],[-73.4426,19.7699,6.6575],[-73.4535,19.7596,10.5271],[-73.4524,19.7549,0.0],[-73.4568,19.7393,0.0],[-73.4557,19.7343,42.8625],[-73.4565,19.7235,0.0],[-73.4551,19.7215,14.0162],[-73.4571,19.7099,0.0],[-73.4563,19.6965,0.0],[-73.4535,19.6865,1.6754],[-73.4435,19.6761,6.3014],[-73.443,19.6775,12.9501],[-73.4366,19.6793,141.4648],[-73.4246,19.6929,409.699],[-73.4158,19.6944,555.6432],[-73.4119,19.6988,511.3462],[-73.4077,19.7267,359.0252],[-73.4025,19.7327,345.2308],[-73.4006,19.7383,318.3117],[-73.3954,19.7398,326.4909],[-73.3872,19.7317,348.0567],[-73.3777,19.7283,274.6115],[-73.3791,19.7375,211.7017],[-73.3766,19.7454,240.2628],[-73.3587,19.7518,277.6774],[-73.352,19.7493,292.5474],[-73.3475,19.7494,292.0537],[-73.3348,19.756,289.8594],[-73.3194,19.761,268.304],[-73.3164,19.7685,252.3253],[-73.3087,19.7722,249.5766],[-73.3003,19.765,230.6091],[-73.2865,19.7481,180.6102],[-73.2813,19.7446,230.4961],[-73.2823,19.7388,172.4747],[-73.2668,19.7266,129.4482],[-73.2632,19.7188,111.2471],[-73.2568,19.7157,103.8376]]],
[[[-74.0001,20.0001,0.0],[-74.0001,19.9999,0.0],[-73.9999,19.9999,0.0],[-73.9999,20.0001,0.0],[-74.0001,20.0001,0.0]]]]}
,"properties": {"GID_3": "HTI.6.1.4_1","GID_0": "HTI","country": "Haiti","GID_1": "HTI.6_1","province": "Nord-Ouest","NL_NAME_1": "NA","GID_2": "HTI.6.1_1","county": "MôleSaint-Nicolas","NL_NAME_2": "NA","city": "MôleSaintNicholas","VARNAME_3": "NA","NL_NAME_3": "NA","TYPE_3": "Commune","ENGTYPE_3": "Commune","CC_3": "NA","HASC_3": "NA","name": "Môle_Saint_Nicholas.city","area_km2": 234.4093,"hist_schema_id": "Elevation0-9000","hist_area_km2": {"0": 5.9042,"25": 8.2583,"50": 14.0823,"75": 9.4154,"100": 4.5686,"125": 5.4063,"150": 5.6065,"175": 6.8636,"200": 9.8162,"225": 19.1136,"250": 19.6723,"275": 12.1105,"300": 12.091,"325": 15.5237,"350": 14.007,"375": 13.0297,"400": 9.6376,"425": 9.1788,"450": 8.9394,"475": 8.2009,"500": 5.2278,"525": 3.2125,"550": 3.4515,"575": 4.5286,"600": 2.9126,"625": 2.3339,"650": 1.3165}}}