{"type": "Feature","bbox": [-63.0711,18.2169,-63.0295,18.2562],"geometry": {"type": "MultiPolygon","coordinates": [[[[-63.0348,18.2355,29.9508],[-63.0304,18.2477,37.6492],[-63.0295,18.2562,3.1626],[-63.0554,18.2454,3.7459],[-63.0711,18.2332,12.1689],[-63.0678,18.2203,0.0],[-63.0505,18.2169,14.5742],[-63.0477,18.2363,39.1237],[-63.0348,18.2355,29.9508]]]]}
,"properties": {"GID_1": "AIA.6_1","GID_0": "AIA","country": "Anguilla","state": "NorthSide","VARNAME_1": "NA","NL_NAME_1": "NA","TYPE_1": "District","ENGTYPE_1": "District","CC_1": "NA","HASC_1": "AI.NS","ISO_1": "NA","name": "NorthSide.state","area_km2": 8.880575,"hist_schema_id": "Elevation0-9000","hist_area_km2": {"0": 0.644382,"25": 6.302961,"50": 1.933232}}}