{"type": "Feature","bbox": [-62.8467,17.9058,-62.8405,17.908],"geometry": {"type": "MultiPolygon","coordinates": [[[[-62.8411,17.9061,4.6374],[-62.8405,17.9074,15.5883],[-62.8436,17.908,28.7953],[-62.8467,17.9062,62.8899],[-62.8453,17.9058,36.748],[-62.8411,17.9061,4.6374]]]]}
,"properties": {"GID_2": "BLM.2.14_1","GID_0": "BLM","country": "Saint-Barthélemy","GID_1": "BLM.2_1","province": "SousleVent","NL_NAME_1": "NA","county": "LeChâteau","VARNAME_2": "NA","NL_NAME_2": "NA","TYPE_2": "Quartier","ENGTYPE_2": "Quarter","CC_2": "NA","HASC_2": "NA","name": "Le_Château.county","area_km2": 0.10087552,"hist_schema_id": "Elevation0-9000","hist_area_km2": {"0": 0.04035019,"50": 0.06052533}}}