{"type":"Feature","properties":{"GID_2":"DOM.17.4_1","GID_0":"DOM","country":"DominicanRepublic","GID_1":"DOM.17_1","province":"MonteCristi","NL_NAME_1":"NA","county":"PepilloSalcedo","VARNAME_2":"NA","NL_NAME_2":"NA","TYPE_2":"Municipio","ENGTYPE_2":"Municipality","CC_2":"NA","HASC_2":"DO.MC.PS","name":"Pepillo_Salcedo.county"},
"geometry":{"type": "MultiPolygon","coordinates": [[[[-71.5869,19.6135,88.2501],[-71.5849,19.6275,92.6779],[-71.5697,19.6381,94.7025],[-71.5634,19.6483,50.0757],[-71.5636,19.651,45.8357],[-71.5673,19.6526,43.7003],[-71.5684,19.6554,37.7291],[-71.5679,19.66,30.9362],[-71.5649,19.6656,26.6539],[-71.5616,19.6685,29.8475],[-71.5501,19.6722,27.7652],[-71.5462,19.6759,28.1932],[-71.5458,19.6966,16.6941],[-71.5479,19.6992,15.2973],[-71.5581,19.7023,14.9168],[-71.5661,19.7025,13.8582],[-71.5772,19.6952,12.4856],[-71.5798,19.6975,10.854],[-71.5805,19.7038,9.4203],[-71.5834,19.7048,9.1006],[-71.586,19.7017,8.6668],[-71.5867,19.6928,9.1395],[-71.5911,19.6912,7.2624],[-71.6021,19.6966,7.1284],[-71.6169,19.6996,6.6878],[-71.6212,19.6913,8.9891],[-71.6258,19.6891,8.4386],[-71.6358,19.6879,7.6144],[-71.6374,19.6779,7.4366],[-71.6405,19.674,6.7342],[-71.6516,19.6693,6.0972],[-71.6721,19.6755,1.7932],[-71.6763,19.6796,1.5622],[-71.6825,19.6824,3.0891],[-71.6893,19.6907,14.9346],[-71.7019,19.6954,11.0834],[-71.7136,19.7051,1.5385],[-71.7296,19.7091,1.9285],[-71.7326,19.7049,1.7583],[-71.7326,19.7024,0.0],[-71.731,19.7021,0.0],[-71.7274,19.7032,0.0],[-71.724,19.7068,0.0],[-71.7215,19.706,6.8021],[-71.7185,19.7021,7.2934],[-71.7243,19.696,2.7265],[-71.7221,19.6946,0.0],[-71.7099,19.6951,4.5763],[-71.7104,19.6935,5.6551],[-71.7154,19.6918,5.6869],[-71.719,19.6943,0.0],[-71.7232,19.6937,6.932],[-71.7296,19.699,0.0],[-71.734,19.7001,6.4685],[-71.7351,19.7021,1.0521],[-71.7335,19.704,1.7583],[-71.7337,19.7071,0.0],[-71.7421,19.7062,0.4824],[-71.7426,19.7107,0.0],[-71.744,19.7104,0.0],[-71.744,19.7062,2.7914],[-71.7594,19.7021,0.7691],[-71.7583,19.7,4.1814],[-71.7602,19.6993,2.3048],[-71.7602,19.6965,3.8782],[-71.7575,19.6985,6.6592],[-71.7575,19.6965,7.2806],[-71.7555,19.6954,23.2941],[-71.7536,19.6965,24.4476],[-71.7536,19.6947,29.3035],[-71.7583,19.6919,2.3542],[-71.7583,19.6907,2.3542],[-71.7547,19.6907,2.3133],[-71.7555,19.6892,2.7483],[-71.7528,19.6899,11.7546],[-71.7547,19.6861,2.5297],[-71.7527,19.6833,6.563],[-71.7555,19.6806,3.4261],[-71.7516,19.6798,17.7193],[-71.7453,19.6705,19.3523],[-71.7433,19.6705,19.1191],[-71.7421,19.6686,22.1626],[-71.7366,19.6686,25.0631],[-71.7366,19.6666,8.7498],[-71.7341,19.6659,2.0],[-71.7329,19.6625,21.1904],[-71.7311,19.6499,4.2455],[-71.7348,19.6441,5.396],[-71.7348,19.6326,11.702],[-71.7273,19.6324,15.1294],[-71.7191,19.625,15.5147],[-71.7094,19.6272,4.9308],[-71.6928,19.6264,14.6079],[-71.6797,19.6182,24.8943],[-71.6774,19.6138,29.0198],[-71.6687,19.6088,33.4656],[-71.6627,19.6006,50.8564],[-71.6575,19.5971,74.4978],[-71.6452,19.5987,75.199],[-71.6339,19.5965,77.694],[-71.6245,19.5993,83.2788],[-71.6127,19.6063,77.2704],[-71.5869,19.6135,88.2501]]]]}}