{"type":"Feature","properties":{"GID_2":"DOM.21.2_1","GID_0":"DOM","country":"DominicanRepublic","GID_1":"DOM.21_1","province":"PuertoPlata","NL_NAME_1":"NA","county":"Guananico","VARNAME_2":"NA","NL_NAME_2":"NA","TYPE_2":"Municipio","ENGTYPE_2":"Municipality","CC_2":"NA","HASC_2":"DO.PP.GU","name":"Guananico.county"},
"geometry":{"type": "MultiPolygon","coordinates": [[[[-70.8741,19.7068,292.6078],[-70.8879,19.7148,181.4088],[-70.9017,19.7191,214.3922],[-70.9068,19.7316,280.2627],[-70.9095,19.7311,271.67],[-70.9134,19.7273,207.7744],[-70.9207,19.7267,159.9045],[-70.9382,19.7326,173.9692],[-70.9447,19.7188,211.9029],[-70.9525,19.7071,276.8521],[-70.9502,19.6919,680.7344],[-70.9584,19.6748,721.6216],[-70.9416,19.6601,725.5406],[-70.9282,19.6608,866.8542],[-70.9166,19.6522,900.2622],[-70.9111,19.6456,801.3861],[-70.9009,19.6424,828.3349],[-70.8947,19.6443,797.5404],[-70.8908,19.6435,804.7818],[-70.8866,19.6537,767.4123],[-70.8794,19.6621,586.483],[-70.8779,19.6699,459.3405],[-70.8731,19.6747,451.3031],[-70.874,19.6794,386.1031],[-70.881,19.6847,323.8324],[-70.8846,19.6991,264.0498],[-70.882,19.7034,264.0712],[-70.8741,19.7068,292.6078]]]]}}