{"type": "Feature","bbox": [-70.5876,19.5409,-70.3632,19.7851],"geometry": {"type": "MultiPolygon","coordinates": [[[[-70.3632,19.7015,0.7979],[-70.3679,19.7087,0.5118],[-70.3721,19.7113,1.3468],[-70.3718,19.7149,1.9121],[-70.3765,19.7226,0.0],[-70.3871,19.7346,5.5291],[-70.3913,19.7432,0.0],[-70.4001,19.7518,0.0],[-70.4024,19.7526,0.0],[-70.4043,19.751,5.8831],[-70.4099,19.7507,0.0],[-70.4126,19.7521,0.0],[-70.4207,19.7629,0.0],[-70.4299,19.7676,0.0],[-70.4388,19.7782,0.0],[-70.454,19.7843,0.0],[-70.4671,19.7851,1.625],[-70.4715,19.7838,0.0],[-70.4732,19.7851,1.5055],[-70.484,19.7851,3.8737],[-70.511,19.7799,1.2878],[-70.5137,19.7771,6.5316],[-70.5135,19.7721,6.6202],[-70.5182,19.7685,0.0],[-70.5185,19.7643,0.0],[-70.5199,19.7635,0.0],[-70.5199,19.7615,0.0],[-70.5171,19.7607,14.3941],[-70.5174,19.756,28.4259],[-70.5263,19.7551,0.0],[-70.5268,19.7526,1.5105],[-70.5285,19.756,5.1477],[-70.5315,19.7565,6.2498],[-70.5376,19.7546,10.8027],[-70.5413,19.7568,5.4726],[-70.5471,19.7546,2.7956],[-70.5571,19.7646,1.0614],[-70.5618,19.7624,1.3543],[-70.564,19.7646,0.4384],[-70.5676,19.764,0.0],[-70.5735,19.7599,6.7826],[-70.5782,19.7601,4.5255],[-70.5824,19.7571,0.0],[-70.5866,19.7565,4.3241],[-70.579,19.7466,12.7279],[-70.5802,19.743,14.4382],[-70.5868,19.7359,29.329],[-70.5876,19.7312,12.4443],[-70.5867,19.7251,10.1978],[-70.5819,19.7182,15.5352],[-70.581,19.7064,22.2656],[-70.575,19.7051,39.052],[-70.5695,19.7094,118.1106],[-70.5632,19.707,153.6979],[-70.5526,19.6995,203.6189],[-70.5435,19.6822,208.547],[-70.5466,19.6734,104.9632],[-70.5571,19.6624,156.6476],[-70.5579,19.6573,150.7292],[-70.5555,19.6525,168.8654],[-70.5443,19.651,125.3529],[-70.5428,19.6479,108.5933],[-70.5443,19.6459,139.3293],[-70.5519,19.6455,177.7821],[-70.555,19.6435,232.4754],[-70.5577,19.6378,244.1435],[-70.5571,19.629,167.9042],[-70.5466,19.6163,145.9415],[-70.5376,19.6165,139.231],[-70.5321,19.6049,111.9959],[-70.5167,19.5943,283.1108],[-70.5153,19.5847,445.3469],[-70.5112,19.5807,441.8063],[-70.5048,19.5694,472.7626],[-70.5057,19.5668,477.8622],[-70.5101,19.5664,530.1026],[-70.5098,19.5633,572.6693],[-70.503,19.5591,508.8212],[-70.5013,19.5563,523.2971],[-70.5035,19.5452,625.1973],[-70.5028,19.5415,633.1385],[-70.4961,19.5409,604.0437],[-70.4926,19.5422,568.4608],[-70.4835,19.56,470.8492],[-70.4886,19.5722,415.0613],[-70.4902,19.5807,390.257],[-70.4958,19.5915,350.522],[-70.5042,19.6026,298.8287],[-70.5032,19.608,248.8327],[-70.4955,19.6139,258.724],[-70.4981,19.6238,226.2104],[-70.4973,19.6502,117.3281],[-70.4912,19.6508,118.4756],[-70.4804,19.6466,89.3787],[-70.4738,19.65,60.1558],[-70.4691,19.6488,58.0326],[-70.4566,19.6507,46.4096],[-70.453,19.6534,58.4592],[-70.4379,19.6539,65.9816],[-70.431,19.6584,12.3194],[-70.4271,19.6551,16.3645],[-70.4224,19.6454,105.7218],[-70.4142,19.6451,97.4132],[-70.4107,19.6513,81.682],[-70.4078,19.6526,40.0257],[-70.4009,19.6431,126.4927],[-70.3997,19.651,16.85],[-70.3964,19.6522,12.1855],[-70.3905,19.6595,9.9749],[-70.3872,19.6613,9.3783],[-70.3743,19.6618,8.3965],[-70.3686,19.6661,9.0239],[-70.3676,19.6713,5.7395],[-70.3707,19.6821,5.6523],[-70.3776,19.6845,4.4329],[-70.3786,19.6865,3.7784],[-70.3724,19.6973,4.5618],[-70.3632,19.7015,0.7979]]]]}
,"properties": {"GID_2": "DOM.21.9_1","GID_0": "DOM","country": "DominicanRepublic","GID_1": "DOM.21_1","province": "PuertoPlata","NL_NAME_1": "NA","county": "Sosua","VARNAME_2": "NA","NL_NAME_2": "NA","TYPE_2": "Municipio","ENGTYPE_2": "Municipality","CC_2": "NA","HASC_2": "DO.PP.SO","name": "Sosua.county","area_km2": 299.083,"hist_schema_id": "Elevation0-9000","hist_area_km2": {"0": 52.8097,"25": 35.5872,"50": 25.8075,"75": 27.1851,"100": 22.7751,"125": 18.7044,"150": 16.8687,"175": 17.0288,"200": 18.9252,"225": 18.8252,"250": 15.8708,"275": 11.2591,"300": 3.8528,"325": 1.5772,"350": 0.7988,"375": 0.9788,"400": 1.638,"425": 1.4982,"450": 1.5182,"475": 1.2586,"500": 1.5184,"525": 0.8991,"550": 0.6793,"575": 0.7992,"600": 0.3397,"625": 0.0599,"650": 0.02}}}