{"type": "Feature","id": "5010","bbox": [-78.65669,26.50485,-78.59813,26.54621],"geometry": {"type": "Polygon","coordinates": [[[-78.59813,26.5314,1.5183],[-78.61277,26.54621,10.2589],[-78.63593,26.54621,4.8861],[-78.65669,26.52066,6.9062],[-78.64644,26.50485,0.0],[-78.62897,26.5161,4.6955],[-78.60762,26.52573,4.5664],[-78.59813,26.5314,1.5183]]]}
,"properties": {"ISO3166-1-Alpha-3": "BHS","country": "The Bahamas","fill": "#F0F","name": "City of Freeport","area_km2": 14.43604,"hist_schema_id": "Elevation0-9000","hist_area_km2": {"0": 14.17045,"25": 0.2656}}}