{"type": "Feature","bbox": [-78.6901,26.4904,-78.5907,26.5442],"geometry": {"type": "MultiPolygon","coordinates": [[[[-78.5907,26.5355,3.4506],[-78.6121,26.5428,8.8262],[-78.6257,26.5442,8.5433],[-78.6375,26.5405,4.9619],[-78.6698,26.5246,4.9954],[-78.6794,26.5164,6.3166],[-78.6867,26.5064,5.3814],[-78.6901,26.4904,0.0],[-78.6663,26.4976,1.8013],[-78.6601,26.4951,0.0],[-78.659,26.4974,3.6215],[-78.6496,26.5021,1.3455],[-78.6407,26.5096,1.1477],[-78.6365,26.5099,0.0],[-78.636,26.5118,0.0],[-78.631,26.5151,0.0],[-78.6257,26.5149,0.0],[-78.6199,26.5201,0.976],[-78.6137,26.5229,2.8548],[-78.609,26.5226,0.0],[-78.6076,26.5249,1.3614],[-78.5907,26.5355,3.4506]]]]}
,"properties": {"GID_1": "BHS.9_1","GID_0": "BHS","country": "Bahamas","state": "CityofFreeport","VARNAME_1": "NA","NL_NAME_1": "NA","TYPE_1": "District","ENGTYPE_1": "District","CC_1": "NA","HASC_1": "BS.FP","ISO_1": "BS-FP","name": "CityofFreeport.state","area_km2": 25.3456,"hist_schema_id": "Elevation0-9000","hist_area_km2": {"0": 24.51081,"25": 0.83479}}}