{"type": "Feature","bbox": [-62.8638,17.908,-62.8548,17.9139],"geometry": {"type": "MultiPolygon","coordinates": [[[[-62.8638,17.9111,4.6647],[-62.8592,17.908,12.5543],[-62.8582,17.9103,68.053],[-62.8548,17.9115,118.8034],[-62.8581,17.9139,75.969],[-62.8638,17.9111,4.6647]]]]}
,"properties": {"GID_2": "BLM.2.9_1","GID_0": "BLM","country": "Saint-Barthélemy","GID_1": "BLM.2_1","province": "SousleVent","NL_NAME_1": "NA","county": "GrandeVigie","VARNAME_2": "NA","NL_NAME_2": "NA","TYPE_2": "Quartier","ENGTYPE_2": "Quarter","CC_2": "NA","HASC_2": "NA","name": "Grande_Vigie.county","area_km2": 0.26227,"hist_schema_id": "Elevation0-9000","hist_area_km2": {"25": 0.0201748,"75": 0.0403495,"100": 0.0806983,"125": 0.0605238,"150": 0.0605236}}}