{"type":"Feature","properties":{"GID_3":"HTI.10.2.5_1","GID_0":"HTI","country":"Haiti","GID_1":"HTI.10_1","province":"Sud","NL_NAME_1":"NA","GID_2":"HTI.10.2_1","county":"lesCayes","NL_NAME_2":"NA","city":"Maniche","VARNAME_3":"NA","NL_NAME_3":"NA","TYPE_3":"Commune","ENGTYPE_3":"Commune","CC_3":"NA","HASC_3":"NA","name":"Maniche.city"},
"geometry":{"type": "MultiPolygon","coordinates": [[[[-73.6925,18.3496,30.5115],[-73.6999,18.3509,32.0606],[-73.7021,18.3477,37.463],[-73.7081,18.3512,34.3635],[-73.7139,18.3476,39.7117],[-73.7225,18.345,60.1297],[-73.727,18.3452,75.2046],[-73.7255,18.3478,41.3847],[-73.7265,18.349,43.3015],[-73.7289,18.3477,42.3245],[-73.7337,18.3513,47.1087],[-73.7376,18.3485,68.5606],[-73.7441,18.3499,48.856],[-73.7468,18.3488,50.7314],[-73.7494,18.3503,53.1682],[-73.7531,18.348,61.9849],[-73.7614,18.3486,56.5951],[-73.7646,18.3469,59.8897],[-73.7674,18.3473,58.7367],[-73.7705,18.3505,64.1262],[-73.7774,18.3509,64.5464],[-73.7829,18.3476,69.8621],[-73.785,18.349,72.8616],[-73.7925,18.346,80.3547],[-73.7911,18.3424,82.7557],[-73.7937,18.3394,95.3802],[-73.7886,18.3349,166.7237],[-73.79,18.3275,281.5975],[-73.7851,18.3242,290.1123],[-73.7841,18.3209,303.0491],[-73.774,18.3147,89.3776],[-73.7706,18.3163,143.8625],[-73.7631,18.3249,240.3567],[-73.7511,18.3305,221.5977],[-73.7471,18.3307,243.3775],[-73.741,18.3231,126.5723],[-73.7389,18.3235,114.004],[-73.7396,18.3301,210.5619],[-73.7364,18.3317,233.3299],[-73.7341,18.3316,247.8229],[-73.7325,18.3243,142.0223],[-73.7297,18.3243,150.1681],[-73.7293,18.3207,143.6521],[-73.7227,18.3159,118.8736],[-73.7125,18.32,143.6208],[-73.7081,18.3151,78.2043],[-73.6989,18.3181,89.2961],[-73.6891,18.3137,62.0214],[-73.6884,18.3194,96.6078],[-73.6953,18.3248,144.336],[-73.6958,18.3298,186.0636],[-73.6984,18.332,209.7285],[-73.6998,18.3375,248.6077],[-73.6945,18.3486,39.1386],[-73.6925,18.3496,30.5115]]]]}}