{"type":"Feature","properties":{"GID_2":"DOM.6.2_1","GID_0":"DOM","country":"DominicanRepublic","GID_1":"DOM.6_1","province":"Duarte","NL_NAME_1":"NA","county":"Castillo","VARNAME_2":"NA","NL_NAME_2":"NA","TYPE_2":"Municipio","ENGTYPE_2":"Municipality","CC_2":"NA","HASC_2":"DO.DU.CA","name":"Castillo.county"},
"geometry":{"type": "MultiPolygon","coordinates": [[[[-69.9867,19.1742,34.1641],[-69.9873,19.1817,40.3584],[-69.992,19.1905,47.2651],[-69.9922,19.1937,50.1258],[-69.9818,19.202,75.3074],[-69.9744,19.2189,100.3186],[-69.9695,19.2232,107.3727],[-69.9643,19.2318,149.3468],[-69.9578,19.2373,194.1532],[-69.9545,19.2487,242.6765],[-69.954,19.2565,247.235],[-69.967,19.2667,331.1184],[-69.9771,19.2649,314.0127],[-70.0005,19.2697,402.4071],[-70.0134,19.2707,336.4503],[-70.0289,19.2796,393.1712],[-70.0377,19.2866,372.7067],[-70.0513,19.2906,323.1232],[-70.0571,19.2955,291.927],[-70.0621,19.2947,284.1024],[-70.0736,19.2633,163.6266],[-70.0793,19.2597,154.0089],[-70.0856,19.2588,165.089],[-70.0855,19.2517,111.2752],[-70.0901,19.2463,97.9014],[-70.0884,19.2376,85.4729],[-70.0962,19.228,66.514],[-70.1024,19.2134,52.5964],[-70.1028,19.2058,41.1776],[-70.0999,19.203,46.5421],[-70.0971,19.2031,47.6496],[-70.0907,19.208,52.8605],[-70.0866,19.2084,53.1653],[-70.071,19.1993,56.1386],[-70.0709,19.1939,45.9938],[-70.0781,19.1862,41.2912],[-70.0828,19.1776,32.5498],[-70.0586,19.1772,30.5824],[-70.0481,19.1745,31.4014],[-70.0281,19.1744,37.3235],[-70.0238,19.176,35.9891],[-70.0159,19.1847,38.079],[-70.0129,19.1855,41.588],[-70.0089,19.1834,37.6351],[-70.0071,19.1774,30.1281],[-70.0044,19.1748,32.8482],[-69.9867,19.1742,34.1641]]]]}}