{"type":"Feature","properties":{"ISO3166-1-Alpha-3":"DOM","country":"Dominican Republic","fill":"#F0F","id":"1965","name":"Puerto Plata"},
"geometry":{"type": "Polygon","coordinates": [[[-70.37272,19.71418,1.9121],[-70.43371,19.77521,0.0],[-70.47273,19.78685,0.0],[-70.48278,19.78388,3.9625],[-70.49645,19.77725,14.1428],[-70.50853,19.76935,13.9339],[-70.51366,19.76264,20.0024],[-70.51871,19.75975,0.0],[-70.57909,19.7602,4.5255],[-70.62369,19.76655,0.0],[-70.66222,19.77936,6.1906],[-70.69848,19.79682,4.8982],[-70.73656,19.82709,11.7067],[-70.75097,19.83381,45.8462],[-70.78864,19.83405,8.6097],[-70.78331,19.84333,23.4745],[-70.78698,19.85285,1.758],[-70.83096,19.90253,0.0],[-70.84325,19.91035,0.0],[-70.85473,19.91083,0.0],[-70.88427,19.90428,1.8769],[-70.89851,19.9029,13.4528],[-70.94689,19.91035,0.0],[-70.94445,19.90473,4.8926],[-70.93944,19.88931,16.2866],[-70.94689,19.88931,2.5302],[-70.96618,19.89671,4.0469],[-70.96105,19.91267,9.2103],[-70.96935,19.9252,0.0],[-70.98473,19.93374,0.0],[-71.00088,19.93769,0.0],[-71.01842,19.93549,0.0],[-71.05085,19.92023,9.8661],[-71.06607,19.91657,0.0],[-71.07828,19.90913,0.0],[-71.09679,19.87621,0.0],[-71.10705,19.8688,0.0],[-71.1232,19.86689,0.0],[-71.13659,19.86371,0.0],[-71.14973,19.86302,0.0],[-71.16539,19.8688,0.0],[-71.16218,19.86205,5.2372],[-71.16202,19.85944,0.0],[-71.16023,19.85822,0.0],[-71.15172,19.8557,3.1224],[-71.15441,19.84911,36.4011],[-71.15852,19.84349,3.5099],[-71.16442,19.83861,10.4263],[-71.17223,19.83405,3.7636],[-71.18334,19.86042,0.0],[-71.19176,19.8697,0.0],[-71.20352,19.86538,10.7517],[-71.20881,19.85497,34.6299],[-71.20934,19.84479,28.4178],[-71.21207,19.8371,8.6732],[-71.22177,19.83457,1.3354],[-71.22177,19.83455,1.3354],[-71.21498,19.80063,124.4945],[-71.19505,19.77158,584.2805],[-71.16392,19.76306,647.2646],[-71.13397,19.75177,463.6158],[-71.09981,19.74024,477.8645],[-71.06749,19.72526,395.1122],[-71.04524,19.70926,670.4269],[-71.01822,19.70257,422.0468],[-70.97765,19.69048,778.8881],[-70.94391,19.66495,869.966],[-70.90623,19.64702,865.7485],[-70.86412,19.64175,568.995],[-70.83296,19.63485,497.3906],[-70.80523,19.6273,611.4808],[-70.7827,19.60914,705.8038],[-70.76046,19.59043,824.5003],[-70.71576,19.59237,763.343],[-70.71214,19.6511,642.3237],[-70.65876,19.62872,425.9851],[-70.63798,19.5811,602.5542],[-70.6086,19.53612,681.4658],[-70.5477,19.51783,783.2275],[-70.52559,19.56444,609.6965],[-70.5174,19.61743,159.5937],[-70.50982,19.6373,72.7776],[-70.49417,19.65069,110.5364],[-70.48109,19.65061,59.3228],[-70.46854,19.64766,66.7595],[-70.45068,19.64991,35.6781],[-70.43293,19.65441,54.0256],[-70.41505,19.65428,15.4501],[-70.39823,19.65924,9.0412],[-70.38348,19.68588,4.2436],[-70.37272,19.71418,1.9121]]]}}