{"type":"Feature","properties":{"GID_1":"DOM.21_1","GID_0":"DOM","country":"DominicanRepublic","province":"PuertoPlata","VARNAME_1":"NA","NL_NAME_1":"NA","TYPE_1":"Provincia","ENGTYPE_1":"Province","CC_1":"NA","HASC_1":"DO.PP","ISO_1":"DO-18","name":"Puerto_Plata.province"},
"geometry":{"type": "MultiPolygon","coordinates": [[[[-70.7926,19.8571,0.8933],[-70.796,19.8554,3.4112],[-70.7974,19.8563,0.0],[-70.7985,19.859,2.1044],[-70.7943,19.8613,1.4611],[-70.7954,19.8649,0.0],[-70.8015,19.8651,1.7851],[-70.7996,19.8687,0.0],[-70.8024,19.8699,5.2308],[-70.8043,19.8757,0.0],[-70.8076,19.8768,0.6938],[-70.8115,19.8826,0.0],[-70.8163,19.8835,4.3359],[-70.8196,19.8821,0.0],[-70.8215,19.8835,11.305],[-70.8243,19.8824,2.7467],[-70.8313,19.8882,3.5587],[-70.8357,19.8899,5.4767],[-70.8385,19.8935,2.1483],[-70.8365,19.901,0.0],[-70.8396,19.9021,1.7852],[-70.839,19.9057,0.0],[-70.846,19.9043,2.5396],[-70.8479,19.9054,6.8291],[-70.8471,19.9079,1.6675],[-70.8487,19.9082,1.6675],[-70.8504,19.9057,2.4073],[-70.8568,19.906,0.4163],[-70.8626,19.9018,7.7998],[-70.8662,19.9018,14.6855],[-70.8718,19.9054,11.4963],[-70.8746,19.9054,5.3067],[-70.8754,19.903199999999998,8.8359],[-70.8776,19.9035,7.4622],[-70.8782,19.9001,2.7043],[-70.881,19.8999,2.2488],[-70.8846,19.901,6.0361],[-70.884,19.904,0.0],[-70.886,19.9051,1.8769],[-70.8885,19.9035,6.8125],[-70.8954,19.9051,7.6806],[-70.9082,19.9037,11.5105],[-70.9082,19.9065,0.0],[-70.9182,19.9085,6.9376],[-70.9257,19.9146,0.9043],[-70.9321,19.9165,0.8179],[-70.9404,19.9068,0.0],[-70.941,19.9026,2.2166],[-70.9396,19.9004,0.0],[-70.931,19.8968,7.9322],[-70.9318,19.8937,5.7143],[-70.9332,19.8954,1.7117],[-70.9368,19.8932,6.1349],[-70.9413,19.8951,3.7948],[-70.9399,19.8974,6.806],[-70.9429,19.901,1.8712],[-70.9518,19.8979,7.4578],[-70.954,19.8946,9.7634],[-70.9557,19.8946,2.2774],[-70.9596,19.8979,3.3584],[-70.9565,19.8999,11.0212],[-70.9535,19.8996,0.7452],[-70.9532,19.9026,5.3166],[-70.9454,19.9015,1.825],[-70.944,19.9046,4.8926],[-70.9449,19.9063,1.2432],[-70.9532,19.9093,2.2595],[-70.9604,19.9149,3.0464],[-70.9679,19.9168,8.3919],[-70.9899,19.9307,0.0],[-71.0021,19.9321,0.0],[-71.0088,19.9307,0.0],[-71.0137,19.9324,0.0],[-71.0249,19.9312,0.0],[-71.0296,19.9282,4.5967],[-71.0351,19.9282,3.4947],[-71.0429,19.9229,5.1073],[-71.0615,19.9182,0.0],[-71.0643,19.9104,6.7467],[-71.0746,19.9063,1.3139],[-71.0815,19.8996,1.6091],[-71.0826,19.8957,0.701],[-71.081,19.8932,1.8784],[-71.0813,19.8879,1.1645],[-71.079,19.8862,8.6227],[-71.0799,19.8826,0.0],[-71.0901,19.8732,0.7437],[-71.1054,19.8665,2.4248],[-71.1054,19.8651,1.6557],[-71.1074,19.8662,2.2821],[-71.1235,19.8638,0.0],[-71.1288,19.8613,1.3886],[-71.1315,19.8565,2.6775],[-71.1338,19.856,1.1941],[-71.1462,19.8587,5.0807],[-71.1551,19.8579,2.5627],[-71.1626,19.8626,0.0],[-71.1687,19.8624,0.0],[-71.1732,19.8571,0.6888],[-71.1771,19.8571,0.0],[-71.1735,19.851,1.0489],[-71.1715,19.8512,0.0],[-71.1704,19.8538,1.7579],[-71.1682,19.8538,2.0858],[-71.1682,19.8571,2.1754],[-71.1699,19.8582,2.1754],[-71.1685,19.8607,1.2884],[-71.1618,19.8601,1.0085],[-71.1565,19.8563,2.5315],[-71.1479,19.8543,0.9546],[-71.1526,19.854,1.6794],[-71.1596,19.8565,2.3787],[-71.1657,19.8557,0.0],[-71.1663,19.8485,5.7985],[-71.1699,19.846,1.0806],[-71.1724,19.8465,1.3792],[-71.1749,19.8412,1.2372],[-71.1735,19.8499,0.0],[-71.1762,19.8535,1.3795],[-71.1824,19.8521,0.5953],[-71.1899,19.8549,2.9845],[-71.1924,19.8565,0.9157],[-71.1949,19.8615,3.2233],[-71.2118,19.8701,0.0],[-71.2129,19.8621,2.6469],[-71.2085,19.8607,14.2359],[-71.2085,19.8593,2.3204],[-71.214,19.8515,0.0],[-71.2138,19.8401,1.2543],[-71.2274,19.834,1.3502],[-71.2321,19.8343,0.0],[-71.2335,19.8324,3.2685],[-71.2374,19.834,0.0],[-71.2409,19.8335,1.3096],[-71.2485,19.8284,2.9172],[-71.2464,19.8216,34.7681],[-71.2372,19.8042,96.9197],[-71.2243,19.8007,119.1527],[-71.2287,19.7937,263.1815],[-71.2283,19.7915,285.5158],[-71.221,19.7894,337.2231],[-71.2162,19.7787,378.4567],[-71.2055,19.7714,340.8707],[-71.1935,19.7671,557.9104],[-71.1802,19.7597,396.223],[-71.1666,19.7592,478.0022],[-71.157,19.7565,506.3673],[-71.1238,19.7558,476.1038],[-71.1207,19.7512,541.1084],[-71.1225,19.745,586.9713],[-71.1133,19.74,378.138],[-71.0996,19.7388,477.8645],[-71.0836,19.7313,448.0697],[-71.0729,19.7302,481.5614],[-71.0636,19.7262,337.6192],[-71.0587,19.7126,434.8145],[-71.0551,19.7091,400.269],[-71.0479,19.7056,537.8817],[-71.0227,19.6989,553.4656],[-71.0046,19.6992,474.3723],[-70.996,19.7017,534.9897],[-70.992,19.7013,578.7593],[-70.9858,19.6945,554.425],[-70.9779,19.6924,794.6857],[-70.9716,19.6827,698.5237],[-70.9584,19.6748,721.6216],[-70.9428,19.6609,792.5494],[-70.9381,19.6594,780.2246],[-70.9321,19.6614,845.786],[-70.9282,19.6608,866.8542],[-70.9166,19.6522,900.2622],[-70.9111,19.6456,801.3861],[-70.899,19.6424,796.2162],[-70.8947,19.6443,797.5404],[-70.8908,19.6435,804.7818],[-70.8885,19.6474,773.8558],[-70.8835,19.6472,713.5434],[-70.8701,19.64,525.8358],[-70.8611,19.6384,600.9911],[-70.8471,19.6319,496.1806],[-70.8364,19.6332,477.4741],[-70.8255,19.6298,575.9872],[-70.817,19.6222,476.853],[-70.8116,19.6225,527.0449],[-70.8072,19.6268,557.6566],[-70.8033,19.6264,540.5797],[-70.7858,19.6154,679.907],[-70.766,19.5913,751.9408],[-70.7604,19.5889,774.5791],[-70.7518,19.5902,1126.8131],[-70.7478,19.5877,1070.8561],[-70.7453,19.5839,1059.0432],[-70.7444,19.5738,1055.4717],[-70.741,19.571,972.933],[-70.739,19.5706,963.1503],[-70.719,19.5792,785.6288],[-70.7045,19.5893,653.6573],[-70.6986,19.6042,517.3723],[-70.7057,19.6164,837.7451],[-70.7016,19.6268,502.4451],[-70.7033,19.6353,457.3265],[-70.6972,19.6404,483.5725],[-70.6916,19.6404,447.797],[-70.6813,19.631,473.7968],[-70.6738,19.6191,380.3291],[-70.665,19.6174,439.5561],[-70.6577,19.6129,533.5867],[-70.6369,19.6092,780.858],[-70.6307,19.6026,676.6006],[-70.6292,19.5994,625.8282],[-70.6285,19.5878,431.7565],[-70.6241,19.5816,436.6344],[-70.6229,19.576,468.6077],[-70.6232,19.5696,483.1424],[-70.6284,19.5641,598.0908],[-70.6287,19.5596,653.066],[-70.6211,19.5532,550.6303],[-70.6194,19.5431,694.0929],[-70.6127,19.5366,716.7982],[-70.5904,19.5358,682.2281],[-70.5827,19.5334,663.1812],[-70.5716,19.5326,897.7814],[-70.5668,19.5254,705.8079],[-70.5477,19.5146,721.5049],[-70.5398,19.5074,700.7711],[-70.5345,19.5089,776.9782],[-70.5334,19.5166,923.0229],[-70.5286,19.5201,867.1363],[-70.5265,19.5288,787.2683],[-70.5302,19.537,754.1504],[-70.5282,19.544,717.275],[-70.5311,19.5579,648.4136],[-70.5292,19.5622,626.6619],[-70.5205,19.5645,600.4017],[-70.5158,19.5685,543.3369],[-70.5121,19.568,522.4387],[-70.5101,19.5664,530.1026],[-70.509,19.5618,539.4197],[-70.5018,19.5576,503.8432],[-70.5012,19.5518,537.8705],[-70.5034,19.544,607.2292],[-70.5028,19.5415,633.1385],[-70.499,19.541,607.4203],[-70.4926,19.5422,568.4608],[-70.4837,19.5587,497.1088],[-70.4839,19.5633,467.999],[-70.4886,19.5722,415.0613],[-70.4902,19.5807,390.257],[-70.4958,19.5915,350.522],[-70.5042,19.6026,298.8287],[-70.5032,19.608,248.8327],[-70.4955,19.6139,258.724],[-70.4981,19.6238,226.2104],[-70.4973,19.6502,117.3281],[-70.4912,19.6508,118.4756],[-70.4804,19.6466,89.3787],[-70.4738,19.65,60.1558],[-70.4691,19.6488,58.0326],[-70.4566,19.6507,46.4096],[-70.453,19.6534,58.4592],[-70.4379,19.6539,65.9816],[-70.431,19.6584,12.3194],[-70.4271,19.6551,16.3645],[-70.4224,19.6454,105.7218],[-70.4142,19.6451,97.4132],[-70.4107,19.6513,81.682],[-70.4078,19.6526,40.0257],[-70.4009,19.6431,126.4927],[-70.3997,19.651,16.85],[-70.3964,19.6522,12.1855],[-70.3905,19.6595,9.9749],[-70.3872,19.6613,9.3783],[-70.3743,19.6618,8.3965],[-70.3679,19.6673,8.7954],[-70.3676,19.6713,5.7395],[-70.3711,19.6826,5.6523],[-70.3776,19.6845,4.4329],[-70.3786,19.6865,3.7784],[-70.3724,19.6973,4.5618],[-70.3632,19.7015,0.7979],[-70.3679,19.7087,0.5118],[-70.3721,19.7113,1.3468],[-70.3718,19.7149,1.9121],[-70.3765,19.7226,0.0],[-70.3851,19.7318,2.8569],[-70.3913,19.7432,0.0],[-70.4001,19.7518,0.0],[-70.4024,19.7526,0.0],[-70.4043,19.751,5.8831],[-70.4099,19.7507,0.0],[-70.4126,19.7521,0.0],[-70.4207,19.7629,0.0],[-70.4299,19.7676,0.0],[-70.4388,19.7782,0.0],[-70.4482,19.7826,0.0],[-70.4599,19.7849,4.7351],[-70.4715,19.7838,0.0],[-70.4732,19.7851,1.5055],[-70.484,19.7851,3.8737],[-70.511,19.7799,1.2878],[-70.5137,19.7771,6.5316],[-70.5135,19.7721,6.6202],[-70.5182,19.7685,0.0],[-70.5185,19.7643,0.0],[-70.5199,19.7635,0.0],[-70.5199,19.7615,0.0],[-70.5171,19.7607,14.3941],[-70.5174,19.756,28.4259],[-70.5263,19.7551,0.0],[-70.5268,19.7526,1.5105],[-70.5285,19.756,5.1477],[-70.5315,19.7565,6.2498],[-70.5376,19.7546,10.8027],[-70.5413,19.7568,5.4726],[-70.5471,19.7546,2.7956],[-70.5571,19.7646,1.0614],[-70.5618,19.7624,1.3543],[-70.564,19.7646,0.4384],[-70.5676,19.764,0.0],[-70.5735,19.7599,6.7826],[-70.5782,19.7601,4.5255],[-70.5824,19.7571,0.0],[-70.5863,19.7571,0.0],[-70.5876,19.7549,5.1913],[-70.5946,19.7588,0.0],[-70.6068,19.7607,4.495],[-70.6113,19.7649,1.3155],[-70.6171,19.7665,4.0078],[-70.6199,19.7699,1.8949],[-70.6254,19.7638,0.962],[-70.6315,19.7629,4.634],[-70.6382,19.7665,1.9451],[-70.6393,19.7729,2.5268],[-70.6426,19.774,0.0],[-70.6438,19.7724,1.742],[-70.6507,19.7729,4.6431],[-70.6579,19.7796,4.3188],[-70.6601,19.7846,5.33],[-70.664,19.7865,4.0393],[-70.6674,19.7862,3.375],[-70.6701,19.7907,1.0458],[-70.6918,19.801,0.0],[-70.6924,19.804,0.0],[-70.6963,19.8049,2.2976],[-70.6963,19.8029,1.4211],[-70.6993,19.8018,0.0],[-70.6979,19.8004,1.8236],[-70.6988,19.799,1.8236],[-70.7004,19.7985,1.9612],[-70.6999,19.8015,0.0],[-70.7015,19.8021,0.0],[-70.7015,19.7987,2.3612],[-70.7026,19.7987,2.3612],[-70.7054,19.8007,1.4645],[-70.7063,19.8035,0.0],[-70.7026,19.8065,0.0],[-70.711,19.8149,0.0],[-70.7143,19.8146,3.5853],[-70.721,19.8174,1.972],[-70.7232,19.8188,0.0],[-70.7237,19.8218,3.3825],[-70.7257,19.8199,6.8109],[-70.7293,19.8207,0.0],[-70.7296,19.8263,0.0],[-70.7343,19.8268,2.8989],[-70.7349,19.8307,0.0],[-70.7376,19.8301,3.5446],[-70.7376,19.8329,0.0],[-70.7415,19.8329,3.4498],[-70.7435,19.8365,0.0],[-70.7462,19.8379,0.0],[-70.7496,19.8385,5.0405],[-70.7538,19.8365,17.3214],[-70.7574,19.8379,0.0394],[-70.7576,19.8363,7.144],[-70.7643,19.834,2.801],[-70.7718,19.8363,1.3115],[-70.7721,19.8338,8.0883],[-70.7763,19.8293,0.8378],[-70.7818,19.829,4.7835],[-70.7846,19.8332,3.3717],[-70.7787,19.8388,0.0],[-70.7782,19.8421,0.0],[-70.786,19.8499,13.3461],[-70.7876,19.8549,2.7387],[-70.7904,19.856,5.9153],[-70.7907,19.8587,2.0731],[-70.7926,19.8571,0.8933]]]]}}