{"type": "Feature","id": "5090","bbox": [-60.84752,11.14326,-60.647,11.30798],"geometry": {"type": "Polygon","coordinates": [[[-60.64712,11.20417,119.3467],[-60.66456,11.2186,305.0429],[-60.67902,11.231,263.826],[-60.70424,11.24075,249.046],[-60.69441,11.25026,307.8061],[-60.66662,11.26818,327.7139],[-60.647,11.29193,108.2503],[-60.65471,11.30798,0.0],[-60.66861,11.30292,0.0],[-60.6813,11.29645,0.0],[-60.69164,11.28889,0.0],[-60.70971,11.27131,0.0],[-60.79434,11.21662,0.0],[-60.80427,11.20368,0.0],[-60.80993,11.19066,0.0],[-60.82287,11.18553,0.0],[-60.83674,11.18334,0.0],[-60.8452,11.17914,0.0],[-60.84752,11.16397,0.0],[-60.83934,11.15412,7.6892],[-60.82543,11.1518,12.9156],[-60.81041,11.15925,10.9691],[-60.80333,11.14326,0.0],[-60.78645,11.14997,5.2092],[-60.75951,11.17292,70.4246],[-60.74177,11.17707,0.0],[-60.6813,11.2071,266.7949],[-60.67186,11.20673,145.8656],[-60.65978,11.20429,131.4112],[-60.64712,11.20417,119.3467]]]}
,"properties": {"ISO3166-1-Alpha-3": "TTO","country": "Trinidad and Tobago","fill": "#FF0","name": "Western Tobago","area_km2": 140.4026,"hist_schema_id": "Elevation0-9000","hist_area_km2": {"0": 32.6534,"25": 16.6602,"50": 11.002,"75": 9.9827,"100": 9.1507,"125": 9.2339,"150": 8.4436,"175": 10.6895,"200": 9.3374,"225": 7.8401,"250": 5.8021,"275": 2.1835,"300": 0.8733,"325": 0.707,"350": 0.9565,"375": 0.811,"400": 0.9773,"425": 1.0397,"450": 1.0189,"475": 0.7486,"500": 0.2495,"525": 0.0416}}}