{"type":"Feature","properties":{"GID_2":"BLM.1.1_1","GID_0":"BLM","country":"Saint-Barthélemy","GID_1":"BLM.1_1","province":"AuVent","NL_NAME_1":"NA","county":"AnseduGouverneur","VARNAME_2":"NA","NL_NAME_2":"NA","TYPE_2":"Quartier","ENGTYPE_2":"Quarter","CC_2":"NA","HASC_2":"NA","name":"Ansedu_Gouverneur.county"},
"geometry":{"type": "MultiPolygon","coordinates": [[[[-62.8238,17.8857,0.0],[-62.8246,17.8891,9.0673],[-62.8223,17.8897,3.2687],[-62.8224,17.8913,2.1302],[-62.8286,17.8952,21.0376],[-62.8325,17.8931,87.9276],[-62.8339,17.8904,124.2461],[-62.833,17.8864,33.0475],[-62.8356,17.8837,11.5893],[-62.8341,17.8836,0.0],[-62.8313,17.885,7.4182],[-62.828,17.8801,0.0],[-62.8262,17.8835,0.0],[-62.8242,17.8825,4.7633],[-62.8238,17.8857,0.0]]]]}}