{"type": "Feature","bbox": [-61.0559,14.4562,-60.9823,14.5086],"geometry": {"type": "MultiPolygon","coordinates": [[[[-61.0518,14.4562,7.2152],[-61.049,14.4568,0.0],[-61.0471,14.4596,0.0],[-61.0462,14.4682,3.9491],[-61.0412,14.4732,1.4288],[-61.0218,14.4804,0.0],[-61.0174,14.4801,0.0],[-61.0149,14.4763,2.6296],[-61.0082,14.4712,1.2915],[-61.0062,14.4712,0.5452],[-61.0076,14.4738,7.8671],[-61.0054,14.4785,2.414],[-61.0035,14.479,4.1978],[-61.0004,14.4738,34.9297],[-61.0004,14.4701,1.7709],[-60.9974,14.4679,0.0],[-60.9935,14.4682,4.7127],[-60.991,14.466,1.0496],[-60.989,14.4688,0.0],[-60.9896,14.4754,1.0932],[-60.9912,14.4774,0.701],[-60.9885,14.4765,0.0],[-60.9851,14.4724,0.9214],[-60.9823,14.4807,5.3502],[-60.985,14.4991,40.0262],[-61.0106,14.5086,214.5341],[-61.0439,14.4998,215.9893],[-61.0449,14.4934,90.142],[-61.0555,14.469,119.6135],[-61.0559,14.4637,408.0376],[-61.0518,14.4562,7.2152]]]]}
,"properties": {"GID_2": "MTQ.2.2_1","GID_0": "MTQ","country": "Martinique","GID_1": "MTQ.2_1","province": "LeMarin","NL_NAME_1": "NA","county": "LeDiamant","VARNAME_2": "NA","NL_NAME_2": "NA","TYPE_2": "Commune","ENGTYPE_2": "Commune","CC_2": "NA","HASC_2": "MQ.MA.DI","name": "Le_Diamant.county","area_km2": 24.32578,"hist_schema_id": "Elevation0-9000","hist_area_km2": {"0": 3.16147,"25": 4.98843,"50": 3.90037,"75": 2.91496,"100": 2.60702,"125": 1.68325,"150": 1.49849,"175": 0.73898,"200": 0.80058,"225": 0.71846,"250": 0.34896,"275": 0.26686,"300": 0.24632,"325": 0.2258,"350": 0.06158,"375": 0.08212,"400": 0.02053,"425": 0.02053,"450": 0.02053,"475": 0.02053}}}