{"type":"Feature","properties":{"ISO3166-1-Alpha-3":"GRD","country":"Grenada","fill":"#F0F","id":"5070","name":"Saint Andrew"},
"geometry":{"type": "Polygon","coordinates": [[[-61.60322,12.17669,0.0],[-61.63127,12.17916,140.499],[-61.65595,12.17916,352.3549],[-61.66253,12.1586,404.3759],[-61.67651,12.13557,309.1377],[-61.68803,12.12159,300.146],[-61.68638,12.1109,316.9935],[-61.68145,12.09116,393.6675],[-61.67651,12.08458,585.0318],[-61.65842,12.08951,440.2453],[-61.64279,12.08293,215.5485],[-61.6245,12.06904,0.0],[-61.62157,12.07494,0.0],[-61.61636,12.0773,0.0],[-61.61384,12.08039,0.0],[-61.61946,12.09675,0.0],[-61.61978,12.10456,0.0],[-61.61311,12.11986,0.0],[-61.60871,12.12678,6.6206],[-61.60631,12.13378,0.0],[-61.60322,12.17669,0.0]]]}}