{"type": "Feature","bbox": [-61.7,12.0487,-61.6021,12.1728],"geometry": {"type": "MultiPolygon","coordinates": [[[[-61.6371,12.0496,8.1145],[-61.6321,12.0487,0.0],[-61.6371,12.0538,8.2633],[-61.6335,12.0557,13.2132],[-61.6301,12.0551,0.0],[-61.6326,12.059,4.0462],[-61.6321,12.0618,0.0],[-61.6279,12.0593,2.8539],[-61.6282,12.0618,0.0],[-61.6254,12.0615,0.0],[-61.6257,12.0632,0.0],[-61.624,12.0638,0.0],[-61.6271,12.0651,27.9638],[-61.6265,12.0751,8.1596],[-61.6229,12.0765,6.6851],[-61.6196,12.074,1.3538],[-61.6188,12.0765,9.5721],[-61.6168,12.0765,0.0],[-61.6221,12.0838,0.0],[-61.6207,12.0854,0.0],[-61.6218,12.0896,0.0],[-61.6257,12.0946,0.0],[-61.6246,12.0996,1.8495],[-61.6221,12.1018,0.0],[-61.6271,12.1062,8.5103],[-61.6268,12.1121,9.7975],[-61.6243,12.1179,3.1762],[-61.6196,12.1243,2.3781],[-61.6124,12.1229,0.0],[-61.6079,12.1249,2.9674],[-61.604,12.1215,0.0],[-61.6026,12.1249,4.3903],[-61.6029,12.1265,4.3058],[-61.6076,12.1263,5.1369],[-61.6096,12.1351,0.0],[-61.6051,12.1668,0.0],[-61.6021,12.1687,0.5632],[-61.6029,12.1728,3.0703],[-61.6361,12.1694,178.4942],[-61.645,12.1706,215.976],[-61.6566,12.1688,382.9574],[-61.6649,12.1695,473.3343],[-61.6721,12.1676,609.5983],[-61.6763,12.1567,674.1393],[-61.6804,12.1518,489.0023],[-61.6875,12.1375,377.8382],[-61.6972,12.1268,493.4154],[-61.6993,12.1223,587.0185],[-61.7,12.0987,550.3746],[-61.6978,12.091,534.2719],[-61.6985,12.0808,486.972],[-61.6941,12.0728,621.9294],[-61.6823,12.0752,538.6683],[-61.6725,12.0735,498.0883],[-61.6493,12.0593,94.7178],[-61.6371,12.0496,8.1145]]]]}
,"properties": {"GID_1": "GRD.2_1","GID_0": "GRD","country": "Grenada","province": "SaintAndrew","VARNAME_1": "NA","NL_NAME_1": "NA","TYPE_1": "Parish","ENGTYPE_1": "Parish","CC_1": "NA","HASC_1": "GD.AN","ISO_1": "GD-01","name": "Saint_Andrew.province","area_km2": 95.64735,"hist_schema_id": "Elevation0-9000","hist_area_km2": {"0": 6.3016,"25": 8.47842,"50": 6.65423,"75": 5.45194,"100": 4.2082,"125": 3.93864,"150": 4.95434,"175": 4.00084,"200": 4.39465,"225": 4.80922,"250": 3.98011,"275": 3.6899,"300": 3.31677,"325": 3.02655,"350": 3.04727,"375": 2.69486,"400": 3.23384,"425": 2.40472,"450": 2.52914,"475": 2.77792,"500": 2.59137,"525": 2.4048,"550": 1.84505,"575": 1.61697,"600": 1.14014,"625": 0.95358,"650": 0.4353,"675": 0.4353,"700": 0.16583,"725": 0.10365,"750": 0.06219}}}