{"type":"Feature","properties":{"GID_2":"DOM.7.1_1","GID_0":"DOM","country":"DominicanRepublic","GID_1":"DOM.7_1","province":"ElSeybo","NL_NAME_1":"NA","county":"Miches","VARNAME_2":"NA","NL_NAME_2":"NA","TYPE_2":"Municipio","ENGTYPE_2":"Municipality","CC_2":"NA","HASC_2":"DO.SE.MI","name":"Miches.county"},
"geometry":{"type": "MultiPolygon","coordinates": [[[[-68.847,18.8993,257.3578],[-68.8417,18.8994,143.3891],[-68.8421,18.9068,168.1],[-68.8387,18.9113,132.0852],[-68.8192,18.923,50.4055],[-68.8187,18.9329,44.407],[-68.8211,18.94,40.8373],[-68.8186,18.9445,36.8214],[-68.8073,18.9523,25.9142],[-68.8011,18.9601,25.9203],[-68.7919,18.9582,18.6412],[-68.788,18.9592,4.6576],[-68.7864,18.9625,5.1266],[-68.7885,18.9673,0.3347],[-68.7878,18.9701,1.9822],[-68.7851,18.971,0.5435],[-68.7784,18.9673,6.1094],[-68.7765,18.9735,5.0555],[-68.7838,18.9749,7.8638],[-68.7957,18.9813,2.9932],[-68.8079,18.9826,0.0],[-68.8132,18.9807,3.1735],[-68.8274,18.9879,8.17],[-68.8354,18.9951,4.6317],[-68.8501,18.9965,4.7009],[-68.8557,18.9918,4.0834],[-68.8637,18.9915,3.1984],[-68.8729,18.9957,0.7668],[-68.8771,19.0001,0.0],[-68.9076,19.0193,1.7573],[-68.916,19.0263,1.8893],[-68.9207,19.0282,1.4337],[-68.929,19.0271,0.0],[-68.9418,19.0315,4.4709],[-68.9482,19.0315,0.0],[-68.954,19.026,1.7545],[-68.9693,19.0312,0.0],[-68.9696,19.0296,5.9428],[-68.9793,19.0249,0.0],[-68.9776,19.0215,0.0],[-68.9799,19.0168,7.2085],[-68.9857,19.0138,0.0],[-68.9965,19.014,1.696],[-69.0001,19.0154,5.9599],[-69.0035,19.0193,0.0],[-69.014,19.0149,1.6757],[-69.0143,19.0113,0.0],[-69.0057,19.0046,1.0049],[-69.0026,19.0001,0.0],[-69.0026,18.9976,1.4202],[-69.0071,18.9907,3.3699],[-69.0196,18.9857,0.4838],[-69.0349,18.9851,5.9172],[-69.0424,18.9876,0.385],[-69.0446,18.986,0.0],[-69.0593,18.9857,0.0],[-69.0632,18.9843,6.8003],[-69.0687,18.9876,0.0],[-69.074,18.9865,11.1773],[-69.0835,18.9963,3.4316],[-69.0862,18.9946,5.438],[-69.0957,18.999,0.0],[-69.0993,19.0107,0.9174],[-69.1085,19.0099,4.586],[-69.1154,19.0115,6.2165],[-69.1215,19.0193,0.0],[-69.126,19.0304,5.1364],[-69.131,19.0354,6.3234],[-69.134,19.0413,1.1638],[-69.1424,19.0438,0.0],[-69.1493,19.0426,1.9605],[-69.1551,19.0371,0.8779],[-69.1504,19.0396,2.3749],[-69.1432,19.0401,0.342],[-69.1399,19.0376,1.8419],[-69.1368,19.0321,2.216],[-69.1357,19.0079,0.0],[-69.1404,18.999,4.9915],[-69.1454,18.9968,3.4923],[-69.1515,18.9999,6.222],[-69.1521,19.0024,6.4385],[-69.149,19.0071,0.0],[-69.1526,19.0076,0.5551],[-69.1543,19.0129,0.7823],[-69.1585,19.0113,1.176],[-69.1632,19.0129,2.4315],[-69.1671,19.0096,4.8061],[-69.1859,19.0062,4.4675],[-69.1815,18.9984,13.0374],[-69.1805,18.9742,59.469],[-69.177,18.968,82.927],[-69.1655,18.9545,257.4861],[-69.1387,18.9393,455.8144],[-69.1202,18.9238,537.5638],[-69.1056,18.9219,536.0748],[-69.0983,18.9124,525.2653],[-69.0868,18.902,564.9036],[-69.0751,18.9086,450.042],[-69.0556,18.8952,348.8033],[-69.0416,18.8976,162.4421],[-69.0229,18.8896,468.2325],[-69.0149,18.8916,167.6807],[-69.0023,18.889,205.0459],[-68.9901,18.8941,185.1415],[-68.9805,18.8924,283.5887],[-68.974,18.9044,153.5423],[-68.967,18.9066,172.1133],[-68.9439,18.9188,110.8159],[-68.9368,18.9197,143.7553],[-68.9296,18.9191,125.1063],[-68.9196,18.9138,157.3021],[-68.9051,18.916,168.4166],[-68.8963,18.9089,283.3015],[-68.8735,18.8968,275.7391],[-68.8651,18.8969,406.7102],[-68.8587,18.9016,506.572],[-68.847,18.8993,257.3578]]],
[[[-68.7764,18.9743,0.0],[-68.7765,18.9743,0.0],[-68.7765,18.9735,5.0555],[-68.7764,18.9743,0.0]]],
[[[-69.1701,19.016,0.0],[-69.1729,19.016,0.0],[-69.1743,19.0143,0.0],[-69.1679,19.0146,0.0],[-69.1701,19.016,0.0]]]]}}