{"type": "Feature","bbox": [-72.4978,19.2053,-72.2007,19.5918],"geometry": {"type": "MultiPolygon","coordinates": [[[[-72.2406,19.2566,337.3788],[-72.242,19.2647,339.0041],[-72.2383,19.2701,345.8694],[-72.2311,19.275,338.4589],[-72.2266,19.2748,333.7155],[-72.2208,19.281,338.1042],[-72.2179,19.2868,351.9695],[-72.2033,19.2984,352.5571],[-72.2007,19.3113,338.7697],[-72.206,19.3151,339.6081],[-72.2084,19.319,345.3045],[-72.2239,19.325,361.6633],[-72.2255,19.3276,363.7639],[-72.2243,19.3384,364.9454],[-72.2307,19.3433,375.5261],[-72.2277,19.3439,374.2362],[-72.2333,19.3583,389.2884],[-72.2303,19.3637,389.5883],[-72.2323,19.369,406.6003],[-72.2364,19.373,418.8854],[-72.2415,19.3746,433.7637],[-72.2486,19.3845,498.5009],[-72.2443,19.3864,495.7994],[-72.2426,19.3855,489.7761],[-72.2422,19.3875,508.5589],[-72.2405,19.3878,508.5589],[-72.2288,19.3841,483.429],[-72.2314,19.3915,629.4399],[-72.2293,19.4,663.8788],[-72.2315,19.4072,734.946],[-72.2311,19.4171,720.9031],[-72.223,19.4155,533.7089],[-72.2241,19.4168,603.0646],[-72.2232,19.4197,585.9904],[-72.2299,19.4261,733.4584],[-72.2297,19.4299,689.2186],[-72.2265,19.4326,682.2286],[-72.2285,19.4346,684.7346],[-72.2318,19.4343,703.1454],[-72.2359,19.4366,706.8491],[-72.2384,19.4397,780.2346],[-72.2501,19.4443,793.1672],[-72.2519,19.4534,815.5338],[-72.257,19.456,929.222],[-72.2536,19.4716,1023.441],[-72.2495,19.4769,1029.4791],[-72.2607,19.4758,1033.7133],[-72.2654,19.4706,1051.5137],[-72.2732,19.4697,963.5215],[-72.2756,19.4639,991.3008],[-72.2821,19.4672,866.6036],[-72.2882,19.4677,881.0596],[-72.3068,19.4654,594.3735],[-72.3204,19.4597,580.7158],[-72.3288,19.4629,590.4155],[-72.3272,19.4702,630.8562],[-72.3231,19.4773,774.4343],[-72.3222,19.4767,765.5353],[-72.3209,19.4856,878.1571],[-72.3187,19.4872,895.7003],[-72.3254,19.4896,1017.6572],[-72.326,19.5004,905.6848],[-72.3316,19.5054,870.92],[-72.3271,19.5104,685.5735],[-72.3221,19.5109,597.5599],[-72.3254,19.5265,703.8717],[-72.328,19.5275,799.0345],[-72.3312,19.5324,781.7664],[-72.325,19.5394,574.3357],[-72.3253,19.5433,638.8629],[-72.3232,19.5448,648.1724],[-72.323,19.5542,844.6874],[-72.3191,19.5586,931.5298],[-72.3225,19.5613,849.004],[-72.3246,19.5699,834.3412],[-72.3278,19.572,862.7229],[-72.3348,19.5706,726.8177],[-72.347,19.5737,677.6996],[-72.359,19.5726,700.6667],[-72.3621,19.5672,662.0181],[-72.3649,19.5653,562.9202],[-72.3666,19.566,505.3906],[-72.3647,19.575,556.0079],[-72.3663,19.5764,566.8983],[-72.3619,19.5783,675.2247],[-72.3592,19.5817,806.0685],[-72.3591,19.5855,854.6483],[-72.3629,19.5878,792.7656],[-72.3652,19.5918,775.7844],[-72.3745,19.5901,834.2991],[-72.3774,19.5883,736.4026],[-72.3786,19.5853,815.0162],[-72.3812,19.5854,872.6995],[-72.39,19.5739,705.847],[-72.3913,19.5707,625.9139],[-72.3902,19.566,427.691],[-72.3932,19.5621,420.2741],[-72.4001,19.5639,374.271],[-72.4039,19.5692,383.6911],[-72.4084,19.5676,338.6413],[-72.4093,19.5708,365.669],[-72.4118,19.5713,316.9162],[-72.4231,19.5652,600.8245],[-72.4248,19.5588,618.8215],[-72.415,19.545,620.0725],[-72.4176,19.5394,703.4237],[-72.4247,19.5297,963.8706],[-72.4332,19.5252,992.4704],[-72.44,19.528,1032.0116],[-72.4419,19.5227,1014.9863],[-72.4472,19.5213,991.9094],[-72.4439,19.5155,945.8076],[-72.4394,19.5127,825.4924],[-72.4354,19.515,886.0077],[-72.4318,19.5083,857.1904],[-72.4166,19.5004,854.7438],[-72.415,19.4984,746.5402],[-72.414,19.4914,791.8958],[-72.4097,19.4843,690.3174],[-72.404,19.4805,660.84],[-72.4045,19.4776,591.723],[-72.4025,19.4752,588.5472],[-72.4035,19.4721,559.164],[-72.4073,19.4696,612.3664],[-72.4127,19.4698,594.142],[-72.4174,19.4648,492.6208],[-72.4165,19.4632,520.5197],[-72.4021,19.4615,618.9662],[-72.393,19.467,679.0065],[-72.3871,19.4665,681.2908],[-72.3798,19.4701,656.6255],[-72.3751,19.4631,655.7411],[-72.3731,19.4635,661.9531],[-72.3702,19.4701,775.0693],[-72.3634,19.477,803.7561],[-72.3575,19.4769,777.9929],[-72.3577,19.4732,684.5507],[-72.3661,19.4603,626.3542],[-72.3781,19.4574,690.8316],[-72.3819,19.453,650.0266],[-72.3817,19.4479,600.5767],[-72.378,19.4431,572.8593],[-72.3791,19.4407,585.8489],[-72.3876,19.4445,567.4992],[-72.3872,19.439,538.7219],[-72.39,19.4354,541.7183],[-72.3887,19.4298,530.1619],[-72.3898,19.4262,507.5657],[-72.4063,19.4222,550.1678],[-72.4123,19.4184,605.7147],[-72.4139,19.4157,724.5416],[-72.4108,19.4087,575.9822],[-72.4268,19.4051,649.2892],[-72.4248,19.4011,620.1245],[-72.4251,19.3985,630.4087],[-72.4368,19.3971,976.071],[-72.4472,19.4046,1120.3956],[-72.4595,19.407,1441.1378],[-72.4577,19.4023,1424.8074],[-72.4539,19.4006,1429.8468],[-72.4522,19.3953,1400.9664],[-72.4627,19.392,1097.0793],[-72.4656,19.3894,785.7374],[-72.4676,19.3838,741.0642],[-72.4774,19.3832,612.2684],[-72.4785,19.3821,612.2684],[-72.4766,19.3793,606.591],[-72.4773,19.3776,597.4786],[-72.4823,19.3746,650.9388],[-72.486,19.3684,569.4365],[-72.4953,19.3696,440.7147],[-72.496,19.3598,431.5237],[-72.4933,19.3533,593.4191],[-72.4965,19.337,708.8163],[-72.4978,19.3371,713.3015],[-72.4948,19.3315,717.6787],[-72.487,19.3251,650.7643],[-72.4826,19.3134,542.2041],[-72.4724,19.3042,509.1223],[-72.4597,19.2968,527.0792],[-72.4566,19.2934,525.9551],[-72.4551,19.2883,573.7548],[-72.4193,19.25,682.4005],[-72.4093,19.2447,476.1726],[-72.4046,19.2495,509.0728],[-72.3899,19.2412,557.2491],[-72.3841,19.244,505.8164],[-72.3781,19.2419,538.832],[-72.3647,19.2296,642.7027],[-72.3543,19.2313,712.7155],[-72.3487,19.2255,753.225],[-72.3375,19.2218,837.704],[-72.3273,19.215699999999998,649.0646],[-72.3115,19.2138,548.3807],[-72.3045,19.2076,543.2941],[-72.2986,19.2053,453.5332],[-72.2867,19.209,407.2327],[-72.2842,19.2092,393.7795],[-72.2813,19.207,406.5353],[-72.2741,19.213,359.7169],[-72.268,19.2133,340.8485],[-72.2647,19.2173,343.348],[-72.2616,19.2186,328.2475],[-72.2562,19.2274,320.6881],[-72.2488,19.2314,300.7162],[-72.2417,19.2321,292.456],[-72.2391,19.2518,320.7842],[-72.2406,19.2566,337.3788]]]]}
,"properties": {"GID_2": "HTI.3.4_1","GID_0": "HTI","country": "Haiti","GID_1": "HTI.3_1","province": "L'Artibonite","NL_NAME_1": "NA","county": "Marmelade","VARNAME_2": "NA","NL_NAME_2": "NA","TYPE_2": "Arrondissement","ENGTYPE_2": "District","CC_2": "NA","HASC_2": "HT.AR.MM","name": "Marmelade.county","area_km2": 717.4903,"hist_schema_id": "Elevation0-9000","hist_area_km2": {"300": 6.1452,"325": 24.919,"350": 72.7649,"375": 70.1745,"400": 60.0421,"425": 46.0544,"450": 36.9714,"475": 39.0091,"500": 40.3662,"525": 37.7416,"550": 33.0197,"575": 28.9771,"600": 25.0159,"625": 22.9735,"650": 20.6329,"675": 17.4531,"700": 16.6126,"725": 15.8721,"750": 14.1327,"775": 12.7927,"800": 11.6336,"825": 9.8942,"850": 9.1141,"875": 7.2354,"900": 6.396,"925": 5.2568,"950": 4.4576,"975": 4.0976,"1000": 4.4773,"1025": 3.0583,"1050": 1.6792,"1075": 0.9997,"1100": 0.54,"1125": 0.54,"1150": 0.68,"1175": 0.82,"1200": 0.44,"1225": 0.44,"1250": 0.54,"1275": 0.4,"1300": 0.44,"1325": 0.44,"1350": 0.46,"1375": 0.42,"1400": 0.66,"1425": 0.48,"1450": 0.18,"1475": 0.04}}}