{"type":"Feature","properties":{"ISO3166-1-Alpha-3":"DOM","country":"Dominican Republic","fill":"#00F","id":"1982","name":"María Trinidad Sánchez"},
"geometry":{"type": "Polygon","coordinates": [[[-69.77148,19.30325,0.0],[-69.80138,19.33088,0.0],[-69.86799,19.42528,7.8784],[-69.87438,19.44115,6.1167],[-69.87682,19.461,5.4844],[-69.87654,19.50666,2.1481],[-69.88414,19.5244,0.0],[-69.90416,19.53238,1.7061],[-69.88777,19.58735,0.0],[-69.8872,19.61274,23.8133],[-69.89794,19.63597,19.4537],[-69.93204,19.67015,0.0],[-69.94726,19.67866,0.0],[-69.95954,19.68012,4.0111],[-69.98668,19.67764,33.784],[-70.0421,19.67845,0.0],[-70.06102,19.67011,14.4409],[-70.09404,19.63672,0.0],[-70.09404,19.63666,0.0],[-70.09342,19.63074,4.6826],[-70.11199,19.5787,24.5333],[-70.16147,19.55142,190.8736],[-70.18483,19.55294,200.8991],[-70.20617,19.55165,289.5434],[-70.21209,19.52597,700.6214],[-70.21514,19.49739,381.8903],[-70.17966,19.477,270.1497],[-70.14574,19.4552,302.7393],[-70.13396,19.42352,252.0072],[-70.13106,19.38923,488.4159],[-70.11869,19.34709,469.1107],[-70.08393,19.32303,185.8679],[-70.05355,19.31934,152.516],[-70.03993,19.29611,226.599],[-69.99128,19.25712,211.9053],[-69.9226,19.24069,120.0359],[-69.85542,19.21074,13.3639],[-69.78615,19.19805,3.0492],[-69.79281,19.22159,10.989],[-69.78659,19.24634,5.9472],[-69.77726,19.27138,0.8566],[-69.77364,19.2982,6.5987],[-69.77148,19.30325,0.0]]]}}