{"type":"Feature","properties":{"GID_2":"CUB.1.8_1","GID_0":"CUB","country":"Cuba","GID_1":"CUB.1_1","province":"Camagüey","NL_NAME_1":"NA","county":"Najasa","VARNAME_2":"NA","NL_NAME_2":"NA","TYPE_2":"Municipio","ENGTYPE_2":"Municipality","CC_2":"NA","HASC_2":"CU.CM.NA","name":"Najasa.county"},
"geometry":{"type": "MultiPolygon","coordinates": [[[[-77.6123,21.0921,89.3768],[-77.6796,21.1319,108.5916],[-77.6979,21.1658,118.5498],[-77.7014,21.195,115.4082],[-77.7117,21.2276,125.0602],[-77.7204,21.2305,126.2279],[-77.7444,21.2307,124.7999],[-77.7908,21.2093,120.861],[-77.7955,21.1992,129.2459],[-77.7954,21.1732,115.0927],[-77.7979,21.1637,112.2834],[-77.8095,21.152,130.0162],[-77.8393,21.134,98.4916],[-77.8672,21.1252,84.2965],[-77.8857,21.1229,72.6448],[-77.8998,21.1174,67.1295],[-77.9099,21.1162,68.2854],[-77.9177,21.1179,63.8247],[-77.9762,21.1458,84.6739],[-77.9859,21.1464,86.0465],[-78.0097,21.134,77.3238],[-78.0486,21.0955,51.9192],[-78.0479,21.0468,43.7967],[-78.0295,21.0407,49.5563],[-78.0123,21.0284,58.7017],[-77.9949,21.0203,56.7613],[-77.9685,21.0162,44.0684],[-77.9422,21.0084,45.4329],[-77.9277,21.0009,57.266],[-77.9177,20.9866,48.7538],[-77.9045,20.9456,47.9121],[-77.885,20.9103,58.2865],[-77.8789,20.906,59.4468],[-77.8633,20.9025,59.5525],[-77.8422,20.8927,57.4127],[-77.8215,20.8756,49.4898],[-77.8025,20.8648,43.8366],[-77.7728,20.8358,34.2289],[-77.7605,20.848,42.0511],[-77.755,20.851,43.2641],[-77.7417,20.8541,52.3297],[-77.7124,20.8547,52.0584],[-77.6835,20.8518,46.4596],[-77.6661,20.8523,55.4105],[-77.6583,20.8542,55.3832],[-77.6531,20.8601,61.5528],[-77.6532,20.8634,55.1548],[-77.6595,20.8674,63.0968],[-77.6608,20.8721,52.2096],[-77.6597,20.881,53.1492],[-77.6555,20.8914,46.9265],[-77.6551,20.9256,70.1983],[-77.6536,20.935,80.1385],[-77.6509,20.9398,65.447],[-77.6432,20.9425,71.4022],[-77.637,20.942,75.6894],[-77.6288,20.9371,72.8128],[-77.6143,20.9237,66.6809],[-77.6103,20.9223,72.3228],[-77.6117,20.9875,66.5475],[-77.6275,21.0136,68.2681],[-77.6295,21.0381,85.1349],[-77.6276,21.0671,83.7982],[-77.6123,21.0921,89.3768]]]]}}