{"type":"Feature","properties":{"GID_1":"PRI.4_1","GID_0":"PRI","country":"PuertoRico","province":"AguasBuenas","VARNAME_1":"NA","NL_NAME_1":"NA","TYPE_1":"Municipio","ENGTYPE_1":"Municipality","CC_1":"NA","HASC_1":"PR.AB","ISO_1":"-","name":"Aguas_Buenas.province"},
"geometry":{"type": "MultiPolygon","coordinates": [[[[-66.1906,18.2585,539.0855],[-66.1781,18.2452,550.0321],[-66.1781,18.2352,401.4366],[-66.1762,18.2295,465.0384],[-66.1688,18.2242,501.482],[-66.1605,18.22,424.605],[-66.1499,18.2252,341.3057],[-66.1462,18.2305,286.1281],[-66.1439,18.2281,331.1807],[-66.1415,18.1976,405.8584],[-66.1373,18.1976,444.2947],[-66.1263,18.2062,498.8392],[-66.1032,18.2162,463.6194],[-66.0851,18.2358,331.9881],[-66.0773,18.2496,101.2262],[-66.0768,18.2592,171.0002],[-66.0662,18.303,84.7739],[-66.0732,18.2978,124.8466],[-66.0769,18.2963,157.6164],[-66.0806,18.2973,185.9478],[-66.094,18.292,184.3376],[-66.0995,18.2815,346.0735],[-66.1083,18.2777,486.6622],[-66.1208,18.2815,260.7719],[-66.1439,18.2796,165.9988],[-66.1597,18.2829,456.909],[-66.1675,18.2781,450.4623],[-66.1726,18.2786,475.1206],[-66.1846,18.2681,518.6443],[-66.1906,18.2585,539.0855]]]]}}