{"type": "Feature","bbox": [-72.3582,18.3115,-71.9526,18.8181],"geometry": {"type": "MultiPolygon","coordinates": [[[[-72.1356,18.521,142.4711],[-72.142,18.5248,120.97],[-72.141,18.5405,99.2301],[-72.1531,18.5414,83.6606],[-72.1537,18.555,72.2128],[-72.1503,18.5577,68.5691],[-72.1485,18.5619,65.3494],[-72.1511,18.5641,62.4411],[-72.1534,18.5836,47.324],[-72.1565,18.5867,44.8174],[-72.1545,18.5888,43.1326],[-72.1529,18.6017,37.846],[-72.1552,18.6089,33.198],[-72.1733,18.6107,29.3626],[-72.1734,18.6137,29.3776],[-72.1863,18.6101,28.3614],[-72.1936,18.6351,24.7273],[-72.2211,18.6495,20.8463],[-72.2477,18.646,19.3011],[-72.2403,18.6674,87.6372],[-72.2434,18.6803,170.1728],[-72.2443,18.6928,418.4393],[-72.2407,18.6971,603.6221],[-72.2418,18.7032,727.334],[-72.2381,18.7069,871.4716],[-72.2374,18.7166,788.7325],[-72.2354,18.7183,715.4448],[-72.2364,18.7225,829.3031],[-72.2397,18.7261,782.5091],[-72.2391,18.7302,784.9467],[-72.2373,18.7336,757.7532],[-72.2306,18.738,755.465],[-72.231,18.7527,585.7325],[-72.2216,18.7568,622.537],[-72.2215,18.759,621.631],[-72.2265,18.7669,515.2426],[-72.2251,18.769,396.9785],[-72.2258,18.7762,374.0027],[-72.229,18.778,374.8501],[-72.2372,18.7774,459.7525],[-72.2455,18.7805,460.4634],[-72.2573,18.789,454.9962],[-72.2621,18.7892,476.2366],[-72.279,18.7974,626.4153],[-72.2744,18.7999,544.291],[-72.2724,18.804,580.2637],[-72.2746,18.8074,550.9783],[-72.2789,18.8087,617.0153],[-72.2817,18.8165,564.5273],[-72.3031,18.8181,778.615],[-72.3092,18.8164,867.7892],[-72.3139,18.8127,1064.4277],[-72.3194,18.8116,1132.9448],[-72.3275,18.7968,842.859],[-72.3322,18.7962,707.2179],[-72.33,18.792,775.345],[-72.3263,18.7893,770.7137],[-72.3362,18.7828,691.334],[-72.3326,18.7806,785.1826],[-72.3357,18.7794,839.3795],[-72.3439,18.7707,489.3696],[-72.3524,18.7693,265.2259],[-72.3559,18.7674,220.3781],[-72.3575,18.7645,202.8164],[-72.3574,18.7616,303.463],[-72.3531,18.7608,344.8662],[-72.3519,18.7568,400.4719],[-72.3523,18.7525,408.5323],[-72.3582,18.7472,309.266],[-72.3517,18.7397,444.5763],[-72.352,18.7357,354.5986],[-72.3495,18.7339,391.4292],[-72.3442,18.7361,422.0345],[-72.3318,18.7327,442.1079],[-72.3285,18.7338,518.486],[-72.3285,18.7299,341.4631],[-72.3353,18.7262,288.3969],[-72.338,18.7224,198.5626],[-72.334,18.7148,186.4383],[-72.3363,18.7109,136.2289],[-72.3322,18.7084,152.3402],[-72.3257,18.7073,189.0176],[-72.3226,18.7036,181.491],[-72.3119,18.7037,299.7309],[-72.3167,18.693,109.5723],[-72.321,18.6925,95.3163],[-72.3235,18.6888,77.5312],[-72.332,18.6826,2.666],[-72.3221,18.6796,4.0633],[-72.3202,18.6746,0.3876],[-72.3221,18.674,0.0],[-72.3182,18.6719,0.2915],[-72.3191,18.6596,0.0],[-72.3217,18.6572,0.0],[-72.3285,18.6551,0.4167],[-72.3366,18.6477,0.1746],[-72.3477,18.6273,0.0],[-72.3536,18.6273,0.4495],[-72.3358,18.621,4.9427],[-72.3351,18.6175,5.4146],[-72.3267,18.6159,6.5709],[-72.3264,18.6136,7.458],[-72.3283,18.6134,6.3311],[-72.3274,18.6117,7.3081],[-72.3248,18.6136,7.458],[-72.3207,18.61,9.9384],[-72.3152,18.6101,9.7597],[-72.3141,18.6081,13.4468],[-72.3161,18.6065,12.0795],[-72.3129,18.6043,11.5319],[-72.3068,18.6067,12.5872],[-72.303,18.6047,13.3697],[-72.3012,18.6058,14.7962],[-72.3003,18.6095,16.9347],[-72.2959,18.6073,18.776],[-72.295,18.6034,21.9233],[-72.2889,18.6012,26.4355],[-72.2892,18.5976,26.1525],[-72.2816,18.5991,28.2733],[-72.2783,18.5981,27.156],[-72.2737,18.5998,30.4859],[-72.2682,18.596,33.5235],[-72.2658,18.5969,34.2064],[-72.2564,18.5935,38.834],[-72.2536,18.5873,44.7157],[-72.2486,18.5869,47.4616],[-72.2489,18.5814,54.6986],[-72.2434,18.5778,55.1062],[-72.2428,18.5733,57.2441],[-72.2364,18.5647,65.8684],[-72.233,18.5551,81.5633],[-72.2104,18.5216,128.5663],[-72.2074,18.5103,152.8221],[-72.1908,18.4925,383.5316],[-72.1876,18.4832,246.6672],[-72.1837,18.4833,247.0912],[-72.1851,18.4816,310.9762],[-72.1827,18.4798,253.6516],[-72.1796,18.4852,242.8692],[-72.178,18.4849,249.356],[-72.1756,18.4833,260.8508],[-72.1776,18.4803,302.2468],[-72.1752,18.48,289.3225],[-72.1746,18.4824,260.8508],[-72.1735,18.4822,289.4678],[-72.1687,18.4767,263.4382],[-72.1711,18.4745,278.7098],[-72.166,18.4735,364.7493],[-72.1661,18.4719,275.3092],[-72.1688,18.4709,306.9005],[-72.1682,18.4686,368.9878],[-72.1642,18.4697,288.662],[-72.1593,18.4687,290.6485],[-72.1607,18.4649,308.5334],[-72.1589,18.4599,317.948],[-72.1596,18.4522,378.2389],[-72.1612,18.4505,365.8191],[-72.1703,18.4481,381.2874],[-72.172,18.4462,388.4833],[-72.1754,18.4462,353.2731],[-72.1763,18.4428,378.8316],[-72.1737,18.4389,389.0767],[-72.1789,18.4365,372.6778],[-72.1795,18.4346,366.3231],[-72.1786,18.43,399.4015],[-72.1738,18.4351,399.2213],[-72.1709,18.432,435.9906],[-72.1667,18.4336,407.3013],[-72.1649,18.4297,427.2964],[-72.1727,18.4294,441.6948],[-72.1724,18.424,435.3661],[-72.177,18.4211,462.7037],[-72.1782,18.4176,444.0676],[-72.1822,18.4194,447.3837],[-72.1922,18.4195,550.3911],[-72.1949,18.4208,649.1754],[-72.196,18.4184,515.9111],[-72.1982,18.4186,627.6304],[-72.2017,18.4128,623.5733],[-72.2053,18.4113,606.0098],[-72.206,18.408,520.9982],[-72.2103,18.4044,521.7293],[-72.2073,18.4009,602.1218],[-72.2029,18.3902,700.6812],[-72.2045,18.3836,766.5869],[-72.2016,18.3786,878.8071],[-72.2045,18.365,1209.2993],[-72.2015,18.3604,1409.2166],[-72.1994,18.3522,2046.9587],[-72.1899,18.3532,1969.0972],[-72.182,18.3477,1937.8466],[-72.1759,18.3459,1704.5225],[-72.1715,18.3475,1562.5281],[-72.1563,18.348,1808.5867],[-72.1472,18.3456,1787.295],[-72.1373,18.3393,1859.3376],[-72.1276,18.3364,1879.6881],[-72.1158,18.3369,1904.549],[-72.1061,18.3354,1872.4426],[-72.0902,18.3375,1786.3644],[-72.084,18.3347,1666.4542],[-72.0755,18.3244,1548.5406],[-72.0674,18.3202,1380.7856],[-72.0647,18.3199,1439.4017],[-72.0558,18.3264,1836.5472],[-72.0482,18.325,1879.2764],[-72.0457,18.3204,1830.2443],[-72.0418,18.3206,1909.8571],[-72.0396,18.323,1896.3727],[-72.0392,18.3275,1922.9287],[-72.0327,18.3196,1844.3323],[-72.0126,18.3169,1587.0013],[-72.0039,18.3178,1675.5206],[-72.0022,18.3115,1555.293],[-71.9858,18.3148,1811.4943],[-71.9742,18.3128,1839.7937],[-71.9661,18.3161,1913.1041],[-71.9526,18.3173,1796.6917],[-71.9651,18.3252,2044.424],[-71.9692,18.3305,2122.4573],[-71.9671,18.3347,2123.7407],[-71.968,18.3385,2150.2217],[-71.9653,18.3524,2305.3765],[-71.9651,18.3562,2365.0425],[-71.9673,18.3606,2564.9353],[-71.9662,18.3707,2243.873],[-71.9732,18.3767,1953.0739],[-71.9748,18.3861,1623.9923],[-71.9877,18.3861,1468.6416],[-71.9931,18.3925,1381.8967],[-72.011,18.3954,1143.8965],[-72.0145,18.3972,1268.3245],[-72.0181,18.3939,1062.0312],[-72.0344,18.3981,978.7187],[-72.0419,18.392,935.2692],[-72.05,18.4018,838.883],[-72.0512,18.4106,836.0699],[-72.0652,18.4225,716.4312],[-72.064,18.43,672.1326],[-72.0729,18.433,615.5483],[-72.0772,18.4387,602.335],[-72.0839,18.4393,560.4878],[-72.0929,18.4345,524.2491],[-72.0956,18.437,545.1504],[-72.0954,18.4405,540.6989],[-72.098,18.4423,477.4595],[-72.1017,18.4422,500.8527],[-72.1031,18.4462,459.8574],[-72.112,18.4506,440.321],[-72.1121,18.4565,456.7073],[-72.121,18.4739,401.8304],[-72.1198,18.4788,404.4069],[-72.1207,18.4871,365.41],[-72.1163,18.4928,266.1982],[-72.1163,18.4961,260.5459],[-72.1199,18.5003,220.9239],[-72.1206,18.505,206.465],[-72.1309,18.5135,191.8973],[-72.1306,18.5193,156.5711],[-72.1356,18.521,142.4711]]]]}
,"properties": {"GID_3": "HTI.8.1.2_1","GID_0": "HTI","country": "Haiti","GID_1": "HTI.8_1","province": "Ouest","NL_NAME_1": "NA","GID_2": "HTI.8.1_1","county": "Croix-des-Bouquets","NL_NAME_2": "NA","city": "Croix-desBouquets","VARNAME_3": "NA","NL_NAME_3": "NA","TYPE_3": "Commune","ENGTYPE_3": "Commune","CC_3": "NA","HASC_3": "NA","name": "Croix-des_Bouquets.city","area_km2": 639.5234,"hist_schema_id": "Elevation0-9000","hist_area_km2": {"0": 27.8646,"25": 66.3838,"50": 38.1409,"75": 18.6901,"100": 20.9432,"125": 13.7483,"150": 8.281,"175": 4.5415,"200": 3.9185,"225": 4.2598,"250": 4.1391,"275": 3.5764,"300": 4.3198,"325": 4.4399,"350": 4.9625,"375": 4.6213,"400": 5.0024,"425": 6.0675,"450": 7.4126,"475": 9.9432,"500": 10.4056,"525": 11.9723,"550": 11.8923,"575": 10.2052,"600": 10.83,"625": 10.7885,"650": 10.6282,"675": 11.412,"700": 10.1669,"725": 10.369,"750": 9.2643,"775": 9.1835,"800": 8.4005,"825": 8.8835,"850": 7.5981,"875": 6.7747,"900": 6.7349,"925": 6.5144,"950": 7.5601,"975": 7.3597,"1000": 6.5762,"1025": 7.0385,"1050": 6.3156,"1075": 6.0945,"1100": 5.6521,"1125": 6.6574,"1150": 6.8391,"1175": 6.1756,"1200": 5.6732,"1225": 4.4661,"1250": 4.4465,"1275": 4.3259,"1300": 3.3802,"1325": 3.34,"1350": 2.5956,"1375": 2.7566,"1400": 3.0182,"1425": 2.7969,"1450": 2.8371,"1475": 2.7768,"1500": 2.9176,"1525": 3.0585,"1550": 2.8774,"1575": 3.4207,"1600": 3.622,"1625": 3.1794,"1650": 2.777,"1675": 2.4148,"1700": 2.1532,"1725": 2.1935,"1750": 2.1533,"1775": 2.6766,"1800": 3.3608,"1825": 4.206,"1850": 2.6363,"1875": 2.8376,"1900": 3.3609,"1925": 4.0453,"1950": 3.3005,"1975": 2.2339,"2000": 2.1735,"2025": 2.254,"2050": 2.0528,"2075": 1.9722,"2100": 1.932,"2125": 1.9723,"2150": 2.2338,"2175": 1.8113,"2200": 1.8716,"2225": 1.9722,"2250": 2.5759,"2275": 2.0527,"2300": 1.9118,"2325": 1.5898,"2350": 1.4892,"2375": 1.147,"2400": 1.2477,"2425": 1.4891,"2450": 1.1672,"2475": 0.9257,"2500": 0.7043,"2525": 0.6037,"2550": 0.2817,"2575": 0.4025,"2600": 0.1006,"2625": 0.1207,"2650": 0.0805}}}