{"type": "Feature","bbox": [-70.5776,18.194,-70.2099,18.5049],"geometry": {"type": "MultiPolygon","coordinates": [[[[-70.5082,18.2229,5.6696],[-70.5099,18.2218,2.7318],[-70.5076,18.2207,7.9708],[-70.5068,18.2224,0.5],[-70.5082,18.2229,5.6696]]],
[[[-70.577,18.2639,77.5571],[-70.5776,18.2618,0.0],[-70.5743,18.259,7.7431],[-70.5729,18.2599,2.5855],[-70.5679,18.2574,7.1881],[-70.5604,18.2571,10.3857],[-70.5568,18.2526,0.9848],[-70.5504,18.251,2.2086],[-70.5496,18.2463,0.3496],[-70.5471,18.246,0.9972],[-70.5426,18.241,1.5778],[-70.5429,18.2382,0.4151],[-70.5393,18.2371,7.7432],[-70.5332,18.2301,0.0],[-70.531,18.2301,0.0],[-70.5299,18.2329,2.3743],[-70.5271,18.2321,5.5825],[-70.5271,18.2301,0.0],[-70.5221,18.2304,0.0],[-70.5193,18.2282,0.1815],[-70.5188,18.2301,0.7469],[-70.5062,18.2243,7.5213],[-70.5026,18.221,1.9667],[-70.506,18.2196,0.5],[-70.5035,18.2179,0.5356],[-70.5043,18.2168,7.7839],[-70.5101,18.2174,0.7288],[-70.5118,18.224,1.2673],[-70.5168,18.2271,0.5],[-70.5113,18.2185,0.7288],[-70.5176,18.2162,0.0],[-70.5196,18.2135,3.308],[-70.5299,18.2132,1.927],[-70.5354,18.216,0.8984],[-70.5371,18.2115,0.5],[-70.5396,18.2107,0.9518],[-70.5421,18.2126,1.1613],[-70.5488,18.2135,1.9756],[-70.551,18.2182,-0.0814],[-70.5507,18.2132,1.9756],[-70.5532,18.2149,1.0199],[-70.5565,18.2146,0.41],[-70.5551,18.2135,-0.5],[-70.5554,18.2096,2.619],[-70.561,18.2121,-0.5],[-70.5576,18.2213,0.9574],[-70.5515,18.2235,-0.0745],[-70.5518,18.2204,0.1314],[-70.5504,18.2193,0.0],[-70.5501,18.2243,0.659],[-70.5474,18.2282,0.5049],[-70.5504,18.2251,0.659],[-70.5585,18.2221,0.0],[-70.5651,18.2082,8.2631],[-70.546,18.2049,1.2313],[-70.5387,18.2076,5.0153],[-70.5257,18.2068,2.0162],[-70.5218,18.2046,5.2803],[-70.5137,18.1949,0.4349],[-70.5118,18.1963,3.3035],[-70.5054,18.194,7.4981],[-70.5038,18.1963,14.5086],[-70.4871,18.2018,3.2679],[-70.4674,18.2054,2.2366],[-70.4635,18.2076,4.115],[-70.4629,18.2096,12.5912],[-70.4543,18.2107,3.1518],[-70.4299,18.2257,8.9596],[-70.3929,18.2374,12.9049],[-70.384,18.2368,4.8392],[-70.3712,18.2307,2.6303],[-70.3554,18.2313,2.7352],[-70.3326,18.226,0.0],[-70.3093,18.2279,0.0],[-70.2821,18.2376,8.9097],[-70.2704,18.2374,7.8325],[-70.2529,18.2299,0.0],[-70.2462,18.229,3.9886],[-70.2363,18.2221,3.6263],[-70.2246,18.2288,3.6839],[-70.2232,18.2323,4.763],[-70.2278,18.2435,4.7188],[-70.2261,18.2588,63.2414],[-70.2275,18.2672,42.2867],[-70.2253,18.2743,43.3272],[-70.2289,18.2821,50.3664],[-70.2413,18.2917,56.3083],[-70.2424,18.3021,71.8047],[-70.2383,18.3042,67.2141],[-70.216,18.3045,33.405],[-70.2099,18.3067,25.8705],[-70.2101,18.3098,32.7923],[-70.2115,18.3117,35.378],[-70.2176,18.3134,32.6364],[-70.2215,18.3234,57.0029],[-70.233,18.3308,47.2008],[-70.2363,18.3423,85.4601],[-70.2369,18.3567,164.6851],[-70.2403,18.3625,188.9685],[-70.2475,18.3631,59.3823],[-70.2566,18.3558,145.3179],[-70.2591,18.3556,181.2778],[-70.2606,18.3583,180.5439],[-70.2605,18.3723,114.4225],[-70.2638,18.3801,270.7284],[-70.2693,18.3832,196.2952],[-70.2729,18.3784,134.1663],[-70.2759,18.3777,87.0474],[-70.2782,18.3787,114.5142],[-70.2807,18.3842,85.1689],[-70.279,18.386,95.3622],[-70.2723,18.386,267.7649],[-70.2719,18.3908,402.6665],[-70.268,18.3992,145.0],[-70.2587,18.3955,201.7545],[-70.253,18.4011,150.6904],[-70.2464,18.4038,181.8404],[-70.2374,18.4104,208.2574],[-70.2341,18.4142,252.4528],[-70.2341,18.4195,256.6191],[-70.2399,18.4248,150.0287],[-70.2505,18.4264,145.8987],[-70.2517,18.4324,224.7278],[-70.2566,18.4357,185.111],[-70.2524,18.4439,385.5013],[-70.2562,18.4463,519.3552],[-70.2584,18.4498,340.5073],[-70.2659,18.4517,260.57],[-70.2711,18.4558,359.5939],[-70.2775,18.4523,380.6967],[-70.2802,18.4531,444.6947],[-70.2829,18.4594,388.4059],[-70.2788,18.4671,736.5838],[-70.2816,18.4733,579.347],[-70.2846,18.4757,593.0267],[-70.2921,18.4774,270.996],[-70.2944,18.4828,531.2644],[-70.3,18.4886,342.4821],[-70.3094,18.4922,321.1411],[-70.3155,18.4997,532.5991],[-70.3222,18.5035,445.0315],[-70.3369,18.4997,366.0833],[-70.3423,18.5025,418.4603],[-70.3436,18.5049,508.7783],[-70.3492,18.5044,408.7426],[-70.3605,18.4912,863.4838],[-70.3621,18.4828,919.515],[-70.3648,18.4802,918.7911],[-70.382,18.4763,862.4869],[-70.407,18.4634,1431.3113],[-70.4226,18.4626,1409.3376],[-70.4301,18.4525,1140.5809],[-70.4401,18.4544,723.0772],[-70.4583,18.4472,651.2164],[-70.4605,18.4348,395.5267],[-70.4676,18.427,271.5769],[-70.472,18.4187,207.7625],[-70.4612,18.4138,251.5345],[-70.4579,18.4063,267.0522],[-70.4622,18.3913,224.775],[-70.4634,18.3812,199.0712],[-70.4668,18.3749,162.6502],[-70.4781,18.364,190.3256],[-70.4802,18.3603,139.3579],[-70.4803,18.3395,160.2678],[-70.4777,18.3321,136.5096],[-70.4758,18.3168,100.9702],[-70.4798,18.3102,105.3946],[-70.481,18.3001,88.5035],[-70.4872,18.2883,95.7142],[-70.4954,18.2837,116.2509],[-70.504,18.2851,68.5757],[-70.5158,18.2825,58.023],[-70.5274,18.2776,52.7263],[-70.5344,18.2778,45.0798],[-70.5428,18.2803,36.1163],[-70.5526,18.2755,30.6981],[-70.5627,18.2774,23.0952],[-70.5717,18.2742,37.5752],[-70.577,18.2639,77.5571]]]]}
,"properties": {"GID_2": "DOM.20.1_1","GID_0": "DOM","country": "DominicanRepublic","GID_1": "DOM.20_1","province": "Peravia","NL_NAME_1": "NA","county": "Baní","VARNAME_2": "NA","NL_NAME_2": "NA","TYPE_2": "Municipio","ENGTYPE_2": "Municipality","CC_2": "NA","HASC_2": "DO.PV.BA","name": "Baní.county","area_km2": 734.0211,"hist_schema_id": "Elevation0-9000","hist_area_km2": {"0": 40.2571,"25": 73.3961,"50": 66.9232,"75": 51.92,"100": 48.213,"125": 39.0307,"150": 42.4639,"175": 29.7258,"200": 23.3052,"225": 20.8288,"250": 20.264,"275": 18.0095,"300": 15.5944,"325": 14.246,"350": 11.5092,"375": 11.0058,"400": 9.1143,"425": 8.6111,"450": 8.7317,"475": 7.8662,"500": 7.846,"525": 5.9952,"550": 6.6185,"575": 6.4375,"600": 6.3367,"625": 5.7333,"650": 5.4113,"675": 5.4312,"700": 5.049,"725": 5.5719,"750": 5.3103,"775": 5.0488,"800": 5.27,"825": 4.5861,"850": 4.6864,"875": 5.7324,"900": 4.8072,"925": 5.5513,"950": 5.1491,"975": 5.4106,"1000": 4.5657,"1025": 4.0831,"1050": 4.425,"1075": 4.0428,"1100": 3.8417,"1125": 3.7209,"1150": 3.2784,"1175": 3.2181,"1200": 2.8963,"1225": 2.9163,"1250": 2.7354,"1275": 2.5543,"1300": 2.3733,"1325": 2.3331,"1350": 1.6492,"1375": 1.7498,"1400": 1.6694,"1425": 1.8705,"1450": 1.3878,"1475": 1.1464,"1500": 1.0458,"1525": 0.9251,"1550": 0.6637,"1575": 0.4827,"1600": 0.4022,"1625": 0.181,"1650": 0.2011,"1675": 0.2615,"1700": 0.4022}}}