{"type":"Feature","properties":{"GID_2":"CUB.5.13_1","GID_0":"CUB","country":"Cuba","GID_1":"CUB.5_1","province":"Granma","NL_NAME_1":"NA","county":"Yara","VARNAME_2":"NA","NL_NAME_2":"NA","TYPE_2":"Municipio","ENGTYPE_2":"Municipality","CC_2":"NA","HASC_2":"CU.GR.YA","name":"Yara.county"},
"geometry":{"type": "MultiPolygon","coordinates": [[[[-76.8343,20.2467,56.4716],[-76.8141,20.2399,73.2515],[-76.8159,20.2535,69.0235],[-76.8232,20.2708,51.9159],[-76.8204,20.286,55.1011],[-76.8082,20.2894,46.3149],[-76.7752,20.2874,59.1465],[-76.7897,20.3242,45.2655],[-76.7942,20.3293,42.7255],[-76.807,20.3359,37.5749],[-76.8295,20.3387,34.8829],[-76.8526,20.3465,31.6301],[-76.8573,20.3516,29.6359],[-76.8606,20.3654,29.4861],[-76.8652,20.3689,29.825],[-76.8935,20.3696,20.9608],[-76.8988,20.372,19.6416],[-76.8996,20.3804,21.4733],[-76.8888,20.3938,19.0231],[-76.9007,20.4113,17.1762],[-76.9131,20.4506,13.591],[-76.9227,20.465,11.6285],[-76.96,20.4746,5.1806],[-76.9893,20.4771,2.205],[-77.0261,20.4939,1.1427],[-77.0386,20.505,3.7891],[-77.0589,20.536,1.0925],[-77.0646,20.5365,0.3633],[-77.0668,20.5388,0.0],[-77.0707,20.5332,1.8165],[-77.076,20.5335,1.3672],[-77.0788,20.5362,1.0208],[-77.0985,20.5454,0.0],[-77.0946,20.5393,0.3893],[-77.0963,20.5351,2.6103],[-77.1015,20.5343,0.5403],[-77.1082,20.5374,0.0],[-77.1087,20.5318,0.6786],[-77.111,20.529,0.2045],[-77.116,20.5285,0.6128],[-77.1221,20.5249,0.0],[-77.1226,20.5229,0.0],[-77.1124,20.5129,0.8958],[-77.1082,20.5054,0.3412],[-77.1076,20.4982,1.6606],[-77.1101,20.5007,0.6736],[-77.1104,20.4979,0.6719],[-77.1021,20.4943,1.62],[-77.0901,20.4668,0.3823],[-77.0868,20.4635,0.0],[-77.0865,20.4682,1.7706],[-77.0885,20.4696,1.8058],[-77.0899,20.4774,0.0],[-77.0918,20.4799,0.8287],[-77.0896,20.4882,0.0],[-77.0921,20.4968,0.0],[-77.0879,20.5001,0.0],[-77.0879,20.5026,0.3493],[-77.0851,20.5032,1.6463],[-77.0821,20.5007,0.9796],[-77.0793,20.5043,3.9539],[-77.0779,20.5038,3.7622],[-77.0796,20.5007,0.3643],[-77.0788,20.4985,1.429],[-77.0868,20.4988,0.0],[-77.091,20.4957,0.0],[-77.089,20.4893,0.0],[-77.089,20.4826,0.0],[-77.076,20.4746,2.3241],[-77.076,20.4726,1.3415],[-77.0799,20.474,0.0],[-77.0849,20.4674,0.0],[-77.081,20.4607,0.6423],[-77.0846,20.435,1.4813],[-77.0339,20.4046,4.6001],[-77.0019,20.3892,7.9919],[-76.9917,20.3789,9.7206],[-76.9717,20.349,15.0295],[-76.9711,20.3376,15.5791],[-76.975,20.3297,15.3876],[-77.0049,20.315,15.7289],[-77.0225,20.3108,14.768],[-77.0419,20.3025,17.9433],[-77.0541,20.2955,19.8502],[-77.057,20.2911,20.1633],[-77.0569,20.2822,22.8577],[-77.0506,20.2692,19.971],[-77.0474,20.25,22.4517],[-77.024,20.1877,34.4816],[-77.0056,20.1923,39.4882],[-76.9884,20.2043,40.0934],[-76.9588,20.2186,35.2896],[-76.9193,20.2556,27.6121],[-76.9094,20.2622,28.6492],[-76.9015,20.2623,31.21],[-76.8897,20.2575,33.6741],[-76.8672,20.2542,39.5893],[-76.8549,20.2492,45.164],[-76.8343,20.2467,56.4716]]],
[[[-77.0751,20.5485,1.0435],[-77.0782,20.5476,0.0],[-77.0776,20.5454,1.5506],[-77.0815,20.5412,0.741],[-77.0735,20.5346,2.2109],[-77.0704,20.5349,1.9125],[-77.0671,20.5407,2.3762],[-77.064,20.5376,0.8341],[-77.041,20.5349,0.7829],[-77.0443,20.539,0.0],[-77.0565,20.5415,2.3328],[-77.0568,20.5429,1.7026],[-77.054,20.5426,1.5008],[-77.056,20.5446,1.0828],[-77.0579,20.5435,1.686],[-77.0587,20.5454,0.0],[-77.061,20.5451,1.7209],[-77.0632,20.5435,2.1437],[-77.0624,20.5462,1.0594],[-77.069,20.5451,3.3634],[-77.0751,20.5485,1.0435]]]]}}