{"type": "Feature","bbox": [-72.1221,19.4295,-72.0032,19.6346],"geometry": {"type": "MultiPolygon","coordinates": [[[[-72.0244,19.4952,574.5479],[-72.0231,19.4969,551.9542],[-72.0193,19.497,473.1266],[-72.0097,19.5106,501.352],[-72.0273,19.5364,487.1832],[-72.0407,19.5438,555.1088],[-72.0468,19.5495,449.6577],[-72.0486,19.5537,491.4414],[-72.0438,19.5633,467.84],[-72.0498,19.5678,564.3395],[-72.0482,19.5745,272.4648],[-72.0548,19.5794,267.5427],[-72.0571,19.5854,262.5625],[-72.0664,19.5923,272.0479],[-72.0696,19.5939,386.6256],[-72.0785,19.5945,403.144],[-72.0832,19.5979,465.3329],[-72.0908,19.6115,325.8909],[-72.0903,19.6163,302.9364],[-72.0939,19.6214,351.2973],[-72.0935,19.6261,310.3546],[-72.1061,19.6346,371.4688],[-72.1101,19.6344,399.4912],[-72.1083,19.6227,227.4693],[-72.1134,19.6186,72.6561],[-72.1115,19.6144,123.5664],[-72.1124,19.6106,264.0108],[-72.1057,19.6029,462.4823],[-72.1069,19.5997,417.3929],[-72.1123,19.5955,433.0631],[-72.1138,19.5915,368.9995],[-72.1211,19.5887,345.2474],[-72.1221,19.5855,345.2491],[-72.1184,19.5797,323.3293],[-72.12,19.5748,277.2059],[-72.1153,19.5752,308.8295],[-72.112,19.5703,317.4648],[-72.1117,19.5614,285.6388],[-72.1141,19.5587,133.9144],[-72.1081,19.5593,249.7404],[-72.1055,19.5537,267.2466],[-72.1028,19.5518,283.9971],[-72.1043,19.5493,299.1968],[-72.1013,19.5484,290.4839],[-72.101,19.5427,290.6362],[-72.0998,19.5433,291.6743],[-72.098,19.5413,296.7083],[-72.0968,19.5369,365.6573],[-72.0978,19.5315,499.5561],[-72.1026,19.5288,522.7958],[-72.1036,19.5238,577.0238],[-72.0996,19.5184,636.5298],[-72.0939,19.5152,676.4644],[-72.095,19.5112,736.0084],[-72.0933,19.5098,712.335],[-72.0932,19.5032,649.9415],[-72.0911,19.4974,596.1339],[-72.0829,19.4903,509.0734],[-72.0761,19.4884,425.5283],[-72.0698,19.4831,391.7458],[-72.063,19.4801,336.1363],[-72.0621,19.4776,333.7885],[-72.0643,19.4746,313.5883],[-72.0627,19.4721,279.3906],[-72.0662,19.4718,228.2487],[-72.067,19.4653,258.392],[-72.0706,19.4612,220.2299],[-72.0699,19.4554,214.5819],[-72.0801,19.4585,172.3726],[-72.0839,19.4554,166.6699],[-72.0875,19.449,146.1057],[-72.0918,19.4469,137.7569],[-72.0882,19.4461,141.9737],[-72.0822,19.4399,168.7139],[-72.0794,19.4432,182.0836],[-72.079,19.437,161.2496],[-72.0728,19.4348,163.816],[-72.067,19.4346,165.7918],[-72.0644,19.437,168.1611],[-72.0665,19.4401,161.3661],[-72.0687,19.4397,166.9006],[-72.0691,19.4416,183.8136],[-72.0653,19.4452,174.3877],[-72.0635,19.4449,187.0558],[-72.0507,19.4372,183.8882],[-72.0466,19.4383,193.893],[-72.0441,19.4322,205.8837],[-72.0384,19.4324,253.6578],[-72.0368,19.4295,223.7709],[-72.032,19.4314,236.0871],[-72.0233,19.4406,303.9739],[-72.0087,19.449,340.3166],[-72.0063,19.4464,313.8577],[-72.0032,19.4458,330.7436],[-72.0043,19.4538,440.5833],[-72.0128,19.4703,644.6154],[-72.0218,19.475,750.4525],[-72.0236,19.4781,719.2585],[-72.0244,19.4952,574.5479]]]]}
,"properties": {"GID_3": "HTI.5.2.2_1","GID_0": "HTI","country": "Haiti","GID_1": "HTI.5_1","province": "Nord-Est","NL_NAME_1": "NA","GID_2": "HTI.5.2_1","county": "leTrou-du-Nord","NL_NAME_2": "NA","city": "SainteSuzanne","VARNAME_3": "NA","NL_NAME_3": "NA","TYPE_3": "Commune","ENGTYPE_3": "Commune","CC_3": "NA","HASC_3": "NA","name": "Sainte_Suzanne.city","area_km2": 129.11254,"hist_schema_id": "Elevation0-9000","hist_area_km2": {"75": 0.09986,"100": 0.1398,"125": 0.09988,"150": 0.59961,"175": 1.15943,"200": 1.45928,"225": 1.77894,"250": 1.65885,"275": 2.29821,"300": 4.21601,"325": 8.77086,"350": 13.84577,"375": 11.78876,"400": 12.06971,"425": 12.93005,"450": 9.79224,"475": 8.39336,"500": 7.47433,"525": 6.29534,"550": 5.85569,"575": 5.09643,"600": 3.17769,"625": 2.61805,"650": 1.91856,"675": 1.6188,"700": 1.09917,"725": 0.81941,"750": 0.75941,"775": 0.6595,"800": 0.29978,"825": 0.21984,"850": 0.07995,"875": 0.01999}}}