{"type": "Feature","id": "1321","bbox": [-84.94962,21.76683,-82.8246,23.02123],"geometry": {"type": "MultiPolygon","coordinates": [[[[-83.5681,21.96621,0.0],[-83.59781,21.97175,0.0],[-83.60782,21.9665,2.5399],[-83.5926,21.96011,6.9373],[-83.57014,21.95881,1.7424],[-83.55065,21.95942,0.0],[-83.54532,21.96125,0.0],[-83.55036,21.96149,0.0],[-83.55285,21.96137,0.0],[-83.5681,21.96621,0.0]]],
[[[-83.03112,23.01069,0.0],[-83.04491,23.01952,0.0],[-83.05529,23.02123,0.0],[-83.06115,23.0196,0.0],[-83.07413,23.0113,0.0],[-83.08194,23.00764,0.0],[-83.12361,23.00015,0.0],[-83.14582,22.9914,0.0],[-83.16051,22.97997,0.0],[-83.16169,22.96695,0.0],[-83.14342,22.95303,1.435],[-83.15054,22.94628,0.0],[-83.15917,22.93622,0.0],[-83.16942,22.93012,3.7029],[-83.18163,22.93529,0.0],[-83.18932,22.94782,0.0],[-83.19123,22.96186,0.0],[-83.18737,22.97382,6.4293],[-83.17821,22.98029,2.971],[-83.17821,22.98652,0.0],[-83.19148,22.99738,0.0],[-83.20763,23.00267,0.0],[-83.22619,23.00186,0.0],[-83.24645,22.99396,0.0],[-83.29817,22.96332,0.0],[-83.31163,22.95917,0.0],[-83.32966,22.95108,0.0],[-83.34846,22.93211,0.0],[-83.36335,22.91047,0.0],[-83.36937,22.89399,0.0],[-83.37751,22.88614,1.1497],[-83.39346,22.8769,0.0],[-83.40437,22.87377,0.7863],[-83.39729,22.8841,0.0],[-83.41405,22.89081,0.0],[-83.4261,22.89924,0.0],[-83.43757,22.90347,0.0],[-83.4525,22.89777,0.7069],[-83.46105,22.88597,0.0],[-83.46911,22.87059,0.0],[-83.48082,22.86026,0.0],[-83.50036,22.86359,0.0],[-83.49763,22.8675,0.0],[-83.49608,22.87035,0.0],[-83.49352,22.87726,0.0],[-83.53498,22.87702,0.8634],[-83.54133,22.87385,2.3712],[-83.55378,22.84223,0.0],[-83.55801,22.83625,0.0],[-83.6079,22.83438,0.0],[-83.62987,22.82831,0.0],[-83.65119,22.81582,0.0],[-83.64623,22.81538,0.0],[-83.64538,22.81428,0.0],[-83.64566,22.812,0.0],[-83.64436,22.80834,0.0],[-83.6372,22.81269,1.1977],[-83.63003,22.81582,1.4822],[-83.63003,22.80834,1.2636],[-83.63732,22.80512,0.0],[-83.65111,22.79682,0.0],[-83.65803,22.79466,0.0],[-83.66893,22.79491,1.5812],[-83.68155,22.80036,0.0],[-83.69274,22.80215,0.0],[-83.70914,22.80069,0.0],[-83.74372,22.78913,0.0],[-83.81265,22.75674,0.0],[-83.82925,22.75373,0.0],[-83.87279,22.7508,0.0],[-83.88805,22.74144,0.0],[-83.89757,22.7202,1.7158],[-83.91124,22.7333,0.0],[-83.97208,22.69253,0.0],[-83.98404,22.68708,0.0],[-83.99747,22.68488,0.0],[-84.00719,22.69038,0.0],[-84.01378,22.70254,0.0],[-84.02233,22.71475,0.1578],[-84.03844,22.7202,0.0],[-84.048,22.71825,0.0],[-84.05704,22.71328,0.0],[-84.06432,22.70624,0.0],[-84.06884,22.69847,0.0],[-84.05232,22.69986,2.048],[-84.03897,22.69709,0.0],[-84.02868,22.69009,0.0],[-84.02111,22.67866,0.0],[-84.03197,22.66938,0.0],[-84.04162,22.65843,0.0],[-84.05211,22.65331,1.4931],[-84.0655,22.66128,0.0],[-84.07828,22.66621,0.0],[-84.08544,22.6542,0.0],[-84.08861,22.63715,1.7978],[-84.08934,22.6271,0.0],[-84.09463,22.62238,0.0],[-84.12051,22.62027,0.0],[-84.13036,22.61652,2.9174],[-84.13573,22.60684,0.0],[-84.1446,22.5694,0.0],[-84.15298,22.58202,0.0],[-84.16462,22.58763,0.0],[-84.17813,22.58568,0.0],[-84.19237,22.57559,0.0],[-84.20238,22.58006,0.0],[-84.21288,22.58308,0.0],[-84.21288,22.57559,0.0],[-84.20116,22.56281,1.7205],[-84.2058,22.54116,2.8066],[-84.21837,22.51874,0.0],[-84.2303,22.50361,0.0],[-84.24901,22.49356,0.0],[-84.29182,22.48627,0.0],[-84.30907,22.47321,0.0],[-84.28856,22.47321,1.365],[-84.28856,22.46577,0.0],[-84.30651,22.45563,0.0],[-84.32128,22.44013,0.0],[-84.3426,22.41108,0.0],[-84.34512,22.40624,0.0],[-84.34911,22.39362,0.0],[-84.35314,22.38719,0.0],[-84.35802,22.38426,0.0],[-84.3688,22.38329,0.0],[-84.37393,22.38068,0.0],[-84.38854,22.35517,0.0],[-84.39102,22.35277,0.0],[-84.40534,22.30874,0.0],[-84.40966,22.28726,0.0],[-84.41149,22.26398,0.0],[-84.41535,22.24738,0.0],[-84.42447,22.22915,0.0],[-84.4357,22.21369,0.0],[-84.44567,22.20502,0.0],[-84.42927,22.20173,0.0],[-84.42003,22.18867,0.0],[-84.41344,22.17202,0.0],[-84.40534,22.1579,1.4936],[-84.39281,22.1485,0.795],[-84.37458,22.13931,0.9914],[-84.35436,22.13251,0.3911],[-84.3358,22.13056,2.9832],[-84.34073,22.12397,0.0],[-84.35001,22.10261,0.0],[-84.33019,22.09333,5.5692],[-84.32677,22.08185,0.0],[-84.32803,22.06712,0.0],[-84.32213,22.04804,0.0],[-84.30818,22.03669,0.7479],[-84.29686,22.04597,5.452],[-84.28628,22.06338,0.485],[-84.27432,22.076,2.851],[-84.28856,22.0207,0.0],[-84.30382,22.02289,0.0],[-84.33096,22.00458,0.0],[-84.3358,22.01044,0.0],[-84.34166,22.02167,0.0],[-84.35582,22.03408,0.0],[-84.37279,22.04393,0.0],[-84.38732,22.04804,0.0],[-84.41666,22.041,0.0],[-84.43932,22.02814,0.0],[-84.46264,22.02204,0.0],[-84.49405,22.03498,0.6148],[-84.48965,22.04279,1.8388],[-84.49592,22.04735,0.0],[-84.50805,22.04902,0.0],[-84.52135,22.04804,0.0],[-84.52888,22.04434,0.0],[-84.58332,22.00751,0.0],[-84.66845,21.97187,0.0],[-84.74108,21.95181,0.0],[-84.82299,21.91083,0.0],[-84.82291,21.93089,0.9836],[-84.83239,21.94058,0.0],[-84.84756,21.94062,0.0],[-84.86461,21.93195,0.0],[-84.84822,21.92109,0.0],[-84.84874,21.90839,0.5182],[-84.8605,21.89704,0.0],[-84.87759,21.89033,0.284],[-84.88659,21.88955,0.0],[-84.89538,21.89057,0.0],[-84.90355,21.89362,0.4339],[-84.9108,21.89899,2.8293],[-84.91389,21.90371,0.6882],[-84.91657,21.90961,0.7159],[-84.91979,21.91474,0.3658],[-84.92455,21.91722,0.0],[-84.93122,21.91474,0.0],[-84.93757,21.90811,0.0],[-84.94274,21.90005,0.0],[-84.94603,21.89354,0.0],[-84.94962,21.87678,0.0],[-84.94726,21.86034,7.9564],[-84.93912,21.8461,4.394],[-84.9254,21.83576,3.924],[-84.88341,21.82355,0.0],[-84.83991,21.8229,12.398],[-84.79971,21.8321,14.5342],[-84.69872,21.89484,15.424],[-84.65998,21.91205,15.6086],[-84.58056,21.93391,14.1852],[-84.53604,21.94017,14.8711],[-84.49616,21.93378,15.7936],[-84.47354,21.90461,0.0],[-84.48131,21.86518,0.0],[-84.52135,21.78657,0.0],[-84.50837,21.76683,10.0374],[-84.46618,21.77045,11.8234],[-84.42325,21.7923,12.1144],[-84.30517,21.88451,15.1287],[-84.27392,21.89322,20.5336],[-84.25121,21.90656,19.8899],[-84.24014,21.91083,21.2017],[-84.23009,21.91153,20.6535],[-84.20934,21.9101,25.9011],[-84.19921,21.91083,23.205],[-84.18073,21.91828,24.8325],[-84.14216,21.94033,18.772],[-84.12043,21.94501,6.7842],[-84.09822,21.94074,13.4218],[-84.06041,21.92194,0.3179],[-84.04162,21.91767,13.9959],[-84.02941,21.91987,9.3892],[-84.01769,21.92548,4.2862],[-84.00691,21.93329,3.2403],[-83.99747,21.94184,0.0],[-83.99303,21.95136,0.0],[-83.99706,21.95869,0.0],[-84.00381,21.96442,4.6986],[-84.00744,21.96918,6.2446],[-83.99926,21.98949,3.8233],[-83.96467,22.01333,0.0],[-83.95897,22.03498,0.0],[-83.97167,22.02578,0.0],[-83.98323,22.0231,1.2866],[-83.99303,22.02798,0.9895],[-84.0006,22.04121,6.7053],[-84.00178,22.05756,3.26],[-83.99498,22.06826,0.8073],[-83.984,22.07054,1.9574],[-83.97265,22.06167,2.623],[-83.9733,22.07648,2.3285],[-83.97484,22.08246,3.5734],[-83.98009,22.08902,3.1114],[-83.97533,22.09882,1.1674],[-83.96768,22.12637,3.243],[-83.96646,22.13398,5.0622],[-83.92545,22.17154,9.0163],[-83.90323,22.17569,2.672],[-83.82555,22.17154,0.7376],[-83.81102,22.17475,1.6165],[-83.79914,22.18879,0.9799],[-83.78771,22.19204,1.8764],[-83.78873,22.18903,1.1606],[-83.78751,22.18236,1.0345],[-83.78478,22.17544,1.2037],[-83.78087,22.17154,1.0896],[-83.77546,22.17072,1.4281],[-83.66478,22.18578,0.0],[-83.66674,22.18195,0.0],[-83.66893,22.17503,0.0],[-83.67101,22.17154,0.0],[-83.64363,22.17829,0.2482],[-83.61437,22.19575,0.7366],[-83.58959,22.21992,0.0],[-83.57543,22.24665,2.6253],[-83.56859,22.24665,1.8893],[-83.56286,22.23485,2.6994],[-83.55549,22.22362,1.1272],[-83.55285,22.21345,0.0],[-83.56115,22.20502,0.0],[-83.51696,22.18822,1.54],[-83.46532,22.18207,2.5013],[-83.41547,22.18609,0.6744],[-83.39899,22.20283,1.2521],[-83.39822,22.21928,8.9822],[-83.38944,22.22037,1.2542],[-83.38115,22.21715,1.2063],[-83.37556,22.20698,0.7448],[-83.36848,22.21385,1.5132],[-83.36791,22.22557,0.0],[-83.36636,22.2224,0.0],[-83.36315,22.21931,1.3297],[-83.35412,22.22578,0.11],[-83.34923,22.23216,2.2888],[-83.34264,22.24665,5.9819],[-83.34146,22.25104,0.0],[-83.34203,22.25454,0.0],[-83.34118,22.25934,5.4112],[-83.3358,22.26777,4.3541],[-83.3236,22.28022,2.3767],[-83.28742,22.30191,1.0007],[-83.28694,22.30463,0.6445],[-83.28742,22.31867,0.0],[-83.2858,22.3227,0.0],[-83.28197,22.32233,0.0],[-83.27746,22.32103,0.0],[-83.27025,22.32355,0.0],[-83.2657,22.32225,0.0],[-83.26179,22.32197,0.0],[-83.26012,22.32575,0.0],[-83.26057,22.33975,0.0],[-83.26012,22.34223,0.0],[-83.24584,22.34593,0.0],[-83.23225,22.34479,-0.8484],[-83.19933,22.336,-0.5],[-83.16686,22.33954,-0.0836],[-83.14318,22.36127,0.2998],[-83.08609,22.4628,0.0],[-83.05871,22.48945,0.0],[-83.02599,22.50975,0.1489],[-82.95938,22.54206,0.0],[-82.94396,22.54658,0.0],[-82.92125,22.54829,0.3324],[-82.90929,22.55557,1.5625],[-82.84923,22.60293,1.7577],[-82.8246,22.61058,4.7977],[-82.8246,22.61058,4.7977],[-82.82502,22.61451,4.7151],[-82.82801,22.62038,3.7526],[-82.83577,22.63123,2.7416],[-82.86886,22.66575,10.7873],[-82.87344,22.6736,13.4961],[-82.89315,22.71626,25.6021],[-82.90064,22.72856,29.21],[-82.90708,22.73675,34.9196],[-82.91274,22.74071,32.5804],[-82.92188,22.74543,35.3511],[-82.92545,22.74791,36.0678],[-82.93757,22.76298,42.1699],[-82.95408,22.78931,70.3781],[-82.95909,22.79564,93.8946],[-82.9631,22.79913,134.4979],[-82.97426,22.8037,246.2253],[-82.97643,22.8053,235.6815],[-82.97803,22.80711,256.2446],[-82.97664,22.80905,298.0571],[-82.97191,22.81083,409.1772],[-82.94757,22.81341,151.5734],[-82.93971,22.81615,162.9633],[-82.93454,22.82024,163.3318],[-82.91594,22.84057,212.1863],[-82.91468,22.84951,136.674],[-82.91917,22.87377,181.069],[-82.94439,22.91899,55.7472],[-82.94085,22.93886,39.3048],[-82.94082,22.94343,40.5137],[-82.9454,22.97958,0.0],[-82.94442,22.98508,0.0],[-82.96422,22.97289,0.0],[-82.98168,22.97419,6.0764],[-82.9796,22.99396,6.6285],[-82.98888,22.98363,0.0],[-82.99669,22.98017,0.0],[-83.0028,22.98359,0.0],[-83.00691,22.99396,0.4345],[-83.00284,22.99946,3.9193],[-82.99283,23.00096,21.1382],[-82.98632,23.0041,3.1376],[-82.99258,23.01439,0.0],[-83.00202,23.01923,0.0],[-83.00939,23.01602,0.0],[-83.01537,23.01032,0.0],[-83.02058,23.00764,0.0],[-83.03112,23.01069,0.0]]]]}
,"properties": {"ISO3166-1-Alpha-3": "CUB","country": "Cuba","fill": "#FF0","name": "Pinar del Río","area_km2": 11110.239,"hist_schema_id": "Elevation0-9000","hist_area_km2": {"0": 3522.135,"25": 2703.015,"50": 1216.185,"75": 810.534,"100": 506.59,"125": 454.439,"150": 381.942,"175": 314.499,"200": 246.279,"225": 184.772,"250": 153.359,"275": 122.307,"300": 101.412,"325": 84.105,"350": 67.192,"375": 56.697,"400": 47.364,"425": 37.817,"450": 33.066,"475": 25.381,"500": 17.306,"525": 10.443,"550": 5.574,"575": 3.833,"600": 2.19,"625": 1.154,"650": 0.626}}}