{"type":"Feature","properties":{"GID_1":"CUB.13_1","GID_0":"CUB","country":"Cuba","province":"PinardelRío","VARNAME_1":"NA","NL_NAME_1":"NA","TYPE_1":"Provincia","ENGTYPE_1":"Province","CC_1":"NA","HASC_1":"CU.PR","ISO_1":"NA","name":"Pinardel_Río.province"},
"geometry":{"type": "MultiPolygon","coordinates": [[[[-84.8871,21.8957,0.0],[-84.8893,21.8971,0.0],[-84.8899,21.8937,0.0],[-84.8885,21.8932,0.0],[-84.8871,21.8957,0.0]]],
[[[-83.9957,22.0613,0.0],[-83.9912,22.066,1.6612],[-83.9851,22.0688,1.1418],[-83.9707,22.0685,1.8851],[-83.9699,22.0663,0.8456],[-83.9724,22.0663,0.0],[-83.9721,22.064,0.0],[-83.9746,22.0621,0.0],[-83.9743,22.0582,0.6393],[-83.976,22.0574,0.4663],[-83.971,22.056,0.5004],[-83.9701,22.0532,0.0],[-83.969,22.0535,0.0],[-83.9682,22.0674,0.0],[-83.9699,22.0835,0.0],[-83.9713,22.0849,0.0],[-83.9715,22.0821,1.0256],[-83.9735,22.0818,3.6778],[-83.9732,22.0921,0.0],[-83.9737,22.0932,1.0798],[-83.9746,22.0918,1.3827],[-83.9776,22.0924,1.5291],[-83.979,22.094,0.0],[-83.9785,22.0971,3.5434],[-83.9765,22.0946,0.0],[-83.9749,22.096,0.9379],[-83.9751,22.1004,1.1674],[-83.9735,22.1024,2.0731],[-83.9743,22.111,2.5106],[-83.9721,22.1199,1.3278],[-83.9565,22.1404,0.2642],[-83.9496,22.1465,1.7761],[-83.941,22.1507,1.8653],[-83.939,22.1537,2.6795],[-83.9376,22.1529,0.0],[-83.9332,22.1557,0.5941],[-83.9221,22.1646,1.8454],[-83.9024,22.1729,1.1407],[-83.8782,22.1757,1.2661],[-83.8699,22.1724,0.3397],[-83.8676,22.1738,2.7932],[-83.8668,22.1715,0.0],[-83.8629,22.1696,0.0],[-83.8551,22.1693,0.0],[-83.8529,22.1696,0.0],[-83.8518,22.174,0.7421],[-83.8496,22.1749,0.5634],[-83.8471,22.1712,2.0779],[-83.8501,22.1707,0.0],[-83.8507,22.169,0.0],[-83.8354,22.1654,0.0],[-83.8299,22.1699,0.1991],[-83.8107,22.1743,0.0],[-83.8082,22.1785,0.4974],[-83.8012,22.1796,1.6145],[-83.7976,22.1776,1.4944],[-83.7985,22.1751,1.1576],[-83.7957,22.1704,0.0],[-83.7924,22.1729,1.7226],[-83.7904,22.171,0.5999],[-83.7871,22.1738,1.9939],[-83.7868,22.176,1.6033],[-83.7829,22.1757,2.5903],[-83.791,22.1679,0.3297],[-83.7893,22.166,0.0],[-83.7768,22.1637,0.0],[-83.7637,22.1643,0.1923],[-83.7399,22.1685,0.0],[-83.7332,22.1746,0.1832],[-83.7138,22.1785,0.2335],[-83.711,22.1776,0.0],[-83.7051,22.179,1.9633],[-83.6937,22.174,0.0],[-83.6854,22.1726,1.9415],[-83.6849,22.1799,0.0],[-83.689,22.1799,2.0452],[-83.6901,22.1818,8.3494],[-83.6843,22.1812,1.2932],[-83.6857,22.1857,5.6505],[-83.6843,22.189,4.3226],[-83.6751,22.1918,0.0],[-83.6701,22.1901,0.5745],[-83.6612,22.1837,0.9062],[-83.6621,22.1826,0.9062],[-83.6599,22.179,1.174],[-83.6607,22.1729,0.0],[-83.6621,22.1701,0.7597],[-83.6676,22.1676,0.339],[-83.6551,22.166,0.3824],[-83.6485,22.1707,1.3111],[-83.6429,22.1774,0.2482],[-83.6268,22.1815,0.0],[-83.6143,22.1982,3.4218],[-83.604,22.204,0.6967],[-83.6004,22.211,0.3553],[-83.5915,22.2188,0.2447],[-83.5874,22.226,3.2804],[-83.5788,22.2326,4.8137],[-83.5743,22.2335,0.4299],[-83.5746,22.2349,1.6077],[-83.5593,22.2321,2.7869],[-83.5554,22.2263,2.2115],[-83.5551,22.2207,1.0867],[-83.5499,22.2207,2.351],[-83.5485,22.2162,1.6876],[-83.5432,22.215699999999998,2.0873],[-83.5424,22.2107,1.5006],[-83.5449,22.2054,1.0151],[-83.5471,22.2049,1.7711],[-83.551,22.2074,0.0],[-83.5515,22.2029,0.635],[-83.5501,22.2007,0.6836],[-83.5393,22.1979,1.9128],[-83.5226,22.186,1.3783],[-83.5062,22.1815,0.0],[-83.5024,22.1829,1.0028],[-83.5004,22.1807,0.6402],[-83.4976,22.1832,1.3832],[-83.4938,22.1824,1.1305],[-83.4801,22.1699,0.0],[-83.4737,22.1724,1.5388],[-83.4721,22.1749,0.5436],[-83.4726,22.1776,0.7207],[-83.464,22.181,2.6227],[-83.461,22.1807,0.651],[-83.4504,22.1865,1.2584],[-83.4396,22.1882,1.6055],[-83.4246,22.1851,1.6507],[-83.4221,22.1832,0.0],[-83.4168,22.184,0.8983],[-83.4096,22.194,2.9215],[-83.4037,22.1968,0.3802],[-83.4035,22.1979,0.3211],[-83.4079,22.2004,3.5306],[-83.4074,22.2029,0.0],[-83.4051,22.2043,2.4866],[-83.4013,22.2038,2.6753999999999998],[-83.3982,22.1999,1.3633],[-83.394,22.2004,0.0],[-83.3915,22.2049,3.1699],[-83.3874,22.2004,0.0],[-83.3799,22.1996,1.3068],[-83.3701,22.201,0.5169],[-83.3618,22.2051,0.0],[-83.3579,22.209,1.2373],[-83.3582,22.211,1.1427],[-83.356,22.2107,0.416],[-83.3507,22.215699999999998,0.7479],[-83.3435,22.2274,0.4826],[-83.3415,22.2354,0.0],[-83.336,22.2421,2.4003],[-83.3315,22.2449,1.01],[-83.3307,22.2499,0.0],[-83.3285,22.2526,0.7266],[-83.3251,22.2518,2.0799],[-83.3249,22.2501,1.7119],[-83.3293,22.2482,2.4023],[-83.3285,22.2451,1.3195],[-83.3307,22.2435,0.3239],[-83.3313,22.2365,0.0],[-83.3196,22.2449,0.3769],[-83.3135,22.2468,0.9007],[-83.3132,22.251,1.1621],[-83.3179,22.2526,1.164],[-83.3179,22.2543,0.0],[-83.321,22.2565,0.0],[-83.3238,22.2646,1.2571],[-83.3232,22.2738,3.5619],[-83.3199,22.2824,0.6826],[-83.3185,22.2826,1.7878],[-83.3149,22.2787,0.0],[-83.3082,22.2801,0.0],[-83.3012,22.2851,0.4457],[-83.2935,22.2882,0.0],[-83.291,22.2915,0.6994],[-83.2954,22.2938,0.0],[-83.2996,22.2924,1.4846],[-83.3024,22.2946,0.6875],[-83.2957,22.2971,1.5565],[-83.2893,22.2932,0.0],[-83.2857,22.296,0.0],[-83.2851,22.3032,0.0],[-83.2874,22.3121,0.0],[-83.2921,22.309,0.6224],[-83.2904,22.3113,1.8904],[-83.2887,22.3249,3.8251],[-83.286,22.3282,0.0],[-83.2829,22.3288,3.0593],[-83.2776,22.3238,0.3602],[-83.2724,22.3254,0.0],[-83.2682,22.324,0.3506],[-83.2682,22.3263,0.428],[-83.2663,22.3263,0.4984],[-83.2671,22.3279,0.0],[-83.2732,22.3293,0.4967],[-83.2743,22.3332,0.7786],[-83.2643,22.3465,1.2772],[-83.2538,22.3499,0.7844],[-83.2432,22.3504,0.0],[-83.2387,22.3493,0.6908],[-83.229,22.341,0.379],[-83.2271,22.3432,1.6333],[-83.2324,22.3487,0.3267],[-83.229,22.3488,0.5707],[-83.2243,22.3432,0.3027],[-83.2215,22.3429,0.6044],[-83.2179,22.3346,0.1782],[-83.2154,22.3324,0.239],[-83.2096,22.3299,0.0],[-83.2049,22.3301,0.2364],[-83.196,22.3276,0.1366],[-83.1921,22.3279,0.4692],[-83.1899,22.3304,0.4921],[-83.1849,22.3296,0.0],[-83.1765,22.3318,0.4496],[-83.1732,22.3312,0.2994],[-83.1543,22.3443,0.0],[-83.144,22.3571,0.0],[-83.1415,22.3657,0.7212],[-83.1365,22.3726,0.1291],[-83.1321,22.3885,0.977],[-83.1235,22.3976,0.0],[-83.1215,22.411,0.4281],[-83.1132,22.426,1.2594],[-83.1074,22.4329,0.9236],[-83.104,22.4501,1.049],[-83.101,22.4501,0.0],[-83.0949,22.4582,1.348],[-83.0901,22.4618,0.0],[-83.0879,22.4668,0.1324],[-83.0818,22.4737,0.0],[-83.0804,22.4793,0.8189],[-83.0813,22.4832,0.8461],[-83.084,22.4871,0.0],[-83.0876,22.4885,1.4609],[-83.0874,22.491,0.0],[-83.0901,22.4901,0.3587],[-83.089,22.4915,0.8247],[-83.084,22.4904,0.0],[-83.0754,22.494,1.0165],[-83.0707,22.4907,0.5135],[-83.0668,22.4907,0.8839],[-83.0596,22.4951,0.0],[-83.0501,22.4974,1.3185],[-83.0426,22.5035,0.149],[-83.0224,22.5113,0.0],[-83.0068,22.5154,0.0],[-82.9968,22.5154,0.0],[-82.9776,22.5196,0.0],[-82.9604,22.5296,0.0],[-82.9585,22.5335,0.0],[-82.9604,22.5413,0.0],[-82.9579,22.549,0.2419],[-82.9587,22.5532,0.0],[-82.9557,22.556,0.4334],[-82.9557,22.5585,1.026],[-82.9549,22.556,0.4334],[-82.9568,22.5532,0.4009],[-82.956,22.5499,0.0],[-82.9512,22.5457,0.2052],[-82.9337,22.5471,0.2824],[-82.9318,22.5488,0.2437],[-82.9254,22.5471,0.2324],[-82.9118,22.5476,0.465],[-82.8999,22.5551,0.0],[-82.8915,22.5679,0.2742],[-82.8821,22.5729,0.0],[-82.8799,22.5765,0.1976],[-82.8729,22.5801,0.0],[-82.8685,22.5849,1.5102],[-82.8579,22.5888,2.1198],[-82.8504,22.5896,0.7019],[-82.8393,22.5943,0.6168],[-82.8262,22.5965,0.0],[-82.8182,22.6004,0.0],[-82.851,22.6293,4.7797],[-82.8656,22.6468,8.8502],[-82.8692,22.6561,12.7097],[-82.8801,22.7029,19.5429],[-82.8955,22.7253,28.2755],[-82.9543,22.7716,50.1844],[-82.9547,22.7763,50.8773],[-82.9496,22.7864,68.8635],[-82.9133,22.8079,74.6494],[-82.9031,22.8243,78.3387],[-82.9008,22.8346,127.7149],[-82.9007,22.8456,119.1044],[-82.9035,22.8594,119.0032],[-82.9083,22.8758,87.1424],[-82.9124,22.8899,80.4453],[-82.9174,22.9074,73.4825],[-82.9175,22.9078,73.4825],[-82.9199,22.9355,33.0628],[-82.919,22.9485,73.5363],[-82.9128,22.9692,36.9793],[-82.9127,22.9763,16.7436],[-82.9144,22.9839,1.5683],[-82.9185,22.9892,0.3221],[-82.9196,22.9899,0.3221],[-82.9201,22.9874,0.0],[-82.9235,22.9865,0.2942],[-82.9226,22.9818,5.3184],[-82.9254,22.9824,0.0],[-82.9276,22.981,0.5203],[-82.9276,22.9857,0.0],[-82.9296,22.9862,1.3972],[-82.9296,22.9843,0.874],[-82.9337,22.9837,3.4216],[-82.9337,22.9776,2.0232],[-82.9379,22.979,0.0],[-82.9379,22.9765,0.7703],[-82.941,22.9746,2.0027],[-82.9432,22.9749,1.3294],[-82.9451,22.9774,0.0],[-82.9532,22.9768,6.4057],[-82.9549,22.9788,1.6808],[-82.954,22.981,2.7086],[-82.9571,22.9821,0.0],[-82.9557,22.9779,1.0522],[-82.9585,22.9765,3.6775],[-82.9582,22.9724,1.1159],[-82.9662,22.9707,0.0],[-82.9685,22.9724,0.0],[-82.969,22.9682,6.6745],[-82.9662,22.9665,2.1624],[-82.9662,22.964,2.2387],[-82.9693,22.9651,2.8159],[-82.9724,22.9638,0.0],[-82.9724,22.9607,0.0],[-82.9746,22.9601,3.2598],[-82.9765,22.961,0.9022],[-82.9765,22.9643,0.0],[-82.9779,22.9643,0.8467],[-82.9785,22.9571,7.9566],[-82.9799,22.956,6.8583],[-82.9807,22.9593,0.9949],[-82.9837,22.9588,1.7378],[-82.986,22.9612,0.0],[-82.9882,22.9579,0.7321],[-82.9899,22.9582,10.0101],[-82.9882,22.9646,1.782],[-82.9835,22.9676,0.0],[-82.9829,22.9707,2.6989],[-82.9801,22.9718,1.4111],[-82.9801,22.9751,4.234],[-82.9749,22.9768,0.0],[-82.9754,22.9804,0.0],[-82.9721,22.9854,5.0446],[-82.9749,22.9885,0.3771],[-82.9799,22.984,0.0],[-82.9876,22.9835,1.1673],[-82.9904,22.9813,0.0],[-82.991,22.9782,0.0],[-82.9882,22.9782,0.0],[-82.9874,22.9718,1.3833],[-82.9904,22.9676,0.0],[-82.9938,22.9671,0.1444],[-82.9943,22.9624,0.7061],[-82.9965,22.9596,1.3547],[-83.0013,22.9624,2.1743],[-82.999,22.9646,0.3457],[-82.9999,22.9668,0.2466],[-83.0007,22.9643,0.0],[-83.0026,22.9654,1.6567],[-83.0051,22.9621,1.0045],[-83.0057,22.9646,0.0],[-83.009,22.9635,1.4109],[-83.0029,22.9696,0.2281],[-83.0054,22.9715,0.0],[-83.0021,22.9729,0.0],[-83.0021,22.9743,0.0],[-83.0088,22.979,0.0],[-83.0151,22.9788,3.6331],[-83.014,22.9874,1.9922],[-83.0074,22.9879,0.4036],[-83.0096,22.9904,2.5276],[-83.0096,22.9938,2.9922],[-83.0074,22.9957,3.9982],[-83.0024,22.996,0.615],[-83.001,22.9993,1.6008],[-82.9932,22.9912,2.8335],[-82.989,22.9918,0.0],[-82.9865,22.9904,0.0],[-82.9843,22.9865,0.0],[-82.9774,22.9935,0.0],[-82.9801,23.0018,2.0118],[-82.9837,23.0035,3.9731],[-82.9832,23.006,0.0],[-82.9885,23.011,0.0],[-83.0032,23.0118,1.5316],[-83.014,23.0079,4.2765],[-83.0163,23.0085,0.8404],[-83.0215,23.0026,0.0],[-83.026,23.0015,1.2854],[-83.0426,23.0068,1.0634],[-83.0515,23.004,0.6368],[-83.0663,23.0043,0.0],[-83.0729,23.0021,0.0],[-83.0799,22.9968,4.8463],[-83.0862,22.9951,9.4247],[-83.0907,22.996,0.0],[-83.0918,22.9926,1.41],[-83.0904,22.9921,4.1643],[-83.0899,22.9874,1.0053],[-83.0924,22.9865,6.252],[-83.0929,22.9846,2.6497],[-83.0943,22.9904,0.0],[-83.0929,22.9915,0.0],[-83.0935,22.9951,0.0],[-83.0915,22.9971,0.0],[-83.1071,22.9924,0.0],[-83.1115,22.9926,1.4],[-83.1157,22.9951,1.3606],[-83.1307,22.9949,1.3744],[-83.1449,22.9896,1.0113],[-83.1537,22.9818,12.0979],[-83.1535,22.9785,3.6168],[-83.159,22.9749,0.0],[-83.1588,22.9704,0.6994],[-83.1612,22.9629,1.5671],[-83.159,22.9629,1.2802],[-83.1549,22.9679,2.1171],[-83.1493,22.9676,0.7646],[-83.1537,22.9654,2.4848],[-83.1518,22.9626,2.6971],[-83.1532,22.9604,3.4762],[-83.1576,22.9604,0.0],[-83.1546,22.9576,0.3213],[-83.1568,22.956,0.0],[-83.1568,22.9529,0.0],[-83.1618,22.9576,0.0],[-83.1635,22.9571,0.5621],[-83.1543,22.9501,0.0],[-83.1449,22.9526,0.6895],[-83.1421,22.951,0.0],[-83.1396,22.946,0.9546],[-83.1429,22.9429,1.3669],[-83.1465,22.9443,0.0],[-83.1479,22.9426,0.7876],[-83.1496,22.9346,0.4054],[-83.1474,22.9326,0.8177],[-83.1521,22.9265,4.7816],[-83.1593,22.9254,6.2777],[-83.161,22.9263,2.2172],[-83.1601,22.9293,0.0],[-83.1632,22.9307,0.0],[-83.1643,22.9276,2.8399],[-83.1632,22.9232,1.3111],[-83.1651,22.9224,1.9057],[-83.1674,22.9238,1.8678],[-83.1671,22.9271,1.0097],[-83.1701,22.9337,1.329],[-83.1715,22.9321,1.4604],[-83.1754,22.9321,0.0],[-83.1757,22.9296,0.0],[-83.1776,22.9296,0.0],[-83.1801,22.9263,2.2031],[-83.1824,22.9268,2.5753],[-83.1832,22.931,0.0],[-83.1874,22.9265,0.8815],[-83.1904,22.929,3.2733],[-83.1899,22.934,9.8303],[-83.1849,22.9357,0.0],[-83.1937,22.9404,2.4228],[-83.1937,22.9435,1.3339],[-83.1904,22.9457,5.0396],[-83.189,22.9488,0.0],[-83.1899,22.956,5.9477],[-83.1888,22.9588,0.0],[-83.1949,22.9593,0.0],[-83.1926,22.9612,1.1584],[-83.1929,22.9643,1.9073],[-83.1785,22.9621,0.0],[-83.1765,22.965699999999998,2.0295],[-83.1674,22.9693,0.384],[-83.1657,22.9749,1.8041],[-83.1665,22.9779,0.0],[-83.1696,22.981,0.0],[-83.1771,22.9826,3.7269],[-83.1854,22.9915,0.7394],[-83.1901,22.991,3.0599],[-83.1918,22.9938,0.0],[-83.1963,22.9954,1.4608],[-83.2021,22.9968,0.0],[-83.2021,22.9938,0.0],[-83.2046,22.9932,2.7934],[-83.2082,22.9946,2.5767],[-83.2057,22.9965,0.5399],[-83.2201,22.9957,0.0],[-83.2299,22.9901,2.7556],[-83.2435,22.9879,0.0],[-83.2507,22.9793,6.4664],[-83.2635,22.9779,0.7466],[-83.2679,22.9729,1.5734],[-83.276,22.971,0.0],[-83.2771,22.9682,3.8136],[-83.2824,22.9679,0.0],[-83.2918,22.9626,1.2007],[-83.3001,22.9554,3.1946],[-83.3051,22.9532,0.0],[-83.3051,22.9507,0.0],[-83.3082,22.9496,0.527],[-83.3096,22.9443,0.5888],[-83.3121,22.9415,2.5535],[-83.3168,22.9382,1.6888],[-83.3226,22.9374,0.0],[-83.3365,22.9313,0.668],[-83.3404,22.926,1.1361],[-83.3463,22.9296,1.0281],[-83.3463,22.9274,1.1829],[-83.349,22.9251,0.42],[-83.3582,22.9249,0.0],[-83.3587,22.9224,0.0],[-83.3565,22.9196,0.0],[-83.3504,22.9182,0.0],[-83.346,22.9201,0.2597],[-83.3446,22.924,1.4913],[-83.3424,22.9212,0.6359],[-83.3493,22.9157,0.0],[-83.3451,22.9126,0.9847],[-83.3518,22.9126,0.2326],[-83.3529,22.9104,0.3106],[-83.3496,22.9035,0.4052],[-83.3521,22.9043,1.3663],[-83.3526,22.9068,0.6843],[-83.3585,22.9093,0.0],[-83.3618,22.9065,0.5414],[-83.359,22.8949,0.0],[-83.3624,22.8882,0.7172],[-83.3662,22.891,0.0],[-83.3699,22.891,0.9256],[-83.3726,22.8888,0.0],[-83.3796,22.8904,0.5575],[-83.3815,22.8865,1.3761],[-83.3812,22.871,1.394],[-83.3843,22.8651,2.1812],[-83.3901,22.8651,2.0725],[-83.3921,22.8665,1.5434],[-83.3949,22.8643,1.9103],[-83.399,22.8649,2.6707],[-83.3996,22.871,0.5579],[-83.3962,22.874,0.4882],[-83.3954,22.8826,0.2905],[-83.3987,22.8771,0.6973],[-83.4013,22.8779,0.1935],[-83.4026,22.8765,1.3157],[-83.404,22.8801,1.2973],[-83.4163,22.8857,0.0],[-83.4187,22.8799,1.3646],[-83.4243,22.881,0.866],[-83.4282,22.8865,1.4705],[-83.4268,22.889,0.6656],[-83.4229,22.8901,0.0],[-83.424,22.8946,0.3454],[-83.4276,22.8982,0.0],[-83.4296,22.8949,0.7622],[-83.4343,22.8946,0.5895],[-83.4365,22.9007,0.0],[-83.4424,22.9013,0.3002],[-83.4399,22.8979,0.4888],[-83.4432,22.8965,0.6114],[-83.4426,22.8949,0.7495],[-83.4449,22.8935,0.4835],[-83.4449,22.8907,0.0],[-83.4479,22.8885,0.9716],[-83.4471,22.8865,0.3423],[-83.449,22.8851,0.9872],[-83.4507,22.8849,0.9872],[-83.4482,22.8868,0.3423],[-83.4496,22.8904,0.5585],[-83.4515,22.8896,0.4427],[-83.4515,22.8879,1.3935],[-83.4574,22.8926,0.3471],[-83.4643,22.8901,0.0],[-83.4585,22.8849,0.7246],[-83.4626,22.8738,2.2995],[-83.4726,22.8599,3.5236],[-83.484,22.856,0.7368],[-83.4896,22.8504,2.6207],[-83.4929,22.851,1.5694],[-83.4949,22.8546,0.9453],[-83.4999,22.8537,1.4205],[-83.5021,22.8513,2.0629],[-83.509,22.8485,1.5841],[-83.5165,22.8535,1.4655],[-83.5176,22.8585,2.416],[-83.5282,22.856,1.1381],[-83.5249,22.8607,1.2798],[-83.521,22.8624,0.5116],[-83.5179,22.8668,0.5566],[-83.5188,22.8685,1.7533],[-83.5207,22.8682,1.7533],[-83.5207,22.8662,1.288],[-83.5263,22.8665,0.6576],[-83.5296,22.8604,1.2672],[-83.5315,22.8615,1.0528],[-83.5335,22.8596,1.2445],[-83.5376,22.8607,0.0],[-83.5446,22.8579,0.5164],[-83.5471,22.8557,0.7114],[-83.5446,22.851,0.7868],[-83.5449,22.8479,1.823],[-83.5476,22.8446,0.0],[-83.5512,22.8349,2.4245],[-83.5535,22.8338,0.5565],[-83.5571,22.8357,0.0],[-83.5587,22.8338,0.0],[-83.5568,22.826,1.6112],[-83.561,22.8188,0.0],[-83.5687,22.8199,2.1387],[-83.5713,22.826,0.0],[-83.5788,22.8238,0.5605],[-83.5821,22.8246,1.7691],[-83.5824,22.8265,0.5074],[-83.5857,22.8243,1.0751],[-83.5937,22.8246,0.0],[-83.5937,22.8229,0.8349],[-83.5965,22.8226,1.0622],[-83.5971,22.824,0.0],[-83.6001,22.8235,4.0098],[-83.6007,22.8249,0.0],[-83.6043,22.8251,2.396],[-83.6107,22.8293,0.0],[-83.6118,22.8257,1.7515],[-83.6137,22.8285,4.1613],[-83.6171,22.8293,1.6489],[-83.6165,22.8271,3.3262],[-83.6201,22.8254,4.0229],[-83.6235,22.8262,2.5175],[-83.6251,22.8226,2.4886],[-83.631,22.8246,0.6488],[-83.6318,22.8221,1.536],[-83.6363,22.821,0.9656],[-83.6365,22.8176,1.302],[-83.6401,22.8176,0.0],[-83.6415,22.814,1.0841],[-83.6379,22.8107,1.2624],[-83.6335,22.8101,1.0273],[-83.6332,22.8063,0.3797],[-83.6282,22.8054,0.443],[-83.6263,22.8024,1.0232],[-83.6282,22.8018,1.2647],[-83.6282,22.7979,2.2898],[-83.6324,22.7965,0.9783],[-83.6332,22.7915,2.556],[-83.6365,22.7901,2.5047],[-83.6385,22.791,0.0],[-83.6446,22.7862,1.2817],[-83.6501,22.7862,1.7915],[-83.6518,22.7843,2.4823],[-83.6565,22.7849,1.7717],[-83.6571,22.7829,1.6114],[-83.6593,22.784,0.0],[-83.6632,22.7832,1.8035],[-83.6687,22.7857,0.0],[-83.6724,22.7851,3.224],[-83.6738,22.7879,1.8638],[-83.6732,22.7915,1.4033],[-83.6665,22.7946,1.1376],[-83.6663,22.7962,1.4383],[-83.6682,22.7971,0.0],[-83.6712,22.7946,1.3016],[-83.6726,22.7971,0.0],[-83.6776,22.7985,0.0],[-83.6813,22.7938,1.1992],[-83.6821,22.7957,0.755],[-83.6907,22.7949,1.4561],[-83.6896,22.8004,2.193],[-83.6876,22.8012,0.7813],[-83.6907,22.8043,1.5283],[-83.6899,22.8082,4.2328],[-83.691,22.8088,0.0],[-83.6926,22.8085,1.7425],[-83.6915,22.806,0.0],[-83.6932,22.806,0.0],[-83.6907,22.8026,0.6174],[-83.6913,22.7993,2.193],[-83.6954,22.7965,0.8219],[-83.6949,22.7915,0.0],[-83.6965,22.7899,0.9042],[-83.6979,22.7962,0.3529],[-83.7046,22.7938,0.9861],[-83.701,22.7982,1.0589],[-83.6963,22.7974,0.3138],[-83.6935,22.7999,0.0],[-83.6937,22.8015,2.0049],[-83.7076,22.809,0.0],[-83.7123,22.8071,0.0],[-83.7129,22.8051,0.0],[-83.7112,22.8032,2.2223],[-83.7121,22.7968,0.0],[-83.7096,22.7943,1.5005],[-83.7126,22.7896,0.5981],[-83.7099,22.7868,1.4204],[-83.7099,22.7838,1.2352],[-83.7124,22.784,0.0],[-83.716,22.7796,2.1317],[-83.7235,22.7763,3.575],[-83.7285,22.7763,0.0],[-83.7312,22.7743,1.0849],[-83.7363,22.7754,1.8167],[-83.7526,22.7699,2.0379],[-83.7574,22.7713,0.3421],[-83.7576,22.7687,1.1818],[-83.7601,22.7665,1.3164],[-83.7618,22.7668,0.7122],[-83.764,22.764,1.8978],[-83.7707,22.7638,0.0],[-83.7718,22.7599,1.0734],[-83.7801,22.7563,1.7315],[-83.7874,22.7588,0.0],[-83.7929,22.7576,0.5095],[-83.7965,22.7526,0.5414],[-83.7996,22.7515,1.0278],[-83.8032,22.744,1.7831],[-83.809,22.7426,1.044],[-83.8118,22.7457,0.0],[-83.8174,22.7479,0.7253],[-83.8254,22.741,1.432],[-83.8293,22.7426,0.6085],[-83.8346,22.7404,3.3238],[-83.8343,22.7443,1.3793],[-83.8365,22.746,0.8546],[-83.8407,22.7449,3.1944],[-83.8412,22.7465,0.6942],[-83.8449,22.7471,0.0],[-83.8465,22.749,0.0],[-83.8499,22.7488,0.0],[-83.8499,22.7474,0.7484],[-83.8551,22.7479,1.0534],[-83.8521,22.749,1.4269],[-83.8451,22.756,0.0],[-83.8457,22.7601,0.0],[-83.8515,22.7554,1.0969],[-83.8521,22.7515,1.0802],[-83.8562,22.7518,0.0],[-83.8568,22.7485,0.8149],[-83.8607,22.7504,0.8645],[-83.8651,22.7471,0.0],[-83.8796,22.7421,0.0],[-83.881,22.7324,0.9981],[-83.8782,22.7343,1.6173],[-83.8774,22.7335,1.4271],[-83.881,22.7288,0.4743],[-83.8821,22.7201,0.6605],[-83.8876,22.7107,0.9712],[-83.8935,22.7107,2.2039],[-83.8993,22.7243,0.0],[-83.9032,22.7285,2.1156],[-83.9074,22.7279,2.3208],[-83.9096,22.7237,2.2625],[-83.9121,22.7235,0.0],[-83.9121,22.7218,0.0],[-83.9096,22.7207,1.9113],[-83.909,22.7151,3.0004],[-83.9137,22.7187,1.8239],[-83.9146,22.7215,0.5968],[-83.9174,22.7201,1.3685],[-83.9201,22.721,0.0],[-83.9238,22.7182,2.7604],[-83.9243,22.7226,0.6645],[-83.9315,22.7218,1.7401],[-83.931,22.7193,1.0302],[-83.9335,22.7199,1.7689],[-83.9349,22.7182,0.7796],[-83.9335,22.7154,1.6971],[-83.934,22.7068,3.0261],[-83.9418,22.7007,0.9096],[-83.9426,22.6974,0.6335],[-83.9443,22.6971,0.6335],[-83.9443,22.6937,2.0314],[-83.9499,22.6896,1.9174],[-83.9521,22.6918,0.7586],[-83.9507,22.7007,0.0],[-83.9576,22.6993,0.7509],[-83.9687,22.6854,1.8545],[-83.9671,22.6813,0.0],[-83.9654,22.6832,0.7428],[-83.9649,22.6804,0.0],[-83.9624,22.6799,0.2123],[-83.9624,22.6785,1.0836],[-83.9646,22.6782,0.8456],[-83.9651,22.6801,0.0],[-83.9671,22.6793,0.5822],[-83.9679,22.6743,0.0],[-83.9685,22.6826,0.5637],[-83.9707,22.6846,0.2928],[-83.9749,22.6843,0.9534],[-83.9801,22.6793,0.0],[-83.9812,22.6754,0.0],[-83.9793,22.674,1.4772],[-83.979,22.671,0.677],[-83.9815,22.6693,0.8745],[-83.9846,22.6704,1.8864],[-83.9857,22.674,0.0],[-83.9899,22.6724,1.6934],[-83.9968,22.6779,0.0],[-83.9999,22.6774,0.4457],[-83.9996,22.6801,0.0],[-84.0076,22.6824,0.624],[-84.0085,22.6974,0.0],[-84.011,22.6996,0.0],[-84.011,22.7018,1.3213],[-84.0132,22.7013,2.8661],[-84.0146,22.7029,6.8731],[-84.0129,22.7035,0.0],[-84.0137,22.7068,0.0],[-84.0163,22.704,1.6389],[-84.0185,22.7051,4.2145],[-84.0185,22.7124,0.0],[-84.0221,22.715699999999998,0.0],[-84.0243,22.7138,0.0],[-84.0274,22.7143,0.0],[-84.031,22.7115,4.5916],[-84.0443,22.7082,0.5294],[-84.0457,22.7057,0.3382],[-84.0496,22.7043,0.0],[-84.056,22.6963,0.0],[-84.056,22.6901,0.7913],[-84.0593,22.6863,1.3567],[-84.0585,22.6815,0.0],[-84.0551,22.6835,0.0],[-84.054,22.6963,2.301],[-84.0435,22.7018,0.0],[-84.0429,22.7032,0.0],[-84.0443,22.7035,1.2735],[-84.043,22.7046,3.1488],[-84.0393,22.7021,1.6897],[-84.0393,22.704,4.375],[-84.0371,22.7054,2.5021],[-84.0357,22.7029,0.5016],[-84.0368,22.7004,0.9258],[-84.0351,22.6982,0.0],[-84.0293,22.701,4.3823],[-84.026,22.6999,1.1408],[-84.026,22.696,1.1359],[-84.0276,22.6946,0.0],[-84.0257,22.6932,0.5348],[-84.026,22.689,0.0],[-84.0229,22.689,2.8451],[-84.0176,22.6807,0.504],[-84.0146,22.6799,0.0],[-84.016,22.6768,0.0],[-84.0201,22.6751,1.8313],[-84.0204,22.6729,2.6293],[-84.0263,22.6738,0.0],[-84.0265,22.6712,1.2561],[-84.0293,22.6707,0.0],[-84.0296,22.6679,0.4953],[-84.0271,22.6665,0.0],[-84.0268,22.6643,0.9209],[-84.0296,22.6643,0.0],[-84.0301,22.6599,1.807],[-84.0354,22.6535,0.0],[-84.0346,22.6488,1.6318],[-84.0365,22.644,1.0072],[-84.0424,22.6413,1.6376],[-84.046,22.6426,2.2859],[-84.0451,22.6468,0.0],[-84.0476,22.6482,1.2818],[-84.049,22.653199999999998,0.0],[-84.0515,22.653199999999998,1.2814],[-84.0518,22.6554,1.912],[-84.0535,22.6557,0.5111],[-84.0543,22.661,1.1206],[-84.0568,22.6649,0.9982],[-84.0587,22.6632,0.0],[-84.0585,22.6565,2.3096],[-84.0649,22.6529,1.6809],[-84.0657,22.6543,0.9987],[-84.0649,22.6554,0.9987],[-84.071,22.653199999999998,0.0],[-84.0679,22.6529,1.5359],[-84.0649,22.6493,1.0118],[-84.0679,22.6426,1.0221],[-84.0696,22.6435,0.8098],[-84.0721,22.6418,0.9797],[-84.074,22.6443,0.0],[-84.0754,22.6421,0.7552],[-84.0813,22.6407,0.5985],[-84.0824,22.6424,0.854],[-84.0799,22.6437,0.3989],[-84.0876,22.646,1.0815],[-84.089,22.644,0.0],[-84.0879,22.6421,1.1444],[-84.0896,22.6415,1.346],[-84.0882,22.6376,1.7978],[-84.0849,22.6382,1.7793],[-84.0821,22.6338,1.046],[-84.0862,22.6326,0.8483],[-84.086,22.6301,2.8557],[-84.0882,22.6288,0.0],[-84.0843,22.6285,1.3992],[-84.0826,22.6254,0.0],[-84.0782,22.6243,1.9352],[-84.0779,22.6224,1.3787],[-84.0815,22.611,2.1346],[-84.086,22.6099,0.2317],[-84.0899,22.6057,1.8308],[-84.0949,22.6082,0.927],[-84.1026,22.6046,3.9331],[-84.1068,22.606,0.0],[-84.101,22.619,2.5495],[-84.1015,22.6224,0.0],[-84.111,22.6235,3.0828],[-84.1118,22.6224,0.0],[-84.109,22.6221,2.6253],[-84.1082,22.619,1.3493],[-84.1135,22.6174,1.0567],[-84.116,22.6176,2.3614],[-84.1168,22.6199,1.1623],[-84.1201,22.6182,2.3283],[-84.1229,22.6207,0.0],[-84.1279,22.6196,3.012],[-84.1335,22.6215,3.8006],[-84.1346,22.6188,2.1787],[-84.1318,22.6154,0.0],[-84.1304,22.6151,0.0],[-84.1299,22.6176,6.3575],[-84.1274,22.6176,3.3195],[-84.1235,22.6129,0.0],[-84.1154,22.611,0.4028],[-84.1149,22.6087,0.8927],[-84.1176,22.6082,0.263],[-84.119,22.6035,1.0806],[-84.1237,22.6032,0.0],[-84.124,22.5982,0.3626],[-84.1282,22.5993,0.2151],[-84.1307,22.6018,0.4666],[-84.1326,22.594,0.0],[-84.1312,22.5915,0.3806],[-84.129,22.5924,0.0],[-84.1279,22.5888,0.0],[-84.1304,22.5851,0.5762],[-84.1338,22.5843,0.0],[-84.1282,22.5815,0.0],[-84.1257,22.5757,0.4554],[-84.1276,22.5743,1.9362],[-84.1285,22.5701,1.6061],[-84.1396,22.5643,0.8928],[-84.1404,22.5657,0.0],[-84.1435,22.5646,2.7418],[-84.1446,22.5676,0.0],[-84.1474,22.5682,2.9787],[-84.1485,22.571,0.7332],[-84.1515,22.5715,1.9413],[-84.1518,22.5743,2.3226],[-84.1493,22.5749,0.0],[-84.1499,22.5788,0.0],[-84.1551,22.5776,2.4384],[-84.1579,22.579,0.0],[-84.1663,22.579,0.0],[-84.1699,22.5765,4.0816],[-84.1796,22.574,0.0],[-84.1796,22.5713,2.4937],[-84.1821,22.5718,2.828],[-84.1829,22.5738,0.0],[-84.1862,22.5732,2.1579],[-84.1896,22.5671,3.7941],[-84.1913,22.5707,0.0],[-84.1957,22.5713,1.9306],[-84.1988,22.5685,5.4637],[-84.2121,22.5671,1.0785],[-84.2138,22.5676,1.3292],[-84.2143,22.571,2.0144],[-84.2165,22.5715,0.0],[-84.2171,22.5685,1.8213],[-84.2196,22.569,0.0],[-84.221,22.5676,0.818],[-84.2207,22.5643,0.0],[-84.2171,22.561,0.0],[-84.2149,22.5615,1.2582],[-84.2057,22.5574,1.6936],[-84.209,22.554,0.5013],[-84.2126,22.5563,0.0],[-84.2121,22.5526,1.0222],[-84.2054,22.5504,1.5131],[-84.2054,22.5471,1.1942],[-84.2015,22.5457,2.8894],[-84.2021,22.5443,0.0],[-84.2051,22.546,0.0],[-84.2079,22.5449,1.4237],[-84.206,22.5421,2.5571],[-84.2074,22.5376,3.4314],[-84.2065,22.531,2.5539],[-84.2082,22.5293,0.0],[-84.2112,22.5293,0.0],[-84.2096,22.5257,1.0449],[-84.211,22.5232,1.2766],[-84.2132,22.5229,0.3708],[-84.2126,22.5218,0.0],[-84.2074,22.5229,0.7655],[-84.2057,22.5218,1.6686],[-84.2046,22.5132,1.0501],[-84.2057,22.5101,1.7336],[-84.2132,22.509,1.4004],[-84.2171,22.5129,0.0],[-84.2204,22.5007,0.0],[-84.2229,22.499,0.0],[-84.2235,22.4965,5.204],[-84.2271,22.4957,0.7434],[-84.2299,22.4971,0.0],[-84.2335,22.4921,0.5663],[-84.2382,22.4901,0.0],[-84.2379,22.4888,0.0],[-84.2432,22.4829,0.0],[-84.2515,22.4774,0.0],[-84.2607,22.4757,0.7832],[-84.2674,22.4796,0.0],[-84.2735,22.4754,1.1727],[-84.281,22.4743,1.0921],[-84.2924,22.4785,2.1169],[-84.2976,22.4743,1.3375],[-84.3018,22.4735,3.0256],[-84.3024,22.4676,4.398],[-84.2954,22.4615,0.0],[-84.2929,22.4613,0.4456],[-84.2907,22.4646,1.452],[-84.2921,22.4668,0.6598],[-84.2915,22.4701,0.6437],[-84.2857,22.4737,0.0],[-84.284,22.4737,0.356],[-84.2815,22.4674,0.4669],[-84.2799,22.4676,0.8423],[-84.2793,22.465699999999998,0.3454],[-84.2843,22.4596,0.9791],[-84.2876,22.4579,1.1592],[-84.2887,22.4596,0.4026],[-84.2904,22.4588,0.0],[-84.2915,22.4499,0.7278],[-84.2982,22.4426,1.9487],[-84.3026,22.441,1.322],[-84.3037,22.4363,1.7512],[-84.3065,22.4363,1.0019],[-84.3071,22.434,0.0],[-84.311,22.4349,0.0],[-84.3099,22.4315,1.1648],[-84.3124,22.4254,3.7794],[-84.3196,22.4207,0.4812],[-84.3226,22.421,0.0],[-84.3265,22.4174,0.0],[-84.329,22.4093,1.9737],[-84.3279,22.4007,0.739],[-84.329,22.399,0.7114],[-84.3332,22.3985,0.5842],[-84.3379,22.3907,0.3199],[-84.3418,22.3899,0.0],[-84.3437,22.3857,1.8521],[-84.3532,22.3813,0.7513],[-84.356,22.3776,1.9888],[-84.3643,22.3832,0.9847],[-84.3726,22.3774,1.3416],[-84.3724,22.3749,0.3155],[-84.3699,22.374,1.4945],[-84.3707,22.3604,0.7505],[-84.3774,22.3565,0.0],[-84.379,22.3529,0.853],[-84.3846,22.3515,1.039],[-84.3857,22.3546,0.0],[-84.3899,22.3371,0.8305],[-84.396,22.3318,0.6653],[-84.3979,22.3271,0.0],[-84.401,22.3115,2.763],[-84.3993,22.2965,0.4534],[-84.4057,22.2826,0.0],[-84.4054,22.2796,1.8669],[-84.4032,22.2774,0.9303],[-84.4107,22.261,0.0],[-84.411,22.2515,0.4133],[-84.4126,22.2449,0.3696],[-84.416,22.2418,0.0],[-84.4151,22.2382,0.5544],[-84.4182,22.2324,0.0],[-84.419,22.2237,0.4464],[-84.4249,22.2154,0.3579],[-84.4271,22.2093,0.0996],[-84.439,22.1968,0.6172],[-84.4437,22.1943,0.4988],[-84.4468,22.1901,0.0],[-84.4449,22.1876,0.4935],[-84.4451,22.1918,0.7746],[-84.4426,22.194,0.4988],[-84.4388,22.1937,0.0],[-84.4365,22.196,1.2554],[-84.4321,22.1965,0.0],[-84.429,22.2043,0.972],[-84.4265,22.206,0.5954],[-84.421,22.204,1.2584],[-84.4176,22.201,0.4919],[-84.4212,22.1915,0.4789],[-84.4187,22.1921,1.308],[-84.4143,22.1974,0.5799],[-84.4157,22.2004,0.4044],[-84.4146,22.2024,0.2415],[-84.4143,22.201,0.0],[-84.4115,22.201,0.6272],[-84.4104,22.1965,0.0],[-84.4126,22.1885,0.0],[-84.4112,22.1846,0.3784],[-84.4135,22.1799,0.704],[-84.4107,22.1787,0.0],[-84.406,22.1826,0.651],[-84.4043,22.1818,0.7756],[-84.4074,22.1799,0.8009],[-84.4079,22.1768,0.8424],[-84.4126,22.1746,0.0],[-84.4126,22.1729,0.0],[-84.4107,22.1704,0.436],[-84.4118,22.1688,0.0],[-84.4099,22.1671,0.3557],[-84.4107,22.1629,0.0],[-84.4082,22.1624,0.7602],[-84.4062,22.1588,1.2036],[-84.406,22.1557,0.3567],[-84.4082,22.1529,0.7616],[-84.4054,22.1501,1.4961],[-84.4065,22.146,0.7154],[-84.4029,22.1429,0.4462],[-84.4032,22.1393,1.3601],[-84.401,22.1376,0.0],[-84.3924,22.1488,0.5306],[-84.386,22.1499,0.2993],[-84.3829,22.1407,0.5791],[-84.3835,22.1354,0.0],[-84.3735,22.1332,0.0],[-84.3674,22.1349,0.5647],[-84.3646,22.1335,0.0],[-84.3596,22.1346,1.0285],[-84.354,22.1321,0.9591],[-84.3507,22.1335,0.0],[-84.3485,22.131,0.0],[-84.3493,22.1271,0.0],[-84.3471,22.1285,0.0],[-84.3424,22.1268,0.0],[-84.3382,22.1276,0.3915],[-84.3385,22.1215,0.1452],[-84.341,22.1165,0.1431],[-84.3399,22.1085,0.0],[-84.3429,22.0982,0.8984],[-84.3518,22.0865,0.7136],[-84.3412,22.0871,2.8851],[-84.3371,22.0843,0.0],[-84.3351,22.0868,0.0],[-84.3268,22.0868,0.1173],[-84.3196,22.0793,0.2553],[-84.321,22.071,2.6791],[-84.3151,22.0696,0.0],[-84.3146,22.0632,0.158],[-84.3157,22.0621,0.0],[-84.3143,22.0604,0.701],[-84.3154,22.0532,0.3006],[-84.3187,22.0485,0.2318],[-84.3213,22.0374,0.0],[-84.3168,22.0299,1.025],[-84.3165,22.0257,0.2601],[-84.3135,22.0271,1.0825],[-84.3071,22.0235,0.0],[-84.3015,22.024,1.0711],[-84.2974,22.0307,0.393],[-84.2901,22.034,0.2228],[-84.2882,22.0476,1.1446],[-84.2862,22.0485,1.1446],[-84.2851,22.0518,0.3425],[-84.2815,22.0537,0.0],[-84.2821,22.0674,0.4382],[-84.2799,22.0699,0.4631],[-84.2724,22.0685,0.0],[-84.2701,22.0688,4.1457],[-84.2682,22.0715,0.7424],[-84.2665,22.071,1.4409],[-84.2685,22.0663,2.7206],[-84.2737,22.0615,1.9799],[-84.274,22.0518,0.629],[-84.2774,22.0449,1.8901],[-84.274,22.0393,0.377],[-84.2732,22.034,0.9512],[-84.2754,22.0307,0.3083],[-84.274,22.0271,0.0],[-84.2782,22.0238,0.0],[-84.2763,22.0163,0.3652],[-84.2782,22.0093,0.0],[-84.2799,22.0088,0.0],[-84.2829,22.0124,0.0],[-84.2871,22.0126,0.4942],[-84.2893,22.0154,0.3144],[-84.2974,22.0176,0.2542],[-84.3071,22.016,0.0],[-84.3093,22.0135,0.0],[-84.3101,22.0054,0.499],[-84.3149,22.0007,0.2264],[-84.3171,21.9929,0.0],[-84.3276,21.9899,0.5517],[-84.3307,21.9926,0.0],[-84.3346,21.9932,0.4457],[-84.3357,21.9954,1.9542],[-84.3418,21.9951,1.4425],[-84.3443,21.9999,0.3333],[-84.3468,21.9999,0.6226],[-84.351,22.004,0.8212],[-84.3515,22.0085,0.0],[-84.3476,22.0135,0.0],[-84.3549,22.021,0.7556],[-84.3571,22.0274,0.5294],[-84.3615,22.0276,0.8884],[-84.3699,22.0315,1.2256],[-84.3774,22.0371,0.0],[-84.3826,22.0368,1.4922],[-84.3863,22.0388,0.0],[-84.3982,22.0362,2.0772],[-84.4079,22.0268,2.6232],[-84.4118,22.026,0.0],[-84.4182,22.0213,0.4145],[-84.4226,22.0207,0.0],[-84.4251,22.0176,1.3982],[-84.4287,22.0182,0.0],[-84.4313,22.0135,1.389],[-84.4435,22.006,0.4047],[-84.4507,22.0074,0.0],[-84.4549,22.006,0.6353],[-84.4565,22.0085,1.7804],[-84.4626,22.0107,3.4442],[-84.4624,22.0146,3.249],[-84.4676,22.0199,2.0975],[-84.4707,22.0185,2.9904],[-84.4715,22.0146,2.4868],[-84.4735,22.0179,0.0],[-84.474,22.0149,0.8907],[-84.4779,22.0165,0.5111],[-84.4799,22.0149,0.2764],[-84.4863,22.0176,0.7579],[-84.4896,22.0221,0.3256],[-84.4901,22.0268,1.2078],[-84.4857,22.0313,0.0],[-84.4899,22.0318,0.3405],[-84.4843,22.0326,1.9002],[-84.4804,22.0351,1.5071],[-84.4818,22.0421,2.7814],[-84.4849,22.0426,2.4765],[-84.4854,22.0449,0.0],[-84.4918,22.0457,0.0],[-84.4974,22.0421,0.0],[-84.5096,22.0382,0.7598],[-84.5188,22.0401,0.6812],[-84.5215,22.0357,2.9996],[-84.5279,22.0324,0.6526],[-84.5301,22.0332,1.9943],[-84.5338,22.0276,0.6555],[-84.5418,22.026,0.0],[-84.546,22.0229,0.3782],[-84.5476,22.0207,0.1233],[-84.5446,22.0187,1.499],[-84.5485,22.0171,0.2013],[-84.5496,22.0196,0.0],[-84.5568,22.0163,1.2573],[-84.5612,22.0104,0.2653],[-84.5607,22.0085,0.5762],[-84.5676,22.0076,0.8582],[-84.5751,22.0007,1.3095],[-84.5804,22.0004,2.0749],[-84.5849,21.9943,0.0],[-84.606,21.9901,2.1143],[-84.6263,21.9785,2.0594],[-84.636,21.9746,2.1386],[-84.641,21.9754,2.5053],[-84.6485,21.9718,1.1343],[-84.6557,21.9721,0.0],[-84.666,21.9668,1.546],[-84.6999,21.9582,0.0],[-84.7063,21.9546,0.0],[-84.7082,21.951,0.0],[-84.7199,21.9493,0.0],[-84.7274,21.9438,0.0],[-84.7365,21.9401,3.0388],[-84.7421,21.9343,1.0985],[-84.7479,21.9324,0.0],[-84.7543,21.9271,0.0],[-84.7571,21.9274,0.0],[-84.764,21.9199,0.3274],[-84.7688,21.9193,0.0],[-84.7732,21.9162,0.309],[-84.7826,21.9162,0.0],[-84.7862,21.9112,0.7462],[-84.7913,21.9112,0.0],[-84.7976,21.9032,0.5959],[-84.8063,21.9032,0.5406],[-84.8071,21.9074,0.0],[-84.8076,21.9074,0.0],[-84.8087,21.9046,0.0],[-84.8138,21.9051,2.3914],[-84.8143,21.909,2.3658],[-84.8101,21.9188,0.0],[-84.8104,21.9218,0.0],[-84.8146,21.9229,0.2672],[-84.8215,21.9204,0.5869],[-84.8179,21.9232,0.63],[-84.8118,21.9249,0.0],[-84.8121,21.9271,0.0],[-84.8251,21.9332,0.0],[-84.8285,21.9329,0.4503],[-84.8315,21.9299,1.1177],[-84.8362,21.931,0.0],[-84.8393,21.9296,0.257],[-84.844,21.9324,0.0],[-84.8476,21.929,1.5663],[-84.8496,21.9299,0.6517],[-84.8521,21.9257,0.6646],[-84.8549,21.926,0.3491],[-84.8587,21.9201,0.0],[-84.861,21.9096,0.3801],[-84.856,21.9085,0.0],[-84.8562,21.9201,1.635],[-84.8538,21.9226,0.7763],[-84.8468,21.9238,2.2849],[-84.8449,21.9226,0.6462],[-84.8454,21.9179,0.0],[-84.8426,21.9171,0.0],[-84.841,21.9185,0.0],[-84.8415,21.9215,0.0],[-84.8368,21.9243,0.0],[-84.8362,21.9263,0.7022],[-84.8337,21.9265,0.0],[-84.8324,21.926,0.0],[-84.8332,21.921,0.0],[-84.829,21.9118,0.0],[-84.8274,21.9135,0.0],[-84.8238,21.9135,0.0],[-84.8199,21.9057,0.1742],[-84.821,21.9026,0.2775],[-84.829,21.8993,0.1072],[-84.8321,21.8996,0.0],[-84.8351,21.8915,0.2501],[-84.8412,21.8929,0.2473],[-84.8415,21.8968,0.0],[-84.8437,21.8996,0.0],[-84.8426,21.9049,0.4388],[-84.8451,21.9071,0.0],[-84.8463,21.9051,0.2774],[-84.8474,21.909,0.0],[-84.8507,21.9088,0.0],[-84.8526,21.9104,0.0],[-84.8518,21.9074,1.0654],[-84.8474,21.9051,0.2774],[-84.8476,21.9026,0.0],[-84.8443,21.9013,0.2399],[-84.8449,21.8985,0.0],[-84.8421,21.8949,0.0],[-84.8435,21.8913,0.177],[-84.8501,21.889,0.1191],[-84.8551,21.8913,0.0],[-84.8632,21.8863,0.2865],[-84.8676,21.8857,0.0],[-84.8749,21.8882,0.4625],[-84.8721,21.894,0.0],[-84.879,21.8929,0.0],[-84.8826,21.8885,0.7446],[-84.8887,21.8882,0.4649],[-84.8901,21.8915,0.0],[-84.8932,21.8924,0.0],[-84.8957,21.8899,0.5746],[-84.8999,21.8899,1.0543],[-84.9035,21.8957,0.0],[-84.9018,21.8976,0.0],[-84.909,21.9018,0.0],[-84.9088,21.9037,0.0],[-84.9115,21.906,0.2908],[-84.9163,21.9165,0.6135],[-84.9201,21.9188,0.0],[-84.9249,21.9182,0.0],[-84.9301,21.9143,0.0],[-84.9354,21.9018,7.4678],[-84.9446,21.8868,7.4865],[-84.9521,21.869,2.609],[-84.9524,21.8607,4.3821],[-84.951,21.8554,0.0],[-84.9457,21.849,0.0],[-84.9463,21.846,0.0],[-84.9399,21.8399,0.0],[-84.9343,21.8357,1.8504],[-84.9221,21.8324,3.2347],[-84.9171,21.8282,0.0],[-84.8757,21.8215,0.0],[-84.8624,21.8213,0.21],[-84.8187,21.8121,5.0183],[-84.7982,21.8118,0.0],[-84.7824,21.8199,1.1612],[-84.7618,21.8374,2.7916],[-84.7446,21.8621,3.3409],[-84.7365,21.8671,0.2218],[-84.731,21.874,6.3146],[-84.7171,21.8813,5.9218],[-84.6829,21.8943,0.4572],[-84.6804,21.8968,0.2483],[-84.6782,21.896,0.609],[-84.661,21.9024,6.3657],[-84.639,21.9079,0.0],[-84.6312,21.911,0.1339],[-84.6226,21.9171,5.6086],[-84.6157,21.9174,0.0],[-84.6104,21.9201,0.0],[-84.5904,21.924,0.0],[-84.5849,21.9268,1.0303],[-84.569,21.929,0.3838],[-84.5565,21.9332,0.0],[-84.5465,21.9326,2.4509],[-84.5454,21.9304,0.0],[-84.4987,21.9285,0.0],[-84.4896,21.9243,0.3172],[-84.4876,21.9212,0.0],[-84.481,21.9196,0.6793],[-84.4696,21.9126,0.7788],[-84.4687,21.909,1.0407],[-84.4635,21.904,0.0],[-84.4638,21.9015,0.0],[-84.4607,21.8974,4.68],[-84.4549,21.879,2.5299],[-84.4568,21.8674,2.0059],[-84.4618,21.8601,1.0222],[-84.4679,21.8549,0.5347],[-84.4721,21.8487,1.2259],[-84.4771,21.844,2.2957],[-84.4801,21.8432,0.0],[-84.4907,21.8324,0.0],[-84.4943,21.8268,0.0],[-84.4949,21.8218,3.5263],[-84.4987,21.8143,0.0],[-84.5126,21.8043,0.0],[-84.5168,21.7582,0.0],[-84.5129,21.7549,0.0],[-84.5071,21.7543,0.0],[-84.4999,21.7565,0.0],[-84.4918,21.7568,0.0],[-84.4732,21.7632,0.0],[-84.4535,21.7638,2.8168],[-84.444,21.7657,0.5566],[-84.4335,21.7699,0.0],[-84.4243,21.7768,0.0],[-84.3987,21.8001,0.0],[-84.3668,21.8232,6.9344],[-84.3401,21.8474,13.8601],[-84.326,21.8574,14.2525],[-84.3238,21.8568,0.0],[-84.3213,21.8599,14.1814],[-84.316,21.8613,1.3884],[-84.2968,21.8771,17.6629],[-84.2626,21.8946,7.2805],[-84.2582,21.896,6.4141],[-84.2299,21.8968,0.0],[-84.2218,21.9013,0.0],[-84.211,21.9046,1.7095],[-84.1818,21.9101,0.0],[-84.169,21.9157,0.0],[-84.1621,21.921,0.0],[-84.144,21.9265,0.0],[-84.1129,21.9276,0.0],[-84.1001,21.9307,6.944],[-84.0865,21.931,3.6728],[-84.0776,21.926,0.2584],[-84.0754,21.9265,0.679],[-84.0687,21.9232,0.0],[-84.0629,21.9226,2.4332],[-84.0596,21.9193,0.3742],[-84.0471,21.9146,5.4946],[-84.0346,21.9051,0.0],[-84.0321,21.9107,0.4933],[-84.0168,21.9179,2.254],[-84.014,21.9207,0.0],[-83.999,21.9413,0.942],[-83.9946,21.9557,0.0],[-84.0024,21.965699999999998,2.7973],[-84.0032,21.9718,0.0],[-84.0015,21.9771,1.3643],[-83.9943,21.9868,0.7076],[-83.9843,21.9971,1.7811],[-83.9785,21.9999,0.0],[-83.9746,22.0068,0.5524],[-83.9679,22.0129,0.4526],[-83.9679,22.0163,0.8337],[-83.959,22.031,0.0],[-83.9618,22.041,1.2294],[-83.9657,22.0438,2.5426],[-83.966,22.0476,1.7861],[-83.9679,22.0485,0.994],[-83.9671,22.0454,2.5426],[-83.969,22.0451,3.1318],[-83.969,22.0438,3.1318],[-83.9651,22.0415,2.5111],[-83.9654,22.0382,0.0],[-83.9629,22.0371,2.4306],[-83.9646,22.0338,0.5559],[-83.9632,22.0313,0.0],[-83.9657,22.029,0.0],[-83.9671,22.0243,1.7741],[-83.9657,22.0224,0.8819],[-83.9687,22.0179,1.9472],[-83.976,22.0182,1.2301],[-83.981,22.0213,1.084],[-83.9824,22.024,0.2314],[-83.9874,22.0271,0.0],[-83.996,22.0404,0.0],[-83.9971,22.0465,0.0],[-83.9957,22.0613,0.0]]],
[[[-84.4849,22.0265,1.4378],[-84.4843,22.0279,1.3724],[-84.4874,22.0276,0.0],[-84.4863,22.0263,0.5532],[-84.4849,22.0265,1.4378]]],
[[[-83.9718,22.0968,1.2063],[-83.9729,22.0982,0.0],[-83.9735,22.0951,0.0],[-83.9713,22.091,0.0],[-83.9707,22.0935,0.0],[-83.9718,22.0968,1.2063]]],
[[[-83.8026,22.1735,1.8407],[-83.8065,22.1743,0.0],[-83.8107,22.1724,2.0291],[-83.806,22.1721,1.3839],[-83.7999,22.1693,0.2751],[-83.7976,22.1701,0.478],[-83.799,22.1729,1.2214],[-83.8026,22.1735,1.8407]]],
[[[-84.4262,22.4188,1.2334],[-84.4307,22.4196,0.8825],[-84.4351,22.4165,4.164],[-84.436,22.4138,4.0573],[-84.439,22.4135,0.737],[-84.4454,22.4049,0.0],[-84.4457,22.3993,0.0],[-84.441,22.3968,0.0],[-84.434,22.3982,2.8564],[-84.4279,22.3954,0.0],[-84.4238,22.3954,0.4645],[-84.4129,22.3882,0.0],[-84.4071,22.3874,2.1304],[-84.4013,22.3887,0.0],[-84.399,22.391,0.6519],[-84.3946,22.3913,0.4512],[-84.3935,22.394,2.0553],[-84.3885,22.3965,1.481],[-84.3854,22.396,1.8896],[-84.3849,22.3929,0.0],[-84.3829,22.3949,1.7189],[-84.3774,22.394,1.6687],[-84.3751,22.3976,4.4406],[-84.3757,22.404,1.1177],[-84.3785,22.4085,0.9668],[-84.3857,22.4079,0.0],[-84.3915,22.404,2.0424],[-84.396,22.404,1.0969],[-84.4046,22.4074,0.0],[-84.4135,22.4065,2.6515],[-84.4179,22.4096,6.2645],[-84.4199,22.4149,1.5852],[-84.4229,22.4146,2.5038],[-84.4224,22.4124,0.0],[-84.4251,22.4121,0.8899],[-84.4324,22.4143,2.8762],[-84.4318,22.4168,0.0],[-84.4279,22.4176,2.4468],[-84.424,22.4152,2.5038],[-84.4226,22.416,3.9459],[-84.4262,22.4188,1.2334]]],
[[[-84.349,22.4607,1.3977],[-84.3507,22.4615,0.0],[-84.3499,22.4562,5.6911],[-84.3524,22.4571,0.0],[-84.3515,22.4549,5.697],[-84.3532,22.4524,1.6348],[-84.3551,22.4526,0.6156],[-84.3551,22.4554,1.3529],[-84.3585,22.4538,0.0],[-84.354,22.4507,2.566],[-84.3551,22.4485,3.6762],[-84.3599,22.4524,0.0],[-84.3629,22.4507,1.5994],[-84.3579,22.4443,2.319],[-84.3557,22.444,0.0],[-84.3532,22.446,0.9976],[-84.3501,22.451,3.6069],[-84.3512,22.4532,2.7227],[-84.3485,22.4562,5.6911],[-84.3435,22.4565,0.0],[-84.349,22.4607,1.3977]]],
[[[-84.3557,22.4618,0.0],[-84.359,22.4618,0.0],[-84.3582,22.4576,1.1905],[-84.356,22.4582,0.0],[-84.3571,22.461,4.4909],[-84.3551,22.4593,0.0],[-84.3557,22.4618,0.0]]],
[[[-84.2893,22.4621,1.9539],[-84.289,22.4643,0.0],[-84.2924,22.4601,0.0],[-84.2899,22.4607,0.9578],[-84.2893,22.4621,1.9539]]],
[[[-84.3496,22.4663,2.6266],[-84.3499,22.4679,1.4066],[-84.3515,22.4671,0.704],[-84.3507,22.464,1.8422],[-84.3496,22.4649,0.9742],[-84.3496,22.4663,2.6266]]],
[[[-84.3165,22.4915,0.0],[-84.3201,22.4924,0.8445],[-84.3221,22.4901,0.0],[-84.3185,22.4857,3.006],[-84.3182,22.4818,0.0],[-84.316,22.4818,0.0],[-84.3182,22.4871,1.4217],[-84.3165,22.4915,0.0]]],
[[[-84.321,22.5096,0.0],[-84.3224,22.5121,0.0],[-84.3268,22.5071,1.7069],[-84.3279,22.5001,2.0775],[-84.3301,22.4999,0.0],[-84.3301,22.4954,1.3001],[-84.3326,22.4926,1.9764],[-84.3376,22.4912,2.13],[-84.3407,22.4932,2.4567],[-84.344,22.4926,0.7444],[-84.3476,22.4876,4.8813],[-84.3485,22.4832,0.0],[-84.3443,22.4851,2.4372],[-84.3374,22.4849,0.0],[-84.3304,22.4882,0.0],[-84.3282,22.4921,1.6306],[-84.3265,22.4918,1.3194],[-84.3276,22.4876,0.5007],[-84.3265,22.4876,1.9612],[-84.3213,22.4938,0.9284],[-84.3182,22.4943,0.8484],[-84.3146,22.5007,0.6345],[-84.321,22.5096,0.0]]],
[[[-84.2249,22.5101,2.9366],[-84.2257,22.5115,1.1115],[-84.2282,22.5107,0.5448],[-84.2262,22.5074,0.0],[-84.2249,22.5101,2.9366]]],
[[[-83.6807,22.8076,0.0],[-83.6804,22.8093,0.0],[-83.681,22.8099,0.0],[-83.6818,22.8071,0.0],[-83.6807,22.8076,0.0]]],
[[[-83.6565,22.8218,1.0124],[-83.659,22.8229,1.9052],[-83.664,22.8204,0.0],[-83.6571,22.8201,0.0],[-83.6565,22.8218,1.0124]]],
[[[-83.6504,22.8229,2.9956],[-83.6507,22.824,0.0],[-83.6526,22.8235,0.7218],[-83.6526,22.8204,0.0],[-83.6515,22.821,0.7009],[-83.6504,22.8229,2.9956]]],
[[[-83.6546,22.8382,1.2511],[-83.6568,22.839,0.0],[-83.6604,22.8371,0.0],[-83.6604,22.8315,0.0],[-83.6513,22.8343,3.0069],[-83.6518,22.8368,1.3447],[-83.6546,22.8382,1.2511]]],
[[[-83.5387,22.8757,0.0],[-83.539,22.8774,1.0081],[-83.5413,22.8771,0.0],[-83.5465,22.8713,0.5463],[-83.539,22.8749,0.0],[-83.5387,22.8757,0.0]]],
[[[-83.534,22.8746,2.5091],[-83.5329,22.8762,0.6455],[-83.5351,22.8754,2.5091],[-83.5332,22.8729,0.0],[-83.534,22.8746,2.5091]]],
[[[-83.5124,22.8871,0.0],[-83.5151,22.8879,0.0],[-83.5199,22.8851,2.7849],[-83.5354,22.8835,2.1075],[-83.5404,22.8776,0.357],[-83.539,22.8787,1.0081],[-83.5354,22.876,0.327],[-83.5307,22.8774,1.8712],[-83.5315,22.8746,0.6782],[-83.5301,22.8746,0.0],[-83.5276,22.8771,0.0],[-83.529,22.8787,1.8712],[-83.5307,22.8776,1.8712],[-83.5301,22.8796,1.2652],[-83.5268,22.8793,1.0255],[-83.5249,22.8826,3.5862],[-83.5201,22.8818,0.0],[-83.5154,22.8849,2.3917],[-83.5113,22.8832,0.0],[-83.511,22.8857,1.7693],[-83.5096,22.8846,1.5057],[-83.509,22.8857,0.6495],[-83.5124,22.8871,0.0]]],
[[[-83.3915,22.8893,1.2869],[-83.3929,22.8904,1.2869],[-83.3951,22.889,0.0],[-83.3957,22.8851,0.0],[-83.3915,22.8882,0.9208],[-83.3915,22.8893,1.2869]]],
[[[-84.2496,22.5546,4.9928],[-84.2513,22.5557,0.0],[-84.2513,22.5532,1.3856],[-84.2557,22.549,0.8362],[-84.2549,22.5454,1.0351],[-84.2446,22.5471,1.494],[-84.2379,22.5432,1.3669],[-84.2401,22.5465,1.9101],[-84.2401,22.5504,2.3335],[-84.2451,22.5499,1.8357],[-84.2496,22.5546,4.9928]]],
[[[-84.2249,22.561,5.1758],[-84.2279,22.5618,4.5908],[-84.2293,22.5607,0.0],[-84.2262,22.5596,3.2358],[-84.2312,22.5543,2.5925],[-84.2324,22.556,0.0],[-84.2349,22.556,4.4459],[-84.2357,22.5582,4.3662],[-84.2393,22.5582,0.0],[-84.2382,22.5554,0.0],[-84.2337,22.5526,1.4464],[-84.2346,22.5507,1.943],[-84.2318,22.5513,2.1807],[-84.2315,22.5499,0.8411],[-84.2257,22.5532,0.9503],[-84.2129,22.5532,0.0],[-84.2185,22.5599,3.4763],[-84.2204,22.5593,0.3338],[-84.2196,22.5565,1.3882],[-84.2221,22.5549,1.4579],[-84.2243,22.5571,0.0],[-84.2235,22.5593,0.0],[-84.2249,22.561,5.1758]]],
[[[-84.0426,22.6621,0.9118],[-84.0424,22.6635,0.9118],[-84.0443,22.6621,0.0],[-84.044,22.6599,0.0],[-84.0429,22.661,0.6979],[-84.0426,22.6621,0.9118]]],
[[[-84.0046,22.7254,0.8973],[-84.0065,22.726,0.0],[-84.006,22.7229,0.547],[-84.0038,22.7235,0.0],[-84.0046,22.7254,0.8973]]],
[[[-83.7554,22.7751,-0.0978],[-83.7543,22.779,0.0],[-83.7585,22.7743,0.4339],[-83.7574,22.7718,0.3421],[-83.7557,22.7721,0.1004],[-83.7554,22.7751,-0.0978]]],
[[[-83.7935,22.784,0.0],[-83.7943,22.7851,0.0],[-83.7974,22.784,0.0],[-83.7985,22.7799,0.7496],[-83.7951,22.7813,1.0373],[-83.7935,22.784,0.0]]],
[[[-83.7979,22.7915,0.0],[-83.7968,22.7913,0.0],[-83.7974,22.7946,0.4943],[-83.7988,22.7938,0.0],[-83.7979,22.7915,0.0]]],
[[[-83.7732,22.816,0.5794],[-83.7812,22.8168,2.3085],[-83.7921,22.8149,3.2873],[-83.7965,22.811,0.0],[-83.8037,22.8093,0.0],[-83.8074,22.8068,1.9822],[-83.8165,22.7946,3.2244],[-83.8235,22.7765,0.0],[-83.8199,22.7751,0.0],[-83.8182,22.7807,0.0],[-83.819,22.7826,0.8782],[-83.816,22.7838,4.4231],[-83.8146,22.7821,1.3082],[-83.8126,22.7846,0.5868],[-83.8087,22.7857,0.0],[-83.8085,22.7921,1.3303],[-83.8065,22.7932,0.0],[-83.8082,22.7965,0.8765],[-83.8051,22.7957,0.0],[-83.8051,22.7932,0.0],[-83.8026,22.7924,0.0],[-83.8049,22.7965,0.0],[-83.8096,22.7979,1.5057],[-83.8065,22.8037,0.0],[-83.8043,22.8043,0.3943],[-83.8001,22.8024,1.8509],[-83.799,22.801,0.5631],[-83.7999,22.7987,0.3459],[-83.7974,22.7976,1.2351],[-83.799,22.8049,1.2409],[-83.7915,22.8079,0.4704],[-83.7896,22.8021,0.4473],[-83.7946,22.801,0.3592],[-83.7951,22.799,1.5257],[-83.7899,22.7999,0.0],[-83.7885,22.7985,0.0],[-83.7887,22.8046,1.7977],[-83.786,22.8085,0.0],[-83.7832,22.8082,0.2584],[-83.781,22.7993,0.9291],[-83.7796,22.7987,0.0],[-83.7787,22.801,1.746],[-83.7793,22.7985,0.0],[-83.7763,22.7982,1.0559],[-83.7799,22.7946,0.867],[-83.7779,22.7946,3.695],[-83.7771,22.7921,2.5576],[-83.7743,22.7921,1.6695],[-83.7754,22.7893,0.1827],[-83.7721,22.7896,0.0],[-83.7696,22.7851,0.0],[-83.7682,22.7868,0.0],[-83.7718,22.7915,0.0],[-83.7704,22.7929,0.7795],[-83.7663,22.7924,1.8694],[-83.7643,22.7896,0.2282],[-83.7674,22.7899,0.0],[-83.7676,22.7882,0.0],[-83.7604,22.789,1.2034],[-83.7571,22.7815,4.8389],[-83.7576,22.7799,0.3048],[-83.7546,22.7801,0.0],[-83.7551,22.7874,0.0],[-83.7626,22.7921,0.9521],[-83.764,22.7946,1.513],[-83.7631,22.7971,1.0677],[-83.7668,22.7985,2.8159],[-83.7699,22.7951,1.8319],[-83.7715,22.7976,0.0],[-83.7726,22.7943,1.2806],[-83.7743,22.7946,2.4811],[-83.7754,22.7996,0.3511],[-83.7718,22.7982,0.0],[-83.7693,22.799,0.0],[-83.7651,22.8024,0.0],[-83.7668,22.8037,2.7962],[-83.7643,22.8068,1.5259],[-83.7626,22.806,1.502],[-83.7613,22.8088,3.108],[-83.7576,22.8088,0.0],[-83.7732,22.816,0.5794]]],
[[[-83.759,22.7996,0.0],[-83.7626,22.7996,0.6386],[-83.7635,22.7979,1.0677],[-83.7601,22.7976,2.3615],[-83.7588,22.7982,0.0],[-83.759,22.7996,0.0]]],
[[[-83.7493,22.8057,0.9127],[-83.7524,22.8065,0.0],[-83.7501,22.8035,0.0],[-83.7438,22.8018,1.0271],[-83.7438,22.8035,3.8403],[-83.7493,22.8057,0.9127]]],
[[[-83.6826,22.8113,0.9311],[-83.6829,22.8101,0.0],[-83.681,22.8099,0.0],[-83.6804,22.8118,0.0],[-83.6813,22.8118,0.9311],[-83.6826,22.8113,0.9311]]],
[[[-82.9119,22.89,80.4453],[-82.9115,22.8901,71.7026],[-82.9124,22.8899,80.4453],[-82.9119,22.89,80.4453]]],
[[[-83.1821,22.9571,0.3815],[-83.1824,22.9576,0.3815],[-83.1874,22.9579,0.0],[-83.184,22.9551,0.0],[-83.1821,22.9571,0.3815]]],
[[[-82.9679,22.9754,0.6193],[-82.969,22.9785,0.4068],[-82.9699,22.9771,1.1926],[-82.9685,22.9743,0.6193],[-82.9679,22.9754,0.6193]]],
[[[-83.4304,22.9138,0.2817],[-83.441,22.9135,0.9367],[-83.4443,22.9104,3.0692],[-83.4507,22.9093,0.5463],[-83.4538,22.9051,0.0],[-83.4512,22.9049,0.5799],[-83.4482,22.9001,0.9821],[-83.4504,22.8982,1.4163],[-83.4535,22.8982,1.5153],[-83.4571,22.9026,1.5004],[-83.4551,22.9062,0.3317],[-83.4571,22.9049,0.9917],[-83.4665,22.9049,1.2951],[-83.4735,22.8949,0.0],[-83.4724,22.8932,0.0],[-83.4679,22.8935,1.5796],[-83.466,22.8921,2.1123],[-83.4576,22.8943,0.7411],[-83.4546,22.8932,0.5065],[-83.4526,22.8899,0.4427],[-83.4485,22.8907,0.4376],[-83.446,22.8935,0.4835],[-83.4482,22.894,0.6603],[-83.4437,22.8946,0.7495],[-83.4446,22.8971,1.0889],[-83.4415,22.8985,0.0],[-83.4454,22.8996,2.0107],[-83.4463,22.9051,0.5937],[-83.4415,22.909,2.2458],[-83.4321,22.9112,0.7884],[-83.4271,22.909,0.501],[-83.4238,22.9099,0.0],[-83.4249,22.9138,0.0],[-83.4296,22.9124,0.7522],[-83.4304,22.9138,0.2817]]],
[[[-83.4129,22.9079,0.7687],[-83.4165,22.9088,0.0],[-83.4165,22.9051,0.6367],[-83.4137,22.9051,0.0],[-83.4121,22.9068,0.8746],[-83.4129,22.9079,0.7687]]],
[[[-83.4315,22.9263,0.9531],[-83.4332,22.9274,0.0],[-83.4351,22.926,1.1874],[-83.4337,22.9229,0.5733],[-83.4326,22.9232,0.5733],[-83.4315,22.9263,0.9531]]],
[[[-82.961,22.9793,1.6697],[-82.9638,22.9801,0.0],[-82.964,22.9779,0.0],[-82.9607,22.9771,0.0],[-82.961,22.9793,1.6697]]],
[[[-82.9382,22.9862,0.0],[-82.9399,22.9879,0.9327],[-82.9393,22.9857,1.3222],[-82.941,22.9843,0.0],[-82.936,22.984,0.0],[-82.9382,22.9862,0.0]]],
[[[-82.9504,22.996,1.1803],[-82.9529,22.9951,0.0],[-82.9501,22.9949,0.0],[-82.9479,22.9968,0.0],[-82.9496,22.9968,1.1803],[-82.9504,22.996,1.1803]]],
[[[-82.9446,22.9996,2.0681],[-82.941,22.9999,0.0],[-82.9438,23.0062,3.7298],[-82.9446,23.0174,0.0],[-82.9518,23.0187,0.7726],[-82.9568,23.0176,0.0],[-82.9601,23.0157,0.3795],[-82.961,23.0121,0.0],[-82.969,23.0038,1.3162],[-82.9699,23.0007,3.7917],[-82.9682,22.9974,2.3513],[-82.9721,22.9918,0.0],[-82.9687,22.989,0.9627],[-82.9579,22.9976,4.8184],[-82.9515,22.999,2.8784],[-82.9485,23.0026,0.6695],[-82.9457,23.0035,0.4497],[-82.9432,23.0024,0.5652],[-82.9468,23.0001,0.0],[-82.9476,22.9968,0.0],[-82.9446,22.9996,2.0681]]]]}}