{"type": "Feature","bbox": [-74.0001,19.6218,-72.9985,20.0001],"geometry": {"type": "MultiPolygon","coordinates": [[[[-73.124,19.6266,0.2616],[-73.122,19.6318,0.0],[-73.1282,19.6333,21.6357],[-73.1314,19.6381,53.2148],[-73.1362,19.6404,75.6131],[-73.1363,19.6436,65.955],[-73.1306,19.6507,16.7944],[-73.1289,19.6566,10.8708],[-73.1184,19.6763,155.9216],[-73.1174,19.6809,134.5649],[-73.1191,19.6845,129.4327],[-73.1177,19.6872,143.8288],[-73.1184,19.6897,145.7072],[-73.1222,19.6923,155.534],[-73.1206,19.702,172.1724],[-73.116,19.703,165.1453],[-73.1071,19.6966,129.6395],[-73.1037,19.6963,138.8099],[-73.1017,19.6994,135.3788],[-73.1056,19.7025,145.7719],[-73.1032,19.7057,147.036],[-73.0871,19.7144,178.2784],[-73.08,19.7311,276.5549],[-73.0735,19.7329,308.2199],[-73.07,19.7312,297.2067],[-73.0615,19.7387,339.8846],[-73.0529,19.7418,357.4452],[-73.0469,19.7418,262.4481],[-73.0328,19.7379,141.7893],[-73.0267,19.7328,114.0947],[-73.0109,19.7308,168.4956],[-73.0119,19.7348,167.6678],[-73.0172,19.7395,183.5439],[-73.0217,19.7488,176.9364],[-73.0225,19.7556,157.8237],[-73.0297,19.7588,195.3983],[-73.0321,19.7619,201.566],[-73.0336,19.7741,300.4993],[-73.0288,19.7767,286.5592],[-73.0235,19.7836,232.1271],[-73.0227,19.79,193.3545],[-73.0206,19.7917,184.4931],[-73.0223,19.7954,187.2923],[-73.0203,19.8135,135.8951],[-73.0219,19.8162,146.8239],[-73.0217,19.824,107.9725],[-73.0248,19.8295,127.1359],[-73.0199,19.8375,80.4489],[-73.0182,19.8361,100.7331],[-73.014,19.837,74.7824],[-73.0127,19.8482,105.5357],[-73.0047,19.8543,57.0728],[-73.0035,19.8669,34.6076],[-73.007,19.8728,32.9831],[-73.0063,19.8752,29.778],[-72.9998,19.8806,16.3702],[-72.9997,19.8879,13.8242],[-73.0025,19.9008,23.2797],[-72.9995,19.9061,15.4813],[-73.0004,19.9171,0.0],[-72.9987,19.9179,15.8422],[-73.0038,19.9176,7.1257],[-73.014,19.9218,5.4133],[-73.031,19.9221,0.0],[-73.0324,19.919,0.0],[-73.0271,19.916,0.0],[-73.0275,19.9109,0.0],[-73.0285,19.9093,0.1864],[-73.0334,19.909,0.0],[-73.0401,19.9168,2.8268],[-73.046,19.919,0.0],[-73.0501,19.9177,4.3788],[-73.0582,19.9199,5.0925],[-73.069,19.9185,12.1856],[-73.119,19.926,0.0],[-73.1468,19.9251,12.176],[-73.1524,19.9263,23.294],[-73.154,19.929,0.0],[-73.1574,19.9287,22.0328],[-73.1579,19.9307,0.0],[-73.1651,19.9307,0.0],[-73.1679,19.9299,1.513],[-73.1715,19.9257,0.9915],[-73.1846,19.9212,0.4597],[-73.1849,19.9188,0.0],[-73.1879,19.9163,0.5535],[-73.1937,19.9143,0.0],[-73.1949,19.909,1.7477],[-73.1988,19.9076,0.0],[-73.2004,19.9046,2.769],[-73.214,19.9004,0.419],[-73.2165,19.8974,0.6176],[-73.2299,19.8893,1.6607],[-73.2329,19.8849,6.96],[-73.2421,19.8782,18.1685],[-73.2485,19.8776,0.0],[-73.2557,19.8724,0.0],[-73.2651,19.8699,0.0],[-73.2724,19.8649,5.7084],[-73.291,19.8621,0.0],[-73.3051,19.8574,0.0],[-73.3168,19.8499,1.6609],[-73.3271,19.8471,0.0],[-73.3315,19.8426,4.9686],[-73.3437,19.8374,0.0],[-73.3526,19.8385,8.4676],[-73.3654,19.8463,0.0],[-73.3885,19.8412,3.0656],[-73.4021,19.844,0.0],[-73.4088,19.8435,3.9266],[-73.4174,19.8318,5.0666],[-73.4221,19.8293,0.0],[-73.4215,19.824,0.0],[-73.414,19.8199,0.0],[-73.4071,19.8232,0.0],[-73.3943,19.8215,3.4587],[-73.3832,19.8176,0.0],[-73.374,19.8193,0.0],[-73.3693,19.8246,2.0538],[-73.3648,19.8343,2.9711],[-73.3626,19.8354,0.0],[-73.3604,19.834,0.7157],[-73.3651,19.8224,13.5702],[-73.3683,19.821,0.0],[-73.3724,19.8093,0.9252],[-73.3799,19.809,0.0],[-73.381,19.8033,2.1612],[-73.3849,19.7996,4.0807],[-73.3893,19.7979,6.9413],[-73.4007,19.7974,0.0],[-73.4107,19.791,32.6075],[-73.418,19.7915,26.182],[-73.4214,19.7965,4.6074],[-73.4262,19.7968,0.7216],[-73.4315,19.7868,12.4461],[-73.4396,19.7782,0.0],[-73.4426,19.7699,6.6575],[-73.4535,19.7596,10.5271],[-73.4524,19.7549,0.0],[-73.4568,19.7393,0.0],[-73.4557,19.7343,42.8625],[-73.4565,19.7235,0.0],[-73.4551,19.7196,16.7439],[-73.4571,19.7093,0.0],[-73.4551,19.6904,1.0223],[-73.4535,19.6865,1.6754],[-73.4388,19.6704,0.0],[-73.4382,19.6676,0.0],[-73.4357,19.6671,38.0458],[-73.4315,19.6615,0.0],[-73.4215,19.6546,0.0],[-73.4168,19.6485,0.0],[-73.411,19.6482,13.8391],[-73.3987,19.6385,0.0],[-73.3921,19.6363,3.1837],[-73.3913,19.634,2.3142],[-73.3826,19.6326,1.0875],[-73.377,19.63,0.0],[-73.374,19.6315,0.0],[-73.3699,19.6257,0.0],[-73.3646,19.6226,0.0],[-73.3566,19.626,1.8007],[-73.3499,19.624,3.0147],[-73.3407,19.624,0.0],[-73.334,19.6269,0.0],[-73.3212,19.6242,4.0622],[-73.316,19.6261,2.7574],[-73.3115,19.6257,1.7182],[-73.3046,19.629,4.384],[-73.2932,19.6287,0.0],[-73.2868,19.6318,0.0],[-73.2796,19.6299,0.0],[-73.269,19.6336,0.0],[-73.2629,19.6332,0.0],[-73.2607,19.6299,2.5397],[-73.2579,19.6287,0.0],[-73.2454,19.6296,8.5483],[-73.2432,19.6282,0.0],[-73.2393,19.6293,1.1074],[-73.2351,19.6282,0.0],[-73.2288,19.6307,2.3945],[-73.2229,19.6385,0.0],[-73.2193,19.6471,0.0],[-73.2193,19.6563,0.0],[-73.2115,19.6615,1.0293],[-73.2071,19.6618,1.7004],[-73.1937,19.6476,0.0],[-73.179,19.6385,0.0],[-73.1554,19.629,1.2997],[-73.1501,19.629,4.2125],[-73.146,19.6254,0.0],[-73.1396,19.6235,0.0],[-73.1285,19.6218,0.0],[-73.124,19.6266,0.2616]]],
[[[-72.9987,19.9179,15.8422],[-72.9985,19.918,15.8422],[-72.9985,19.9182,15.8422],[-72.9987,19.9182,15.8422],[-72.9987,19.9179,15.8422]]],
[[[-74.0001,19.9999,0.0],[-73.9999,19.9999,0.0],[-73.9999,20.0001,0.0],[-74.0001,20.0001,0.0],[-74.0001,19.9999,0.0]]]]}
,"properties": {"GID_2": "HTI.6.1_1","GID_0": "HTI","country": "Haiti","GID_1": "HTI.6_1","province": "Nord-Ouest","NL_NAME_1": "NA","county": "MôleSaint-Nicolas","VARNAME_2": "NA","NL_NAME_2": "NA","TYPE_2": "Arrondissement","ENGTYPE_2": "District","CC_2": "NA","HASC_2": "HT.NO.MS","name": "Môle_Saint-Nicolas.county","area_km2": 1115.6001,"hist_schema_id": "Elevation0-9000","hist_area_km2": {"0": 32.8563,"25": 62.6715,"50": 69.8493,"75": 52.6199,"100": 39.6376,"125": 40.7951,"150": 45.6671,"175": 44.8321,"200": 44.8556,"225": 57.8873,"250": 57.7253,"275": 45.0341,"300": 43.3,"325": 45.6953,"350": 48.3695,"375": 46.7944,"400": 43.2839,"425": 42.0278,"450": 45.5814,"475": 46.5019,"500": 35.6235,"525": 21.0729,"550": 20.0744,"575": 17.7788,"600": 15.264099999999999,"625": 12.9695,"650": 9.9359,"675": 6.7836,"700": 3.2126,"725": 2.6936,"750": 3.1724,"775": 2.933,"800": 2.6337,"825": 2.8132,"850": 1.7957,"875": 0.7781,"900": 0.0798}}}