{"type": "Feature","id": "5127","bbox": [-63.16784,18.16909,-63.1226,18.20808],"geometry": {"type": "Polygon","coordinates": [[[-63.1226,18.18358,19.9525],[-63.12279,18.20808,0.0],[-63.13435,18.20409,0.0],[-63.14208,18.19815,0.0],[-63.16784,18.16934,0.0],[-63.1505,18.16909,14.6808],[-63.13683,18.17341,0.2664],[-63.1226,18.18358,19.9525]]]}
,"properties": {"ISO3166-1-Alpha-3": "AIA","country": "Anguilla","fill": "#F0F","name": "West End","area_km2": 10.555001,"hist_schema_id": "Elevation0-9000","hist_area_km2": {"0": 8.641342,"25": 1.913659}}}