{"type": "Feature","bbox": [-72.7723,19.8085,-72.5601,19.9436],"geometry": {"type": "MultiPolygon","coordinates": [[[[-72.5938,19.8344,152.9825],[-72.5955,19.8398,256.1095],[-72.5893,19.8511,420.6334],[-72.5832,19.8517,557.5776],[-72.58,19.8497,529.5154],[-72.5809,19.8556,447.2277],[-72.583,19.858,499.2644],[-72.5833,19.8661,547.0535],[-72.5719,19.8743,258.3532],[-72.5683,19.8748,172.5853],[-72.567,19.8775,149.3506],[-72.5615,19.8774,65.3066],[-72.5601,19.8804,18.4986],[-72.5729,19.8868,41.0723],[-72.5735,19.8929,0.0],[-72.5754,19.8926,0.0],[-72.581,19.8976,0.0],[-72.5835,19.8954,34.6851],[-72.5837,19.8976,0.0],[-72.5874,19.8968,30.526],[-72.5912,19.899,0.0],[-72.5943,19.8954,12.4455],[-72.6015,19.896,0.0],[-72.6064,19.8924,2.3443],[-72.6204,19.8935,2.1004],[-72.6226,19.8954,0.0],[-72.6325,19.8982,3.9711],[-72.6359,19.9027,3.3567],[-72.6363,19.9082,0.7297],[-72.6418,19.909,0.0],[-72.6435,19.9065,1.4305],[-72.6457,19.9065,1.485],[-72.6521,19.914,0.0],[-72.6588,19.9146,16.3265],[-72.661,19.9176,0.0],[-72.6674,19.916,0.0],[-72.6707,19.9182,1.6797],[-72.6712,19.9212,0.364],[-72.6796,19.9232,2.0729],[-72.6846,19.9204,3.1106],[-72.6885,19.9224,0.0],[-72.6885,19.9251,0.0],[-72.6924,19.9237,1.3647],[-72.6968,19.9254,2.0068],[-72.7024,19.9307,0.0],[-72.7076,19.9279,1.5657],[-72.7143,19.9326,0.0],[-72.7187,19.9335,2.2246],[-72.7218,19.9368,1.84],[-72.7321,19.9357,0.0],[-72.7382,19.939,0.0],[-72.741,19.9387,7.3694],[-72.7458,19.9425,0.0],[-72.751,19.9436,5.3443],[-72.7538,19.9424,5.1522],[-72.7559,19.9377,8.6972],[-72.7541,19.9375,38.6995],[-72.7608,19.9259,167.7242],[-72.7605,19.9203,247.5372],[-72.7713,19.908,259.3471],[-72.7707,19.9048,330.2654],[-72.7723,19.9007,432.6187],[-72.7712,19.8993,490.7074],[-72.7672,19.9002,474.6336],[-72.7665,19.8942,534.2907],[-72.7639,19.8945,531.9487],[-72.763,19.891,705.9878],[-72.7498,19.8848,771.2808],[-72.7485,19.8795,797.9464],[-72.7418,19.88,876.4097],[-72.7436,19.8753,774.9846],[-72.7486,19.8735,830.8074],[-72.7513,19.8695,816.3157],[-72.7473,19.8659,745.5645],[-72.7482,19.8609,820.3832],[-72.7453,19.8539,852.4663],[-72.7373,19.8499,836.9619],[-72.7355,19.8512,795.4675],[-72.7352,19.8484,813.3201],[-72.7324,19.8461,801.4077],[-72.7363,19.8434,859.0902],[-72.7349,19.8405,761.2365],[-72.7382,19.837,792.2201],[-72.7385,19.8325,635.0168],[-72.734,19.8281,757.1291],[-72.7311,19.8207,641.3186],[-72.7302,19.8123,417.2722],[-72.7246,19.8095,463.3267],[-72.7197,19.8119,520.7257],[-72.7122,19.8116,703.1588],[-72.6993,19.8156,742.0538],[-72.6895,19.8085,751.6467],[-72.678,19.8088,609.5681],[-72.6772,19.8138,378.4539],[-72.6838,19.8262,213.7127],[-72.6846,19.8315,176.5371],[-72.6788,19.8328,327.3069],[-72.67,19.8321,459.7708],[-72.6609,19.8286,270.4749],[-72.6469,19.828,567.5637],[-72.6389,19.8293,626.2808],[-72.6379,19.8266,817.3359],[-72.6401,19.8212,599.7399],[-72.6391,19.8184,532.5632],[-72.6318,19.8168,623.8829],[-72.63,19.8116,567.002],[-72.6272,19.8135,668.5209],[-72.6233,19.8135,718.9414],[-72.6224,19.8154,734.5143],[-72.6193,19.8148,717.5501],[-72.615,19.8179,621.8728],[-72.6159,19.8278,239.5038],[-72.6135,19.834,161.5001],[-72.6107,19.8361,138.8495],[-72.6041,19.8387,127.7246],[-72.5981,19.8373,247.2247],[-72.5944,19.8302,126.3439],[-72.5909,19.8314,164.9922],[-72.5938,19.8344,152.9825]]]]}
,"properties": {"GID_2": "HTI.6.3_1","GID_0": "HTI","country": "Haiti","GID_1": "HTI.6_1","province": "Nord-Ouest","NL_NAME_1": "NA","county": "Saint-LouisduNord","VARNAME_2": "NA","NL_NAME_2": "NA","TYPE_2": "Arrondissement","ENGTYPE_2": "District","CC_2": "NA","HASC_2": "HT.NO.SL","name": "Saint-Louisdu_Nord.county","area_km2": 185.7766,"hist_schema_id": "Elevation0-9000","hist_area_km2": {"0": 9.6882,"25": 8.2728,"50": 6.5188,"75": 7.1571,"100": 6.9181,"125": 7.2373,"150": 7.2176,"175": 6.9187,"200": 6.5401,"225": 6.6,"250": 6.9391,"275": 6.6202,"300": 6.8196,"325": 6.8796,"350": 6.9194,"375": 6.9195,"400": 6.9594,"425": 7.1191,"450": 6.481,"475": 6.3214,"500": 6.3614,"525": 5.3644,"550": 4.7461,"575": 3.4899,"600": 3.8688,"625": 3.6494,"650": 3.1509,"675": 2.5726,"700": 2.5925,"725": 2.6524,"750": 2.3731,"775": 1.7748,"800": 1.1366,"825": 0.5384,"850": 0.2193,"875": 0.1795,"900": 0.0399,"925": 0.0199}}}