{"type": "Feature","bbox": [-71.7831,19.2262,-71.4157,19.6441],"geometry": {"type": "MultiPolygon","coordinates": [[[[-71.506,19.3097,1058.4583],[-71.5075,19.3136,1025.7179],[-71.4992,19.317,690.683],[-71.496,19.3232,559.7465],[-71.4781,19.3309,358.2885],[-71.4709,19.3384,356.7698],[-71.4678,19.3479,380.6537],[-71.4729,19.354,306.6087],[-71.4732,19.3592,264.7414],[-71.4689,19.3647,254.1958],[-71.4604,19.3665,377.8707],[-71.4585,19.3688,397.7989],[-71.4585,19.383,292.0561],[-71.4611,19.3904,276.8353],[-71.4613,19.3978,259.3766],[-71.454,19.4109,227.8322],[-71.4546,19.4183,240.4406],[-71.4506,19.4208,216.3547],[-71.4494,19.4239,230.4871],[-71.4499,19.4315,170.4617],[-71.4555,19.4434,190.7718],[-71.4553,19.4525,165.29],[-71.4532,19.4587,151.0087],[-71.4571,19.468,156.2711],[-71.4508,19.4708,138.8018],[-71.4493,19.4749,142.2885],[-71.4547,19.4874,176.7314],[-71.4433,19.4982,143.5454],[-71.4319,19.5034,112.6928],[-71.4237,19.5052,104.15],[-71.4222,19.5145,100.8734],[-71.4174,19.5196,98.4525],[-71.4157,19.5265,97.1388],[-71.4233,19.5332,72.0119],[-71.4272,19.5403,78.1303],[-71.4425,19.542,87.7151],[-71.4438,19.5513,100.6636],[-71.4462,19.5543,101.3475],[-71.4559,19.5542,159.5672],[-71.4651,19.5581,145.5742],[-71.4749,19.5569,168.6732],[-71.4903,19.5646,178.7827],[-71.4962,19.5739,105.1631],[-71.5031,19.5754,151.3291],[-71.5023,19.5806,140.3385],[-71.4946,19.5985,67.0211],[-71.4971,19.6054,57.3166],[-71.5003,19.6085,57.0],[-71.5067,19.6094,57.0],[-71.5098,19.6044,58.622],[-71.5187,19.6011,85.6599],[-71.531,19.6008,130.1955],[-71.5387,19.6024,77.5202],[-71.5475,19.5993,57.7891],[-71.5574,19.6033,70.4587],[-71.5651,19.6045,71.1213],[-71.5751,19.6118,153.0197],[-71.5782,19.611,170.3943],[-71.5814,19.6073,182.6331],[-71.5843,19.607,96.3298],[-71.5861,19.6086,74.5608],[-71.5869,19.6135,88.2501],[-71.6127,19.6063,77.2704],[-71.6245,19.5993,83.2788],[-71.6339,19.5965,77.694],[-71.6452,19.5987,75.199],[-71.6575,19.5971,74.4978],[-71.6627,19.6006,50.8564],[-71.6687,19.6088,33.4656],[-71.6774,19.6138,29.0198],[-71.6797,19.6182,24.8943],[-71.6928,19.6264,14.6079],[-71.7094,19.6272,4.9308],[-71.7191,19.625,15.5147],[-71.7273,19.6324,15.1294],[-71.7348,19.6326,11.702],[-71.7348,19.6441,5.396],[-71.744,19.6354,8.4379],[-71.742,19.5881,18.9076],[-71.7176,19.566,26.7986],[-71.7129,19.5567,32.1486],[-71.7109,19.5555,31.8473],[-71.7109,19.538,39.37],[-71.7101,19.5361,41.9367],[-71.7074,19.5353,46.781],[-71.7042,19.5361,47.8042],[-71.7027,19.5388,43.7484],[-71.7007,19.538,45.4622],[-71.7015,19.5275,49.7969],[-71.7007,19.5248,51.4347],[-71.6979,19.5248,53.5995],[-71.6979,19.5174,51.1926],[-71.696,19.5155,54.634],[-71.6932,19.5167,56.4089],[-71.6901,19.5147,48.1503],[-71.6866,19.5182,67.6],[-71.6854,19.5074,57.4629],[-71.6893,19.4996,53.5222],[-71.6885,19.4969,80.3253],[-71.6919,19.4938,64.1415],[-71.6892,19.4868,82.5429],[-71.6919,19.482,79.5963],[-71.6912,19.4794,92.4428],[-71.6884,19.4794,90.2914],[-71.6865,19.4774,95.1766],[-71.6884,19.4716,96.2772],[-71.6845,19.4716,113.0468],[-71.6853,19.4669,101.4124],[-71.6825,19.4654,120.3009],[-71.6845,19.4634,114.8033],[-71.679,19.4561,125.3356],[-71.677,19.4561,133.7289],[-71.6778,19.4502,123.6314],[-71.6758,19.4502,138.3896],[-71.6758,19.4483,139.3432],[-71.6778,19.4475,121.4044],[-71.679,19.4436,128.1169],[-71.677,19.4382,157.5527],[-71.6805,19.4374,134.8447],[-71.6797,19.4362,139.0548],[-71.6844,19.4269,191.513],[-71.6864,19.4269,158.5874],[-71.6883,19.4214,171.9103],[-71.6883,19.4187,190.0623],[-71.6864,19.4195,177.4369],[-71.6871,19.4121,194.5507],[-71.6956,19.4006,210.9765],[-71.6946,19.3989,229.7805],[-71.6958,19.3969,245.1579],[-71.6938,19.3954,298.3892],[-71.6946,19.3942,298.3892],[-71.691,19.3849,384.0377],[-71.691,19.3795,390.8279],[-71.6883,19.3775,640.874],[-71.6883,19.3756,614.8397],[-71.691,19.3736,353.7291],[-71.691,19.369,405.0835],[-71.689,19.3674,463.8082],[-71.6918,19.3643,558.7714],[-71.6984,19.3643,570.0355],[-71.7004,19.3689,566.3098],[-71.7118,19.3767,743.5149],[-71.7126,19.3736,832.2413],[-71.7145,19.3728,943.5835],[-71.7153,19.3675,840.3613],[-71.7169,19.3684,843.6118],[-71.7182,19.3628,850.5303],[-71.7244,19.3666,823.5289],[-71.7316,19.3606,786.956],[-71.735,19.3607,830.9827],[-71.7375,19.3581,787.4423],[-71.744,19.3563,779.0333],[-71.7466,19.3546,695.2416],[-71.7494,19.344,801.9247],[-71.769,19.3428,713.3352],[-71.7831,19.3354,606.8884],[-71.7804,19.3334,605.6722],[-71.7764,19.3334,616.0488],[-71.7737,19.3307,613.555],[-71.7737,19.3268,608.8408],[-71.7709,19.3268,609.6526],[-71.7709,19.3241,602.444],[-71.767,19.3253,606.5391],[-71.7651,19.3241,615.0394],[-71.767,19.3222,601.1274],[-71.7643,19.3206,614.1545],[-71.7635,19.316,592.8947],[-71.7623,19.316,598.5897],[-71.7615,19.3121,602.1639],[-71.7595,19.3113,599.3118],[-71.7615,19.3074,585.251],[-71.7595,19.3074,592.5428],[-71.7595,19.3094,596.0159],[-71.7588,19.3074,592.5428],[-71.7556,19.3074,596.7775],[-71.7568,19.3055,592.9157],[-71.7529,19.3047,602.9501],[-71.7529,19.302,590.7498],[-71.7568,19.3008,570.1798],[-71.7561,19.2976,571.3362],[-71.7576,19.2973,570.1053],[-71.7576,19.2954,578.4927],[-71.7529,19.2954,586.8492],[-71.7501,19.2934,589.4402],[-71.7501,19.2868,623.5698],[-71.752,19.2868,595.7151],[-71.752,19.2841,585.0573],[-71.7462,19.2833,577.348],[-71.7446,19.2814,559.6759],[-71.7454,19.2787,546.472],[-71.7367,19.2814,572.6389],[-71.736,19.2834,598.9302],[-71.7352,19.2729,551.0553],[-71.7285,19.2663,543.6132],[-71.7273,19.2663,556.2704],[-71.7285,19.2721,504.0906],[-71.7273,19.2721,526.6542],[-71.7265,19.2768,513.1166],[-71.7246,19.2776,490.8728],[-71.7246,19.2814,522.6943],[-71.7218,19.2822,571.1141],[-71.7199,19.2803,533.4589],[-71.7191,19.2756,546.0088],[-71.721,19.2721,507.7831],[-71.7151,19.271,565.8232],[-71.7132,19.2721,570.5851],[-71.7085,19.2655,500.547],[-71.7049,19.2648,535.5625],[-71.703,19.2617,536.0748],[-71.7049,19.257,484.9562],[-71.6975,19.2496,491.0956],[-71.6943,19.2488,501.4559],[-71.6935,19.245,467.2346],[-71.6888,19.2469,464.1407],[-71.6868,19.243,457.7571],[-71.6821,19.2442,469.6034],[-71.6794,19.243,456.3392],[-71.6821,19.2415,438.3289],[-71.6774,19.2415,440.0875],[-71.6747,19.2368,427.7964],[-71.6739,19.2403,424.2395],[-71.668,19.2403,443.9886],[-71.6672,19.2376,447.6111],[-71.6653,19.2396,434.9917],[-71.6613,19.2337,487.947],[-71.6606,19.2349,445.5286],[-71.6472,19.2338,405.8403],[-71.6456,19.2349,405.8403],[-71.6417,19.233,415.1351],[-71.6409,19.2349,440.3174],[-71.6398,19.2338,440.3174],[-71.6378,19.235,444.4206],[-71.6378,19.2338,444.4206],[-71.6362,19.235,422.6342],[-71.6351,19.2329,408.8178],[-71.637,19.2291,448.166],[-71.635,19.2311,408.5609],[-71.635,19.2291,399.3464],[-71.6323,19.2303,419.0742],[-71.6319,19.2266,405.5765],[-71.6278,19.2262,465.7383],[-71.6227,19.2298,487.168],[-71.618,19.2365,478.9785],[-71.6109,19.2384,507.4784],[-71.6045,19.2448,499.6704],[-71.5945,19.2431,537.4963],[-71.5888,19.2459,727.918],[-71.5865,19.2495,667.4957],[-71.5855,19.2596,555.2007],[-71.5783,19.2766,552.4882],[-71.5727,19.2762,522.0911],[-71.5699,19.2717,555.2585],[-71.5593,19.2659,585.562],[-71.5544,19.2657,579.0806],[-71.5473,19.2702,611.8441],[-71.5425,19.2705,616.6934],[-71.5176,19.257,876.5712],[-71.5103,19.2571,1004.4752],[-71.5071,19.2649,856.8466],[-71.4955,19.27,697.3826],[-71.4996,19.2799,851.1743],[-71.5,19.2875,795.3734],[-71.499,19.2907,928.3893],[-71.4923,19.2988,1042.7483],[-71.4962,19.3039,1133.9761],[-71.506,19.3097,1058.4583]]]]}
,"properties": {"GID_1": "DOM.4_1","GID_0": "DOM","country": "DominicanRepublic","province": "Dajabón","VARNAME_1": "Libertador","NL_NAME_1": "NA","TYPE_1": "Provincia","ENGTYPE_1": "Province","CC_1": "NA","HASC_1": "DO.DA","ISO_1": "NA","name": "Dajabón.province","area_km2": 1036.4787,"hist_schema_id": "Elevation0-9000","hist_area_km2": {"0": 3.7744,"25": 39.1689,"50": 40.9541,"75": 73.3593,"100": 73.3516,"125": 61.8892,"150": 57.7783,"175": 52.5092,"200": 45.2207,"225": 40.426,"250": 33.7314,"275": 26.4949,"300": 28.1364,"325": 34.8353,"350": 33.5168,"375": 21.7786,"400": 11.5998,"425": 11.1614,"450": 13.4251,"475": 14.8272,"500": 15.5479,"525": 16.2682,"550": 20.6102,"575": 23.9919,"600": 29.1134,"625": 34.6954,"650": 33.814,"675": 31.3518,"700": 21.1087,"725": 16.367,"750": 12.5855,"775": 10.8448,"800": 8.5038,"825": 7.6234,"850": 6.1027,"875": 4.4619,"900": 4.3419,"925": 3.2213,"950": 3.1013,"975": 2.621,"1000": 2.4409,"1025": 2.0208,"1050": 1.7406,"1075": 1.2804,"1100": 1.3805,"1125": 1.3405,"1150": 0.8803,"1175": 0.5202,"1200": 0.3401,"1225": 0.2001,"1250": 0.06,"1275": 0.04,"1300": 0.02}}}