{"type":"Feature","properties":{"ISO3166-1-Alpha-3":"DOM","country":"Dominican Republic","fill":"#F0F","id":"1966","name":"Dajabón"},
"geometry":{"type": "Polygon","coordinates": [[[-71.63771,19.60733,61.8464],[-71.73476,19.64629,5.2079],[-71.74604,19.64902,5.3374],[-71.74768,19.62278,9.997],[-71.74308,19.60007,16.2166],[-71.71513,19.53746,40.9857],[-71.70319,19.45928,118.3739],[-71.70386,19.41463,202.0504],[-71.71528,19.39166,382.2563],[-71.72081,19.38595,652.5334],[-71.73347,19.35546,772.4376],[-71.74298,19.34838,672.9203],[-71.76996,19.33381,643.8981],[-71.77652,19.3275,596.7657],[-71.77156,19.30756,619.0876],[-71.75373,19.28379,555.4941],[-71.74952,19.27971,554.7025],[-71.71652,19.24777,506.4769],[-71.65173,19.21792,548.2614],[-71.63511,19.23293,408.8178],[-71.61493,19.24448,470.1702],[-71.59376,19.2519,565.397],[-71.58635,19.27017,686.3431],[-71.57408,19.28404,557.3495],[-71.54963,19.27776,575.7423],[-71.52581,19.27019,713.8678],[-71.50532,19.28198,819.9333],[-71.48827,19.29885,952.5396],[-71.50514,19.31642,816.3605],[-71.51506,19.33802,886.2975],[-71.46617,19.35864,310.4978],[-71.45408,19.4222,242.4446],[-71.44646,19.44323,169.714],[-71.44866,19.46581,137.8818],[-71.43633,19.50809,98.5987],[-71.41305,19.54454,64.4631],[-71.45421,19.56294,126.5579],[-71.4923,19.58684,81.993],[-71.50736,19.61286,64.7048],[-71.5325,19.61963,123.0888],[-71.63771,19.60733,61.8464]]]}}