{"type": "Feature","bbox": [-70.6438,19.6235,-70.5428,19.7699],"geometry": {"type": "MultiPolygon","coordinates": [[[[-70.623,19.7674,0.0],[-70.6244,19.7596,11.39],[-70.6297,19.7491,5.923],[-70.6339,19.7467,9.6901],[-70.6402,19.739,19.5446],[-70.6438,19.7285,125.2698],[-70.6431,19.7191,121.8781],[-70.6401,19.7148,84.2883],[-70.631,19.7125,42.4014],[-70.6185,19.702,87.0331],[-70.6158,19.6946,85.0153],[-70.6129,19.6944,96.6489],[-70.6093,19.698,85.5822],[-70.6072,19.698,70.1614],[-70.6041,19.6921,85.3388],[-70.5981,19.687,94.8068],[-70.5977,19.6843,95.9923],[-70.6017,19.6756,226.2098],[-70.599,19.6675,272.5847],[-70.5851,19.6538,327.6165],[-70.5955,19.6435,183.1557],[-70.5955,19.6381,148.3949],[-70.5829,19.6331,117.8442],[-70.5758,19.6269,123.1144],[-70.5693,19.6238,105.9244],[-70.553,19.6235,112.0793],[-70.5575,19.6304,167.9042],[-70.5572,19.6399,270.8918],[-70.5538,19.6448,189.8872],[-70.5443,19.6459,139.3293],[-70.5428,19.649,108.9822],[-70.5449,19.6512,142.8468],[-70.5555,19.6525,168.8654],[-70.5575,19.6551,144.9306],[-70.5577,19.6603,140.5106],[-70.5466,19.6734,104.9632],[-70.5437,19.679,209.3447],[-70.5439,19.6833,208.547],[-70.5526,19.6995,203.6189],[-70.5632,19.707,153.6979],[-70.5695,19.7094,118.1106],[-70.575,19.7051,39.052],[-70.581,19.7064,22.2656],[-70.5819,19.7182,15.5352],[-70.5867,19.7251,10.1978],[-70.5875,19.7291,11.139099999999999],[-70.5868,19.7359,29.329],[-70.579,19.7453,20.5018],[-70.5831,19.7529,7.8886],[-70.5866,19.7565,4.3241],[-70.5888,19.7549,6.515],[-70.5946,19.7588,0.0],[-70.6068,19.7607,4.495],[-70.6113,19.7649,1.3155],[-70.6171,19.7665,4.0078],[-70.6199,19.7699,1.8949],[-70.623,19.7674,0.0]]]]}
,"properties": {"GID_2": "DOM.21.7_1","GID_0": "DOM","country": "DominicanRepublic","GID_1": "DOM.21_1","province": "PuertoPlata","NL_NAME_1": "NA","county": "Montellano","VARNAME_2": "VillaMontellano","NL_NAME_2": "NA","TYPE_2": "Municipio","ENGTYPE_2": "Municipality","CC_2": "NA","HASC_2": "DO.PP.VM","name": "Montellano.county","area_km2": 76.57215,"hist_schema_id": "Elevation0-9000","hist_area_km2": {"0": 18.15989,"25": 9.54038,"50": 6.48706,"75": 5.90842,"100": 6.02895,"125": 5.71003,"150": 5.86975,"175": 6.10934,"200": 4.91162,"225": 3.03471,"250": 1.25791,"275": 1.37772,"300": 0.81864,"325": 0.89849,"350": 0.33944,"375": 0.1198}}}