{"type": "Feature","bbox": [-61.2729,13.1538,-61.199,13.2344],"geometry": {"type": "MultiPolygon","coordinates": [[[[-61.2014,13.2344,708.0604],[-61.2166,13.2293,555.2771],[-61.2252,13.2213,580.8763],[-61.2293,13.215,477.4245],[-61.2426,13.2125,261.5005],[-61.2619,13.201599999999999,273.5921],[-61.2666,13.2041,19.2797],[-61.2724,13.2028,9.246],[-61.2704,13.199,0.0],[-61.2726,13.1976,0.0],[-61.2729,13.1938,0.4513],[-61.2693,13.1943,19.0967],[-61.2668,13.1907,0.0],[-61.2693,13.1879,4.3591],[-61.2693,13.1826,0.0],[-61.266,13.1835,31.1444],[-61.2665,13.1815,0.0],[-61.2637,13.1788,35.7991],[-61.2571,13.1779,17.7105],[-61.2579,13.1749,12.7731],[-61.2535,13.1732,20.1308],[-61.2554,13.1701,0.0],[-61.2507,13.1712,6.5667],[-61.2485,13.1671,2.2574],[-61.2463,13.1668,5.0803],[-61.2449,13.1632,47.8802],[-61.249,13.1621,3.1362],[-61.2457,13.1593,1.5833],[-61.2465,13.1554,0.0],[-61.2438,13.1557,49.0735],[-61.2412,13.1538,16.802],[-61.2368,13.1565,1.2037],[-61.2366,13.1625,121.3818],[-61.2303,13.1689,171.2115],[-61.2274,13.18,211.2578],[-61.2056,13.1997,482.5167],[-61.2075,13.2079,590.1934],[-61.199,13.2152,644.6719],[-61.2014,13.2344,708.0604]]]]}
,"properties": {"GID_1": "VCT.3_1","GID_0": "VCT","country": "SaintVincentandtheGrenadines","province": "SaintAndrew","VARNAME_1": "NA","NL_NAME_1": "NA","TYPE_1": "Parish","ENGTYPE_1": "Parish","CC_1": "NA","HASC_1": "VC.AN","ISO_1": "NA","name": "Saint_Andrew.province","area_km2": 31.37633,"hist_schema_id": "Elevation0-9000","hist_area_km2": {"0": 1.23862,"25": 2.12629,"50": 1.77532,"75": 1.83724,"100": 2.06432,"125": 2.18816,"150": 1.71336,"175": 1.52756,"200": 1.34178,"225": 1.19726,"250": 1.34173,"275": 1.05274,"300": 1.11468,"325": 1.23852,"350": 1.05273,"375": 0.88759,"400": 1.05272,"425": 0.97015,"450": 0.88758,"475": 0.78436,"500": 0.82565,"525": 0.70179,"550": 0.49537,"575": 0.41282,"600": 0.33025,"625": 0.28896,"650": 0.28896,"675": 0.24768,"700": 0.16512,"725": 0.14448,"750": 0.06192,"775": 0.02064}}}