{"type": "Feature","id": "5065","bbox": [-61.27135,13.16337,-61.19277,13.2393],"geometry": {"type": "Polygon","coordinates": [[[-61.19277,13.21669,814.4855],[-61.20016,13.22291,681.7655],[-61.19885,13.2393,760.5963],[-61.21196,13.23733,433.8698],[-61.21983,13.23405,400.483],[-61.23818,13.21439,336.7289],[-61.25851,13.19996,210.391],[-61.27135,13.18651,0.0],[-61.2379,13.16337,88.4953],[-61.22114,13.1803,374.1431],[-61.19885,13.20455,563.3177],[-61.19277,13.21669,814.4855]]]}
,"properties": {"ISO3166-1-Alpha-3": "VCT","country": "Saint Vincent and the Grenadines","fill": "#FF0","name": "Saint Andrew","area_km2": 33.74958,"hist_schema_id": "Elevation0-9000","hist_area_km2": {"0": 0.66059,"25": 1.46568,"50": 1.27987,"75": 1.46566,"100": 1.79594,"125": 2.02302,"150": 1.52756,"175": 1.44499,"200": 1.23856,"225": 1.15598,"250": 1.19724,"275": 0.99082,"300": 1.0734,"325": 1.27981,"350": 1.09402,"375": 0.99081,"400": 1.15593,"425": 1.1972,"450": 1.1972,"475": 1.13525,"500": 1.13525,"525": 1.15588,"550": 0.84625,"575": 1.05267,"600": 0.80498,"625": 0.84627,"650": 0.61921,"675": 0.41281,"700": 0.4128,"725": 0.49537,"750": 0.2064,"775": 0.08256,"800": 0.02064,"825": 0.06192,"850": 0.08256,"875": 0.06192,"900": 0.06192,"925": 0.02064}}}