{"type": "Feature","bbox": [-70.6123,18.5483,-70.4656,18.7369],"geometry": {"type": "MultiPolygon","coordinates": [[[[-70.6123,18.6811,1522.5901],[-70.6074,18.6737,1526.5613],[-70.5972,18.6675,1928.8864],[-70.5907,18.6551,1930.1096],[-70.5938,18.64,1973.3423],[-70.6014,18.6338,2019.7511],[-70.6019,18.629,2249.0083],[-70.5966,18.6276,1907.9763],[-70.5844,18.6305,1689.3984],[-70.5772,18.6276,1978.1814],[-70.566,18.6081,1341.4382],[-70.5583,18.6018,1290.1583],[-70.5578,18.5874,740.6787],[-70.5624,18.5774,1003.3945],[-70.5608,18.5745,1182.4562],[-70.5305,18.5588,785.3242],[-70.5233,18.55,644.7106],[-70.5196,18.5483,615.5089],[-70.5021,18.5486,469.8208],[-70.4853,18.555,546.789],[-70.479,18.5608,574.3894],[-70.4663,18.5814,726.0453],[-70.4656,18.5916,755.1048],[-70.4704,18.5976,838.7106],[-70.478,18.5973,807.4003],[-70.4817,18.6,732.795],[-70.4834,18.6045,760.4867],[-70.4823,18.6146,968.8572],[-70.4919,18.6234,1135.5916],[-70.5002,18.6247,1192.6606],[-70.5039,18.6269,1267.1516],[-70.5085,18.6365,1273.9907],[-70.5151,18.6438,1529.7437],[-70.5155,18.6637,1302.5094],[-70.5122,18.6698,1273.4265],[-70.5055,18.6744,1206.0581],[-70.5012,18.6807,1334.9392],[-70.5093,18.6917,1155.6536],[-70.5105,18.7025,1085.647],[-70.5136,18.7088,1023.8226],[-70.5272,18.7276,915.1572],[-70.5401,18.734,1014.4185],[-70.5503,18.7369,1163.6324],[-70.5543,18.731,1465.2863],[-70.5529,18.7234,1096.7302],[-70.5549,18.7189,1182.9],[-70.5585,18.7179,1281.9271],[-70.5669,18.7197,1402.7036],[-70.5773,18.7054,1543.6284],[-70.5866,18.7025,2010.7467],[-70.5817,18.6889,2164.3289],[-70.5827,18.6843,1868.9948],[-70.5897,18.6813,1977.2445],[-70.6123,18.6811,1522.5901]]]]}
,"properties": {"GID_2": "DOM.25.2_1","GID_0": "DOM","country": "DominicanRepublic","GID_1": "DOM.25_1","province": "SanJosédeOcoa","NL_NAME_1": "NA","county": "SabanaLarga","VARNAME_2": "NA","NL_NAME_2": "NA","TYPE_2": "Distritomunicipal","ENGTYPE_2": "Municipaldistrict","CC_2": "NA","HASC_2": "DO.JO.SL","name": "Sabana_Larga.county","area_km2": 160.06,"hist_schema_id": "Elevation0-9000","hist_area_km2": {"425": 0.4623,"450": 1.6884,"475": 2.2712,"500": 3.2158,"525": 2.9544,"550": 2.8338,"575": 3.1553,"600": 2.7734,"625": 2.2508,"650": 2.713,"675": 2.5924,"700": 2.713,"725": 2.7331,"750": 2.7933,"775": 3.155,"800": 2.5119,"825": 3.1547,"850": 2.8129,"875": 3.5361,"900": 3.0338,"925": 2.9735,"950": 3.2949,"975": 3.2547,"1000": 3.0135,"1025": 2.7523,"1050": 3.0736,"1075": 2.9128,"1100": 2.6517,"1125": 2.6918,"1150": 3.676,"1175": 3.8367,"1200": 3.7964,"1225": 3.5554,"1250": 4.2384,"1275": 4.2584,"1300": 4.178,"1325": 4.3587,"1350": 3.9369,"1375": 3.8566,"1400": 3.937,"1425": 2.8122,"1450": 2.1894,"1475": 1.8681,"1500": 1.4061,"1525": 1.6271,"1550": 1.5467,"1575": 1.627,"1600": 1.5869,"1625": 1.2253,"1650": 1.7275,"1675": 1.5065,"1700": 1.5869,"1725": 1.5869,"1750": 1.2655,"1775": 1.607,"1800": 1.7677,"1825": 1.1851,"1850": 1.1851,"1875": 1.1048,"1900": 1.1249,"1925": 0.9641,"1950": 0.8838,"1975": 0.7231,"2000": 0.6026,"2025": 0.4017,"2050": 0.3415,"2075": 0.221,"2100": 0.2009,"2125": 0.1607,"2150": 0.1004,"2175": 0.1004,"2200": 0.0603,"2225": 0.0603,"2250": 0.0803,"2275": 0.0201}}}