{"type":"Feature","properties":{"ISO3166-1-Alpha-3":"KNA","country":"Saint Kitts and Nevis","fill":"#000","id":"5112","name":"Trinity Palmetto Point"},
"geometry":{"type": "Polygon","coordinates": [[[-62.73821,17.33038,242.6302],[-62.74534,17.33103,351.5818],[-62.75442,17.33103,554.3778],[-62.75832,17.31741,462.583],[-62.7661,17.31352,342.6946],[-62.76934,17.30508,161.5657],[-62.77163,17.29802,42.3876],[-62.75695,17.2923,9.6364],[-62.74405,17.29059,0.0],[-62.72381,17.29169,0.0],[-62.73172,17.30573,68.881],[-62.72912,17.30898,65.4058],[-62.73431,17.31871,324.3492],[-62.73821,17.33038,242.6302]]]}}