{"type":"Feature","properties":{"GID_1":"KNA.14_1","GID_0":"KNA","country":"SaintKittsandNevis","province":"TrinityPalmettoPoint","VARNAME_1":"NA","NL_NAME_1":"NA","TYPE_1":"Parish","ENGTYPE_1":"Parish","CC_1":"NA","HASC_1":"KN.TP","ISO_1":"KN-15","name":"Trinity_Palmetto_Point.province"},
"geometry":{"type": "MultiPolygon","coordinates": [[[[-62.7669,17.3363,800.1041],[-62.7758,17.3271,506.0983],[-62.7849,17.3229,295.5327],[-62.7891,17.3152,99.1089],[-62.7946,17.3101,0.0],[-62.7907,17.3071,51.8272],[-62.789,17.3024,0.0],[-62.7857,17.3032,7.9515],[-62.7788,17.3004,0.0],[-62.7757,17.2987,0.0],[-62.7749,17.2951,0.0],[-62.7718,17.296,13.0912],[-62.7679,17.2935,0.0],[-62.7632,17.2943,11.0354],[-62.7601,17.2921,8.0032],[-62.7463,17.2924,12.1828],[-62.7465,17.2979,74.9407],[-62.7531,17.3124,322.2329],[-62.7498,17.3166,333.1358],[-62.7542,17.3234,570.7147],[-62.7544,17.3332,585.5204],[-62.7669,17.3363,800.1041]]]]}}