{"type": "Feature","bbox": [-76.9286,20.9275,-76.5312,21.3924],"geometry": {"type": "MultiPolygon","coordinates": [[[[-76.5456,21.1232,40.0168],[-76.5437,21.1332,39.4405],[-76.5446,21.1788,3.4935],[-76.5475,21.1893,0.1655],[-76.5515,21.1904,1.0975],[-76.554,21.1974,1.6231],[-76.5443,21.2038,1.3181],[-76.5446,21.2071,2.2588],[-76.5424,21.2104,0.0],[-76.5454,21.2121,0.243],[-76.5454,21.2188,0.2977],[-76.5393,21.2229,0.7469],[-76.5362,21.2276,0.3634],[-76.5376,21.2288,0.9188],[-76.5368,21.2329,1.2263],[-76.5401,21.234,0.0],[-76.5426,21.2313,1.4635],[-76.5443,21.2265,0.0],[-76.5432,21.2232,0.0],[-76.5462,21.2199,0.2977],[-76.5465,21.2121,0.243],[-76.5499,21.2121,0.0],[-76.5512,21.2085,0.4615],[-76.5587,21.2062,0.4388],[-76.5604,21.2007,0.9906],[-76.5643,21.2007,1.0541],[-76.5632,21.2026,0.0],[-76.5674,21.2099,0.2815],[-76.5829,21.1963,0.3353],[-76.5865,21.1938,0.0],[-76.589,21.194,1.3066],[-76.596,21.1976,0.2475],[-76.5993,21.2026,0.0],[-76.6049,21.204,2.8839],[-76.6051,21.2088,0.8397],[-76.6079,21.2107,0.5297],[-76.6054,21.2146,1.16],[-76.5971,21.2165,0.377],[-76.5915,21.2218,0.0],[-76.5874,21.2235,0.2524],[-76.5868,21.2274,0.4563],[-76.5904,21.2274,0.4002],[-76.5921,21.229,0.5201],[-76.5865,21.229,1.0061],[-76.5846,21.2265,0.0],[-76.5821,21.2263,0.0],[-76.5632,21.2271,1.0084],[-76.5551,21.224,0.6077],[-76.5535,21.2288,1.0706],[-76.546,21.2329,1.2712],[-76.5443,21.2385,0.7842],[-76.5357,21.2385,0.0],[-76.5324,21.2401,0.0],[-76.5312,21.244,0.5179],[-76.5326,21.246,0.0],[-76.5357,21.246,1.9388],[-76.5382,21.2546,0.6114],[-76.5382,21.2665,0.6668],[-76.5349,21.2696,1.7543],[-76.5354,21.2746,0.9716],[-76.5421,21.2796,0.0],[-76.5471,21.2899,0.4064],[-76.5488,21.2904,0.4064],[-76.5507,21.286,0.8274],[-76.5543,21.2854,0.6109],[-76.556,21.2824,0.0],[-76.5543,21.2801,0.4523],[-76.5551,21.2787,0.175],[-76.5499,21.274,1.0367],[-76.551,21.2687,0.4719],[-76.5551,21.266,0.125],[-76.554,21.2679,0.0],[-76.5563,21.2679,0.0],[-76.5532,21.271,0.8844],[-76.5535,21.2746,0.8213],[-76.5554,21.2779,0.3092],[-76.5626,21.2815,0.0],[-76.566,21.2804,0.4001],[-76.571,21.2813,0.1978],[-76.5726,21.2796,0.3532],[-76.574,21.2815,0.289],[-76.5768,21.2787,1.6948],[-76.5771,21.2824,0.0],[-76.584,21.2843,0.0],[-76.586,21.2876,0.0],[-76.6007,21.2865,0.6448],[-76.6082,21.294,0.0],[-76.6185,21.2974,0.0],[-76.6237,21.3013,0.5266],[-76.6288,21.3001,0.2997],[-76.6329,21.301,0.2696],[-76.6346,21.3029,0.3172],[-76.6454,21.3026,0.2579],[-76.6549,21.2982,0.2295],[-76.6612,21.2918,0.0],[-76.6607,21.2913,0.0],[-76.6582,21.2921,0.4733],[-76.6582,21.2862,0.0],[-76.6601,21.284,0.0669],[-76.6576,21.2821,0.201],[-76.659,21.281,0.0],[-76.6579,21.2785,0.0],[-76.6487,21.2779,0.2935],[-76.6429,21.2726,0.1012],[-76.6435,21.2699,0.0811],[-76.6421,21.2676,0.0],[-76.6451,21.2626,0.0903],[-76.6474,21.2624,0.0],[-76.6451,21.2663,0.0],[-76.6468,21.2674,0.1314],[-76.6501,21.2618,0.0603],[-76.6526,21.2624,0.1322],[-76.6524,21.261,0.0351],[-76.6496,21.2604,0.1579],[-76.6504,21.2579,0.0],[-76.6487,21.2546,0.0],[-76.6504,21.2529,0.0293],[-76.649,21.2488,0.148],[-76.6515,21.2479,0.0],[-76.6557,21.2512,0.0],[-76.661,21.2507,0.1965],[-76.6651,21.2551,0.0595],[-76.6679,21.2546,0.1582],[-76.6701,21.256,0.0743],[-76.6726,21.2599,0.1093],[-76.6732,21.259,0.1093],[-76.6721,21.2565,0.2263],[-76.6771,21.2596,0.0],[-76.6779,21.2571,0.1029],[-76.681,21.2565,0.4667],[-76.6826,21.2582,0.0],[-76.6824,21.2613,0.0],[-76.6746,21.261,0.2086],[-76.6776,21.2654,0.0581],[-76.6793,21.264,0.194],[-76.6818,21.2676,0.0],[-76.6843,21.2663,0.3578],[-76.686,21.2676,0.0],[-76.6879,21.2657,0.2342],[-76.6882,21.269,0.0],[-76.6988,21.2729,0.255],[-76.6999,21.2763,1.6099],[-76.7043,21.276,0.745],[-76.7051,21.2779,0.0],[-76.7074,21.278199999999998,0.7092],[-76.7082,21.2813,0.4681],[-76.7207,21.2765,0.4307],[-76.7235,21.2765,0.3224],[-76.7268,21.2813,0.171],[-76.7285,21.2801,0.5743],[-76.7326,21.2818,0.3975],[-76.7351,21.2801,0.9158],[-76.7385,21.2807,0.5869],[-76.734,21.2854,0.0],[-76.7357,21.2874,0.1682],[-76.734,21.289,0.0925],[-76.731,21.2899,0.0989],[-76.7293,21.2888,0.8063],[-76.7301,21.2829,0.0],[-76.7254,21.2851,0.0],[-76.7224,21.2918,0.3775],[-76.7243,21.2946,1.3696],[-76.7251,21.3037,0.1047],[-76.7268,21.3035,0.2187],[-76.7257,21.3021,0.1047],[-76.7276,21.3007,0.5747],[-76.7257,21.2949,1.3696],[-76.7288,21.2971,0.0],[-76.7321,21.2971,0.0],[-76.7329,21.3004,0.2913],[-76.7299,21.3021,0.0],[-76.7307,21.306,0.6203],[-76.7268,21.309,0.4035],[-76.7121,21.3065,0.0632],[-76.7099,21.3024,0.0],[-76.7138,21.301,0.0],[-76.7138,21.2979,0.0],[-76.7096,21.3001,0.3854],[-76.7068,21.3004,0.0712],[-76.706,21.299,0.0712],[-76.7054,21.3004,0.0],[-76.7026,21.3001,0.0],[-76.7021,21.3037,0.0],[-76.6999,21.3037,0.0761],[-76.6979,21.3007,0.0],[-76.6949,21.2996,0.3213],[-76.6896,21.304,0.5922],[-76.6899,21.3004,1.1881],[-76.6918,21.2985,0.4799],[-76.6996,21.2968,0.143],[-76.704,21.2904,0.0605],[-76.7087,21.2882,0.0],[-76.7024,21.2899,0.1257],[-76.7007,21.2888,0.1119],[-76.6924,21.2896,0.0],[-76.6915,21.2918,1.2445],[-76.6937,21.2938,0.4661],[-76.6932,21.2968,0.1144],[-76.6901,21.296,0.342],[-76.6882,21.2921,0.0834],[-76.686,21.2913,0.0],[-76.6862,21.2888,0.1153],[-76.6835,21.2876,0.0891],[-76.6815,21.2899,0.0],[-76.6843,21.2901,0.4121],[-76.6874,21.2929,0.0834],[-76.6876,21.2954,0.2844],[-76.6832,21.2943,0.1142],[-76.6832,21.2918,0.0],[-76.681,21.2904,0.0],[-76.6729,21.2915,0.0],[-76.6701,21.2943,0.4076],[-76.6657,21.2943,0.0],[-76.6468,21.3049,0.2752],[-76.644,21.3099,1.1765],[-76.6401,21.3107,0.5851],[-76.6404,21.3126,0.8223],[-76.6338,21.3154,0.0],[-76.6335,21.3176,0.8571],[-76.631,21.3174,0.0],[-76.6324,21.3182,0.5278],[-76.6335,21.3271,1.6454],[-76.6374,21.336,0.0],[-76.6418,21.3385,3.283],[-76.6568,21.356,0.6587],[-76.6604,21.3551,0.0],[-76.6593,21.3515,1.5668],[-76.6615,21.3504,2.5866],[-76.6846,21.3518,1.0996],[-76.7038,21.3626,0.2882],[-76.7099,21.3629,2.9369],[-76.7262,21.369,0.0],[-76.7315,21.3679,1.3164],[-76.7535,21.3713,0.4587],[-76.7782,21.3724,0.0],[-76.7838,21.3768,1.0576],[-76.7924,21.3799,1.6582],[-76.7957,21.3851,0.0],[-76.804,21.3924,0.0],[-76.8051,21.3901,0.8454],[-76.8026,21.389,1.3312],[-76.801,21.3857,1.0644],[-76.8035,21.3824,2.1651],[-76.8074,21.3815,0.7422],[-76.8121,21.3768,2.0538],[-76.8135,21.3729,0.6522],[-76.8071,21.3751,0.4482],[-76.8051,21.3732,0.9524],[-76.8082,21.3715,1.0648],[-76.8135,21.3715,1.5307],[-76.8151,21.3604,1.6804],[-76.821,21.3538,0.0],[-76.8213,21.3479,1.6676],[-76.8304,21.3388,0.852],[-76.8288,21.3293,1.9983],[-76.8332,21.3254,0.0],[-76.8337,21.3215,0.0],[-76.8299,21.3162,0.9557],[-76.8371,21.3101,1.774],[-76.8362,21.304,0.3199],[-76.8337,21.3007,0.0],[-76.8382,21.3035,3.3652],[-76.8399,21.3065,0.4747],[-76.8379,21.3082,0.0],[-76.8393,21.311,1.2602],[-76.8368,21.3121,0.4809],[-76.8351,21.3154,1.5701],[-76.8388,21.316,0.3094],[-76.8421,21.3118,0.9836],[-76.844,21.3118,1.1976],[-76.8426,21.316,1.5035],[-76.8382,21.3188,0.2816],[-76.839,21.3226,0.767],[-76.8362,21.3229,0.3552],[-76.8362,21.3251,0.934],[-76.8318,21.3285,0.2849],[-76.8351,21.3335,2.0499],[-76.8329,21.336,0.0],[-76.8346,21.3379,1.1543],[-76.8479,21.3296,0.4439],[-76.8485,21.3249,2.3124],[-76.8541,21.3188,0.0],[-76.8532,21.317,0.343],[-76.8637,21.3013,2.1252],[-76.8997,21.2641,9.3795],[-76.9017,21.2495,11.2403],[-76.9,21.0926,52.4415],[-76.9061,21.081,57.9619],[-76.9286,21.0707,78.0264],[-76.924,21.0539,69.7941],[-76.9143,21.0363,79.9685],[-76.8931,21.0228,84.0812],[-76.8832,21.0121,94.6875],[-76.8749,20.9957,113.3015],[-76.8709,20.9728,98.878],[-76.8607,20.9591,116.7061],[-76.8457,20.9495,102.6841],[-76.8038,20.9378,85.7735],[-76.7834,20.9275,77.7978],[-76.7736,20.9503,91.5724],[-76.7472,20.9767,117.2884],[-76.7391,20.9909,131.705],[-76.7204,21.0108,130.9816],[-76.7122,21.025,113.1684],[-76.655,21.0798,82.5401],[-76.6299,21.0929,56.7785],[-76.562,21.1126,78.0922],[-76.5456,21.1232,40.0168]]],
[[[-76.6768,21.2824,0.2286],[-76.6771,21.284,0.0],[-76.6804,21.2835,0.0],[-76.6779,21.2821,0.2286],[-76.6821,21.2807,0.0],[-76.6826,21.2826,0.0],[-76.6849,21.2799,0.0],[-76.6776,21.281,0.0],[-76.6768,21.2824,0.2286]]],
[[[-76.6862,21.2868,0.373],[-76.6868,21.2874,0.3421],[-76.6888,21.2857,0.152],[-76.6862,21.2851,0.0],[-76.6862,21.2868,0.373]]],
[[[-76.7074,21.2957,0.0],[-76.7079,21.2965,0.0],[-76.709,21.2946,0.2354],[-76.7068,21.2929,0.0],[-76.7054,21.2949,0.0],[-76.7074,21.2957,0.0]]],
[[[-76.6574,21.2576,0.0759],[-76.6604,21.2582,0.0947],[-76.6612,21.2568,0.1099],[-76.661,21.2549,0.0],[-76.6582,21.2549,0.0],[-76.6579,21.2526,0.0],[-76.6568,21.2532,0.0],[-76.6574,21.2576,0.0759]]],
[[[-76.6646,21.2904,0.0],[-76.6682,21.2904,1.1772],[-76.6687,21.2888,0.0],[-76.6676,21.2885,0.0],[-76.6646,21.2904,0.0]]],
[[[-76.5529,21.2949,0.0884],[-76.5549,21.2949,0.3062],[-76.5557,21.2879,0.0],[-76.5543,21.2893,0.909],[-76.5524,21.2882,0.0],[-76.5493,21.2907,0.1599],[-76.5529,21.2949,0.0884]]],
[[[-76.6349,21.3093,0.0],[-76.6418,21.3093,0.0],[-76.6446,21.3071,0.0],[-76.6451,21.304,0.4372],[-76.6374,21.3043,0.0],[-76.6338,21.3074,0.1034],[-76.6349,21.3093,0.0]]],
[[[-76.6993,21.3015,0.0],[-76.7012,21.301,0.0],[-76.7001,21.2988,0.1001],[-76.699,21.2993,0.0],[-76.6993,21.3015,0.0]]]]}
,"properties": {"GID_2": "CUB.10.8_1","GID_0": "CUB","country": "Cuba","GID_1": "CUB.10_1","province": "LasTunas","NL_NAME_1": "NA","county": "PuertoPadre","VARNAME_2": "NA","NL_NAME_2": "NA","TYPE_2": "Municipio","ENGTYPE_2": "Municipality","CC_2": "NA","HASC_2": "CU.LT.PP","name": "Puerto_Padre.county","area_km2": 1239.6279,"hist_schema_id": "Elevation0-9000","hist_area_km2": {"0": 482.2027,"25": 268.2675,"50": 143.192,"75": 143.0158,"100": 133.0772,"125": 69.0017,"150": 0.8709}}}