{"type": "Feature","bbox": [-62.8464,17.8971,-62.8365,17.9043],"geometry": {"type": "MultiPolygon","coordinates": [[[[-62.8365,17.9031,4.5321],[-62.8435,17.9043,6.8421],[-62.8464,17.8999,108.8126],[-62.8457,17.8988,108.8126],[-62.8432,17.8997,25.8935],[-62.8421,17.8971,22.0131],[-62.8394,17.8972,36.6552],[-62.8365,17.8999,3.6164],[-62.8365,17.9031,4.5321]]]]}
,"properties": {"GID_2": "BLM.2.20_1","GID_0": "BLM","country": "Saint-Barthélemy","GID_1": "BLM.2_1","province": "SousleVent","NL_NAME_1": "NA","county": "Saint-Jean","VARNAME_2": "NA","NL_NAME_2": "NA","TYPE_2": "Quartier","ENGTYPE_2": "Quarter","CC_2": "NA","HASC_2": "NA","name": "Saint-Jean.county","area_km2": 0.6052744,"hist_schema_id": "Elevation0-9000","hist_area_km2": {"0": 0.4438662,"25": 0.0807043,"50": 0.040352,"100": 0.0201759,"125": 0.020176}}}