{"type": "Feature","bbox": [-74.1197,18.3875,-73.9457,19.0001],"geometry": {"type": "MultiPolygon","coordinates": [[[[-74.04,18.5026,174.2555],[-74.0379,18.5034,172.2929],[-74.0386,18.5054,172.7367],[-74.0245,18.509,423.8239],[-74.017,18.5178,361.7906],[-74.0048,18.5223,264.6372],[-74.0018,18.526,239.3685],[-73.996,18.5228,270.5116],[-73.9891,18.5237,239.2961],[-73.9798,18.5208,235.5526],[-73.968,18.526,165.9502],[-73.9617,18.5245,154.3032],[-73.9461,18.5322,99.9837],[-73.9458,18.5342,98.4364],[-73.9525,18.5446,276.8797],[-73.9519,18.5471,308.8268],[-73.9457,18.5532,288.2104],[-73.9464,18.5559,226.8947],[-73.9516,18.5612,154.7779],[-73.9562,18.5621,157.0611],[-73.9621,18.5697,397.4644],[-73.9623,18.5819,229.2617],[-73.9576,18.5882,80.3799],[-73.9601,18.593,73.692],[-73.9611,18.6006,0.0],[-73.9743,18.6018,12.0068],[-73.9776,18.6001,25.3409],[-73.9802,18.6018,7.7772],[-73.984,18.6003,50.717],[-73.9854,18.6027,0.0],[-73.9998,18.6013,0.0],[-74.0038,18.5993,2.0164],[-74.0085,18.601,1.0229],[-74.0221,18.6013,4.6638],[-74.0609,18.6088,0.0],[-74.0783,18.6163,1.5072],[-74.072,18.598,77.3563],[-74.0732,18.5865,115.0938],[-74.0703,18.5767,277.7688],[-74.0895,18.5592,188.2393],[-74.0903,18.5565,158.9613],[-74.0873,18.5515,189.8993],[-74.0888,18.5448,317.1352],[-74.0843,18.5364,351.7455],[-74.0865,18.5315,392.09],[-74.0896,18.5305,389.8093],[-74.0902,18.5281,450.9338],[-74.0864,18.5218,448.07],[-74.0771,18.5253,427.9198],[-74.0754,18.5231,386.0332],[-74.0846,18.5078,475.0874],[-74.0874,18.4992,393.0764],[-74.089,18.4979,586.7231],[-74.0961,18.4981,653.0675],[-74.0949,18.4917,530.5556],[-74.1021,18.48,691.2667],[-74.0998,18.476,628.8904],[-74.1005,18.4706,772.9089],[-74.0971,18.4639,773.684],[-74.0976,18.4568,827.736],[-74.1014,18.4509,985.3245],[-74.108,18.4466,1262.1909],[-74.1129,18.4379,1381.5715],[-74.1197,18.4345,1222.2517],[-74.1155,18.43,1260.6248],[-74.1157,18.4263,1409.5566],[-74.1079,18.416,1603.4713],[-74.1065,18.4034,1810.1443],[-74.1008,18.4027,1999.8523],[-74.0818,18.4075,1121.1294],[-74.0754,18.4051,1128.9192],[-74.0642,18.4047,745.2783],[-74.0582,18.4016,1098.9049],[-74.047,18.3894,1913.3657],[-74.0413,18.3875,2100.5283],[-74.0407,18.3931,1722.218],[-74.0315,18.41,928.5234],[-74.0304,18.4225,1187.5096],[-74.0277,18.4282,1050.7394],[-74.0296,18.434,920.1093],[-74.0371,18.4326,880.9056],[-74.0378,18.4357,879.0392],[-74.0331,18.4439,690.8885],[-74.0328,18.449,598.6553],[-74.0339,18.4529,529.6052],[-74.0374,18.4532,339.2873],[-74.0423,18.4566,309.4656],[-74.0408,18.4607,308.0486],[-74.0417,18.4704,295.6174],[-74.0381,18.4787,259.1471],[-74.0308,18.4802,269.8591],[-74.0296,18.4819,243.922],[-74.0311,18.4915,225.7999],[-74.0336,18.489,215.9954],[-74.0351,18.4896,229.9487],[-74.0377,18.4952,252.4672],[-74.0409,18.4977,210.0971],[-74.0415,18.501,190.2817],[-74.04,18.5026,174.2555]]],
[[[-74.0001,19.0001,0.0],[-74.0001,18.9999,0.0],[-73.9999,18.9999,0.0],[-73.9999,19.0001,0.0],[-74.0001,19.0001,0.0]]]]}
,"properties": {"GID_3": "HTI.2.2.4_1","GID_0": "HTI","country": "Haiti","GID_1": "HTI.2_1","province": "Grand'Anse","NL_NAME_1": "NA","GID_2": "HTI.2.2_1","county": "Corail","NL_NAME_2": "NA","city": "Roseaux","VARNAME_3": "NA","NL_NAME_3": "NA","TYPE_3": "Commune","ENGTYPE_3": "Commune","CC_3": "NA","HASC_3": "NA","name": "Roseaux.city","area_km2": 214.4775,"hist_schema_id": "Elevation0-9000","hist_area_km2": {"0": 3.2352,"25": 5.7071,"50": 3.4566,"75": 4.3007,"100": 4.7229,"125": 6.1703,"150": 7.5573,"175": 10.3919,"200": 10.6933,"225": 10.4721,"250": 9.7284,"275": 10.2712,"300": 9.2663,"325": 6.4122,"350": 6.3319,"375": 5.1663,"400": 4.8449,"425": 5.227,"450": 5.5085,"475": 5.1468,"500": 2.7545,"525": 2.1515,"550": 2.1517,"575": 1.8903,"600": 2.2322,"625": 2.0915,"650": 2.8556,"675": 3.5594,"700": 3.1373,"725": 3.1373,"750": 3.1373,"775": 2.534,"800": 2.5542,"825": 2.152,"850": 2.3733,"875": 2.4135,"900": 2.1923,"925": 2.2326,"950": 2.0113,"975": 1.589,"1000": 1.6292,"1025": 1.6493,"1050": 1.6091,"1075": 1.7298,"1100": 1.3879,"1125": 1.6293,"1150": 1.3678,"1175": 1.5689,"1200": 1.227,"1225": 1.1666,"1250": 1.4684,"1275": 1.2672,"1300": 1.1868,"1325": 0.9856,"1350": 0.9253,"1375": 0.6437,"1400": 1.0661,"1425": 1.046,"1450": 0.9052,"1475": 0.865,"1500": 0.6638,"1525": 0.5633,"1550": 0.5431,"1575": 0.5633,"1600": 0.4426,"1625": 0.3018,"1650": 0.3219,"1675": 0.2615,"1700": 0.2414,"1725": 0.2615,"1750": 0.3018,"1775": 0.1408,"1800": 0.1006,"1825": 0.1609,"1850": 0.0604,"1875": 0.1006,"1900": 0.0402,"1925": 0.0604,"1950": 0.0402,"1975": 0.1006,"2025": 0.0604,"2075": 0.0604}}}