{"type": "Feature","bbox": [-66.547,18.1474,-66.3504,18.2942],"geometry": {"type": "MultiPolygon","coordinates": [[[[-66.351,18.2414,716.7795],[-66.358,18.2466,745.8651],[-66.3622,18.2571,705.5356],[-66.3719,18.2694,598.0178],[-66.377,18.2737,481.1382],[-66.3826,18.2741,298.3292],[-66.3826,18.2794,312.4694],[-66.3775,18.2861,356.9692],[-66.378,18.2942,268.2917],[-66.384,18.2903,436.5252],[-66.3909,18.2736,605.9448],[-66.4089,18.2635,675.9507],[-66.4283,18.2606,594.077],[-66.4376,18.2562,284.3066],[-66.4556,18.2576,195.3598],[-66.4542,18.2509,195.7645],[-66.4666,18.2461,466.3922],[-66.4694,18.2461,486.2335],[-66.4829,18.2527,462.602],[-66.4972,18.2521,236.7653],[-66.5009,18.2569,238.9828],[-66.5124,18.2425,351.0555],[-66.5073,18.2349,344.7129],[-66.5096,18.2297,339.733],[-66.5179,18.2301,385.1916],[-66.515,18.2163,436.8953],[-66.5122,18.211,444.8181],[-66.5112,18.1982,576.8387],[-66.5145,18.192,548.4328],[-66.5107,18.1772,721.0181],[-66.512,18.1667,722.6718],[-66.5198,18.1638,839.4948],[-66.529,18.157,910.1956],[-66.5429,18.1632,1102.8312],[-66.547,18.1531,1169.0763],[-66.5415,18.1474,1002.0957],[-66.5304,18.1528,953.323],[-66.5221,18.1518,1035.3427],[-66.5138,18.1557,881.6387],[-66.506,18.1639,827.6512],[-66.4995,18.1648,953.9541],[-66.4968,18.1668,1069.975],[-66.4884,18.1663,971.2867],[-66.4774,18.1697,1056.5229],[-66.4732,18.1721,945.7017],[-66.4705,18.1779,838.3232],[-66.4585,18.177,906.8147],[-66.4525,18.1784,974.704],[-66.4358,18.1757,806.5039],[-66.4229,18.1714,859.7253],[-66.421,18.1662,810.3778],[-66.4136,18.1634,764.4055],[-66.4099,18.1629,766.9445],[-66.4057,18.1658,771.9792],[-66.4011,18.1649,841.9665],[-66.3919,18.1663,823.585],[-66.3891,18.1721,849.3772],[-66.378,18.1726,821.782],[-66.373,18.1755,838.8322],[-66.3675,18.1855,863.7901],[-66.3675,18.1969,889.5024],[-66.3638,18.2008,835.0776],[-66.3601,18.1994,802.9381],[-66.3559,18.1922,669.229],[-66.3518,18.1942,656.9016],[-66.3504,18.2056,628.7809],[-66.351,18.2414,716.7795]]]]}
,"properties": {"GID_1": "PRI.55_1","GID_0": "PRI","country": "PuertoRico","province": "Orocovis","VARNAME_1": "NA","NL_NAME_1": "NA","TYPE_1": "Municipio","ENGTYPE_1": "Municipality","CC_1": "NA","HASC_1": "PR.OR","ISO_1": "NA","name": "Orocovis.province","area_km2": 166.0121,"hist_schema_id": "Elevation0-9000","hist_area_km2": {"175": 0.0604,"200": 0.1812,"225": 0.302,"250": 0.8054,"275": 1.1679,"300": 1.3491,"325": 1.8123,"350": 1.8727,"375": 1.9129,"400": 2.2553,"425": 2.9198,"450": 2.7185,"475": 3.1212,"500": 4.3697,"525": 5.5579,"550": 6.6655,"575": 8.4577,"600": 8.5584,"625": 8.6189,"650": 7.0484,"675": 6.4846,"700": 6.4245,"725": 6.8478,"750": 8.983,"775": 10.1514,"800": 10.7356,"825": 10.7155,"850": 9.4466,"875": 7.9562,"900": 5.7205,"925": 4.6933,"950": 3.2834,"975": 2.2762,"1000": 1.0475,"1025": 0.6044,"1050": 0.282,"1075": 0.1612,"1100": 0.2015,"1125": 0.1007,"1150": 0.141}}}