{"type":"Feature","properties":{"GID_1":"MTQ.2_1","GID_0":"MTQ","country":"Martinique","province":"LeMarin","VARNAME_1":"Marin","NL_NAME_1":"NA","TYPE_1":"Arrondissement","ENGTYPE_1":"Arrondissement","CC_1":"NA","HASC_1":"MQ.MA","ISO_1":"NA","name":"Le_Marin.province"},
"geometry":{"type": "MultiPolygon","coordinates": [[[[-60.8304,14.4176,1.192],[-60.8301,14.419,0.0],[-60.8318,14.419,0.0],[-60.8332,14.4163,0.0],[-60.8312,14.4157,1.5554],[-60.8304,14.4176,1.192]]],
[[[-60.8251,14.4315,0.9086],[-60.8285,14.4321,0.0],[-60.8301,14.4299,0.0],[-60.8262,14.4285,0.0],[-60.8249,14.4293,0.0],[-60.8251,14.4315,0.9086]]],
[[[-60.8182,14.4676,0.0],[-60.8182,14.4707,0.0],[-60.8226,14.4712,2.8021],[-60.821,14.4757,3.0878],[-60.8196,14.4751,2.9705],[-60.8199,14.4718,0.0],[-60.8171,14.4715,0.0],[-60.8135,14.4743,0.0],[-60.8107,14.4804,8.3422],[-60.8151,14.4863,3.779],[-60.8143,14.4899,4.7291],[-60.8151,14.4918,1.6233],[-60.8171,14.4915,13.6647],[-60.8176,14.4949,0.0],[-60.8204,14.4924,6.2841],[-60.8232,14.4951,5.6706],[-60.8229,14.5029,3.565],[-60.8243,14.5057,7.4014],[-60.8226,14.5107,2.0843],[-60.8257,14.5149,1.9705],[-60.8307,14.5143,0.0],[-60.8338,14.5101,9.0318],[-60.8365,14.5124,8.5961],[-60.8354,14.5165,0.0],[-60.8329,14.5176,0.8452],[-60.8326,14.5207,0.0],[-60.8343,14.5224,2.2615],[-60.8296,14.5238,1.6933],[-60.8257,14.521,0.0],[-60.8237,14.5288,0.0],[-60.8251,14.5335,0.31],[-60.8299,14.5321,0.0],[-60.834,14.5337,0.9019],[-60.8362,14.5329,3.8741],[-60.8343,14.5351,0.0],[-60.8274,14.534,0.0],[-60.8265,14.5401,0.0],[-60.8318,14.5435,6.4459],[-60.8329,14.5465,1.4481],[-60.8368,14.5465,5.4589],[-60.8385,14.5496,2.8356],[-60.8357,14.5515,0.0],[-60.8362,14.5565,8.6184],[-60.8335,14.5563,0.0],[-60.8332,14.5582,3.4782],[-60.8304,14.5593,16.5145],[-60.8304,14.5646,8.5926],[-60.8265,14.5682,5.5199],[-60.8307,14.569,3.3291],[-60.8415,14.5593,3.242],[-60.8449,14.5593,2.7913],[-60.8407,14.5635,2.5718],[-60.8407,14.5668,11.6903],[-60.8471,14.5643,10.6073],[-60.849,14.5665,15.2334],[-60.8457,14.5674,0.0],[-60.8426,14.5718,0.0],[-60.8449,14.5724,0.0],[-60.8465,14.5699,8.8722],[-60.8488,14.5707,0.0],[-60.8521,14.5687,10.5223],[-60.8537,14.5746,0.6726],[-60.8532,14.5763,2.9974],[-60.8424,14.5788,0.0],[-60.8521,14.5801,2.4105],[-60.8507,14.5829,7.7709],[-60.8462,14.5826,0.0],[-60.8465,14.5846,3.392],[-60.8485,14.584,6.1062],[-60.8504,14.586,0.0],[-60.8496,14.5893,1.2658],[-60.8518,14.5921,0.0],[-60.8515,14.5949,3.5549],[-60.8579,14.5896,3.3973],[-60.8685,14.5913,1.4442],[-60.8682,14.5932,1.2708],[-60.8726,14.5976,4.7775],[-60.8712,14.6007,9.758],[-60.8682,14.6004,0.0],[-60.869,14.6054,0.0],[-60.8749,14.6079,3.9276],[-60.8782,14.6126,1.8106],[-60.8757,14.616,6.5577],[-60.8696,14.6176,5.1244],[-60.8701,14.6193,1.679],[-60.874,14.6185,29.0395],[-60.8774,14.6212,7.4655],[-60.8804,14.6179,19.0184],[-60.884,14.6196,0.7495],[-60.8857,14.6157,0.8581],[-60.8871,14.6157,0.8581],[-60.8876,14.6221,0.0],[-60.894,14.6193,6.6868],[-60.8987,14.6204,2.1968],[-60.8987,14.6229,14.3556],[-60.8971,14.624,0.78],[-60.8976,14.6285,0.0],[-60.8946,14.6282,0.0],[-60.8949,14.6313,6.812],[-60.8907,14.6313,7.8925],[-60.8921,14.6326,25.4751],[-60.8913,14.636,3.6062],[-60.894,14.6354,10.1443],[-60.8935,14.6401,0.0],[-60.8882,14.6418,0.0],[-60.8904,14.6435,3.1992],[-60.8918,14.6418,1.3711],[-60.8957,14.6415,6.8624],[-60.8982,14.6451,20.7222],[-60.9054,14.6465,1.3952],[-60.9051,14.6485,0.0],[-60.9033,14.6485,0.0],[-60.9065,14.6548,52.0048],[-60.9086,14.6554,38.0604],[-60.9359,14.6283,102.1306],[-60.949,14.6315,248.3477],[-60.9534,14.6208,230.8886],[-60.9488,14.6097,196.0425],[-60.9717,14.6013,15.6688],[-61.0009,14.5624,3.8212],[-61.0018,14.5593,2.2136],[-60.9968,14.5604,0.0],[-60.9951,14.5576,0.0],[-60.9971,14.556,0.0],[-60.9915,14.5532,0.8886],[-60.9918,14.5518,1.8573],[-60.9996,14.5521,0.0],[-60.9985,14.5499,0.7527],[-60.9949,14.549,2.4464],[-60.9943,14.5471,5.6124],[-61.0004,14.5451,3.6457],[-61.004,14.5401,1.0654],[-61.009,14.5424,0.0],[-61.0137,14.5351,4.8012],[-61.0165,14.5349,3.0857],[-61.0176,14.5393,0.0],[-61.0218,14.539,3.5955],[-61.0221,14.5401,3.5955],[-61.0271,14.5357,1.7897],[-61.0288,14.5376,0.0],[-61.0315,14.5371,0.7199],[-61.0301,14.5412,0.0],[-61.0337,14.5429,0.0],[-61.0351,14.5407,2.7337],[-61.0365,14.5421,0.0],[-61.0424,14.5412,3.4985],[-61.0435,14.5471,13.5719],[-61.0396,14.5476,3.7163],[-61.0365,14.5501,0.0],[-61.0376,14.5513,0.0],[-61.0371,14.5563,0.0],[-61.0404,14.5571,0.0],[-61.0426,14.5535,1.621],[-61.0507,14.5513,4.5653],[-61.0482,14.5596,3.1249],[-61.0512,14.5588,2.1873],[-61.0512,14.5621,0.0],[-61.0526,14.5624,0.0],[-61.0535,14.5579,5.2255],[-61.0565,14.5571,0.0],[-61.0568,14.5549,0.0],[-61.054,14.5551,4.6846],[-61.0526,14.5535,2.3741],[-61.0554,14.5504,17.8997],[-61.061,14.5507,0.0],[-61.066,14.5401,4.3692],[-61.0737,14.5407,6.0091],[-61.0762,14.5424,0.0],[-61.0804,14.5368,31.3622],[-61.0882,14.534,5.0861],[-61.0876,14.5274,2.3757],[-61.0901,14.5279,5.5472],[-61.0904,14.526,6.287],[-61.0946,14.5246,6.957],[-61.0949,14.5212,20.6289],[-61.0976,14.5179,0.0],[-61.0968,14.5135,53.2017],[-61.1004,14.5085,1.0404],[-61.0999,14.5068,0.0],[-61.0968,14.506,3.4847],[-61.0907,14.5079,21.6947],[-61.0854,14.5051,0.0],[-61.0838,14.5018,0.0],[-61.0843,14.4982,26.2616],[-61.086,14.4996,0.0],[-61.089,14.4979,19.326],[-61.0901,14.4926,19.5157],[-61.0857,14.4907,17.918],[-61.0821,14.4915,1.4646],[-61.0799,14.4899,2.2132],[-61.0793,14.4785,18.1744],[-61.0824,14.4768,55.3492],[-61.0818,14.4699,6.4228],[-61.0776,14.4674,10.1076],[-61.0726,14.4693,5.8625],[-61.0699,14.4682,4.6948],[-61.0676,14.466,4.5395],[-61.0674,14.4596,0.0],[-61.0632,14.4557,22.5768],[-61.0574,14.4535,0.0],[-61.0485,14.4574,33.9975],[-61.046,14.4632,0.0],[-61.0462,14.4682,3.9491],[-61.0412,14.4732,1.4288],[-61.0218,14.4804,0.0],[-61.0174,14.4801,0.0],[-61.0149,14.4763,2.6296],[-61.0082,14.4712,1.2915],[-61.0062,14.4712,0.5452],[-61.0076,14.4738,7.8671],[-61.0054,14.4785,2.414],[-61.0035,14.479,4.1978],[-61.0004,14.4738,34.9297],[-61.0004,14.4701,1.7709],[-60.9974,14.4679,0.0],[-60.9935,14.4682,4.7127],[-60.991,14.466,1.0496],[-60.989,14.4688,0.0],[-60.9896,14.4754,1.0932],[-60.9912,14.4774,0.701],[-60.9885,14.4765,0.0],[-60.9851,14.4724,0.9214],[-60.9823,14.4807,5.3502],[-60.985,14.4991,40.0262],[-60.9554,14.493,41.1681],[-60.9318,14.4993,258.8445],[-60.9198,14.4947,253.6581],[-60.9164,14.4915,215.6293],[-60.9166,14.4685,0.0],[-60.9135,14.4674,0.0],[-60.9118,14.469,7.5073],[-60.9124,14.4599,0.0],[-60.9104,14.4601,0.0],[-60.9057,14.4549,8.4979],[-60.901,14.4524,8.118],[-60.901,14.4487,0.0],[-60.8993,14.4476,3.3498],[-60.8924,14.4524,2.6264],[-60.8924,14.4557,13.2909],[-60.8865,14.4621,7.8232],[-60.8804,14.4671,1.2109],[-60.8776,14.4674,0.467],[-60.8765,14.471,0.9948],[-60.8749,14.4712,2.7819],[-60.874,14.4693,0.0],[-60.8774,14.4651,0.0],[-60.8737,14.4651,0.0],[-60.8718,14.469,3.2309],[-60.8696,14.4693,0.6569],[-60.8688,14.4679,0.0],[-60.8715,14.4657,0.0],[-60.8715,14.4629,0.0],[-60.8649,14.4663,1.0445],[-60.8657,14.464,0.0],[-60.8629,14.4627,0.0],[-60.8679,14.4593,0.0],[-60.8649,14.4551,1.681],[-60.8715,14.456,5.4784],[-60.8712,14.4585,0.0],[-60.8732,14.4574,0.0],[-60.8735,14.454,0.0],[-60.876,14.4518,0.0],[-60.8754,14.4501,0.0],[-60.8735,14.451,4.1126],[-60.8735,14.4485,25.9161],[-60.876,14.4496,0.0],[-60.8782,14.4471,0.0],[-60.8818,14.4518,1.7603],[-60.884,14.4518,0.0],[-60.884,14.4457,0.0],[-60.881,14.4426,4.3469],[-60.8801,14.4385,13.6641],[-60.8851,14.4318,6.1093],[-60.8868,14.4265,5.1554],[-60.8937,14.4207,7.234],[-60.8932,14.4188,15.1225],[-60.886,14.4138,0.4034],[-60.8857,14.4113,0.0],[-60.8879,14.4113,0.0],[-60.8879,14.4093,0.0],[-60.8851,14.4085,0.8246],[-60.8857,14.4051,0.0],[-60.8763,14.4015,1.9468],[-60.8757,14.3988,1.1496],[-60.8785,14.3982,0.772],[-60.8785,14.3968,0.0],[-60.8751,14.396,2.8785],[-60.8729,14.3971,1.748],[-60.8682,14.3951,0.0],[-60.8643,14.3971,-0.098],[-60.8643,14.399,-0.4088],[-60.8621,14.3988,6.3572],[-60.8629,14.396,0.0],[-60.8607,14.3974,3.3839],[-60.8596,14.396,0.9432],[-60.8587,14.3979,2.5128],[-60.8557,14.3968,0.0],[-60.8532,14.3999,0.0],[-60.8551,14.401,3.5876],[-60.8543,14.4043,0.0],[-60.8471,14.4129,2.6714],[-60.8437,14.4129,1.0053],[-60.8421,14.4104,0.0],[-60.8379,14.4113,0.0],[-60.8374,14.4149,1.48],[-60.8446,14.416,1.1062],[-60.8432,14.4213,0.0],[-60.8471,14.4204,1.625],[-60.8471,14.4232,0.0],[-60.8493,14.4221,4.1726],[-60.8482,14.4271,1.0638],[-60.8424,14.4265,0.0],[-60.841,14.4232,0.0],[-60.8426,14.4229,0.0],[-60.8407,14.4218,0.0],[-60.8338,14.424,0.0],[-60.8351,14.4268,0.0],[-60.8326,14.4282,0.7966],[-60.8332,14.4329,1.2016],[-60.8312,14.4329,0.0],[-60.8296,14.4354,0.0],[-60.8265,14.4354,0.0],[-60.8249,14.4382,0.0],[-60.8226,14.4454,0.0],[-60.8237,14.4521,8.0925],[-60.8213,14.4532,0.7405],[-60.8218,14.4554,32.3794],[-60.8185,14.4585,0.0],[-60.8149,14.4585,0.0],[-60.8157,14.4604,2.7047],[-60.8087,14.459,0.0],[-60.8093,14.4607,0.0],[-60.814,14.4607,2.232],[-60.8182,14.4676,0.0]]],
[[[-60.834,14.5699,0.0],[-60.8365,14.5701,0.0],[-60.839,14.5676,0.0],[-60.8387,14.5657,0.0],[-60.834,14.5679,0.0],[-60.834,14.5699,0.0]]],
[[[-60.8624,14.6057,0.0],[-60.8629,14.6076,0.0],[-60.8651,14.6065,0.0],[-60.864,14.6046,0.0],[-60.8624,14.6057,0.0]]],
[[[-60.8515,14.6135,0.0],[-60.8526,14.6149,1.1921],[-60.8576,14.6129,2.2975],[-60.8621,14.6085,0.0],[-60.8574,14.6093,2.4428],[-60.8568,14.6113,3.6296],[-60.8499,14.609,1.2193],[-60.8496,14.6107,0.0],[-60.8521,14.6115,6.7323],[-60.8515,14.6135,0.0]]],
[[[-60.8582,14.6212,1.2453],[-60.8593,14.6224,0.0],[-60.8646,14.6196,2.2215],[-60.8646,14.6176,0.0],[-60.8601,14.6185,0.0],[-60.8582,14.6212,1.2453]]],
[[[-60.8874,14.6335,7.1128],[-60.8879,14.6354,5.1355],[-60.8904,14.634,1.5537],[-60.8885,14.6293,2.5315],[-60.8835,14.6324,1.0602],[-60.8874,14.6335,7.1128]]],
[[[-60.8457,14.626,0.0],[-60.8476,14.6282,1.8882],[-60.8504,14.6249,9.9282],[-60.849,14.6229,0.0],[-60.8465,14.6232,0.0],[-60.8457,14.626,0.0]]],
[[[-60.8521,14.6268,0.0],[-60.8521,14.6296,0.0],[-60.8532,14.6296,1.6194],[-60.8551,14.6257,0.0],[-60.8526,14.626,0.0],[-60.8521,14.6268,0.0]]],
[[[-60.8662,14.3899,0.0],[-60.8668,14.3929,0.0],[-60.8685,14.3929,1.0529],[-60.8685,14.3888,5.5646],[-60.8662,14.3882,0.0],[-60.8662,14.3899,0.0]]],
[[[-61.016,14.5488,15.2515],[-61.016,14.5507,0.0],[-61.0182,14.5507,0.0],[-61.0229,14.5476,0.0],[-61.021,14.5463,0.0],[-61.0168,14.5465,0.0],[-61.016,14.5488,15.2515]]]]}}