{"type": "Feature","bbox": [-79.075,21.9405,-78.8205,22.1529],"geometry": {"type": "MultiPolygon","coordinates": [[[[-78.8373,22.0699,140.4912],[-78.8224,22.0968,117.905],[-78.8205,22.1061,119.8303],[-78.8296,22.1331,83.1823],[-78.8353,22.1379,87.101],[-78.8823,22.1381,154.2168],[-78.9274,22.1232,83.4021],[-78.9634,22.1217,93.5834],[-78.9823,22.1232,96.8827],[-79.0441,22.1397,153.6018],[-79.0453,22.1529,141.1297],[-79.0708,22.1148,182.5776],[-79.0741,22.1053,197.2945],[-79.075,22.0859,201.0069],[-79.0694,22.0677,129.5059],[-79.0593,22.0572,147.0465],[-79.0386,22.0447,202.517],[-79.0279,22.0357,218.1677],[-79.0143,22.0188,199.6464],[-78.9984,22.0131,182.9735],[-78.9744,22.011,157.7081],[-78.9703,22.0087,157.588],[-78.9681,22.0052,157.2856],[-78.9682,21.9879,152.5184],[-78.9482,21.9813,178.7134],[-78.9049,21.9527,120.2195],[-78.8874,21.9447,114.0047],[-78.8692,21.9405,98.728],[-78.8377,22.0029,102.1683],[-78.8373,22.0699,140.4912]]]]}
,"properties": {"GID_2": "CUB.2.3_1","GID_0": "CUB","country": "Cuba","GID_1": "CUB.2_1","province": "CiegodeÁvila","NL_NAME_1": "NA","county": "Chambas","VARNAME_2": "NA","NL_NAME_2": "NA","TYPE_2": "Municipio","ENGTYPE_2": "Municipality","CC_2": "NA","HASC_2": "CU.CA.CH","name": "Chambas.county","area_km2": 375.1615,"hist_schema_id": "Elevation0-9000","hist_area_km2": {"50": 0.0786,"75": 5.0084,"100": 40.4305,"125": 73.7931,"150": 75.7952,"175": 86.485,"200": 57.0026,"225": 25.1516,"250": 9.1372,"275": 2.1025,"300": 0.1769}}}