{"type":"Feature","properties":{"ISO3166-1-Alpha-3":"DOM","country":"Dominican Republic","fill":"#00F","id":"1988","name":"La Romana"},
"geometry":{"type": "Polygon","coordinates": [[[-68.90115,18.40366,5.7787],[-68.90114,18.40368,5.7787],[-68.88328,18.44428,40.8654],[-68.86558,18.48972,41.7512],[-68.85202,18.51864,60.0734],[-68.8531,18.54982,27.3895],[-68.87414,18.57473,32.8542],[-68.89933,18.59644,80.827],[-68.91871,18.62974,85.1956],[-68.9353,18.66568,109.4388],[-68.97899,18.64948,115.67],[-69.00418,18.60326,88.7681],[-69.04252,18.55698,68.2467],[-69.0927,18.52734,74.0647],[-69.10875,18.50213,54.7534],[-69.12177,18.47562,67.0237],[-69.115,18.46239,55.761],[-69.10301,18.45265,27.4959],[-69.09056,18.42381,33.3864],[-69.08454,18.39594,0.8685],[-69.01256,18.39912,5.7088],[-68.96434,18.41795,11.9322],[-68.92252,18.4123,29.5855],[-68.90115,18.40366,5.7787]]]}}