{"type":"Feature","properties":{"GID_1":"DOM.13_1","GID_0":"DOM","country":"DominicanRepublic","province":"LaRomana","VARNAME_1":"NA","NL_NAME_1":"NA","TYPE_1":"Provincia","ENGTYPE_1":"Province","CC_1":"NA","HASC_1":"DO.RO","ISO_1":"DO-12","name":"La_Romana.province"},
"geometry":{"type": "MultiPolygon","coordinates": [[[[-69.0113,18.3776,0.7986],[-69.0176,18.3771,0.0],[-69.0204,18.3671,0.0],[-69.021,18.3563,4.5706],[-69.0257,18.3571,0.0],[-69.0257,18.3535,2.2301],[-69.0237,18.3499,0.0],[-69.016,18.3463,0.6516],[-68.9985,18.3393,0.6621],[-68.9938,18.3393,0.6287],[-68.9915,18.3449,0.0],[-68.994,18.3465,13.6295],[-68.9926,18.349,0.0],[-68.9968,18.3615,1.7087],[-68.9996,18.3629,5.5648],[-69.0004,18.3671,0.0],[-69.0113,18.3776,0.7986]]],
[[[-69.0093,18.3979,0.0],[-68.999,18.4018,0.0],[-68.9776,18.401,4.1307],[-68.9749,18.4032,8.7925],[-68.9732,18.4088,7.1439],[-68.969,18.4115,6.6142],[-68.9604,18.4135,0.0],[-68.9607,18.419,7.015],[-68.9587,18.4146,0.0],[-68.9512,18.4129,5.0084],[-68.9476,18.406,0.0],[-68.9446,18.4093,5.0618],[-68.9415,18.4096,3.5299],[-68.9321,18.4046,0.0],[-68.9212,18.404,6.4388],[-68.9199,18.4021,1.6385],[-68.9124,18.4007,7.1727],[-68.9171,18.3993,0.0],[-68.9168,18.3976,2.9615],[-68.9054,18.3985,0.0],[-68.9037,18.401,3.335],[-68.8983,18.3982,0.0],[-68.8936,18.4062,12.2937],[-68.8923,18.416,50.4419],[-68.8848,18.4207,61.7162],[-68.8825,18.4246,66.7298],[-68.884,18.4362,10.9727],[-68.8796,18.4534,33.8803],[-68.8803,18.4581,63.1917],[-68.8717,18.4602,59.1005],[-68.8675,18.4643,65.9259],[-68.8686,18.4669,63.834],[-68.8742,18.4704,25.0418],[-68.8746,18.4752,49.2273],[-68.8646,18.4811,43.7461],[-68.8652,18.4907,24.6805],[-68.8553,18.4968,7.5037],[-68.8535,18.5041,47.0777],[-68.847,18.5164,61.3183],[-68.8391,18.5203,62.2488],[-68.8447,18.5418,15.451],[-68.8424,18.5517,56.3252],[-68.8434,18.5612,69.87],[-68.8494,18.5711,60.8306],[-68.8594,18.5758,28.2737],[-68.8678,18.5828,50.6451],[-68.873,18.5912,44.497],[-68.8801,18.5957,43.111],[-68.8887,18.613,44.1535],[-68.9013,18.6161,50.7004],[-68.9012,18.6423,71.6138],[-68.9108,18.6514,63.4971],[-68.9117,18.6563,94.1908],[-68.9158,18.6589,95.9223],[-68.9259,18.6643,65.7841],[-68.9343,18.6635,102.4478],[-68.9408,18.6679,103.2902],[-68.9503,18.6711,162.4179],[-68.9606,18.669,107.9849],[-68.968,18.6711,134.8694],[-68.9717,18.67,130.1776],[-68.9732,18.6659,137.6864],[-68.9709,18.6582,120.7868],[-68.9736,18.6499,112.5104],[-68.9787,18.6444,106.6345],[-68.983,18.6262,93.2502],[-68.9983,18.6003,89.0329],[-69.0127,18.5836,74.638],[-69.0339,18.5716,66.2344],[-69.0368,18.5611,77.4152],[-69.0488,18.5455,73.9925],[-69.065,18.5347,59.8171],[-69.0779,18.5339,76.3834],[-69.0827,18.5281,54.9351],[-69.0872,18.5179,81.5169],[-69.1002,18.5063,64.4489],[-69.1047,18.4959,64.5056],[-69.1118,18.4887,37.9726],[-69.1157,18.4816,32.9052],[-69.1153,18.4764,58.3099],[-69.1108,18.4734,66.3227],[-69.1088,18.4676,46.8949],[-69.0909,18.4562,65.8797],[-69.0884,18.448,57.5534],[-69.084,18.4457,51.4944],[-69.0816,18.4415,43.5165],[-69.0847,18.4342,34.0098],[-69.0774,18.4247,29.867],[-69.083,18.4162,9.6653],[-69.0802,18.4043,9.4843],[-69.0913,18.394,3.1551],[-69.0615,18.3915,0.0],[-69.0229,18.3963,1.2188],[-69.0163,18.3954,0.0],[-69.0093,18.3979,0.0]]]]}}