{"type": "Feature","bbox": [-72.3738,18.2213,-72.221,18.3576],"geometry": {"type": "MultiPolygon","coordinates": [[[[-72.2279,18.2237,8.5086],[-72.224,18.2221,19.5144],[-72.2222,18.2288,270.0374],[-72.2225,18.243,609.6527],[-72.221,18.2513,737.9791],[-72.2279,18.2611,929.3733],[-72.2306,18.2681,1085.2513],[-72.2269,18.2795,1275.5662],[-72.2293,18.2833,1286.6835],[-72.2303,18.2931,1436.6599],[-72.2323,18.2965,1473.3455],[-72.2324,18.299,1499.8218],[-72.2303,18.3007,1512.9048],[-72.2293,18.3043,1544.5378],[-72.2324,18.3123,1642.5596],[-72.2384,18.3194,1749.1289],[-72.2379,18.323,1790.2281],[-72.2405,18.3274,1876.4332],[-72.2357,18.3364,2139.6375],[-72.2534,18.3521,2168.6167],[-72.2542,18.3573,1985.0532],[-72.2637,18.3576,2189.7312],[-72.2761,18.3536,2123.1321],[-72.2806,18.3543,2140.6064],[-72.2831,18.3488,2039.217],[-72.2893,18.3419,1908.7664],[-72.3043,18.342,1853.3279],[-72.31,18.34,1817.2505],[-72.3268,18.341,1646.0967],[-72.3395,18.348,1665.5133],[-72.3525,18.3488,1805.7375],[-72.363,18.3535,1899.0709],[-72.3647,18.3529,1913.8832],[-72.3621,18.3429,1616.0542],[-72.3656,18.3387,1640.7488],[-72.3728,18.3359,1466.7617],[-72.3738,18.3238,1262.6924],[-72.3689,18.3185,1282.7332],[-72.3678,18.315,1081.5554],[-72.3717,18.3093,885.3146],[-72.3728,18.3034,1101.7465],[-72.3685,18.2992,1064.9609],[-72.3662,18.2882,906.4141],[-72.3682,18.2836,900.2881],[-72.3688,18.2743,782.504],[-72.3653,18.2668,780.0541],[-72.3599,18.2619,708.8704],[-72.3566,18.2406,116.4347],[-72.3565,18.2341,36.152],[-72.3573,18.2316,0.9172],[-72.3596,18.2337,0.0],[-72.3587,18.2315,0.0],[-72.356,18.231,0.9172],[-72.3543,18.2332,1.5753],[-72.3507,18.234,22.1807],[-72.3474,18.231,0.0],[-72.3443,18.231,1.3268],[-72.3368,18.234,12.452],[-72.3349,18.2324,0.0],[-72.3282,18.2318,0.0],[-72.3268,18.2296,0.0],[-72.3149,18.2304,0.0],[-72.3057,18.2226,2.3013],[-72.3004,18.2213,0.0],[-72.2924,18.2226,0.6711],[-72.2915,18.2246,1.829],[-72.2862,18.2268,0.4633],[-72.2818,18.2254,0.0],[-72.2751,18.2282,3.7996],[-72.2704,18.2265,0.0],[-72.2632,18.2271,19.6674],[-72.2626,18.2257,0.0],[-72.2603,18.2281,23.1674],[-72.2496,18.2257,0.0],[-72.2454,18.2271,22.5516],[-72.2426,18.2232,0.0],[-72.2371,18.2235,10.9929],[-72.2351,18.2215,0.0],[-72.2279,18.2237,8.5086]]]]}
,"properties": {"GID_3": "HTI.9.3.4_1","GID_0": "HTI","country": "Haiti","GID_1": "HTI.9_1","province": "Sud-Est","NL_NAME_1": "NA","GID_2": "HTI.9.3_1","county": "Jacmel","NL_NAME_2": "NA","city": "Marigot","VARNAME_3": "NA","NL_NAME_3": "NA","TYPE_3": "Commune","ENGTYPE_3": "Commune","CC_3": "NA","HASC_3": "NA","name": "Marigot.city","area_km2": 191.0674,"hist_schema_id": "Elevation0-9000","hist_area_km2": {"0": 3.4436,"25": 3.5644,"50": 3.5039,"75": 3.5441,"100": 2.9802,"125": 3.0607,"150": 2.819,"175": 3.1211,"200": 3.0404,"225": 3.0404,"250": 2.8994,"275": 2.6175,"300": 3.2416,"325": 3.1207,"350": 2.9798,"375": 2.9798,"400": 3.2012,"425": 3.7448,"450": 3.6441,"475": 3.2414,"500": 3.463,"525": 3.0199,"550": 3.2012,"575": 3.1004,"600": 2.9394,"625": 2.9193,"650": 2.8991,"675": 2.6776,"700": 2.6574,"725": 2.5567,"750": 2.3957,"775": 2.7378,"800": 2.4762,"825": 2.7579,"850": 2.8385,"875": 2.5164,"900": 2.2949,"925": 2.3754,"950": 1.9728,"975": 1.852,"1000": 1.9526,"1025": 1.7111,"1050": 1.5098,"1075": 2.0734,"1100": 1.8117,"1125": 1.8117,"1150": 1.5701,"1175": 1.6305,"1200": 1.6305,"1225": 1.8922,"1250": 1.7513,"1275": 1.4493,"1300": 1.3084,"1325": 1.3688,"1350": 1.5701,"1375": 1.3487,"1400": 1.6707,"1425": 1.5097,"1450": 1.7311,"1475": 1.5298,"1500": 1.8921,"1525": 2.2544,"1550": 1.4895,"1575": 1.5901,"1600": 1.3284,"1625": 1.8316,"1650": 2.1737,"1675": 2.2542,"1700": 2.2139,"1725": 1.4491,"1750": 1.4089,"1775": 1.5497,"1800": 1.59,"1825": 2.073,"1850": 2.3346,"1875": 1.8113,"1900": 1.6704,"1925": 1.2679,"1950": 0.6843,"1975": 0.8654,"2000": 0.966,"2025": 0.7647,"2050": 0.9257,"2075": 0.966,"2100": 1.1874,"2125": 1.0465,"2150": 0.6842,"2175": 0.2415,"2200": 0.1811,"2225": 0.0604,"2250": 0.0402}}}