{"type":"Feature","properties":{"GID_2":"GLP.1.8_1","GID_0":"GLP","country":"Guadeloupe","GID_1":"GLP.1_1","province":"Basse-Terre","NL_NAME_1":"NA","county":"Goyave","VARNAME_2":"NA","NL_NAME_2":"NA","TYPE_2":"Chef-lieucanton","ENGTYPE_2":"Commune","CC_2":"43","HASC_2":"NA","name":"Goyave.county"},
"geometry":{"type": "MultiPolygon","coordinates": [[[[-61.5685,16.1106,0.0],[-61.5704,16.1157,0.0],[-61.5693,16.1221,1.0508],[-61.5632,16.126,0.0],[-61.5604,16.1307,0.0],[-61.564,16.1349,2.6329],[-61.5674,16.1346,9.8458],[-61.5746,16.1379,3.7706],[-61.5779,16.1435,7.8161],[-61.5757,16.1449,3.0565],[-61.5749,16.1518,9.9313],[-61.5762,16.1537,8.7203],[-61.5815,16.1549,4.713],[-61.5821,16.1607,0.0],[-61.584,16.1616,8.303],[-61.6049,16.1596,54.6509],[-61.631,16.1467,256.5092],[-61.6403,16.136,325.9272],[-61.6534,16.13,477.1147],[-61.6695,16.1026,1096.3838],[-61.6635,16.0946,1216.9718],[-61.6423,16.0916,715.0782],[-61.6223,16.0845,441.9719],[-61.6035,16.0943,237.4702],[-61.5896,16.098,142.9805],[-61.5792,16.1073,45.3396],[-61.5685,16.1106,0.0]]]]}}