{"type": "Feature","bbox": [-82.4411,22.9352,-82.2469,23.0533],"geometry": {"type": "MultiPolygon","coordinates": [[[[-82.3505,23.0401,77.2898],[-82.3654,23.0533,86.8764],[-82.3913,23.0363,51.5405],[-82.3949,23.0286,61.4758],[-82.4071,23.0162,63.8457],[-82.4269,23.0047,71.49],[-82.4391,22.9945,73.9408],[-82.4411,22.9759,63.3976],[-82.4349,22.9762,63.1634],[-82.4277,22.9739,61.1133],[-82.4235,22.9699,68.3855],[-82.4184,22.9608,74.5719],[-82.4105,22.9556,85.5703],[-82.3845,22.9451,161.044],[-82.3756,22.9385,134.3082],[-82.3678,22.9353,112.0954],[-82.3609,22.9352,122.1487],[-82.3542,22.9382,125.7919],[-82.3518,22.9435,133.7054],[-82.3536,22.9562,114.9199],[-82.3524,22.9589,101.604],[-82.3437,22.9608,104.3585],[-82.3053,22.9522,136.7745],[-82.2933,22.9412,168.9562],[-82.2876,22.9383,209.748],[-82.2754,22.9365,207.2372],[-82.2501,22.9357,218.844],[-82.2469,22.9488,167.8162],[-82.2756,22.9613,181.7174],[-82.2929,22.973,109.0649],[-82.3123,22.9781,104.9749],[-82.3265,22.9859,93.2948],[-82.3358,23.0008,75.778],[-82.3505,23.0401,77.2898]]]]}
,"properties": {"GID_2": "CUB.4.2_1","GID_0": "CUB","country": "Cuba","GID_1": "CUB.4_1","province": "CiudaddelaHabana","NL_NAME_1": "NA","county": "Boyeros","VARNAME_2": "NA","NL_NAME_2": "NA","TYPE_2": "Municipio","ENGTYPE_2": "Municipality","CC_2": "NA","HASC_2": "CU.CH.BO","name": "Boyeros.county","area_km2": 112.31284,"hist_schema_id": "Elevation0-9000","hist_area_km2": {"50": 14.94891,"75": 46.54757,"100": 20.02785,"125": 10.01505,"150": 8.62941,"175": 6.16953,"200": 3.51435,"225": 1.99157,"250": 0.46861}}}