{"type": "Feature","bbox": [-68.4207,12.0243,-68.1957,12.3115],"geometry": {"type": "MultiPolygon","coordinates": [[[[-68.3085,12.1685,1.2344],[-68.3132,12.1687,0.9965],[-68.3224,12.1643,0.6299],[-68.3293,12.154,0.0],[-68.3288,12.1482,0.0],[-68.3254,12.1499,0.0],[-68.3168,12.1504,0.0],[-68.3065,12.1454,0.0],[-68.3029,12.1454,0.0],[-68.2951,12.1504,0.0],[-68.2926,12.1582,0.6974],[-68.2954,12.1638,0.0],[-68.3012,12.1676,0.0],[-68.3085,12.1685,1.2344]]],
[[[-68.3871,12.3115,5.8109],[-68.3907,12.3115,1.9576],[-68.4032,12.2993,5.0317],[-68.4079,12.2971,0.0],[-68.4115,12.2932,5.2561],[-68.4146,12.286,3.7394],[-68.414,12.279,2.2508],[-68.4157,12.2729,0.0],[-68.4137,12.2688,0.0],[-68.414,12.2651,0.0],[-68.4199,12.2615,5.52],[-68.4207,12.2574,10.4794],[-68.4193,12.2524,3.9374],[-68.4137,12.2454,0.0],[-68.4118,12.2271,7.2442],[-68.3965,12.2199,0.0],[-68.3876,12.2204,0.0],[-68.386,12.2185,0.0],[-68.3799,12.2185,0.0],[-68.3735,12.2204,0.0],[-68.3546,12.2201,0.0],[-68.3496,12.2176,1.1804],[-68.344,12.2176,6.7646],[-68.3399,12.2146,0.0],[-68.3368,12.2151,0.0],[-68.3282,12.2115,2.0225],[-68.3215,12.2107,16.3546],[-68.3096,12.2007,7.3469],[-68.3007,12.1954,0.0],[-68.2924,12.1754,0.0],[-68.2879,12.1693,2.1866],[-68.2874,12.1632,0.0],[-68.2796,12.1565,1.4535],[-68.2763,12.1438,2.1857],[-68.2774,12.1365,0.0],[-68.2862,12.1293,0.0],[-68.2954,12.1143,0.9176],[-68.2849,12.0974,0.5719],[-68.2804,12.0768,0.7323],[-68.2824,12.0593,0.0],[-68.281,12.0563,0.5114],[-68.2732,12.0521,0.0708],[-68.2688,12.0474,0.3233],[-68.261,12.0329,0.0],[-68.2568,12.0315,0.0],[-68.2493,12.0243,0.2872],[-68.2393,12.026,0.2655],[-68.2326,12.031,0.4101],[-68.2246,12.0457,0.0],[-68.2246,12.061,0.0],[-68.2307,12.0771,1.2059],[-68.231,12.0893,0.4961],[-68.2335,12.089,0.0],[-68.2363,12.0951,0.4453],[-68.2399,12.0924,0.5493],[-68.2415,12.0929,1.3089],[-68.2421,12.1004,3.0545],[-68.239,12.1051,1.6837],[-68.2354,12.1065,0.0],[-68.2332,12.1113,1.7492],[-68.229,12.1118,0.0],[-68.2282,12.1138,4.2804],[-68.2243,12.1135,0.0],[-68.2243,12.1099,0.0],[-68.2215,12.1115,2.1538],[-68.2224,12.1024,0.0],[-68.2129,12.1054,0.0],[-68.2065,12.1101,0.0],[-68.1957,12.1268,1.8441],[-68.1963,12.144,0.0],[-68.2096,12.1813,0.0],[-68.2085,12.189,0.8239],[-68.2049,12.1932,0.0],[-68.2043,12.2021,4.3459],[-68.199,12.206,3.4965],[-68.1957,12.2126,2.7637],[-68.1965,12.221,0.0],[-68.2032,12.2251,1.508],[-68.2101,12.2271,0.0],[-68.226,12.2251,2.6756],[-68.2357,12.2279,0.0],[-68.2468,12.2287,4.9087],[-68.2649,12.2354,3.2546],[-68.2737,12.234,0.0],[-68.2782,12.2349,1.2448],[-68.2807,12.2368,0.0],[-68.2838,12.2435,3.6629],[-68.3132,12.2562,0.9933],[-68.3262,12.2668,0.0],[-68.3382,12.2735,0.0],[-68.3432,12.2793,0.0],[-68.3471,12.2807,0.9443],[-68.3618,12.304,0.0],[-68.3871,12.3115,5.8109]]]]}
,"properties": {"GID_1": "BES.1_1","GID_0": "BES","country": "Bonaire,SintEustatiusandSaba","state": "Bonaire","VARNAME_1": "NA","NL_NAME_1": "NA","TYPE_1": "Caribischopenbaarlichaam","ENGTYPE_1": "Municipality","CC_1": "NA","HASC_1": "NA","ISO_1": "BQ-BO","name": "Bonaire.state","area_km2": 286.2068,"hist_schema_id": "Elevation0-9000","hist_area_km2": {"0": 142.9168,"25": 84.484,"50": 29.5691,"75": 14.691,"100": 10.4847,"125": 3.3775,"150": 0.5594,"175": 0.0829,"200": 0.0414}}}