{"type":"Feature","properties":{"ISO3166-1-Alpha-3":"NLD","country":"Caribbean Netherlands","fill":"#F0F","id":"5149","name":"Bonaire"},
"geometry":{"type": "Polygon","coordinates": [[[-68.21154,12.22809,0.0],[-68.22053,12.23115,0.0],[-68.25251,12.23554,0.0],[-68.31485,12.26484,0.0],[-68.3319,12.26903,0.0],[-68.34044,12.27497,0.4341],[-68.36148,12.30219,7.7164],[-68.37662,12.31004,0.0],[-68.39045,12.31021,10.2656],[-68.40005,12.30439,0.0],[-68.40648,12.29462,18.224],[-68.41076,12.2827,3.2898],[-68.40331,12.27652,98.2799],[-68.41739,12.25703,14.0909],[-68.41072,12.2403,16.4701],[-68.39184,12.22777,67.2873],[-68.36978,12.22126,3.7441],[-68.32128,12.21385,22.4901],[-68.30256,12.20295,48.9439],[-68.28726,12.18032,5.6669],[-68.28222,12.1599,0.0],[-68.28283,12.13959,0.0],[-68.28726,12.1083,1.0152],[-68.28539,12.09007,0.0],[-68.28063,12.07221,0.9773],[-68.25967,12.02806,0.0],[-68.25422,12.02363,0.0],[-68.24254,12.02204,0.0],[-68.23729,12.0268,0.0],[-68.23184,12.03799,1.7148],[-68.22753,12.05073,1.626],[-68.22582,12.06025,1.3585],[-68.22834,12.06997,0.0],[-68.23835,12.09577,0.0],[-68.23884,12.10456,1.6837],[-68.23217,12.11074,1.7492],[-68.21394,12.1118,1.7626],[-68.20531,12.11823,2.9609],[-68.2036,12.13776,10.4444],[-68.21085,12.19009,5.11],[-68.20157,12.20083,0.0],[-68.19001,12.20482,0.0],[-68.1942,12.21393,0.0],[-68.20466,12.22321,4.8032],[-68.21154,12.22809,0.0]]]}}