{"type":"Feature","properties":{"GID_1":"PRI.70_1","GID_0":"PRI","country":"PuertoRico","province":"ToaBaja","VARNAME_1":"NA","NL_NAME_1":"NA","TYPE_1":"Municipio","ENGTYPE_1":"Municipality","CC_1":"NA","HASC_1":"PR.TB","ISO_1":"-","name":"Toa_Baja.province"},
"geometry":{"type": "MultiPolygon","coordinates": [[[[-66.1699,18.4303,4.3027],[-66.1701,18.4344,3.9281],[-66.1659,18.4363,5.2712],[-66.1632,18.4459,4.6452],[-66.1539,18.4459,4.5029],[-66.1465,18.4554,4.1002],[-66.1379,18.4596,1.2055],[-66.1393,18.4649,1.1573],[-66.144,18.4635,1.0208],[-66.1535,18.4538,0.0],[-66.1604,18.451,0.8467],[-66.1621,18.4521,0.0],[-66.1649,18.4507,1.7431],[-66.1715,18.451,2.5735],[-66.179,18.4546,3.6952],[-66.1843,18.4601,2.7834],[-66.186,18.4699,0.0],[-66.194,18.466,4.5221],[-66.1982,18.4662,3.5916],[-66.199,18.4687,1.688],[-66.2018,18.4662,5.0418],[-66.2114,18.4665,4.0683],[-66.2308,18.4543,3.2617],[-66.2304,18.4505,2.9024],[-66.2415,18.4557,2.9523],[-66.248,18.4514,1.8968],[-66.2582,18.4552,2.3612],[-66.2591,18.449,4.1693],[-66.2549,18.439,6.2129],[-66.2595,18.4237,5.8187],[-66.2641,18.4209,5.0083],[-66.2636,18.4166,6.5592],[-66.2622,18.4147,4.8251],[-66.2581,18.4166,6.7893],[-66.2567,18.4156,6.7893],[-66.2558,18.4118,10.7796],[-66.2599,18.409,7.724],[-66.2562,18.3961,14.3147],[-66.2525,18.3942,10.3509],[-66.2441,18.3947,12.8094],[-66.234,18.4014,59.8339],[-66.1969,18.3891,83.0479],[-66.1955,18.3967,56.9256],[-66.1978,18.4039,45.3952],[-66.1965,18.4086,47.0673],[-66.1979,18.4148,36.7067],[-66.1877,18.4191,26.7576],[-66.1854,18.4215,24.766],[-66.1821,18.422,22.1891],[-66.1784,18.4192,17.6057],[-66.1724,18.4211,9.6616],[-66.1696,18.4258,5.7733],[-66.1699,18.4303,4.3027]]],
[[[-66.139,18.476,0.0],[-66.1404,18.4749,0.0],[-66.1379,18.4729,0.0],[-66.1363,18.4668,0.6537],[-66.1357,18.4704,1.4124],[-66.1335,18.4715,0.6346],[-66.1346,18.4724,0.7652],[-66.1338,18.474,0.0],[-66.1365,18.4735,3.7731],[-66.139,18.476,0.0]]],
[[[-66.1818,18.476,0.0],[-66.1868,18.4757,4.3306],[-66.1854,18.4718,0.0],[-66.1818,18.4749,0.0],[-66.179,18.4735,1.5696],[-66.179,18.4754,7.9961],[-66.1818,18.476,0.0]]]]}}