{"type": "Feature","id": "1983","bbox": [-69.79281,19.00889,-69.15836,19.36335],"geometry": {"type": "Polygon","coordinates": [[[-69.62089,19.10196,0.0],[-69.63044,19.10847,2.3433],[-69.63353,19.12368,0.0],[-69.62605,19.16429,0.0],[-69.62279,19.21186,0.0],[-69.6173,19.22525,0.0],[-69.60294,19.22899,26.8639],[-69.47545,19.21402,35.672],[-69.43838,19.19648,0.0],[-69.41812,19.19099,0.0],[-69.33214,19.19721,0.0],[-69.25365,19.18354,9.1269],[-69.2318,19.18867,124.1708],[-69.21434,19.20063,0.0],[-69.20271,19.21695,0.0],[-69.19839,19.23505,0.0],[-69.18932,19.25226,95.9187],[-69.17138,19.26789,147.8173],[-69.15836,19.2851,128.2858],[-69.1643,19.30703,0.0],[-69.18244,19.29816,0.0],[-69.20434,19.29279,3.6882],[-69.22688,19.29267,0.0],[-69.24682,19.29963,0.0],[-69.23209,19.32795,-1.8456],[-69.22435,19.35179,69.1544],[-69.23127,19.36335,0.647],[-69.26049,19.35489,0.0],[-69.3059,19.33112,0.0],[-69.32429,19.31509,0.0],[-69.3356,19.2934,0.0],[-69.35269,19.30512,0.0],[-69.41072,19.32758,0.0],[-69.4217,19.32111,0.0],[-69.42862,19.31924,0.0],[-69.43179,19.32412,0.0],[-69.43342,19.3299,0.0],[-69.43737,19.33295,0.0],[-69.44278,19.33417,0.0],[-69.4486,19.33438,0.0],[-69.4591,19.33332,0.0],[-69.48331,19.32758,0.0],[-69.49645,19.32978,0.0],[-69.51765,19.33967,0.0],[-69.52798,19.34178,0.0],[-69.53942,19.33942,0.0],[-69.56896,19.32071,0.0],[-69.58943,19.31281,0.0],[-69.60936,19.30878,0.0],[-69.65437,19.30703,0.0],[-69.67439,19.30386,0.0],[-69.71321,19.28974,0.0],[-69.73347,19.28657,0.0],[-69.76769,19.29975,0.0],[-69.77147,19.30325,0.0],[-69.77148,19.30325,0.0],[-69.77364,19.2982,6.5987],[-69.77726,19.27138,0.8566],[-69.78659,19.24634,5.9472],[-69.79281,19.22159,10.989],[-69.78615,19.19805,3.0492],[-69.73731,19.22012,4.876],[-69.6768,19.20648,6.8808],[-69.67675,19.17942,1.0469],[-69.70329,19.1626,3.1493],[-69.71902,19.15266,2.0621],[-69.73253,19.13669,3.1585],[-69.73613,19.1054,3.4329],[-69.75579,19.08759,179.0586],[-69.72734,19.06687,175.3908],[-69.69861,19.04654,189.471],[-69.66693,19.02946,216.9549],[-69.63784,19.00889,299.7121],[-69.62445,19.03747,206.6509],[-69.61864,19.06793,98.2431],[-69.62156,19.09457,0.0],[-69.62089,19.10196,0.0]]]}
,"properties": {"ISO3166-1-Alpha-3": "DOM","country": "Dominican Republic","fill": "#F00","name": "Samaná","area_km2": 966.449,"hist_schema_id": "Elevation0-9000","hist_area_km2": {"0": 297.7758,"25": 82.7799,"50": 49.2202,"75": 52.8259,"100": 51.3282,"125": 43.3652,"150": 46.9143,"175": 48.9407,"200": 41.0074,"225": 39.1581,"250": 35.4313,"275": 36.5309,"300": 37.7913,"325": 31.7455,"350": 25.2998,"375": 18.4941,"400": 11.8088,"425": 6.3648,"450": 4.8036,"475": 2.8021,"500": 1.3209,"525": 0.3802,"550": 0.2001,"575": 0.1401,"600": 0.02}}}