{"type": "Feature","bbox": [-69.7506,18.9926,-69.1501,19.3638],"geometry": {"type": "MultiPolygon","coordinates": [[[[-69.7394,19.1499,4.5823],[-69.7431,19.15,4.6506],[-69.7461,19.1472,4.7301],[-69.7453,19.1412,2.5864],[-69.7304,19.1157,2.9045],[-69.7262,19.1118,10.3074],[-69.7203,19.1095,3.5801],[-69.7191,19.1058,10.57],[-69.7202,19.0999,10.3402],[-69.7328,19.0942,100.8082],[-69.7263,19.0862,123.13],[-69.7166,19.0872,120.9251],[-69.71,19.0843,164.623],[-69.7057,19.0802,176.2505],[-69.6989,19.0671,194.2368],[-69.6984,19.0469,189.471],[-69.6956,19.0414,198.092],[-69.6894,19.0375,223.3175],[-69.681,19.0363,181.9733],[-69.6745,19.0332,206.5652],[-69.6607,19.0126,271.0659],[-69.6453,19.0079,287.7591],[-69.6212,18.9926,299.1747],[-69.6178,19.0158,261.2016],[-69.612799999999993,19.0261,233.9238],[-69.5985,19.081,7.3022],[-69.601,19.0818,0.5723],[-69.601,19.0801,38.3306],[-69.6057,19.0793,0.0],[-69.6082,19.0818,13.1434],[-69.6176,19.0815,0.0],[-69.6185,19.0779,24.1717],[-69.6207,19.0776,50.3313],[-69.6204,19.0832,0.0303],[-69.6268,19.0824,1.9594],[-69.6288,19.084,3.3805],[-69.6368,19.0979,17.6219],[-69.6335,19.0996,14.3597],[-69.6315,19.1035,5.9788],[-69.6346,19.1093,4.3233],[-69.6304,19.1151,5.79],[-69.6332,19.1132,14.7383],[-69.6365,19.1171,3.9551],[-69.6401,19.136,5.6736],[-69.6371,19.1368,0.0],[-69.6315,19.1607,0.0],[-69.6315,19.1662,2.019],[-69.6296,19.1679,0.0],[-69.6268,19.1762,0.0],[-69.6251,19.1885,6.3438],[-69.6265,19.1926,9.7],[-69.6243,19.1946,0.0],[-69.6274,19.1982,6.7991],[-69.624,19.1979,0.0],[-69.6235,19.2001,0.0],[-69.6251,19.2018,12.6891],[-69.624,19.2143,0.0],[-69.6274,19.219,3.588],[-69.6229,19.2237,0.0],[-69.6185,19.2254,0.0],[-69.6149,19.2235,0.0],[-69.6137,19.2249,0.0],[-69.6079,19.2251,0.0],[-69.5946,19.2201,1.3581],[-69.5912,19.2168,0.0],[-69.5815,19.2187,0.0],[-69.5774,19.2174,17.3471],[-69.5768,19.215699999999998,4.1671],[-69.5635,19.2149,0.81],[-69.5546,19.2115,0.0],[-69.5479,19.2115,0.0],[-69.5462,19.2132,0.8247],[-69.5407,19.214,1.9444],[-69.5326,19.211,0.8327],[-69.529,19.2138,8.5427],[-69.5254,19.2135,1.3027],[-69.5199,19.2104,0.0],[-69.5154,19.211,5.5906],[-69.5126,19.2076,0.0],[-69.5062,19.2129,3.3246],[-69.504,19.2129,2.3251],[-69.4965,19.2065,0.0],[-69.4926,19.2085,0.0],[-69.4874,19.2057,1.5342],[-69.4815,19.2082,3.036],[-69.4718,19.2074,13.1497],[-69.461,19.2024,2.3888],[-69.4507,19.2029,2.5148],[-69.4421,19.1999,0.0],[-69.4368,19.1963,7.4487],[-69.4321,19.1899,0.0],[-69.4262,19.1935,0.0],[-69.4154,19.1924,0.7107],[-69.4143,19.1865,0.0],[-69.4071,19.1838,1.8855],[-69.4068,19.1907,7.2525],[-69.4024,19.1949,0.0],[-69.3987,19.1935,0.0],[-69.3932,19.196,4.9261],[-69.3874,19.194,5.8833],[-69.3854,19.1954,0.0],[-69.379,19.1946,1.5658],[-69.369,19.1965,2.9409],[-69.3493,19.1935,0.0],[-69.3432,19.194,22.0342],[-69.341,19.1926,2.263],[-69.3399,19.1965,0.0],[-69.3371,19.1951,0.0],[-69.3349,19.1968,0.0],[-69.3374,19.199,4.9102],[-69.3374,19.201,4.2265],[-69.3321,19.2026,3.4102],[-69.3257,19.201,12.9265],[-69.314,19.1932,0.0],[-69.3115,19.1965,1.1701],[-69.3076,19.1968,6.63],[-69.2993,19.1901,0.0],[-69.2957,19.1946,4.3402],[-69.2937,19.1949,0.0],[-69.2835,19.1896,0.0],[-69.2782,19.184,6.3144],[-69.274,19.1851,0.0],[-69.2712,19.1832,0.0],[-69.2571,19.1838,9.7099],[-69.2562,19.1801,0.0],[-69.2526,19.1824,9.1269],[-69.2476,19.1824,14.9273],[-69.2396,19.1801,0.0],[-69.234,19.1812,2.9143],[-69.2318,19.1793,0.2273],[-69.2207,19.1832,0.0],[-69.2199,19.1865,40.2104],[-69.221,19.1876,62.2083],[-69.2187,19.1876,0.0],[-69.2218,19.191,24.8537],[-69.219,19.1943,0.0],[-69.2182,19.1985,-1.3257],[-69.2151,19.199,0.0],[-69.2162,19.2057,-4.3975],[-69.2146,19.2115,-1.4067],[-69.216,19.2132,-2.5127],[-69.2107,19.2215,0.0],[-69.209,19.2304,0.0],[-69.2076,19.2313,-2.5103],[-69.2085,19.2329,-3.4442],[-69.1968,19.2382,-2.1561],[-69.1915,19.2424,-1.2169],[-69.1901,19.2465,-2.045],[-69.1776,19.2554,-1.4124],[-69.1679,19.2593,0.0],[-69.1624,19.2649,-2.2018],[-69.1604,19.2696,13.4494],[-69.1543,19.2768,0.0],[-69.151,19.2851,-2.5947],[-69.1501,19.2999,-3.4827],[-69.1518,19.3024,0.0],[-69.1621,19.3013,6.3114],[-69.1629,19.3051,2.3367],[-69.1696,19.3049,1.0326],[-69.1724,19.3016,3.6988],[-69.1793,19.2993,0.0],[-69.1804,19.2968,-4.027],[-69.1843,19.2962,-2.46],[-69.1851,19.2932,-4.3185],[-69.1876,19.2935,-3.5792],[-69.1888,19.2954,-2.3581],[-69.1918,19.2924,-3.0833],[-69.1957,19.2924,-0.7891],[-69.206,19.2979,-0.3101],[-69.2076,19.2946,-1.6404],[-69.2112,19.2932,0.0],[-69.2174,19.2871,0.0],[-69.2265,19.2882,-1.9831],[-69.2293,19.2857,-1.0079],[-69.2368,19.2876,0.0],[-69.2401,19.2862,-3.1902],[-69.2496,19.2893,-2.2263],[-69.2549,19.294,-1.7676],[-69.2501,19.3046,6.6365],[-69.2401,19.3174,52.6569],[-69.236,19.326,49.0952],[-69.2349,19.3254,0.0],[-69.2296,19.3329,-2.0113],[-69.2268,19.3338,4.4085],[-69.2204,19.3404,1.6052],[-69.214,19.3546,4.3928],[-69.2162,19.3607,0.0],[-69.2218,19.3593,24.5355],[-69.2246,19.3601,2.7163],[-69.226,19.3576,-2.2924],[-69.2296,19.3626,0.0],[-69.2387,19.3638,0.0],[-69.2424,19.3538,0.0925],[-69.251,19.3418,25.9993],[-69.2546,19.3471,0.0],[-69.2576,19.3454,101.1591],[-69.2604,19.3463,2.012],[-69.2635,19.3418,78.9649],[-69.2679,19.3401,-1.4237],[-69.2679,19.3363,0.1142],[-69.2663,19.3343,9.5481],[-69.2757,19.334,0.0],[-69.2885,19.3307,11.5627],[-69.296,19.3221,0.0],[-69.3057,19.3199,47.919],[-69.3107,19.3132,33.331],[-69.3213,19.3076,0.0],[-69.3257,19.3021,17.9917],[-69.3235,19.2982,46.8754],[-69.3262,19.2918,7.374],[-69.3249,19.2876,8.4382],[-69.3274,19.2838,0.0],[-69.3368,19.284,46.9191],[-69.3388,19.2893,0.0],[-69.3426,19.2879,32.4107],[-69.3457,19.2896,66.3597],[-69.3524,19.2974,51.8316],[-69.354,19.3032,20.4824],[-69.3599,19.3032,6.907],[-69.3632,19.3013,58.5259],[-69.3712,19.3035,0.0],[-69.3743,19.3026,3.8973],[-69.3757,19.306,0.0],[-69.3799,19.3079,47.4835],[-69.3796,19.3115,0.0],[-69.3863,19.3121,0.0],[-69.3882,19.3079,3.3133],[-69.3913,19.3085,2.7638],[-69.4032,19.3171,0.0],[-69.4082,19.3174,0.0],[-69.4118,19.3201,3.9323],[-69.4121,19.3226,0.0],[-69.4176,19.3213,1.2085],[-69.4171,19.3176,0.0],[-69.4262,19.3137,7.8028],[-69.4349,19.319,0.0],[-69.4376,19.3251,2.9133],[-69.4421,19.3265,3.3275],[-69.444,19.3257,0.0],[-69.4457,19.3218,4.8898],[-69.4501,19.3207,1.809],[-69.4543,19.3268,1.5466],[-69.4626,19.3276,0.0],[-69.4876,19.3226,2.5199],[-69.4935,19.3257,0.0],[-69.5013,19.3268,0.0],[-69.5051,19.3254,5.0821],[-69.5071,19.3274,0.0],[-69.5149,19.3274,0.0],[-69.519,19.3249,4.4076],[-69.526,19.3243,1.3963],[-69.5285,19.3271,0.0],[-69.5324,19.3235,5.7021],[-69.5387,19.3221,0.0],[-69.5468,19.3274,0.0],[-69.5524,19.3257,1.0116],[-69.5563,19.319,2.327],[-69.564,19.321,0.0],[-69.564,19.3143,0.9994],[-69.5682,19.3137,7.0208],[-69.5754,19.3157,0.0],[-69.5746,19.3082,2.8716],[-69.5774,19.3037,6.4584],[-69.594,19.2971,0.0],[-69.6062,19.2968,4.3239],[-69.6162,19.2943,0.0],[-69.6546,19.294,0.0],[-69.6599,19.2899,19.2078],[-69.6696,19.2865,10.3876],[-69.6712,19.2843,10.0082],[-69.6796,19.2824,0.0],[-69.6854,19.2829,0.0],[-69.6935,19.2787,3.9588],[-69.7007,19.2785,1.0867],[-69.7101,19.2757,0.0],[-69.724,19.2768,1.5281],[-69.7395,19.281,0.0],[-69.7428,19.2724,1.4097],[-69.7435,19.2618,2.0816],[-69.7458,19.2555,3.523],[-69.7463,19.2343,5.4604],[-69.7506,19.2209,3.7358],[-69.7208,19.2204,1.9518],[-69.71,19.2176,2.5992],[-69.6876,19.2171,1.7532],[-69.6675,19.2005,10.497],[-69.6641,19.1946,0.8858],[-69.6668,19.1889,0.9671],[-69.6742,19.1804,3.169],[-69.6757,19.1673,0.7514],[-69.6855,19.1595,0.8589],[-69.6913,19.1634,2.5557],[-69.6947,19.1629,2.6195],[-69.697,19.1577,2.6321],[-69.7037,19.1523,4.5939],[-69.706,19.1447,2.6963],[-69.7161,19.1408,3.5738],[-69.7225,19.1365,4.159],[-69.7252,19.1364,4.9339],[-69.7305,19.1394,5.0106],[-69.7354,19.1479,7.4158],[-69.7394,19.1499,4.5823]]],
[[[-69.4226,19.3307,0.0],[-69.424,19.3312,0.0],[-69.4246,19.3279,1.2779],[-69.4221,19.3282,0.0],[-69.4226,19.3307,0.0]]],
[[[-69.2754,19.1682,10.5939],[-69.2799,19.1682,2.4758],[-69.2799,19.1665,2.0017],[-69.276,19.1654,0.0],[-69.2746,19.1632,0.155],[-69.2712,19.1662,3.1036],[-69.2754,19.1682,10.5939]]],
[[[-69.3282,19.1951,0.0],[-69.3296,19.196,0.0],[-69.329,19.1946,0.0],[-69.3251,19.1943,0.0],[-69.3257,19.1957,0.0],[-69.3282,19.1951,0.0]]]]}
,"properties": {"GID_1": "DOM.23_1","GID_0": "DOM","country": "DominicanRepublic","province": "Samaná","VARNAME_1": "NA","NL_NAME_1": "NA","TYPE_1": "Provincia","ENGTYPE_1": "Province","CC_1": "NA","HASC_1": "DO.SM","ISO_1": "NA","name": "Samaná.province","area_km2": 862.5265,"hist_schema_id": "Elevation0-9000","hist_area_km2": {"0": 171.2834,"25": 91.9892,"50": 50.8217,"75": 54.5068,"100": 52.9093,"125": 44.5458,"150": 45.1901,"175": 45.9948,"200": 42.3903,"225": 42.9864,"250": 37.7965,"275": 38.8763,"300": 39.6356,"325": 31.966,"350": 25.2998,"375": 18.4941,"400": 11.8088,"425": 6.3648,"450": 4.8036,"475": 2.8021,"500": 1.3209,"525": 0.3802,"550": 0.2001,"575": 0.1401,"600": 0.02}}}