{"type": "Feature","id": "5143","bbox": [-64.88016,32.24808,-64.81515,32.26901],"geometry": {"type": "Polygon","coordinates": [[[-64.8329,32.2597,0.1417],[-64.84685,32.25467,0.0],[-64.8577,32.25467,0.561],[-64.86429,32.26242,3.8882],[-64.86313,32.26901,0.0],[-64.88016,32.26593,0.0],[-64.8763,32.25777,3.7116],[-64.8608,32.24885,22.6125],[-64.84917,32.24846,0.0],[-64.83406,32.24808,1.8908],[-64.81515,32.25428,2.593],[-64.82068,32.2619,11.4107],[-64.8329,32.2597,0.1417]]]}
,"properties": {"ISO3166-1-Alpha-3": "BMU","country": "Bermuda","fill": "#FF0","name": "Southampton","area_km2": 6.132086,"hist_schema_id": "Elevation0-9000","hist_area_km2": {"0": 2.43849,"25": 2.653634,"50": 1.022031,"75": 0.01793}}}