{"type": "Feature","bbox": [-64.8778,32.2467,-64.8168,32.2675],"geometry": {"type": "MultiPolygon","coordinates": [[[[-64.8439,32.2553,6.0619],[-64.8428,32.2558,0.0],[-64.8433,32.2569,0.0],[-64.8444,32.2561,0.0],[-64.8439,32.2553,6.0619]]],
[[[-64.877,32.2608,22.1047],[-64.8778,32.2589,2.9849],[-64.8694,32.2514,0.0],[-64.8597,32.2472,13.2144],[-64.8478,32.2489,13.0793],[-64.8381,32.2483,1.6621],[-64.8369,32.2467,0.0],[-64.8344,32.2467,0.0],[-64.8281,32.2478,0.0],[-64.8225,32.25,0.1413],[-64.8214,32.2525,4.7087],[-64.8192,32.2514,0.0],[-64.8168,32.2532,0.0],[-64.8201,32.2599,29.0924],[-64.8244,32.263,0.4244],[-64.8276,32.2627,0.5449],[-64.83,32.2596,2.9654],[-64.832,32.2611,1.4333],[-64.8339,32.2603,0.1417],[-64.8431,32.2544,6.0619],[-64.8517,32.2539,0.0],[-64.855,32.2553,0.0],[-64.8564,32.2533,6.1601],[-64.8586,32.2581,0.0],[-64.8619,32.2569,9.1221],[-64.8653,32.26,6.5535],[-64.8633,32.2653,8.5539],[-64.8644,32.2675,2.734],[-64.877,32.2608,22.1047]]]]}
,"properties": {"GID_1": "BMU.10_1","GID_0": "BMU","country": "Bermuda","province": "Southampton","VARNAME_1": "NA","NL_NAME_1": "NA","TYPE_1": "Parish","ENGTYPE_1": "Parish","CC_1": "NA","HASC_1": "BM.SO","ISO_1": "NA","name": "Southampton.province","area_km2": 6.024603,"hist_schema_id": "Elevation0-9000","hist_area_km2": {"0": 2.761267,"25": 2.313017,"50": 0.932388,"75": 0.01793}}}