{"type": "Feature","bbox": [-71.7528,19.3829,-71.6758,19.5442],"geometry": {"type": "MultiPolygon","coordinates": [[[[-71.6956,19.4006,210.9765],[-71.6871,19.4121,194.5507],[-71.6864,19.4195,177.4369],[-71.6883,19.4187,190.0623],[-71.6883,19.4214,171.9103],[-71.6864,19.4269,158.5874],[-71.6844,19.4269,191.513],[-71.6797,19.4362,139.0548],[-71.6805,19.4374,134.8447],[-71.677,19.4382,157.5527],[-71.679,19.4436,128.1169],[-71.6758,19.4502,138.3896],[-71.6778,19.4502,123.6314],[-71.677,19.4561,133.7289],[-71.679,19.4561,125.3356],[-71.6837,19.4615,112.3855],[-71.6845,19.4642,113.6812],[-71.6825,19.4662,117.992],[-71.6853,19.4669,101.4124],[-71.6845,19.4716,113.0468],[-71.6884,19.4716,96.2772],[-71.6865,19.4774,95.1766],[-71.6884,19.4794,90.2914],[-71.6912,19.4794,92.4428],[-71.6919,19.482,79.5963],[-71.6892,19.4868,82.5429],[-71.6919,19.4938,64.1415],[-71.6885,19.4969,80.3253],[-71.6893,19.4996,53.5222],[-71.6854,19.5074,57.4629],[-71.6866,19.5182,67.6],[-71.6901,19.5147,48.1503],[-71.6932,19.5167,56.4089],[-71.696,19.5155,54.634],[-71.6979,19.5174,51.1926],[-71.6979,19.5248,53.5995],[-71.7007,19.5248,51.4347],[-71.7015,19.5275,49.7969],[-71.7007,19.538,45.4622],[-71.7042,19.538,46.2307],[-71.7054,19.5353,46.365],[-71.7101,19.5361,41.9367],[-71.7104,19.5442,40.4398],[-71.7185,19.5367,41.9322],[-71.7171,19.5293,45.1499],[-71.707,19.5169,63.9947],[-71.7073,19.5079,89.067],[-71.7044,19.4994,104.8343],[-71.7053,19.4923,116.5982],[-71.7149,19.4798,137.0318],[-71.7103,19.4696,100.6492],[-71.7112,19.4665,114.3516],[-71.7211,19.466,112.5958],[-71.7229,19.4627,123.3197],[-71.7268,19.4637,119.4674],[-71.7263,19.4567,126.3921],[-71.7277,19.4552,129.082],[-71.7253,19.4494,131.1964],[-71.7293,19.4509,132.8046],[-71.7344,19.4504,140.722],[-71.7357,19.4464,159.8132],[-71.7316,19.446,141.2778],[-71.7314,19.4426,151.9039],[-71.7373,19.4383,158.1332],[-71.7412,19.4375,157.3888],[-71.7429,19.4334,164.3988],[-71.7468,19.4305,181.1683],[-71.7473,19.4267,193.855],[-71.7508,19.4241,198.0207],[-71.7507,19.4179,218.0658],[-71.7528,19.4128,285.058],[-71.7514,19.4093,313.9635],[-71.752,19.4034,601.9906],[-71.7491,19.4003,684.2934],[-71.7411,19.3989,543.6524],[-71.739,19.3954,614.695],[-71.7339,19.394,427.3109],[-71.7306,19.3889,614.8811],[-71.7262,19.3869,785.606],[-71.7196,19.3882,580.6848],[-71.7175,19.3861,609.185],[-71.7138,19.3867,624.8748],[-71.7104,19.3839,649.4741],[-71.691,19.3829,386.723],[-71.6946,19.3942,298.3892],[-71.6938,19.3954,298.3892],[-71.6958,19.3969,245.1579],[-71.6946,19.3989,229.7805],[-71.6956,19.4006,210.9765]]]]}
,"properties": {"GID_3": "HTI.5.3.1_1","GID_0": "HTI","country": "Haiti","GID_1": "HTI.5_1","province": "Nord-Est","NL_NAME_1": "NA","GID_2": "HTI.5.3_1","county": "Ouanaminthe","NL_NAME_2": "NA","city": "Capotille","VARNAME_3": "NA","NL_NAME_3": "NA","TYPE_3": "Commune","ENGTYPE_3": "Commune","CC_3": "NA","HASC_3": "NA","name": "Capotille.city","area_km2": 66.85692,"hist_schema_id": "Elevation0-9000","hist_area_km2": {"25": 0.49955,"50": 5.13577,"75": 3.47763,"100": 7.81578,"125": 7.09686,"150": 9.75661,"175": 8.37777,"200": 6.31871,"225": 4.87923,"250": 2.93967,"275": 2.09982,"300": 1.37989,"325": 0.89994,"350": 1.15991,"375": 0.75995,"400": 0.63996,"425": 0.43998,"450": 0.47997,"475": 0.39998,"500": 0.45998,"525": 0.37998,"550": 0.35999,"575": 0.29999,"600": 0.25999,"625": 0.19999,"650": 0.06,"675": 0.12,"700": 0.08,"725": 0.06,"750": 0.02}}}