{"type": "Feature","id": "1390","bbox": [-71.24704,19.02561,-70.5477,19.6511],"geometry": {"type": "Polygon","coordinates": [[[-70.5477,19.51783,783.2275],[-70.6086,19.53612,681.4658],[-70.63798,19.5811,602.5542],[-70.65876,19.62872,425.9851],[-70.71214,19.6511,642.3237],[-70.71576,19.59237,763.343],[-70.76046,19.59043,824.5003],[-70.7827,19.60914,705.8038],[-70.80523,19.6273,611.4808],[-70.83296,19.63485,497.3906],[-70.86412,19.64175,568.995],[-70.87066,19.60826,287.0108],[-70.8852,19.57777,139.7672],[-70.91081,19.57459,122.5163],[-70.93564,19.59121,119.5357],[-70.93386,19.57111,106.3368],[-70.92585,19.55312,80.575],[-70.91138,19.54651,97.7443],[-70.89652,19.53783,103.7619],[-70.89745,19.51033,144.0969],[-70.9044,19.48155,303.7286],[-70.88159,19.46527,343.5436],[-70.88556,19.44755,357.429],[-70.92954,19.44729,409.2941],[-70.9708,19.46408,136.1191],[-70.97972,19.45344,167.7883],[-70.98918,19.44047,216.4146],[-71.00362,19.43866,219.4918],[-71.01827,19.44181,206.8197],[-71.04736,19.45344,393.7609],[-71.07517,19.46806,275.3514],[-71.08834,19.45101,149.8253],[-71.09049,19.43119,150.6085],[-71.07728,19.42233,155.0695],[-71.06871,19.41246,254.2662],[-71.10702,19.40019,324.231],[-71.1432,19.38386,274.5],[-71.16208,19.3829,413.1857],[-71.1809,19.38476,277.7122],[-71.19629,19.37507,425.4801],[-71.20862,19.36151,521.119],[-71.22686,19.34717,391.0131],[-71.24089,19.32898,502.642],[-71.24422,19.29872,585.4546],[-71.24704,19.26789,811.7823],[-71.24348,19.24686,882.7382],[-71.22694,19.23203,947.7657],[-71.22554,19.20159,1312.7256],[-71.23084,19.17017,1705.1123],[-71.19325,19.14914,2053.835],[-71.15237,19.1301,2444.0256],[-71.1357,19.12193,2613.6262],[-71.12715,19.1071,2284.6672],[-71.1241,19.0823,2422.2864],[-71.10509,19.06607,2365.4963],[-71.06054,19.03894,2214.8796],[-71.01543,19.02561,2685.7786],[-70.99248,19.03631,2789.7764],[-70.96807,19.04147,2583.4646],[-70.94212,19.0337,2508.0469],[-70.91621,19.02592,2196.6411],[-70.91182,19.04814,1748.0757],[-70.91918,19.0694,1714.944],[-70.89003,19.08307,1635.9838],[-70.85714,19.09661,1617.1655],[-70.7949,19.12514,1185.3082],[-70.74247,19.16281,687.6039],[-70.7303,19.18971,669.7062],[-70.70878,19.19084,634.7662],[-70.68253,19.18599,456.9086],[-70.68547,19.21477,619.053],[-70.67826,19.2488,351.3654],[-70.69403,19.275,322.0],[-70.72459,19.28304,322.0],[-70.74878,19.30058,343.8243],[-70.74165,19.32094,270.7669],[-70.71689,19.3275,256.1328],[-70.66666,19.35259,275.8309],[-70.6139,19.36884,188.22],[-70.59907,19.37936,174.2132],[-70.58367,19.39055,149.7686],[-70.58341,19.41261,173.2001],[-70.58625,19.43533,197.425],[-70.58052,19.46031,229.3432],[-70.56688,19.48171,463.0249],[-70.55194,19.4976,472.7827],[-70.5477,19.51783,783.2275]]]}
,"properties": {"ISO3166-1-Alpha-3": "DOM","country": "Dominican Republic","fill": "#00F","name": "Santiago","area_km2": 2797.868,"hist_schema_id": "Elevation0-9000","hist_area_km2": {"75": 4.276,"100": 31.952,"125": 59.77,"150": 81.266,"175": 113.73,"200": 121.412,"225": 94.546,"250": 71.218,"275": 57.907,"300": 47.611,"325": 62.837,"350": 58.815,"375": 65.515,"400": 69.573,"425": 75.333,"450": 77.632,"475": 72.194,"500": 65.038,"525": 70.762,"550": 66.086,"575": 56.967,"600": 52.731,"625": 52.813,"650": 50.058,"675": 49.12,"700": 47.601,"725": 45.102,"750": 41.062,"775": 39.023,"800": 38.066,"825": 36.506,"850": 32.066,"875": 30.165,"900": 26.383,"925": 23.981,"950": 22.16,"975": 21.541,"1000": 20.5,"1025": 19.88,"1050": 18.8,"1075": 20.541,"1100": 19.041,"1125": 19.541,"1150": 19.482,"1175": 20.083,"1200": 19.522,"1225": 18.422,"1250": 17.922,"1275": 18.663,"1300": 18.163,"1325": 17.382,"1350": 17.322,"1375": 17.102,"1400": 17.463,"1425": 15.841,"1450": 16.402,"1475": 14.52,"1500": 14.48,"1525": 14.04,"1550": 14.42,"1575": 14.661,"1600": 13.499,"1625": 12.879,"1650": 13.099,"1675": 12.418,"1700": 12.358,"1725": 12.699,"1750": 12.98,"1775": 12.299,"1800": 12.82,"1825": 12.74,"1850": 12.72,"1875": 11.819,"1900": 11.458,"1925": 11.559,"1950": 10.176,"1975": 9.636,"2000": 9.495,"2025": 9.796,"2050": 8.895,"2075": 8.735,"2100": 8.735,"2125": 8.033,"2150": 7.092,"2175": 7.513,"2200": 6.591,"2225": 6.231,"2250": 6.551,"2275": 5.85,"2300": 5.75,"2325": 5.39,"2350": 5.169,"2375": 4.328,"2400": 3.907,"2425": 3.246,"2450": 3.326,"2475": 3.066,"2500": 2.345,"2525": 1.884,"2550": 1.643,"2575": 1.443,"2600": 1.222,"2625": 1.162,"2650": 1.182,"2675": 0.902,"2700": 0.922,"2725": 0.561,"2750": 0.661,"2775": 0.521,"2800": 0.621,"2825": 0.421,"2850": 0.421,"2875": 0.321,"2900": 0.481,"2925": 0.341,"2950": 0.18,"2975": 0.22,"3000": 0.241,"3025": 0.16,"3050": 0.06,"3075": 0.08}}}