{"type":"Feature","properties":{"GID_1":"DOM.30_1","GID_0":"DOM","country":"DominicanRepublic","province":"Santiago","VARNAME_1":"SantiagodelosCaballeros","NL_NAME_1":"NA","TYPE_1":"Provincia","ENGTYPE_1":"Province","CC_1":"NA","HASC_1":"DO.ST","ISO_1":"DO-25","name":"Santiago.province"},
"geometry":{"type": "MultiPolygon","coordinates": [[[[-70.9229,19.0915,1921.4629],[-70.9131,19.0863,1712.9231],[-70.879,19.0833,1630.3801],[-70.8737,19.0844,1664.8236],[-70.8722,19.0916,1673.002],[-70.8696,19.0941,1705.6852],[-70.8594,19.0919,1611.7479],[-70.8481,19.0939,1670.136],[-70.8408,19.0928,1630.6226],[-70.8303,19.1037,1392.3083],[-70.8085,19.1185,1386.4973],[-70.8012,19.1306,1115.183],[-70.7947,19.1333,1002.1354],[-70.7858,19.1309,985.5087],[-70.7749,19.1314,884.6647],[-70.7666,19.1379,829.7213],[-70.7591,19.1406,772.4293],[-70.7554,19.147,778.1611],[-70.7452,19.1482,732.2455],[-70.7305,19.1581,708.469],[-70.7161,19.1624,751.6594],[-70.7148,19.1775,715.1631],[-70.7098,19.1876,675.8422],[-70.7107,19.1905,651.3983],[-70.7146,19.1937,648.7194],[-70.7151,19.1968,632.0944],[-70.7137,19.1999,634.1788],[-70.7092,19.2033,668.9111],[-70.7045,19.2022,701.2478],[-70.6985,19.1942,677.1987],[-70.6932,19.1908,653.4683],[-70.6905,19.1807,491.1428],[-70.6854,19.1751,602.9941],[-70.6813,19.1739,591.6414],[-70.675,19.1769,493.5894],[-70.6647,19.1866,500.0657],[-70.6647,19.1894,475.7195],[-70.6728,19.1986,503.474],[-70.6715,19.2131,578.124],[-70.6734,19.2164,513.0117],[-70.6706,19.2257,645.3917],[-70.6735,19.2334,562.3804],[-70.6684,19.2403,513.9286],[-70.671,19.2446,353.7182],[-70.6766,19.2487,357.3407],[-70.672,19.2576,398.987],[-70.6858,19.265,322.0],[-70.6941,19.2664,335.6169],[-70.7013,19.271,322.0],[-70.7097,19.2723,329.4666],[-70.7182,19.2828,322.0],[-70.7103,19.29,326.0091],[-70.707,19.2907,370.0894],[-70.7,19.2862,376.4221],[-70.6829,19.282,443.739],[-70.6756,19.2743,402.1416],[-70.668,19.2744,443.1676],[-70.6659,19.277,470.3176],[-70.6667,19.2823,429.0294],[-70.6631,19.2881,413.3432],[-70.665,19.3035,419.5685],[-70.6675,19.3101,399.1867],[-70.667,19.319,373.7937],[-70.6595,19.3292,324.1732],[-70.647,19.3337,277.1141],[-70.6383,19.3399,262.2634],[-70.6326,19.3502,252.0171],[-70.6317,19.3605,213.3548],[-70.6288,19.3656,206.5788],[-70.6128,19.3642,199.7988],[-70.6067,19.367,204.6441],[-70.604,19.3734,189.7305],[-70.599,19.3775,181.5688],[-70.5895,19.3802,177.3923],[-70.5814,19.3778,179.5091],[-70.5761,19.3791,188.1328],[-70.5811,19.3892,145.9844],[-70.5829,19.3952,164.5586],[-70.5819,19.4014,167.2275],[-70.5866,19.4091,173.9544],[-70.5859,19.4151,177.454],[-70.5903,19.4237,175.9688],[-70.5868,19.4295,190.5227],[-70.5758,19.438,203.1372],[-70.5755,19.458,223.2307],[-70.5784,19.4677,234.5289],[-70.5782,19.4728,242.6139],[-70.5753,19.4762,307.1082],[-70.5699,19.4786,401.3875],[-70.548,19.4861,555.4922],[-70.5398,19.5074,700.7711],[-70.5405,19.5089,698.083],[-70.5573,19.5207,791.1835],[-70.5668,19.5254,705.8079],[-70.5716,19.5326,897.7814],[-70.5827,19.5334,663.1812],[-70.5904,19.5358,682.2281],[-70.6127,19.5366,716.7982],[-70.6194,19.5431,694.0929],[-70.6211,19.5532,550.6303],[-70.6287,19.5596,653.066],[-70.6284,19.5641,598.0908],[-70.6232,19.5696,483.1424],[-70.6229,19.576,468.6077],[-70.6241,19.5816,436.6344],[-70.6285,19.5878,431.7565],[-70.6292,19.5994,625.8282],[-70.6307,19.6026,676.6006],[-70.6369,19.6092,780.858],[-70.6577,19.6129,533.5867],[-70.665,19.6174,439.5561],[-70.6738,19.6191,380.3291],[-70.6813,19.631,473.7968],[-70.6916,19.6404,447.797],[-70.6972,19.6404,483.5725],[-70.7033,19.6353,457.3265],[-70.7016,19.6268,502.4451],[-70.7057,19.6164,837.7451],[-70.6986,19.6042,517.3723],[-70.7045,19.5893,653.6573],[-70.7178,19.5798,785.6288],[-70.739,19.5706,963.1503],[-70.7444,19.5738,1055.4717],[-70.7453,19.5839,1059.0432],[-70.7478,19.5877,1070.8561],[-70.7518,19.5902,1126.8131],[-70.7604,19.5889,774.5791],[-70.766,19.5913,751.9408],[-70.7842,19.6139,743.0347],[-70.7987,19.6241,566.7771],[-70.8065,19.6269,557.6566],[-70.8116,19.6225,527.0449],[-70.817,19.6222,476.853],[-70.8255,19.6298,575.9872],[-70.8364,19.6332,477.4741],[-70.8471,19.6319,496.1806],[-70.8611,19.6384,600.9911],[-70.8701,19.64,525.8358],[-70.8822,19.6468,721.2233],[-70.8885,19.6474,773.8558],[-70.8908,19.6435,804.7818],[-70.8903,19.6388,711.1631],[-70.8811,19.6197,303.3854],[-70.8764,19.6135,280.4085],[-70.8729,19.5973,224.2381],[-70.873,19.59,189.2334],[-70.8782,19.5733,127.1854],[-70.8791,19.5649,126.1183],[-70.8834,19.5603,117.0135],[-70.885,19.5561,114.4596],[-70.8877,19.5553,107.0914],[-70.9016,19.5653,111.6828],[-70.9133,19.5762,124.3246],[-70.9195,19.5773,134.0816],[-70.923,19.5744,120.1237],[-70.9231,19.5707,114.754],[-70.916,19.5685,107.8133],[-70.9149,19.566,105.7499],[-70.9249,19.551,81.7151],[-70.9211,19.546,99.1054],[-70.919,19.5384,108.5759],[-70.9155,19.5384,106.9622],[-70.9124,19.5421,85.3928],[-70.9097,19.5426,84.1929],[-70.9063,19.5367,100.7843],[-70.8993,19.5367,108.0611],[-70.8949,19.5313,110.6206],[-70.8889,19.5312,110.9165],[-70.8858,19.5276,112.1998],[-70.8913,19.5069,152.5697],[-70.8991,19.4917,205.6574],[-70.8994,19.4752,382.6083],[-70.8939,19.4623,224.8345],[-70.8874,19.4593,229.315],[-70.8762,19.4573,280.8163],[-70.8755,19.4455,428.2474],[-70.8768,19.4411,494.3031],[-70.8795,19.4401,493.9162],[-70.8878,19.4441,479.3655],[-70.8916,19.4443,464.5766],[-70.8947,19.4401,427.1447],[-70.9006,19.4373,453.3286],[-70.9039,19.4312,423.0175],[-70.9111,19.4305,415.8881],[-70.9148,19.4315,334.2516],[-70.9275,19.4417,373.9182],[-70.9384,19.4472,389.416],[-70.9461,19.4478,309.7975],[-70.953,19.4463,232.7335],[-70.9652,19.4478,136.7313],[-70.9676,19.4467,157.6642],[-70.9761,19.4317,182.4008],[-70.9839,19.4259,202.8303],[-70.9879,19.4307,216.9571],[-70.9891,19.4387,246.9834],[-70.9916,19.4436,290.7303],[-70.9978,19.4476,415.9686],[-71.0105,19.4478,146.8087],[-71.014,19.4432,183.7661],[-71.0295,19.4375,210.9873],[-71.0373,19.4411,253.7194],[-71.0514,19.4534,394.8493],[-71.0621,19.4567,327.7059],[-71.0699,19.4555,223.4167],[-71.0762,19.4526,184.4734],[-71.0799,19.4471,158.159],[-71.0858,19.4451,164.9321],[-71.0865,19.442,137.2647],[-71.0811,19.4386,208.579],[-71.0756,19.4287,213.9284],[-71.0761,19.4255,157.1842],[-71.0801,19.4206,171.0072],[-71.0797,19.4183,170.73],[-71.0651,19.4174,258.0554],[-71.0631,19.4152,290.1297],[-71.0639,19.4125,258.3536],[-71.0759,19.4067,280.9776],[-71.0918,19.406,289.4638],[-71.1051,19.4,265.7607],[-71.109,19.3963,364.6351],[-71.1083,19.3897,384.9959],[-71.1112,19.3845,430.1322],[-71.116,19.3823,298.4787],[-71.1252,19.3834,274.5],[-71.1341,19.3766,367.8112],[-71.1417,19.3751,379.1721],[-71.1417,19.369,399.9287],[-71.1451,19.3646,505.1116],[-71.1552,19.3627,401.2493],[-71.1614,19.3651,314.4338],[-71.1639,19.3689,312.8313],[-71.1645,19.3783,373.7024],[-71.1679,19.3811,398.0844],[-71.171,19.3803,308.7354],[-71.1785,19.3739,491.7966],[-71.1871,19.3753,400.0254],[-71.1929,19.3729,463.3743],[-71.1981,19.368,514.0978],[-71.2069,19.3631,568.4296],[-71.2098,19.3545,502.5124],[-71.2167,19.3522,557.8903],[-71.2129,19.3345,607.6989],[-71.2136,19.3324,671.5669],[-71.2164,19.3309,677.8633],[-71.2248,19.3309,474.7328],[-71.2276,19.3332,419.2578],[-71.2311,19.3332,510.9482],[-71.2362,19.323,693.1941],[-71.2407,19.3186,558.8005],[-71.2403,19.3132,511.8129],[-71.2308,19.2999,699.2964],[-71.2352,19.2872,707.0385],[-71.2355,19.2777,822.2902],[-71.2348,19.272,833.1609],[-71.2299,19.2612,896.5201],[-71.2337,19.2554,862.8728],[-71.2441,19.2573,911.3992],[-71.2465,19.2554,942.8723],[-71.247,19.2528,914.2907],[-71.235,19.2365,891.5399],[-71.2276,19.2341,1114.282],[-71.2255,19.2265,1064.3462],[-71.2182,19.2207,1245.132],[-71.2176,19.2132,1262.5295],[-71.2198,19.2058,1226.7358],[-71.213,19.1993,1539.8523],[-71.2093,19.1925,1618.8857],[-71.2068,19.1718,1867.7139],[-71.1955,19.1727,2012.1982],[-71.1864,19.1685,2019.9688],[-71.1801,19.1625,2077.7922],[-71.1776,19.1574,2214.4915],[-71.1788,19.1504,2432.1479],[-71.1777,19.1477,2447.2917],[-71.1475,19.1327,2462.8257],[-71.1395,19.1197,2402.8638],[-71.1238,19.1112,2347.5027],[-71.1195,19.0925,2255.3972],[-71.1217,19.0767,2612.9526],[-71.1113,19.0638,2386.8608],[-71.0904,19.0523,2350.8835],[-71.0817,19.056,2312.0266],[-71.0597,19.0498,2541.2546],[-71.0405,19.0347,2262.2683],[-71.0394,19.0302,2423.3013],[-71.0417,19.0233,2530.6235],[-71.0383,19.0198,2402.7043],[-71.0222,19.0173,2371.687],[-71.0145,19.0218,2413.3218],[-70.9962,19.0251,3030.1194],[-70.9926,19.024,2880.5547],[-70.9913,19.018,2860.407],[-70.9886,19.0171,2778.3442],[-70.9765,19.03,2363.699],[-70.9505,19.04,2834.8569],[-70.9448,19.0537,2185.4739],[-70.9468,19.062,2140.3677],[-70.9426,19.0698,1890.4941],[-70.9441,19.0764,1933.5496],[-70.9435,19.0836,1877.1918],[-70.9367,19.0918,1923.7395],[-70.9229,19.0915,1921.4629]]]]}}