{"type":"Feature","properties":{"GID_2":"DOM.2.3_1","GID_0":"DOM","country":"DominicanRepublic","GID_1":"DOM.2_1","province":"Bahoruco","NL_NAME_1":"NA","county":"Neyba","VARNAME_2":"NA","NL_NAME_2":"NA","TYPE_2":"Municipio","ENGTYPE_2":"Municipality","CC_2":"NA","HASC_2":"DO.BR.NE","name":"Neyba.county"},
"geometry":{"type": "MultiPolygon","coordinates": [[[[-71.343,18.589,1367.1794],[-71.3469,18.5877,1423.1609],[-71.3537,18.5896,1580.5394],[-71.3602,18.5885,1356.235],[-71.3665,18.5921,1582.0822],[-71.3767,18.5942,1686.9224],[-71.3806,18.5971,1764.4998],[-71.3824,18.6078,1575.3583],[-71.3901,18.611,1541.5117],[-71.3942,18.6148,1576.8613],[-71.3971,18.6145,1527.9407],[-71.4108,18.6055,1529.1641],[-71.4166,18.6098,1633.8096],[-71.4253,18.6206,1448.066],[-71.4366,18.6219,1578.0322],[-71.4481,18.627,1904.8496],[-71.4545,18.6269,1725.3203],[-71.4643,18.6229,1511.6493],[-71.471,18.6242,1880.485],[-71.4784,18.6223,1891.9749],[-71.4835,18.6248,2015.9849],[-71.4879,18.6145,1281.2039],[-71.4877,18.5995,967.3686],[-71.4856,18.5972,905.8395],[-71.4822,18.5969,996.6433],[-71.4744,18.6036,1040.5938],[-71.4718,18.6042,981.9675],[-71.4635,18.5955,1055.5081],[-71.4638,18.5796,956.6301],[-71.4584,18.5736,713.8823],[-71.4473,18.5655,1110.1531],[-71.4352,18.5366,541.7429],[-71.4344,18.5319,390.5164],[-71.4352,18.5258,259.7827],[-71.4426,18.5147,161.6268],[-71.4564,18.483,7.0069],[-71.4682,18.4674,-34.4244],[-71.4765,18.4666,-37.0],[-71.4789,18.4648,-37.0],[-71.4761,18.4518,-35.9634],[-71.4789,18.4425,-34.8196],[-71.4724,18.4295,-32.3162],[-71.4684,18.4254,-32.5557],[-71.4583,18.4214,-29.4897],[-71.4466,18.4234,-27.5549],[-71.4325,18.4176,-24.7979],[-71.4219,18.4274,-23.2519],[-71.4135,18.4327,-19.7792],[-71.3916,18.4531,-10.0172],[-71.3757,18.4588,-2.5648],[-71.3755,18.4624,1.8012],[-71.3781,18.4697,3.49],[-71.3786,18.4957,188.595],[-71.3852,18.4973,181.8779],[-71.3999,18.4943,70.9708],[-71.4094,18.4948,76.7678],[-71.4107,18.4987,92.6898],[-71.4082,18.5044,117.5534],[-71.4075,18.516,278.7119],[-71.4052,18.519,312.9099],[-71.3906,18.5269,487.3481],[-71.3749,18.5196,212.6629],[-71.3649,18.5198,160.4498],[-71.3573,18.5221,162.5139],[-71.347,18.5196,112.6909],[-71.3395,18.5246,132.3183],[-71.3379,18.5285,161.8529],[-71.3449,18.5412,343.0733],[-71.3341,18.5675,615.3821],[-71.3335,18.5757,909.7233],[-71.3373,18.5846,1106.1505],[-71.343,18.589,1367.1794]]]]}}