{"type":"Feature","properties":{"GID_2":"DOM.18.2_1","GID_0":"DOM","country":"DominicanRepublic","GID_1":"DOM.18_1","province":"MontePlata","NL_NAME_1":"NA","county":"Esperalvillo","VARNAME_2":"NA","NL_NAME_2":"NA","TYPE_2":"Distritomunicipal","ENGTYPE_2":"Municipaldistrict","CC_2":"NA","HASC_2":"DO.MP.ES","name":"Esperalvillo.county"},
"geometry":{"type": "MultiPolygon","coordinates": [[[[-69.9915,18.8865,162.4533],[-69.9958,18.8891,176.2865],[-70.0001,18.907,235.3463],[-70.0105,18.9127,357.7702],[-70.0113,18.9076,233.1571],[-70.0183,18.9016,159.8364],[-70.0217,18.8954,215.5506],[-70.0233,18.8848,210.9613],[-70.0263,18.8847,247.6254],[-70.0323,18.8891,217.5812],[-70.0366,18.8892,212.757],[-70.0407,18.8865,175.3519],[-70.0461,18.8791,147.8099],[-70.0525,18.8759,146.595],[-70.0617,18.8763,144.7704],[-70.0708,18.8877,233.9089],[-70.0753,18.8893,238.3271],[-70.0873,18.8814,234.4874],[-70.0907,18.8819,235.2866],[-70.0971,18.887,222.7761],[-70.101,18.8868,265.6462],[-70.1058,18.8843,274.7579],[-70.1085,18.8865,292.4863],[-70.1109,18.8863,285.4922],[-70.1112,18.884,311.098],[-70.1088,18.8815,314.3304],[-70.1089,18.8718,306.8372],[-70.1121,18.8658,342.9775],[-70.1144,18.8646,370.9232],[-70.1281,18.8668,321.5565],[-70.1369,18.865,276.8176],[-70.1429,18.8697,399.9387],[-70.1523,18.8722,363.8743],[-70.1436,18.8559,200.8815],[-70.1335,18.8453,243.1383],[-70.1347,18.8382,174.7534],[-70.1312,18.834,333.1817],[-70.1312,18.827,154.1416],[-70.1225,18.8206,186.7007],[-70.1185,18.8151,137.3492],[-70.1101,18.8111,194.1686],[-70.0903,18.8107,136.2715],[-70.08,18.8076,137.8586],[-70.0734,18.8003,310.152],[-70.0672,18.7977,269.7506],[-70.0574,18.8016,255.4977],[-70.0487,18.7996,251.9589],[-70.0417,18.8018,227.4156],[-70.0302,18.8023,132.6233],[-70.0196,18.8064,112.4868],[-70.0122,18.8069,173.7019],[-70.0066,18.8053,209.677],[-70.0046,18.8064,146.0391],[-70.0021,18.8111,141.1559],[-70.0011,18.8213,104.9755],[-69.9912,18.8342,135.543],[-69.9826,18.8423,99.9246],[-69.9747,18.845,96.215],[-69.9706,18.8482,71.255],[-69.9833,18.8556,64.3511],[-69.9844,18.8713,112.9867],[-69.9876,18.8805,135.3036],[-69.9915,18.8865,162.4533]]]]}}