{"type":"Feature","properties":{"GID_2":"CUB.6.4_1","GID_0":"CUB","country":"Cuba","GID_1":"CUB.6_1","province":"Guantánamo","NL_NAME_1":"NA","county":"Guantánamo","VARNAME_2":"NA","NL_NAME_2":"NA","TYPE_2":"Municipio","ENGTYPE_2":"Municipality","CC_2":"NA","HASC_2":"CU.GU.GU","name":"Guantánamo.county"},
"geometry":{"type": "MultiPolygon","coordinates": [[[[-75.0918,20.051,1.9392],[-75.0918,20.0505,1.9392],[-75.0916,20.051,1.9392],[-75.0918,20.051,1.9392]]],
[[[-75.1353,20.079,6.8998],[-75.1169,20.0554,1.0279],[-75.1096,20.0596,1.9518],[-75.099,20.0593,2.5863],[-75.0935,20.0582,1.8123],[-75.0915,20.0557,2.4648],[-75.0915,20.0512,1.9392],[-75.0767,20.0842,19.6097],[-75.0747,20.1097,40.8814],[-75.0687,20.125,63.1751],[-75.0654,20.146,88.3562],[-75.0367,20.1775,241.8664],[-75.0374,20.1829,220.1062],[-75.0424,20.1886,190.7624],[-75.064,20.2014,295.1078],[-75.0683,20.2159,286.1346],[-75.0579,20.257,704.6116],[-75.0374,20.2686,626.2712],[-75.0456,20.2759,440.2314],[-75.0868,20.2953,541.0762],[-75.0948,20.3082,689.1138],[-75.0947,20.3432,858.3929],[-75.079,20.3875,698.7076],[-75.0774,20.4185,735.121],[-75.0702,20.4405,484.8517],[-75.0704,20.4668,694.9235],[-75.1161,20.5068,402.2247],[-75.1316,20.5062,289.0195],[-75.146,20.5158,203.6187],[-75.1538,20.5186,107.7182],[-75.161,20.518,138.8574],[-75.1788,20.5021,97.0524],[-75.1973,20.4751,378.0078],[-75.2055,20.4599,193.3967],[-75.2074,20.4405,282.1467],[-75.2101,20.4316,348.7235],[-75.2162,20.4265,365.4081],[-75.2243,20.4264,466.6157],[-75.2309,20.429,330.8178],[-75.2419,20.4407,315.5948],[-75.2439,20.4408,336.1202],[-75.2448,20.4335,167.4668],[-75.2504,20.4187,224.7551],[-75.2349,20.3835,213.0304],[-75.233,20.3057,773.1175],[-75.2176,20.2726,479.4546],[-75.2502,20.2032,83.4402],[-75.251,20.1833,68.8206],[-75.258,20.164,156.8716],[-75.2589,20.1285,61.15],[-75.2656,20.1112,61.5402],[-75.2666,20.0975,37.391],[-75.2634,20.0866,22.549],[-75.242,20.0561,28.1515],[-75.2337,20.0365,11.3175],[-75.2083,20.0615,36.6603],[-75.1789,20.0797,17.6208],[-75.1644,20.0819,11.2531],[-75.1451,20.0817,7.6499],[-75.1353,20.079,6.8998]]]]}}