{"type":"Feature","properties":{"GID_2":"CUB.10.2_1","GID_0":"CUB","country":"Cuba","GID_1":"CUB.10_1","province":"LasTunas","NL_NAME_1":"NA","county":"Colombia","VARNAME_2":"NA","NL_NAME_2":"NA","TYPE_2":"Municipio","ENGTYPE_2":"Municipality","CC_2":"NA","HASC_2":"CU.LT.CO","name":"Colombia.county"},
"geometry":{"type": "MultiPolygon","coordinates": [[[[-77.4371,20.6201,1.793],[-77.4382,20.6204,0.0],[-77.4388,20.616,1.3729],[-77.4418,20.6165,1.4252],[-77.4388,20.614,0.5993],[-77.4351,20.6138,1.8061],[-77.4343,20.6176,1.2627],[-77.4371,20.6201,1.793]]],
[[[-77.4443,20.6199,0.0],[-77.4454,20.6204,0.0],[-77.4432,20.6182,0.0],[-77.4429,20.6188,0.0],[-77.4443,20.6199,0.0]]],
[[[-77.4435,20.6376,0.2751],[-77.4476,20.6382,0.0],[-77.4457,20.6368,1.7785],[-77.4454,20.6307,0.5787],[-77.4435,20.6354,0.3195],[-77.441,20.6343,1.0025],[-77.4385,20.6262,0.0],[-77.439,20.6226,0.0],[-77.4376,20.6224,0.0],[-77.4371,20.6251,0.0],[-77.4399,20.6335,0.7046],[-77.4435,20.6376,0.2751]]],
[[[-77.4457,20.6293,0.0],[-77.449,20.6262,0.0],[-77.4471,20.621,0.0],[-77.4465,20.6215,0.0],[-77.4482,20.6262,0.0],[-77.4457,20.6293,0.0]]],
[[[-77.4518,20.6399,0.765],[-77.4535,20.6388,0.817],[-77.4515,20.6368,0.0],[-77.4501,20.6385,0.0],[-77.4518,20.6399,0.765]]],
[[[-77.4504,20.6449,1.0793],[-77.4515,20.6457,0.0],[-77.4521,20.6426,1.19],[-77.4501,20.6435,0.0],[-77.4504,20.6449,1.0793]]],
[[[-77.4885,20.9753,60.6431],[-77.5059,20.9819,71.9357],[-77.5078,20.9324,57.699],[-77.5297,20.89,45.8371],[-77.532,20.8799,37.7924],[-77.5309,20.8205,24.4861],[-77.5076,20.7762,17.3052],[-77.5056,20.7669,17.7327],[-77.5154,20.727,11.4857],[-77.546,20.6887,0.0],[-77.5396,20.6893,1.5687],[-77.5379,20.6876,0.4323],[-77.5193,20.6835,0.0],[-77.5062,20.6782,0.4538],[-77.4957,20.6712,0.0],[-77.4943,20.6724,0.0],[-77.4926,20.6693,0.0],[-77.4882,20.6712,1.4362],[-77.4885,20.6696,0.0],[-77.4835,20.671,0.9446],[-77.4735,20.6688,0.0],[-77.4651,20.6771,0.626],[-77.4651,20.681,3.653],[-77.4587,20.6849,1.3846],[-77.4504,20.6813,0.0],[-77.4449,20.6815,0.0],[-77.4362,20.689,0.7769],[-77.431,20.6915,0.0],[-77.4296,20.6951,0.0],[-77.4221,20.696,0.6236],[-77.4218,20.694,0.0],[-77.4196,20.6929,0.0],[-77.4154,20.6949,0.0],[-77.4107,20.694,0.0],[-77.4088,20.6974,0.0],[-77.4035,20.7007,1.7198],[-77.3989,20.7012,0.0],[-77.4002,20.7522,12.4591],[-77.3931,20.772,16.4992],[-77.3921,20.7917,21.4275],[-77.3935,20.8113,23.5871],[-77.4012,20.8334,25.7318],[-77.4013,20.8741,37.6418],[-77.3915,20.9129,60.0787],[-77.3679,20.9605,64.3277],[-77.3724,20.9672,76.4818],[-77.3713,20.9773,67.1081],[-77.3603,20.9892,69.4615],[-77.3573,20.9945,72.0325],[-77.3559,21.0055,75.4185],[-77.3585,21.0107,78.5803],[-77.3625,21.0133,86.7918],[-77.371,21.015,84.6598],[-77.3986,21.0138,70.3658],[-77.4043,21.0161,65.7744],[-77.4068,21.0193,67.4218],[-77.4109,21.0417,86.1856],[-77.4172,21.0507,78.0],[-77.4216,21.0548,78.0],[-77.4313,21.0594,83.761],[-77.4447,21.059,84.2804],[-77.4499,21.0512,87.8967],[-77.4573,21.027,83.2822],[-77.4695,21.0139,84.3829],[-77.4704,21.0085,78.5709],[-77.4655,20.993,73.4262],[-77.4668,20.9788,73.4047],[-77.4702,20.9746,67.1797],[-77.4733,20.9737,64.5082],[-77.4885,20.9753,60.6431]]]]}}