{"type":"Feature","properties":{"GID_1":"JAM.1_1","GID_0":"JAM","country":"Jamaica","province":"Clarendon","VARNAME_1":"NA","NL_NAME_1":"NA","TYPE_1":"Parish","ENGTYPE_1":"Parish","CC_1":"NA","HASC_1":"JM.CL","ISO_1":"JM-13","name":"Clarendon.province"},
"geometry":{"type": "MultiPolygon","coordinates": [[[[-77.1357,17.8332,0.0],[-77.1393,17.8329,1.0868],[-77.141,17.8285,0.0],[-77.1363,17.8274,0.0],[-77.1357,17.8332,0.0]]],
[[[-77.1485,17.8457,0.3502],[-77.1457,17.8471,0.0],[-77.1446,17.8499,0.0],[-77.1504,17.8476,0.0],[-77.151,17.8457,0.0],[-77.1485,17.8457,0.3502]]],
[[[-77.179,18.1176,438.2617],[-77.2121,18.1907,502.368],[-77.2203,18.1912,472.806],[-77.2291,18.1866,560.8801],[-77.2391,18.1854,556.6346],[-77.2428,18.183,583.974],[-77.2465,18.1857,619.3497],[-77.2523,18.1872,623.6503],[-77.2656,18.1998,699.4583],[-77.2756,18.1929,710.4434],[-77.2785,18.1925,715.7894],[-77.3552,18.2074,543.5793],[-77.3581,18.211,547.8733],[-77.3709,18.218,547.0774],[-77.3796,18.2151,551.8931],[-77.3896,18.215,553.1114],[-77.408,18.2098,565.973],[-77.4286,18.1919,607.7468],[-77.4372,18.1901,604.3744],[-77.4452,18.1937,621.6575],[-77.4488,18.191,643.1071],[-77.4639,18.195,753.6914],[-77.4735,18.2028,668.4256],[-77.4798,18.2015,723.4554],[-77.4873,18.2024,745.5046],[-77.3922,18.0218,137.7527],[-77.3868,18.0149,135.4192],[-77.3837,18.0047,112.6315],[-77.3821,17.9928,79.1128],[-77.3835,17.9822,62.0669],[-77.3856,17.9805,77.9265],[-77.3889,17.9637,127.0714],[-77.3769,17.9259,163.9992],[-77.3609,17.9087,65.4335],[-77.3591,17.8925,64.8911],[-77.3662,17.8659,45.4634],[-77.3708,17.8635,82.8618],[-77.372,17.8608,193.3829],[-77.3809,17.8613,248.9489],[-77.3921,17.8644,23.5016],[-77.4004,17.8627,4.5754],[-77.4018,17.8604,0.0],[-77.3965,17.8593,11.0994],[-77.3921,17.8535,0.0],[-77.3804,17.8485,1.3776],[-77.3793,17.8454,0.0],[-77.3754,17.8424,4.061],[-77.3562,17.8374,3.7372],[-77.3251,17.8199,0.0],[-77.3193,17.8126,0.857],[-77.3129,17.8088,7.2179],[-77.3051,17.7979,0.0],[-77.2921,17.7876,0.0],[-77.2899,17.7787,0.0],[-77.2868,17.7796,0.0],[-77.2865,17.7879,1.5985],[-77.286,17.7779,0.122],[-77.2693,17.7735,0.0967],[-77.2626,17.769,0.5469],[-77.261,17.766,0.217],[-77.2618,17.7626,0.0263],[-77.2596,17.759,0.0],[-77.2549,17.754,0.0],[-77.2524,17.7535,-0.0333],[-77.2501,17.7493,0.105],[-77.2526,17.7438,0.2874],[-77.2393,17.7438,0.0501],[-77.2371,17.7407,0.0],[-77.2351,17.741,4.7537],[-77.2271,17.7357,1.4333],[-77.219,17.7249,0.0],[-77.2143,17.7235,0.8029],[-77.2138,17.7213,0.0],[-77.2057,17.7179,2.6318],[-77.2015,17.7143,0.2412],[-77.1937,17.7132,0.0],[-77.1857,17.7085,0.0],[-77.1785,17.7065,1.2012],[-77.1643,17.7057,3.0514],[-77.1487,17.709,6.8722],[-77.1382,17.7151,0.0],[-77.1274,17.7265,3.8928],[-77.1276,17.7313,6.2906],[-77.1254,17.7332,5.2492],[-77.1249,17.739,0.0],[-77.126,17.7421,0.0],[-77.1335,17.7451,-0.5236],[-77.1449,17.7535,0.1516],[-77.1438,17.7599,0.3928],[-77.139,17.7643,0.0],[-77.139,17.7671,0.0],[-77.1482,17.7701,1.2905],[-77.1493,17.7718,0.7721],[-77.1557,17.7713,0.6426],[-77.1571,17.7732,0.0],[-77.1593,17.7729,0.0],[-77.1615,17.7768,0.0],[-77.1635,17.7765,0.5405],[-77.1687,17.7813,0.1637],[-77.1696,17.7843,0.0],[-77.174,17.7854,1.0045],[-77.1738,17.7829,1.1215],[-77.176,17.7815,0.8558],[-77.1751,17.786,0.9282],[-77.1701,17.7857,0.0],[-77.1604,17.7921,0.0879],[-77.1735,17.8026,0.0],[-77.174,17.8101,0.0],[-77.1707,17.8174,0.3604],[-77.1674,17.8185,0.0],[-77.1646,17.8171,1.0809],[-77.159,17.8174,0.2243],[-77.154,17.8143,0.3318],[-77.1479,17.8143,0.762],[-77.1482,17.816,0.0],[-77.1535,17.8157,0.0],[-77.1582,17.8188,0.215],[-77.1629,17.8182,0.4717],[-77.1582,17.8204,0.215],[-77.1524,17.8179,0.0],[-77.1479,17.8182,0.1774],[-77.146,17.8154,0.8777],[-77.1468,17.8135,0.0],[-77.1429,17.8121,1.2961],[-77.1407,17.8132,0.386],[-77.1418,17.8165,3.9978],[-77.1401,17.8201,0.0],[-77.1471,17.8196,0.6127],[-77.1504,17.821,0.0],[-77.1524,17.8196,0.197],[-77.1621,17.824,0.0],[-77.1615,17.8257,0.7932],[-77.1554,17.8251,0.0],[-77.1546,17.8262,0.0],[-77.1557,17.8282,0.0],[-77.1596,17.8276,0.2107],[-77.1624,17.8299,5.1984],[-77.1618,17.8332,0.0],[-77.1635,17.8379,0.4752],[-77.1549,17.8487,0.0],[-77.154,17.8599,0.0],[-77.1526,17.8624,3.1029],[-77.1504,17.8624,1.0187],[-77.1504,17.8699,3.1557],[-77.149,17.8726,3.9265],[-77.1379,17.8835,0.0],[-77.1422,17.8889,1.9942],[-77.1404,17.8907,2.2716],[-77.1406,17.8945,2.6811],[-77.1377,17.8951,3.6959],[-77.1436,17.9021,7.0037],[-77.1429,17.9076,9.0395],[-77.1456,17.9164,12.411],[-77.1431,17.9265,25.9517],[-77.1451,17.9325,38.862],[-77.1449,17.9433,37.486],[-77.1403,17.9472,38.8283],[-77.1562,17.9753,220.6078],[-77.1649,17.9992,329.6929],[-77.1648,18.0163,413.2542],[-77.1599,18.0265,414.2983],[-77.159,18.0336,391.1669],[-77.1633,18.0422,450.2949],[-77.1632,18.0472,595.1768],[-77.1686,18.0511,566.3632],[-77.1727,18.0588,429.9727],[-77.1758,18.0606,346.0739],[-77.1802,18.0588,501.5775],[-77.1864,18.062,317.1784],[-77.1845,18.0711,387.5144],[-77.1858,18.0879,406.3324],[-77.1811,18.098,498.9828],[-77.1815,18.1022,439.7321],[-77.1849,18.1073,303.9849],[-77.179,18.1113,321.7504],[-77.179,18.1176,438.2617]]]]}}