{"type":"Feature","properties":{"ISO3166-1-Alpha-3":"JAM","country":"Jamaica","fill":"#F0F","id":"1370","name":"Clarendon"},
"geometry":{"type": "Polygon","coordinates": [[[-77.21086,18.1861,639.9496],[-77.30137,18.18726,697.8782],[-77.35044,18.19584,541.3612],[-77.36969,18.20318,604.4215],[-77.37483,18.20398,698.8264],[-77.37897,18.20406,777.0151],[-77.41287,18.19672,606.3256],[-77.41529,18.19561,623.8783],[-77.42227,18.19036,576.1473],[-77.42602,18.18835,622.3057],[-77.43315,18.18556,679.1759],[-77.43788,18.18473,625.8549],[-77.44222,18.18455,649.9373],[-77.46764,18.18871,748.8356],[-77.49116,18.1961,839.3086],[-77.48878,18.18122,769.8249],[-77.37992,17.96877,47.2465],[-77.38132,17.96312,46.2885],[-77.38411,17.95524,51.1848],[-77.38442,17.95038,46.5197],[-77.38393,17.94363,77.3808],[-77.38171,17.93007,186.5863],[-77.37995,17.92402,195.0918],[-77.37824,17.91971,150.9382],[-77.37359,17.91384,158.9748],[-77.36217,17.90441,91.2078],[-77.35995,17.9009,85.7208],[-77.35897,17.89756,50.0818],[-77.35938,17.89441,52.8009],[-77.36532,17.87578,28.0895],[-77.36734,17.86356,38.589],[-77.36845,17.86098,162.2898],[-77.3701,17.85912,238.1622],[-77.37217,17.85772,310.0269],[-77.37481,17.85718,331.5591],[-77.37791,17.85702,303.181],[-77.3868,17.85806,216.5479],[-77.38972,17.8572,177.033],[-77.39173,17.85594,69.8393],[-77.39457,17.85338,0.0],[-77.39458,17.85337,0.0],[-77.32087,17.81245,0.0],[-77.30289,17.79084,0.0],[-77.21605,17.7167,0.0],[-77.19758,17.7082,0.0],[-77.17894,17.70417,0.0],[-77.15811,17.70319,0.0],[-77.13366,17.71044,0.0],[-77.1306,17.72769,15.1771],[-77.14074,17.76529,0.2412],[-77.16088,17.75943,0.3351],[-77.18033,17.75788,1.0373],[-77.19888,17.76179,6.0348],[-77.21646,17.77212,0.1431],[-77.20678,17.77985,0.0],[-77.19636,17.78339,0.0],[-77.18562,17.7829,0.0],[-77.17492,17.77827,0.7785],[-77.17736,17.78461,0.1671],[-77.17911,17.79475,-0.2512],[-77.18171,17.79999,0.229],[-77.17439,17.80292,0.0],[-77.16169,17.81029,0.0],[-77.15441,17.81306,0.0],[-77.16198,17.84077,2.0792],[-77.15808,17.84987,1.8379],[-77.14165,17.88113,0.7201],[-77.1346,17.8851,0.0],[-77.13929,17.93294,25.0561],[-77.13893,17.93619,26.7952],[-77.13983,17.94038,30.2309],[-77.14156,17.94485,34.8383],[-77.16094,17.96939,148.5867],[-77.16224,17.97172,170.4637],[-77.16342,17.97448,172.1715],[-77.16459,17.9803,174.3077],[-77.16539,17.98795,241.0024],[-77.16567,18.02285,382.444],[-77.16699,18.02789,351.4191],[-77.16939,18.03451,286.4985],[-77.17495,18.04435,366.3692],[-77.18061,18.05241,566.6522],[-77.18223,18.05425,523.8048],[-77.18627,18.06032,360.8002],[-77.18712,18.06391,330.0516],[-77.18743,18.06882,393.9803],[-77.1851,18.08329,464.2996],[-77.18223,18.09264,466.162],[-77.17851,18.09975,449.2515],[-77.18247,18.11755,442.3922],[-77.21086,18.1861,639.9496]]]}}