{"type": "Feature","bbox": [-77.926,21.5837,-77.6724,21.7952],"geometry": {"type": "MultiPolygon","coordinates": [[[[-77.7371,21.5837,112.989],[-77.7231,21.6133,162.3421],[-77.7109,21.6526,58.422],[-77.6799,21.721,32.0567],[-77.6808,21.7752,12.7009],[-77.6724,21.775,0.0],[-77.6749,21.7774,3.4124],[-77.6762,21.7818,0.6976],[-77.681,21.786,0.3023],[-77.6843,21.7868,0.5016],[-77.6915,21.7821,0.0],[-77.7043,21.7846,0.0],[-77.708,21.7829,2.019],[-77.7104,21.7835,4.2949],[-77.7196,21.7935,2.0154],[-77.7257,21.7949,2.2411],[-77.7318,21.7935,2.1158],[-77.7393,21.7952,1.9624],[-77.7414,21.7929,5.2939],[-77.7688,21.7845,12.8151],[-77.7894,21.782,14.3829],[-77.8434,21.7652,25.1439],[-77.8626,21.7563,23.0683],[-77.8726,21.7484,31.5968],[-77.8922,21.7288,46.7595],[-77.9019,21.7107,90.4086],[-77.9139,21.6554,72.9679],[-77.926,21.636,97.7793],[-77.9027,21.626,89.0784],[-77.8769,21.6052,93.8241],[-77.86,21.599,92.1412],[-77.8433,21.6054,103.1236],[-77.8234,21.6199,187.0323],[-77.8115,21.625,214.2446],[-77.8048,21.625,172.3169],[-77.7896,21.6184,165.8097],[-77.7671,21.5996,162.0608],[-77.7371,21.5837,112.989]]]]}
,"properties": {"GID_2": "CUB.1.12_1","GID_0": "CUB","country": "Cuba","GID_1": "CUB.1_1","province": "Camagüey","NL_NAME_1": "NA","county": "SierradeCubitas","VARNAME_2": "NA","NL_NAME_2": "NA","TYPE_2": "Municipio","ENGTYPE_2": "Municipality","CC_2": "NA","HASC_2": "CU.CM.SC","name": "Sierrade_Cubitas.county","area_km2": 398.4817,"hist_schema_id": "Elevation0-9000","hist_area_km2": {"0": 26.5217,"25": 102.9794,"50": 72.6292,"75": 58.521,"100": 36.7505,"125": 25.8537,"150": 28.1232,"175": 21.6797,"200": 14.6235,"225": 5.6759,"250": 4.434,"275": 0.6897}}}