{"type": "Feature","bbox": [-63.2604,18.2743,-63.2364,18.2839],"geometry": {"type": "MultiPolygon","coordinates": [[[[-63.2512,18.2839,0.0],[-63.2578,18.2838,1.7192],[-63.2604,18.2797,3.8484],[-63.2594,18.2743,1.8826],[-63.2465,18.2746,0.0],[-63.241,18.2776,3.4348],[-63.2364,18.2824,3.7912],[-63.2437,18.2817,1.0138],[-63.2512,18.2839,0.0]]]]}
,"properties": {"GID_1": "AIA.15_1","GID_0": "AIA","country": "Anguilla","state": "DogIsland","VARNAME_1": "NA","NL_NAME_1": "NA","TYPE_1": "Island","ENGTYPE_1": "Island","CC_1": "NA","HASC_1": "NA","ISO_1": "NA","name": "DogIsland.state","area_km2": 1.89244,"hist_schema_id": "Elevation0-9000","hist_area_km2": {"0": 1.207943,"25": 0.684497}}}