{"type":"Feature","properties":{"GID_1":"VGB.4_1","GID_0":"VGB","country":"BritishVirginIslands","province":"Tortola","VARNAME_1":"NA","NL_NAME_1":"NA","TYPE_1":"District","ENGTYPE_1":"District","CC_1":"NA","HASC_1":"NA","ISO_1":"NA","name":"Tortola.province"},
"geometry":{"type": "MultiPolygon","coordinates": [[[[-64.7115,18.3818,0.0],[-64.7118,18.3832,0.0],[-64.7168,18.3829,14.1162],[-64.7207,18.3807,5.7007],[-64.7143,18.3793,0.0],[-64.7115,18.3801,0.0],[-64.7115,18.3818,0.0]]],
[[[-64.7249,18.3907,5.9313],[-64.7268,18.3918,16.1391],[-64.7301,18.3896,27.3216],[-64.7426,18.389,0.0],[-64.751,18.3851,13.6119],[-64.7529,18.3826,0.0],[-64.7412,18.3832,1.2432],[-64.7387,18.3807,9.1316],[-64.7354,18.381,0.0],[-64.7371,18.3835,6.7552],[-64.7357,18.386,15.3927],[-64.7237,18.3882,0.0],[-64.7249,18.3907,5.9313]]],
[[[-64.5626,18.4593,0.0],[-64.5701,18.459,0.0],[-64.5724,18.4565,62.2754],[-64.5757,18.4562,0.0],[-64.5751,18.4535,20.8214],[-64.5804,18.4501,18.6857],[-64.5849,18.4499,16.0212],[-64.5876,18.4518,4.8057],[-64.591,18.4457,0.0],[-64.5929,18.4476,0.0],[-64.5971,18.4468,18.7294],[-64.5999,18.4504,45.0668],[-64.6018,18.4504,45.0668],[-64.6026,18.4551,9.4845],[-64.6046,18.4546,2.9286],[-64.6062,18.4501,6.076],[-64.6121,18.4482,13.4224],[-64.614,18.4504,0.0],[-64.6196,18.4488,0.0],[-64.6212,18.4515,0.0],[-64.6232,18.4518,0.8096],[-64.6282,18.4496,5.331],[-64.6332,18.4524,0.0],[-64.6354,18.451,22.1866],[-64.636,18.4529,5.0046],[-64.6435,18.454,0.0],[-64.6457,18.4485,48.357],[-64.6532,18.449,0.0],[-64.6515,18.4468,0.0],[-64.6479,18.4471,35.5092],[-64.6479,18.4407,4.4321],[-64.6518,18.4399,46.8686],[-64.6601,18.4446,0.0],[-64.6604,18.4396,0.0],[-64.6646,18.4376,0.0],[-64.6649,18.4332,4.1618],[-64.6612,18.4287,0.0],[-64.661,18.4249,0.0],[-64.659,18.4243,1.8438],[-64.6593,18.4285,0.0],[-64.6576,18.4287,0.0],[-64.6576,18.4249,1.8438],[-64.6637,18.4204,5.8177],[-64.6712,18.4185,0.0],[-64.6724,18.4082,3.4359],[-64.6787,18.4004,3.5662],[-64.6907,18.3971,2.675],[-64.6951,18.3971,4.0091],[-64.6971,18.3993,11.1897],[-64.7001,18.3993,0.0],[-64.7021,18.3932,12.5754],[-64.7065,18.3943,0.0],[-64.7068,18.3929,0.0],[-64.7174,18.3887,0.0],[-64.7035,18.3868,0.0],[-64.7065,18.3851,0.0],[-64.7074,18.3807,0.0],[-64.6951,18.381,6.2125],[-64.6926,18.3849,0.8318],[-64.6965,18.3868,4.0546],[-64.6915,18.3887,0.0],[-64.6843,18.3874,0.0],[-64.6835,18.3899,0.0],[-64.6768,18.3879,4.2374],[-64.6732,18.3829,4.4178],[-64.6654,18.3821,6.6332],[-64.6635,18.3829,0.0],[-64.6626,18.3857,2.9927],[-64.6549,18.3887,0.0],[-64.6524,18.3929,4.013],[-64.6454,18.3912,0.0],[-64.639,18.3935,0.0],[-64.6371,18.3976,3.9169],[-64.6363,18.396,0.0],[-64.6329,18.3965,0.0],[-64.6321,18.3993,0.0],[-64.6346,18.4068,0.0],[-64.6338,18.4093,2.0213],[-64.6318,18.409,9.4914],[-64.6324,18.4065,1.5111],[-64.6299,18.4035,0.0],[-64.6276,18.406,3.4189],[-64.6162,18.4051,0.0],[-64.6113,18.4132,0.9467],[-64.6124,18.4154,0.0],[-64.6135,18.4146,0.0],[-64.6171,18.4171,1.3672],[-64.6174,18.4196,3.9686],[-64.6143,18.4215,0.6657],[-64.611,18.4212,0.0],[-64.6168,18.4251,0.0],[-64.6126,18.4251,0.0],[-64.6121,18.4279,0.6592],[-64.6068,18.4243,2.8014],[-64.6026,18.4182,0.0],[-64.599,18.4176,8.6289],[-64.5918,18.4115,0.0],[-64.586,18.4118,0.0],[-64.5871,18.4157,2.0481],[-64.5843,18.4157,1.3615],[-64.5835,18.4126,0.0],[-64.581,18.4146,6.8081],[-64.5788,18.4132,0.0],[-64.5762,18.4162,1.2071],[-64.5743,18.416,0.4582],[-64.5707,18.419,0.0],[-64.5635,18.4276,0.0],[-64.564,18.4313,0.0],[-64.5685,18.4329,0.9083],[-64.5676,18.4376,3.3679],[-64.5579,18.4393,2.8301],[-64.5574,18.4357,0.0],[-64.5563,18.4357,0.0],[-64.5529,18.4437,0.0],[-64.551,18.4418,0.0],[-64.546,18.441,10.7913],[-64.544,18.4382,0.0],[-64.5404,18.4379,1.0098],[-64.5399,18.4396,1.3527],[-64.5343,18.439,0.0],[-64.5351,18.4404,0.0],[-64.5301,18.4393,2.7393],[-64.5246,18.4346,6.096],[-64.5226,18.4265,0.0],[-64.519,18.4307,4.8766],[-64.5149,18.4321,0.0],[-64.5146,18.4376,0.0],[-64.5163,18.4413,1.9342],[-64.526,18.4493,1.7129],[-64.5282,18.4499,0.0],[-64.529,18.4465,1.207],[-64.5304,18.4496,0.0],[-64.5332,18.4485,0.5695],[-64.5335,18.4468,0.0],[-64.5429,18.4482,1.7578],[-64.5462,18.4454,4.3696],[-64.5485,18.4465,4.8068],[-64.5474,18.4504,0.0],[-64.5485,18.4518,23.9311],[-64.5529,18.4518,10.1286],[-64.5546,18.4471,0.9012],[-64.5521,18.4471,10.6622],[-64.5521,18.446,6.6821],[-64.5549,18.4449,11.8273],[-64.5579,18.4579,3.6377],[-64.5626,18.4593,0.0]]],
[[[-64.5779,18.4896,6.4269],[-64.5818,18.4901,0.0],[-64.584,18.4868,0.0],[-64.5824,18.4851,0.0],[-64.5793,18.4851,0.0],[-64.5779,18.4818,3.3024],[-64.5793,18.4788,0.0],[-64.5826,18.4774,0.0],[-64.5832,18.4749,0.0],[-64.5801,18.4729,0.0],[-64.5762,18.4751,0.0],[-64.574,18.4732,0.0],[-64.5704,18.464,9.0684],[-64.5679,18.464,14.9276],[-64.564,18.4696,0.0],[-64.5576,18.4718,0.0],[-64.5585,18.479,0.0],[-64.5607,18.4799,3.33],[-64.5626,18.4782,47.3275],[-64.566,18.4824,0.0],[-64.5685,18.4821,0.0],[-64.5707,18.4796,17.7706],[-64.5735,18.4801,17.4941],[-64.5743,18.4849,0.0],[-64.5779,18.4896,6.4269]]],
[[[-64.5593,18.4276,1.7578],[-64.5612,18.4279,3.0549],[-64.5599,18.4229,3.7998],[-64.5554,18.4215,0.0],[-64.5557,18.4243,1.8946],[-64.5593,18.4276,1.7578]]],
[[[-64.5418,18.461,0.0],[-64.5426,18.4621,0.0],[-64.5454,18.4607,0.6312],[-64.5451,18.4568,0.0],[-64.5426,18.4549,0.0],[-64.541,18.4568,0.9845],[-64.5418,18.461,0.0]]],
[[[-64.501,18.471,15.154],[-64.5115,18.4701,52.8067],[-64.5135,18.4718,2.3076],[-64.5176,18.4679,3.0431],[-64.5235,18.4707,1.3296],[-64.5251,18.4676,10.6288],[-64.5235,18.4643,0.0],[-64.5204,18.4668,11.5306],[-64.5132,18.4649,0.0],[-64.5062,18.4654,0.0],[-64.5001,18.4693,0.0],[-64.501,18.471,15.154]]],
[[[-64.5296,18.4954,0.0],[-64.5393,18.4938,0.0],[-64.5371,18.4863,0.0],[-64.5396,18.4793,0.0],[-64.5343,18.4757,4.1256],[-64.5379,18.4735,44.3719],[-64.5379,18.4718,0.0],[-64.5335,18.4718,7.9679],[-64.5362,18.4662,3.4543],[-64.5401,18.4657,0.0],[-64.5382,18.456,0.0],[-64.5332,18.4576,0.0],[-64.5329,18.461,1.2741],[-64.529,18.4618,0.0],[-64.5301,18.4585,0.0],[-64.5285,18.4585,0.0],[-64.524,18.4613,2.537],[-64.5276,18.4626,0.0],[-64.5257,18.4662,10.1933],[-64.5274,18.4699,0.0],[-64.531,18.4701,42.1195],[-64.5271,18.4851,0.0],[-64.5249,18.4868,0.0],[-64.5271,18.4874,0.3205],[-64.5285,18.4865,26.5949],[-64.5312,18.4901,7.1463],[-64.5296,18.4954,0.0]]]]}}