{"type": "Feature","bbox": [-71.8544,18.0301,-71.7198,18.2924],"geometry": {"type": "MultiPolygon","coordinates": [[[[-71.7791,18.175,394.2064],[-71.7803,18.1859,462.4755],[-71.7744,18.1945,514.6569],[-71.7689,18.1953,596.7658],[-71.765,18.1992,642.4297],[-71.767,18.2065,759.5483],[-71.7631,18.2139,855.5261],[-71.7623,18.2213,935.1931],[-71.7568,18.2233,1071.1394],[-71.7549,18.2272,1091.7754],[-71.7509,18.2279,1172.4452],[-71.7502,18.2338,1167.874],[-71.7521,18.2368,1234.7917],[-71.751,18.24,1268.2396],[-71.7198,18.2916,2275.3413],[-71.7395,18.2903,2043.4733],[-71.7504,18.2924,1805.0099],[-71.7568,18.2897,1822.7242],[-71.765,18.2888,1736.0916],[-71.7803,18.2829,1687.6083],[-71.7915,18.2516,1230.7422],[-71.7955,18.246,1173.4897],[-71.8001,18.2429,1118.7963],[-71.8026,18.2384,1000.9005],[-71.8025,18.2345,931.5927],[-71.8058,18.2299,830.5276],[-71.8103,18.227,711.6703],[-71.8169,18.2267,754.4966],[-71.8185,18.2248,735.4135],[-71.8149,18.2185,810.3298],[-71.8209,18.2187,800.3823],[-71.8236,18.221,819.2563],[-71.8267,18.2199,816.2545],[-71.8276,18.2151,788.4573],[-71.8186,18.1974,666.8425],[-71.8201,18.1937,652.9024],[-71.8247,18.1895,551.154],[-71.8277,18.1797,460.2289],[-71.8414,18.1763,545.3439],[-71.8433,18.1663,408.8914],[-71.8425,18.1536,312.7488],[-71.845,18.1505,289.7848],[-71.8457,18.1437,137.1912],[-71.8544,18.1334,45.1082],[-71.8544,18.1277,11.3284],[-71.8501,18.1212,1.9532],[-71.8432,18.119,5.2183],[-71.8179,18.0964,2.842],[-71.8181,18.0929,6.1935],[-71.8146,18.086,2.8335],[-71.8178,18.0794,0.0],[-71.8122,18.0731,0.0],[-71.8087,18.0721,2.4113],[-71.7974,18.061,2.024],[-71.7932,18.0597,3.2295],[-71.7818,18.049,0.0],[-71.7677,18.0421,1.804],[-71.7639,18.0387,0.0],[-71.7602,18.0317,0.0],[-71.7531,18.0301,0.0],[-71.7498,18.034,11.3416],[-71.7487,18.0425,18.4708],[-71.7377,18.0499,28.4943],[-71.7357,18.0554,36.2421],[-71.7357,18.0666,69.0859],[-71.733,18.0667,90.8962],[-71.731,18.0694,116.1104],[-71.7311,18.0779,125.1171],[-71.7271,18.0799,174.6169],[-71.7291,18.0892,183.6598],[-71.733,18.09,125.4079],[-71.7283,18.0947,193.2245],[-71.7283,18.0966,212.1049],[-71.7311,18.1013,207.56],[-71.737799999999993,18.1001,142.3474],[-71.7386,18.1047,221.4369],[-71.7433,18.1125,179.1848],[-71.7394,18.116,256.1555],[-71.7394,18.1218,221.588],[-71.737799999999993,18.1226,308.3831],[-71.7406,18.1253,255.8447],[-71.7406,18.1265,268.6008],[-71.737799999999993,18.1265,309.0444],[-71.7394,18.1319,286.9855],[-71.7359,18.132,358.3457],[-71.7386,18.1386,320.5053],[-71.7433,18.1385,246.0765],[-71.7414,18.1421,329.2711],[-71.7386,18.1413,317.626],[-71.7394,18.1487,324.9298],[-71.7414,18.1498,364.3284],[-71.7426,18.1487,306.86],[-71.7461,18.142,253.3367],[-71.7473,18.1479,207.0448],[-71.75,18.1479,212.0461],[-71.7508,18.1459,252.9958],[-71.75,18.1486,212.0461],[-71.7488,18.1498,238.6221],[-71.75,18.1525,316.2588],[-71.7536,18.1533,312.3954],[-71.7536,18.156,314.9992],[-71.7575,18.158,302.0529],[-71.7567,18.1599,307.867],[-71.7595,18.1599,309.2151],[-71.7614,18.1626,325.2499],[-71.7614,18.1653,332.7173],[-71.7583,18.1665,346.4493],[-71.7583,18.1692,353.1427],[-71.768,18.1677,296.0459],[-71.7744,18.17,325.0488],[-71.7763,18.1692,327.7769],[-71.7763,18.1731,368.0477],[-71.7791,18.175,394.2064]]]]}
,"properties": {"GID_3": "HTI.9.2.1_1","GID_0": "HTI","country": "Haiti","GID_1": "HTI.9_1","province": "Sud-Est","NL_NAME_1": "NA","GID_2": "HTI.9.2_1","county": "Belle-Anse","NL_NAME_2": "NA","city": "Anse-à-Pitre","VARNAME_3": "NA","NL_NAME_3": "NA","TYPE_3": "Commune","ENGTYPE_3": "Commune","CC_3": "NA","HASC_3": "NA","name": "Anse-à-Pitre.city","area_km2": 205.2748,"hist_schema_id": "Elevation0-9000","hist_area_km2": {"0": 3.7091,"25": 7.1358,"50": 5.422,"75": 6.0869,"100": 6.3688,"125": 7.2757,"150": 7.2754,"175": 6.9729,"200": 8.6454,"225": 8.2623,"250": 9.3099,"275": 8.8661,"300": 7.9389,"325": 8.6639,"350": 8.3008,"375": 9.0259,"400": 8.1191,"425": 6.6884,"450": 4.4923,"475": 2.5583,"500": 1.8733,"525": 1.5107,"550": 1.2891,"575": 1.5106,"600": 1.3293,"625": 1.3495,"650": 2.0745,"675": 1.9738,"700": 2.296,"725": 1.9737,"750": 1.7925,"775": 1.6917,"800": 1.7521,"825": 0.9063,"850": 0.5639,"875": 0.584,"900": 0.6847,"925": 0.584,"950": 0.5639,"975": 0.9465,"1000": 1.6311,"1025": 1.1277,"1050": 1.1277,"1075": 1.2284,"1100": 1.2485,"1125": 1.0471,"1150": 0.9062,"1175": 1.0672,"1200": 0.7652,"1225": 0.8659,"1250": 0.7652,"1275": 0.8658,"1300": 0.6443,"1325": 0.6242,"1350": 1.0068,"1375": 0.5638,"1400": 0.6846,"1425": 0.8859,"1450": 0.7651,"1475": 0.6644,"1500": 0.906,"1525": 0.6644,"1550": 0.6443,"1575": 0.7248,"1600": 0.7047,"1625": 0.6241,"1650": 0.6241,"1675": 0.6845,"1700": 0.7651,"1725": 0.8657,"1750": 0.8255,"1775": 0.7852,"1800": 0.7852,"1825": 0.9261,"1850": 0.8858,"1875": 0.6442,"1900": 0.5033,"1925": 0.463,"1950": 0.7851,"1975": 0.5838,"2000": 0.604,"2025": 0.5637,"2050": 0.4429,"2075": 0.3825,"2100": 0.3825,"2125": 0.2416,"2150": 0.302,"2175": 0.2214,"2200": 0.2617,"2225": 0.1812,"2250": 0.2416,"2275": 0.1812,"2300": 0.0201}}}