{"type": "Feature","bbox": [-64.6288,18.306,-64.4685,18.3932],"geometry": {"type": "MultiPolygon","coordinates": [[[[-64.604,18.324,1.0132],[-64.6054,18.3243,1.0132],[-64.6057,18.3218,9.004],[-64.6079,18.3207,0.0],[-64.6115,18.3232,5.555],[-64.6149,18.3204,26.399],[-64.6182,18.3238,0.0],[-64.6224,18.3243,0.0],[-64.6201,18.3226,14.5378],[-64.6201,18.3193,2.3931],[-64.6171,18.3193,4.093],[-64.6149,18.3168,14.8844],[-64.619,18.3143,0.0],[-64.6221,18.3168,0.0],[-64.6246,18.3168,0.0],[-64.624,18.3115,52.8927],[-64.6288,18.3079,0.0],[-64.6263,18.3087,3.5782],[-64.6251,18.3065,0.0],[-64.6235,18.3065,0.0],[-64.6226,18.3082,3.9569],[-64.6196,18.306,0.0],[-64.6201,18.309,29.1625],[-64.6157,18.3071,0.0],[-64.6154,18.3101,0.0],[-64.6132,18.3101,3.6845],[-64.6104,18.3079,0.3909],[-64.6082,18.3104,12.488],[-64.611,18.3132,4.8831],[-64.6104,18.3151,12.9544],[-64.6085,18.3146,0.0],[-64.6079,18.3174,41.0893],[-64.6043,18.316,0.9662],[-64.6043,18.3179,7.4552],[-64.6015,18.3199,1.7633],[-64.599,18.3196,8.3919],[-64.5982,18.3168,0.0],[-64.5957,18.3165,0.0],[-64.5937,18.3185,0.0],[-64.5915,18.3157,1.2639],[-64.5899,18.3165,1.2639],[-64.5901,18.3226,9.8415],[-64.599,18.3224,3.8797],[-64.604,18.324,1.0132]]],
[[[-64.6246,18.3329,11.3922],[-64.6265,18.3338,0.0],[-64.6274,18.3318,0.0],[-64.624,18.3301,0.0],[-64.6246,18.3329,11.3922]]],
[[[-64.5824,18.3626,5.5735],[-64.584,18.3635,3.0604],[-64.5846,18.3613,0.0],[-64.5799,18.3568,0.0],[-64.5801,18.3554,53.4687],[-64.5888,18.3549,2.8831],[-64.5918,18.3582,12.1807],[-64.6007,18.3574,0.0],[-64.6021,18.3549,0.0],[-64.6012,18.3526,18.1861],[-64.6085,18.3535,12.5802],[-64.6124,18.3518,0.0],[-64.6062,18.349,16.3365],[-64.6049,18.3465,0.0],[-64.6024,18.3501,0.0],[-64.5963,18.3479,4.9752],[-64.5965,18.3438,2.7921],[-64.5951,18.3435,0.0],[-64.5937,18.349,54.5473],[-64.591,18.349,6.6568],[-64.5901,18.351,37.1588],[-64.5862,18.3501,0.0],[-64.5849,18.3518,0.0],[-64.5818,18.3501,0.0],[-64.5771,18.3518,17.9501],[-64.5743,18.3499,2.7006],[-64.5743,18.3438,0.0],[-64.571,18.3396,1.817],[-64.5735,18.3362,0.0],[-64.5732,18.3324,0.0],[-64.5704,18.3301,0.0],[-64.5632,18.3296,0.0],[-64.5651,18.3343,7.3246],[-64.5665,18.3582,0.0],[-64.5679,18.3585,0.6492],[-64.569,18.3551,12.6051],[-64.5718,18.3551,4.3254],[-64.5738,18.3596,4.7672],[-64.5782,18.3587,12.593],[-64.579,18.361,0.0],[-64.5824,18.3626,5.5735]]],
[[[-64.5621,18.3668,14.6402],[-64.5651,18.3668,0.0],[-64.5654,18.3632,0.0],[-64.5612,18.364,9.6638],[-64.5604,18.3613,0.0],[-64.5593,18.3646,0.0314],[-64.5604,18.3668,0.0],[-64.5621,18.3668,14.6402]]],
[[[-64.5201,18.3746,16.3039],[-64.5199,18.3768,10.7882],[-64.5271,18.3768,11.6512],[-64.5307,18.3729,1.4089],[-64.5343,18.3738,0.0],[-64.5349,18.3682,0.0],[-64.5329,18.3676,1.5958],[-64.5287,18.3699,0.0],[-64.5249,18.3629,1.4985],[-64.5232,18.3626,0.0],[-64.5215,18.3671,0.0],[-64.5224,18.3685,1.228],[-64.5246,18.3676,2.4009],[-64.5246,18.3718,0.0],[-64.5201,18.3746,16.3039]]],
[[[-64.5118,18.3899,17.0601],[-64.514,18.3901,0.0],[-64.5165,18.3796,0.4395],[-64.5132,18.379,13.6769],[-64.5132,18.3768,0.0],[-64.5093,18.3746,4.3718],[-64.5085,18.3682,0.0],[-64.5068,18.3704,0.0],[-64.5051,18.3701,2.4875],[-64.4993,18.3657,0.8603],[-64.4974,18.3715,9.0136],[-64.499,18.374,0.0],[-64.5046,18.3735,33.2779],[-64.5076,18.3754,6.3853],[-64.5043,18.3838,0.0],[-64.511,18.3868,1.5515],[-64.5118,18.3899,17.0601]]],
[[[-64.469,18.3929,4.3959],[-64.4785,18.3932,0.0],[-64.4851,18.3885,23.686],[-64.4896,18.3876,0.0],[-64.4899,18.3863,2.159],[-64.4874,18.3851,0.0],[-64.4812,18.3874,11.102],[-64.4796,18.3832,0.0],[-64.4718,18.3818,0.0],[-64.471,18.3849,5.3525],[-64.4732,18.3863,0.0],[-64.4685,18.3904,0.0],[-64.469,18.3929,4.3959]]]]}
,"properties": {"GID_1": "VGB.3_1","GID_0": "VGB","country": "BritishVirginIslands","province": "OtherIslands","VARNAME_1": "NA","NL_NAME_1": "NA","TYPE_1": "District","ENGTYPE_1": "District","CC_1": "NA","HASC_1": "NA","ISO_1": "NA","name": "Other_Islands.province","area_km2": 13.74462,"hist_schema_id": "Elevation0-9000","hist_area_km2": {"0": 5.33276,"25": 3.56194,"50": 1.99228,"75": 1.50931,"100": 0.9056,"125": 0.36223,"150": 0.08049}}}