{"type": "Feature","bbox": [-78.349,18.309,-77.9099,18.4629],"geometry": {"type": "MultiPolygon","coordinates": [[[[-78.3474,18.3393,0.0],[-78.349,18.3382,2.4379],[-78.3482,18.3365,0.0],[-78.346,18.3374,0.0],[-78.3474,18.3393,0.0]]],
[[[-77.9898,18.4472,6.0552],[-77.9903,18.4499,2.3241],[-77.9954,18.4518,5.0753],[-77.9954,18.4557,0.0],[-77.999,18.4588,0.0],[-78.004,18.459,3.2164],[-78.0076,18.4624,0.0],[-78.0124,18.4613,0.0],[-78.0132,18.4574,0.0],[-78.0224,18.4549,2.6106],[-78.0321,18.4557,0.0],[-78.0418,18.4532,11.6151],[-78.0471,18.4546,1.6654],[-78.051,18.4521,0.0],[-78.0624,18.4549,0.7207],[-78.0671,18.4521,0.0],[-78.0785,18.4521,0.0],[-78.0804,18.4493,0.0],[-78.0901,18.4529,0.0],[-78.0932,18.4521,0.0],[-78.0929,18.4499,3.5384],[-78.0951,18.4488,0.4586],[-78.0996,18.4538,0.0],[-78.1065,18.4565,0.5896],[-78.1082,18.451,1.4333],[-78.1065,18.4499,2.9893],[-78.1065,18.4465,6.8167],[-78.111,18.4457,0.7667],[-78.1093,18.4485,0.6487],[-78.1104,18.4515,0.0],[-78.109,18.456,0.9124],[-78.1179,18.4557,0.0],[-78.1246,18.4576,1.0055],[-78.1265,18.461,0.0],[-78.1318,18.4604,2.4748],[-78.1407,18.4629,0.0],[-78.1426,18.4607,0.0],[-78.1474,18.4615,0.3954],[-78.1537,18.4582,5.3881],[-78.1557,18.4588,0.0],[-78.154,18.4546,14.0219],[-78.1562,18.4538,0.0],[-78.1576,18.4499,0.0],[-78.154,18.4454,3.55],[-78.1546,18.4418,3.7548],[-78.1588,18.4374,0.0],[-78.164,18.4368,18.9844],[-78.1707,18.4429,15.2693],[-78.1707,18.4471,16.649],[-78.1657,18.4515,1.8763],[-78.1668,18.4535,2.3709],[-78.1746,18.4532,2.4339],[-78.1762,18.4551,1.8028],[-78.1918,18.4568,0.0],[-78.1946,18.4554,0.0],[-78.194,18.4521,2.8236],[-78.1957,18.4554,6.9566],[-78.204,18.4549,2.7553],[-78.2082,18.4562,1.4946],[-78.2101,18.4549,3.3448],[-78.2135,18.4565,8.789],[-78.2138,18.4526,0.0],[-78.2199,18.4524,0.0],[-78.221,18.4476,0.0],[-78.2232,18.4482,1.0312],[-78.2226,18.4432,3.1514],[-78.226,18.444,0.0],[-78.2271,18.4424,0.0],[-78.2332,18.4426,0.0],[-78.2382,18.4401,1.5765],[-78.2426,18.4335,0.0],[-78.2426,18.4274,0.0],[-78.246,18.4268,1.6189],[-78.2526,18.421,5.6169],[-78.2524,18.419,6.1779],[-78.2487,18.4165,20.8471],[-78.2496,18.4126,2.6322],[-78.2518,18.4126,1.0675],[-78.2526,18.416,0.0],[-78.2551,18.4179,0.9261],[-78.2635,18.4151,0.0],[-78.2626,18.4129,1.2791],[-78.2651,18.4101,4.5059],[-78.2676,18.4124,0.0],[-78.2696,18.411,0.4983],[-78.2729,18.4051,0.0],[-78.2663,18.3971,2.7011],[-78.2674,18.3907,0.6528],[-78.2718,18.389,3.3702],[-78.2765,18.3951,0.9201],[-78.2801,18.3957,0.0],[-78.2812,18.3935,2.7909],[-78.2874,18.3932,4.9035],[-78.289,18.3965,2.6246],[-78.2949,18.3963,2.8972],[-78.2999,18.3924,1.1641],[-78.2985,18.3901,0.7696],[-78.2999,18.3863,2.7436],[-78.3029,18.384,0.0],[-78.3018,18.3779,4.9364],[-78.3096,18.3732,2.1817],[-78.3079,18.3671,1.2321],[-78.3129,18.3618,2.5124],[-78.3201,18.3626,1.1075],[-78.3193,18.3696,4.0849],[-78.3257,18.3729,1.0234],[-78.3354,18.3704,1.6555],[-78.3454,18.3565,1.3944],[-78.344,18.3557,1.3944],[-78.3443,18.3532,0.0],[-78.3379,18.3549,0.7522],[-78.336,18.3532,0.0],[-78.3351,18.3454,5.6383],[-78.3388,18.3415,0.7697],[-78.3415,18.341,4.3779],[-78.3443,18.3426,0.0],[-78.3449,18.3382,0.7126],[-78.339,18.3354,3.1361],[-78.3371,18.329,3.4354],[-78.3379,18.3178,0.0],[-78.2593,18.309,116.4712],[-78.2118,18.357,55.3647],[-78.0817,18.3568,124.1068],[-78.0137,18.3189,277.5765],[-77.9099,18.3099,152.1715],[-77.9102,18.3166,151.4014],[-77.9197,18.3291,125.7957],[-77.9231,18.3369,122.537],[-77.9355,18.34,130.9673],[-77.9378,18.3415,122.2249],[-77.9397,18.3463,114.7908],[-77.9434,18.3483,113.311],[-77.9443,18.3525,110.0627],[-77.9513,18.3547,105.6657],[-77.9523,18.3588,114.4451],[-77.9486,18.3609,125.1293],[-77.9468,18.3642,116.2129],[-77.9514,18.3688,102.107],[-77.9537,18.3666,113.1051],[-77.9553,18.3766,123.014],[-77.9716,18.4009,96.112799999999993],[-77.9695,18.4043,100.0777],[-77.973,18.4081,87.146],[-77.9711,18.4112,111.6241],[-77.9753,18.4124,89.4916],[-77.9787,18.4102,90.2354],[-77.9824,18.4187,122.825],[-77.986,18.4197,93.2888],[-77.9957,18.4281,93.2868],[-77.9955,18.4308,110.2456],[-77.9911,18.4336,99.6816],[-77.9881,18.441,39.4163],[-77.9898,18.4472,6.0552]]]]}
,"properties": {"GID_1": "JAM.2_1","GID_0": "JAM","country": "Jamaica","province": "Hanover","VARNAME_1": "NA","NL_NAME_1": "NA","TYPE_1": "Parish","ENGTYPE_1": "Parish","CC_1": "NA","HASC_1": "JM.HA","ISO_1": "JM-09","name": "Hanover.province","area_km2": 455.1745,"hist_schema_id": "Elevation0-9000","hist_area_km2": {"0": 47.0416,"25": 37.4216,"50": 31.8872,"75": 26.9573,"100": 29.2316,"125": 32.0503,"150": 27.1621,"175": 23.7427,"200": 31.2091,"225": 27.3054,"250": 22.4147,"275": 22.4147,"300": 24.4259,"325": 22.6753,"350": 17.2632,"375": 13.3198,"400": 8.8531,"425": 5.4527,"450": 2.6962,"475": 0.9055,"500": 0.5433,"525": 0.2012}}}