{"type": "Feature","id": "1371","bbox": [-78.34604,18.28979,-77.92141,18.45547],"geometry": {"type": "Polygon","coordinates": [[[-78.00017,18.44669,124.9939],[-78.01098,18.45051,77.623],[-78.03254,18.45063,73.7545],[-78.09724,18.44306,13.7248],[-78.11998,18.44733,50.8981],[-78.13854,18.45384,37.9764],[-78.15441,18.45352,13.7288],[-78.16926,18.43684,3.3174],[-78.19498,18.45547,0.0],[-78.23062,18.44424,0.0],[-78.2613,18.41739,0.0],[-78.27164,18.38906,3.3702],[-78.2884,18.39435,7.3119],[-78.2987,18.38638,2.7436],[-78.30663,18.37466,1.742],[-78.3164,18.3686,0.0],[-78.33194,18.36738,5.5431],[-78.33544,18.36343,3.8639],[-78.33629,18.3559,3.594],[-78.3439,18.34406,0.0],[-78.34581,18.33552,0.0],[-78.34439,18.30537,0.0],[-78.34604,18.29795,0.0],[-78.34604,18.29795,0.0],[-78.337,18.29728,4.0979],[-78.28302,18.28984,152.4629],[-78.27762,18.28979,148.6957],[-78.27248,18.29077,83.6251],[-78.26754,18.29449,84.4451],[-78.23003,18.33661,204.612],[-78.22434,18.33805,146.2347],[-78.10019,18.3386,99.2217],[-78.09091,18.33738,86.7387],[-78.08218,18.33503,127.3719],[-78.02714,18.30465,292.1498],[-78.00523,18.30085,329.3805],[-77.92141,18.29612,202.1233],[-77.93413,18.32048,248.7796],[-77.93661,18.32366,223.189],[-77.94157,18.32816,188.0296],[-77.95552,18.33513,172.4847],[-77.95914,18.33761,170.8574],[-77.9612,18.33971,182.8219],[-77.96617,18.35051,199.7148],[-77.97748,18.37033,284.1489],[-77.98027,18.37658,312.0897],[-77.98182,18.38379,344.7323],[-77.98428,18.38867,333.1574],[-77.98596,18.39138,341.4626],[-78.00224,18.4042,343.2661],[-78.00565,18.40818,336.0122],[-78.00746,18.41172,338.4266],[-78.00084,18.43415,224.5084],[-78.0003,18.43717,193.9453],[-78.00017,18.44669,124.9939]]]}
,"properties": {"ISO3166-1-Alpha-3": "JAM","country": "Jamaica","fill": "#F0F","name": "Hanover","area_km2": 491.1635,"hist_schema_id": "Elevation0-9000","hist_area_km2": {"0": 53.549,"25": 34.7281,"50": 34.244,"75": 28.5687,"100": 33.4188,"125": 32.9366,"150": 26.7,"175": 23.683,"200": 30.0429,"225": 27.6485,"250": 23.6634,"275": 28.0512,"300": 29.3779,"325": 26.9629,"350": 20.9468,"375": 15.5742,"400": 10.1615,"425": 6.0365,"450": 2.9781,"475": 1.147,"500": 0.5433,"525": 0.2012}}}