{"type": "Feature","id": "5031","bbox": [-74.55809,23.95356,-74.42711,24.14395],"geometry": {"type": "Polygon","coordinates": [[[-74.46866,24.0218,5.3421],[-74.47671,24.00161,0.0],[-74.47851,23.99169,2.7204],[-74.47549,23.98021,0.0],[-74.43456,24.0454,0.0],[-74.43322,24.05443,0.0],[-74.42772,24.07416,0.0],[-74.42711,24.08324,0.0],[-74.42968,24.08979,0.0],[-74.43879,24.10383,0.0],[-74.44079,24.11424,0.0],[-74.44319,24.11669,0.0],[-74.45816,24.1413,0.0],[-74.46483,24.14395,0.0],[-74.47077,24.14069,0.497],[-74.47623,24.1352,0.0],[-74.48176,24.13105,0.0],[-74.50129,24.12385,0.0],[-74.51871,24.11494,0.0],[-74.52969,24.10041,0.0],[-74.53014,24.0764,0.0],[-74.52546,24.04572,5.9675],[-74.52965,24.01105,0.0],[-74.54109,23.98005,4.4616],[-74.55809,23.96039,4.1666],[-74.55809,23.95356,8.7622],[-74.4923,23.96039,3.0921],[-74.49128,23.96918,1.1491],[-74.47692,24.01,14.0055],[-74.46866,24.0218,5.3421]]]}
,"properties": {"ISO3166-1-Alpha-3": "BHS","country": "The Bahamas","fill": "#F0F","name": "San Salvador","area_km2": 157.1004,"hist_schema_id": "Elevation0-9000","hist_area_km2": {"0": 142.6371,"25": 14.4633}}}