{"type":"Feature","properties":{"GID_1":"BHS.27_1","GID_0":"BHS","country":"Bahamas","state":"SanSalvador","VARNAME_1":"SãoSalvador|WatlingIsland","NL_NAME_1":"NA","TYPE_1":"District","ENGTYPE_1":"District","CC_1":"NA","HASC_1":"BS.SS","ISO_1":"NA","name":"SanSalvador.state"},
"geometry":{"type": "MultiPolygon","coordinates": [[[[-74.4788,23.9415,0.0],[-74.4812,23.9413,0.0],[-74.4829,23.939,0.9488],[-74.4818,23.9349,0.0],[-74.4782,23.9376,0.0],[-74.4788,23.9415,0.0]]],
[[[-74.4568,24.1307,0.0],[-74.4579,24.1313,0.0],[-74.4596,24.1288,0.0],[-74.4582,24.1276,1.1753],[-74.4579,24.1232,1.7807],[-74.4612,24.1207,0.0],[-74.4685,24.1199,2.9606],[-74.4746,24.1213,0.0],[-74.4799,24.1165,4.8411],[-74.4865,24.116,2.0006],[-74.5079,24.1207,0.0],[-74.5079,24.1188,0.0],[-74.5135,24.1115,3.4927],[-74.5207,24.1071,0.0],[-74.5193,24.1049,0.0],[-74.5224,24.096,0.0],[-74.5301,24.0851,0.4096],[-74.5268,24.0838,0.8967],[-74.5265,24.0785,0.0],[-74.5393,24.0671,0.0],[-74.5374,24.059,0.7888],[-74.5385,24.0557,1.4118],[-74.5354,24.0513,0.0],[-74.5321,24.0499,1.9178],[-74.5307,24.044,0.0],[-74.5279,24.0424,1.538],[-74.5257,24.0365,2.5881],[-74.5249,24.026,1.3157],[-74.5263,24.0207,0.0],[-74.5243,24.021,0.0],[-74.5246,24.0179,0.6325],[-74.5299,24.011,0.0],[-74.5293,24.0093,1.086],[-74.5326,24.0079,0.0],[-74.5385,24.0012,1.136],[-74.5396,23.994,1.3323],[-74.5446,23.9865,0.4673],[-74.5468,23.976,2.5083],[-74.5524,23.9682,1.0388],[-74.5496,23.9679,2.2845],[-74.5529,23.9662,2.3573],[-74.5557,23.9613,3.1425],[-74.5587,23.9596,4.1666],[-74.5596,23.9549,7.9311],[-74.5629,23.954,0.5525],[-74.5687,23.9474,1.419],[-74.5699,23.9449,0.0],[-74.5685,23.9432,2.3073],[-74.5624,23.9415,0.957],[-74.551,23.9496,0.0],[-74.5324,23.954,3.1014],[-74.5257,23.9532,1.0203],[-74.5221,23.9482,0.7591],[-74.5171,23.9463,0.0],[-74.489,23.9474,0.3934],[-74.4857,23.9499,0.6596],[-74.4882,23.954,0.7677],[-74.4885,23.9601,0.0],[-74.4857,23.9629,0.8856],[-74.4885,23.964,0.0],[-74.486,23.9699,0.3082],[-74.4893,23.9729,1.8945],[-74.4893,23.9749,1.6927],[-74.4849,23.9824,0.0],[-74.4851,23.9851,0.1529],[-74.4812,23.9876,1.1268],[-74.4765,24.0024,1.37],[-74.4707,24.0082,0.0],[-74.4687,24.0132,3.4987],[-74.466,24.0107,0.8311],[-74.4607,24.0113,0.5179],[-74.4615,24.0096,0.0],[-74.4599,24.0082,3.39],[-74.4651,24.0063,0.0],[-74.4649,24.0012,0.3981],[-74.4679,24.0021,0.0],[-74.4701,23.9982,1.4107],[-74.4751,23.996,0.0],[-74.4796,23.9901,0.0],[-74.4799,23.9849,1.839],[-74.4826,23.984,0.0],[-74.4835,23.9785,0.1124],[-74.4863,23.9774,0.1186],[-74.4871,23.9743,0.0341],[-74.4849,23.9693,0.1369],[-74.4868,23.966,1.392],[-74.4857,23.964,0.3341],[-74.4793,23.9646,0.4055],[-74.4774,23.9696,3.032],[-74.4751,23.9707,3.4767],[-74.4765,23.9804,0.0],[-74.4718,23.9904,0.0],[-74.4662,23.9949,2.1476],[-74.4618,23.9949,1.6148],[-74.4601,23.9924,0.0],[-74.459,23.9929,0.0],[-74.4557,24.0121,0.0],[-74.4543,24.0121,0.0],[-74.4551,24.0135,0.0],[-74.4504,24.0207,0.5218],[-74.4457,24.0329,0.0],[-74.4437,24.036,1.3725],[-74.4376,24.0349,0.0],[-74.4332,24.0421,0.0],[-74.4351,24.0429,0.0],[-74.4396,24.0418,2.671],[-74.4393,24.0435,0.0],[-74.441,24.0438,1.8533],[-74.4407,24.0518,2.4171],[-74.436,24.0613,0.0],[-74.4321,24.0615,0.0],[-74.4299,24.0599,0.0],[-74.4279,24.0646,0.0],[-74.4296,24.069,0.0],[-74.4326,24.0676,0.5392],[-74.4349,24.0704,1.1188],[-74.4357,24.0799,0.0],[-74.4407,24.0951,4.3831],[-74.4413,24.1021,0.0],[-74.4496,24.1146,1.7944],[-74.4499,24.1193,0.0],[-74.4482,24.1218,0.7446],[-74.4524,24.1215,5.1584],[-74.4563,24.124,0.0],[-74.4568,24.1307,0.0]]],
[[[-74.5054,24.141,0.0],[-74.5071,24.1421,0.0],[-74.5113,24.1382,0.0],[-74.5096,24.1374,0.4262],[-74.5054,24.141,0.0]]],
[[[-74.4743,23.9463,0.3023],[-74.4776,23.9454,0.0],[-74.4776,23.9432,0.0],[-74.4743,23.9435,0.0],[-74.4743,23.9463,0.3023]]],
[[[-74.4743,23.9513,0.0],[-74.4754,23.9524,0.0],[-74.4754,23.9507,0.0],[-74.4785,23.9507,0.0],[-74.479,23.9476,0.2159],[-74.4762,23.9485,2.5579],[-74.4746,23.9474,2.6717],[-74.4732,23.9493,6.9707],[-74.4743,23.9513,0.0]]],
[[[-74.4754,24.161,0.0],[-74.4776,24.1615,0.0],[-74.4771,24.1588,0.0],[-74.4754,24.1593,0.948],[-74.4754,24.161,0.0]]]]}}