{"type":"Feature","properties":{"GID_2":"DOM.32.2_1","GID_0":"DOM","country":"DominicanRepublic","GID_1":"DOM.32_1","province":"Valverde","NL_NAME_1":"NA","county":"LagunaSalada","VARNAME_2":"NA","NL_NAME_2":"NA","TYPE_2":"Municipio","ENGTYPE_2":"Municipality","CC_2":"NA","HASC_2":"DO.VA.LS","name":"Laguna_Salada.county"},
"geometry":{"type": "MultiPolygon","coordinates": [[[[-71.1521,19.6227,48.1937],[-71.1467,19.6138,47.9243],[-71.1393,19.6157,47.5099],[-71.1365,19.6199,47.2625],[-71.1343,19.6203,47.6716],[-71.1222,19.6171,51.4895],[-71.1162,19.6102,52.109],[-71.1056,19.6091,53.6304],[-71.0989,19.6061,54.9546],[-71.089,19.5997,52.5132],[-71.085,19.5942,55.659],[-71.0762,19.5891,54.6965],[-71.0702,19.5826,61.0072],[-71.0677,19.5827,60.2275],[-71.0622,19.5863,60.3108],[-71.0567,19.5859,60.4042],[-71.0544,19.5829,55.6653],[-71.0537,19.5739,61.6262],[-71.0509,19.5725,62.0287],[-71.0477,19.5733,61.8089],[-71.0422,19.5781,60.6647],[-71.0444,19.5949,64.4169],[-71.0335,19.6108,69.1866],[-71.033,19.6384,76.8006],[-71.0278,19.6551,115.6269],[-71.0269,19.6645,147.2772],[-71.0218,19.6748,201.2211],[-71.0194,19.694,594.0977],[-71.0227,19.6989,553.4656],[-71.0479,19.7056,537.8817],[-71.0551,19.7091,400.269],[-71.0594,19.7138,474.7498],[-71.0636,19.7262,337.6192],[-71.0655,19.7272,386.6533],[-71.0729,19.7302,481.5614],[-71.0836,19.7313,448.0697],[-71.0996,19.7388,477.8645],[-71.1126,19.7397,378.138],[-71.1225,19.745,586.9713],[-71.1348,19.7442,404.269],[-71.1395,19.7399,437.0675],[-71.1453,19.7285,248.0162],[-71.1497,19.7066,166.1161],[-71.1549,19.6986,145.2521],[-71.1546,19.6956,144.1199],[-71.1497,19.6874,112.7113],[-71.1526,19.6815,100.5988],[-71.1572,19.6778,98.0241],[-71.1583,19.6731,89.1317],[-71.1575,19.6637,66.9234],[-71.1494,19.6527,48.3781],[-71.1521,19.6436,46.5671],[-71.1506,19.6352,50.1539],[-71.1521,19.6227,48.1937]]]]}}