{"type": "Feature","id": "1322","bbox": [-80.10103,21.54849,-78.92719,22.67402],"geometry": {"type": "MultiPolygon","coordinates": [[[[-79.34179,22.41315,13.0037],[-79.41674,22.47248,0.0],[-79.41737,22.47145,2.227],[-79.41685,22.44845,6.5],[-79.43538,22.41646,32.6021],[-79.4237,22.40806,45.4903],[-79.41535,22.39548,70.2016],[-79.38184,22.33326,130.6169],[-79.35347,22.29683,207.686],[-79.3527,22.28954,221.3798],[-79.35665,22.27704,240.9015],[-79.35913,22.26505,192.7189],[-79.35804,22.24918,175.4016],[-79.36112,22.2312,175.3437],[-79.38691,22.23503,170.665],[-79.41174,22.24717,146.4814],[-79.42158,22.24931,152.9823],[-79.43383,22.24849,147.5638],[-79.45145,22.24242,122.159],[-79.46339,22.23655,114.4629],[-79.48127,22.21945,104.0819],[-79.48669,22.20157,111.474],[-79.49181,22.1889,122.429],[-79.49925,22.17498,119.1929],[-79.50773,22.16431,99.4943],[-79.51672,22.15671,106.3362],[-79.52785,22.15229,118.8615],[-79.54196,22.15069,123.539],[-79.55617,22.15601,139.889],[-79.56483,22.16144,134.7099],[-79.57837,22.16723,131.8365],[-79.59881,22.16105,142.8826],[-79.63973,22.17265,177.4453],[-79.64901,22.17332,182.2698],[-79.66224,22.17193,183.182],[-79.67658,22.16296,188.3834],[-79.68384,22.15927,174.6807],[-79.69242,22.1588,166.7343],[-79.70286,22.16126,168.1323],[-79.71332,22.16978,150.4282],[-79.71831,22.17661,139.1698],[-79.722,22.18317,145.6012],[-79.7336,22.19208,155.4645],[-79.76662,22.19283,161.5995],[-79.77753,22.18371,151.3258],[-79.77965,22.17692,145.1265],[-79.77926,22.16653,131.1356],[-79.77288,22.14929,110.8322],[-79.7583,22.12281,127.0792],[-79.75378,22.11157,110.1481],[-79.75024,22.10503,98.3624],[-79.74714,22.10206,89.9223],[-79.74272,22.10121,97.8526],[-79.73769,22.1017,108.8603],[-79.73182,22.10144,118.4062],[-79.72745,22.09937,121.1518],[-79.72355,22.09387,114.6503],[-79.72448,22.08087,110.9247],[-79.72978,22.06237,112.7228],[-79.74626,22.03152,111.456],[-79.76593,22.00155,158.1748],[-79.79071,21.98179,123.3169],[-79.82055,21.98393,226.4747],[-79.83473,21.99091,100.5573],[-79.83959,21.99437,129.8439],[-79.84688,21.99726,141.3039],[-79.90496,22.01023,272.4182],[-79.9145,22.00899,264.2885],[-79.92465,22.00499,396.78],[-79.93452,21.99323,364.8419],[-79.93832,21.98533,524.8654],[-79.94049,21.97682,484.3967],[-79.9432,21.97173,458.9641],[-79.94829,21.96876,406.0891],[-79.96307,21.96982,742.0471],[-79.96989,21.96809,704.8428],[-79.9886,21.95391,669.5901],[-80.02405,21.93851,603.1357],[-80.06004,21.9037,646.929],[-80.08728,21.88342,319.2925],[-80.0941,21.87639,196.565],[-80.09772,21.87148,133.7653],[-80.0988,21.86639,112.4815],[-80.10102,21.82484,42.4357],[-80.10103,21.82477,42.4357],[-80.08434,21.82209,61.8066],[-80.06725,21.81704,39.4496],[-80.05533,21.8037,0.0],[-80.04845,21.7849,0.0],[-80.04621,21.76341,0.0],[-80.03881,21.74714,0.0],[-80.0218,21.72919,0.0],[-80.00324,21.72089,0.0],[-79.99096,21.73334,0.2048],[-79.99913,21.73501,3.6677],[-80.00902,21.73994,1.2912],[-80.01537,21.74673,0.0],[-80.01268,21.75381,0.7048],[-80.00365,21.7558,0.3222],[-79.99205,21.75332,0.0],[-79.97167,21.74641,0.0],[-79.94945,21.74311,0.5234],[-79.93,21.74331,0.1212],[-79.91234,21.74836,0.3772],[-79.89538,21.76,8.8702],[-79.89265,21.74775,0.0],[-79.89363,21.73359,0.0],[-79.89037,21.7224,0.0],[-79.87487,21.71906,0.0],[-79.87487,21.71284,0.3369],[-79.89538,21.70539,0.0],[-79.89538,21.69855,0.0],[-79.87295,21.69086,0.0],[-79.85082,21.68008,0.0],[-79.83385,21.67768,1.3066],[-79.82706,21.69514,0.3512],[-79.81579,21.71125,1.5115],[-79.79011,21.71162,0.4886],[-79.72273,21.69343,7.6077],[-79.65209,21.69172,5.5019],[-79.63927,21.68773,2.4315],[-79.63231,21.67821,0.0],[-79.62759,21.66694,0.0],[-79.62165,21.65762,0.0],[-79.61368,21.65131,0.0],[-79.60778,21.64899,0.0],[-79.56493,21.63788,0.0],[-79.55915,21.635,0.0],[-79.54967,21.6269,0.0],[-79.53966,21.62198,0.7906],[-79.52969,21.62344,0.0],[-79.52221,21.63003,1.8662],[-79.5192,21.6402,2.2615],[-79.51529,21.64859,0.4174],[-79.50646,21.6398,0.0],[-79.49132,21.61603,0.0],[-79.48176,21.60737,0.0],[-79.47228,21.602,0.0],[-79.45031,21.59553,0.0],[-79.43065,21.5954,0.0],[-79.37877,21.60126,8.6828],[-79.36465,21.59927,0.0],[-79.3461,21.58316,0.0],[-79.32958,21.57368,0.0],[-79.24942,21.55195,0.7833],[-79.20889,21.54849,5.2708],[-79.16926,21.5517,5.6538],[-79.12816,21.562,0.744],[-79.07555,21.58609,6.8313],[-79.0559,21.5893,0.0],[-79.01281,21.59007,0.0],[-78.99454,21.59406,0.0],[-78.97737,21.60297,2.0069],[-78.97057,21.59553,0.0],[-78.95995,21.59955,3.077],[-78.96485,21.62031,3.1087],[-78.96776,21.65089,13.4237],[-78.96485,21.67709,16.6004],[-78.97067,21.6902,19.8717],[-78.99251,21.70476,18.1245],[-79.01726,21.71495,22.8547],[-79.03182,21.69456,16.2651],[-79.03182,21.67855,14.7563],[-79.04347,21.66545,8.2673],[-79.07258,21.6538,8.904],[-79.10025,21.6538,7.1181],[-79.10898,21.66545,8.5759],[-79.10316,21.68292,11.713],[-79.09879,21.71058,19.016],[-79.10607,21.72659,18.4951],[-79.12208,21.74989,26.2458],[-79.11481,21.7659,35.5328],[-79.09297,21.80958,51.7138],[-79.08278,21.84889,63.4931],[-79.07258,21.870729999999998,78.5388],[-79.05803,21.89693,97.3233],[-79.04638,21.91877,123.6126],[-79.04055,21.93915,128.7741],[-79.02891,21.94643,129.7404],[-79.01289,21.94498,131.931],[-78.99833,21.94206,127.9858],[-78.99251,21.95371,141.9771],[-78.97504,21.97846,136.763],[-78.96048,22.00321,159.6827],[-78.96048,22.02651,175.2338],[-78.96485,22.04398,213.338],[-78.97795,22.0498,231.8646],[-78.99979,22.05999,183.5589],[-79.03036,22.08329,213.1687],[-79.04638,22.09639,195.1036],[-79.04783,22.11677,199.9337],[-79.03328,22.1488,149.4636],[-79.03473,22.17646,172.6039],[-79.02163,22.18811,94.4799],[-79.01289,22.2114,39.2879],[-78.99979,22.23324,31.7408],[-78.98523,22.25654,23.6374],[-78.97504,22.27546,19.7705],[-78.9663,22.30749,12.1434],[-78.95611,22.32787,12.3592],[-78.95029,22.33952,9.8846],[-78.94155,22.3468,5.61],[-78.93428,22.35408,7.4148],[-78.93136,22.38465,1.8391],[-78.92719,22.39875,0.0],[-78.98249,22.40461,0.0],[-79.00528,22.40428,0.0],[-79.02448,22.39997,0.0],[-79.062,22.38666,0.0],[-79.08349,22.38378,0.0],[-79.09504,22.38573,0.0],[-79.11059,22.3946,0.0],[-79.12072,22.39688,0.0],[-79.13313,22.39566,0.0],[-79.13565,22.39118,4.6045],[-79.13781,22.38483,7.411],[-79.14867,22.37763,2.5895],[-79.16747,22.37788,0.0],[-79.21984,22.38841,1.1263],[-79.23058,22.38719,0.0],[-79.23876,22.37641,0.0],[-79.25695,22.38227,0.0],[-79.27575,22.39484,0.0],[-79.28588,22.40428,0.0],[-79.31249,22.4003,3.8802],[-79.34179,22.41315,13.0037]]],
[[[-79.20641,22.62442,3.5087],[-79.18977,22.63451,4.5163],[-79.17687,22.64468,4.4434],[-79.21573,22.64301,1.8476],[-79.22452,22.63972,0.0],[-79.21642,22.63662,0.0],[-79.21321,22.63105,5.1554],[-79.21325,22.62442,4.2374],[-79.20641,22.62442,3.5087]]],
[[[-78.96117,22.64912,3.4424],[-78.96085,22.66014,0.5679],[-78.97655,22.66852,0.0],[-79.07038,22.67402,0.0],[-79.08723,22.67182,0.0],[-79.07462,22.66425,4.1531],[-79.06444,22.66035,5.6795],[-79.00451,22.65672,6.298],[-78.98986,22.65143,1.4169],[-78.9842,22.63768,1.564],[-78.96117,22.64912,3.4424]]]]}
,"properties": {"ISO3166-1-Alpha-3": "CUB","country": "Cuba","fill": "#00F","name": "Sancti Spíritus","area_km2": 6710.155,"hist_schema_id": "Elevation0-9000","hist_area_km2": {"0": 1287.106,"25": 1029.762,"50": 691.081,"75": 660.92,"100": 502.679,"125": 461.534,"150": 489.443,"175": 425.0,"200": 343.147,"225": 192.425,"250": 136.881,"275": 77.613,"300": 50.027,"325": 42.284,"350": 35.049,"375": 31.806,"400": 28.384,"425": 24.45,"450": 22.405,"475": 21.008,"500": 19.71,"525": 17.173,"550": 16.445,"575": 14.36,"600": 14.045,"625": 14.438,"650": 14.301,"675": 11.449,"700": 10.898,"725": 8.085,"750": 6.059,"775": 4.033,"800": 2.341,"825": 1.948,"850": 1.2,"875": 0.531,"900": 0.098}}}