{"type":"Feature","properties":{"GID_1":"CUB.14_1","GID_0":"CUB","country":"Cuba","province":"SanctiSpíritus","VARNAME_1":"NA","NL_NAME_1":"NA","TYPE_1":"Provincia","ENGTYPE_1":"Province","CC_1":"NA","HASC_1":"CU.SS","ISO_1":"NA","name":"Sancti_Spíritus.province"},
"geometry":{"type": "MultiPolygon","coordinates": [[[[-79.5768,21.4699,0.4663],[-79.5785,21.4707,0.0],[-79.5751,21.4665,0.0],[-79.571,21.4662,1.1998],[-79.5699,21.4646,1.4676],[-79.5726,21.4651,1.6767],[-79.5732,21.4635,0.7738],[-79.5713,21.4624,2.3092],[-79.5754,21.4615,1.2469],[-79.5754,21.4579,0.0],[-79.5799,21.4546,1.5811],[-79.5788,21.4521,0.3095],[-79.5799,21.4513,1.467],[-79.5721,21.4562,1.0774],[-79.5676,21.456,0.0],[-79.5657,21.4601,0.0],[-79.5701,21.4674,0.3808],[-79.5768,21.4699,0.4663]]],
[[[-79.7732,21.5971,0.8282],[-79.774,21.5985,1.0511],[-79.7776,21.594,0.5259],[-79.7765,21.5938,0.5259],[-79.7732,21.5971,0.8282]]],
[[[-79.5915,21.6015,0.1909],[-79.5924,21.6026,0.0],[-79.5968,21.6013,0.0],[-79.5982,21.5954,0.0],[-79.596,21.5951,0.4767],[-79.5957,21.599,2.0003],[-79.5915,21.6015,0.1909]]],
[[[-79.796,21.654,0.0],[-79.7971,21.6563,0.0],[-79.7982,21.6524,1.7738],[-79.7949,21.6471,1.0456],[-79.794,21.6507,0.0],[-79.796,21.654,0.0]]],
[[[-79.8838,21.6401,0.4152],[-79.8851,21.641,0.0],[-79.8871,21.6388,0.0],[-79.8938,21.6368,0.0],[-79.8849,21.6363,0.9851],[-79.8824,21.6388,0.0],[-79.8838,21.6401,0.4152]]],
[[[-79.8054,21.6682,1.1585],[-79.8065,21.669,0.0],[-79.8074,21.6674,0.0],[-79.8043,21.6651,0.2811],[-79.8037,21.6663,0.2381],[-79.8054,21.6682,1.1585]]],
[[[-79.8082,21.6743,0.0],[-79.8101,21.6751,0.882],[-79.8107,21.6707,0.594],[-79.8079,21.671,0.3627],[-79.8082,21.6743,0.0]]],
[[[-79.8071,21.6776,0.9701],[-79.8065,21.6782,0.9701],[-79.8068,21.6807,0.0],[-79.8087,21.6774,0.0],[-79.8071,21.6776,0.9701]]],
[[[-79.8157,21.6951,0.7203],[-79.8168,21.6971,0.0],[-79.8199,21.6943,0.542],[-79.8185,21.6921,1.0528],[-79.8124,21.6938,0.0],[-79.8135,21.6954,0.0],[-79.8157,21.6951,0.7203]]],
[[[-79.926,21.7171,0.5861],[-79.9262,21.7182,0.5861],[-79.929,21.7143,0.0],[-79.9271,21.7093,0.4919],[-79.926,21.7096,0.4919],[-79.926,21.7171,0.5861]]],
[[[-79.9079,21.7193,0.3337],[-79.9101,21.719,0.4344],[-79.9079,21.7182,0.3465],[-79.9085,21.7165,0.8115],[-79.9143,21.7171,0.0],[-79.9118,21.7149,0.0],[-79.9074,21.7151,0.0],[-79.9049,21.7132,0.4358],[-79.9057,21.7168,0.5029],[-79.9079,21.7193,0.3337]]],
[[[-79.9013,21.7218,0.0],[-79.9029,21.7226,0.0],[-79.9021,21.7207,0.0],[-79.9062,21.7188,0.0],[-79.9026,21.7193,0.0],[-79.9013,21.7218,0.0]]],
[[[-79.9535,21.7407,0.0],[-79.9549,21.7421,0.6977],[-79.9565,21.739,0.3628],[-79.9554,21.739,0.3628],[-79.9535,21.7407,0.0]]],
[[[-80.0967,21.8657,132.9019],[-80.1045,21.8405,36.0762],[-80.1069,21.8199,22.2404],[-80.1121,21.8229,5.2874],[-80.111,21.8199,2.8727],[-80.0965,21.8135,0.0],[-80.0771,21.8129,0.0],[-80.0757,21.8143,10.3153],[-80.071,21.8096,0.3044],[-80.0657,21.8076,1.2463],[-80.0418,21.8057,2.1554],[-80.0387,21.8071,10.0463],[-80.0376,21.8065,1.7988],[-80.0382,21.8032,0.6145],[-80.0321,21.8018,2.7764],[-80.0354,21.7974,0.3997],[-80.0376,21.7968,0.7592],[-80.0385,21.7935,1.1344],[-80.0324,21.784,6.1066],[-80.031,21.7654,0.0],[-80.0237,21.7551,1.5068],[-80.0224,21.7454,3.4886],[-80.0237,21.7443,0.0],[-80.0221,21.7418,0.0],[-80.0182,21.7418,0.0],[-80.0143,21.7365,0.0],[-80.0115,21.7376,0.8468],[-80.004,21.7368,1.7129],[-79.9896,21.7271,1.1398],[-79.9779,21.7254,0.0],[-79.9757,21.7271,-0.0054],[-79.976,21.7251,0.0],[-79.9743,21.7246,0.5607],[-79.9724,21.7304,0.7995],[-79.9821,21.7313,0.3561],[-79.9865,21.7296,0.6764],[-79.9857,21.7318,0.514],[-79.981,21.7346,0.0],[-79.9871,21.7354,0.5737],[-79.9904,21.7412,1.2337],[-79.9985,21.7371,0.0],[-80.0138,21.7412,1.0363],[-80.0154,21.7501,0.0],[-80.0085,21.7521,1.1593],[-80.0082,21.7549,0.7282],[-80.0015,21.754,0.705],[-79.9971,21.7551,0.3123],[-79.9887,21.7518,1.2109],[-79.9865,21.7479,0.711],[-79.9821,21.7501,0.0],[-79.9774,21.746,0.1188],[-79.9776,21.7485,0.1142],[-79.9735,21.749,0.5799],[-79.9682,21.7432,0.855],[-79.9674,21.7401,0.0],[-79.9646,21.7435,0.0],[-79.9629,21.7415,0.0],[-79.9615,21.7435,0.0],[-79.9565,21.7424,0.6977],[-79.949,21.7432,0.5234],[-79.9476,21.741,0.2354],[-79.9499,21.7393,0.0],[-79.9499,21.7371,0.3134],[-79.9454,21.7412,0.0],[-79.946,21.7382,0.1409],[-79.9443,21.7363,0.0],[-79.9422,21.7374,1.0145],[-79.9404,21.7363,0.454],[-79.9396,21.7407,0.313],[-79.936,21.7401,0.4613],[-79.9365,21.7374,0.0],[-79.9335,21.7401,0.0],[-79.9313,21.7401,0.1752],[-79.9318,21.7354,0.253],[-79.9349,21.7337,0.4556],[-79.9343,21.7324,0.4556],[-79.9293,21.7349,0.0],[-79.9274,21.739,0.6208],[-79.9221,21.7374,0.5784],[-79.9265,21.7326,0.3904],[-79.9257,21.7315,0.0],[-79.9201,21.7371,0.8641],[-79.9171,21.736,0.7637],[-79.919,21.734,0.8328],[-79.9174,21.7321,1.3453],[-79.9146,21.7321,0.5926],[-79.9137,21.7346,0.4838],[-79.9121,21.7349,0.2352],[-79.9096,21.7332,0.211],[-79.9104,21.7304,0.337],[-79.909,21.7299,0.0],[-79.9088,21.7351,0.0],[-79.906,21.7393,0.7628],[-79.9057,21.7507,1.5027],[-79.904,21.7529,0.7314],[-79.891,21.7563,0.9914],[-79.8835,21.756,1.4576],[-79.8796,21.7538,0.6312],[-79.8746,21.7549,0.8835],[-79.8707,21.7521,1.2104],[-79.8724,21.7454,1.3877],[-79.8743,21.7454,1.3877],[-79.8757,21.7488,0.0],[-79.8785,21.7504,0.5559],[-79.8901,21.7507,0.212],[-79.889,21.7443,0.0],[-79.8854,21.741,0.0],[-79.8868,21.7304,0.2418],[-79.8924,21.7271,0.152],[-79.8971,21.7218,0.0],[-79.8918,21.7204,0.0],[-79.8904,21.7251,0.0],[-79.8835,21.7268,0.0],[-79.8812,21.7307,0.8703],[-79.879,21.731,0.506],[-79.8721,21.7299,1.1023],[-79.8721,21.7265,0.3389],[-79.8701,21.7254,0.9893],[-79.8712,21.7199,1.0151],[-79.8735,21.7162,0.8839],[-79.8793,21.7138,0.0],[-79.8851,21.7074,0.1386],[-79.891,21.706,0.1461],[-79.8915,21.7038,0.3565],[-79.8896,21.7024,0.6367],[-79.8818,21.7029,0.3292],[-79.8715,21.7088,0.9232],[-79.8665,21.7082,0.0],[-79.8657,21.7104,0.0],[-79.8615,21.7093,1.6504],[-79.8593,21.7049,0.0],[-79.856,21.706,1.7493],[-79.8557,21.704,1.2186],[-79.8629,21.6982,1.0348],[-79.8696,21.6996,0.5102],[-79.8699,21.7026,0.2905],[-79.8751,21.7001,0.968],[-79.8793,21.701,0.3329],[-79.8824,21.6971,2.2574],[-79.8857,21.6976,0.2815],[-79.8863,21.6946,0.5321],[-79.8799,21.6935,0.0],[-79.8729,21.6957,1.4316],[-79.866,21.6954,1.2225],[-79.8835,21.6915,0.0],[-79.8879,21.6954,0.4181],[-79.8879,21.691,0.0],[-79.8846,21.6896,0.0],[-79.8665,21.6938,1.0491],[-79.8601,21.6924,0.2732],[-79.856,21.6893,0.2497],[-79.8504,21.6974,1.4245],[-79.8476,21.6993,2.3312],[-79.844,21.6985,0.0],[-79.8396,21.696,0.8528],[-79.8428,21.694,0.0],[-79.8421,21.6907,0.0],[-79.8443,21.689,0.0],[-79.8407,21.6818,0.7173],[-79.8418,21.6815,0.8709],[-79.8424,21.6838,0.3058],[-79.8415,21.6757,0.0],[-79.836,21.6718,0.0],[-79.829,21.6696,0.5881],[-79.8265,21.6704,0.7054],[-79.8246,21.6671,0.8007],[-79.8213,21.6701,0.0],[-79.8215,21.6749,0.2622],[-79.819,21.6793,0.4426],[-79.8196,21.6829,0.0],[-79.8226,21.684,0.0],[-79.8235,21.686,1.0035],[-79.8218,21.6932,0.0],[-79.8199,21.6954,0.542],[-79.8221,21.6993,0.8408],[-79.8187,21.6988,0.0],[-79.8196,21.7032,0.8634],[-79.8165,21.7099,0.0],[-79.8138,21.7104,0.0],[-79.8124,21.7076,0.0],[-79.8138,21.7107,0.0],[-79.8129,21.7143,0.7534],[-79.8101,21.7151,0.2732],[-79.8074,21.7135,0.0],[-79.8037,21.7051,0.0],[-79.8018,21.7099,0.2741],[-79.794,21.7096,0.0],[-79.7926,21.7126,0.1911],[-79.7899,21.7088,0.4197],[-79.7871,21.7101,0.5057],[-79.7879,21.7085,0.0],[-79.7868,21.7082,0.0],[-79.7832,21.7099,0.9112],[-79.7799,21.7079,0.0],[-79.7632,21.7165,0.3175],[-79.7615,21.7129,0.0],[-79.759,21.7129,0.2179],[-79.7607,21.711,0.5056],[-79.7585,21.7096,0.384],[-79.7576,21.7051,0.0],[-79.7501,21.7021,0.5264],[-79.7515,21.6971,0.6222],[-79.7424,21.699,0.9147],[-79.7376,21.6954,0.2354],[-79.7393,21.6921,0.0],[-79.7412,21.6921,0.2157],[-79.741,21.689,0.0],[-79.7374,21.689,0.3706],[-79.7337,21.6915,1.0705],[-79.7307,21.6882,0.0],[-79.7246,21.6868,0.0],[-79.7218,21.6829,0.5269],[-79.7187,21.6818,0.0],[-79.7185,21.6776,0.0],[-79.7165,21.6763,0.4143],[-79.7007,21.6785,0.0],[-79.6949,21.676,0.0],[-79.6957,21.6776,0.79],[-79.6943,21.6807,1.4426],[-79.6885,21.6857,1.7182],[-79.674,21.6904,0.3662],[-79.6568,21.689,1.4377],[-79.6474,21.684,1.9153],[-79.6318,21.6813,0.5112],[-79.6282,21.6771,1.9536],[-79.6193,21.6754,0.0],[-79.6079,21.6696,2.3816],[-79.5979,21.6601,0.9718],[-79.5937,21.654,1.3561],[-79.5949,21.6465,0.0],[-79.5982,21.6421,0.4564],[-79.5963,21.6393,0.4486],[-79.5882,21.6388,1.4094],[-79.576,21.6418,0.0],[-79.5635,21.641,0.2577],[-79.5568,21.636,0.0],[-79.554,21.6365,0.0],[-79.5521,21.6338,0.484],[-79.5529,21.6321,0.0],[-79.5504,21.6324,2.402],[-79.5507,21.6301,0.0],[-79.5488,21.631,2.0662],[-79.5485,21.6288,1.0155],[-79.5437,21.6246,0.476],[-79.5435,21.616,0.0],[-79.524,21.6182,0.0],[-79.524,21.6204,0.0],[-79.5179,21.6279,0.0],[-79.5171,21.6385,0.5587],[-79.5115,21.6413,0.585],[-79.506,21.641,0.9303],[-79.5032,21.6396,0.461],[-79.5057,21.6382,2.208],[-79.5051,21.6362,0.1963],[-79.4924,21.6249,0.0],[-79.4621,21.6024,0.18],[-79.4512,21.5974,0.0],[-79.4318,21.5954,0.0],[-79.4149,21.5918,0.0],[-79.4143,21.5938,0.511],[-79.4185,21.5932,0.0],[-79.4226,21.5965,0.1795],[-79.4207,21.5974,0.4739],[-79.4187,21.596,0.0],[-79.4176,21.5979,0.0],[-79.4143,21.5979,0.0],[-79.411,21.5963,1.8978],[-79.4115,21.5954,1.6473],[-79.414,21.596,0.0],[-79.4126,21.5946,1.6473],[-79.4129,21.591,0.1831],[-79.4093,21.5899,0.0],[-79.4082,21.5943,-0.5],[-79.4068,21.5943,-0.5],[-79.4062,21.5912,0.0636],[-79.4026,21.5912,0.0],[-79.3751,21.6001,1.0512],[-79.3724,21.599,1.8679],[-79.359,21.6015,0.0],[-79.3557,21.5976,1.3565],[-79.3504,21.5965,0.0],[-79.3429,21.5901,0.0],[-79.3435,21.5943,0.7125],[-79.3463,21.5954,2.1497],[-79.3454,21.5974,0.0],[-79.3471,21.5982,0.0],[-79.3471,21.601,1.3549],[-79.3332,21.5968,0.0],[-79.3326,21.5971,0.0],[-79.3343,21.5996,1.7285],[-79.3315,21.6004,0.0],[-79.3299,21.5979,1.3521],[-79.3265,21.5985,3.4361],[-79.3304,21.5965,1.7023],[-79.3285,21.5915,3.6621],[-79.3301,21.5912,0.0],[-79.3318,21.596,0.0],[-79.334,21.591,1.1847],[-79.3371,21.5921,0.0],[-79.3371,21.5904,2.4613],[-79.3399,21.5901,1.4574],[-79.3401,21.5885,0.2687],[-79.3379,21.5865,0.0],[-79.3351,21.5865,0.9233],[-79.3354,21.5846,0.0],[-79.3318,21.5826,0.0],[-79.3246,21.5812,0.5163],[-79.3179,21.5768,0.0],[-79.3154,21.5771,0.6885],[-79.3104,21.5724,0.6747],[-79.3032,21.5693,0.6853],[-79.2999,21.5649,0.0],[-79.2504,21.549,0.0],[-79.239,21.5479,0.0],[-79.2249,21.544,0.3502],[-79.2082,21.5426,0.0],[-79.2018,21.5446,1.3243],[-79.1943,21.5443,0.0],[-79.1837,21.5476,0.8583],[-79.1712,21.5471,0.7287],[-79.1646,21.5493,2.0312],[-79.1593,21.5532,1.3218],[-79.151,21.5543,0.7537],[-79.1474,21.5524,0.6212],[-79.1293,21.5562,0.0],[-79.1271,21.5585,0.0],[-79.1115,21.5643,0.0],[-79.1099,21.5671,1.6053],[-79.1049,21.5674,1.8664],[-79.1007,21.571,0.8626],[-79.0918,21.5726,0.5094],[-79.076,21.5796,0.0],[-79.0682,21.5879,7.0634],[-79.0585,21.5912,2.0765],[-79.0443,21.5915,2.6612],[-79.0362,21.589,3.3324],[-79.036,21.5868,0.0],[-79.034,21.589,3.3928],[-79.0326,21.5865,0.0],[-79.0268,21.586,1.2875],[-79.0029,21.5946,2.735],[-78.9782,21.5979,2.0112],[-78.9749,21.5965,2.6809],[-78.9724,21.586,0.0],[-78.9707,21.5851,0.0],[-78.9704,21.5901,0.0],[-78.9721,21.591,0.0],[-78.9732,21.5968,2.6809],[-78.9674,21.599,3.9757],[-78.9646,21.606,1.132],[-78.9656,21.6334,10.6528],[-78.9746,21.6495,11.8164],[-78.9975,21.6663,12.3926],[-79.0059,21.6692,12.1586],[-79.0128,21.6688,15.6158],[-79.0223,21.6625,12.2339],[-79.0475,21.6398,6.0929],[-79.0598,21.6352,4.9432],[-79.0828,21.6317,4.4937],[-79.1005,21.6315,5.4248],[-79.1086,21.6323,6.3342],[-79.1143,21.6358,7.2665],[-79.1165,21.6399,7.8109],[-79.115,21.6446,8.0155],[-79.0955,21.6726,8.414],[-79.091,21.6823,10.3488],[-79.089,21.69,11.6963],[-79.0891,21.6992,13.6083],[-79.0926,21.7047,15.5015],[-79.1033,21.7155,17.8753],[-79.1236,21.7221,23.8319],[-79.1256,21.7256,22.2529],[-79.1257,21.7344,23.8991],[-79.1191,21.751,29.9869],[-79.112,21.7576,30.046],[-79.0923,21.7675,32.7812],[-79.0862,21.7732,36.4577],[-79.0829,21.7812,40.8104],[-79.0818,21.7966,46.6704],[-79.083,21.8092,51.8417],[-79.0778,21.837,54.7925],[-79.0678,21.8566,69.9796],[-79.0602,21.8856,92.3352],[-79.06,21.9168,113.8959],[-79.0576,21.9221,119.6262],[-79.0524,21.9263,117.8136],[-79.0447,21.9285,122.492],[-79.0375,21.9283,115.2751],[-79.0088,21.9209,112.2747],[-78.9945,21.9211,109.9968],[-78.9874,21.9241,114.3956],[-78.9804,21.9351,123.2167],[-78.9692,21.9768,152.1729],[-78.9681,22.0052,157.2856],[-78.9703,22.0087,157.588],[-78.9744,22.011,157.7081],[-78.9984,22.0131,182.9735],[-79.0143,22.0188,199.6464],[-79.0279,22.0357,218.1677],[-79.0386,22.0447,202.517],[-79.0593,22.0572,147.0465],[-79.0694,22.0677,129.5059],[-79.075,22.0859,201.0069],[-79.0741,22.1053,197.2945],[-79.0708,22.1148,182.5776],[-79.0434,22.1558,152.9594],[-79.024,22.1911,125.3468],[-79.0161,22.2033,42.7783],[-78.9981,22.2242,33.0281],[-78.9864,22.2706,20.8099],[-78.9785,22.2831,18.2523],[-78.9558,22.3066,12.1092],[-78.9327,22.3408,5.6277],[-78.9292,22.355,7.3935],[-78.9288,22.3712,4.4354],[-78.9308,22.3899,3.244],[-78.9468,22.3929,0.0],[-78.9499,22.3888,0.6775],[-78.9532,22.3871,0.0],[-78.9699,22.3954,1.3747],[-78.9788,22.394,0.0],[-78.9796,22.3957,0.0],[-78.9826,22.3951,0.3386],[-78.9868,22.3985,0.145],[-78.9985,22.4004,1.519],[-79.0035,22.4001,0.7544],[-79.0065,22.3957,0.8649],[-79.0115,22.396,0.1593],[-79.0113,22.3926,0.8951],[-79.0157,22.3901,1.1411],[-79.0182,22.3918,1.1045],[-79.0179,22.3935,0.4713],[-79.0221,22.3951,0.6379],[-79.0229,22.3982,0.0],[-79.0326,22.401,0.1912],[-79.0382,22.3993,0.41],[-79.0401,22.3963,0.0],[-79.0376,22.3949,0.0],[-79.031,22.3976,0.9426],[-79.0279,22.3968,0.2284],[-79.0279,22.3954,1.26],[-79.0349,22.3932,0.0],[-79.0349,22.3899,1.0184],[-79.0396,22.3932,0.4486],[-79.0421,22.3915,0.6245],[-79.0457,22.3932,0.7789],[-79.0488,22.3915,0.1968],[-79.0493,22.3893,0.0],[-79.0462,22.3854,0.3746],[-79.0443,22.3871,1.8976],[-79.044,22.3849,0.4514],[-79.0454,22.384,0.3746],[-79.0501,22.384,0.4687],[-79.0549,22.3876,0.3658],[-79.0663,22.3846,0.4999],[-79.0685,22.3801,0.0],[-79.0665,22.3771,3.5422],[-79.0668,22.3743,0.8792],[-79.0732,22.3782,0.5845],[-79.0732,22.3821,0.0],[-79.0754,22.381,1.7384],[-79.0793,22.3818,1.0005],[-79.0807,22.3796,1.9063],[-79.0846,22.3799,1.487],[-79.086,22.3782,2.1624],[-79.0943,22.3799,6.3737],[-79.1007,22.3849,7.5018],[-79.1018,22.3874,3.854],[-79.0993,22.3893,1.8751],[-79.1024,22.3915,0.0],[-79.1054,22.3907,0.0],[-79.1051,22.3863,2.891],[-79.1085,22.386,2.7981],[-79.1149,22.3888,0.0],[-79.1137,22.3924,0.0],[-79.1182,22.3921,0.0],[-79.1235,22.3963,6.1057],[-79.1288,22.3946,5.9379],[-79.1304,22.3968,2.7673],[-79.1338,22.3949,2.5406],[-79.1335,22.3979,0.0],[-79.1379,22.3993,0.0],[-79.141,22.3974,0.0],[-79.1393,22.3937,1.7354],[-79.1404,22.384,0.0],[-79.1465,22.3788,1.5886],[-79.1576,22.3738,0.0],[-79.1696,22.3743,4.8579],[-79.1751,22.3779,2.4355],[-79.181,22.3776,5.8681],[-79.1826,22.3799,0.0],[-79.1893,22.3813,1.1428],[-79.1976,22.3776,4.9228],[-79.2018,22.3807,3.3916],[-79.2012,22.3826,0.4888],[-79.2038,22.3824,2.9735],[-79.211,22.389,0.1745],[-79.2201,22.3893,0.0],[-79.2285,22.3832,1.257],[-79.2296,22.3843,0.0],[-79.2324,22.3835,1.6923],[-79.2396,22.3871,0.0],[-79.2401,22.3849,0.0],[-79.2351,22.3835,0.0],[-79.236,22.381,1.0416],[-79.2387,22.3815,0.0],[-79.236,22.376,0.4224],[-79.2396,22.374,0.0],[-79.2499,22.3726,1.5815],[-79.2582,22.3799,0.5165],[-79.2637,22.3785,3.4859],[-79.2743,22.3813,4.4337],[-79.2749,22.3907,0.0],[-79.2765,22.3935,2.0286],[-79.2796,22.394,0.0],[-79.2812,22.3963,0.0],[-79.2926,22.3971,0.0],[-79.2962,22.399,0.0],[-79.3051,22.3976,1.581],[-79.3074,22.4007,0.0],[-79.3174,22.4037,11.4265],[-79.3199,22.4071,0.0],[-79.3246,22.4088,0.0],[-79.3288,22.4082,10.5757],[-79.3349,22.4135,6.1693],[-79.3451,22.416,1.1725],[-79.349,22.4151,9.6181],[-79.3587,22.4188,8.2747],[-79.3693,22.426,7.6727],[-79.3718,22.4349,0.0],[-79.376,22.4379,0.0],[-79.379,22.4479,6.0466],[-79.3818,22.4512,0.0],[-79.3904,22.454,0.0],[-79.396,22.4585,4.1805],[-79.4082,22.4621,0.8902],[-79.4088,22.4635,0.8902],[-79.4148,22.457,3.71],[-79.4187,22.4471,5.6753],[-79.4182,22.4232,12.2271],[-79.4214,22.4152,18.1192],[-79.4348,22.4,80.5536],[-79.4347,22.3932,89.2505],[-79.4324,22.3859,82.9668],[-79.4197,22.3775,94.6788],[-79.4145,22.3646,98.8124],[-79.4101,22.344,121.2162],[-79.4029,22.3265,141.3905],[-79.3993,22.305,215.4806],[-79.3951,22.2965,238.3611],[-79.3871,22.2875,236.9003],[-79.3793,22.2832,221.3969],[-79.3592,22.2761,239.7373],[-79.357,22.2735,233.2878],[-79.357,22.2596,188.9853],[-79.363,22.2472,170.613],[-79.3627,22.2333,170.373],[-79.3589,22.2136,237.5793],[-79.3603,22.2065,195.6837],[-79.3671,22.2035,206.8883],[-79.3799,22.2042,162.0849],[-79.4101,22.2199,144.3781],[-79.43,22.222,127.4681],[-79.4526,22.216,109.951],[-79.4742,22.2071,99.2016],[-79.4796,22.1976,104.0435],[-79.4914,22.163,113.3802],[-79.4991,22.1457,117.3898],[-79.5057,22.1356,120.6798],[-79.5232,22.123,133.6789],[-79.5371,22.1201,147.1452],[-79.5546,22.1219,156.6051],[-79.577,22.1398,170.0553],[-79.5817,22.1398,171.4478],[-79.6036,22.1315,197.3899],[-79.6174,22.1333,177.7229],[-79.6369,22.1439,170.5342],[-79.6472,22.1464,170.5264],[-79.6574,22.1454,176.1471],[-79.6795,22.1303,175.2323],[-79.7019,22.1282,152.8157],[-79.7101,22.1334,161.0967],[-79.7255,22.1606,137.7349],[-79.7322,22.1675,137.6482],[-79.7478,22.1691,144.9417],[-79.7627,22.1665,121.2459],[-79.7716,22.1622,128.5809],[-79.7798,22.1533,110.2711],[-79.7845,22.139,156.6543],[-79.7825,22.1285,141.5572],[-79.7751,22.1182,135.3644],[-79.7592,22.104,99.7492],[-79.7488,22.0791,99.9935],[-79.7409,22.0754,107.9799],[-79.7303,22.0732,108.5643],[-79.7243,22.068,148.1032],[-79.7213,22.0577,138.6638],[-79.7219,22.04,111.956],[-79.7303,22.0269,117.5122],[-79.7455,22.0087,163.4417],[-79.7524,21.9947,318.4206],[-79.7561,21.9808,181.6491],[-79.764,21.9701,134.4839],[-79.7806,21.9569,190.3417],[-79.8027,21.9453,98.9827],[-79.8199,21.9489,135.6913],[-79.8577,21.9707,233.389],[-79.8774,21.9766,356.0238],[-79.9102,21.9823,205.4854],[-79.9229,21.9804,277.8875],[-79.9309,21.977,302.6114],[-79.9367,21.9698,289.561],[-79.9402,21.9598,277.204],[-79.9383,21.9421,329.8279],[-79.9398,21.9368,473.1275],[-79.9462,21.9352,462.5183],[-79.9594,21.9412,521.3429],[-79.9663,21.9414,579.8326],[-79.9727,21.9366,654.8672],[-79.9829,21.919,586.0198],[-79.9931,21.9118,563.6749],[-80.0063,21.9077,675.1723],[-80.0287,21.9052,705.1143],[-80.0279,21.8971,732.743],[-80.0328,21.8911,570.1908],[-80.061,21.8889,765.4108],[-80.0781,21.8851,492.6927],[-80.0891,21.8767,175.1501],[-80.0967,21.8657,132.9019]]],
[[[-79.2571,22.3929,1.2739],[-79.2565,22.3943,0.7782],[-79.2599,22.3924,0.8606],[-79.2585,22.391,0.0],[-79.2571,22.3929,1.2739]]],
[[[-79.256,22.4118,0.8855],[-79.2607,22.4118,1.9842],[-79.2624,22.4082,0.0],[-79.2613,22.404,0.3204],[-79.2632,22.404,0.3204],[-79.2649,22.3993,1.2607],[-79.2665,22.3993,0.4752],[-79.2674,22.3968,0.6675],[-79.2721,22.3935,0.0],[-79.2712,22.3888,1.2519],[-79.2665,22.3838,1.2348],[-79.2637,22.3849,0.6125],[-79.2663,22.3899,0.4317],[-79.2657,22.3924,1.4115],[-79.2621,22.3921,1.5818],[-79.2643,22.396,1.1597],[-79.2632,22.3974,2.5184],[-79.2601,22.3963,0.0],[-79.2599,22.3996,1.7162],[-79.2543,22.4013,0.7129],[-79.2532,22.4051,1.7114],[-79.2579,22.404,0.4965],[-79.2601,22.4079,0.0],[-79.256,22.4118,0.8855]]],
[[[-79.1462,22.4007,0.0],[-79.1487,22.4015,4.2994],[-79.1501,22.3999,0.0],[-79.1479,22.399,0.0],[-79.1462,22.4007,0.0]]],
[[[-79.006,22.4021,0.0],[-79.0085,22.4029,0.0],[-79.0096,22.4004,0.0],[-79.0054,22.3993,0.3399],[-79.0035,22.4007,0.0],[-79.006,22.4021,0.0]]],
[[[-79.1801,22.4096,0.0],[-79.1807,22.4112,0.0],[-79.1832,22.409,0.0],[-79.181,22.4085,0.0],[-79.1801,22.4096,0.0]]],
[[[-79.1857,22.4135,1.7257],[-79.1879,22.4138,0.0],[-79.1899,22.411,1.7675],[-79.1879,22.411,0.4479],[-79.1857,22.4135,1.7257]]],
[[[-79.1751,22.4182,8.6944],[-79.181,22.4185,3.1121],[-79.1815,22.4165,0.0],[-79.1765,22.4163,0.0],[-79.1751,22.4182,8.6944]]],
[[[-79.2538,22.4196,2.0975],[-79.2535,22.421,0.7956],[-79.2562,22.4196,0.4592],[-79.261,22.4207,0.0],[-79.2562,22.414,1.5791],[-79.254,22.4143,0.9306],[-79.2549,22.419,2.0975],[-79.2538,22.4196,2.0975]]],
[[[-79.1999,22.4268,13.7265],[-79.2038,22.4282,2.4185],[-79.209,22.419,2.193],[-79.2051,22.4193,0.0],[-79.2015,22.4221,1.3188],[-79.1913,22.4221,7.5467],[-79.1935,22.4251,10.2423],[-79.1976,22.4243,3.2783],[-79.1979,22.4268,4.0948],[-79.1999,22.4268,13.7265]]],
[[[-79.2668,22.4254,0.4845],[-79.2688,22.4262,0.4906],[-79.2693,22.4232,1.2769],[-79.2651,22.4218,0.0],[-79.2646,22.4226,0.0],[-79.2668,22.4254,0.4845]]],
[[[-79.2237,22.436,0.0],[-79.2346,22.4357,0.0],[-79.2451,22.4276,0.0],[-79.2487,22.4218,0.0],[-79.2407,22.4226,1.2082],[-79.2301,22.4265,0.0],[-79.229,22.4282,1.9028],[-79.231,22.4299,1.5179],[-79.229,22.4338,3.424],[-79.2232,22.4346,0.0],[-79.2237,22.436,0.0]]],
[[[-79.801,21.6657,0.3043],[-79.8032,21.6663,0.2381],[-79.7999,21.6604,0.0],[-79.7982,21.664,0.0],[-79.801,21.6657,0.3043]]],
[[[-79.8024,21.6879,0.5673],[-79.8057,21.6882,0.0],[-79.8051,21.6835,0.0],[-79.8021,21.6838,0.0],[-79.8024,21.6849,1.1213],[-79.8043,21.6843,1.1213],[-79.8012,21.6874,0.2375],[-79.8024,21.6879,0.5673]]],
[[[-79.3432,22.4588,0.0],[-79.3437,22.4601,2.0238],[-79.3468,22.4596,2.3394],[-79.3435,22.4554,0.0],[-79.3432,22.4588,0.0]]],
[[[-79.2812,22.4596,0.3615],[-79.2835,22.4596,1.9584],[-79.2879,22.454,2.1349],[-79.2937,22.4529,0.8321],[-79.2979,22.4496,0.0],[-79.301,22.4499,1.4066],[-79.3054,22.4468,1.1024],[-79.3101,22.4471,0.0],[-79.3107,22.444,0.0],[-79.3057,22.4438,0.4774],[-79.304,22.446,1.8679],[-79.3015,22.4463,1.8449],[-79.2987,22.4451,0.0],[-79.296,22.4485,0.0],[-79.2857,22.449,0.7768],[-79.2774,22.444,0.3564],[-79.2787,22.4396,1.4996],[-79.2746,22.4376,1.3492],[-79.2724,22.4385,0.0],[-79.2724,22.4435,0.0],[-79.2596,22.4468,0.0],[-79.2543,22.4499,1.866],[-79.2599,22.4565,0.0],[-79.2679,22.4585,0.3535],[-79.2779,22.4574,0.3913],[-79.2812,22.4596,0.3615]]],
[[[-79.3012,22.4685,0.0],[-79.301,22.4696,3.016],[-79.3099,22.4693,0.9929],[-79.3198,22.4624,0.0],[-79.3349,22.4601,1.47],[-79.339,22.4613,0.6769],[-79.341,22.459,5.5274],[-79.3382,22.456,3.0835],[-79.3343,22.4546,1.3048],[-79.3346,22.4524,2.6122],[-79.3271,22.4524,3.9924],[-79.3235,22.4576,1.5812],[-79.3187,22.4571,2.0841],[-79.3012,22.4685,0.0]]]]}}