{"type":"Feature","properties":{"GID_2":"GLP.1.7_1","GID_0":"GLP","country":"Guadeloupe","GID_1":"GLP.1_1","province":"Basse-Terre","NL_NAME_1":"NA","county":"Gourbeyre","VARNAME_2":"NA","NL_NAME_2":"NA","TYPE_2":"Chef-lieucanton","ENGTYPE_2":"Commune","CC_2":"42","HASC_2":"NA","name":"Gourbeyre.county"},
"geometry":{"type": "MultiPolygon","coordinates": [[[[-61.7226,15.9854,0.4529],[-61.7182,15.9835,0.6677],[-61.7137,15.9782,0.0],[-61.7124,15.9785,132.759],[-61.7101,15.9706,20.6946],[-61.6928,15.9709,566.1363],[-61.6866,15.9744,547.5498],[-61.6835,15.9725,483.8082],[-61.6709,15.9779,190.933],[-61.6644,15.9753,82.0021],[-61.6628,15.9784,85.2095],[-61.6632,15.9819,112.2296],[-61.6688,15.9982,434.6859],[-61.6585,16.0163,672.7504],[-61.6556,16.0334,1133.5194],[-61.6597,16.0423,1263.209],[-61.6633,16.0362,1068.7239],[-61.6617,16.0257,788.7474],[-61.6676,16.0168,583.666],[-61.6803,16.0098,464.4429],[-61.6875,16.0112,439.1194],[-61.7125,15.9968,169.239],[-61.7226,15.9854,0.4529]]]]}}