{"type": "Feature","id": "1393","bbox": [-71.63324,18.59961,-70.8912,19.19108],"geometry": {"type": "Polygon","coordinates": [[[-71.23084,19.17017,1705.1123],[-71.28409,19.17069,1466.1082],[-71.32737,19.19108,1438.0916],[-71.33432,19.16092,1454.7548],[-71.33634,19.13,1749.9858],[-71.36776,19.10718,1652.4757],[-71.40584,19.10514,1233.5222],[-71.43721,19.12325,1539.3822],[-71.47114,19.12839,1353.8649],[-71.49137,19.09235,876.2012],[-71.5031,19.04972,943.8184],[-71.51876,19.01806,516.8077],[-71.54971,19.00946,478.2263],[-71.57798,19.00675,480.1285],[-71.60004,18.98776,400.1793],[-71.62485,18.93784,333.6252],[-71.63324,18.88381,428.3208],[-71.61591,18.86291,458.9755],[-71.6279,18.8142,505.3737],[-71.60531,18.80025,881.2501],[-71.585,18.7834,800.8627],[-71.57782,18.76043,638.1802],[-71.57787,18.73586,753.849],[-71.55932,18.71705,789.4115],[-71.53229,18.711,795.9022],[-71.52075,18.68258,1097.0186],[-71.53498,18.65077,2005.6425],[-71.4879,18.63426,1953.5374],[-71.43845,18.62481,1784.4265],[-71.39354,18.60318,1732.7092],[-71.34486,18.59961,1301.8882],[-71.32332,18.61277,974.5356],[-71.30024,18.62021,783.1287],[-71.27262,18.61731,732.2154],[-71.24521,18.62186,588.1866],[-71.19769,18.63537,615.0964],[-71.16131,18.61592,741.2333],[-71.11738,18.62713,623.7963],[-71.09106,18.66436,441.584],[-71.0747,18.67028,295.8989],[-71.05581,18.67876,302.6867],[-71.05809,18.69162,333.0485],[-71.06473,18.70255,339.5134],[-71.05429,18.71609,435.2044],[-71.0531,18.72878,562.4426],[-71.05943,18.76643,402.8437],[-71.0269,18.77612,708.5353],[-71.01848,18.75883,541.7205],[-71.00393,18.75315,421.514],[-70.99026,18.76562,412.6767],[-70.98246,18.78263,455.7671],[-70.98194,18.83412,687.6234],[-70.97527,18.88368,1367.2634],[-70.96313,18.90874,1759.5453],[-70.93858,18.92505,1811.897],[-70.9245,18.93784,1890.8582],[-70.9205,18.95722,1876.1052],[-70.89957,18.96703,2195.3867],[-70.8912,18.98845,2281.3638],[-70.89967,19.00993,2079.4612],[-70.91621,19.02592,2196.6411],[-70.94212,19.0337,2508.0469],[-70.96807,19.04147,2583.4646],[-70.99248,19.03631,2789.7764],[-71.01543,19.02561,2685.7786],[-71.06054,19.03894,2214.8796],[-71.10509,19.06607,2365.4963],[-71.1241,19.0823,2422.2864],[-71.12715,19.1071,2284.6672],[-71.1357,19.12193,2613.6262],[-71.15237,19.1301,2444.0256],[-71.19325,19.14914,2053.835],[-71.23084,19.17017,1705.1123]]]}
,"properties": {"ISO3166-1-Alpha-3": "DOM","country": "Dominican Republic","fill": "#000","name": "San Juan","area_km2": 3334.799,"hist_schema_id": "Elevation0-9000","hist_area_km2": {"275": 0.04,"300": 5.343,"325": 10.181,"350": 34.647,"375": 86.058,"400": 137.995,"425": 180.754,"450": 173.223,"475": 156.003,"500": 129.239,"525": 108.214,"550": 96.04,"575": 90.085,"600": 84.73,"625": 77.707,"650": 78.427,"675": 70.165,"700": 64.366,"725": 62.116,"750": 55.857,"775": 51.038,"800": 47.162,"825": 41.963,"850": 40.212,"875": 39.069,"900": 38.569,"925": 40.053,"950": 38.927,"975": 40.431,"1000": 39.024,"1025": 39.285,"1050": 40.142,"1075": 37.071,"1100": 35.305,"1125": 36.688,"1150": 33.738,"1175": 31.711,"1200": 32.472,"1225": 31.971,"1250": 31.85,"1275": 30.585,"1300": 30.825,"1325": 31.446,"1350": 28.598,"1375": 29.86,"1400": 29.697,"1425": 30.579,"1450": 28.594,"1475": 28.012,"1500": 27.288,"1525": 25.502,"1550": 25.682,"1575": 24.479,"1600": 23.197,"1625": 21.57,"1650": 21.751,"1675": 21.55,"1700": 19.605,"1725": 18.663,"1750": 19.164,"1775": 17.621,"1800": 17.28,"1825": 16.679,"1850": 16.117,"1875": 17.3,"1900": 16.758,"1925": 16.096,"1950": 15.836,"1975": 16.818,"2000": 14.813,"2025": 15.775,"2050": 14.953,"2075": 12.487,"2100": 11.786,"2125": 11.104,"2150": 10.904,"2175": 9.822,"2200": 9.701,"2225": 9.401,"2250": 8.719,"2275": 7.276,"2300": 7.236,"2325": 6.795,"2350": 5.251,"2375": 5.031,"2400": 4.429,"2425": 4.089,"2450": 3.768,"2475": 4.109,"2500": 2.946,"2525": 3.006,"2550": 2.545,"2575": 2.084,"2600": 2.004,"2625": 1.523,"2650": 1.383,"2675": 1.203,"2700": 0.561,"2725": 0.621,"2750": 0.581,"2775": 0.581,"2800": 0.461,"2825": 0.281,"2850": 0.441,"2875": 0.281,"2900": 0.261,"2925": 0.381,"2950": 0.441,"2975": 0.301,"3000": 0.12,"3025": 0.14,"3050": 0.12,"3075": 0.06}}}