{"type": "Feature","bbox": [-71.6395,18.5881,-70.8788,19.1725],"geometry": {"type": "MultiPolygon","coordinates": [[[[-71.3273,18.6019,1178.1489],[-71.3233,18.6038,1232.0262],[-71.3149,18.6158,743.4283],[-71.3058,18.6204,766.2782],[-71.2966,18.6204,796.837],[-71.2634,18.6123,675.0562],[-71.244,18.6121,506.398],[-71.2178,18.6235,643.6191],[-71.2042,18.6313,636.9414],[-71.1984,18.6297,584.5026],[-71.1959,18.6226,676.9109],[-71.1922,18.6201,555.7402],[-71.1881,18.6205,584.196],[-71.1823,18.6247,746.5132],[-71.1775,18.6257,728.0333],[-71.1732,18.6251,771.3562],[-71.1615,18.6179,784.1946],[-71.1574,18.617,728.561],[-71.1323,18.62,722.1703],[-71.1245,18.6237,700.7362],[-71.1031,18.6381,657.3828],[-71.0907,18.6485,725.235],[-71.0754,18.6731,289.5658],[-71.0707,18.6851,294.6303],[-71.0644,18.6913,324.3796],[-71.061,18.6904,314.3076],[-71.0598,18.6855,303.4085],[-71.0606,18.6815,304.587],[-71.0657,18.6748,291.0186],[-71.0653,18.6681,283.0023],[-71.0617,18.6681,283.5403],[-71.0539,18.6748,355.3868],[-71.0429,18.6735,356.3902],[-71.0393,18.6805,359.5866],[-71.0388,18.7084,391.6111],[-71.0306,18.7146,386.0],[-71.0286,18.7178,386.0],[-71.0358,18.7271,386.0],[-71.0367,18.7395,403.4825],[-71.0415,18.7463,418.1277],[-71.0446,18.7547,531.2736],[-71.0452,18.763,542.3917],[-71.0389,18.7638,489.9944],[-71.0271,18.7709,702.4664],[-71.0208,18.7728,627.7496],[-71.0048,18.7635,511.9727],[-70.9984,18.754,398.1785],[-70.9995,18.7465,392.8244],[-70.9913,18.7456,440.1005],[-70.9893,18.7476,454.8408],[-70.9911,18.7527,436.0778],[-70.9904,18.755,437.3806],[-70.9774,18.761,529.8492],[-70.9741,18.7726,728.3028],[-70.9732,18.7837,514.9203],[-70.9658,18.7871,534.2906],[-70.9622,18.7916,538.1735],[-70.9625,18.8074,499.8682],[-70.9662,18.8142,476.5112],[-70.9733,18.822,544.3531],[-70.9853,18.8453,763.6944],[-70.9881,18.8578,976.778],[-70.9833,18.869,1159.3296],[-70.9885,18.8798,933.0012],[-70.9882,18.8893,1105.3523],[-70.9854,18.8919,1184.0564],[-70.9776,18.8932,1469.615],[-70.9617,18.9029,1521.8418],[-70.9498,18.9043,1557.4419],[-70.9414,18.9145,1569.5574],[-70.9326,18.9195,1650.5508],[-70.9147,18.9214,1751.0071],[-70.9067,18.9369,1561.0475],[-70.913,18.942,1725.8599],[-70.9221,18.9545,1770.3612],[-70.9187,18.9566,1857.2539],[-70.9121,18.9542,1854.0223],[-70.9041,18.9541,1909.8547],[-70.8938,18.9573,2017.0107],[-70.88,18.9642,2161.762],[-70.8788,18.9679,2228.9902],[-70.8814,18.9759,2108.5186],[-70.882,18.9886,2092.3899],[-70.8791,18.9949,2057.9211],[-70.8807,18.9981,2121.4358],[-70.8921,19.0087,2094.4624],[-70.9111,19.0208,1986.3542],[-70.9207,19.0225,2189.9172],[-70.9348,19.0322,2672.4221],[-70.9444,19.034,2514.2288],[-70.9505,19.04,2834.8569],[-70.9765,19.03,2363.699],[-70.9886,19.0171,2778.3442],[-70.9913,19.018,2860.407],[-70.9926,19.024,2880.5547],[-70.9962,19.0251,3030.1194],[-71.0145,19.0218,2413.3218],[-71.0222,19.0173,2371.687],[-71.0395,19.0203,2411.8193],[-71.0417,19.0233,2530.6235],[-71.0394,19.0302,2423.3013],[-71.0405,19.0347,2262.2683],[-71.0597,19.0498,2541.2546],[-71.0817,19.056,2312.0266],[-71.0904,19.0523,2350.8835],[-71.1142,19.0661,2411.2014],[-71.1217,19.0767,2612.9526],[-71.1195,19.0925,2255.3972],[-71.1238,19.1112,2347.5027],[-71.1395,19.1197,2402.8638],[-71.1475,19.1327,2462.8257],[-71.1777,19.1477,2447.2917],[-71.1788,19.1504,2432.1479],[-71.1773,19.1563,2321.6499],[-71.1801,19.1625,2077.7922],[-71.1864,19.1685,2019.9688],[-71.1948,19.1725,2037.3536],[-71.2041,19.1725,1853.4738],[-71.2085,19.1703,1858.8949],[-71.2536,19.162,1732.0558],[-71.2672,19.1653,1695.8313],[-71.2764,19.1704,1548.0142],[-71.2906,19.1652,1405.0625],[-71.3038,19.1651,1459.4637],[-71.3068,19.1679,1535.7736],[-71.3097,19.1651,1539.8265],[-71.3206,19.1648,1693.3842],[-71.3302,19.1619,1471.7178],[-71.3335,19.1571,1487.8162],[-71.3336,19.1378,1384.3986],[-71.3289,19.1201,1467.0858],[-71.3338,19.1051,1578.1853],[-71.3363,19.1033,1431.9514],[-71.3512,19.1011,1543.8982],[-71.357,19.1057,1580.3395],[-71.3619,19.113,1488.2112],[-71.3656,19.1146,1532.0736],[-71.3857,19.1094,1363.8912],[-71.398,19.1095,1564.0381],[-71.4062,19.1137,1438.8369],[-71.4116,19.1237,1192.0692],[-71.4154,19.1262,1260.0203],[-71.4201,19.1255,1405.6696],[-71.4244,19.1206,1330.871],[-71.4464,19.1209,1403.4954],[-71.4502,19.1198,1257.5205],[-71.4512,19.1172,1194.4287],[-71.4477,19.1095,1169.0049],[-71.4502,19.1036,1047.6565],[-71.4715,19.0911,960.6841],[-71.4739,19.0789,1353.6152],[-71.4771,19.0726,1192.3762],[-71.4909,19.0629,1042.5393],[-71.4915,19.043,722.3411],[-71.5001,19.0273,743.7633],[-71.4996,19.0204,629.7979],[-71.4954,19.0117,544.5114],[-71.4973,19.0078,560.9944],[-71.5121,18.9949,490.6671],[-71.5209,18.997,478.4107],[-71.5392,18.9974,478.6577],[-71.5476,19.0001,487.8437],[-71.5569,18.9995,479.9843],[-71.5615,18.9966,457.3949],[-71.5634,18.9886,438.9531],[-71.569,18.9826,430.9953],[-71.573,18.9807,421.6153],[-71.583,18.98,425.8648],[-71.5955,18.9742,402.4381],[-71.6053,18.9653,390.556],[-71.6109,18.9551,390.3225],[-71.6175,18.9504,392.243],[-71.6199,18.9451,371.6949],[-71.6338,18.9414,333.218],[-71.6367,18.9386,328.9603],[-71.6209,18.9333,347.0171],[-71.6079,18.9319,341.0186],[-71.6069,18.9147,380.9338],[-71.608,18.9098,372.9691],[-71.6154,18.9015,362.6031],[-71.6199,18.8915,378.1147],[-71.6374,18.8854,425.511],[-71.6395,18.8833,447.4987],[-71.6395,18.8801,422.8329],[-71.6355,18.8753,408.167],[-71.6262,18.8709,426.5331],[-71.6209,18.8722,419.9422],[-71.6122,18.879,406.2492],[-71.609,18.879,410.6628],[-71.6071,18.8772,418.3778],[-71.607,18.8683,432.0478],[-71.6097,18.8606,454.4134],[-71.6101,18.852,492.1976],[-71.609,18.849,501.236],[-71.6014,18.8416,444.6024],[-71.601,18.8267,462.8499],[-71.6021,18.8236,482.9276],[-71.608,18.8215,479.1263],[-71.612,18.8176,493.3721],[-71.613,18.8031,828.2446],[-71.5847,18.7967,834.3563],[-71.5753,18.7843,897.3984],[-71.5569,18.7796,1046.7505],[-71.558,18.7738,886.2286],[-71.5653,18.7682,659.285],[-71.5601,18.7584,625.28],[-71.5706,18.7391,710.8115],[-71.5679,18.7258,729.7736],[-71.5626,18.722,798.024],[-71.5594,18.715,784.0483],[-71.5595,18.7016,778.1494],[-71.5625,18.6879,961.9417],[-71.5623,18.6733,1448.7463],[-71.5597,18.6639,1747.3922],[-71.564,18.6527,2035.4337],[-71.5436,18.6451,1867.2626],[-71.5284,18.6443,2113.1323],[-71.5174,18.641,2185.6042],[-71.5128,18.638,2003.1772],[-71.5105,18.6308,2220.082],[-71.4968,18.625,1852.8661],[-71.4835,18.6248,2015.9849],[-71.477,18.6223,1891.9749],[-71.471,18.6242,1880.485],[-71.4632,18.6231,1511.6493],[-71.4545,18.6269,1725.3203],[-71.4495,18.6272,1868.5928],[-71.4366,18.6219,1578.0322],[-71.4266,18.6211,1448.066],[-71.4224,18.6183,1525.7889],[-71.4166,18.6098,1633.8096],[-71.4114,18.6056,1599.3356],[-71.406,18.6075,1364.9916],[-71.3971,18.6145,1527.9407],[-71.3942,18.6148,1576.8613],[-71.3901,18.611,1541.5117],[-71.3824,18.6078,1575.3583],[-71.3793,18.5957,1758.6272],[-71.3749,18.5934,1647.5543],[-71.3665,18.5921,1582.0822],[-71.3608,18.5886,1356.235],[-71.3537,18.5896,1580.5394],[-71.345,18.5881,1382.8942],[-71.343,18.589,1367.1794],[-71.3414,18.5945,1353.1511],[-71.3351,18.5962,1304.7446],[-71.3273,18.6019,1178.1489]]]]}
,"properties": {"GID_1": "DOM.26_1","GID_0": "DOM","country": "DominicanRepublic","province": "SanJuan","VARNAME_1": "Benefactor|SanJuandelaMaguan","NL_NAME_1": "NA","TYPE_1": "Provincia","ENGTYPE_1": "Province","CC_1": "NA","HASC_1": "DO.JU","ISO_1": "DO-22","name": "San_Juan.province","area_km2": 3339.871,"hist_schema_id": "Elevation0-9000","hist_area_km2": {"275": 0.201,"300": 4.579,"325": 12.691,"350": 33.386,"375": 90.841,"400": 138.041,"425": 178.33,"450": 169.594,"475": 148.344,"500": 125.092,"525": 108.017,"550": 96.564,"575": 91.754,"600": 85.314,"625": 77.387,"650": 78.529,"675": 69.965,"700": 64.367,"725": 62.037,"750": 56.481,"775": 51.963,"800": 48.529,"825": 42.405,"850": 40.113,"875": 39.251,"900": 38.308,"925": 39.612,"950": 38.206,"975": 39.189,"1000": 37.883,"1025": 38.043,"1050": 38.42,"1075": 36.01,"1100": 34.224,"1125": 35.907,"1150": 33.017,"1175": 31.292,"1200": 32.012,"1225": 31.552,"1250": 31.49,"1275": 30.246,"1300": 30.766,"1325": 31.488,"1350": 28.699,"1375": 29.78,"1400": 29.358,"1425": 30.28,"1450": 28.456,"1475": 27.573,"1500": 27.09,"1525": 25.305,"1550": 25.424,"1575": 24.262,"1600": 22.598,"1625": 21.392,"1650": 21.252,"1675": 20.77,"1700": 19.167,"1725": 18.525,"1750": 19.286,"1775": 18.165,"1800": 17.843,"1825": 17.282,"1850": 17.061,"1875": 18.424,"1900": 17.801,"1925": 17.862,"1950": 17.581,"1975": 18.805,"2000": 17.061,"2025": 18.103,"2050": 17.361,"2075": 14.233,"2100": 13.25,"2125": 13.23,"2150": 12.608,"2175": 11.626,"2200": 11.685,"2225": 11.365,"2250": 10.723,"2275": 8.999,"2300": 8.398,"2325": 7.777,"2350": 6.013,"2375": 5.311,"2400": 4.089,"2425": 3.768,"2450": 3.207,"2475": 3.788,"2500": 2.285,"2525": 2.245,"2550": 2.004,"2575": 1.603,"2600": 1.644,"2625": 1.142,"2650": 1.122,"2675": 0.962,"2700": 0.381,"2725": 0.521,"2750": 0.461,"2775": 0.341,"2800": 0.14,"2825": 0.12,"2850": 0.1,"2875": 0.1,"2900": 0.1,"2925": 0.1,"2950": 0.08,"2975": 0.08,"3025": 0.12,"3050": 0.06,"3075": 0.06}}}