{"type": "Feature","id": "1971","bbox": [-72.00984,18.13595,-71.20076,18.68473],"geometry": {"type": "Polygon","coordinates": [[[-71.53498,18.65077,2005.6425],[-71.59779,18.66367,1738.8103],[-71.66193,18.66842,1909.7919],[-71.72944,18.67845,1978.4224],[-71.7849,18.68473,1921.9368],[-71.79178,18.68068,1889.3298],[-71.79435,18.67917,1824.5317],[-71.80799,18.66465,1352.7906],[-71.82856,18.63129,1172.5819],[-71.84158,18.61799,602.5373],[-71.88028,18.6054,407.3481],[-71.95547,18.61861,183.6622],[-71.99263,18.61114,20.0],[-72.00984,18.59881,20.0],[-72.00095,18.58246,20.0],[-71.91052,18.49427,104.5333],[-71.90406,18.48479,373.5241],[-71.90158,18.46978,606.7625],[-71.9069,18.4643,604.2112],[-71.91439,18.46022,624.5272],[-71.91816,18.44924,872.9021],[-71.91217,18.43074,587.349],[-71.89718,18.42288,612.5643],[-71.85817,18.41355,726.5841],[-71.84974,18.40645,794.7912],[-71.83455,18.38508,984.985],[-71.82644,18.37617,1086.5358],[-71.78871,18.35221,1452.9432],[-71.73497,18.33294,1451.7894],[-71.72071,18.32397,1524.5138],[-71.71151,18.31614,1487.2731],[-71.70934,18.31325,1547.53],[-71.72111,18.29397,2046.6871],[-71.72171,18.293,2185.1562],[-71.71949,18.29211,2183.1091],[-71.63678,18.24767,2172.978],[-71.55162,18.20762,1958.6079],[-71.51509,18.19881,1811.0514],[-71.48046,18.18545,1879.9952],[-71.45183,18.15987,1806.6587],[-71.42194,18.13595,1559.7454],[-71.41757,18.16297,1487.1887],[-71.39931,18.1816,1084.524],[-71.37398,18.17501,677.4475],[-71.35101,18.17796,448.4681],[-71.36665,18.23282,110.8046],[-71.38137,18.29012,69.6841],[-71.33706,18.29917,20.0184],[-71.28663,18.28284,4.9973],[-71.23392,18.29633,3.5],[-71.20076,18.33836,17.8567],[-71.23673,18.33599,17.6283],[-71.26459,18.35787,13.0825],[-71.29055,18.40417,6.9882],[-71.3384,18.40702,1.8335],[-71.37672,18.39273,-1.9102],[-71.41545,18.40211,-18.0865],[-71.45163,18.42327,-28.0553],[-71.48997,18.43975,-36.1019],[-71.5926,18.47799,-37.0],[-71.62066,18.5653,254.6283],[-71.60945,18.58626,570.4756],[-71.60268,18.60881,951.326],[-71.60428,18.62153,1339.4607],[-71.59947,18.63258,1396.9579],[-71.56746,18.6423,1354.8007],[-71.53498,18.65077,2005.6425]]]}
,"properties": {"ISO3166-1-Alpha-3": "DOM","country": "Dominican Republic","fill": "#F0F","name": "Independencia","area_km2": 2093.774,"hist_schema_id": "Elevation0-9000","hist_area_km2": {"-25": 379.393,"0": 259.299,"25": 177.521,"50": 85.424,"75": 70.83,"100": 39.964,"125": 30.815,"150": 24.62,"175": 19.471,"200": 18.887,"225": 18.564,"250": 17.579,"275": 17.68,"300": 15.588,"325": 16.392,"350": 16.915,"375": 16.915,"400": 24.28,"425": 27.117,"450": 27.097,"475": 27.377,"500": 27.98,"525": 27.054,"550": 24.741,"575": 24.901,"600": 22.266,"625": 20.298,"650": 19.031,"675": 17.644,"700": 17.745,"725": 17.423,"750": 19.195,"775": 18.49,"800": 17.263,"825": 17.889,"850": 18.976,"875": 16.299,"900": 15.514,"925": 12.012,"950": 11.389,"975": 10.503,"1000": 11.147,"1025": 12.052,"1050": 12.798,"1075": 11.752,"1100": 10.524,"1125": 10.341,"1150": 9.678,"1175": 9.797,"1200": 10.803,"1225": 10.219,"1250": 10.459,"1275": 9.514,"1300": 8.972,"1325": 8.972,"1350": 9.213,"1375": 10.139,"1400": 10.201,"1425": 9.797,"1450": 9.555,"1475": 9.617,"1500": 9.798,"1525": 9.375,"1550": 9.335,"1575": 8.029,"1600": 7.625,"1625": 7.061,"1650": 6.8,"1675": 7.948,"1700": 6.921,"1725": 7.585,"1750": 6.982,"1775": 7.89,"1800": 8.253,"1825": 6.943,"1850": 6.861,"1875": 7.059,"1900": 5.972,"1925": 7.278,"1950": 6.477,"1975": 5.915,"2000": 4.024,"2025": 4.768,"2050": 4.486,"2075": 5.008,"2100": 3.6,"2125": 3.159,"2150": 1.832,"2175": 1.168,"2200": 0.705,"2225": 0.383,"2250": 0.161,"2275": 0.081,"2300": 0.141,"2325": 0.181,"2350": 0.081}}}