{"type":"Feature","properties":{"featurecla":"Alkaline Lake","scalerank":7,"name":"Etang Saumâtre","name_abb":"Etang Saumâtre","name_alt":"Lac Azuéi","note":null,"delta":null,"dam_name":null,"year":-99,"admin":"admin-0 more","min_zoom":5.7,"min_label":6.7},
"geometry":{"type": "Polygon","coordinates": [[[-71.948034395455167,18.530629945137775,20.0],[-71.960692052921829,18.554473439435441,20.0],[-71.973496892452062,18.573312743571876,20.0],[-71.985565821664451,18.582143667385822,20.0],[-71.996751658495455,18.588325314055595,20.0],[-72.004993854055144,18.596273145488141,20.0],[-72.008379041517159,18.611874444226117,20.0],[-72.009556498025688,18.640133400430756,386.9115],[-72.013530413741961,18.649847416626102,478.8943],[-72.021919791365221,18.656617791550133,595.4787],[-72.050914657887688,18.631891204871067,20.0],[-72.063719497417921,18.601571699776514,21.3607],[-72.059304035510934,18.56771982515636,25.9144],[-72.0361964515311,18.532396129900576,127.448],[-72.020300788665992,18.52356520608663,207.884],[-71.999400935639642,18.5167948311626,88.0462],[-71.98129754182105,18.50678645084011,49.5058],[-71.973496892452062,18.487652782576561,122.7271],[-71.9646659686381,18.478821858762615,196.406],[-71.9440604797389,18.479410587016872,371.5024],[-71.921247259886186,18.48500350543236,155.5217],[-71.90520441495751,18.491479516229276,273.4433],[-71.9311084581451,18.50766954322151,20.0],[-71.948034395455167,18.530629945137775,20.0]]]}}