{"type":"Feature","properties":{"GID_2":"HTI.8.4_1","GID_0":"HTI","country":"Haiti","GID_1":"HTI.8_1","province":"Ouest","NL_NAME_1":"NA","county":"Léogâne","VARNAME_2":"NA","NL_NAME_2":"NA","TYPE_2":"Arrondissement","ENGTYPE_2":"District","CC_2":"NA","HASC_2":"HT.OU.LN","name":"Léogâne.county"},
"geometry":{"type": "MultiPolygon","coordinates": [[[[-72.8294,18.2855,394.8001],[-72.8275,18.2893,499.6213],[-72.8223,18.287,386.7111],[-72.8086,18.2867,676.7466],[-72.7947,18.2754,580.2025],[-72.765,18.2669,402.2009],[-72.7613,18.2685,376.7112],[-72.7617,18.2749,576.306],[-72.7636,18.2757,403.013],[-72.763,18.2786,497.1144],[-72.7558,18.2883,745.6382],[-72.7536,18.2903,1043.2352],[-72.7496,18.2901,1077.3577],[-72.7436,18.2873,1064.6523],[-72.7416,18.2896,1117.5411],[-72.7401,18.3001,1164.1144],[-72.7415,18.3096,1221.1604],[-72.7403,18.3125,1178.3185],[-72.7437,18.3236,1074.8071],[-72.7378,18.3222,1119.3633],[-72.7266,18.3108,949.2297],[-72.7247,18.3057,890.8835],[-72.7164,18.3029,733.533],[-72.7123,18.2952,750.4915],[-72.7034,18.3003,706.0645],[-72.7034,18.3074,843.3815],[-72.6993,18.3086,837.5629],[-72.6971,18.3114,792.467],[-72.6953,18.3188,711.697],[-72.6929,18.3208,689.8388],[-72.6834,18.322,466.5059],[-72.6824,18.3253,454.0948],[-72.6698,18.33,324.6075],[-72.6653,18.3283,304.1996],[-72.6629,18.3253,324.1572],[-72.6557,18.3234,334.6546],[-72.6511,18.3237,268.5196],[-72.6436,18.3279,356.5474],[-72.6419,18.3305,402.9261],[-72.6419,18.3455,477.9005],[-72.6223,18.3443,587.6639],[-72.6173,18.3387,628.3868],[-72.6115,18.3264,409.1129],[-72.6082,18.3228,468.2498],[-72.6014,18.3241,592.2047],[-72.5999,18.3334,664.2857],[-72.5962,18.3416,691.5601],[-72.587,18.352,821.6522],[-72.5799,18.3526,664.7606],[-72.5643,18.3469,320.8626],[-72.5636,18.3546,556.2894],[-72.5602,18.3546,674.4091],[-72.5559,18.3515,626.9849],[-72.5527,18.3518,588.2431],[-72.5536,18.354,646.254],[-72.55,18.3587,720.0313],[-72.5509,18.3651,579.0791],[-72.5346,18.3707,228.5667],[-72.5312,18.3824,550.2043],[-72.5223,18.3884,626.2538],[-72.52,18.3949,720.735],[-72.5073,18.3988,447.7383],[-72.5029,18.4056,634.5211],[-72.4984,18.4054,424.4632],[-72.4825,18.4,510.0325],[-72.4513,18.397,647.1258],[-72.4498,18.4013,868.9005],[-72.451,18.4039,1011.1548],[-72.4492,18.4061,1039.7258],[-72.4526,18.4102,1180.2874],[-72.4508,18.4127,1334.3311],[-72.4533,18.4162,1374.2587],[-72.4502,18.4211,1393.4668],[-72.4541,18.4287,1190.2463],[-72.452,18.4312,1064.3385],[-72.4522,18.4332,1068.6271],[-72.4588,18.4444,1130.9434],[-72.4555,18.4505,1213.0693],[-72.4556,18.4566,1093.0164],[-72.4658,18.4642,677.3541],[-72.469,18.4762,200.1327],[-72.4894,18.472,184.0859],[-72.4944,18.4735,159.6158],[-72.5205,18.4716,170.4578],[-72.5261,18.4734,132.6517],[-72.531,18.4716,132.8699],[-72.5385,18.4746,117.9776],[-72.5456,18.4715,109.9276],[-72.5519,18.4728,93.1558],[-72.5558,18.4758,87.8216],[-72.5661,18.4895,73.5197],[-72.5693,18.4918,69.1852],[-72.5692,18.5092,45.1459],[-72.5648,18.5143,33.3675],[-72.5604,18.5157,31.8886],[-72.5577,18.5145,40.9053],[-72.5573,18.5169,38.7508],[-72.5614,18.5221,25.5122],[-72.547,18.5454,3.6401],[-72.546,18.5499,0.4072],[-72.5512,18.5515,1.1768],[-72.5534,18.5543,2.4993],[-72.5529,18.5607,0.0],[-72.5587,18.561,0.0],[-72.5659,18.5649,0.4391],[-72.5722,18.5641,0.0],[-72.5788,18.5654,0.409],[-72.5989,18.5593,0.7582],[-72.6085,18.5588,0.0],[-72.6265,18.5512,0.5597],[-72.6487,18.5255,0.5286],[-72.6526,18.5243,0.0],[-72.6532,18.514,3.6511],[-72.6612,18.4962,0.0],[-72.669,18.4724,0.0],[-72.6787,18.453,0.426],[-72.6885,18.446,0.8689],[-72.6891,18.4435,1.2709],[-72.6935,18.4399,0.5663],[-72.6988,18.4374,1.9373],[-72.704,18.4385,0.4642],[-72.7071,18.4341,3.1135],[-72.711,18.4351,1.027],[-72.7143,18.4332,0.0],[-72.7143,18.4315,0.783],[-72.7288,18.4265,1.235],[-72.7451,18.4271,0.0],[-72.7487,18.4301,1.3566],[-72.7538,18.4285,1.9551],[-72.7635,18.434,0.0],[-72.7826,18.4329,0.6212],[-72.786,18.4307,0.0],[-72.7913,18.4301,3.8167],[-72.7965,18.4326,2.733],[-72.8015,18.4379,0.0],[-72.8132,18.4424,0.0],[-72.8421,18.4432,17.2702],[-72.8492,18.4448,0.0],[-72.8585,18.4421,0.0],[-72.8682,18.4343,0.0],[-72.8753,18.4255,0.0],[-72.8799,18.4247,1.5445],[-72.8901,18.4263,0.0],[-72.8921,18.4251,3.148],[-72.8979,18.4308,1.0461],[-72.8988,18.4374,0.1756],[-72.9024,18.4405,0.0],[-72.9006,18.4432,0.1163],[-72.8927,18.441,0.2551],[-72.89,18.4423,0.0],[-72.8938,18.4437,0.4176],[-72.8946,18.4474,10.7571],[-72.9035,18.4496,10.4235],[-72.9112,18.4493,2.0918],[-72.9149,18.4529,0.0],[-72.9226,18.4543,8.0775],[-72.9301,18.4579,3.2145],[-72.9351,18.4568,36.0159],[-72.9424,18.4596,5.1498],[-72.9546,18.4613,6.7178],[-72.9624,18.4649,0.0],[-72.9718,18.4662,1.2036],[-72.9818,18.4654,13.0552],[-72.9868,18.4682,14.3994],[-72.9929,18.4676,0.0],[-72.9956,18.4649,8.5392],[-73.001,18.464,0.0],[-73.0049,18.4657,0.0],[-73.0193,18.466,0.0],[-73.0343,18.4626,1.1191],[-73.0404,18.4651,13.5225],[-73.0423,18.4647,12.7516],[-73.044,18.4613,6.8184],[-73.0507,18.461,2.0659],[-73.0547,18.4523,162.3306],[-73.0523,18.4479,233.023],[-73.0486,18.4454,213.4244],[-73.0445,18.4374,198.2168],[-73.0483,18.4353,126.5037],[-73.0519,18.4354,112.9635],[-73.054,18.4332,41.8132],[-73.0513,18.4307,71.6042],[-73.0499,18.4253,17.0],[-73.0555,18.4129,17.0],[-73.0589,18.4113,17.0],[-73.0605,18.4082,17.0],[-73.0635,18.3958,17.0],[-73.0728,18.3918,17.6897],[-73.0714,18.3855,89.9353],[-73.0501,18.3832,177.5117],[-73.0494,18.3848,112.0304],[-73.0312,18.389,107.589],[-73.0236,18.3874,164.358],[-73.019,18.383,159.1842],[-73.0256,18.3746,340.5582],[-73.0147,18.3668,485.1902],[-73.0109,18.3606,479.6272],[-73.0137,18.3524,587.3859],[-73.0187,18.351,491.9747],[-73.0201,18.3484,530.8142],[-73.0172,18.3416,479.6878],[-73.0131,18.3361,417.4939],[-73.0006,18.329,600.7977],[-72.9967,18.3239,578.9299],[-72.9937,18.3269,648.89],[-72.9868,18.3207,708.3911],[-72.9868,18.3107,593.2739],[-72.9845,18.3087,526.056],[-72.9841,18.3045,515.4967],[-72.9818,18.3009,433.0143],[-72.9774,18.2985,379.7563],[-72.9775,18.2924,372.8524],[-72.9751,18.2877,367.3805],[-72.9725,18.2841,362.1384],[-72.9671,18.281,337.4247],[-72.9658,18.278,338.543],[-72.9605,18.2769,340.6854],[-72.9582,18.2783,338.6384],[-72.9529,18.2934,489.4239],[-72.9428,18.2943,644.8127],[-72.9406,18.2904,735.4565],[-72.9348,18.2927,599.7599],[-72.9327,18.2876,478.9536],[-72.9295,18.2866,343.338],[-72.9231,18.2898,319.2341],[-72.9197,18.2885,361.7497],[-72.9135,18.2907,373.7872],[-72.8996,18.2915,644.8463],[-72.8897,18.295,736.0692],[-72.8903,18.2923,758.5782],[-72.8962,18.2877,740.2732],[-72.8949,18.2862,673.5753],[-72.8911,18.2824,446.3348],[-72.8831,18.2813,428.915],[-72.8838,18.2764,460.923],[-72.8755,18.2697,339.3664],[-72.8694,18.2671,472.9956],[-72.8666,18.2636,541.9391],[-72.8593,18.259,276.5054],[-72.8534,18.2582,248.9865],[-72.8505,18.2609,373.6235],[-72.8506,18.2633,383.8047],[-72.856,18.2735,484.707],[-72.8562,18.2811,549.2155],[-72.8414,18.283,529.636],[-72.8314,18.2822,461.8468],[-72.8294,18.2855,394.8001]]],
[[[-72.749,18.4324,0.9884],[-72.7493,18.4332,0.9884],[-72.7518,18.4335,0.7592],[-72.7499,18.4313,0.0],[-72.749,18.4324,0.9884]]]]}}