{"type":"Feature","properties":{"ISO3166-1-Alpha-3":"JAM","country":"Jamaica","fill":"#00F","id":"1379","name":"Saint Ann"},
"geometry":{"type": "Polygon","coordinates": [[[-77.07035,18.41336,8.2225],[-77.10473,18.40786,3.9455],[-77.13736,18.40892,119.5474],[-77.14257,18.4121,70.9123],[-77.15941,18.42621,3.8716],[-77.16495,18.42939,9.7281],[-77.20962,18.43684,35.8711],[-77.20885,18.43496,38.3691],[-77.21203,18.43179,87.6702],[-77.21744,18.42935,100.283],[-77.2233,18.42939,131.4789],[-77.22814,18.43366,123.0803],[-77.23184,18.44603,22.2911],[-77.23632,18.45051,13.8329],[-77.27261,18.45938,24.8218],[-77.32531,18.46503,1.5643],[-77.37654,18.46516,18.5931],[-77.40827,18.45734,50.4754],[-77.42886,18.46922,59.0964],[-77.45499,18.47533,0.0],[-77.46529,18.47605,19.9144],[-77.46565,18.47399,51.7333],[-77.46782,18.45412,220.3972],[-77.46702,18.44593,187.3371],[-77.45555,18.41761,300.025],[-77.45475,18.4104,267.7505],[-77.45555,18.40459,219.4469],[-77.45824,18.39831,297.1809],[-77.45821,18.39472,321.9714],[-77.45682,18.3919,292.012],[-77.45149,18.3856,233.1567],[-77.45116,18.38102,311.879],[-77.45147,18.37611,341.0639],[-77.49116,18.1961,839.3086],[-77.46764,18.18871,748.8356],[-77.44222,18.18455,649.9373],[-77.43788,18.18473,625.8549],[-77.43315,18.18556,679.1759],[-77.42602,18.18835,622.3057],[-77.42227,18.19036,576.1473],[-77.41529,18.19561,623.8783],[-77.41287,18.19672,606.3256],[-77.37897,18.20406,777.0151],[-77.37483,18.20398,698.8264],[-77.36969,18.20318,604.4215],[-77.35044,18.19584,541.3612],[-77.30137,18.18726,697.8782],[-77.21086,18.1861,639.9496],[-77.07676,18.2023,372.3388],[-77.05643,18.20977,535.9955],[-76.99641,18.24196,528.9521],[-77.01558,18.26033,561.1192],[-77.02222,18.26883,572.5449],[-77.02343,18.27147,530.4205],[-77.02503,18.27695,521.1463],[-77.02643,18.28545,407.123],[-77.0295,18.29465,386.7208],[-77.03374,18.301,338.6564],[-77.04614,18.31501,295.1568],[-77.04824,18.3187,314.1511],[-77.0486,18.32172,387.4455],[-77.04645,18.34415,275.9004],[-77.04829,18.3479,351.9674],[-77.051,18.35154,351.6458],[-77.05625,18.35635,310.5401],[-77.05831,18.35989,354.6885],[-77.06028,18.36707,318.5115],[-77.0609,18.37226,221.4946],[-77.06953,18.40885,32.5605],[-77.07035,18.41336,8.2225]]]}}