{"type":"Feature","properties":{"GID_3":"HTI.5.2.3_1","GID_0":"HTI","country":"Haiti","GID_1":"HTI.5_1","province":"Nord-Est","NL_NAME_1":"NA","GID_2":"HTI.5.2_1","county":"leTrou-du-Nord","NL_NAME_2":"NA","city":"TerrierRouge","VARNAME_3":"NA","NL_NAME_3":"NA","TYPE_3":"Commune","ENGTYPE_3":"Commune","CC_3":"NA","HASC_3":"NA","name":"Terrier_Rouge.city"},
"geometry":{"type": "MultiPolygon","coordinates": [[[[-71.9064,19.6009,90.6802],[-71.9051,19.6062,105.6942],[-71.8965,19.6133,291.8677],[-71.8941,19.6135,336.6461],[-71.9012,19.6254,99.3987],[-71.9008,19.6302,71.8559],[-71.8978,19.6345,51.396],[-71.8981,19.6374,43.7889],[-71.8922,19.6473,25.1104],[-71.894,19.6527,23.8956],[-71.8926,19.6707,0.0],[-71.8956,19.6687,2.4761],[-71.8968,19.6704,2.3207],[-71.8909,19.6769,0.8546],[-71.8859,19.6775,0.0],[-71.8874,19.6818,4.4459],[-71.891,19.6821,0.0],[-71.8943,19.6782,5.8517],[-71.8971,19.6804,1.9762],[-71.9021,19.6799,1.2422],[-71.901,19.6821,0.0],[-71.9025,19.6824,0.0],[-71.9035,19.6865,0.0],[-71.8965,19.6851,0.967],[-71.896,19.6826,0.5076],[-71.8929,19.6871,7.0439],[-71.889,19.6843,0.8971],[-71.8838,19.6857,7.4353],[-71.8835,19.6826,1.4802],[-71.8815,19.684,3.0608],[-71.8785,19.6832,0.0],[-71.8757,19.6793,0.5747],[-71.8716,19.6805,0.0],[-71.872,19.6842,5.7169],[-71.8668,19.6851,0.0],[-71.8672,19.6879,0.5485],[-71.8624,19.691,8.2026],[-71.8587,19.6901,0.0],[-71.8571,19.6924,13.2072],[-71.854,19.6896,0.8282],[-71.8514,19.691,4.4125],[-71.8485,19.6948,0.0],[-71.8485,19.7013,0.6548],[-71.846,19.7025,2.3483],[-71.8457,19.7076,1.5983],[-71.8487,19.7149,0.0],[-71.8512,19.7165,0.0],[-71.8585,19.7176,0.0],[-71.8676,19.7161,1.0346],[-71.8785,19.7199,1.1647],[-71.8946,19.7204,2.6723],[-71.9074,19.7263,0.9337],[-71.9205,19.7265,0.9035],[-71.9248,19.7223,0.8544],[-71.9248,19.7153,0.5607],[-71.9311,19.7124,0.7892],[-71.9386,19.712,0.6952],[-71.9457,19.7076,0.5516],[-71.9525,19.7081,1.0508],[-71.9666,19.7041,1.1147],[-71.969,19.702,0.5488],[-71.9581,19.6878,8.4024],[-71.9614,19.6704,12.6802],[-71.9726,19.6717,8.8878],[-71.976,19.6676,10.3284],[-71.9788,19.668,8.9933],[-71.9823,19.65,25.4951],[-71.9906,19.6369,148.4973],[-71.9911,19.6308,133.2935],[-71.9873,19.6281,131.9065],[-71.9853,19.622,195.8988],[-71.9857,19.6128,220.4641],[-71.9824,19.6103,211.1824],[-71.9811,19.6055,227.4791],[-71.9774,19.6019,284.9301],[-71.9793,19.5967,223.6956],[-71.9741,19.5916,256.4522],[-71.9732,19.5871,344.1827],[-71.9669,19.5792,206.5712],[-71.9615,19.5756,198.878],[-71.9563,19.5695,162.4433],[-71.951,19.5678,265.0211],[-71.9485,19.5636,233.4587],[-71.9433,19.5605,382.8193],[-71.9436,19.5581,387.0698],[-71.9325,19.546,248.2099],[-71.9156,19.5356,137.8228],[-71.9118,19.5305,110.505],[-71.9056,19.5283,116.6496],[-71.8968,19.5308,83.2225],[-71.8948,19.534,71.3849],[-71.8942,19.5434,60.5654],[-71.8827,19.5465,58.3937],[-71.8862,19.5475,52.1233],[-71.8829,19.5509,46.1485],[-71.8845,19.5544,46.8366],[-71.8838,19.5606,69.3246],[-71.8912,19.5696,100.2757],[-71.8961,19.571,135.731],[-71.8997,19.5752,196.525],[-71.8951,19.581,75.8694],[-71.8955,19.5861,62.5149],[-71.9064,19.6009,90.6802]]],
[[[-71.8543,19.6829,0.9142],[-71.8557,19.6832,0.0],[-71.8565,19.6799,0.0],[-71.8538,19.6821,0.9142],[-71.8543,19.6829,0.9142]]]]}}