{"type":"Feature","properties":{"GID_2":"CUB.12.10_1","GID_0":"CUB","country":"Cuba","GID_1":"CUB.12_1","province":"Mayabeque","NL_NAME_1":"NA","county":"SanNicolás","VARNAME_2":"NA","NL_NAME_2":"NA","TYPE_2":"Municipio","ENGTYPE_2":"Municipality","CC_2":"NA","HASC_2":"CU.LH.SN","name":"San_Nicolás.county"},
"geometry":{"type": "MultiPolygon","coordinates": [[[[-82.007,22.6707,3.8544],[-81.9679,22.676,0.8086],[-81.9488,22.6757,0.3831],[-81.9413,22.6771,1.7094],[-81.9385,22.6757,0.0],[-81.9268,22.676,1.0428],[-81.9218,22.674,0.6487],[-81.911,22.6737,0.0],[-81.881,22.6796,2.7351],[-81.8799,22.6779,0.0],[-81.8701,22.679,9.2849],[-81.861,22.6768,0.8898],[-81.8499,22.6712,0.0],[-81.8246,22.664,7.3007],[-81.8139,22.7012,1.163],[-81.8136,22.7849,26.3273],[-81.8013,22.813,47.2801],[-81.8273,22.8151,49.8604],[-81.8435,22.821,50.7939],[-81.8679,22.8249,61.9577],[-81.8935,22.8469,71.4962],[-81.9079,22.8632,84.7892],[-81.9254,22.85,79.3031],[-81.9424,22.841,64.7111],[-81.9582,22.8252,52.3114],[-81.9578,22.8174,48.9518],[-81.951,22.8049,33.044],[-81.9405,22.7926,34.5931],[-81.94,22.7864,33.3444],[-81.9547,22.7577,14.1337],[-81.9687,22.7401,11.0335],[-81.9974,22.6843,1.3103],[-82.007,22.6707,3.8544]]]]}}