{"type":"Feature","properties":{"ISO3166-1-Alpha-3":"BHS","country":"The Bahamas","fill":"#FF0","id":"5016","name":"South Abaco"},
"geometry":{"type": "MultiPolygon","coordinates": [[[[-77.5253,26.09073,0.5463],[-77.53197,26.10725,2.0191],[-77.53612,26.10741,0.0],[-77.54052,26.10033,1.5097],[-77.5487,26.09573,0.0],[-77.54882,26.09317,0.0],[-77.54406,26.08824,0.0],[-77.53848,26.08446,2.1193],[-77.5349,26.07929,1.4289],[-77.53156,26.07892,4.8718],[-77.5253,26.09073,0.5463]]],
[[[-77.01651,26.31171,10.5162],[-77.01476,26.31566,5.0172],[-77.0161,26.31953,0.3999],[-77.0172,26.32762,0.5405],[-77.01944,26.33271,0.0],[-77.0244,26.33759,0.0],[-77.02929,26.34443,1.6332],[-77.03156,26.35529,0.1048],[-77.23058,26.2851,0.0],[-77.23013,26.25873,0.0],[-77.23388,26.24405,0.0],[-77.2425,26.23452,0.0],[-77.25182,26.22602,0.0],[-77.25805,26.21475,0.0],[-77.25642,26.20392,1.0332],[-77.24877,26.19652,0.4895],[-77.24035,26.19058,0.0],[-77.23632,26.18366,0.0],[-77.23583,26.1717,0.0],[-77.23379,26.16226,0.9713],[-77.22981,26.154,0.0],[-77.2233,26.14582,0.0],[-77.24893,26.13605,0.0],[-77.27237,26.11831,0.0],[-77.30895,26.08063,0.0],[-77.32103,26.07518,0.0],[-77.3356,26.07368,0.0],[-77.34789,26.07062,0.0],[-77.35912,26.04588,0.0],[-77.37393,26.03547,0.0924],[-77.39208,26.02985,0.0],[-77.40827,26.02973,0.0],[-77.38817,26.00544,3.9606],[-77.31505,25.99095,0.2618],[-77.29898,25.97793,0.0],[-77.29271,25.95726,0.0],[-77.27623,25.92601,0.9809],[-77.25304,25.89761,0.0],[-77.22667,25.88508,4.0237],[-77.19074,25.91633,9.5624],[-77.18716,25.98847,0.0],[-77.19221,26.069,16.8301],[-77.18171,26.12531,0.0],[-77.18322,26.14427,4.7462],[-77.17439,26.22069,22.6337],[-77.16495,26.24543,11.1627],[-77.14265,26.26826,5.2502],[-77.11531,26.29043,6.9362],[-77.08446,26.30614,0.7718],[-77.05199,26.30964,1.4132],[-77.05675,26.29466,3.05],[-77.05883,26.29043,0.0],[-77.04101,26.29377,0.4828],[-77.0327,26.29743,0.3373],[-77.02473,26.30345,0.3116],[-77.01651,26.31171,10.5162]]]]}}