{"type":"Feature","properties":{"GID_2":"CUB.2.1_1","GID_0":"CUB","country":"Cuba","GID_1":"CUB.2_1","province":"CiegodeÁvila","NL_NAME_1":"NA","county":"Baraguá","VARNAME_2":"NA","NL_NAME_2":"NA","TYPE_2":"Municipio","ENGTYPE_2":"Municipality","CC_2":"NA","HASC_2":"CU.CA.BA","name":"Baraguá.county"},
"geometry":{"type": "MultiPolygon","coordinates": [[[[-78.8143,21.3932,0.0],[-78.8165,21.3937,0.9833],[-78.8132,21.3876,1.819],[-78.8146,21.384,1.3992],[-78.8121,21.3843,2.1524],[-78.8107,21.3824,0.0],[-78.811,21.3793,0.5706],[-78.8151,21.3768,0.0],[-78.8082,21.3701,0.0],[-78.8057,21.3732,0.0],[-78.809,21.3843,0.1011],[-78.8112,21.3865,1.984],[-78.8093,21.3902,0.2249],[-78.8121,21.3896,0.7338],[-78.8143,21.3932,0.0]]],
[[[-78.7832,21.3968,0.8751],[-78.7849,21.3976,0.0],[-78.7899,21.3954,1.4124],[-78.791,21.3924,0.0],[-78.7943,21.3935,1.0518],[-78.7982,21.3876,0.0],[-78.7965,21.3849,0.0],[-78.7937,21.3865,0.0],[-78.794,21.391,0.3982],[-78.7924,21.3918,0.3982],[-78.7862,21.3868,0.0],[-78.7824,21.3946,0.2497],[-78.7832,21.3968,0.8751]]],
[[[-78.7937,21.396,0.0],[-78.7957,21.3968,1.5906],[-78.7965,21.3954,0.0],[-78.794,21.394,0.0],[-78.7937,21.396,0.0]]],
[[[-78.7957,21.409,0.0],[-78.7954,21.4104,0.0],[-78.7982,21.4104,0.0],[-78.7962,21.4071,0.0],[-78.7957,21.409,0.0]]],
[[[-78.7862,21.4104,0.3323],[-78.7885,21.4112,0.0],[-78.7896,21.409,0.2437],[-78.7865,21.4074,0.2675],[-78.7862,21.4104,0.3323]]],
[[[-78.7804,21.4118,0.8141],[-78.7812,21.4138,0.0],[-78.7826,21.4135,0.0],[-78.7793,21.4068,0.4404],[-78.779,21.4076,0.0],[-78.7804,21.4118,0.8141]]],
[[[-78.7765,21.4229,0.326],[-78.7796,21.4237,0.8117],[-78.781,21.4215,0.0],[-78.776,21.4215,0.4294],[-78.7765,21.4229,0.326]]],
[[[-78.7812,21.4565,0.5691],[-78.7854,21.4574,0.0],[-78.794,21.4551,0.916],[-78.789,21.4496,0.3275],[-78.791,21.4471,0.0],[-78.7949,21.4501,0.6274],[-78.796,21.4488,0.6274],[-78.7896,21.4426,0.2165],[-78.7899,21.4457,1.0457],[-78.7874,21.4449,0.0],[-78.7846,21.4463,0.4791],[-78.7846,21.4499,0.7912],[-78.7829,21.4513,0.678],[-78.7815,21.4504,0.5991],[-78.7804,21.4443,0.0],[-78.7774,21.4435,0.0],[-78.7757,21.4493,0.4597],[-78.7812,21.4565,0.5691]]],
[[[-78.826,21.4788,0.0],[-78.836,21.4793,0.3364],[-78.8343,21.4768,1.9146],[-78.8374,21.4774,0.0],[-78.8368,21.4754,0.0],[-78.8326,21.474,1.2625],[-78.8315,21.4693,0.0],[-78.8285,21.4682,1.7849],[-78.8274,21.4646,0.6938],[-78.8226,21.4679,1.7464],[-78.8193,21.4665,0.7272],[-78.8221,21.4757,0.0],[-78.826,21.4788,0.0]]],
[[[-78.8501,21.4896,2.4925],[-78.8529,21.4904,1.6746],[-78.8574,21.4865,1.1786],[-78.8515,21.4826,1.0297],[-78.8512,21.4776,0.3271],[-78.8474,21.479,0.0],[-78.849,21.4824,0.0],[-78.8487,21.4871,1.0427],[-78.846,21.4874,1.3633],[-78.8435,21.4851,0.0],[-78.8415,21.4863,2.4367],[-78.8432,21.4893,0.0],[-78.8493,21.4885,1.0427],[-78.8501,21.4896,2.4925]]],
[[[-78.8332,21.4946,3.0652],[-78.8354,21.4957,0.0],[-78.8371,21.4935,0.8073],[-78.8349,21.4929,1.5256],[-78.8354,21.491,0.0],[-78.8335,21.4882,0.0],[-78.8326,21.489,1.2085],[-78.8332,21.4946,3.0652]]],
[[[-78.8574,21.4949,0.0],[-78.8613,21.4957,0.0],[-78.8621,21.4938,0.0],[-78.8551,21.4924,0.4052],[-78.8574,21.4949,0.0]]],
[[[-78.811,21.4963,0.7451],[-78.8124,21.4971,0.0],[-78.814,21.4965,3.0872],[-78.8129,21.4949,0.6432],[-78.811,21.4963,0.7451]]],
[[[-78.8154,21.4993,1.5885],[-78.8176,21.5001,0.8881],[-78.8179,21.499,0.8881],[-78.8154,21.4974,1.5301],[-78.8154,21.4993,1.5885]]],
[[[-78.8718,21.5249,0.6934],[-78.8726,21.5265,1.1398],[-78.8743,21.5257,1.1398],[-78.8732,21.5224,2.2402],[-78.8707,21.5229,1.8518],[-78.8718,21.5249,0.6934]]],
[[[-78.8118,21.5287,1.3185],[-78.8135,21.5301,4.0918],[-78.814,21.5274,5.6199],[-78.8104,21.5238,0.0],[-78.8099,21.5265,0.0],[-78.8118,21.5287,1.3185]]],
[[[-78.7635,21.4379,0.6161],[-78.7671,21.4387,1.1748],[-78.769,21.4365,1.3991],[-78.7654,21.4304,0.0],[-78.7654,21.426,0.0],[-78.7688,21.4232,0.8702],[-78.7676,21.4196,0.5698],[-78.769,21.4185,1.043],[-78.7679,21.4149,0.4148],[-78.7654,21.4151,0.0],[-78.7663,21.4079,0.5281],[-78.7693,21.4082,0.2976],[-78.7718,21.406,0.3444],[-78.7771,21.4068,1.4291],[-78.7815,21.401,0.5646],[-78.7849,21.4026,0.216],[-78.7821,21.3982,0.0],[-78.7771,21.401,0.0],[-78.7751,21.404,1.266],[-78.7704,21.4046,0.4017],[-78.7671,21.403199999999998,0.0],[-78.7618,21.4104,0.3625],[-78.7618,21.4163,1.9218],[-78.7601,21.4165,0.0],[-78.7601,21.4179,0.0],[-78.7629,21.4229,0.8382],[-78.7621,21.4282,1.0689],[-78.7632,21.4293,0.1261],[-78.7571,21.4268,0.0],[-78.754,21.4274,0.5393],[-78.7501,21.424,0.0],[-78.7524,21.4279,0.0],[-78.7579,21.4313,0.8735],[-78.7635,21.4379,0.6161]]],
[[[-78.7701,21.4246,0.0],[-78.7715,21.4257,0.0],[-78.7715,21.4218,0.0],[-78.7693,21.4224,0.8702],[-78.7701,21.4246,0.0]]],
[[[-78.7721,21.4351,0.0],[-78.7701,21.436,0.5547],[-78.774,21.436,0.0],[-78.774,21.4349,0.3165],[-78.7721,21.4351,0.0]]],
[[[-78.7715,21.4557,1.0804],[-78.7721,21.4574,0.0],[-78.774,21.4571,0.0],[-78.7737,21.4543,0.0],[-78.7715,21.4557,1.0804]]],
[[[-78.7682,21.4674,0.0],[-78.7701,21.4685,2.2476],[-78.7737,21.466,0.0],[-78.769,21.4643,0.3056],[-78.7676,21.4651,0.3056],[-78.7682,21.4674,0.0]]],
[[[-78.7715,21.4737,2.36],[-78.7743,21.4749,0.7097],[-78.7726,21.4707,0.5018],[-78.771,21.4701,0.0],[-78.7699,21.4715,0.2858],[-78.7715,21.4737,2.36]]],
[[[-78.7679,21.4965,1.0947],[-78.7707,21.4971,0.3944],[-78.769,21.4912,2.1962],[-78.7718,21.4879,0.0],[-78.7726,21.4824,0.1673],[-78.7679,21.4788,1.6642],[-78.7701,21.4776,0.2786],[-78.7682,21.4729,0.3619],[-78.7657,21.4754,0.2962],[-78.7635,21.4732,0.0],[-78.764,21.4707,0.0],[-78.7588,21.4707,0.5798],[-78.7588,21.4668,0.0],[-78.7571,21.4668,0.0],[-78.7538,21.4701,2.5073],[-78.7576,21.4715,0.5798],[-78.7613,21.4796,2.9763],[-78.7704,21.4865,0.0],[-78.7671,21.4879,0.0],[-78.7657,21.4915,1.3035],[-78.7679,21.4965,1.0947]]],
[[[-78.7712,21.5046,0.0],[-78.7715,21.5088,0.0],[-78.7743,21.5088,0.0],[-78.7729,21.5035,0.6364],[-78.7712,21.5046,0.0]]],
[[[-78.7487,21.4529,0.0],[-78.7513,21.4546,0.3018],[-78.756,21.4521,0.0],[-78.7507,21.451,1.7809],[-78.7504,21.4474,0.4619],[-78.7476,21.4496,0.9193],[-78.7487,21.4529,0.0]]],
[[[-78.7365,21.5388,2.5099],[-78.7379,21.5401,2.5099],[-78.7404,21.5379,1.1976],[-78.7321,21.5338,0.0],[-78.7324,21.5354,0.0],[-78.7365,21.5388,2.5099]]],
[[[-78.7268,21.6179,0.0],[-78.7279,21.619,0.0],[-78.7321,21.6168,0.0],[-78.7296,21.616,1.1334],[-78.7268,21.6179,0.0]]],
[[[-78.7329,21.6207,0.7013],[-78.7337,21.6224,0.0],[-78.7354,21.6215,0.0],[-78.734,21.619,0.0],[-78.7326,21.619,0.0],[-78.7329,21.6207,0.7013]]],
[[[-78.7615,21.5229,1.5101],[-78.7615,21.524,0.0],[-78.764,21.5224,0.0],[-78.7674,21.5235,0.0],[-78.7643,21.5196,0.0],[-78.7646,21.5174,0.0],[-78.7629,21.5187,1.6935],[-78.7615,21.5229,1.5101]]],
[[[-78.7607,21.5482,0.1833],[-78.7637,21.549,0.0],[-78.7635,21.546,0.0],[-78.7604,21.5462,0.0],[-78.7607,21.5482,0.1833]]],
[[[-78.7593,21.6271,2.7767],[-78.7607,21.629,0.8394],[-78.7621,21.6251,0.0],[-78.7615,21.6251,0.0],[-78.7604,21.6268,1.361],[-78.7593,21.6271,2.7767]]],
[[[-78.776,21.5124,2.1982],[-78.7782,21.5129,1.3437],[-78.7785,21.5115,2.7185],[-78.7737,21.5099,0.0],[-78.7735,21.5121,1.2619],[-78.776,21.5124,2.1982]]],
[[[-78.7718,21.5207,3.2692],[-78.7776,21.5213,2.1642],[-78.7796,21.5171,4.2279],[-78.7735,21.5157,1.2121],[-78.7712,21.5174,0.0],[-78.7718,21.5207,3.2692]]],
[[[-78.7879,21.5468,2.7944],[-78.7907,21.5476,0.0],[-78.789,21.544,1.132],[-78.7874,21.5443,0.0],[-78.7879,21.5468,2.7944]]],
[[[-78.8243,21.544,0.4927],[-78.8271,21.544,0.0],[-78.8276,21.5396,0.0],[-78.8301,21.5388,0.0],[-78.8301,21.5374,0.0],[-78.8232,21.5349,0.0],[-78.8213,21.5376,0.3771],[-78.8243,21.544,0.4927]]],
[[[-78.8821,21.5507,0.0],[-78.8824,21.5526,0.0],[-78.8846,21.5468,0.6346],[-78.8838,21.5446,1.0242],[-78.8829,21.5446,1.0242],[-78.8821,21.5507,0.0]]],
[[[-78.8468,21.5565,3.6401],[-78.8476,21.5585,0.0],[-78.8526,21.5546,0.0],[-78.8515,21.551,0.0],[-78.8482,21.5501,0.0],[-78.8468,21.5513,1.0298],[-78.8457,21.5551,-0.0434],[-78.8468,21.5565,3.6401]]],
[[[-78.7474,21.6276,4.0694],[-78.749,21.6285,0.8375],[-78.7513,21.6265,4.2259],[-78.7518,21.6285,1.7708],[-78.7538,21.6243,0.1662],[-78.7504,21.6224,0.9188],[-78.7476,21.6246,2.3647],[-78.7474,21.6276,4.0694]]],
[[[-78.7568,21.6293,1.574],[-78.7579,21.6301,2.6907],[-78.7593,21.626,1.361],[-78.7596,21.624,2.7743],[-78.7579,21.6229,1.1788],[-78.7557,21.6274,4.7383],[-78.7568,21.6293,1.574]]],
[[[-78.7443,21.6293,3.3918],[-78.7454,21.6301,1.915],[-78.7471,21.6301,0.0],[-78.744,21.6268,0.0],[-78.7443,21.6293,3.3918]]],
[[[-78.749,21.6329,4.4204],[-78.7518,21.6332,2.5453],[-78.7474,21.6304,0.0],[-78.7471,21.6321,0.569],[-78.749,21.6329,4.4204]]],
[[[-78.342,21.7448,62.9123],[-78.3421,21.7515,61.8351],[-78.37,21.7493,68.4335],[-78.432,21.7492,52.8903],[-78.4593,21.7567,46.0493],[-78.521,21.7568,33.7249],[-78.5337,21.7601,26.357],[-78.5425,21.7681,27.1409],[-78.544,21.7751,33.454],[-78.519,21.8091,49.0553],[-78.5176,21.8172,38.8133],[-78.5247,21.8314,32.0271],[-78.5449,21.8579,29.0826],[-78.5749,21.8732,28.6747],[-78.5999,21.8613,30.7933],[-78.6075,21.8535,31.3815],[-78.6096,21.8406,32.0652],[-78.6084,21.793,21.5901],[-78.6116,21.7837,19.2099],[-78.6354,21.7747,15.0571],[-78.6822,21.7642,15.3381],[-78.6777,21.7464,14.8899],[-78.6794,21.7166,10.0926],[-78.6986,21.6889,6.4005],[-78.7348,21.6461,2.0239],[-78.7465,21.6346,3.0564],[-78.7429,21.6282,0.0],[-78.741,21.6293,2.7754],[-78.739,21.6268,0.0],[-78.7321,21.6271,2.3193],[-78.7251,21.6251,2.0892],[-78.7229,21.6185,1.9547],[-78.7235,21.6154,1.6669],[-78.7262,21.614,0.0],[-78.7204,21.6101,0.0],[-78.7154,21.611,2.5116],[-78.7157,21.609,4.2092],[-78.7182,21.6085,0.0],[-78.716,21.606,1.6742],[-78.7126,21.6093,1.6379],[-78.714,21.6035,0.0],[-78.7087,21.6029,0.0],[-78.7046,21.6046,1.5207],[-78.7026,21.6026,0.6704],[-78.7054,21.6024,0.6848],[-78.7054,21.601,2.3718],[-78.7032,21.5999,0.817],[-78.7001,21.6018,0.0],[-78.6996,21.5979,0.0],[-78.6937,21.5954,0.0],[-78.6904,21.5901,3.0626],[-78.6893,21.5812,0.3422],[-78.6907,21.581,0.3422],[-78.6915,21.5846,0.7396],[-78.694,21.5838,0.8195],[-78.6985,21.5885,1.0546],[-78.7035,21.586,3.0934],[-78.7096,21.5871,0.0],[-78.7112,21.5851,3.9194],[-78.7187,21.5879,0.8777],[-78.7196,21.5863,2.2935],[-78.7215,21.5863,4.0062],[-78.7221,21.5876,0.0],[-78.724,21.5868,6.0466],[-78.7271,21.5885,5.8231],[-78.729,21.5932,2.0249],[-78.7318,21.5921,0.0],[-78.7318,21.594,0.0],[-78.7351,21.5929,4.3689],[-78.734,21.5946,0.0],[-78.7379,21.5932,2.7788],[-78.7429,21.5943,0.0],[-78.7482,21.5857,0.8598],[-78.7457,21.5815,1.2506],[-78.7485,21.5812,0.7767],[-78.7496,21.5838,0.0],[-78.7504,21.5804,1.678],[-78.7574,21.5782,0.5947],[-78.7601,21.5746,3.0064],[-78.7654,21.5749,0.4149],[-78.7679,21.5715,0.3295],[-78.769,21.5582,2.1633],[-78.7718,21.5565,1.0255],[-78.7763,21.5574,0.0],[-78.7771,21.5557,2.1125],[-78.7751,21.5479,0.8119],[-78.7771,21.544,1.6981],[-78.7768,21.5407,0.566],[-78.7812,21.5379,0.3055],[-78.781,21.5326,0.2377],[-78.7751,21.5282,0.0],[-78.7724,21.5282,0.0],[-78.7712,21.5299,0.0],[-78.7735,21.5312,1.2463],[-78.7696,21.5338,0.8661],[-78.7688,21.5368,0.0],[-78.7715,21.5415,0.6099],[-78.7685,21.5404,0.0],[-78.7649,21.5443,0.4435],[-78.7679,21.5446,0.7374],[-78.7699,21.5499,0.1672],[-78.7735,21.5529,0.9915],[-78.7712,21.5529,1.9241],[-78.7688,21.5499,0.3106],[-78.7646,21.5513,1.0078],[-78.7596,21.5501,0.0],[-78.7529,21.5535,0.6295],[-78.7499,21.5515,0.0],[-78.749,21.5557,0.9152],[-78.7562,21.5629,0.8776],[-78.7529,21.5599,0.8043],[-78.7499,21.5601,0.0],[-78.7485,21.5635,0.0],[-78.7457,21.5649,1.094],[-78.7446,21.5696,0.0],[-78.7424,21.571,3.5294],[-78.7424,21.5613,0.417],[-78.7249,21.5621,0.9933],[-78.719,21.5601,0.0],[-78.7035,21.5593,1.7324],[-78.7001,21.5574,0.0],[-78.676,21.5524,0.755],[-78.6751,21.5551,1.9254],[-78.6768,21.559,1.4525],[-78.6821,21.5588,0.6002],[-78.6776,21.561,0.4346],[-78.6749,21.559,0.5807],[-78.6732,21.5546,0.6752],[-78.6738,21.5513,1.1953],[-78.6707,21.5462,0.0],[-78.6635,21.5421,0.0],[-78.6599,21.5376,1.0563],[-78.654,21.5388,1.1456],[-78.6532,21.5351,3.0982],[-78.6554,21.5338,2.8184],[-78.651,21.5307,0.9944],[-78.6474,21.5251,0.7732],[-78.6399,21.5182,0.0],[-78.6244,21.5088,1.1063],[-78.6254,21.5132,2.3265],[-78.6333,21.5167,1.0408],[-78.5475,21.5575,8.6461],[-78.492,21.588,17.1002],[-78.4753,21.5896,21.791],[-78.4712,21.5879,20.2028],[-78.4633,21.5803,20.8942],[-78.4552,21.5801,24.155],[-78.4534,21.5822,24.5015],[-78.4525,21.5887,25.0808],[-78.4518,21.6212,27.766],[-78.45,21.6288,30.2478],[-78.4443,21.6384,30.3308],[-78.435,21.6441,36.3864],[-78.4279,21.6462,38.3158],[-78.3872,21.6464,53.0484],[-78.3779,21.6483,56.8859],[-78.3721,21.6531,66.6375],[-78.3654,21.664,59.6134],[-78.3588,21.6833,53.0795],[-78.3537,21.6922,59.7579],[-78.3386,21.7033,64.7742],[-78.3353,21.7083,68.8342],[-78.3367,21.7242,79.5744],[-78.342,21.7448,62.9123]]]]}}