{"type":"Feature","properties":{"GID_1":"PRI.67_1","GID_0":"PRI","country":"PuertoRico","province":"SanSebastián","VARNAME_1":"NA","NL_NAME_1":"NA","TYPE_1":"Municipio","ENGTYPE_1":"Municipality","CC_1":"NA","HASC_1":"PR.SS","ISO_1":"NA","name":"San_Sebastián.province"},
"geometry":{"type": "MultiPolygon","coordinates": [[[[-67.0377,18.2896,57.9426],[-67.0321,18.2863,53.8675],[-67.0288,18.2787,118.8586],[-67.0177,18.2769,90.7304],[-67.0057,18.279,96.1783],[-66.9872,18.2749,105.3966],[-66.9784,18.2759,90.9414],[-66.9733,18.2741,115.996],[-66.9695,18.2636,109.7932],[-66.9671,18.2637,117.6501],[-66.9598,18.2714,109.6444],[-66.946,18.2734,118.3648],[-66.9431,18.2606,129.5878],[-66.9273,18.2555,145.7735],[-66.918,18.2556,150.0744],[-66.9074,18.2533,161.5341],[-66.9109,18.2785,307.7935],[-66.9097,18.3033,364.3199],[-66.898,18.3416,329.9467],[-66.8932,18.3674,202.4933],[-66.9047,18.3663,196.0],[-66.9076,18.372,196.0],[-66.9197,18.379,196.0],[-66.9234,18.3871,196.0],[-66.9221,18.3933,196.0],[-66.9291,18.3927,269.1636],[-66.935,18.3884,289.2796],[-66.9373,18.3845,291.8636],[-66.9368,18.3769,300.3826],[-66.9456,18.3754,263.5884],[-66.9595,18.3819,253.5398],[-66.9739,18.3861,273.3864],[-66.9846,18.385,287.0292],[-67.006,18.3943,277.2588],[-67.0273,18.3936,279.6396],[-67.0373,18.3778,73.9574],[-67.0426,18.3563,44.0504],[-67.0481,18.3538,47.9613],[-67.0429,18.341,56.7969],[-67.0368,18.3334,82.6747],[-67.0363,18.3292,85.74],[-67.0527,18.3066,303.3056],[-67.0406,18.3005,206.96],[-67.0377,18.2896,57.9426]]]]}}