{"type":"Feature","properties":{"GID_1":"PRI.17_1","GID_0":"PRI","country":"PuertoRico","province":"Cataño","VARNAME_1":"NA","NL_NAME_1":"NA","TYPE_1":"Municipio","ENGTYPE_1":"Municipality","CC_1":"NA","HASC_1":"PR.CT","ISO_1":"NA","name":"Cataño.province"},
"geometry":{"type": "MultiPolygon","coordinates": [[[[-66.1316,18.4245,4.5743],[-66.1154,18.4402,3.8865],[-66.1121,18.4401,0.0],[-66.1101,18.4443,0.0],[-66.1176,18.4446,0.0],[-66.121,18.4418,3.4141],[-66.1307,18.444,0.0],[-66.1376,18.451,1.7515],[-66.1399,18.456,2.1895],[-66.1376,18.4574,3.4634],[-66.1351,18.4543,0.0],[-66.131,18.4535,0.0],[-66.1299,18.4504,1.12],[-66.1312,18.4487,0.0],[-66.1288,18.4501,1.12],[-66.1288,18.4518,0.9279],[-66.1301,18.4543,0.0],[-66.1349,18.4554,0.0],[-66.1376,18.4596,1.2055],[-66.1465,18.4554,4.1002],[-66.1539,18.4459,4.5029],[-66.1632,18.4459,4.6452],[-66.1659,18.4363,5.2712],[-66.1701,18.4344,3.9281],[-66.1692,18.4311,5.2515],[-66.1622,18.4282,6.154],[-66.1576,18.4211,8.0055],[-66.1488,18.423,6.7227],[-66.1358,18.4221,3.1763],[-66.1316,18.4245,4.5743]]]]}}