{"type": "Feature","bbox": [-73.1363,19.501,-72.5708,19.8156],"geometry": {"type": "MultiPolygon","coordinates": [[[[-72.7147,19.608,392.0497],[-72.7149,19.6104,364.7114],[-72.7133,19.611,338.9279],[-72.7095,19.6088,321.8715],[-72.7087,19.6062,317.5542],[-72.7026,19.6036,335.6148],[-72.6872,19.6059,287.1674],[-72.6874,19.6035,295.1276],[-72.6822,19.5966,233.8199],[-72.6722,19.6004,268.2069],[-72.6563,19.6015,190.3941],[-72.6575,19.6062,225.585],[-72.6542,19.6119,283.9406],[-72.6481,19.6133,283.6603],[-72.6458,19.6158,273.2912],[-72.6357,19.6196,298.4865],[-72.6292,19.6253,515.0029],[-72.6176,19.6293,626.0518],[-72.6202,19.6336,784.35],[-72.6057,19.6495,852.7325],[-72.5708,19.6441,852.6498],[-72.5718,19.6523,666.8375],[-72.5761,19.6572,657.5388],[-72.5738,19.6733,283.1454],[-72.5771,19.6751,262.5065],[-72.5831,19.6747,253.1515],[-72.5895,19.6797,457.6347],[-72.5985,19.6816,517.066],[-72.6095,19.6914,648.933],[-72.6143,19.6933,618.6494],[-72.6155,19.6959,616.9092],[-72.613,19.7006,694.7748],[-72.6102,19.7004,645.9075],[-72.5992,19.7144,810.996],[-72.5977,19.7143,876.9529],[-72.5981,19.7241,979.1169],[-72.6088,19.7516,991.707],[-72.6143,19.7567,1061.6018],[-72.6234,19.7569,876.6058],[-72.6257,19.7523,899.7123],[-72.6246,19.7481,758.0281],[-72.6288,19.7423,766.7925],[-72.6311,19.7416,647.7581],[-72.6379,19.7444,914.255],[-72.6466,19.7452,1013.6395],[-72.6482,19.7615,826.4982],[-72.6471,19.7643,803.7467],[-72.6412,19.7678,1019.0398],[-72.6405,19.7716,1039.0142],[-72.6374,19.7737,830.0851],[-72.6432,19.7854,725.5643],[-72.6563,19.7856,941.6898],[-72.6533,19.7766,951.537],[-72.6683,19.7762,561.1294],[-72.6736,19.7786,536.6039],[-72.6814,19.8037,793.076],[-72.678,19.8088,609.5681],[-72.6895,19.8085,751.6467],[-72.6993,19.8156,742.0538],[-72.7122,19.8116,703.1588],[-72.7197,19.8119,520.7257],[-72.7246,19.8095,463.3267],[-72.7277,19.8057,428.3],[-72.7289,19.7994,367.0851],[-72.7339,19.7939,288.2426],[-72.7393,19.7907,308.7031],[-72.7394,19.786,309.6814],[-72.7426,19.7835,261.3853],[-72.7485,19.7829,290.1839],[-72.7568,19.7858,338.6726],[-72.7592,19.7885,372.4062],[-72.7652,19.7883,467.476],[-72.7754,19.7808,382.7886],[-72.784,19.7714,176.1304],[-72.7972,19.7643,129.5922],[-72.8069,19.7569,187.3241],[-72.8104,19.7519,198.8596],[-72.8116,19.7456,211.2473],[-72.8109,19.7394,232.5569],[-72.8122,19.7379,258.5208],[-72.8186,19.7346,396.8427],[-72.8244,19.7344,501.9804],[-72.8284,19.7314,484.8317],[-72.8353,19.7319,651.236],[-72.8384,19.7298,661.1903],[-72.8377,19.7209,573.7312],[-72.8402,19.7162,568.8964],[-72.8466,19.7132,723.3065],[-72.8581,19.7128,546.2822],[-72.8774,19.709,628.9814],[-72.8949,19.7103,673.4958],[-72.8971,19.7139,531.1642],[-72.9249,19.7176,586.8705],[-72.9244,19.7259,559.0342],[-72.9274,19.7292,553.4246],[-72.9375,19.7257,640.7902],[-72.9467,19.7262,738.6139],[-72.953,19.7247,763.6663],[-72.9613,19.7283,749.1774],[-72.9672,19.7283,638.2772],[-72.9785,19.7224,494.7899],[-72.9832,19.7236,381.2553],[-72.9922,19.7223,250.4468],[-73.0083,19.7274,179.7359],[-73.0109,19.7308,168.4956],[-73.0267,19.7328,114.0947],[-73.0328,19.7379,141.7893],[-73.0374,19.7395,169.4479],[-73.0469,19.7418,262.4481],[-73.0572,19.7406,497.5335],[-73.0661,19.7358,302.4742],[-73.07,19.7312,297.2067],[-73.0735,19.7329,308.2199],[-73.08,19.7311,276.5549],[-73.0871,19.7144,178.2784],[-73.1032,19.7057,147.036],[-73.1056,19.7025,145.7719],[-73.1017,19.6994,135.3788],[-73.1037,19.6963,138.8099],[-73.1071,19.6966,129.6395],[-73.116,19.703,165.1453],[-73.1206,19.702,172.1724],[-73.1222,19.6923,155.534],[-73.1184,19.6897,145.7072],[-73.1177,19.6872,143.8288],[-73.1191,19.6845,129.4327],[-73.1174,19.6809,134.5649],[-73.1184,19.6763,155.9216],[-73.1289,19.6566,10.8708],[-73.1306,19.6507,16.7944],[-73.1363,19.6436,65.955],[-73.1362,19.6404,75.6131],[-73.1314,19.6381,53.2148],[-73.1282,19.6333,21.6357],[-73.122,19.6318,0.0],[-73.1232,19.6274,1.6797],[-73.1215,19.6293,0.0],[-73.1218,19.6321,0.6293],[-73.1174,19.6376,1.6118],[-73.116,19.6368,0.0],[-73.114,19.639,0.5993],[-73.1032,19.6418,0.0],[-73.0535,19.6301,0.0],[-73.0462,19.6232,0.0],[-73.0446,19.6232,1.2677],[-73.0443,19.6215,0.0],[-73.0382,19.619,0.4596],[-73.0374,19.6162,0.0],[-73.0304,19.614,0.0],[-73.0229,19.6085,0.0],[-73.0143,19.609,0.6488],[-73.016,19.6074,0.0],[-73.0154,19.6054,0.0],[-73.0035,19.604,0.2319],[-73.0001,19.6065,0.0],[-72.9996,19.6107,0.528],[-72.9943,19.6135,0.2165],[-72.9918,19.611,0.0],[-72.9976,19.6046,0.1338],[-72.9979,19.6013,0.3071],[-72.9918,19.5957,0.0],[-72.986,19.5943,0.3316],[-72.9847,19.5913,0.3615],[-72.9817,19.5901,0.0],[-72.9801,19.5902,0.0],[-72.9796,19.5949,0.2996],[-72.9779,19.5946,0.3352],[-72.9788,19.5868,0.3647],[-72.9676,19.5796,0.2227],[-72.9636,19.5796,0.7622],[-72.9629,19.5754,0.0],[-72.9574,19.575,0.0],[-72.9563,19.5732,0.0],[-72.9514,19.5729,0.2481],[-72.9467,19.5696,0.0],[-72.9209,19.562,0.5077],[-72.8964,19.5499,0.2899],[-72.8904,19.544,0.3987],[-72.8874,19.5449,0.0],[-72.8876,19.5415,0.0],[-72.886,19.5407,3.5652],[-72.8812,19.5424,2.5984],[-72.8705,19.5404,0.0],[-72.8626,19.5374,0.913],[-72.8565,19.5324,0.2255],[-72.8495,19.5315,0.2049],[-72.8415,19.5249,1.2091],[-72.836,19.5176,0.0],[-72.8265,19.5138,1.5106],[-72.8212,19.5138,0.7248],[-72.8054,19.501,1.6634],[-72.7932,19.5109,84.6586],[-72.7907,19.5186,197.1421],[-72.7854,19.5214,377.2988],[-72.7829,19.5281,458.492],[-72.7781,19.52,530.3243],[-72.7658,19.5132,630.6661],[-72.7626,19.514,756.6864],[-72.7506,19.523,660.2862],[-72.7409,19.5217,691.7905],[-72.7299,19.5314,363.113],[-72.7304,19.534,408.5638],[-72.7281,19.5363,429.9767],[-72.7306,19.5432,420.1854],[-72.7384,19.542,563.684],[-72.7426,19.5491,694.8409],[-72.7458,19.5509,738.8672],[-72.748,19.5589,850.3301],[-72.7423,19.5592,860.3553],[-72.7394,19.561,763.4703],[-72.7399,19.5674,715.3378],[-72.7438,19.5717,812.6544],[-72.7443,19.5752,843.4407],[-72.7346,19.5723,755.1506],[-72.7308,19.5765,779.4178],[-72.7216,19.5812,524.5773],[-72.7186,19.5855,578.2858],[-72.72,19.5896,663.4185],[-72.7231,19.59,688.0864],[-72.7292,19.5964,724.6517],[-72.7269,19.6023,649.163],[-72.7179,19.6033,495.8782],[-72.7147,19.608,392.0497]]],
[[[-73.1237,19.6265,0.2616],[-73.1232,19.6268,0.2616],[-73.1232,19.6274,1.6797],[-73.1237,19.6267,0.2616],[-73.1237,19.6265,0.2616]]]]}
,"properties": {"GID_2": "HTI.3.2_1","GID_0": "HTI","country": "Haiti","GID_1": "HTI.3_1","province": "L'Artibonite","NL_NAME_1": "NA","county": "Gros-Morne","VARNAME_2": "NA","NL_NAME_2": "NA","TYPE_2": "Arrondissement","ENGTYPE_2": "District","CC_2": "NA","HASC_2": "HT.AR.GM","name": "Gros-Morne.county","area_km2": 1014.961,"hist_schema_id": "Elevation0-9000","hist_area_km2": {"0": 57.2658,"25": 59.6369,"50": 50.0038,"75": 42.4716,"100": 36.1393,"125": 35.3185,"150": 33.4202,"175": 36.7536,"200": 43.3403,"225": 46.5344,"250": 45.258,"275": 40.6472,"300": 37.2941,"325": 33.3409,"350": 27.6312,"375": 25.8939,"400": 22.6799,"425": 21.1828,"450": 22.4603,"475": 22.4609,"500": 22.0214,"525": 20.564,"550": 20.6437,"575": 19.0866,"600": 18.4676,"625": 17.1299,"650": 16.4515,"675": 16.3724,"700": 15.3746,"725": 15.0556,"750": 14.9562,"775": 14.8764,"800": 12.22,"825": 9.484,"850": 7.567,"875": 7.5668,"900": 7.7263,"925": 5.5301,"950": 4.7113,"975": 3.1937,"1000": 2.2357,"1025": 1.5172,"1050": 1.2376,"1075": 0.8784,"1100": 0.2795,"1125": 0.0799}}}