{"type": "Feature","bbox": [-73.9299,18.2654,-73.8029,18.4128],"geometry": {"type": "MultiPolygon","coordinates": [[[[-73.8274,18.329,227.6266],[-73.8277,18.332,191.4394],[-73.8221,18.3354,173.9467],[-73.8198,18.3345,172.4522],[-73.8141,18.3363,153.9433],[-73.8128,18.3348,159.6189],[-73.8034,18.3357,128.7581],[-73.8096,18.346,161.8876],[-73.8038,18.3473,107.0183],[-73.8029,18.3495,88.8799],[-73.8086,18.3526,117.8472],[-73.8183,18.3532,113.5147],[-73.8198,18.3569,162.9878],[-73.8186,18.3591,178.7179],[-73.8105,18.3638,200.4508],[-73.8102,18.3689,276.2649],[-73.8165,18.3782,365.1747],[-73.8161,18.3811,490.7031],[-73.8181,18.3835,602.2283],[-73.8185,18.3872,794.4119],[-73.8154,18.394,712.6449],[-73.821,18.398,841.638],[-73.8142,18.4064,711.8577],[-73.8213,18.4128,1063.4935],[-73.8354,18.4102,1122.7659],[-73.8428,18.4067,1061.6755],[-73.8457,18.4077,925.5178],[-73.8627,18.4062,896.1783],[-73.8684,18.4071,814.4863],[-73.8751,18.4055,886.1104],[-73.8786,18.4073,798.3356],[-73.9034,18.4005,787.7103],[-73.9057,18.3989,807.1788],[-73.9064,18.3959,820.2624],[-73.9062,18.3891,916.4146],[-73.8979,18.377,818.822],[-73.8929,18.3753,680.8807],[-73.8947,18.3636,358.0066],[-73.9066,18.3621,394.8359],[-73.9188,18.3647,467.2976],[-73.9229,18.364,490.0479],[-73.9279,18.3661,492.2085],[-73.929,18.3615,653.6152],[-73.9269,18.353,939.2627],[-73.9299,18.3489,1175.26],[-73.9287,18.3467,1285.7686],[-73.9257,18.3466,1311.3228],[-73.9278,18.3425,1101.946],[-73.9236,18.3411,1114.2441],[-73.9228,18.3393,974.7723],[-73.9266,18.3386,874.2689],[-73.9264,18.3368,965.2204],[-73.9213,18.3346,823.7303],[-73.9217,18.3315,969.829],[-73.9114,18.3252,564.0015],[-73.91,18.3178,412.0411],[-73.9041,18.312,304.1333],[-73.8919,18.305,272.1685],[-73.8795,18.3027,189.796],[-73.8718,18.3104,295.9262],[-73.868,18.3106,199.9962],[-73.8666,18.3046,174.9988],[-73.8685,18.3028,243.5714],[-73.8664,18.2981,171.7117],[-73.8665,18.2922,168.6868],[-73.8625,18.286,144.4544],[-73.8576,18.2839,145.9865],[-73.8539,18.2769,128.1116],[-73.8458,18.2712,118.6989],[-73.8425,18.2654,108.5527],[-73.8176,18.2735,91.3063],[-73.817,18.2777,91.8437],[-73.8121,18.2793,88.154],[-73.8115,18.2823,90.1268],[-73.8157,18.2882,97.756],[-73.82,18.2872,105.7328],[-73.8278,18.297,124.5827],[-73.8291,18.3099,125.7645],[-73.8328,18.3246,307.0186],[-73.8274,18.329,227.6266]]]]}
,"properties": {"GID_3": "HTI.10.2.1_1","GID_0": "HTI","country": "Haiti","GID_1": "HTI.10_1","province": "Sud","NL_NAME_1": "NA","GID_2": "HTI.10.2_1","county": "lesCayes","NL_NAME_2": "NA","city": "CampPerrin","VARNAME_3": "NA","NL_NAME_3": "NA","TYPE_3": "Commune","ENGTYPE_3": "Commune","CC_3": "NA","HASC_3": "NA","name": "Camp_Perrin.city","area_km2": 127.20628,"hist_schema_id": "Elevation0-9000","hist_area_km2": {"100": 3.58353,"125": 6.50231,"150": 7.52825,"175": 7.12495,"200": 7.12466,"225": 8.55351,"250": 7.70817,"275": 6.60121,"300": 6.19848,"325": 5.63479,"350": 4.28642,"375": 4.04484,"400": 2.81723,"425": 2.59588,"450": 2.39462,"475": 1.71046,"500": 1.69033,"525": 1.5293,"550": 1.79087,"575": 1.50914,"600": 1.60977,"625": 1.36828,"650": 1.56956,"675": 1.42866,"700": 1.95179,"725": 3.2193,"750": 4.74831,"775": 3.27955,"800": 2.85697,"825": 2.91736,"850": 1.91138,"875": 1.64987,"900": 1.38825,"925": 1.30779,"950": 1.02609,"975": 0.56337,"1000": 0.42254,"1025": 0.50298,"1050": 0.46275,"1075": 0.34205,"1100": 0.42253,"1125": 0.32195,"1150": 0.26161,"1175": 0.161,"1200": 0.18112,"1225": 0.22137,"1250": 0.04025,"1275": 0.12075,"1325": 0.02012}}}