{"type": "Feature","bbox": [-72.5159,19.6631,-72.4037,19.8343],"geometry": {"type": "MultiPolygon","coordinates": [[[[-72.4291,19.7203,129.2631],[-72.4296,19.729,123.502],[-72.423,19.7336,137.1109],[-72.4235,19.74,145.3185],[-72.4162,19.7415,27.1507],[-72.4164,19.7436,27.0343],[-72.4235,19.7445,130.5415],[-72.4243,19.7484,140.7938],[-72.4186,19.7573,110.9366],[-72.4184,19.7655,87.8514],[-72.4143,19.7681,31.9754],[-72.4037,19.7694,7.1233],[-72.4064,19.7743,164.3084],[-72.4143,19.7782,286.5107],[-72.4181,19.7894,246.808],[-72.4221,19.795,151.363],[-72.4195,19.7994,108.0686],[-72.4168,19.8002,6.842],[-72.4189,19.8068,5.8062],[-72.4171,19.8093,0.0],[-72.4233,19.8141,2.3821],[-72.4231,19.817,1.2468],[-72.4299,19.8205,1.7685],[-72.4235,19.8268,0.0],[-72.4276,19.8296,9.6948],[-72.4332,19.8307,0.0],[-72.4349,19.826,4.2972],[-72.4326,19.8238,15.2541],[-72.4332,19.8212,1.3198],[-72.4396,19.8177,1.3864],[-72.4449,19.8174,0.0],[-72.4578,19.8223,0.0],[-72.4604,19.8256,1.9099],[-72.4587,19.8268,0.0],[-72.4593,19.8285,6.4128],[-72.4702,19.8329,1.6156],[-72.471,19.8307,0.0],[-72.4676,19.8282,0.0],[-72.4679,19.8249,0.6671],[-72.4732,19.8218,4.2482],[-72.4804,19.8218,3.2629],[-72.4837,19.8274,5.1998],[-72.4882,19.8302,9.8943],[-72.4885,19.8335,0.0],[-72.4918,19.8343,0.0],[-72.4935,19.8279,0.0],[-72.4901,19.826,13.1949],[-72.4901,19.8243,8.6292],[-72.492,19.8204,14.4036],[-72.4894,19.8209,0.7362],[-72.49,19.8191,0.0],[-72.4866,19.8149,20.997],[-72.4753,19.8153,22.1971],[-72.4683,19.8122,6.7855],[-72.464,19.808,156.3319],[-72.4776,19.796,634.1385],[-72.477,19.7913,789.5294],[-72.4855,19.7912,949.7846],[-72.4879,19.7954,958.3103],[-72.4994,19.7941,1133.7666],[-72.5127,19.7973,1086.1163],[-72.5084,19.7905,1135.4937],[-72.5086,19.7868,998.1572],[-72.5107,19.7857,966.4457],[-72.5072,19.7765,843.2405],[-72.5089,19.768,844.6327],[-72.5018,19.7639,717.706],[-72.5039,19.763,632.8346],[-72.5099,19.7642,827.5199],[-72.5142,19.759,930.9306],[-72.5128,19.7514,907.4275],[-72.5159,19.7427,1005.0441],[-72.5152,19.7313,817.4193],[-72.5097,19.7247,683.6631],[-72.5068,19.7179,744.5441],[-72.5103,19.7143,788.1041],[-72.5078,19.7025,864.4091],[-72.5003,19.7036,461.5538],[-72.492,19.6966,602.0345],[-72.4892,19.6961,572.7249],[-72.4858,19.7004,491.1569],[-72.4795,19.6903,581.8708],[-72.474,19.6753,559.77],[-72.4759,19.6709,551.9973],[-72.4714,19.6631,799.6511],[-72.4688,19.665,708.8166],[-72.4656,19.6728,763.7797],[-72.455,19.681,769.4581],[-72.4462,19.6855,595.1478],[-72.4458,19.6926,326.8005],[-72.4442,19.694,346.1733],[-72.4464,19.7003,336.2702],[-72.4342,19.709,345.8752],[-72.4345,19.7136,297.4775],[-72.4291,19.7203,129.2631]]],
[[[-72.4938,19.8196,45.5912],[-72.4926,19.8195,14.4036],[-72.492,19.8204,14.4036],[-72.4943,19.8201,45.5912],[-72.4938,19.8196,45.5912]]],
[[[-72.4943,19.8201,45.5912],[-72.4943,19.8204,45.5912],[-72.4946,19.8204,45.5912],[-72.4943,19.8201,45.5912]]]]}
,"properties": {"GID_3": "HTI.7.1.4_1","GID_0": "HTI","country": "Haiti","GID_1": "HTI.7_1","province": "Nord","NL_NAME_1": "NA","GID_2": "HTI.7.1_1","county": "Borgne","NL_NAME_2": "NA","city": "Port-Margot","VARNAME_3": "NA","NL_NAME_3": "NA","TYPE_3": "Commune","ENGTYPE_3": "Commune","CC_3": "NA","HASC_3": "NA","name": "Port-Margot.city","area_km2": 124.77526,"hist_schema_id": "Elevation0-9000","hist_area_km2": {"0": 13.64401,"25": 13.14821,"50": 8.70001,"75": 7.92228,"100": 7.64286,"125": 6.16642,"150": 5.64758,"175": 5.24851,"200": 4.49014,"225": 4.51009,"250": 3.99117,"275": 3.93138,"300": 3.17294,"325": 3.15309,"350": 2.6143,"375": 2.45458,"400": 2.15521,"425": 2.29496,"450": 1.89584,"475": 1.51659,"500": 1.47675,"525": 1.7762,"550": 1.51676,"575": 1.89599,"600": 1.51677,"625": 1.25735,"650": 1.67651,"675": 1.01785,"700": 1.17742,"725": 0.89805,"750": 0.87807,"775": 0.71837,"800": 0.77824,"825": 0.59863,"850": 0.47894,"875": 0.29931,"900": 0.21949,"925": 0.27934,"950": 0.2594,"975": 0.33916,"1000": 0.15964,"1025": 0.17956,"1050": 0.15961,"1075": 0.1995,"1100": 0.21945,"1125": 0.2793,"1150": 0.17955,"1175": 0.0399}}}