{"type": "Feature","bbox": [-61.3913,15.2602,-61.2985,15.3519],"geometry": {"type": "MultiPolygon","coordinates": [[[[-61.3213,15.3519,871.4327],[-61.3264,15.3454,832.0056],[-61.3302,15.3444,729.2048],[-61.335,15.3405,554.5986],[-61.3467,15.3396,449.0878],[-61.3602,15.3315,254.9963],[-61.3631,15.3212,294.2423],[-61.3748,15.3188,104.5054],[-61.3871,15.3198,132.129],[-61.3904,15.3172,7.4325],[-61.3887,15.3143,6.4786],[-61.3913,15.2996,0.0],[-61.389,15.2951,0.0],[-61.3857,15.2951,2.1787],[-61.3763,15.2882,20.114],[-61.3743,15.2796,12.125],[-61.3757,15.2771,0.0],[-61.374,15.2743,5.5719],[-61.3751,15.2705,86.7055],[-61.3634,15.2676,378.3065],[-61.3466,15.2602,517.3027],[-61.3442,15.2655,441.7684],[-61.3444,15.2706,518.1968],[-61.3398,15.2743,614.6401],[-61.3371,15.2798,697.6728],[-61.3301,15.2872,1006.3846],[-61.3244,15.2883,767.9437],[-61.3104,15.2972,691.0894],[-61.3033,15.3112,934.3094],[-61.3027,15.3175,891.872],[-61.2985,15.3207,994.2504],[-61.299,15.3233,1031.8268],[-61.3025,15.3253,973.2104],[-61.301,15.3352,884.7961],[-61.3023,15.3406,847.9801],[-61.3061,15.3454,783.2656],[-61.3213,15.3519,871.4327]]]]}
,"properties": {"GID_1": "DMA.3_1","GID_0": "DMA","country": "Dominica","province": "SaintGeorge","VARNAME_1": "NA","NL_NAME_1": "NA","TYPE_1": "Parish","ENGTYPE_1": "Parish","CC_1": "NA","HASC_1": "DM.GO","ISO_1": "DM-04","name": "Saint_George.province","area_km2": 55.99202,"hist_schema_id": "Elevation0-9000","hist_area_km2": {"0": 1.00209,"25": 1.37021,"50": 1.45201,"75": 1.24749,"100": 1.0839,"125": 1.51334,"150": 1.24749,"175": 1.30882,"200": 1.55421,"225": 1.65647,"250": 1.84053,"275": 1.7178,"300": 1.65651,"325": 1.63603,"350": 1.79965,"375": 1.88144,"400": 1.39063,"425": 1.65646,"450": 1.55424,"475": 1.71785,"500": 1.90185,"525": 1.98363,"550": 1.69736,"575": 1.63602,"600": 1.39062,"625": 1.20653,"650": 1.53374,"675": 1.51329,"700": 1.37013,"725": 1.30874,"750": 1.3292,"775": 1.61543,"800": 1.45186,"825": 1.18602,"850": 0.57257,"875": 0.75661,"900": 0.75661,"925": 0.40896,"950": 0.36807,"975": 0.42941,"1000": 0.20449,"1025": 0.26582,"1050": 0.20447,"1075": 0.16358,"1100": 0.10223,"1125": 0.14313,"1150": 0.12268,"1175": 0.06134,"1200": 0.02045}}}