{"type": "Feature","id": "5074","bbox": [-61.71515,12.1586,-61.65595,12.22333],"geometry": {"type": "Polygon","coordinates": [[[-61.65595,12.17916,352.3549],[-61.65924,12.19973,234.752],[-61.66911,12.21371,80.5591],[-61.68213,12.22333,0.0],[-61.71515,12.18395,76.015],[-61.69625,12.17916,129.5629],[-61.67734,12.17012,473.0833],[-61.66253,12.1586,404.3759],[-61.65595,12.17916,352.3549]]]}
,"properties": {"ISO3166-1-Alpha-3": "GRD","country": "Grenada","fill": "#00F","name": "Saint Mark","area_km2": 23.58398,"hist_schema_id": "Elevation0-9000","hist_area_km2": {"0": 0.47661,"25": 0.8082,"50": 1.18122,"75": 1.38847,"100": 1.40918,"125": 1.30558,"150": 1.61645,"175": 1.80296,"200": 1.01546,"225": 1.03618,"250": 0.84968,"275": 0.93258,"300": 1.05694,"325": 0.87042,"350": 1.03622,"375": 0.78754,"400": 0.89116,"425": 0.72537,"450": 0.93262,"475": 0.45595,"500": 0.60103,"525": 0.60103,"550": 0.51814,"575": 0.35233,"600": 0.33161,"625": 0.29016,"650": 0.22799,"675": 0.06218,"700": 0.02073}}}