{"type": "Feature","bbox": [-61.7246,12.1518,-61.6691,12.2199],"geometry": {"type": "MultiPolygon","coordinates": [[[[-61.6723,12.1674,609.5983],[-61.6714,12.1898,316.3798],[-61.6691,12.1997,142.5076],[-61.6711,12.2055,99.8756],[-61.6707,12.2105,46.7272],[-61.6762,12.2141,24.5218],[-61.681,12.2199,3.7466],[-61.6885,12.2176,0.0],[-61.6915,12.211,15.1298],[-61.6976,12.209,0.0],[-61.6979,12.2057,10.6751],[-61.7043,12.1968,31.0783],[-61.7146,12.1929,5.7666],[-61.7182,12.1899,18.3436],[-61.7193,12.1862,28.007],[-61.7246,12.1832,3.7403],[-61.7246,12.1789,2.8677],[-61.7178,12.1752,137.0612],[-61.7031,12.1708,304.8472],[-61.6804,12.1518,489.0023],[-61.6763,12.1567,674.1393],[-61.6723,12.1674,609.5983]]]]}
,"properties": {"GID_1": "GRD.6_1","GID_0": "GRD","country": "Grenada","province": "SaintMark","VARNAME_1": "NA","NL_NAME_1": "NA","TYPE_1": "Parish","ENGTYPE_1": "Parish","CC_1": "NA","HASC_1": "GD.MA","ISO_1": "GD-05","name": "Saint_Mark.province","area_km2": 24.5792,"hist_schema_id": "Elevation0-9000","hist_area_km2": {"0": 0.33158,"25": 0.974,"50": 1.20196,"75": 1.69935,"100": 1.34704,"125": 1.51284,"150": 1.84444,"175": 1.96879,"200": 1.59578,"225": 1.22274,"250": 1.20203,"275": 1.05695,"300": 1.22276,"325": 0.70463,"350": 0.78754,"375": 0.55957,"400": 0.78755,"425": 0.58031,"450": 0.5803,"475": 0.47668,"500": 0.29016,"525": 0.37306,"550": 0.43524,"575": 0.24871,"600": 0.3938,"625": 0.45598,"650": 0.20726,"675": 0.06218,"700": 0.10363,"725": 0.14509,"750": 0.08291,"775": 0.06218,"800": 0.02073,"825": 0.04145}}}