{"type":"Feature","properties":{"GID_2":"DOM.12.4_1","GID_0":"DOM","country":"DominicanRepublic","GID_1":"DOM.12_1","province":"LaEstrelleta","NL_NAME_1":"NA","county":"HondoValle","VARNAME_2":"NA","NL_NAME_2":"NA","TYPE_2":"Municipio","ENGTYPE_2":"Municipality","CC_2":"NA","HASC_2":"DO.EP.HV","name":"Hondo_Valle.county"},
"geometry":{"type": "MultiPolygon","coordinates": [[[[-71.6789,18.6609,1924.7399],[-71.6691,18.6652,1955.0922],[-71.652,18.665,1906.7996],[-71.6432,18.6623,1884.3225],[-71.6355,18.6624,1850.3536],[-71.6249,18.6677,1762.0651],[-71.6278,18.6706,1660.848],[-71.6277,18.6733,1643.3756],[-71.6214,18.7006,839.5172],[-71.6162,18.7116,892.1582],[-71.6169,18.7289,1030.4038],[-71.6276,18.7319,1169.9601],[-71.6356,18.7255,969.7534],[-71.6397,18.7247,1001.0773],[-71.645,18.7282,1152.135],[-71.6421,18.7397,1339.2815],[-71.6444,18.7406,1395.3585],[-71.6539,18.7439,1497.3195],[-71.6646,18.7428,1494.9534],[-71.6971,18.7581,1693.1013],[-71.7268,18.7586,1586.1051],[-71.7322,18.7263,885.7847],[-71.7679,18.713,1052.7422],[-71.7699,18.7142,977.0358],[-71.7781,18.7095,1300.0094],[-71.78,18.7056,1347.0588],[-71.78,18.6955,1591.3165],[-71.7848,18.6882,1892.3909],[-71.7854,18.6828,1914.4069],[-71.776,18.6853,1896.2273],[-71.7715,18.6803,1866.7114],[-71.7598,18.6769,1901.5845],[-71.7536,18.6774,1950.8483],[-71.7432,18.6813,1952.4705],[-71.7339,18.6773,1966.756],[-71.7217,18.6765,2065.7344],[-71.7091,18.6734,2089.9849],[-71.7011,18.6687,2114.3789],[-71.6905,18.6675,2128.2827],[-71.6789,18.6609,1924.7399]]]]}}