{"type": "Feature","bbox": [-78.2723,21.636,-77.5735,22.3807],"geometry": {"type": "MultiPolygon","coordinates": [[[[-77.9551,21.956,0.5397],[-77.9549,21.9576,0.0],[-77.9579,21.9574,0.0],[-77.9565,21.9554,0.0],[-77.9551,21.956,0.5397]]],
[[[-77.9524,21.964,0.0],[-77.9521,21.966,0.0],[-77.9568,21.9615,0.0],[-77.9557,21.961,0.0],[-77.9524,21.964,0.0]]],
[[[-77.9526,21.9662,0.2527],[-77.9551,21.9676,0.0],[-77.9563,21.9638,0.0],[-77.9554,21.9635,0.0],[-77.9526,21.9662,0.2527]]],
[[[-77.9582,21.969,0.0],[-77.9601,21.9699,0.1987],[-77.961,21.9676,0.0],[-77.9601,21.9665,0.0],[-77.9593,21.9679,0.2678],[-77.9596,21.9651,0.0],[-77.9582,21.9665,0.4499],[-77.9587,21.964,0.0],[-77.956,21.9671,0.0],[-77.9582,21.969,0.0]]],
[[[-78.065,21.6642,62.8489],[-78.0435,21.6462,72.0057],[-77.9978,21.6366,127.5228],[-77.926,21.636,97.7793],[-77.9139,21.6554,72.9679],[-77.9019,21.7107,90.4086],[-77.8922,21.7288,46.7595],[-77.8726,21.7484,31.5968],[-77.8626,21.7563,23.0683],[-77.8434,21.7652,25.1439],[-77.7894,21.782,14.3829],[-77.7688,21.7845,12.8151],[-77.7414,21.7929,5.2939],[-77.7393,21.7952,1.9624],[-77.746,21.7999,1.698],[-77.7504,21.8085,0.0],[-77.7574,21.8263,3.52],[-77.7632,21.8532,4.7156],[-77.7674,21.8585,2.8842],[-77.7693,21.8726,0.0],[-77.771,21.8749,0.0],[-77.7743,21.8762,0.0],[-77.7851,21.8657,0.9158],[-77.7915,21.8649,0.9829],[-77.8007,21.8649,1.2003],[-77.8032,21.8665,0.7112],[-77.8071,21.8654,1.3644],[-77.811,21.8704,3.4434],[-77.8154,21.8701,4.1131],[-77.8171,21.8724,0.0],[-77.821,21.8735,1.1312],[-77.8213,21.8793,0.0],[-77.8285,21.8851,0.5266],[-77.829,21.8901,1.4151],[-77.8343,21.8924,0.9396],[-77.8368,21.8988,0.0],[-77.8429,21.901,2.37],[-77.8443,21.9057,0.7188],[-77.851,21.9101,0.6519],[-77.8515,21.9135,0.2712],[-77.8568,21.9182,0.291],[-77.8579,21.9243,1.5123],[-77.8568,21.9274,0.6969],[-77.8549,21.9282,0.0],[-77.8562,21.9307,0.874],[-77.8551,21.9321,0.7958],[-77.8457,21.934,1.9506],[-77.8426,21.9376,1.4485],[-77.8368,21.9399,0.0],[-77.8318,21.9385,0.0],[-77.8301,21.9401,0.0],[-77.8226,21.9407,1.6867],[-77.8182,21.9393,2.2782],[-77.8129,21.9399,0.0],[-77.811,21.9432,1.5907],[-77.8129,21.9449,0.8434],[-77.8063,21.9451,0.0],[-77.8015,21.9485,0.0],[-77.7988,21.9568,0.5243],[-77.796,21.9585,1.425],[-77.7907,21.954,0.1273],[-77.7893,21.9496,0.2712],[-77.7915,21.9488,0.0869],[-77.7893,21.9479,0.0],[-77.7882,21.9488,0.2712],[-77.7887,21.9526,0.2448],[-77.7918,21.9574,0.0],[-77.791,21.9593,0.5168],[-77.7882,21.9588,0.5489],[-77.7862,21.9601,0.1052],[-77.7849,21.9576,0.0918],[-77.7829,21.9593,0.4886],[-77.7782,21.9593,0.2201],[-77.779,21.9549,0.0],[-77.7768,21.9557,0.0],[-77.7757,21.9546,0.0],[-77.7763,21.9493,0.1854],[-77.7799,21.9476,0.0],[-77.7826,21.9438,0.0],[-77.7868,21.9432,0.3087],[-77.7879,21.9415,0.4196],[-77.7901,21.9429,0.7184],[-77.7932,21.9424,0.5384],[-77.794,21.9401,0.682],[-77.7929,21.939,0.682],[-77.7871,21.9399,0.0],[-77.7857,21.9424,0.0],[-77.7807,21.9438,0.9923],[-77.779,21.9468,0.0],[-77.776,21.9482,0.0],[-77.7746,21.9582,0.3441],[-77.7654,21.9596,0.5197],[-77.7637,21.9588,0.3911],[-77.764,21.9557,0.0],[-77.7618,21.9571,0.8164],[-77.7596,21.9562,0.1008],[-77.7607,21.9524,0.7059],[-77.7538,21.9485,0.0],[-77.7515,21.9488,0.5],[-77.7501,21.9476,0.3813],[-77.7507,21.9454,0.0],[-77.7482,21.944,0.0],[-77.7485,21.9429,0.0],[-77.751,21.9435,0.0],[-77.7468,21.9421,0.0],[-77.7474,21.9443,0.0],[-77.749,21.9451,0.0],[-77.7493,21.9521,0.4938],[-77.749,21.9551,0.5186],[-77.746,21.9568,0.0],[-77.7432,21.9526,0.5916],[-77.744,21.9496,0.0],[-77.7421,21.9521,-0.163],[-77.7407,21.9518,0.1296],[-77.7412,21.9493,0.128],[-77.7396,21.9513,0.3759],[-77.736,21.9499,0.0],[-77.7346,21.9515,0.1803],[-77.7332,21.951,0.1624],[-77.7368,21.9457,0.0],[-77.736,21.9415,0.0],[-77.7354,21.9468,0.0],[-77.7318,21.9479,0.2108],[-77.729,21.9454,0.1656],[-77.7304,21.9438,0.0],[-77.7296,21.9413,0.1969],[-77.7312,21.9415,0.3368],[-77.7312,21.9399,0.1516],[-77.7268,21.9393,0.3142],[-77.7229,21.9365,0.946],[-77.7232,21.9343,0.2187],[-77.7207,21.9354,0.0],[-77.7218,21.9329,0.14],[-77.7204,21.9326,0.14],[-77.719,21.9265,0.0],[-77.7235,21.9279,0.3045],[-77.7249,21.9235,0.0],[-77.719,21.9235,0.0],[-77.7193,21.9207,0.0],[-77.7157,21.9157,0.1017],[-77.7162,21.9138,0.1176],[-77.7096,21.9093,0.2083],[-77.7115,21.9063,0.1768],[-77.709,21.9032,0.0868],[-77.7101,21.8974,0.0],[-77.7074,21.8929,1.3331],[-77.7079,21.889,1.8553],[-77.7096,21.8879,1.5767],[-77.7082,21.8851,1.4331],[-77.7107,21.8838,0.2518],[-77.7121,21.8851,0.0],[-77.7118,21.8832,0.0],[-77.7068,21.8826,0.0],[-77.7057,21.8899,0.8228],[-77.701,21.8926,0.0],[-77.7018,21.8943,0.1439],[-77.7054,21.8929,0.1345],[-77.7074,21.8979,0.0],[-77.7071,21.9035,0.0],[-77.7093,21.9046,0.0],[-77.7082,21.9076,0.1725],[-77.7068,21.9096,0.0],[-77.7032,21.9099,0.0],[-77.7012,21.9146,0.0],[-77.6999,21.914,0.0],[-77.6996,21.911,0.1464],[-77.6968,21.9112,0.0],[-77.7012,21.9157,0.0],[-77.7001,21.9182,0.0],[-77.7021,21.9174,0.0],[-77.7038,21.9121,0.0],[-77.706,21.9104,0.0],[-77.7096,21.9101,0.2083],[-77.7135,21.9154,0.0],[-77.709,21.919,0.1841],[-77.7068,21.919,0.111],[-77.7043,21.916,0.1521],[-77.7054,21.9196,0.0],[-77.6979,21.9232,0.0],[-77.6976,21.9179,0.0],[-77.6937,21.9179,0.118],[-77.6924,21.9154,0.1036],[-77.694,21.9121,0.0],[-77.6924,21.9085,0.2193],[-77.6943,21.9076,0.0],[-77.6951,21.9046,0.3068],[-77.6974,21.9071,0.0],[-77.6988,21.9046,0.2185],[-77.7021,21.9043,0.0],[-77.7012,21.9004,0.0],[-77.7026,21.8982,0.0],[-77.6999,21.8976,0.0],[-77.6988,21.9015,0.1186],[-77.694,21.9001,0.0],[-77.689,21.9026,0.1438],[-77.6885,21.8993,0.0],[-77.6865,21.9001,0.2371],[-77.6854,21.8971,0.1406],[-77.6868,21.8954,0.7206],[-77.6857,21.8896,0.0],[-77.6837,21.8918,0.2893],[-77.684,21.8951,0.1144],[-77.6774,21.8985,0.0],[-77.6749,21.9043,0.2427],[-77.669,21.904,0.3435],[-77.6674,21.9004,0.0],[-77.6687,21.8976,0.0],[-77.6668,21.8993,0.0],[-77.6654,21.9032,0.0788],[-77.6621,21.8999,0.4372],[-77.6621,21.8985,0.2103],[-77.6637,21.8985,0.0],[-77.6618,21.8971,0.2103],[-77.6626,21.894,0.0],[-77.661,21.8907,0.0491],[-77.6526,21.8846,0.1552],[-77.6524,21.8821,0.0],[-77.649,21.879,0.2333],[-77.6507,21.876,0.0],[-77.6554,21.8793,0.0],[-77.6568,21.8779,0.3401],[-77.661,21.8785,0.4775],[-77.6607,21.8804,1.1434],[-77.6621,21.8807,0.0],[-77.664,21.8793,0.9201],[-77.6632,21.8771,1.2436],[-77.6537,21.8732,0.0],[-77.6521,21.8738,0.7828],[-77.6524,21.876,0.7352],[-77.6493,21.8757,0.0],[-77.6476,21.8804,0.0],[-77.6504,21.8815,0.2334],[-77.6521,21.8865,0.3636],[-77.6482,21.889,0.3262],[-77.6521,21.8932,0.0],[-77.6504,21.8943,0.2061],[-77.6468,21.8915,0.104],[-77.6476,21.8868,0.0],[-77.646,21.884,0.0773],[-77.6471,21.8826,0.3474],[-77.6438,21.8776,0.0],[-77.6443,21.8735,0.0],[-77.6365,21.8754,0.0],[-77.636,21.8771,0.5295],[-77.634,21.8743,0.6815],[-77.6263,21.8746,0.4441],[-77.6299,21.8704,0.971],[-77.6288,21.8682,1.2648],[-77.6307,21.8676,2.1192],[-77.6307,21.8657,3.5506],[-77.6343,21.8665,1.2256],[-77.6349,21.8646,0.9666],[-77.6315,21.8613,0.0],[-77.6263,21.8599,0.0],[-77.6218,21.8601,0.0],[-77.6193,21.8629,0.9141],[-77.6149,21.8632,0.0],[-77.6129,21.8651,0.1378],[-77.6137,21.8676,0.4201],[-77.6179,21.8693,0.0],[-77.6221,21.8782,0.7899],[-77.6201,21.8796,0.0],[-77.6218,21.8815,0.1878],[-77.6193,21.8821,0.3886],[-77.6179,21.8804,0.0],[-77.6162,21.8821,0.7522],[-77.616,21.8999,0.7637],[-77.6121,21.9024,1.3393],[-77.6107,21.9015,0.4831],[-77.6118,21.899,0.3573],[-77.6104,21.8993,0.0],[-77.6085,21.906,0.4003],[-77.6029,21.9082,0.0],[-77.5985,21.9132,0.3421],[-77.5954,21.9135,0.0],[-77.5937,21.9207,0.201],[-77.5921,21.9218,0.0],[-77.5921,21.9249,0.0],[-77.594,21.9257,0.0],[-77.6012,21.9246,0.0],[-77.6035,21.9224,0.3869],[-77.5982,21.9179,0.5315],[-77.6038,21.9171,0.4969],[-77.6018,21.9193,0.0],[-77.6035,21.9215,0.4215],[-77.606,21.9212,0.0811],[-77.6046,21.9263,0.0],[-77.611,21.9285,0.5943],[-77.6096,21.9363,0.0],[-77.6132,21.9429,0.5217],[-77.6113,21.9485,0.0],[-77.614,21.9515,0.0684],[-77.6168,21.9499,0.1426],[-77.6157,21.9451,0.1943],[-77.6185,21.944,0.0],[-77.6215,21.9393,0.1788],[-77.6237,21.939,0.0],[-77.6232,21.9371,0.3773],[-77.629,21.9385,0.0],[-77.6312,21.9371,0.0952],[-77.6293,21.9324,0.0],[-77.6274,21.9324,0.0],[-77.6274,21.9301,0.4361],[-77.6335,21.9276,0.0],[-77.6326,21.9218,0.0],[-77.6343,21.9157,0.0],[-77.639,21.9146,0.0933],[-77.6401,21.9129,0.0],[-77.6368,21.9124,0.3063],[-77.636,21.9085,0.0],[-77.6329,21.9115,0.1876],[-77.6312,21.9068,0.0],[-77.6265,21.9138,0.3796],[-77.6265,21.9104,0.0],[-77.6243,21.9074,0.2118],[-77.6265,21.9029,0.0],[-77.6307,21.9026,0.0],[-77.626,21.9021,0.0],[-77.6263,21.9013,0.2125],[-77.6299,21.9013,0.0825],[-77.6282,21.8988,0.0],[-77.6401,21.9015,0.0],[-77.6496,21.8951,0.2671],[-77.6532,21.8988,0.0],[-77.6537,21.9068,0.0],[-77.6507,21.9079,0.1718],[-77.6499,21.9054,0.0],[-77.6471,21.9068,0.0],[-77.6462,21.9054,0.3744],[-77.6476,21.904,0.3744],[-77.6426,21.9029,0.6082],[-77.6424,21.9013,0.0],[-77.6396,21.9032,0.0],[-77.6393,21.9054,0.0],[-77.6365,21.9051,0.0],[-77.6363,21.9071,0.0],[-77.6421,21.9088,0.0],[-77.6451,21.906,0.239],[-77.6471,21.9099,0.0],[-77.6499,21.9104,0.4632],[-77.6513,21.9126,0.0534],[-77.656,21.9138,0.0],[-77.6599,21.9112,0.6391],[-77.6618,21.9151,0.0],[-77.6585,21.9182,0.4484],[-77.6599,21.9201,0.0],[-77.6579,21.921,0.2781],[-77.6576,21.9188,0.0],[-77.6562,21.919,0.0],[-77.6554,21.9224,0.0],[-77.6588,21.9251,0.7807],[-77.6632,21.9243,0.2746],[-77.6665,21.9287,0.7038],[-77.6535,21.9299,0.0],[-77.6479,21.9338,0.3281],[-77.6471,21.9315,0.0],[-77.6432,21.9326,0.2266],[-77.6401,21.9301,0.0],[-77.6387,21.9315,0.0],[-77.639,21.9346,0.0],[-77.6343,21.9365,0.0],[-77.6304,21.9413,0.0],[-77.6312,21.944,0.3855],[-77.629,21.9426,0.0],[-77.6268,21.9451,0.0],[-77.6279,21.9463,0.0],[-77.6312,21.9443,0.3855],[-77.6349,21.9446,0.0],[-77.6371,21.949,0.0],[-77.6429,21.9457,0.3104],[-77.6385,21.9538,0.0],[-77.6374,21.9604,0.0],[-77.641,21.9579,0.0],[-77.6446,21.9474,0.0],[-77.6438,21.959,0.1211],[-77.6449,21.9607,0.0],[-77.6543,21.9604,0.2712],[-77.6551,21.9576,0.3761],[-77.6557,21.9588,0.2712],[-77.6582,21.9579,1.3197],[-77.659,21.9607,1.1863],[-77.6562,21.9638,0.1751],[-77.6585,21.9654,1.251],[-77.6562,21.9701,1.1287],[-77.654,21.9713,0.4285],[-77.6524,21.9676,0.0],[-77.6501,21.9685,0.0],[-77.649,21.9674,0.5111],[-77.6462,21.9715,0.1451],[-77.6438,21.9721,0.0],[-77.6451,21.9729,0.0],[-77.6443,21.9749,0.0],[-77.6487,21.9757,0.5266],[-77.6479,21.9879,0.0],[-77.6354,21.9915,0.0],[-77.6324,21.996,2.2989],[-77.629,21.9951,0.0],[-77.6268,21.9968,0.7601],[-77.6251,21.9957,0.7966],[-77.6229,21.9971,0.3685],[-77.6218,22.0024,2.8878],[-77.6215,22.0093,5.0957],[-77.6271,22.0221,0.0],[-77.6282,22.0335,0.0],[-77.6326,22.0396,0.3211],[-77.6368,22.0418,0.9528],[-77.641,22.0513,0.694],[-77.6449,22.0537,0.6986],[-77.6485,22.0596,0.396],[-77.6565,22.0613,5.3077],[-77.6607,22.064,0.0],[-77.6687,22.0643,0.0],[-77.6726,22.0615,0.0],[-77.6762,22.0554,0.4844],[-77.6793,22.0546,0.0],[-77.681,22.0499,0.397],[-77.6851,22.0493,0.4836],[-77.6876,22.0515,0.0901],[-77.6879,22.0557,0.0],[-77.6982,22.0537,0.6261],[-77.7004,22.0574,0.0],[-77.6999,22.0601,0.0],[-77.7076,22.061,0.0],[-77.7104,22.0554,0.6702],[-77.7129,22.0574,0.0],[-77.7146,22.0557,0.0],[-77.7224,22.0563,0.3497],[-77.7229,22.0599,0.1262],[-77.7182,22.0615,0.0],[-77.729,22.0685,0.2695],[-77.7337,22.0651,0.5654],[-77.7337,22.0613,0.3607],[-77.7324,22.0599,0.0],[-77.7293,22.061,0.1682],[-77.7262,22.0596,0.0],[-77.7257,22.0574,0.6119],[-77.7304,22.0563,0.4289],[-77.7449,22.0688,0.6736],[-77.7471,22.0735,0.5505],[-77.7499,22.0746,0.1978],[-77.7499,22.0771,0.0],[-77.7532,22.0738,0.0],[-77.7449,22.0654,0.0],[-77.746,22.0607,0.0],[-77.7429,22.0535,0.0],[-77.7457,22.051,0.4065],[-77.7496,22.0535,0.2995],[-77.7499,22.0501,0.3096],[-77.7524,22.0468,0.588],[-77.7615,22.044,0.1666],[-77.7668,22.0399,2.1138],[-77.769,22.0401,1.5892],[-77.7715,22.0374,0.0],[-77.7699,22.0374,0.5991],[-77.7688,22.0349,1.4442],[-77.7724,22.034,0.5041],[-77.7724,22.0362,0.0],[-77.7751,22.0382,0.0],[-77.7721,22.0385,0.0],[-77.7693,22.041,0.3282],[-77.7671,22.0407,0.2611],[-77.7618,22.0449,0.1666],[-77.7526,22.0476,0.4271],[-77.7507,22.0546,0.0],[-77.7543,22.0549,1.3072],[-77.7615,22.064,0.0846],[-77.7654,22.066,0.4805],[-77.7671,22.069,0.0],[-77.7693,22.0693,0.0],[-77.7693,22.0724,0.0],[-77.7726,22.079,0.0],[-77.7763,22.0799,0.5576],[-77.776,22.0829,0.1608],[-77.7838,22.0868,0.9426],[-77.7865,22.0965,0.3987],[-77.7882,22.0965,0.0],[-77.7893,22.0932,0.3549],[-77.7932,22.094,0.0],[-77.7957,22.0974,0.0],[-77.8012,22.0951,0.2471],[-77.8015,22.0932,0.1204],[-77.7962,22.0951,0.1309],[-77.7937,22.0915,0.1295],[-77.7885,22.0888,0.0],[-77.7893,22.0874,0.1126],[-77.7935,22.0904,0.2427],[-77.7962,22.0876,0.5396],[-77.796,22.0893,0.0],[-77.8018,22.090699999999998,0.0],[-77.8054,22.0965,0.0],[-77.8124,22.0946,0.2611],[-77.8168,22.0985,0.4383],[-77.8199,22.0987,0.4678],[-77.8201,22.096,0.1675],[-77.8254,22.0954,0.3803],[-77.831,22.0987,0.4121],[-77.8304,22.1026,0.0],[-77.8343,22.1024,0.0],[-77.8371,22.1046,0.0],[-77.8354,22.1076,0.7889],[-77.8362,22.1149,0.5281],[-77.8343,22.1179,0.3666],[-77.831,22.1193,0.0],[-77.8321,22.1257,0.0],[-77.8293,22.1301,0.34],[-77.8288,22.1401,0.0],[-77.8262,22.1449,0.1439],[-77.8324,22.1488,0.0],[-77.8357,22.153199999999998,-0.4203],[-77.8412,22.156,0.0],[-77.8401,22.1649,0.0],[-77.8379,22.169,0.0],[-77.841,22.1701,0.1717],[-77.846,22.1671,0.0],[-77.8501,22.1712,0.0],[-77.8565,22.1676,0.1029],[-77.8421,22.1651,0.0],[-77.844,22.1615,0.0],[-77.8421,22.1604,0.0],[-77.8437,22.1588,0.0],[-77.8432,22.1549,0.1855],[-77.8496,22.153199999999998,0.0],[-77.8532,22.156,0.0815],[-77.8529,22.1588,0.0],[-77.8546,22.161,0.0],[-77.8571,22.1615,0.2204],[-77.8587,22.1601,0.0],[-77.8546,22.159,0.614],[-77.854,22.1571,0.0],[-77.8562,22.1557,0.0],[-77.8626,22.159,0.0],[-77.8729,22.1604,0.3034],[-77.8785,22.1701,0.2907],[-77.8974,22.1768,1.4587],[-77.8982,22.1849,0.0],[-77.8929,22.1879,0.8793],[-77.8918,22.1863,0.0848],[-77.8863,22.1876,0.1784],[-77.889,22.184,0.1364],[-77.8949,22.1829,0.0],[-77.8896,22.1796,0.0],[-77.8885,22.1799,0.0],[-77.8887,22.1837,0.3611],[-77.8868,22.184,0.1653],[-77.8843,22.1887,0.0],[-77.8788,22.1865,0.0],[-77.8676,22.1879,0.2315],[-77.866,22.1843,0.1627],[-77.8637,22.1846,0.0],[-77.8618,22.1865,0.0],[-77.8624,22.191,0.382],[-77.8599,22.1921,0.3475],[-77.8601,22.194,0.0],[-77.8632,22.1924,0.0],[-77.8693,22.2026,1.5949],[-77.859,22.2018,0.0],[-77.8607,22.2051,0.1282],[-77.8551,22.2074,0.0],[-77.8576,22.2104,0.0],[-77.8574,22.214,0.0],[-77.8324,22.2299,0.0],[-77.8249,22.2335,0.307],[-77.8199,22.234,0.8502],[-77.8213,22.2299,0.0],[-77.8174,22.2301,0.0],[-77.8163,22.2274,0.8565],[-77.819,22.226,0.0],[-77.8187,22.2235,0.0],[-77.8104,22.226,0.0],[-77.8104,22.2282,0.0],[-77.8074,22.2263,0.0],[-77.8085,22.2246,0.755],[-77.8112,22.2249,0.8627],[-77.8179,22.2213,0.4272],[-77.8193,22.2188,0.0],[-77.8193,22.2176,0.0],[-77.8171,22.219,1.2683],[-77.8151,22.2182,0.0],[-77.8157,22.2151,0.0],[-77.8129,22.2182,0.0972],[-77.8099,22.2176,0.0],[-77.8143,22.2135,0.2059],[-77.8171,22.2129,0.0],[-77.8157,22.2107,0.4136],[-77.8115,22.2138,1.1247],[-77.8071,22.2107,0.1131],[-77.8099,22.2088,0.0],[-77.8107,22.2051,0.0],[-77.8074,22.2051,0.0],[-77.8065,22.2013,0.0],[-77.8135,22.2015,0.2927],[-77.8104,22.1987,0.0],[-77.804,22.1982,0.0],[-77.8079,22.1899,0.5262],[-77.8024,22.1913,0.2669],[-77.7954,22.1868,0.0],[-77.7899,22.1893,0.0],[-77.7901,22.1868,0.0],[-77.7949,22.1843,0.3395],[-77.7926,22.1829,0.533],[-77.7879,22.1879,0.2601],[-77.7854,22.1879,0.0],[-77.7843,22.191,0.1846],[-77.7826,22.191,0.2808],[-77.781,22.1896,0.0],[-77.7821,22.1849,0.1412],[-77.7915,22.1829,0.1614],[-77.7915,22.1815,0.1503],[-77.7785,22.1782,0.238],[-77.779,22.176,0.4609],[-77.7735,22.1751,0.0],[-77.771,22.1724,0.2241],[-77.766,22.1732,0.0],[-77.7649,22.1704,0.0],[-77.7574,22.1676,0.219],[-77.7529,22.1668,0.0],[-77.7482,22.1704,1.359],[-77.7474,22.1699,1.359],[-77.7499,22.1682,1.2849],[-77.7499,22.1665,0.0],[-77.7451,22.166,0.632],[-77.7435,22.1679,0.0],[-77.7432,22.1712,0.0],[-77.7457,22.1754,0.7616],[-77.756,22.1796,0.6842],[-77.7646,22.1871,0.0],[-77.7818,22.1963,1.2978],[-77.7924,22.2068,2.0431],[-77.7943,22.2113,0.3832],[-77.8204,22.246,0.0],[-77.8251,22.2563,1.8044],[-77.8304,22.2771,0.0],[-77.8399,22.2882,1.0933],[-77.846,22.3054,0.8921],[-77.8499,22.3076,0.0],[-77.854,22.3063,0.7604],[-77.8574,22.3079,0.0],[-77.8615,22.3113,0.5924],[-77.8649,22.3168,0.0],[-77.8676,22.3149,1.3484],[-77.874,22.3174,0.0],[-77.8732,22.3154,0.836],[-77.8751,22.3126,1.2596],[-77.8757,22.3043,0.7407],[-77.8685,22.2968,0.0],[-77.8635,22.2993,0.0],[-77.8629,22.3012,0.1506],[-77.8568,22.3001,0.0],[-77.8557,22.3012,0.4262],[-77.8565,22.2954,0.0],[-77.8538,22.2951,0.0],[-77.8529,22.2929,0.0],[-77.8507,22.2943,0.0],[-77.8507,22.2923,0.0],[-77.8529,22.2915,0.5455],[-77.8493,22.2904,2.1373],[-77.849,22.281,0.2882],[-77.8432,22.2757,1.3246],[-77.8349,22.2626,1.2412],[-77.8349,22.2557,0.0],[-77.8421,22.2529,0.0],[-77.8426,22.2512,0.0],[-77.8362,22.2468,0.0],[-77.8321,22.2485,0.3184],[-77.8315,22.2454,0.0],[-77.8282,22.2454,0.214],[-77.8285,22.2432,0.0],[-77.8251,22.2393,0.0],[-77.8265,22.236,0.1634],[-77.8296,22.2357,0.0],[-77.8288,22.2332,1.0822],[-77.8335,22.2351,0.0],[-77.8346,22.2337,0.0387],[-77.8337,22.2299,0.0],[-77.8579,22.2143,0.0902],[-77.8629,22.2232,0.0],[-77.8643,22.2199,0.0],[-77.8615,22.211,0.357],[-77.8654,22.2074,0.0],[-77.8732,22.206,0.0],[-77.8768,22.2065,1.753],[-77.879,22.209,0.0],[-77.8774,22.2149,0.0],[-77.8793,22.2138,0.0],[-77.8793,22.2104,0.0],[-77.8812,22.2099,0.5324],[-77.8846,22.2126,0.0],[-77.8871,22.2104,0.1494],[-77.8904,22.2107,0.0145],[-77.8924,22.215699999999998,0.0],[-77.891,22.2201,0.0],[-77.889,22.216,0.0],[-77.8846,22.2146,0.0],[-77.8926,22.2296,0.0],[-77.8851,22.2313,0.0399],[-77.8824,22.2299,0.0],[-77.8774,22.2307,0.0625],[-77.8735,22.2335,0.0],[-77.8746,22.2363,0.0],[-77.8807,22.2365,0.2649],[-77.8835,22.2388,0.0],[-77.8863,22.2363,0.055],[-77.879,22.2354,0.0],[-77.8785,22.2332,0.0],[-77.8887,22.2307,0.0],[-77.891,22.2318,0.183],[-77.8876,22.2351,0.1039],[-77.8929,22.2343,0.0],[-77.8957,22.229,0.0],[-77.8921,22.2263,0.1195],[-77.8929,22.2243,0.1571],[-77.8974,22.2257,0.0],[-77.9013,22.2296,0.0],[-77.9082,22.2254,0.2109],[-77.9085,22.2237,0.0],[-77.9054,22.2257,0.0],[-77.9001,22.2185,0.0],[-77.8965,22.2171,-0.0132],[-77.8987,22.2146,0.1898],[-77.9035,22.2185,0.1589],[-77.911,22.2213,0.0465],[-77.9121,22.2249,0.0205],[-77.9168,22.2254,0.0],[-77.9179,22.2232,0.0],[-77.9154,22.2243,0.0932],[-77.9163,22.221,-0.0095],[-77.9107,22.2179,-0.0368],[-77.909,22.2149,0.6131],[-77.911,22.2135,0.0],[-77.9151,22.2188,0.0],[-77.9149,22.2171,0.037],[-77.9168,22.215699999999998,0.0708],[-77.9149,22.2138,0.0504],[-77.9149,22.2107,0.0677],[-77.9193,22.2113,0.0],[-77.9174,22.2149,0.0],[-77.9196,22.215699999999998,0.0],[-77.9218,22.2118,0.0],[-77.921,22.2076,0.0],[-77.9176,22.2062,0.0],[-77.916,22.2079,0.0],[-77.9124,22.2068,0.0],[-77.9096,22.209,0.0],[-77.9068,22.209,0.0],[-77.9071,22.2062,0.0],[-77.9049,22.2062,0.4859],[-77.904,22.2046,0.1115],[-77.9076,22.2021,0.0],[-77.9071,22.2001,0.0],[-77.9015,22.2004,0.0],[-77.9037,22.1979,0.1788],[-77.9104,22.1985,0.0],[-77.9118,22.2004,0.6568],[-77.9185,22.2007,0.0],[-77.9179,22.204,0.0],[-77.9196,22.2046,0.0],[-77.9212,22.2035,0.0],[-77.9201,22.1999,0.0],[-77.9135,22.1976,0.0],[-77.9132,22.1946,0.0311],[-77.9149,22.1937,0.2017],[-77.9149,22.196,0.0],[-77.9215,22.1971,0.0],[-77.9254,22.1949,0.2069],[-77.9274,22.1965,0.204],[-77.9282,22.2046,0.4461],[-77.924,22.2088,-0.0954],[-77.9246,22.2132,0.2343],[-77.9207,22.219,0.1058],[-77.9215,22.221,0.0],[-77.9262,22.2199,0.0],[-77.9265,22.2143,0.0676],[-77.9287,22.2126,0.0584],[-77.9318,22.2138,0.0],[-77.9307,22.209,0.0],[-77.9318,22.2088,0.0],[-77.9337,22.211,0.0],[-77.9335,22.2165,0.0],[-77.9357,22.2193,0.0],[-77.9371,22.2265,0.0],[-77.9426,22.2296,0.1422],[-77.9457,22.2296,0.1897],[-77.9476,22.2324,0.0],[-77.9488,22.2279,0.0],[-77.9532,22.2235,0.0],[-77.9596,22.226,0.0],[-77.961,22.229,0.0985],[-77.9596,22.2313,0.0],[-77.9649,22.2293,0.1539],[-77.966,22.2315,0.0801],[-77.9679,22.229,0.1363],[-77.9646,22.2276,0.0828],[-77.9657,22.2268,0.1081],[-77.969,22.2288,0.0],[-77.9751,22.2271,0.087],[-77.9826,22.2299,0.2638],[-77.9846,22.2326,0.0],[-77.9889,22.2343,0.0],[-78.0396,22.1648,0.0],[-78.034,22.1607,0.0],[-78.0324,22.1504,0.0],[-78.0249,22.1437,0.0],[-78.0129,22.1246,0.0],[-78.0046,22.1224,0.4167],[-77.9943,22.1232,0.0],[-77.9874,22.1207,0.0],[-77.9854,22.1238,0.1249],[-77.9846,22.1315,0.0713],[-77.9854,22.1329,0.0],[-77.9874,22.1329,0.0],[-77.9854,22.1304,0.1908],[-77.9874,22.1293,0.1908],[-77.9876,22.1224,0.0],[-77.9943,22.1251,0.6557],[-78.0024,22.1238,0.0],[-78.0074,22.1329,0.0],[-78.0121,22.1363,0.0],[-78.0118,22.1396,0.0],[-78.0085,22.136,0.0],[-78.0038,22.1374,0.0171],[-78.0018,22.1274,0.0],[-77.999,22.1279,0.0],[-77.9968,22.1265,0.0],[-77.9979,22.1285,0.0],[-78.0015,22.1296,0.0405],[-78.0026,22.1354,0.1499],[-78.0004,22.1374,0.0],[-77.994,22.1376,0.0],[-77.9951,22.1338,0.0],[-77.9985,22.1338,0.0],[-77.9965,22.1304,0.0],[-77.9926,22.1329,0.0],[-77.9924,22.1274,0.0],[-77.9901,22.1262,0.0],[-77.991,22.1357,0.0],[-77.9926,22.1371,0.0],[-77.991,22.1379,0.0],[-77.9882,22.1365,0.0],[-77.9879,22.1346,0.0],[-77.9835,22.136,0.0598],[-77.9796,22.1318,0.0],[-77.9768,22.1313,0.0],[-77.974,22.126,0.0368],[-77.9754,22.1238,0.1572],[-77.9782,22.1271,0.0],[-77.9757,22.1218,0.0],[-77.9715,22.1218,0.0],[-77.9671,22.1185,0.0],[-77.9629,22.1176,0.0],[-77.9599,22.1213,0.0],[-77.9546,22.1129,0.0],[-77.9529,22.1143,0.0],[-77.9493,22.1137,0.0],[-77.951,22.1085,0.0],[-77.9454,22.1026,0.0783],[-77.9524,22.1035,0.0],[-77.9538,22.1004,0.0],[-77.9532,22.096,0.0],[-77.9501,22.0924,0.2943],[-77.9465,22.0938,0.1037],[-77.9424,22.0915,0.0],[-77.9435,22.086,0.0985],[-77.9413,22.0796,0.0],[-77.9437,22.0751,0.2476],[-77.9515,22.0746,0.0],[-77.9526,22.0729,0.0],[-77.9512,22.0682,0.0],[-77.9451,22.066,1.369],[-77.9418,22.0624,1.211],[-77.9449,22.0565,0.0],[-77.9424,22.0451,0.0],[-77.9382,22.0374,0.0],[-77.9304,22.0354,0.0],[-77.9221,22.0274,0.4123],[-77.9212,22.0246,0.2868],[-77.9154,22.0224,0.1949],[-77.9001,22.0107,0.5602],[-77.9068,21.9789,0.0],[-77.9057,21.9793,0.0],[-77.8993,22.0104,0.0],[-77.8921,22.0035,0.0],[-77.8851,22.0012,0.0],[-77.8818,22.0038,0.5821],[-77.8782,22.0026,0.0],[-77.8785,22.0057,0.2652],[-77.8771,22.006,0.2305],[-77.8757,22.0029,0.0789],[-77.8721,22.0021,0.0],[-77.864,21.9951,0.0],[-77.8693,22.0035,0.0],[-77.8693,22.0049,0.0],[-77.8651,22.0049,0.0],[-77.8607,22.0004,0.0],[-77.8587,21.9901,0.0],[-77.8576,22.004,0.136],[-77.859,22.0062,0.0],[-77.8587,22.0004,0.0787],[-77.8599,22.0004,0.0],[-77.8626,22.0051,0.0402],[-77.8618,22.0107,0.0],[-77.8593,22.0121,0.0],[-77.8532,21.9982,0.0],[-77.8543,21.9965,0.0],[-77.8529,21.9943,0.0],[-77.8538,21.9871,0.0],[-77.8501,21.9818,0.0],[-77.849,21.9843,0.0],[-77.8526,21.9957,0.0723],[-77.851,21.9999,0.2621],[-77.8538,22.0049,0.5317],[-77.8546,22.0113,0.2632],[-77.8504,22.0221,0.0],[-77.8474,22.0215,0.0],[-77.8463,22.0246,0.0],[-77.8446,22.024,0.0],[-77.8446,22.0204,0.0],[-77.8468,22.0201,0.0],[-77.844,22.0168,0.0],[-77.8454,22.0138,0.0],[-77.8385,22.0079,0.0],[-77.8385,22.0024,0.0],[-77.8351,22.0018,0.0],[-77.8324,21.999,0.1452],[-77.8313,21.9957,0.0],[-77.8285,21.9946,0.0],[-77.8307,21.9932,0.1792],[-77.826,21.9907,0.2045],[-77.826,21.9882,0.0],[-77.8246,21.989,0.1885],[-77.8246,21.9929,0.154],[-77.8324,22.0021,0.0],[-77.8374,22.0174,0.0],[-77.8371,22.0224,0.0],[-77.834,22.026,0.0],[-77.8332,22.0321,0.0565],[-77.829,22.0315,0.0],[-77.8285,22.028199999999998,0.0],[-77.819,22.0182,0.0],[-77.8163,22.0196,0.0],[-77.8124,22.0168,0.0],[-77.8126,22.0138,0.0],[-77.8099,22.0096,0.0],[-77.8126,22.0085,0.0],[-77.8115,22.0024,0.0],[-77.8132,21.9996,0.0],[-77.816,21.999,0.0],[-77.8146,21.9974,0.0],[-77.8151,21.9946,0.0],[-77.824,21.9888,0.1885],[-77.8215,21.9854,0.0],[-77.8235,21.9818,0.0],[-77.8224,21.9763,0.2299],[-77.8163,21.9724,0.0],[-77.8165,21.9713,0.0],[-77.8207,21.9718,0.0412],[-77.8213,21.9701,0.0],[-77.8157,21.9699,0.0],[-77.8151,21.9674,0.0],[-77.8132,21.9685,0.0],[-77.811,21.9671,0.0553],[-77.8101,21.9632,0.0],[-77.8126,21.9613,0.1682],[-77.8096,21.9626,0.0],[-77.8099,21.9662,0.0],[-77.8043,21.966,0.1196],[-77.8007,21.964,0.1082],[-77.8032,21.9626,0.0122],[-77.8007,21.961,0.0687],[-77.8024,21.9596,0.0],[-77.8035,21.9496,1.0427],[-77.8071,21.9529,0.0],[-77.8093,21.9524,1.21],[-77.8107,21.9546,0.7714],[-77.8135,21.9526,2.3366],[-77.8251,21.9549,3.7746],[-77.8262,21.9579,0.0],[-77.8335,21.9618,3.7359],[-77.8335,21.9643,2.9615],[-77.831,21.9668,0.0],[-77.8332,21.9732,0.8558],[-77.8346,21.9726,0.8558],[-77.8354,21.9685,2.0904],[-77.8382,21.9696,0.4008],[-77.8382,21.9715,0.3673],[-77.8396,21.971,0.5257],[-77.8393,21.9687,0.0],[-77.8354,21.9654,0.6793],[-77.839,21.9626,2.2706],[-77.8437,21.9646,1.0094],[-77.8451,21.9707,0.5736],[-77.8432,21.9726,0.5832],[-77.8443,21.9737,0.2836],[-77.8449,21.9729,0.2836],[-77.8443,21.9718,0.5736],[-77.8465,21.971,0.837],[-77.8451,21.9654,1.0094],[-77.8507,21.965699999999998,1.0833],[-77.8518,21.9679,0.7253],[-77.8543,21.9685,1.0616],[-77.8557,21.9651,0.3927],[-77.859,21.9649,0.0],[-77.8579,21.9632,0.0],[-77.8546,21.9638,0.3927],[-77.8557,21.9579,0.2359],[-77.8535,21.9571,1.4026],[-77.8576,21.954,0.1434],[-77.8571,21.9521,0.4054],[-77.8596,21.9479,0.0],[-77.859,21.9438,0.0],[-77.8632,21.9401,0.5113],[-77.8629,21.9379,1.8613],[-77.8662,21.9354,1.7519],[-77.871,21.9349,0.0],[-77.8704,21.9332,0.546],[-77.8718,21.9321,0.546],[-77.8676,21.9313,1.7508],[-77.8682,21.9254,0.0],[-77.8651,21.9235,0.4573],[-77.8654,21.9201,0.5623],[-77.8676,21.919,0.4731],[-77.8629,21.9174,0.4301],[-77.8621,21.9157,0.0846],[-77.8637,21.916,0.0846],[-77.8637,21.914,0.2015],[-77.8571,21.9132,0.738],[-77.8582,21.9093,0.0],[-77.854,21.9035,0.3909],[-77.8562,21.9024,0.095],[-77.8585,21.8971,0.0],[-77.8607,21.8971,0.0],[-77.8618,21.889,0.6458],[-77.8604,21.8865,0.4252],[-77.8621,21.8832,0.0],[-77.8613,21.874,0.715],[-77.8682,21.869,0.0],[-77.8726,21.8688,0.0],[-77.8715,21.8626,1.059],[-77.8732,21.8593,3.0783],[-77.8865,21.8576,1.2048],[-77.8954,21.8607,3.2452],[-77.9018,21.8738,0.0],[-77.9026,21.8801,0.0],[-77.9062,21.8829,0.2786],[-77.9076,21.8907,0.0],[-77.9135,21.8971,0.6644],[-77.9165,21.9093,0.0],[-77.9201,21.9104,0.5055],[-77.9079,21.9694,0.0],[-77.9088,21.9698,0.0],[-77.921,21.9096,0.5055],[-77.9238,21.909,0.0],[-77.9349,21.919,0.2569],[-77.9385,21.9282,1.6501],[-77.9449,21.931,0.0736],[-77.9438,21.9315,0.1748],[-77.9393,21.9304,0.0],[-77.9407,21.9329,0.5011],[-77.941,21.9315,0.7198],[-77.9432,21.9324,0.5376],[-77.9432,21.9349,0.6494],[-77.9415,21.9335,0.5011],[-77.9415,21.9354,0.1191],[-77.9476,21.9413,0.8988],[-77.9521,21.9518,0.0],[-77.9529,21.9482,0.1545],[-77.9512,21.9468,0.9197],[-77.9504,21.941,0.0],[-77.9451,21.9357,0.4305],[-77.9457,21.9332,0.0],[-77.9488,21.934,1.1101],[-77.9499,21.9385,0.0],[-77.9529,21.9399,2.3447],[-77.9526,21.9443,0.4398],[-77.959,21.9465,1.4553],[-77.961,21.951,0.0],[-77.9621,21.9513,0.0],[-77.9621,21.9493,0.0],[-77.9607,21.946,0.0],[-77.964,21.9446,1.4102],[-77.9668,21.9454,2.8521],[-77.9643,21.954,0.4116],[-77.9612,21.9529,0.0],[-77.9624,21.9576,0.0],[-77.9657,21.9621,0.0],[-77.9713,21.9632,0.6674],[-77.9751,21.9662,0.7938],[-77.9788,21.9732,0.0],[-77.9812,21.9685,0.272],[-77.9843,21.9674,0.0],[-77.9837,21.965699999999998,0.0],[-77.9863,21.9621,0.1389],[-77.9882,21.9629,0.1839],[-77.9899,21.9674,1.079],[-77.9985,21.9776,0.9914],[-78.0032,21.989,0.2808],[-78.004,21.9999,0.1793],[-77.9999,22.0001,0.0],[-78.0043,22.0004,0.1793],[-78.0038,22.0024,0.0],[-78.0051,22.0029,0.1299],[-78.011,22.0029,0.0977],[-78.0168,22.0104,0.1191],[-78.0171,22.0163,0.0701],[-78.0101,22.0151,0.1302],[-78.0176,22.0201,0.0814],[-78.0287,22.0324,0.0],[-78.0312,22.0301,1.8387],[-78.0343,22.0318,0.0],[-78.0418,22.046,0.5094],[-78.0396,22.0457,0.4754],[-78.0329,22.0357,0.2825],[-78.0365,22.0449,0.0],[-78.0432,22.0568,0.0],[-78.0524,22.0651,0.0],[-78.0565,22.0732,0.0],[-78.0638,22.0749,0.2781],[-78.0707,22.0793,0.0],[-78.0821,22.0821,0.0695],[-78.0879,22.0863,0.2495],[-78.0901,22.0808,0.2878],[-78.0672,22.0561,5.1142],[-78.0618,22.0527,5.6162],[-78.0608,22.0489,2.8305],[-78.062,22.0444,2.3035],[-78.0769,22.0389,8.5268],[-78.0943,22.0172,4.8471],[-78.1007,22.0136,5.7046],[-78.111,22.012,5.76],[-78.123,22.0057,8.4367],[-78.1647,21.9642,9.7027],[-78.1773,21.957,11.5349],[-78.2036,21.9505,15.5666],[-78.2385,21.9504,22.3294],[-78.2623,21.9451,22.5193],[-78.2654,21.9421,22.6608],[-78.2705,21.932,25.8588],[-78.2723,21.9249,25.5592],[-78.2716,21.9178,26.9782],[-78.267,21.9073,26.1669],[-78.2483,21.8774,36.3396],[-78.2416,21.8707,32.584],[-78.231,21.8646,35.9798],[-78.1939,21.8592,33.2329],[-78.187,21.8554,33.0414],[-78.1678,21.84,37.3554],[-78.1576,21.8248,33.9699],[-78.1553,21.8145,37.5765],[-78.157,21.8021,48.2452],[-78.1743,21.7913,53.8574],[-78.1698,21.7868,52.584],[-78.1496,21.7757,47.319],[-78.1404,21.7634,47.1036],[-78.1392,21.7369,63.5529],[-78.1471,21.7102,61.6399],[-78.1474,21.6766,64.5601],[-78.1378,21.6791,58.6496],[-78.1125,21.6914,52.5],[-78.1045,21.6913,52.5],[-78.0804,21.6722,61.7938],[-78.065,21.6642,62.8489]]],
[[[-78.0071,22.0135,0.0],[-78.0096,22.014,0.0],[-78.001,22.004,0.1112],[-78.0021,22.0085,0.1375],[-78.0071,22.0135,0.0]]],
[[[-77.9332,22.2276,0.0],[-77.9343,22.2282,0.1363],[-77.936,22.2285,0.0],[-77.9351,22.2263,0.0821],[-77.9332,22.2276,0.0]]],
[[[-77.9551,22.2304,0.0],[-77.9546,22.2318,0.0709],[-77.956,22.2321,0.0],[-77.9596,22.2279,0.0],[-77.9546,22.2276,0.1798],[-77.9543,22.2293,0.0],[-77.9568,22.229,0.1308],[-77.9551,22.2304,0.0]]],
[[[-77.9538,22.2421,0.0],[-77.9546,22.2438,0.0],[-77.9593,22.2429,0.0],[-77.9549,22.2407,0.0],[-77.9538,22.2421,0.0]]],
[[[-77.9182,22.284,0.0],[-77.9218,22.2849,0.0],[-77.9254,22.2804,0.1002],[-77.9232,22.278199999999998,0.0],[-77.9157,22.276,0.3029],[-77.9157,22.2738,0.0],[-77.9121,22.2724,0.1634],[-77.9118,22.2704,0.1432],[-77.9143,22.2704,0.2338],[-77.9168,22.2726,0.0],[-77.9212,22.2665,-0.1171],[-77.9254,22.2643,0.0],[-77.9271,22.2668,0.0],[-77.9326,22.2674,0.1501],[-77.9351,22.2793,0.0],[-77.9365,22.2815,0.0],[-77.9385,22.281,0.0],[-77.9354,22.2746,0.1691],[-77.944,22.2663,0.0],[-77.9407,22.2657,0.0516],[-77.9426,22.2621,0.0],[-77.941,22.2621,0.0335],[-77.9399,22.2596,0.0473],[-77.9332,22.2579,0.1086],[-77.9296,22.2521,0.0619],[-77.9332,22.2496,0.1707],[-77.9365,22.2499,0.0879],[-77.9424,22.2454,0.0],[-77.9449,22.2465,0.0],[-77.9549,22.2599,0.2417],[-77.956,22.2663,0.0],[-77.9584,22.2688,0.0],[-77.9601,22.2685,0.0],[-77.9579,22.266,0.0922],[-77.9601,22.2643,0.0688],[-77.9601,22.2593,0.0764],[-77.9576,22.2593,0.0578],[-77.9565,22.2571,0.0859],[-77.9593,22.2568,0.0],[-77.9593,22.2551,0.0],[-77.956,22.2532,0.0],[-77.9599,22.2496,0.0972],[-77.9538,22.2501,0.0164],[-77.9551,22.2465,0.0],[-77.9532,22.2465,0.0],[-77.9526,22.2507,0.3186],[-77.9503,22.2513,0.2247],[-77.9482,22.2485,0.0917],[-77.9504,22.2474,0.0824],[-77.9488,22.2449,0.0],[-77.9524,22.2412,0.0687],[-77.949,22.239,0.0],[-77.9532,22.2388,0.0],[-77.9549,22.2368,0.0],[-77.9474,22.2376,0.1251],[-77.9443,22.2399,0.091],[-77.9365,22.239,0.0],[-77.941,22.2354,0.0],[-77.9362,22.2343,0.0],[-77.9329,22.2357,0.0536],[-77.934,22.2326,0.0],[-77.9309,22.2321,0.2128],[-77.9301,22.2293,0.0],[-77.9326,22.2268,0.0],[-77.9332,22.2232,0.0],[-77.9285,22.2246,0.0708],[-77.9326,22.2207,0.0],[-77.9285,22.2199,0.0],[-77.9238,22.2235,0.0948],[-77.9271,22.2293,0.0],[-77.9257,22.2326,0.0],[-77.9282,22.2337,2.3796],[-77.9276,22.2354,0.0],[-77.931,22.2399,0.3147],[-77.9382,22.241,0.2267],[-77.9368,22.2479,0.0],[-77.9315,22.2474,0.0587],[-77.9265,22.2493,0.0],[-77.9254,22.254,0.0929],[-77.9218,22.2563,0.2019],[-77.9218,22.2582,0.1893],[-77.9201,22.2571,0.0789],[-77.919,22.2582,0.0],[-77.9207,22.2607,0.0356],[-77.9174,22.2613,0.0],[-77.9149,22.2671,0.0275],[-77.9074,22.2682,0.0],[-77.9057,22.271,0.2556],[-77.8987,22.2665,0.0],[-77.8971,22.2618,0.0],[-77.8951,22.261,0.0679],[-77.8957,22.2585,0.1213],[-77.8979,22.259,0.0],[-77.9018,22.2557,0.1636],[-77.899,22.2551,0.0],[-77.8974,22.2574,0.0486],[-77.8935,22.2585,0.0],[-77.896,22.2657,0.0],[-77.8996,22.2699,0.0],[-77.9049,22.2738,0.0],[-77.9118,22.274,0.1902],[-77.9135,22.2771,0.0],[-77.9215,22.2801,0.2742],[-77.9171,22.2832,0.0],[-77.9182,22.284,0.0]]],
[[[-77.9485,22.2643,0.0],[-77.9546,22.2649,-0.0038],[-77.946,22.2613,0.0],[-77.9451,22.2646,0.0],[-77.9485,22.2643,0.0]]],
[[[-77.9404,22.2829,0.0567],[-77.9426,22.284,0.0],[-77.9468,22.2793,0.0],[-77.9396,22.2801,0.0],[-77.9404,22.2829,0.0567]]],
[[[-77.8601,22.2732,0.131],[-77.8624,22.2724,0.0],[-77.8587,22.2707,0.1128],[-77.8587,22.2721,0.12],[-77.8601,22.2732,0.131]]],
[[[-77.8949,22.276,0.0],[-77.9026,22.2763,0.22],[-77.8901,22.2707,0.147],[-77.8812,22.2693,0.0],[-77.8801,22.2707,0.0],[-77.8838,22.2735,0.1149],[-77.8949,22.276,0.0]]],
[[[-77.8637,22.2746,0.0],[-77.866,22.2754,0.0],[-77.8676,22.2743,0.0478],[-77.8637,22.2732,0.0],[-77.8637,22.2746,0.0]]],
[[[-77.9199,22.2896,0.2633],[-77.9193,22.2907,0.0],[-77.9235,22.2904,0.3516],[-77.9243,22.289,0.0],[-77.9229,22.2879,0.0],[-77.9199,22.2896,0.2633]]],
[[[-77.7768,22.1101,0.0],[-77.7776,22.1121,0.0],[-77.7793,22.1074,0.2717],[-77.7851,22.106,0.0],[-77.7821,22.1051,0.0],[-77.7832,22.1026,0.5189],[-77.7787,22.1043,0.0],[-77.7768,22.1101,0.0]]],
[[[-77.7832,22.119,0.0],[-77.791,22.1199,0.267],[-77.7929,22.1176,0.7222],[-77.7865,22.1182,0.2742],[-77.7821,22.1162,0.0833],[-77.7824,22.114,0.0],[-77.7782,22.1149,0.2244],[-77.7768,22.1126,0.2686],[-77.7724,22.114,0.3145],[-77.7668,22.1082,0.0],[-77.7621,22.1093,0.521],[-77.7632,22.1162,0.0],[-77.7832,22.119,0.0]]],
[[[-77.759,22.1168,0.0],[-77.761,22.1179,0.0],[-77.7615,22.1154,0.3117],[-77.759,22.1151,0.0],[-77.759,22.1168,0.0]]],
[[[-77.7485,22.119,0.0],[-77.749,22.1207,0.0],[-77.7507,22.1204,1.3886],[-77.7501,22.114,0.0],[-77.749,22.1132,0.0],[-77.7485,22.1143,0.0],[-77.7496,22.1154,0.0],[-77.7485,22.119,0.0]]],
[[[-77.8451,21.9982,0.0],[-77.8476,21.9996,0.0],[-77.8457,21.9982,0.0],[-77.8457,21.9951,0.0],[-77.8446,21.9954,0.0],[-77.8451,21.9982,0.0]]],
[[[-77.8565,22.1887,0.4053],[-77.8601,22.1899,0.0],[-77.861,22.1887,0.0],[-77.8582,22.1879,0.0],[-77.8587,22.1826,0.0],[-77.8557,22.1826,0.0],[-77.8565,22.1843,0.1218],[-77.8551,22.1874,0.0],[-77.8565,22.1887,0.4053]]],
[[[-77.8324,22.2432,0.0],[-77.8374,22.244,0.0],[-77.8326,22.2393,0.1176],[-77.8268,22.2368,0.1634],[-77.8285,22.2407,0.0],[-77.831,22.2404,0.4884],[-77.8324,22.2432,0.0]]],
[[[-77.9035,22.254,0.0054],[-77.906,22.2551,0.0672],[-77.9062,22.2518,0.0],[-77.9082,22.251,0.0],[-77.914,22.2524,0.0],[-77.9151,22.251,0.1344],[-77.9068,22.2501,0.0],[-77.904,22.2515,0.0],[-77.9035,22.254,0.0054]]],
[[[-77.7446,22.1304,0.0],[-77.7538,22.131,0.0],[-77.7582,22.1276,1.0693],[-77.7538,22.1251,0.0],[-77.7513,22.1254,0.0],[-77.7443,22.1276,0.0],[-77.7432,22.1293,0.0],[-77.7446,22.1304,0.0]]],
[[[-77.759,22.1335,0.0],[-77.7676,22.134,0.0],[-77.7712,22.1313,1.7539],[-77.7763,22.1304,2.5483],[-77.7776,22.1282,0.0],[-77.7696,22.1274,0.95009999999999994],[-77.7679,22.129,1.1111],[-77.7599,22.1307,0.5084],[-77.759,22.1335,0.0]]],
[[[-77.8171,22.1507,0.1923],[-77.8187,22.1529,0.0],[-77.8182,22.151,0.1923],[-77.8199,22.1485,0.0],[-77.8185,22.1485,0.0],[-77.8171,22.1507,0.1923]]],
[[[-77.8054,22.1693,0.0],[-77.8082,22.1707,0.0],[-77.814,22.1674,0.3862],[-77.8101,22.1663,0.0],[-77.8054,22.1693,0.0]]],
[[[-77.8268,22.1724,0.0],[-77.8293,22.1729,0.2244],[-77.8293,22.1701,0.0],[-77.8335,22.1693,0.0],[-77.8335,22.1682,0.0],[-77.8246,22.1671,0.1659],[-77.8268,22.1724,0.0]]],
[[[-77.9296,22.2868,1.2593],[-77.9326,22.2874,0.0],[-77.9379,22.2851,0.0],[-77.9262,22.2843,0.1084],[-77.9262,22.2857,0.0826],[-77.9296,22.2868,1.2593]]],
[[[-77.9413,22.2932,0.1905],[-77.9437,22.2935,0.321],[-77.9404,22.2899,0.0],[-77.9396,22.2918,0.0],[-77.9413,22.2932,0.1905]]],
[[[-77.9437,22.3026,0.0],[-77.9454,22.3037,0.1396],[-77.9488,22.299,0.0],[-77.9515,22.2999,0.6195],[-77.9526,22.2985,0.0],[-77.9474,22.2938,0.3644],[-77.9454,22.3001,0.0],[-77.9432,22.3007,0.0],[-77.9437,22.3026,0.0]]],
[[[-77.9424,22.3037,0.0],[-77.9424,22.3026,0.0],[-77.9401,22.3029,0.0],[-77.9385,22.306,0.0],[-77.9401,22.3057,0.0],[-77.9424,22.3037,0.0]]],
[[[-77.9007,22.294,0.3582],[-77.904,22.2951,1.2215],[-77.9096,22.2918,0.1479],[-77.9124,22.2932,0.0],[-77.9168,22.2874,0.4171],[-77.9126,22.2865,0.0],[-77.9099,22.2904,0.0],[-77.9004,22.2879,0.0],[-77.8987,22.2929,0.1613],[-77.9007,22.294,0.3582]]],
[[[-77.8751,22.3024,0.0],[-77.8793,22.3029,0.332],[-77.8854,22.2938,0.0],[-77.879,22.2957,0.2498],[-77.8746,22.2993,0.0],[-77.8751,22.3024,0.0]]],
[[[-77.9229,22.3046,0.1098],[-77.9235,22.3063,0.1368],[-77.9257,22.3049,0.4138],[-77.9251,22.304,0.4138],[-77.9229,22.3046,0.1098]]],
[[[-77.9193,22.3135,0.0],[-77.9224,22.3143,0.0],[-77.9238,22.3099,0.0],[-77.9201,22.3093,0.4545],[-77.9193,22.3115,0.0],[-77.9179,22.3113,0.0],[-77.9193,22.3135,0.0]]],
[[[-77.9454,22.3207,0.0],[-77.9488,22.321,0.0],[-77.946,22.3179,0.0],[-77.9465,22.3163,0.0567],[-77.949,22.3171,0.141],[-77.9499,22.3207,0.0],[-77.9524,22.3187,0.4019],[-77.9529,22.3157,0.0514],[-77.9443,22.3154,0.0],[-77.9429,22.3176,0.0],[-77.9443,22.3176,0.0],[-77.9435,22.3193,0.0],[-77.9454,22.3207,0.0]]],
[[[-77.9337,22.3563,0.0],[-77.9435,22.3568,0.7126],[-77.9418,22.3538,5.4731],[-77.9421,22.3482,0.0],[-77.9354,22.3415,0.8733],[-77.9282,22.3388,1.8686],[-77.9296,22.3357,1.0532],[-77.926,22.3329,0.0584],[-77.921,22.3249,0.0],[-77.9135,22.3243,1.0745],[-77.911,22.3218,1.8116],[-77.9104,22.3179,0.8679],[-77.9054,22.314,0.4688],[-77.9074,22.3135,0.0],[-77.9088,22.3099,0.1584],[-77.9079,22.3051,0.0],[-77.899,22.3018,0.0],[-77.8932,22.3057,0.6831],[-77.8921,22.3096,0.0],[-77.9015,22.3218,0.3548],[-77.9046,22.3299,0.414],[-77.9179,22.3388,0.0],[-77.9337,22.3563,0.0]]],
[[[-77.6963,21.8765,0.4298],[-77.6985,21.8771,0.354],[-77.6974,21.8751,0.0],[-77.6918,21.8746,0.4674],[-77.6926,21.8762,0.3288],[-77.6963,21.8765,0.4298]]],
[[[-77.6865,21.8832,0.0],[-77.6862,21.8843,0.0],[-77.6879,21.884,0.0],[-77.6874,21.8762,0.1175],[-77.6888,21.8746,0.4219],[-77.686,21.8718,0.0],[-77.6835,21.8721,0.1044],[-77.6824,21.874,0.2717],[-77.6851,21.8746,0.0648],[-77.6865,21.8768,0.271],[-77.6865,21.8832,0.0]]],
[[[-77.7162,21.8799,0.1074],[-77.7185,21.881,0.0],[-77.7201,21.8793,0.0],[-77.7162,21.8768,0.0],[-77.7162,21.8799,0.1074]]],
[[[-77.6926,21.8921,0.2603],[-77.6943,21.8932,0.0922],[-77.6913,21.8851,0.0],[-77.6904,21.8879,0.0],[-77.6926,21.8921,0.2603]]],
[[[-77.674,21.8796,0.1376],[-77.6779,21.8799,0.3959],[-77.671,21.8762,0.6922],[-77.6685,21.8768,0.3862],[-77.669,21.8779,0.642],[-77.674,21.8796,0.1376]]],
[[[-77.6676,21.8857,0.1056],[-77.669,21.8865,0.0],[-77.6704,21.8843,0.0],[-77.6654,21.8765,0.0],[-77.6657,21.8821,0.0],[-77.669,21.8829,0.0],[-77.6676,21.8857,0.1056]]],
[[[-77.6779,21.8868,0.0],[-77.6779,21.8893,0.1397],[-77.6801,21.8896,0.0],[-77.6804,21.8885,0.0],[-77.6779,21.8868,0.0]]],
[[[-77.6746,21.8907,0.0],[-77.6774,21.8921,0.0],[-77.6765,21.8901,0.0],[-77.6718,21.8882,0.0],[-77.6721,21.8849,0.0],[-77.6704,21.8901,0.0569],[-77.6685,21.8882,0.0],[-77.6685,21.8921,0.0],[-77.6746,21.8907,0.0]]],
[[[-77.7418,21.9015,0.0],[-77.7496,21.9015,1.7339],[-77.7546,21.8935,0.6982],[-77.746,21.8865,0.0],[-77.7318,21.8815,0.0],[-77.7262,21.8818,0.0],[-77.7221,21.8843,0.7069],[-77.7221,21.8868,0.8614],[-77.7246,21.8879,0.9005],[-77.7226,21.894,0.0],[-77.7262,21.8946,0.0],[-77.729,21.8926,0.8812],[-77.7337,21.8937,1.1643],[-77.7376,21.8982,0.7788],[-77.7371,21.9013,0.1319],[-77.7418,21.9015,0.0]]],
[[[-77.7199,21.9124,0.0],[-77.7204,21.9135,0.0],[-77.7235,21.9135,0.0],[-77.7196,21.909,0.0],[-77.7199,21.9124,0.0]]],
[[[-77.7076,21.9126,0.5821],[-77.7065,21.9146,0.0],[-77.7096,21.9143,0.0],[-77.7096,21.9124,0.5821],[-77.7076,21.9126,0.5821]]],
[[[-77.7276,21.9265,0.0],[-77.7299,21.9271,0.0],[-77.7274,21.9149,0.0],[-77.7285,21.9132,0.0],[-77.7265,21.914,0.0],[-77.7279,21.921,0.0],[-77.7257,21.9249,0.2133],[-77.7276,21.9265,0.0]]],
[[[-77.6424,21.9285,0.0],[-77.6421,21.9301,0.0],[-77.649,21.929,0.0],[-77.6532,21.9263,0.0],[-77.6535,21.9226,0.2999],[-77.6504,21.9224,0.0],[-77.6482,21.919,0.0],[-77.6504,21.9174,0.0],[-77.6501,21.9149,0.0],[-77.6476,21.9146,0.0],[-77.6485,21.9168,0.9497],[-77.6471,21.9176,0.3359],[-77.6432,21.9132,0.0],[-77.6368,21.9174,0.0],[-77.6393,21.9207,0.0],[-77.644,21.9199,0.4237],[-77.6424,21.9224,0.2309],[-77.6424,21.9285,0.0]]],
[[[-77.5832,21.9265,1.0225],[-77.5826,21.9279,0.7445],[-77.5843,21.9282,0.424],[-77.586,21.9243,1.7645],[-77.5832,21.9243,0.0],[-77.5832,21.9265,1.0225]]],
[[[-77.5735,21.9349,0.0],[-77.579,21.9357,0.0],[-77.5862,21.9343,0.0],[-77.5924,21.9315,0.5735],[-77.5951,21.9321,0.0],[-77.5963,21.9301,0.4582],[-77.5921,21.9282,0.7642],[-77.5888,21.9243,0.5333],[-77.5868,21.9263,0.9963],[-77.5871,21.929,1.4154],[-77.5851,21.9282,0.424],[-77.584,21.9304,0.0],[-77.5801,21.9313,0.5265],[-77.5824,21.9279,0.7445],[-77.5813,21.9265,0.8844],[-77.574,21.9293,2.2886],[-77.5735,21.9349,0.0]]],
[[[-77.6001,21.9346,0.0],[-77.6024,21.9354,1.5256],[-77.6049,21.9332,0.0],[-77.606,21.9274,0.0],[-77.6015,21.929,0.3076],[-77.5996,21.9326,0.0],[-77.6001,21.9346,0.0]]],
[[[-77.7599,21.9363,0.0],[-77.761,21.9379,0.0],[-77.761,21.9354,0.0],[-77.7635,21.9324,0.0],[-77.769,21.9321,0.0],[-77.7715,21.9338,0.0],[-77.776,21.9324,0.0],[-77.7793,21.9301,0.8999],[-77.7804,21.926,0.0],[-77.7701,21.9215,0.0],[-77.7654,21.9282,0.4373],[-77.7599,21.9293,0.0],[-77.761,21.9307,0.0],[-77.7621,21.9293,0.4419],[-77.7626,21.931,0.4549],[-77.7599,21.9363,0.0]]],
[[[-77.7601,21.9393,0.1925],[-77.759,21.9399,0.0],[-77.759,21.9421,0.0],[-77.7613,21.9401,0.0],[-77.7601,21.9393,0.1925]]],
[[[-77.7779,21.9501,0.0],[-77.7779,21.9538,0.0],[-77.7787,21.954,0.0],[-77.7801,21.9501,0.0],[-77.7779,21.9501,0.0]]],
[[[-77.7624,21.9513,0.1394],[-77.7621,21.9551,0.2807],[-77.7632,21.9551,0.0],[-77.7637,21.9507,0.0],[-77.7624,21.9513,0.1394]]],
[[[-77.8746,21.9238,1.7122],[-77.8749,21.9293,0.4945],[-77.8757,21.9246,1.7122],[-77.8746,21.9221,2.2445],[-77.8726,21.9224,0.575],[-77.8746,21.9238,1.7122]]],
[[[-77.8326,21.9818,0.0628],[-77.8351,21.9829,0.0],[-77.8343,21.981,0.124],[-77.831,21.9804,0.418],[-77.8326,21.9818,0.0628]]],
[[[-77.8326,21.9904,0.0],[-77.8332,21.9932,0.0],[-77.8362,21.9918,0.0],[-77.8346,21.9879,0.0],[-77.8326,21.9874,0.0],[-77.8326,21.986,0.0875],[-77.8346,21.9857,0.1249],[-77.8301,21.9813,0.1803],[-77.8296,21.9754,0.0],[-77.8276,21.9771,0.236],[-77.829,21.9813,0.1803],[-77.8274,21.984,0.0694],[-77.8318,21.9871,0.0],[-77.8326,21.9904,0.0]]],
[[[-77.8421,21.9963,0.1196],[-77.8437,21.9974,0.0],[-77.8443,21.9946,0.0],[-77.8424,21.9918,0.0],[-77.8443,21.9899,0.0],[-77.8437,21.9849,0.0],[-77.8415,21.9843,0.0],[-77.8412,21.9807,0.0],[-77.8393,21.9843,0.0],[-77.8426,21.9863,0.3287],[-77.8429,21.9893,0.0],[-77.8401,21.9943,0.0],[-77.8421,21.9963,0.1196]]],
[[[-77.824,21.9851,0.0],[-77.8257,21.9865,0.0],[-77.8274,21.9851,0.0694],[-77.8254,21.9837,0.0],[-77.8274,21.9813,0.0],[-77.8257,21.9793,0.0],[-77.8243,21.9796,0.0],[-77.824,21.9851,0.0]]],
[[[-77.7501,22.0593,0.0],[-77.751,22.0607,0.0],[-77.7526,22.0571,0.4851],[-77.7504,22.0574,0.0],[-77.7501,22.0593,0.0]]],
[[[-77.7499,22.0657,0.0],[-77.7496,22.0671,0.0],[-77.7524,22.0654,0.0],[-77.7513,22.0649,0.0],[-77.7499,22.0657,0.0]]],
[[[-77.7585,22.0926,0.0],[-77.7601,22.0943,0.0],[-77.7632,22.0943,0.0],[-77.7649,22.0921,0.6589],[-77.7579,22.0885,0.1697],[-77.7551,22.0788,0.0],[-77.7568,22.076,0.2401],[-77.7535,22.0754,0.0],[-77.7513,22.0788,0.3084],[-77.7515,22.0812,0.0],[-77.7585,22.0926,0.0]]],
[[[-77.7465,22.1115,0.2875],[-77.7493,22.1118,0.0],[-77.7482,22.109,0.0],[-77.7457,22.1101,0.0],[-77.7465,22.1115,0.2875]]],
[[[-77.7429,21.936,0.2976],[-77.7435,21.9376,0.0],[-77.746,21.9374,0.0],[-77.7435,21.9329,0.2535],[-77.7432,21.9282,0.0],[-77.7421,21.929,0.0],[-77.7429,21.936,0.2976]]],
[[[-77.7304,21.9374,0.2913],[-77.7337,21.9382,0.3363],[-77.7312,21.9332,1.0263],[-77.7343,21.9332,0.0],[-77.7354,21.9313,0.1341],[-77.7363,21.9374,0.0],[-77.736,21.9285,0.0],[-77.7343,21.9307,0.5099],[-77.7304,21.9304,0.0],[-77.7312,21.9321,1.0263],[-77.7288,21.9365,1.5694],[-77.7304,21.9374,0.2913]]],
[[[-77.7326,21.9401,0.0],[-77.7332,21.9415,0.1764],[-77.7351,21.9413,0.0],[-77.7337,21.9387,0.3363],[-77.7326,21.9401,0.0]]],
[[[-77.7474,22.0576,0.5262],[-77.7487,22.059,0.0],[-77.7496,22.056,0.236],[-77.7487,22.0557,0.0],[-77.7474,22.0576,0.5262]]],
[[[-77.6057,21.9485,0.0],[-77.6071,21.9504,0.3877],[-77.6087,21.9474,0.9708],[-77.6082,21.9471,0.9708],[-77.6057,21.9485,0.0]]],
[[[-77.6237,21.9501,0.6673],[-77.6263,21.9504,0.6844],[-77.6246,21.9476,0.8138],[-77.6229,21.9479,0.0],[-77.6237,21.9501,0.6673]]],
[[[-77.636,21.9618,0.0],[-77.6368,21.9646,0.0],[-77.6376,21.9646,0.0],[-77.6376,21.9618,0.0],[-77.636,21.9618,0.0]]],
[[[-77.646,22.1171,0.0],[-77.6462,22.1188,0.0],[-77.6487,22.1176,0.0],[-77.6482,22.1157,0.0],[-77.646,22.1171,0.0]]],
[[[-77.6921,22.0621,0.4917],[-77.6929,22.0643,0.0],[-77.6946,22.0643,0.0],[-77.6968,22.0618,0.1458],[-77.6951,22.059,0.4762],[-77.696,22.0554,0.0],[-77.6899,22.0565,0.0],[-77.6921,22.0621,0.4917]]],
[[[-77.7132,22.0613,0.1259],[-77.7174,22.0624,0.0],[-77.7174,22.061,0.4525],[-77.7126,22.059,0.1429],[-77.7104,22.0596,0.1965],[-77.7132,22.0613,0.1259]]],
[[[-77.7276,22.0735,0.7749],[-77.7282,22.0751,0.0],[-77.7299,22.0732,0.6009],[-77.7271,22.0713,0.3651],[-77.7265,22.0724,0.7749],[-77.7276,22.0735,0.7749]]],
[[[-77.7385,22.0857,0.3217],[-77.7396,22.0882,0.4741],[-77.7371,22.076,0.0028],[-77.7368,22.081,0.2338],[-77.7385,22.0857,0.3217]]],
[[[-77.6612,22.1901,0.0],[-77.6637,22.1913,0.0],[-77.6621,22.1835,1.0676],[-77.6637,22.1821,0.2729],[-77.6624,22.1813,0.0],[-77.6593,22.1835,0.0],[-77.6612,22.1901,0.0]]],
[[[-77.5851,22.379,0.0],[-77.5865,22.3807,0.0],[-77.5874,22.3782,0.0],[-77.5862,22.3779,0.0],[-77.5851,22.379,0.0]]]]}
,"properties": {"GID_2": "CUB.1.3_1","GID_0": "CUB","country": "Cuba","GID_1": "CUB.1_1","province": "Camagüey","NL_NAME_1": "NA","county": "Esmeralda","VARNAME_2": "NA","NL_NAME_2": "NA","TYPE_2": "Municipio","ENGTYPE_2": "Municipality","CC_2": "NA","HASC_2": "CU.CM.ES","name": "Esmeralda.county","area_km2": 1987.602,"hist_schema_id": "Elevation0-9000","hist_area_km2": {"0": 1158.791,"25": 419.549,"50": 230.069,"75": 96.463,"100": 36.073,"125": 29.888,"150": 14.719,"175": 1.714,"200": 0.335}}}