{"type": "Feature","bbox": [-74.0486,18.0554,-73.571,18.424],"geometry": {"type": "MultiPolygon","coordinates": [[[[-73.7049,18.1092,0.5672],[-73.7074,18.1087,0.0],[-73.7088,18.1041,12.1196],[-73.7088,18.1,0.0],[-73.7042,18.0974,0.0],[-73.7027,18.0944,0.0],[-73.7061,18.092,0.0],[-73.701,18.0882,0.0],[-73.6884,18.0836,0.0],[-73.6869,18.0816,0.0],[-73.6871,18.0765,0.0],[-73.6762,18.0657,4.5024],[-73.6764,18.061,0.6821],[-73.6747,18.0596,0.0],[-73.6656,18.0599,5.1273],[-73.6585,18.0571,2.1141],[-73.6508,18.0608,2.7152],[-73.6468,18.0587,0.0],[-73.6221,18.0585,1.4198],[-73.6212,18.0568,0.0],[-73.616,18.0554,0.0],[-73.6001,18.0554,0.0],[-73.5926,18.0576,1.2551],[-73.5868,18.0554,0.0],[-73.579,18.0576,0.0],[-73.5779,18.0599,0.4506],[-73.5749,18.0607,0.0],[-73.5713,18.0671,0.1165],[-73.571,18.0701,0.1146],[-73.574,18.0743,0.0],[-73.5774,18.076,0.0],[-73.579,18.0818,0.0],[-73.5826,18.0868,0.517],[-73.5882,18.0893,0.2096],[-73.5987,18.099,0.0],[-73.6043,18.1003,0.7883],[-73.609,18.0976,0.35],[-73.6114,18.0985,0.4985],[-73.6131,18.0955,0.5992],[-73.6224,18.0893,0.7875],[-73.6339,18.0834,0.0],[-73.6413,18.0824,0.1586],[-73.6626,18.0888,1.3896],[-73.6704,18.099,0.0],[-73.6765,18.096,2.0226],[-73.6801,18.1032,0.0],[-73.6843,18.1004,0.2981],[-73.6865,18.1021,0.3976],[-73.6854,18.1054,13.1412],[-73.692,18.1069,5.7903],[-73.6942,18.1053,0.0],[-73.6937,18.1026,0.0],[-73.6965,18.1021,0.0],[-73.6988,18.1043,0.0],[-73.6996,18.1087,1.8143],[-73.7049,18.1092,0.5672]]],
[[[-73.6246,18.1424,0.0],[-73.6274,18.1429,0.0],[-73.6285,18.1413,3.6114],[-73.6246,18.1407,0.4991],[-73.6246,18.1424,0.0]]],
[[[-73.6837,18.312,71.8183],[-73.6875,18.3118,52.4675],[-73.6891,18.3137,62.0214],[-73.6884,18.3194,96.6078],[-73.6953,18.3248,144.336],[-73.6958,18.3298,186.0636],[-73.6984,18.332,209.7285],[-73.6998,18.3375,248.6077],[-73.6945,18.3486,39.1386],[-73.6879,18.3499,34.2592],[-73.6865,18.3521,31.1844],[-73.6884,18.3601,75.7101],[-73.6867,18.3653,132.3861],[-73.6933,18.3668,181.1368],[-73.6973,18.3727,401.5002],[-73.6977,18.3786,480.1079],[-73.6913,18.3895,578.9135],[-73.6972,18.3991,615.6134],[-73.6965,18.4041,579.6842],[-73.691,18.409,448.6588],[-73.6978,18.4141,504.2778],[-73.7023,18.42,552.2526],[-73.7069,18.421,459.3206],[-73.7214,18.4146,792.5858],[-73.7378,18.4159,715.5153],[-73.7435,18.4205,884.8099],[-73.7591,18.4234,913.87],[-73.771,18.4176,1145.0215],[-73.7776,18.4208,1246.3749],[-73.78,18.4239,1086.592],[-73.7856,18.424,1103.3995],[-73.8213,18.4128,1063.4935],[-73.8354,18.4102,1122.7659],[-73.8428,18.4067,1061.6755],[-73.8457,18.4077,925.5178],[-73.8627,18.4062,896.1783],[-73.8684,18.4071,814.4863],[-73.8751,18.4055,886.1104],[-73.8786,18.4073,798.3356],[-73.8861,18.4059,885.5921],[-73.8888,18.4038,959.3259],[-73.9034,18.4005,787.7103],[-73.9057,18.3989,807.1788],[-73.9064,18.3959,820.2624],[-73.9062,18.3891,916.4146],[-73.8979,18.377,818.822],[-73.8929,18.3753,680.8807],[-73.8956,18.363,358.0066],[-73.9066,18.3621,394.8359],[-73.9188,18.3647,467.2976],[-73.9229,18.364,490.0479],[-73.9261,18.3664,501.7318],[-73.9309,18.3654,608.03],[-73.9428,18.3704,582.3362],[-73.9643,18.3687,720.2408],[-73.9735,18.3704,831.9202],[-73.976,18.3728,775.1509],[-73.9777,18.3712,797.7612],[-73.9785,18.3732,794.043],[-73.9838,18.3737,813.6937],[-74.0027,18.3836,1922.7457],[-74.0229,18.3822,2280.1567],[-74.0319,18.384,2290.3193],[-74.0355,18.3874,2145.7559],[-74.0407,18.379,1649.9641],[-74.041,18.3751,1438.6759],[-74.032,18.3646,2195.334],[-74.0415,18.3636,1916.8567],[-74.0485,18.3605,1730.9434],[-74.0486,18.3558,1433.7437],[-74.0435,18.3486,999.6783],[-74.0465,18.3386,966.5338],[-74.0355,18.3243,904.0475],[-74.0173,18.3086,889.616],[-74.0158,18.3065,863.7706],[-74.0162,18.3036,791.5907],[-74.0071,18.2952,798.187],[-74.0024,18.2849,620.7289],[-73.9938,18.2784,746.0635],[-73.9916,18.2631,656.9954],[-73.9892,18.2604,604.9554],[-73.9887,18.2561,666.4883],[-73.9843,18.2516,583.6833],[-73.9837,18.2462,573.7974],[-73.9741,18.2395,638.575],[-73.9608,18.2267,570.8094],[-73.9623,18.2248,509.1665],[-73.9674,18.2243,551.438],[-73.9676,18.2222,518.0707],[-73.9651,18.2212,432.9392],[-73.9625,18.2114,186.4008],[-73.9405,18.1953,162.748],[-73.9282,18.1924,232.25],[-73.9202,18.1879,109.3362],[-73.9014,18.1751,74.3164],[-73.8944,18.1681,40.973],[-73.8836,18.1663,25.81],[-73.8767,18.1559,17.8289],[-73.8673,18.1484,19.88],[-73.8683,18.1409,25.7056],[-73.8629,18.1402,9.8661],[-73.8621,18.1388,9.8661],[-73.8638,18.1369,20.832],[-73.8571,18.1303,11.4744],[-73.8563,18.123,9.5203],[-73.8447,18.1181,1.5381],[-73.8422,18.1155,0.4691],[-73.8429,18.1232,2.3745],[-73.8287,18.1426,0.621],[-73.8201,18.1512,0.65],[-73.8159,18.1516,0.0],[-73.8083,18.1585,1.9179],[-73.8037,18.1584,0.0],[-73.7926,18.1676,1.7315],[-73.7686,18.1805,3.8065],[-73.7562,18.1818,0.1201],[-73.7471,18.191,3.6216],[-73.7381,18.1927,0.4259],[-73.7344,18.198,0.1029],[-73.73,18.199,0.3236],[-73.7298,18.2022,0.4144],[-73.7243,18.2035,0.1824],[-73.7228,18.2023,0.4219],[-73.7207,18.2051,0.1778],[-73.7213,18.2079,1.5732],[-73.7182,18.2103,0.0],[-73.7085,18.2107,1.3508],[-73.7065,18.2126,2.9242],[-73.701,18.2124,0.0],[-73.6996,18.214,0.0],[-73.6999,18.2171,0.0],[-73.7026,18.219,8.7645],[-73.7026,18.2208,11.7094],[-73.6996,18.2232,0.0],[-73.7004,18.2282,0.0],[-73.6965,18.2325,0.0],[-73.6968,18.2354,0.0],[-73.6927,18.2379,2.3345],[-73.6818,18.2382,0.2204],[-73.6849,18.2385,1.1987],[-73.6856,18.2445,0.6013],[-73.6892,18.2514,5.1094],[-73.6926,18.253,6.988],[-73.6925,18.2549,3.5649],[-73.6888,18.2557,28.6116],[-73.6839,18.2539,0.736],[-73.6843,18.2572,0.9579],[-73.6807,18.2602,3.7218],[-73.6806,18.264,2.8999],[-73.6841,18.2663,6.0894],[-73.6888,18.2819,18.0216],[-73.6821,18.2902,69.0307],[-73.6852,18.303,46.683],[-73.6828,18.3083,50.8778],[-73.6837,18.312,71.8183]]]]}
,"properties": {"GID_2": "HTI.10.2_1","GID_0": "HTI","country": "Haiti","GID_1": "HTI.10_1","province": "Sud","NL_NAME_1": "NA","county": "lesCayes","VARNAME_2": "NA","NL_NAME_2": "NA","TYPE_2": "Arrondissement","ENGTYPE_2": "District","CC_2": "NA","HASC_2": "HT.SD.CY","name": "les_Cayes.county","area_km2": 865.5202,"hist_schema_id": "Elevation0-9000","hist_area_km2": {"0": 80.2534,"25": 97.2044,"50": 81.5704,"75": 67.5864,"100": 56.9536,"125": 44.168,"150": 32.8729,"175": 27.0339,"200": 23.7521,"225": 23.953,"250": 21.2353,"275": 18.7391,"300": 15.9012,"325": 13.1231,"350": 10.7076,"375": 10.8286,"400": 8.9765,"425": 9.4193,"450": 9.8017,"475": 9.0773,"500": 8.0907,"525": 7.0241,"550": 6.9231,"575": 5.7961,"600": 6.1783,"625": 6.4199,"650": 6.3796,"675": 6.5806,"700": 6.9628,"725": 8.2505,"750": 10.8056,"775": 8.6928,"800": 8.089,"825": 7.7468,"850": 6.8418,"875": 6.057,"900": 5.5942,"925": 4.9301,"950": 3.9642,"975": 4.0649,"1000": 3.8235,"1025": 2.8171,"1050": 3.28,"1075": 2.5758,"1100": 2.5758,"1125": 2.8373,"1150": 2.5959,"1175": 2.8776,"1200": 2.3544,"1225": 2.1936,"1250": 1.9319,"1275": 1.7307,"1300": 1.5294,"1325": 1.7307,"1350": 1.6099,"1375": 1.3684,"1400": 1.6904,"1425": 1.6904,"1450": 1.2678,"1475": 1.308,"1500": 1.2477,"1525": 1.0867,"1550": 1.4086,"1575": 1.3684,"1600": 1.1873,"1625": 1.0666,"1650": 1.1873,"1675": 1.3281,"1700": 0.986,"1725": 1.1068,"1750": 1.3281,"1775": 1.0464,"1800": 1.4489,"1825": 0.9659,"1850": 0.9458,"1875": 0.6238,"1900": 0.6439,"1925": 0.5031,"1950": 0.6238,"1975": 0.5634,"2000": 0.4024,"2025": 0.2415,"2050": 0.3823,"2075": 0.3622,"2100": 0.1408,"2125": 0.2616,"2150": 0.2616,"2175": 0.1006,"2200": 0.1207,"2225": 0.0402,"2250": 0.1006,"2275": 0.0402,"2300": 0.0402,"2350": 0.0201}}}