{"type":"Feature","properties":{"GID_3":"HTI.10.1.1_1","GID_0":"HTI","country":"Haiti","GID_1":"HTI.10_1","province":"Sud","NL_NAME_1":"NA","GID_2":"HTI.10.1_1","county":"Aquin","NL_NAME_2":"NA","city":"Aquin","VARNAME_3":"NA","NL_NAME_3":"NA","TYPE_3":"Commune","ENGTYPE_3":"Commune","CC_3":"NA","HASC_3":"NA","name":"Aquin.city"},
"geometry":{"type": "MultiPolygon","coordinates": [[[[-73.1081,18.1893,2.3788],[-73.0967,18.1882,0.0],[-73.086,18.1851,0.0],[-73.0668,18.1868,1.1226],[-73.056,18.1821,0.9158],[-73.0486,18.1829,1.0887],[-73.0413,18.1812,0.0],[-73.039,18.1826,4.5877],[-73.0204,18.1812,0.0],[-73.0121,18.1865,1.4045],[-73.0035,18.1857,3.1363],[-73.0102,18.1932,9.245],[-73.0039,18.1993,13.9413],[-73.0091,18.2041,18.9647],[-73.0089,18.2068,21.4502],[-73.0023,18.206,41.1991],[-73.0011,18.2074,38.1555],[-73.0104,18.2087,108.2497],[-73.0079,18.2121,43.529],[-73.0085,18.2166,59.9161],[-73.0072,18.2184,160.7072],[-73.0099,18.2199,183.4833],[-73.0094,18.2236,77.0369],[-73.0158,18.2214,92.4816],[-73.0167,18.2241,69.9756],[-73.0141,18.2255,67.8653],[-73.0148,18.2277,73.5332],[-73.0201,18.2244,116.0776],[-73.0228,18.2251,136.2871],[-73.0182,18.2303,89.8878],[-73.0206,18.2327,137.7831],[-73.0167,18.2365,96.3582],[-73.0193,18.2365,105.1117],[-73.0231,18.2393,100.14],[-73.03,18.2396,105.2329],[-73.0314,18.2418,106.625],[-73.029,18.2462,109.6294],[-73.0299,18.251,123.3699],[-73.033,18.2511,118.8019],[-73.033,18.2546,117.3688],[-73.0378,18.2564,128.2964],[-73.0359,18.2593,122.8988],[-73.0416,18.2596,125.4111],[-73.0386,18.2626,123.9064],[-73.0398,18.2661,126.2414],[-73.0377,18.2694,140.4928],[-73.043,18.2706,129.1872],[-73.0408,18.2716,132.9842],[-73.0423,18.2771,154.0476],[-73.0484,18.28,145.549],[-73.05,18.2849,153.0694],[-73.0523,18.2869,146.5392],[-73.0438,18.2943,204.7],[-73.0468,18.2967,242.4678],[-73.0422,18.3002,234.9064],[-73.0461,18.3006,171.3999],[-73.0469,18.3024,203.2101],[-73.0499,18.2996,187.0055],[-73.0523,18.3028,209.3423],[-73.0559,18.3005,177.9584],[-73.0571,18.3032,184.1069],[-73.0593,18.3029,190.8634],[-73.0644,18.3145,197.7666],[-73.067,18.3155,203.6518],[-73.0683,18.3228,202.7465],[-73.072,18.3227,210.332],[-73.0696,18.3271,229.4361],[-73.0707,18.3309,207.364],[-73.0734,18.3298,214.7188],[-73.0723,18.3272,205.1532],[-73.08,18.3293,208.2317],[-73.0805,18.3346,210.4417],[-73.0858,18.3363,209.1453],[-73.0867,18.3388,207.0157],[-73.0968,18.3449,244.2536],[-73.1004,18.353,208.808],[-73.1082,18.3583,209.5728],[-73.1104,18.3618,212.9284],[-73.1146,18.3604,211.0607],[-73.1186,18.3629,212.9279],[-73.1204,18.3613,213.4507],[-73.122,18.3619,215.1594],[-73.1252,18.3588,216.22],[-73.1338,18.3637,227.7663],[-73.1416,18.3646,227.9495],[-73.1566,18.3501,237.7265],[-73.1645,18.3505,265.5932],[-73.1732,18.356,256.4524],[-73.1794,18.3565,258.1538],[-73.1868,18.3628,281.3759],[-73.1951,18.364,285.5289],[-73.2046,18.3621,287.4732],[-73.2176,18.3624,299.556],[-73.2281,18.3522,283.363],[-73.2472,18.3541,307.3022],[-73.2592,18.3527,268.8469],[-73.2627,18.3538,271.7729],[-73.2668,18.3598,251.3938],[-73.27,18.3587,285.9725],[-73.277,18.3611,245.0302],[-73.2868,18.3676,243.6718],[-73.2951,18.3677,224.7619],[-73.294,18.3657,225.3727],[-73.2963,18.3654,243.9251],[-73.2994,18.3685,223.0061],[-73.3014,18.3665,223.5834],[-73.3051,18.3667,224.2775],[-73.3063,18.3652,235.4154],[-73.3187,18.3626,221.2621],[-73.3222,18.3638,217.1615],[-73.3248,18.3677,203.9637],[-73.3275,18.3671,202.9458],[-73.3306,18.3707,223.3086],[-73.3318,18.3687,213.0472],[-73.333,18.3699,201.5916],[-73.3352,18.368,206.2768],[-73.3364,18.3693,199.3897],[-73.3484,18.3485,231.5857],[-73.3552,18.3424,187.1971],[-73.363,18.3452,278.5847],[-73.3858,18.347,319.3301],[-73.4011,18.3459,719.6646],[-73.4037,18.3474,711.8253],[-73.4122,18.3419,748.8861],[-73.4184,18.3414,943.9186],[-73.4292,18.3444,827.447],[-73.4365,18.343,862.7863],[-73.4416,18.3407,907.3442],[-73.4538,18.3288,1098.4292],[-73.453,18.3198,898.5234],[-73.4543,18.3147,797.639],[-73.4631,18.3124,703.8839],[-73.4638,18.3108,792.0581],[-73.4592,18.3076,944.4832],[-73.4624,18.3013,955.6584],[-73.4582,18.293,637.8093],[-73.448,18.292,544.1411],[-73.4314,18.2953,137.2076],[-73.4275,18.2932,83.1454],[-73.4255,18.2883,58.6975],[-73.4223,18.2859,37.021],[-73.4196,18.276,21.2925],[-73.4174,18.2743,18.2586],[-73.421,18.2596,6.0271],[-73.4196,18.2549,0.0],[-73.4092,18.2525,0.776],[-73.4097,18.2503,0.0],[-73.4081,18.2488,0.2284],[-73.4039,18.2562,0.1822],[-73.3982,18.2526,0.1484],[-73.3962,18.2535,0.1814],[-73.3982,18.2615,0.1163],[-73.3996,18.2615,0.111],[-73.3993,18.2585,0.2311],[-73.4018,18.2596,0.0992],[-73.4004,18.2562,0.2522],[-73.4026,18.2576,0.0],[-73.409,18.256,0.9291],[-73.4099,18.261,0.9402],[-73.4068,18.2621,1.4182],[-73.4058,18.2597,0.0],[-73.4026,18.2612,0.0],[-73.4049,18.2628,1.4182],[-73.4046,18.2658,0.9794],[-73.4024,18.2665,0.7005],[-73.4023,18.2646,0.111],[-73.3977,18.2638,0.1619],[-73.3968,18.2663,0.5622],[-73.3932,18.2668,0.0],[-73.3962,18.2682,0.7076],[-73.3936,18.2697,0.4662],[-73.3918,18.2656,0.2866],[-73.3938,18.2643,0.1061],[-73.3938,18.2604,0.331],[-73.3926,18.2592,0.331],[-73.3907,18.261,0.7649],[-73.3899,18.2648,0.0],[-73.3924,18.2787,0.0],[-73.39,18.2803,0.6433],[-73.386,18.2696,0.0],[-73.384,18.2679,0.0],[-73.382,18.268,0.0],[-73.3821,18.2721,0.5149],[-73.3779,18.2674,0.3616],[-73.3701,18.2649,0.0],[-73.3705,18.2624,0.0],[-73.368,18.2625,0.0],[-73.3667,18.2587,0.0],[-73.3555,18.2565,0.0],[-73.3535,18.2549,0.0],[-73.3535,18.2512,0.0],[-73.3568,18.2488,0.0],[-73.3571,18.242,6.5057],[-73.361,18.2424,0.0],[-73.3657,18.2388,0.0],[-73.3671,18.2357,3.3106],[-73.3679,18.2296,0.0],[-73.3715,18.2221,0.0],[-73.3693,18.2168,0.0],[-73.364,18.2182,0.0],[-73.3624,18.2159,7.8916],[-73.3576,18.2168,0.0],[-73.3547,18.2242,1.9446],[-73.3487,18.224,24.7416],[-73.3478,18.2201,0.0],[-73.3433,18.2192,0.0],[-73.3412,18.2215,1.3238],[-73.3397,18.2203,0.0],[-73.3343,18.222,0.0],[-73.3318,18.2204,0.0],[-73.3276,18.2235,0.0],[-73.3238,18.2226,0.0],[-73.3086,18.2301,0.9477],[-73.3049,18.2296,0.0],[-73.2935,18.2325,3.2929],[-73.2783,18.232,0.0],[-73.2718,18.2283,0.0],[-73.2695,18.2229,0.0],[-73.2705,18.2174,1.3136],[-73.2666,18.2151,0.0],[-73.2571,18.2165,1.5045],[-73.2533,18.2148,0.0],[-73.2414,18.2164,1.0841],[-73.2393,18.2126,0.0],[-73.2361,18.2118,0.0],[-73.2248,18.2126,1.668],[-73.223,18.2112,0.0],[-73.2114,18.2132,1.7923],[-73.2074,18.2099,0.0],[-73.2035,18.2113,1.3205],[-73.1963,18.2099,0.0],[-73.1854,18.2111,1.9597],[-73.1781,18.209,0.361],[-73.1762,18.2107,0.8682],[-73.1712,18.211,3.3233],[-73.1674,18.2093,2.4023],[-73.1646,18.2051,0.0],[-73.1521,18.2035,0.0],[-73.1415,18.1971,0.4309],[-73.1373,18.1972,3.7045],[-73.1215,18.1921,3.1302],[-73.1112,18.1913,2.0115],[-73.1081,18.1893,2.3788]]],
[[[-73.3971,18.2343,0.8375],[-73.3979,18.2357,0.0],[-73.3987,18.2307,1.6626],[-73.4018,18.229,0.4008],[-73.4004,18.2263,21.3814],[-73.4029,18.226,13.6935],[-73.4096,18.2299,10.925],[-73.4165,18.2307,0.3529],[-73.4207,18.2276,28.0192],[-73.4176,18.2254,19.2326],[-73.4185,18.2213,6.2146],[-73.4129,18.2199,0.0],[-73.4085,18.2224,18.5643],[-73.404,18.2193,1.0186],[-73.4026,18.2199,55.8753],[-73.4035,18.2171,0.0],[-73.4021,18.2182,8.5654],[-73.3935,18.2174,0.0],[-73.3929,18.2204,0.0],[-73.3863,18.2176,0.0],[-73.3879,18.2226,0.9254],[-73.3924,18.2235,0.4891],[-73.3935,18.2299,0.0],[-73.3971,18.2343,0.8375]]],
[[[-73.396,18.2618,0.0],[-73.3976,18.2626,0.0],[-73.394,18.2562,0.0],[-73.3935,18.259,0.331],[-73.396,18.2618,0.0]]]]}}