{"type": "Feature","bbox": [-72.0574,18.6276,-71.7962,18.7467],"geometry": {"type": "MultiPolygon","coordinates": [[[[-71.911,18.6475,985.184],[-71.9082,18.6514,1059.3364],[-71.8968,18.6502,1000.9278],[-71.8788,18.6394,1192.1517],[-71.8752,18.63,1053.9968],[-71.8686,18.6308,943.4464],[-71.8651,18.6364,1231.2332],[-71.8604,18.6367,1264.2771],[-71.8523,18.6358,1267.0568],[-71.8443,18.6294,1138.0409],[-71.8362,18.6296,1150.9285],[-71.8276,18.6332,1158.1526],[-71.8154,18.6306,1000.5582],[-71.8121,18.6341,958.548],[-71.8071,18.6353,880.1624],[-71.8062,18.6376,836.3356],[-71.8015,18.6383,761.0612],[-71.8015,18.6477,1070.459],[-71.8047,18.6644,1346.5721],[-71.798,18.6729,1479.0874],[-71.7962,18.6834,1883.832],[-71.8098,18.688,1770.5885],[-71.829,18.7045,1663.4355],[-71.8418,18.7099,1504.7429],[-71.8533,18.7187,1235.7251],[-71.8758,18.7193,1326.192],[-71.8821,18.718,1355.673],[-71.8874,18.7197,1322.9879],[-71.8935,18.7194,1349.077],[-71.9008,18.722,1294.4919],[-71.911,18.7296,1263.0381],[-71.9161,18.7294,1288.8079],[-71.9209,18.7313,1251.8983],[-71.9234,18.7369,1148.1675],[-71.9259,18.7389,1021.3483],[-71.9424,18.7386,1068.4146],[-71.9609,18.7408,1032.9705],[-71.9711,18.7467,906.6699],[-71.9778,18.734,661.5782],[-71.9885,18.7376,585.0643],[-71.9919,18.7343,450.757],[-72.0053,18.73,394.0737],[-72.008,18.7276,390.4541],[-72.0039,18.7188,689.4199],[-71.999,18.7166,913.0541],[-72.0014,18.7086,944.7522],[-71.9987,18.7054,893.8608],[-72.0011,18.7029,721.2616],[-72.0076,18.7059,769.9229],[-72.0067,18.7112,707.0667],[-72.009,18.7141,687.6516],[-72.0147,18.7123,727.0531],[-72.0363,18.6974,630.7372],[-72.0406,18.6917,512.0743],[-72.0547,18.6867,344.0824],[-72.0574,18.6808,264.1247],[-72.0573,18.6695,193.3543],[-72.0467,18.6652,275.3707],[-72.0451,18.6623,293.4843],[-72.0394,18.6639,303.7632],[-72.0348,18.6591,239.6182],[-72.0286,18.658,355.057],[-72.018,18.646,279.1593],[-72.0139,18.6464,280.2974],[-72.0114,18.6409,454.9485],[-72.0002,18.6352,253.1555],[-72.0026,18.6319,325.1586],[-72.0008,18.6276,289.4926],[-71.989,18.6345,720.1064],[-71.9776,18.638,882.4561],[-71.971,18.6493,935.9054],[-71.9616,18.6586,1011.8074],[-71.9561,18.6548,1067.5596],[-71.9486,18.654,1067.2037],[-71.94,18.6501,723.8898],[-71.927,18.64,846.6029],[-71.9239,18.6393,867.2781],[-71.9231,18.6373,834.3992],[-71.9164,18.6393,810.061],[-71.911,18.6475,985.184]]]]}
,"properties": {"GID_3": "HTI.8.1.1_1","GID_0": "HTI","country": "Haiti","GID_1": "HTI.8_1","province": "Ouest","NL_NAME_1": "NA","GID_2": "HTI.8.1_1","county": "Croix-des-Bouquets","NL_NAME_2": "NA","city": "Cornillon","VARNAME_3": "GrandeBois","NL_NAME_3": "NA","TYPE_3": "Commune","ENGTYPE_3": "Commune","CC_3": "NA","HASC_3": "NA","name": "Cornillon.city","area_km2": 224.4304,"hist_schema_id": "Elevation0-9000","hist_area_km2": {"200": 0.0201,"225": 0.1205,"250": 0.2009,"275": 0.3415,"300": 0.6026,"325": 0.9239,"350": 0.9641,"375": 1.2453,"400": 1.2653,"425": 1.7272,"450": 1.6067,"475": 1.908,"500": 1.5263,"525": 2.0084,"550": 1.7071,"575": 1.7472,"600": 1.7472,"625": 1.8878,"650": 2.6109,"675": 2.4101,"700": 2.8318,"725": 2.9724,"750": 3.3942,"775": 3.9566,"800": 4.8604,"825": 5.6438,"850": 7.3913,"875": 7.6525,"900": 8.8173,"925": 9.7814,"950": 11.8502,"975": 11.5491,"1000": 11.1474,"1025": 11.1274,"1050": 9.4402,"1075": 8.456,"1100": 8.5767,"1125": 8.3558,"1150": 8.9384,"1175": 8.0146,"1200": 6.5681,"1225": 5.4634,"1250": 4.419,"1275": 3.756,"1300": 2.4503,"1325": 2.5907,"1350": 2.5104,"1375": 2.169,"1400": 1.8879,"1425": 2.0285,"1450": 1.3858,"1475": 1.3055,"1500": 1.4662,"1525": 0.7833,"1550": 0.8637,"1575": 0.5624,"1600": 0.462,"1625": 0.3615,"1650": 0.241,"1675": 0.2611,"1700": 0.3213,"1725": 0.2812,"1750": 0.3414,"1775": 0.2812,"1800": 0.1808,"1825": 0.0803,"1850": 0.0402,"1875": 0.0402}}}