{"type":"Feature","properties":{"ISO3166-1-Alpha-3":"MSR","country":"Montserrat","fill":"#F0F","id":"5087","name":"Saint Anthony"},
"geometry":{"type": "Polygon","coordinates": [[[-62.18863,16.73897,375.474],[-62.20202,16.74492,294.2369],[-62.22546,16.74781,102.0609],[-62.23013,16.72761,136.2641],[-62.21886,16.68871,0.0],[-62.16788,16.67536,0.0],[-62.15783,16.67731,0.0],[-62.14977,16.68179,0.0],[-62.14403,16.68822,0.0],[-62.14053,16.69648,0.0],[-62.14118,16.70185,0.0],[-62.14391,16.70897,0.0],[-62.14757,16.71589,14.2436],[-62.15079,16.72036,34.495],[-62.16855,16.72335,422.4241],[-62.17897,16.7293,374.812],[-62.18863,16.73897,375.474]]]}}