{"type": "Feature","bbox": [-62.2418,16.6749,-62.1446,16.7375],"geometry": {"type": "MultiPolygon","coordinates": [[[[-62.1501,16.7121,8.843],[-62.1608,16.712,357.7368],[-62.1786,16.7155,673.7462],[-62.1992,16.7294,170.3273],[-62.2017,16.7294,155.8804],[-62.2071,16.7346,101.2199],[-62.2132,16.734,65.7576],[-62.2329,16.7375,6.0573],[-62.2363,16.726,4.69],[-62.2418,16.7235,0.0],[-62.2399,16.7213,0.0],[-62.226,16.7151,4.5093],[-62.2226,16.7035,0.6409],[-62.2171,16.7021,9.0808],[-62.2154,16.6974,4.3409],[-62.2107,16.6943,25.3954],[-62.2088,16.6887,0.5981],[-62.2062,16.6887,3.3839],[-62.199,16.6821,1.0295],[-62.1954,16.6818,15.04],[-62.1954,16.6796,16.3683],[-62.1893,16.6749,0.0],[-62.1838,16.6754,3.1632],[-62.1826,16.6776,35.488],[-62.1754,16.6751,0.0],[-62.1613,16.6751,0.0],[-62.159,16.679,9.2146],[-62.156,16.6801,0.0],[-62.1446,16.6965,14.5279],[-62.1454,16.701,51.8691],[-62.1507,16.7076,0.0],[-62.1501,16.7121,8.843]]]]}
,"properties": {"GID_1": "MSR.1_1","GID_0": "MSR","country": "Montserrat","province": "SaintAnthon","VARNAME_1": "NA","NL_NAME_1": "NA","TYPE_1": "Parish","ENGTYPE_1": "Parish","CC_1": "NA","HASC_1": "MS.SA","ISO_1": "NA","name": "Saint_Anthon.province","area_km2": 38.0562,"hist_schema_id": "Elevation0-9000","hist_area_km2": {"0": 1.44188,"25": 2.70094,"50": 3.00546,"75": 2.55871,"100": 2.53839,"125": 1.74644,"150": 2.2338,"175": 1.6449,"200": 1.70582,"225": 1.62456,"250": 1.44182,"275": 1.58398,"300": 1.40121,"325": 1.3403,"350": 0.91384,"375": 0.64986,"400": 0.89355,"425": 0.67016,"450": 0.75139,"475": 0.64985,"500": 0.67016,"525": 0.73109,"550": 0.56862,"575": 0.40616,"600": 0.42646,"625": 0.54831,"650": 0.40615,"675": 0.50768,"700": 0.44676,"725": 0.34522,"750": 0.34522,"775": 0.26399,"800": 0.20307,"825": 0.18276,"850": 0.12184,"875": 0.02031,"900": 0.06092,"925": 0.08123,"950": 0.04061,"975": 0.08123,"1000": 0.04061,"1025": 0.06092}}}