{"type": "Feature","bbox": [-70.8406,18.5107,-70.6977,18.6709],"geometry": {"type": "MultiPolygon","coordinates": [[[[-70.7033,18.5691,1247.1104],[-70.7055,18.5776,1249.0522],[-70.6983,18.5856,1459.1093],[-70.6977,18.5909,1322.6277],[-70.7038,18.6096,1135.166],[-70.7088,18.6152,1405.1766],[-70.7124,18.6276,1254.5413],[-70.7261,18.6413,1655.4734],[-70.7363,18.6476,1605.4559],[-70.759,18.6536,1436.3209],[-70.7666,18.6502,1254.6581],[-70.7692,18.6416,1266.6321],[-70.7724,18.6408,1253.0864],[-70.7803,18.6436,1399.3679],[-70.7846,18.6476,1405.3689],[-70.7902,18.6499,1353.8706],[-70.7938,18.6596,1346.835],[-70.7987,18.6622,1198.3385],[-70.806,18.6635,1185.1978],[-70.8105,18.6687,1296.5723],[-70.8148,18.6709,1523.778],[-70.8206,18.6684,1548.2058],[-70.8237,18.6636,1430.3401],[-70.8406,18.6587,1370.7999],[-70.8295,18.647,1620.9097],[-70.8258,18.6401,1502.8854],[-70.8224,18.6268,1204.9884],[-70.8224,18.6113,1097.0181],[-70.8148,18.6078,869.4499],[-70.8102,18.6014,956.546],[-70.8108,18.5964,867.4338],[-70.8172,18.5915,1033.8728],[-70.8192,18.5881,892.0904],[-70.8187,18.5813,754.7833],[-70.8086,18.5692,656.485],[-70.8114,18.5595,406.186],[-70.8188,18.558,506.8313],[-70.8215,18.5555,446.8089],[-70.8194,18.5411,320.1371],[-70.8245,18.5301,282.4916],[-70.828,18.5151,236.6139],[-70.8243,18.5124,232.7108],[-70.8178,18.5107,212.4178],[-70.8116,18.5136,197.7076],[-70.8082,18.5267,257.8097],[-70.7863,18.5473,391.1549],[-70.775,18.5546,572.2861],[-70.756,18.5582,842.6031],[-70.7414,18.5566,610.0856],[-70.7328,18.5631,1076.6187],[-70.7203,18.562,791.1461],[-70.7033,18.5691,1247.1104]]]]}
,"properties": {"GID_2": "DOM.1.7_1","GID_0": "DOM","country": "DominicanRepublic","GID_1": "DOM.1_1","province": "Azua","NL_NAME_1": "NA","county": "Peralta","VARNAME_2": "NA","NL_NAME_2": "NA","TYPE_2": "Municipio","ENGTYPE_2": "Municipality","CC_2": "NA","HASC_2": "DO.AZ.PR","name": "Peralta.county","area_km2": 136.4034,"hist_schema_id": "Elevation0-9000","hist_area_km2": {"200": 0.5227,"225": 1.0856,"250": 1.1258,"275": 1.0856,"300": 1.1458,"325": 1.2061,"350": 1.2061,"375": 1.3869,"400": 1.5276,"425": 1.7286,"450": 1.608,"475": 1.6883,"500": 2.1304,"525": 2.3313,"550": 2.3715,"575": 2.6729,"600": 2.7131,"625": 3.0346,"650": 2.5724,"675": 3.2556,"700": 2.7733,"725": 2.6728,"750": 2.7733,"775": 2.6125,"800": 3.0345,"825": 2.4517,"850": 2.7933,"875": 2.6928,"900": 2.7129,"925": 2.8133,"950": 2.8534,"975": 2.5923,"1000": 2.5722,"1025": 2.9338,"1050": 2.5921,"1075": 2.1902,"1100": 2.6724,"1125": 2.6321,"1150": 2.813,"1175": 2.6723,"1200": 2.5918,"1225": 2.9736,"1250": 2.9333,"1275": 3.1142,"1300": 3.6768,"1325": 3.4557,"1350": 3.938,"1375": 3.5562,"1400": 3.1744,"1425": 2.8931,"1450": 3.0137,"1475": 2.2302,"1500": 2.1097,"1525": 1.7078,"1550": 1.3461,"1575": 1.1452,"1600": 1.1452,"1625": 0.6831,"1650": 0.221,"1675": 0.221,"1700": 0.0201}}}