{"type": "Feature","bbox": [-72.0654,18.6834,-71.7155,18.9734],"geometry": {"type": "MultiPolygon","coordinates": [[[[-71.7886,18.6924,1911.509],[-71.7839,18.6924,1894.5295],[-71.78,18.6955,1591.3165],[-71.78,18.7056,1347.0588],[-71.7781,18.7095,1300.0094],[-71.7699,18.7142,977.0358],[-71.7679,18.713,1052.7422],[-71.7322,18.7263,885.7847],[-71.7171,18.8084,1099.9644],[-71.7171,18.8298,831.4503],[-71.7155,18.8371,862.5917],[-71.7211,18.8457,699.5629],[-71.7211,18.8682,412.4317],[-71.7203,18.8791,375.1381],[-71.7172,18.883,366.2326],[-71.7184,18.885,361.9448],[-71.7219,18.8811,369.8377],[-71.7325,18.8822,406.9536],[-71.7313,18.8896,399.2825],[-71.7345,18.895,377.3714],[-71.7392,18.897,374.3947],[-71.7561,18.9101,361.701],[-71.7635,18.9109,367.6228],[-71.7785,18.9521,239.3019],[-71.777,18.9583,262.6803],[-71.7844,18.9602,271.9431],[-71.7864,18.9622,269.9765],[-71.7899,18.9567,236.2751],[-71.7919,18.9575,248.4989],[-71.7919,18.9602,254.7261],[-71.7993,18.9583,241.8412],[-71.7985,18.9614,246.178],[-71.804,18.9641,261.096],[-71.808,18.9629,249.3868],[-71.808,18.9668,247.5327],[-71.8099,18.9687,253.2153],[-71.8135,18.9668,251.9575],[-71.8221,18.9676,227.5765],[-71.8174,18.9722,264.2252],[-71.8182,18.9734,264.2252],[-71.8201,18.9714,252.2446],[-71.8229,18.9722,264.3806],[-71.8288,18.9668,213.9114],[-71.8315,18.9734,252.2548],[-71.835,18.9734,247.8968],[-71.8362,18.9701,202.6548],[-71.8395,18.9692,218.2953],[-71.8407,18.9662,205.9241],[-71.8456,18.9667,233.2547],[-71.8444,18.964,229.5687],[-71.8462,18.9621,204.4658],[-71.8499,18.9629,205.1599],[-71.8489,18.9606,199.4398],[-71.8508,18.9589,196.2047],[-71.8503,18.9613,194.9877],[-71.855,18.9667,239.7693],[-71.857,18.9667,243.9974],[-71.8558,18.9628,206.5956],[-71.8578,18.962,190.6073],[-71.8586,18.9582,218.37],[-71.857,18.9566,210.9104],[-71.857,18.9508,207.5987],[-71.8644,18.95,200.9941],[-71.8711,18.9527,212.9753],[-71.8719,18.9488,186.405],[-71.8762,18.9484,178.1381],[-71.8763,18.9455,175.0966],[-71.8797,18.9417,188.1651],[-71.8831,18.9426,172.8873],[-71.8833,18.9514,178.8932],[-71.8902,18.9537,188.2425],[-71.8934,18.9525,211.2718],[-71.907,18.9527,241.7472],[-71.9152,18.9487,203.2547],[-71.9176,18.9457,238.8201],[-71.9211,18.9463,215.0293],[-71.9255,18.9495,195.53],[-71.9394,18.9519,260.5242],[-71.9514,18.9407,284.4291],[-71.9562,18.9431,297.3555],[-71.9678,18.9448,331.1561],[-71.9744,18.9485,378.9966],[-71.9733,18.9521,311.2563],[-71.9687,18.9553,382.2089],[-71.9693,18.9569,395.3345],[-71.9747,18.9564,382.0537],[-71.9969,18.9686,333.8784],[-72.0005,18.9665,333.8253],[-71.9993,18.9629,409.8594],[-72.0008,18.9616,417.2705],[-72.0046,18.963,403.0702],[-72.0076,18.9584,430.3552],[-72.007,18.9539,443.1307],[-71.9991,18.9414,405.1221],[-71.997,18.9332,379.5523],[-71.9986,18.929,393.3525],[-71.9967,18.9245,184.3959],[-72.0196,18.9066,170.5],[-72.0311,18.9055,170.5],[-72.0455,18.8972,281.7973],[-72.0569,18.9025,145.4161],[-72.0622,18.8989,174.2966],[-72.065,18.9012,207.1097],[-72.0654,18.8976,276.9807],[-72.0647,18.893,257.8301],[-72.0594,18.8915,378.1953],[-72.0406,18.873,779.5941],[-72.0364,18.8606,804.501],[-72.0287,18.8519,1010.6151],[-72.0248,18.8426,851.3212],[-72.0026,18.8278,795.6292],[-71.9956,18.826,1031.2909],[-71.9819,18.8126,848.3688],[-71.9765,18.8129,739.729],[-71.9687,18.7958,345.8125],[-71.9697,18.7921,279.995],[-71.9672,18.7897,235.2224],[-71.9632,18.78,300.2025],[-71.9607,18.7779,287.1648],[-71.9522,18.7761,458.8213],[-71.9438,18.7659,333.7402],[-71.9426,18.7601,289.0017],[-71.9382,18.7549,454.1124],[-71.9386,18.7528,527.8593],[-71.9449,18.7531,571.6743],[-71.9535,18.7618,299.3485],[-71.9612,18.7635,429.9089],[-71.9637,18.7663,335.0926],[-71.9688,18.7675,298.5813],[-71.98,18.7751,243.0895],[-71.9861,18.7764,234.9966],[-71.988,18.779,210.1402],[-71.9949,18.78,212.3412],[-71.9969,18.7717,348.0742],[-71.9952,18.7688,423.0936],[-71.9842,18.7602,665.4366],[-71.9801,18.7598,665.5178],[-71.9789,18.7573,724.2275],[-71.9747,18.7554,840.1442],[-71.9744,18.7511,918.9784],[-71.9774,18.7499,797.4715],[-71.9762,18.7467,760.8824],[-71.9711,18.7467,906.6699],[-71.9609,18.7408,1032.9705],[-71.9424,18.7386,1068.4146],[-71.9259,18.7389,1021.3483],[-71.9234,18.7369,1148.1675],[-71.9209,18.7313,1251.8983],[-71.9161,18.7294,1288.8079],[-71.911,18.7296,1263.0381],[-71.9008,18.722,1294.4919],[-71.8935,18.7194,1349.077],[-71.8874,18.7197,1322.9879],[-71.8821,18.718,1355.673],[-71.8758,18.7193,1326.192],[-71.8533,18.7187,1235.7251],[-71.8418,18.7099,1504.7429],[-71.829,18.7045,1663.4355],[-71.8098,18.688,1770.5885],[-71.8042,18.6853,1750.2391],[-71.7962,18.6834,1883.832],[-71.7988,18.6889,1856.9044],[-71.7922,18.6955,1739.2874],[-71.7886,18.6924,1911.509]]]]}
,"properties": {"GID_2": "HTI.1.3_1","GID_0": "HTI","country": "Haiti","GID_1": "HTI.1_1","province": "Centre","NL_NAME_1": "NA","county": "Lascahobas","VARNAME_2": "NA","NL_NAME_2": "NA","TYPE_2": "Arrondissement","ENGTYPE_2": "District","CC_2": "NA","HASC_2": "HT.CE.LC","name": "Lascahobas.county","area_km2": 744.5462,"hist_schema_id": "Elevation0-9000","hist_area_km2": {"150": 0.0201,"175": 60.6018,"200": 58.3538,"225": 57.9324,"250": 43.0693,"275": 34.3049,"300": 35.0484,"325": 32.3396,"350": 27.1834,"375": 25.6394,"400": 21.8282,"425": 15.3094,"450": 11.6792,"475": 9.4127,"500": 10.0558,"525": 9.2933,"550": 9.0323,"575": 9.1325,"600": 9.5542,"625": 9.3734,"650": 8.7714,"675": 10.0361,"700": 9.9356,"725": 9.1532,"750": 9.5545,"775": 9.354,"800": 8.9727,"825": 9.9565,"850": 8.6919,"875": 9.7958,"900": 10.5988,"925": 11.3013,"950": 12.2848,"975": 10.5386,"1000": 10.4383,"1025": 11.6827,"1050": 10.6993,"1075": 10.3177,"1100": 8.2102,"1125": 6.7251,"1150": 6.6851,"1175": 5.9223,"1200": 5.2197,"1225": 5.039,"1250": 5.1394,"1275": 3.172,"1300": 2.8308,"1325": 1.9876,"1350": 1.9274,"1375": 1.8471,"1400": 1.4857,"1425": 1.3653,"1450": 1.3653,"1475": 1.1846,"1500": 1.4255,"1525": 1.1043,"1550": 1.3653,"1575": 1.2248,"1600": 1.0843,"1625": 0.9638,"1650": 0.6828,"1675": 0.5623,"1700": 0.4418,"1725": 0.4619,"1750": 0.6828,"1775": 0.6226,"1800": 0.8435,"1825": 0.9038,"1850": 0.6226,"1875": 0.0803,"1900": 0.1004,"1925": 0.0201}}}