{"type": "Feature","bbox": [-73.122,18.6938,-72.7929,19.0001],"geometry": {"type": "MultiPolygon","coordinates": [[[[-72.804,18.7043,0.6061],[-72.8054,18.7049,0.6061],[-72.8057,18.7015,0.7606],[-72.8018,18.6996,0.0],[-72.8015,18.7007,0.0],[-72.804,18.7043,0.6061]]],
[[[-72.8531,18.7213,0.528],[-72.851,18.7201,0.0],[-72.8385,18.7231,0.9347],[-72.8366,18.7202,2.8915],[-72.839,18.7132,0.0],[-72.8354,18.7032,0.0],[-72.831,18.7018,0.6736],[-72.8238,18.6938,1.2468],[-72.8187,18.6943,3.1956],[-72.8179,18.7021,2.3692],[-72.815,18.7018,2.7062],[-72.8134,18.6995,0.0],[-72.806,18.7062,0.0],[-72.8093,18.7118,6.0277],[-72.8174,18.7176,3.6416],[-72.8185,18.721,9.7227],[-72.8167,18.7274,4.0084],[-72.813,18.7309,9.3213],[-72.7943,18.7351,0.0],[-72.7929,18.7376,0.0],[-72.8049,18.7543,0.0],[-72.804,18.7593,0.5823],[-72.8068,18.7626,0.0],[-72.8082,18.7699,73.1726],[-72.8065,18.7743,0.0],[-72.8071,18.7807,0.0],[-72.8096,18.7868,0.2426],[-72.8132,18.7885,5.5297],[-72.8218,18.8037,0.0],[-72.8304,18.8151,0.0],[-72.8485,18.8299,0.0],[-72.8543,18.8321,0.649],[-72.8468,18.8328,0.0],[-72.8465,18.8366,0.3294],[-72.8571,18.8362,0.1976],[-72.8676,18.8418,0.0],[-72.8796,18.8437,0.354],[-72.889,18.8487,0.362],[-72.8949,18.8496,0.8492],[-72.902,18.8539,0.0],[-72.9184,18.8524,0.0],[-72.9238,18.854,0.2845],[-72.9249,18.8568,0.0],[-72.931,18.8582,1.0947],[-72.9324,18.8601,0.0],[-72.9379,18.8578,0.5786],[-72.941,18.8618,0.8038],[-72.9454,18.8643,0.0],[-72.9365,18.864,0.0],[-72.944,18.8657,0.0],[-72.9468,18.8642,0.9353],[-72.954,18.8657,0.0],[-72.9587,18.8696,0.2017],[-72.9681,18.8718,0.4237],[-72.9812,18.8793,0.0],[-72.9924,18.8832,0.4639],[-72.999,18.894,0.0],[-73.0101,18.8979,0.6295],[-73.0229,18.9063,0.1998],[-73.0418,18.911,0.149],[-73.0471,18.9185,0.1656],[-73.0571,18.9251,0.2054],[-73.0693,18.9239,0.0],[-73.0803,18.9294,0.2633],[-73.0905,18.9304,0.2047],[-73.09,18.9214,53.6278],[-73.0983,18.9132,100.6842],[-73.1187,18.9124,75.3703],[-73.122,18.9089,90.5502],[-73.1215,18.863,184.9777],[-73.1176,18.8534,170.4367],[-73.1139,18.8496,167.4288],[-73.0993,18.8426,193.2181],[-73.0944,18.8445,199.3139],[-73.0928,18.8475,213.332],[-73.087,18.8507,176.0815],[-73.0809,18.8446,190.9326],[-73.0802,18.8416,195.688],[-73.0681,18.8347,261.584],[-73.065,18.8395,259.47],[-73.0623,18.840699999999998,251.0837],[-73.0544,18.8379,269.8805],[-73.052,18.8388,282.2095],[-73.0465,18.8308,329.7093],[-73.0419,18.8314,327.1296],[-73.0393,18.8276,334.246],[-73.0397,18.8254,340.0304],[-73.0366,18.8252,340.6793],[-73.032,18.8193,370.9116],[-73.0258,18.8221,416.3196],[-73.0209,18.8203,462.94],[-73.0125,18.8206,472.7125],[-73.0055,18.8178,483.9024],[-72.9974,18.8006,482.6948],[-72.9948,18.7982,504.9154],[-72.9973,18.7935,632.5665],[-72.9956,18.7868,656.6461],[-72.9972,18.7815,738.1888],[-72.996,18.7626,590.2156],[-72.9971,18.7587,370.5827],[-72.9943,18.7508,212.1244],[-72.9971,18.7454,0.0],[-72.9643,18.7426,0.0],[-72.9577,18.7436,0.0],[-72.9518,18.7418,0.0],[-72.9488,18.7435,0.0],[-72.9429,18.7434,0.0],[-72.9352,18.7423,1.515],[-72.9326,18.7405,0.2719],[-72.9269,18.7434,0.0],[-72.9101,18.7352,0.0],[-72.8988,18.7335,0.0],[-72.8932,18.7296,0.1936],[-72.8824,18.7265,0.0],[-72.8657,18.7264,0.4549],[-72.8607,18.7215,0.0],[-72.8531,18.7213,0.528]]],
[[[-72.9054,18.8576,0.6211],[-72.9079,18.8582,0.7051],[-72.909,18.8568,0.0],[-72.9079,18.8563,0.0],[-72.9054,18.8576,0.6211]]],
[[[-73.0185,18.9107,0.0],[-73.0212,18.9112,0.2767],[-73.0226,18.9099,0.0],[-73.0182,18.9088,1.1694],[-73.0185,18.9107,0.0]]],
[[[-72.9999,19.0001,0.0],[-73.0001,19.0001,0.0],[-73.0001,18.9999,0.0],[-72.9999,18.9999,0.0],[-72.9999,19.0001,0.0]]]]}
,"properties": {"GID_3": "HTI.8.3.1_1","GID_0": "HTI","country": "Haiti","GID_1": "HTI.8_1","province": "Ouest","NL_NAME_1": "NA","GID_2": "HTI.8.3_1","county": "LaGonâve","NL_NAME_2": "NA","city": "Anse-à-Galets","VARNAME_3": "NA","NL_NAME_3": "NA","TYPE_3": "Commune","ENGTYPE_3": "Commune","CC_3": "NA","HASC_3": "NA","name": "Anse-à-Galets.city","area_km2": 378.0426,"hist_schema_id": "Elevation0-9000","hist_area_km2": {"0": 33.01,"25": 26.3699,"50": 18.8422,"75": 17.7989,"100": 20.907,"125": 20.0661,"150": 15.0504,"175": 17.4183,"200": 19.4852,"225": 15.3721,"250": 12.3829,"275": 13.166,"300": 12.3434,"325": 12.7251,"350": 12.043,"375": 12.6857,"400": 13.0468,"425": 12.9466,"450": 10.8589,"475": 8.5706,"500": 7.9488,"525": 7.4871,"550": 7.688,"575": 6.7848,"600": 4.8578,"625": 3.9747,"650": 2.4691,"675": 3.4126,"700": 3.513,"725": 3.3122,"750": 1.4654,"775": 0.0401}}}