{"type":"Feature","properties":{"GID_2":"MTQ.2.3_1","GID_0":"MTQ","country":"Martinique","GID_1":"MTQ.2_1","province":"LeMarin","NL_NAME_1":"NA","county":"LeFrançois","VARNAME_2":"NA","NL_NAME_2":"NA","TYPE_2":"Commune","ENGTYPE_2":"Commune","CC_2":"NA","HASC_2":"MQ.MA.FR","name":"Le_François.county"},
"geometry":{"type": "MultiPolygon","coordinates": [[[[-60.8626,14.6071,0.0],[-60.8643,14.6076,0.0],[-60.8651,14.6051,0.0],[-60.8629,14.6046,0.0],[-60.8626,14.6071,0.0]]],
[[[-60.9486,14.61,196.0425],[-60.9257,14.5768,34.9141],[-60.9219,14.5761,57.178],[-60.914,14.5811,112.251],[-60.9102,14.5805,178.2418],[-60.8949,14.5588,238.2094],[-60.8806,14.5661,120.6196],[-60.8719,14.5817,19.1701],[-60.8631,14.5825,7.6722],[-60.8606,14.5853,36.8219],[-60.8605,14.5899,1.6779],[-60.8626,14.5913,0.0],[-60.8682,14.591,1.4442],[-60.8682,14.5932,1.2708],[-60.8724,14.5965,5.3763],[-60.8712,14.6007,9.758],[-60.8682,14.6004,0.0],[-60.869,14.6054,0.0],[-60.8749,14.6079,3.9276],[-60.8782,14.6126,1.8106],[-60.8757,14.616,6.5577],[-60.8696,14.6176,5.1244],[-60.8701,14.6193,1.679],[-60.874,14.6185,29.0395],[-60.8774,14.6212,7.4655],[-60.8804,14.6179,19.0184],[-60.884,14.6196,0.7495],[-60.8857,14.6157,0.8581],[-60.8871,14.6157,0.8581],[-60.8876,14.6221,0.0],[-60.894,14.6193,6.6868],[-60.8987,14.6204,2.1968],[-60.8987,14.6229,14.3556],[-60.8971,14.624,0.78],[-60.8976,14.6285,0.0],[-60.8946,14.6282,0.0],[-60.8949,14.6313,6.812],[-60.8907,14.6313,7.8925],[-60.8921,14.6326,25.4751],[-60.8913,14.636,3.6062],[-60.894,14.6354,10.1443],[-60.8935,14.6401,0.0],[-60.8882,14.6418,0.0],[-60.8904,14.6435,3.1992],[-60.8918,14.6418,1.3711],[-60.8957,14.6415,6.8624],[-60.8982,14.6451,20.7222],[-60.9054,14.6465,1.3952],[-60.9051,14.6485,0.0],[-60.9033,14.6485,0.0],[-60.9065,14.6548,52.0048],[-60.9098,14.6547,38.0604],[-60.9359,14.6283,102.1306],[-60.949,14.6315,248.3477],[-60.9534,14.6208,230.8886],[-60.9486,14.61,196.0425]]],
[[[-60.8585,14.6218,1.2453],[-60.8646,14.6196,2.2215],[-60.8646,14.6176,0.0],[-60.8601,14.6185,0.0],[-60.8585,14.6218,1.2453]]],
[[[-60.8876,14.6338,5.1355],[-60.8879,14.6354,5.1355],[-60.8904,14.634,1.5537],[-60.8885,14.6293,2.5315],[-60.8835,14.6324,1.0602],[-60.8876,14.6338,5.1355]]],
[[[-60.8512,14.6146,1.1921],[-60.8576,14.6129,2.2975],[-60.8621,14.6085,0.0],[-60.8574,14.6093,2.4428],[-60.8568,14.6113,3.6296],[-60.8499,14.609,1.2193],[-60.8496,14.6107,0.0],[-60.8521,14.6115,6.7323],[-60.8512,14.6146,1.1921]]],
[[[-60.8465,14.626,18.0786],[-60.8476,14.6282,1.8882],[-60.8504,14.6249,9.9282],[-60.849,14.6229,0.0],[-60.8465,14.6232,0.0],[-60.8454,14.6257,0.0],[-60.8465,14.626,18.0786]]],
[[[-60.8518,14.6268,0.0],[-60.8532,14.6296,1.6194],[-60.8551,14.6257,0.0],[-60.8526,14.626,0.0],[-60.8518,14.6268,0.0]]]]}}