{"type":"Feature","properties":{"ISO3166-1-Alpha-3":"BRB","country":"Barbados","fill":"#00F","id":"1996","name":"Saint Michael"},
"geometry":{"type": "Polygon","coordinates": [[[-59.57047,13.10819,83.2227],[-59.58711,13.16132,140.2674],[-59.59364,13.15408,119.6858],[-59.59506,13.15346,117.4694],[-59.61108,13.15026,121.5393],[-59.6217,13.1422,113.1187],[-59.62258,13.14127,114.3167],[-59.62439,13.13992,109.4715],[-59.62933,13.1378,81.2274],[-59.63137,13.13661,59.743899999999996],[-59.63142,13.13641,59.743899999999996],[-59.63266,13.13713,38.6156],[-59.63778,13.14183,2.5887],[-59.64054,13.14163,0.0],[-59.64061,13.14162,0.0],[-59.63313,13.11591,0.0],[-59.62157,13.09398,0.0],[-59.60814,13.08466,5.8635],[-59.60025,13.08413,19.7197],[-59.60024,13.08413,19.7197],[-59.56928,13.10018,102.3711],[-59.56884,13.10023,102.3711],[-59.56897,13.10158,94.8081],[-59.57047,13.10819,83.2227]]]}}