{"type": "Feature","id": "5072","bbox": [-61.79052,12.00283,-61.67651,12.1109],"geometry": {"type": "Polygon","coordinates": [[[-61.67651,12.08458,585.0318],[-61.68145,12.09116,393.6675],[-61.68638,12.1109,316.9935],[-61.71599,12.11007,606.7239],[-61.75105,12.11009,0.0],[-61.75642,12.08784,37.803],[-61.75377,12.07416,1.4843],[-61.74885,12.06265,73.619],[-61.74596,12.05093,35.5424],[-61.7495,12.03632,92.5233],[-61.75585,12.03026,4.3884],[-61.79052,12.00837,17.8588],[-61.77554,12.00434,10.3021],[-61.75695,12.0034,34.1496],[-61.73998,12.0069,15.8394],[-61.72964,12.01581,43.169],[-61.72175,12.01105,0.5394],[-61.71325,12.00727,17.7043],[-61.70425,12.00454,0.0],[-61.69494,12.00283,0.0],[-61.69343,12.012269999999999,0.0],[-61.68936,12.01976,53.1565],[-61.68297,12.02538,36.9175],[-61.68885,12.02947,25.5865],[-61.69625,12.04098,160.5041],[-61.69625,12.05825,326.6368],[-61.68967,12.08046,476.1811],[-61.67651,12.08458,585.0318]]]}
,"properties": {"ISO3166-1-Alpha-3": "GRD","country": "Grenada","fill": "#00F","name": "Saint George","area_km2": 83.89174,"hist_schema_id": "Elevation0-9000","hist_area_km2": {"0": 8.6059,"25": 8.81315,"50": 6.94659,"75": 6.63537,"100": 5.51557,"125": 4.68599,"150": 4.22975,"175": 4.52003,"200": 3.8357,"225": 3.15148,"250": 2.44655,"275": 2.1977,"300": 1.86596,"325": 2.0318,"350": 1.6379,"375": 1.55496,"400": 1.74154,"425": 2.05252,"450": 1.84516,"475": 1.72077,"500": 1.82443,"525": 2.011,"550": 1.32683,"575": 1.05732,"600": 0.60121,"625": 0.49755,"650": 0.3317,"675": 0.18658,"700": 0.02073}}}