{"type":"Feature","properties":{"GID_1":"GRD.4_1","GID_0":"GRD","country":"Grenada","province":"SaintGeorge","VARNAME_1":"SaintGeorge's","NL_NAME_1":"NA","TYPE_1":"Parish","ENGTYPE_1":"Parish","CC_1":"NA","HASC_1":"GD.GE","ISO_1":"GD-03","name":"Saint_George.province"},
"geometry":{"type": "MultiPolygon","coordinates": [[[[-61.7857,11.9887,4.0388],[-61.7882,11.9876,0.0],[-61.7882,11.9843,0.0],[-61.7851,11.986,3.1049],[-61.7857,11.9887,4.0388]]],
[[[-61.7243,11.9996,0.0],[-61.7274,11.9993,0.0],[-61.7285,11.9951,1.8816],[-61.7271,11.9915,0.0],[-61.7226,11.989,0.0],[-61.7221,11.9935,0.0],[-61.7257,11.9963,13.147],[-61.7243,11.9996,0.0]]],
[[[-61.7357,12.004,2.5239],[-61.7382,12.0043,5.4617],[-61.7396,12.001,0.0],[-61.7423,12.0001,0.0],[-61.7421,11.9982,0.0],[-61.7371,11.996,0.0],[-61.7346,11.9996,0.9388],[-61.7365,12.001,0.0],[-61.7357,12.004,2.5239]]],
[[[-61.6998,12.1087,682.2122],[-61.7043,12.1105,627.7665],[-61.7232,12.1114,465.696],[-61.7347,12.1096,251.7145],[-61.7474,12.1107,10.7028],[-61.7493,12.109,5.0689],[-61.7526,12.1051,2.3351],[-61.7526,12.0976,0.0],[-61.7537,12.0954,17.4225],[-61.756,12.0951,11.0348],[-61.7557,12.0915,24.1808],[-61.7618,12.0888,1.9229],[-61.7607,12.0849,23.1951],[-61.7632,12.0838,0.0],[-61.7524,12.074,1.4843],[-61.7549,12.0665,44.8785],[-61.7576,12.0635,32.2392],[-61.7549,12.061,8.642],[-61.7543,12.0579,3.2668],[-61.7557,12.0474,11.0398],[-61.7537,12.0471,2.537],[-61.7513,12.0493,0.0],[-61.7493,12.0463,0.0],[-61.7529,12.0443,0.0],[-61.7546,12.0404,1.2491],[-61.7557,12.0343,10.4473],[-61.7537,12.0326,14.5327],[-61.7549,12.0293,4.3884],[-61.7665,12.0218,7.4253],[-61.7751,12.0238,0.0],[-61.7721,12.0213,18.1467],[-61.7732,12.0185,8.4703],[-61.776,12.0188,0.0],[-61.7851,12.011,0.0],[-61.7982,12.0071,0.0],[-61.8015,12.0043,0.0],[-61.8015,12.0021,0.0],[-61.7999,12.0029,1.8378],[-61.7988,12.0013,0.0],[-61.7943,12.0032,5.1663],[-61.7946,12.0013,0.0],[-61.7912,12.0021,7.1386],[-61.7882,12.0001,2.6976],[-61.7882,11.9982,0.0],[-61.7846,11.9979,0.0],[-61.7843,12.0029,1.6628],[-61.781,12.0032,1.7163],[-61.7788,12.0015,0.0],[-61.7765,12.0026,7.1071],[-61.7754,11.9974,0.0],[-61.7735,11.996,0.0],[-61.7718,11.9988,3.5437],[-61.7718,11.9954,0.0],[-61.7699,11.9963,0.0],[-61.7707,12.0007,7.7461],[-61.7693,12.001,1.6529],[-61.7674,11.9971,1.0362],[-61.7687,11.9935,0.0],[-61.7668,11.9929,0.0],[-61.7651,11.9963,0.0],[-61.766,12.0043,0.0],[-61.7635,12.0065,15.4699],[-61.7632,12.0018,0.0],[-61.7582,12.0013,0.0],[-61.7626,11.9879,0.0],[-61.7607,11.9871,4.3644],[-61.7571,11.9893,0.0],[-61.7574,11.9918,1.623],[-61.7549,11.991,5.1144],[-61.7551,11.9887,0.0],[-61.751,11.9904,0.0],[-61.7529,11.9974,0.0],[-61.7513,11.999,0.0],[-61.7524,12.0001,2.5416],[-61.7518,12.0063,1.3606],[-61.7499,12.004,0.0],[-61.7485,12.0057,16.815],[-61.7474,12.0049,10.0436],[-61.7479,11.9965,0.0],[-61.744,11.999,0.0],[-61.7438,12.0024,41.9309],[-61.7376,12.0085,6.3929],[-61.7399,12.0129,20.7199],[-61.7368,12.0124,24.8402],[-61.7315,12.0074,1.5809],[-61.7301,12.0093,22.7229],[-61.7276,12.0079,10.9353],[-61.7285,12.0043,23.4022],[-61.7274,12.0026,2.8103],[-61.7254,12.0018,0.0],[-61.7238,12.0043,4.7703],[-61.7199,11.9993,0.0],[-61.7184,11.9999,0.0],[-61.719,12.0038,27.1935],[-61.7171,12.0043,5.2346],[-61.7187,12.0099,0.0],[-61.7221,12.0107,0.5394],[-61.7238,12.0096,12.4348],[-61.7251,12.0126,19.4604],[-61.7243,12.0146,1.9828],[-61.7221,12.0129,14.3876],[-61.7221,12.011,0.5394],[-61.7196,12.0124,15.7021],[-61.7165,12.0115,8.1475],[-61.7135,12.0038,0.0],[-61.7112,12.0026,23.6495],[-61.7129,12.0001,0.0],[-61.7112,11.999,8.9601],[-61.7112,11.9938,0.0],[-61.7079,11.9935,0.0],[-61.7076,11.9985,0.0],[-61.7046,11.999,2.6255],[-61.7068,12.0013,16.5424],[-61.7054,12.0043,0.9217],[-61.7085,12.0057,0.0],[-61.714,12.0146,2.1529],[-61.711,12.0159,4.3032],[-61.7157,12.0228,17.5777],[-61.7163,12.028,101.5959],[-61.7095,12.0442,253.6655],[-61.7052,12.065,489.3719],[-61.7017,12.0689,399.4462],[-61.6941,12.0728,621.9294],[-61.6985,12.0808,486.972],[-61.6978,12.091,534.2719],[-61.7,12.0987,550.3746],[-61.6998,12.1087,682.2122]]]]}}