{"type":"Feature","properties":{"GID_2":"BLM.2.18_1","GID_0":"BLM","country":"Saint-Barthélemy","GID_1":"BLM.2_1","province":"SousleVent","NL_NAME_1":"NA","county":"Public","VARNAME_2":"NA","NL_NAME_2":"NA","TYPE_2":"Quartier","ENGTYPE_2":"Quarter","CC_2":"NA","HASC_2":"NA","name":"Public.county"},
"geometry":{"type": "MultiPolygon","coordinates": [[[[-62.8464,17.904,18.8135],[-62.8471,17.9024,57.9654],[-62.8491,17.9035,18.1478],[-62.8493,17.9055,55.3918],[-62.8477,17.9055,62.8899],[-62.8467,17.9079,99.2316],[-62.8492,17.9096,123.6021],[-62.8546,17.9056,34.5276],[-62.8524,17.9037,5.8154],[-62.8529,17.9012,0.0],[-62.8514,17.8997,3.1249],[-62.8495,17.9008,56.8293],[-62.8473,17.8975,42.9598],[-62.8435,17.9043,6.8421],[-62.8464,17.904,18.8135]]]]}}