{"type":"Feature","properties":{"GID_2":"DOM.27.2_1","GID_0":"DOM","country":"DominicanRepublic","GID_1":"DOM.27_1","province":"SanPedrodeMacorís","NL_NAME_1":"NA","county":"Guayacanes","VARNAME_2":"NA","NL_NAME_2":"NA","TYPE_2":"Municipio","ENGTYPE_2":"Municipality","CC_2":"NA","HASC_2":"DO.PM.GY","name":"Guayacanes.county"},
"geometry":{"type": "MultiPolygon","coordinates": [[[[-69.3657,18.424,3.196],[-69.3659,18.4353,10.9263],[-69.3701,18.4449,6.3215],[-69.3968,18.4455,14.0421],[-69.4008,18.4472,18.0257],[-69.4013,18.4734,21.8573],[-69.3972,18.4821,27.1885],[-69.4076,18.4822,29.9977],[-69.4142,18.48,25.9881],[-69.4218,18.4797,27.9566],[-69.4447,18.4851,34.8552],[-69.4552,18.4856,37.8847],[-69.4649,18.4852,38.9526],[-69.4731,18.4829,36.3094],[-69.493,18.4828,44.1414],[-69.5066,18.4772,48.3297],[-69.5091,18.4704,51.1766],[-69.5138,18.4668,48.3818],[-69.5143,18.4541,48.01],[-69.5114,18.443,50.1381],[-69.5112,18.4283,46.4001],[-69.515,18.4035,0.0],[-69.5032,18.4051,0.0],[-69.4993,18.4079,3.4212],[-69.4826,18.4112,0.0],[-69.4662,18.4168,0.0],[-69.4574,18.4176,0.9005],[-69.4479,18.4221,7.3745],[-69.4335,18.4243,8.0073],[-69.4257,18.4229,0.0],[-69.424,18.4251,1.0761],[-69.3946,18.4274,5.3848],[-69.3657,18.424,3.196]]]]}}