{"type":"Feature","properties":{"ISO3166-1-Alpha-3":"LCA","country":"Saint Lucia","fill":"#F0F","id":"5083","name":"Micoud"},
"geometry":{"type": "Polygon","coordinates": [[[-60.91546,13.83264,33.6065],[-60.94303,13.84016,227.3676],[-60.96433,13.84517,211.5573],[-60.97522,13.83923,295.2267],[-60.96183,13.82387,219.3185],[-60.94178,13.80256,155.9809],[-60.92924,13.78877,27.37],[-60.91804,13.774,19.1491],[-60.91031,13.77611,24.3791],[-60.9073,13.77733,17.04],[-60.90461,13.78425,19.0366],[-60.8922,13.8332,0.2742],[-60.91546,13.83264,33.6065]]]}}