{"type": "Feature","bbox": [-61.5421,16.3851,-61.4345,16.4547],"geometry": {"type": "MultiPolygon","coordinates": [[[[-61.536,16.4521,0.0],[-61.5379,16.444,0.0],[-61.5421,16.4379,0.0],[-61.5376,16.4368,2.973],[-61.5379,16.431,0.0],[-61.5337,16.4251,4.4395],[-61.5346,16.4185,0.0],[-61.5332,16.4176,3.5227],[-61.5326,16.4124,0.4148],[-61.5301,16.411,0.5649],[-61.5285,16.3999,0.9068],[-61.5268,16.3987,2.0275],[-61.526,16.3946,0.0],[-61.5126,16.3896,1.9612],[-61.509,16.3851,0.0],[-61.5068,16.3886,0.0],[-61.5095,16.3922,3.459],[-61.4927,16.4107,19.6923],[-61.4855,16.412,15.04],[-61.4676,16.4078,24.8016],[-61.4606,16.4098,29.2731],[-61.4527,16.4258,21.6925],[-61.4392,16.4314,34.9117],[-61.4381,16.4382,29.6396],[-61.4345,16.439,31.6662],[-61.4413,16.4407,26.2311],[-61.4466,16.4496,16.58],[-61.4501,16.4501,15.625],[-61.4559,16.4458,15.201],[-61.4666,16.4456,71.5813],[-61.4759,16.4402,71.5489],[-61.4868,16.4391,46.9048],[-61.5176,16.4547,12.0902],[-61.536,16.4521,0.0]]]]}
,"properties": {"GID_2": "GLP.2.11_1","GID_0": "GLP","country": "Guadeloupe","GID_1": "GLP.2_1","province": "Pointe-à-Pitre","NL_NAME_1": "NA","county": "Port-Louis","VARNAME_2": "NA","NL_NAME_2": "NA","TYPE_2": "Communesimple","ENGTYPE_2": "Commune","CC_2": "03","HASC_2": "NA","name": "Port-Louis.county","area_km2": 44.49699,"hist_schema_id": "Elevation0-9000","hist_area_km2": {"0": 17.38829,"25": 23.79399,"50": 2.54196,"75": 0.77275}}}