{"type":"Feature","properties":{"GID_2":"DOM.6.3_1","GID_0":"DOM","country":"DominicanRepublic","GID_1":"DOM.6_1","province":"Duarte","NL_NAME_1":"NA","county":"Hostos","VARNAME_2":"NA","NL_NAME_2":"NA","TYPE_2":"Distritomunicipal","ENGTYPE_2":"Municipaldistrict","CC_2":"NA","HASC_2":"DO.DU.HO","name":"Hostos.county"},
"geometry":{"type": "MultiPolygon","coordinates": [[[[-70.0828,19.1776,32.5498],[-70.0806,19.1711,37.5128],[-70.074,19.168,29.5121],[-70.0704,19.1624,29.1366],[-70.07,19.1518,26.944],[-70.0706,19.1473,20.8024],[-70.0731,19.1436,27.6368],[-70.0721,19.1418,31.7909],[-70.0686,19.1411,38.4476],[-70.0626,19.1426,20.2796],[-70.0597,19.1386,29.4164],[-70.044,19.129,41.7868],[-70.043,19.1076,114.3979],[-70.0372,19.0979,131.5713],[-70.02,19.085,98.2891],[-70.0005,19.0782,121.6089],[-69.994,19.0712,57.1229],[-69.991,19.0715,118.4195],[-69.9823,19.0785,108.1796],[-69.9839,19.0968,122.6395],[-69.9811,19.1072,136.1586],[-69.9838,19.1165,114.5619],[-69.9832,19.1219,100.6217],[-69.9768,19.1241,84.9899],[-69.972,19.1286,34.8006],[-69.9572,19.1288,17.4145],[-69.9572,19.1316,17.8342],[-69.9738,19.1371,19.4408],[-69.9869,19.1357,19.9834],[-69.9912,19.1386,23.1149],[-69.9923,19.1417,18.2823],[-69.9902,19.1491,19.8633],[-69.9952,19.1529,18.1886],[-69.9958,19.1578,20.7943],[-69.9906,19.1641,23.9056],[-69.9867,19.1742,34.1641],[-70.0044,19.1748,32.8482],[-70.0071,19.1774,30.1281],[-70.0089,19.1834,37.6351],[-70.0129,19.1855,41.588],[-70.0159,19.1847,38.079],[-70.0238,19.176,35.9891],[-70.0281,19.1744,37.3235],[-70.0481,19.1745,31.4014],[-70.0586,19.1772,30.5824],[-70.0828,19.1776,32.5498]]]]}}