{"type": "Feature","bbox": [-71.8597,19.3317,-71.6883,19.4427],"geometry": {"type": "MultiPolygon","coordinates": [[[[-71.691,19.3795,390.8279],[-71.691,19.3829,386.723],[-71.7104,19.3839,649.4741],[-71.7138,19.3867,624.8748],[-71.7175,19.3861,609.185],[-71.7196,19.3882,580.6848],[-71.7262,19.3869,785.606],[-71.7306,19.3889,614.8811],[-71.7339,19.394,427.3109],[-71.739,19.3954,614.695],[-71.7419,19.3994,543.6524],[-71.7491,19.4003,684.2934],[-71.7524,19.4037,601.9906],[-71.7583,19.4032,649.8783],[-71.7796,19.4174,662.7869],[-71.7952,19.4369,255.5687],[-71.7985,19.4401,368.4429],[-71.803,19.4413,299.9999],[-71.8142,19.4399,407.2109],[-71.8192,19.4407,438.0672],[-71.8217,19.4383,478.6566],[-71.8323,19.4427,697.0386],[-71.8376,19.4411,637.3467],[-71.8438,19.4354,823.7314],[-71.8412,19.4314,809.7399],[-71.8417,19.4267,976.9449],[-71.8458,19.4275,823.3076],[-71.8504,19.4258,716.4245],[-71.8532,19.424,673.9362],[-71.8534,19.4211,667.6485],[-71.8582,19.4193,665.3572],[-71.8597,19.4152,657.6772],[-71.8568,19.4076,642.0775],[-71.8537,19.4056,636.9749],[-71.8535,19.4077,645.3739],[-71.8506,19.4069,634.8551],[-71.8476,19.4029,630.0145],[-71.845,19.4023,626.8561],[-71.8449,19.4003,630.8353],[-71.8406,19.4003,621.1561],[-71.8316,19.3893,613.9618],[-71.8318,19.3852,613.3493],[-71.8282,19.3831,610.8822],[-71.8268,19.3838,617.4515],[-71.8278,19.3815,612.4055],[-71.8253,19.3738,612.972],[-71.8202,19.3702,611.6889],[-71.8189,19.3662,612.6091],[-71.8147,19.3651,603.4667],[-71.8133,19.3578,601.6805],[-71.8113,19.3588,619.014],[-71.8083,19.356,599.1828],[-71.8085,19.3533,603.1656],[-71.807,19.3532,611.0062],[-71.805,19.3488,613.8613],[-71.8059,19.3463,610.5501],[-71.8032,19.3406,598.1646],[-71.7983,19.3371,591.5146],[-71.7985,19.3348,599.4369],[-71.7858,19.3317,586.9911],[-71.7804,19.3346,620.295],[-71.7831,19.3354,606.8884],[-71.7718,19.342,690.3922],[-71.7494,19.344,801.9247],[-71.7466,19.3546,695.2416],[-71.7375,19.3581,787.4423],[-71.735,19.3607,830.9827],[-71.7316,19.3606,786.956],[-71.7244,19.3666,823.5289],[-71.7182,19.3628,850.5303],[-71.7169,19.3684,843.6118],[-71.7153,19.3675,840.3613],[-71.7145,19.3728,943.5835],[-71.7126,19.3736,832.2413],[-71.7118,19.3767,743.5149],[-71.7004,19.3689,566.3098],[-71.6984,19.3643,570.0355],[-71.6918,19.3643,558.7714],[-71.689,19.3674,463.8082],[-71.691,19.369,405.0835],[-71.691,19.3736,353.7291],[-71.6883,19.3756,614.8397],[-71.6883,19.3775,640.874],[-71.691,19.3795,390.8279]]]]}
,"properties": {"GID_3": "HTI.5.3.2_1","GID_0": "HTI","country": "Haiti","GID_1": "HTI.5_1","province": "Nord-Est","NL_NAME_1": "NA","GID_2": "HTI.5.3_1","county": "Ouanaminthe","NL_NAME_2": "NA","city": "Mont-Organisé","VARNAME_3": "NA","NL_NAME_3": "NA","TYPE_3": "Commune","ENGTYPE_3": "Commune","CC_3": "NA","HASC_3": "NA","name": "Mont-Organisé.city","area_km2": 100.69939,"hist_schema_id": "Elevation0-9000","hist_area_km2": {"250": 0.07998,"275": 0.23994,"300": 0.65988,"325": 0.69986,"350": 0.7999,"375": 0.87989,"400": 0.65989,"425": 0.65993,"450": 0.81987,"475": 0.81991,"500": 0.69991,"525": 0.49993,"550": 0.89993,"575": 0.6999,"600": 7.78105,"625": 25.32112,"650": 24.79927,"675": 10.71967,"700": 5.99992,"725": 3.71994,"750": 2.69997,"775": 2.06006,"800": 1.67998,"825": 1.47997,"850": 1.53992,"875": 0.99996,"900": 0.93995,"925": 0.57996,"950": 0.59999,"975": 0.29998,"1000": 0.23997,"1025": 0.12001}}}