{"type": "Feature","bbox": [-70.8336,18.3454,-70.6439,18.5691],"geometry": {"type": "MultiPolygon","coordinates": [[[[-70.6439,18.4279,3.1124],[-70.6443,18.4381,21.3465],[-70.6491,18.445,28.9988],[-70.6545,18.4632,68.4433],[-70.6583,18.4665,91.728],[-70.6763,18.4735,141.0274],[-70.679,18.4762,194.2077],[-70.6793,18.4853,323.7758],[-70.6715,18.4907,635.7686],[-70.6705,18.4943,730.6062],[-70.6739,18.5033,873.63],[-70.6792,18.5093,938.5042],[-70.6781,18.5154,983.199],[-70.6793,18.5217,840.6032],[-70.6767,18.529,877.5438],[-70.6768,18.5363,1135.3844],[-70.6843,18.5504,1251.0626],[-70.694,18.5528,1265.4854],[-70.6966,18.5547,1184.2659],[-70.7033,18.5691,1247.1104],[-70.7203,18.562,791.1461],[-70.7328,18.5631,1076.6187],[-70.7414,18.5566,610.0856],[-70.756,18.5582,842.6031],[-70.775,18.5546,572.2861],[-70.7863,18.5473,391.1549],[-70.8082,18.5267,257.8097],[-70.8116,18.5136,197.7076],[-70.8199,18.5106,229.923],[-70.828,18.5151,236.6139],[-70.8336,18.5048,265.6594],[-70.8336,18.4951,228.0875],[-70.8253,18.492,204.7948],[-70.8139,18.4737,137.3185],[-70.8136,18.4635,117.1764],[-70.8189,18.4585,104.8636],[-70.8135,18.4464,84.2624],[-70.8161,18.4379,69.4625],[-70.8163,18.431,59.6367],[-70.8141,18.4267,52.8808],[-70.8057,18.4184,40.5683],[-70.8011,18.4096,30.4646],[-70.7951,18.408,25.5168],[-70.7835,18.4008,18.5529],[-70.779,18.4009,20.5137],[-70.7762,18.4068,23.4469],[-70.7695,18.4146,27.9531],[-70.7711,18.4214,34.1172],[-70.77,18.4244,35.8381],[-70.7638,18.4301,38.831],[-70.7552,18.434,37.9776],[-70.7487,18.4332,38.7372],[-70.7364,18.4217,25.9252],[-70.7361,18.4059,17.6057],[-70.7387,18.3986,22.6164],[-70.7394,18.3897,75.9895],[-70.7488,18.3716,10.9186],[-70.7564,18.3644,57.9521],[-70.7836,18.3496,53.2742],[-70.7821,18.3454,0.0],[-70.7743,18.3474,8.1257],[-70.7712,18.3465,0.0],[-70.7657,18.349,22.6002],[-70.7549,18.349,8.8137],[-70.7485,18.3463,0.0],[-70.744,18.3463,0.0],[-70.7246,18.3563,0.0],[-70.7237,18.361,20.7858],[-70.7179,18.3626,3.6086],[-70.7113,18.3693,15.3745],[-70.7029,18.3832,0.0],[-70.7029,18.3865,0.0],[-70.7063,18.3879,6.9972],[-70.706,18.3926,2.1109],[-70.7085,18.3957,0.0],[-70.7068,18.3996,0.0],[-70.7099,18.4013,1.4666],[-70.7104,18.4096,0.1377],[-70.7054,18.4135,1.2957],[-70.7029,18.4121,0.0],[-70.7012,18.414,1.5309],[-70.6949,18.416,3.2473],[-70.6921,18.4201,0.0],[-70.6896,18.4201,0.0],[-70.6924,18.4243,0.0],[-70.6885,18.4296,1.2747],[-70.6701,18.4321,3.1278],[-70.6637,18.4313,4.984],[-70.661,18.429,2.5789],[-70.6565,18.4287,0.9158],[-70.6557,18.4271,0.9158],[-70.6439,18.4279,3.1124]]]]}
,"properties": {"GID_2": "DOM.1.1_1","GID_0": "DOM","country": "DominicanRepublic","GID_1": "DOM.1_1","province": "Azua","NL_NAME_1": "NA","county": "AzuadeCompostela","VARNAME_2": "NA","NL_NAME_2": "NA","TYPE_2": "Municipio","ENGTYPE_2": "Municipality","CC_2": "NA","HASC_2": "DO.AZ.AC","name": "Azuade_Compostela.county","area_km2": 263.4787,"hist_schema_id": "Elevation0-9000","hist_area_km2": {"0": 8.3084,"25": 27.9808,"50": 32.1027,"75": 24.4577,"100": 17.3163,"125": 14.6008,"150": 13.9967,"175": 14.5993,"200": 12.4674,"225": 11.0392,"250": 7.1383,"275": 5.5297,"300": 4.9263,"325": 4.8456,"350": 3.6591,"375": 3.2168,"400": 3.0961,"425": 2.8951,"450": 2.6939,"475": 2.4527,"500": 2.3521,"525": 2.2516,"550": 2.3521,"575": 2.1712,"600": 2.3722,"625": 2.1711,"650": 1.8897,"675": 2.0505,"700": 1.9098,"725": 2.1309,"750": 1.9701,"775": 1.8092,"800": 1.7891,"825": 1.7489,"850": 1.7088,"875": 1.5881,"900": 1.5077,"925": 1.2061,"950": 1.2866,"975": 1.0654,"1000": 0.7438,"1025": 0.9046,"1050": 0.7237,"1075": 0.7639,"1100": 0.4824,"1125": 0.3618,"1150": 0.5025,"1175": 0.3417,"1200": 0.3216,"1225": 0.2814,"1250": 0.3417,"1275": 0.603,"1300": 0.3417,"1325": 0.3618,"1350": 0.5226,"1375": 0.3819,"1400": 0.3015,"1425": 0.2814,"1450": 0.2412,"1475": 0.0201}}}