{"type": "Feature","bbox": [-79.6784,22.1879,-79.357,22.47],"geometry": {"type": "MultiPolygon","coordinates": [[[[-79.3848,22.207,161.3925],[-79.3799,22.2042,162.0849],[-79.3671,22.2035,206.8883],[-79.3603,22.2065,195.6837],[-79.3589,22.2136,237.5793],[-79.3627,22.2333,170.373],[-79.363,22.2472,170.613],[-79.357,22.2596,188.9853],[-79.357,22.2735,233.2878],[-79.3592,22.2761,239.7373],[-79.3793,22.2832,221.3969],[-79.3871,22.2875,236.9003],[-79.3951,22.2965,238.3611],[-79.4014,22.3129,182.8887],[-79.4832,22.3467,195.3188],[-79.527,22.3591,201.6637],[-79.5495,22.3771,185.5503],[-79.5673,22.3867,182.4034],[-79.5807,22.3987,172.6289],[-79.5833,22.4034,156.3278],[-79.5826,22.4086,149.8663],[-79.5665,22.4253,96.4394],[-79.5619,22.4341,92.025],[-79.5609,22.4597,54.8326],[-79.5656,22.469,46.0092],[-79.5749,22.47,146.5677],[-79.5905,22.4637,59.5136],[-79.611,22.4609,85.3746],[-79.6312,22.4493,100.4591],[-79.6323,22.4056,196.1991],[-79.6418,22.3876,141.11],[-79.6708,22.349,253.8535],[-79.6784,22.3311,204.0361],[-79.6665,22.3065,193.7712],[-79.6615,22.2774,184.8695],[-79.652,22.2744,179.0279],[-79.6074,22.2735,174.955],[-79.5977,22.2613,171.3151],[-79.5919,22.2415,168.3544],[-79.5806,22.2227,154.065],[-79.5413,22.2033,136.6919],[-79.5025,22.1911,121.2486],[-79.4825,22.1879,122.1063],[-79.4796,22.1976,104.0435],[-79.4742,22.2071,99.2016],[-79.4526,22.216,109.951],[-79.43,22.222,127.4681],[-79.4101,22.2199,144.3781],[-79.3848,22.207,161.3925]]]]}
,"properties": {"GID_2": "CUB.16.10_1","GID_0": "CUB","country": "Cuba","GID_1": "CUB.16_1","province": "VillaClara","NL_NAME_1": "NA","county": "Remedios","VARNAME_2": "NA","NL_NAME_2": "NA","TYPE_2": "Municipio","ENGTYPE_2": "Municipality","CC_2": "NA","HASC_2": "CU.VC.RE","name": "Remedios.county","area_km2": 499.3231,"hist_schema_id": "Elevation0-9000","hist_area_km2": {"50": 2.6255,"75": 5.9569,"100": 28.6295,"125": 60.8222,"150": 134.4278,"175": 126.821,"200": 86.1224,"225": 38.2654,"250": 13.4949,"275": 1.7063,"300": 0.3726,"325": 0.0785}}}