{"type": "Feature","bbox": [-82.32,23.0122,-82.2435,23.0897],"geometry": {"type": "MultiPolygon","coordinates": [[[[-82.2581,23.0122,82.6414],[-82.2435,23.0455,115.2765],[-82.2526,23.0647,93.3597],[-82.2575,23.0702,90.9113],[-82.2955,23.0877,45.2441],[-82.3193,23.0897,30.6583],[-82.32,23.0619,55.6903],[-82.3072,23.0394,74.9073],[-82.3018,23.0345,71.5407],[-82.2581,23.0122,82.6414]]]]}
,"properties": {"GID_2": "CUB.4.7_1","GID_0": "CUB","country": "Cuba","GID_1": "CUB.4_1","province": "CiudaddelaHabana","NL_NAME_1": "NA","county": "Guanabacoa","VARNAME_2": "NA","NL_NAME_2": "NA","TYPE_2": "Municipio","ENGTYPE_2": "Municipality","CC_2": "NA","HASC_2": "CU.CH.GU","name": "Guanabacoa.county","area_km2": 41.96374,"hist_schema_id": "Elevation0-9000","hist_area_km2": {"25": 0.15603,"50": 4.62277,"75": 18.4557,"100": 17.9684,"125": 0.76084}}}