{"type":"Feature","properties":{"GID_1":"MTQ.3_1","GID_0":"MTQ","country":"Martinique","province":"LeTrinité","VARNAME_1":"Trinite","NL_NAME_1":"NA","TYPE_1":"Arrondissement","ENGTYPE_1":"Arrondissement","CC_1":"NA","HASC_1":"MQ.TR","ISO_1":"NA","name":"Le_Trinité.province"},
"geometry":{"type": "MultiPolygon","coordinates": [[[[-60.985,14.4991,40.0262],[-60.9823,14.4807,5.3502],[-60.9807,14.4815,0.8802],[-60.9785,14.4788,0.0],[-60.9804,14.4768,0.0],[-60.9799,14.4746,1.0115],[-60.9782,14.4751,1.0115],[-60.9782,14.4768,2.9488],[-60.9763,14.4754,0.0],[-60.9787,14.4707,0.0],[-60.9749,14.4676,0.7165],[-60.9687,14.4704,0.0],[-60.9687,14.4724,1.7054],[-60.9649,14.4726,1.2568],[-60.9604,14.4676,0.0],[-60.9579,14.4682,2.1699],[-60.9565,14.4651,0.0],[-60.9463,14.4668,0.0],[-60.9426,14.466,3.7407],[-60.9421,14.4635,0.0],[-60.9362,14.4643,3.9499],[-60.9351,14.4621,0.0],[-60.9166,14.4685,0.0],[-60.9164,14.4915,215.6293],[-60.9198,14.4947,253.6581],[-60.9318,14.4993,258.8445],[-60.9554,14.493,41.1681],[-60.985,14.4991,40.0262]]],
[[[-60.9509,14.6388,237.3069],[-60.9492,14.6315,248.3477],[-60.9359,14.6283,102.1306],[-60.9086,14.6554,38.0604],[-60.9065,14.6548,52.0048],[-60.9033,14.6485,0.0],[-60.9015,14.6496,0.0],[-60.9024,14.6518,6.9583],[-60.8968,14.6479,0.0],[-60.8951,14.6504,0.0],[-60.8901,14.6496,0.0],[-60.8893,14.6554,7.7069],[-60.8854,14.6524,0.0],[-60.8851,14.6579,0.0],[-60.8829,14.6579,0.0],[-60.8818,14.664,28.5107],[-60.8835,14.6663,5.6174],[-60.891,14.6657,0.0],[-60.8921,14.6646,0.0],[-60.8913,14.6601,5.5539],[-60.8937,14.6596,4.8453],[-60.8946,14.6615,2.54],[-60.8982,14.6615,5.5151],[-60.8968,14.6654,0.0],[-60.9004,14.6654,0.0],[-60.9024,14.6635,15.0312],[-60.9029,14.6665,2.3112],[-60.906,14.6671,0.0],[-60.9068,14.6638,0.0],[-60.909,14.6629,3.079],[-60.9118,14.6663,6.8994],[-60.916,14.6643,2.2634],[-60.9204,14.6568,1.4952],[-60.9254,14.654,0.0],[-60.9296,14.6549,0.2019],[-60.9351,14.6649,14.6587],[-60.9424,14.6682,9.0889],[-60.9426,14.6724,2.2928],[-60.9385,14.674,0.0],[-60.936,14.6829,2.449],[-60.9349,14.6815,0.0],[-60.9332,14.6821,2.2332],[-60.9304,14.6779,0.0],[-60.926,14.679,3.8723],[-60.9243,14.6776,0.0],[-60.9238,14.6796,0.0],[-60.9287,14.6829,0.0],[-60.9271,14.6876,5.1764],[-60.9251,14.6888,12.8571],[-60.9207,14.6871,1.3101],[-60.9182,14.6907,1.1677],[-60.9129,14.6913,0.2721],[-60.9115,14.6874,3.6231],[-60.9082,14.6907,10.9159],[-60.9076,14.6946,8.5988],[-60.901,14.6951,0.0],[-60.9001,14.6996,0.0],[-60.9029,14.6999,6.8678],[-60.9004,14.7029,1.9953],[-60.9099,14.6996,10.0894],[-60.914,14.7029,0.0],[-60.9151,14.7051,1.3705],[-60.9129,14.7068,2.6682],[-60.9154,14.7096,0.0],[-60.9135,14.7157,0.0],[-60.9165,14.7146,15.9466],[-60.9176,14.7157,0.5789],[-60.9207,14.7099,5.5578],[-60.9293,14.7074,0.0],[-60.9318,14.7082,0.0],[-60.9335,14.7115,17.325],[-60.9279,14.7151,0.0],[-60.929,14.7179,17.774],[-60.9276,14.7201,4.9827],[-60.9249,14.7196,0.0],[-60.9251,14.7221,0.0],[-60.9307,14.7221,0.0],[-60.9343,14.7157,0.0],[-60.9376,14.7171,0.2154],[-60.939,14.7215,0.0],[-60.9449,14.724,0.0],[-60.9457,14.7282,2.0655],[-60.9429,14.7329,1.4139],[-60.9362,14.7318,0.0],[-60.9382,14.7354,1.7924],[-60.9424,14.7354,26.9717],[-60.9443,14.7382,19.9759],[-60.9426,14.7435,0.4295],[-60.9404,14.7424,0.0],[-60.9365,14.7501,0.5007],[-60.9335,14.749,0.0],[-60.9257,14.7499,0.0],[-60.9207,14.7465,0.0],[-60.9135,14.7446,2.0524],[-60.9099,14.7343,0.0],[-60.9046,14.7368,0.0],[-60.9018,14.7362,10.832],[-60.901,14.734,1.6488],[-60.8971,14.7349,6.6644],[-60.8963,14.7332,0.0],[-60.8949,14.7338,0.0],[-60.8954,14.7368,0.0],[-60.8924,14.7365,0.0],[-60.8918,14.7349,0.0],[-60.8899,14.7354,0.0],[-60.8915,14.7379,0.8104],[-60.8901,14.7393,7.161],[-60.891,14.7418,3.4247],[-60.8985,14.7432,40.6915],[-60.8979,14.7465,14.9731],[-60.8943,14.7457,0.0],[-60.8957,14.7482,0.0],[-60.8935,14.7493,19.0721],[-60.8907,14.7482,2.8709],[-60.8885,14.7518,0.0],[-60.8904,14.756,7.5738],[-60.8968,14.7585,10.1603],[-60.8968,14.7612,0.6261],[-60.8937,14.7618,0.0],[-60.8918,14.7662,9.9375],[-60.886,14.7657,7.3726],[-60.8835,14.7676,6.1548],[-60.8818,14.7649,0.6318],[-60.8826,14.7626,1.2479],[-60.879,14.7588,11.1703],[-60.8801,14.7554,0.0],[-60.8779,14.7537,0.0],[-60.8771,14.7588,24.9237],[-60.8726,14.7582,1.1053],[-60.8724,14.7599,17.1186],[-60.876,14.7654,27.9259],[-60.8726,14.7712,0.5697],[-60.876,14.7726,12.9696],[-60.8746,14.7768,2.6817],[-60.8785,14.7749,30.1457],[-60.879,14.7768,0.0],[-60.8812,14.776,11.1754],[-60.8829,14.7779,2.4781],[-60.8854,14.776,28.0513],[-60.8854,14.7799,0.0],[-60.8885,14.7799,30.6546],[-60.8926,14.7732,24.4402],[-60.8982,14.7696,11.8793],[-60.901,14.7696,8.3075],[-60.9021,14.7665,12.1072],[-60.9082,14.7662,13.3943],[-60.9085,14.769,0.0],[-60.9099,14.7693,0.0],[-60.9104,14.766,1.1959],[-60.9126,14.7668,0.0],[-60.914,14.7657,0.0],[-60.914,14.7646,0.0],[-60.9118,14.7649,3.1934],[-60.9126,14.7618,12.4331],[-60.9168,14.761,0.0],[-60.9204,14.7579,8.0041],[-60.9232,14.7587,2.1138],[-60.9246,14.7626,0.0],[-60.926,14.7629,5.1529],[-60.9268,14.7615,19.2959],[-60.9351,14.7612,0.0],[-60.9357,14.759,2.9969],[-60.9418,14.7565,11.2099],[-60.9449,14.7571,0.0],[-60.9451,14.7546,13.6584],[-60.9526,14.7482,0.0],[-60.9532,14.7396,31.1029],[-60.9576,14.736,5.1453],[-60.9626,14.739,1.8953],[-60.9632,14.7457,9.6058],[-60.9615,14.7468,0.0],[-60.9651,14.7482,1.5882],[-60.9676,14.7524,0.0],[-60.9663,14.7568,3.4717],[-60.9676,14.7599,0.0],[-60.9746,14.7638,4.1559],[-60.9746,14.7685,15.7186],[-60.9779,14.7679,25.8339],[-60.9801,14.7721,0.0],[-60.9821,14.7724,2.1907],[-60.9826,14.7751,11.9076],[-60.979,14.7754,0.0],[-60.9793,14.7776,1.5024],[-60.981,14.779,0.0],[-60.986,14.7771,27.6791],[-60.9876,14.7779,24.034],[-60.9915,14.7851,1.8288],[-60.9974,14.7874,2.8769],[-60.9985,14.794,0.0],[-61.0035,14.7974,6.3645],[-61.0046,14.8018,0.8146],[-61.0024,14.8029,0.0],[-61.0029,14.8051,66.4395],[-61.001,14.809,0.0],[-61.0071,14.809,2.9205],[-61.0057,14.8118,0.0],[-61.0115,14.8068,45.2417],[-61.0182,14.8096,0.8782],[-61.0204,14.8135,0.0],[-61.0196,14.819,0.0],[-61.0246,14.8235,3.5591],[-61.031,14.8235,9.1251],[-61.0285,14.8274,0.0],[-61.0288,14.8307,0.0],[-61.0365,14.8301,7.8033],[-61.0424,14.8374,0.0],[-61.049,14.8329,13.1168],[-61.0563,14.834,0.0],[-61.0596,14.8379,0.0],[-61.0624,14.8385,0.0],[-61.064,14.8435,0.0],[-61.0707,14.8435,45.3496],[-61.0732,14.8462,5.0604],[-61.0762,14.846,5.8125],[-61.0829,14.8532,0.0],[-61.0899,14.8538,0.0],[-61.0976,14.8635,3.1276],[-61.1026,14.8638,0.0],[-61.1054,14.8671,0.0],[-61.1099,14.8676,13.0243],[-61.114,14.871,0.0],[-61.1199,14.8699,22.6852],[-61.121,14.8724,0.0],[-61.1265,14.8751,19.2911],[-61.1349,14.8751,41.0085],[-61.1387,14.8782,14.3419],[-61.1424,14.8771,14.2877],[-61.1474,14.879,0.0],[-61.1543,14.8771,0.0],[-61.1646,14.8779,0.0],[-61.176,14.8735,47.4698],[-61.1804,14.8754,2.143],[-61.1824,14.8701,93.0048],[-61.1851,14.8693,56.8459],[-61.1868,14.8704,18.3784],[-61.1874,14.8679,59.2127],[-61.1937,14.8674,0.0],[-61.1963,14.8638,0.0],[-61.1993,14.8632,71.75],[-61.1905,14.8318,699.0202],[-61.1866,14.8224,579.978],[-61.1842,14.8204,791.056],[-61.1663,14.8187,1248.6877],[-61.1605,14.8197,973.1614],[-61.1527,14.8089,755.6166],[-61.1493,14.8005,724.0634],[-61.1469,14.7996,678.1294],[-61.1095,14.8093,238.6398],[-61.1053,14.783,481.134],[-61.0884,14.7753,568.5443],[-61.0854,14.7692,798.7803],[-61.0849,14.7603,556.8672],[-61.0877,14.7536,450.4785],[-61.0827,14.7456,334.8362],[-61.0877,14.74,417.3846],[-61.082,14.7272,719.2523],[-61.0864,14.7211,652.6214],[-61.0513,14.6969,400.5555],[-61.0416,14.6989,305.2904],[-61.016,14.6834,142.2489],[-60.9965,14.6755,56.2501],[-60.9817,14.6915,217.4509],[-60.9518,14.6448,150.9549],[-60.9509,14.6388,237.3069]]],
[[[-60.9629,14.7735,13.2863],[-60.9643,14.774,0.8102],[-60.9637,14.7713,6.6134],[-60.9621,14.7718,6.6134],[-60.9629,14.7735,13.2863]]],
[[[-60.8818,14.6707,5.579],[-60.8838,14.6715,0.0],[-60.8838,14.6693,0.0],[-60.8812,14.6696,0.0],[-60.8818,14.6707,5.579]]],
[[[-60.909,14.6846,6.663],[-60.9087,14.6876,0.0],[-60.9099,14.6879,0.0],[-60.9115,14.684,2.4908],[-60.909,14.6846,6.663]]],
[[[-60.899,14.686,2.8039],[-60.899,14.6874,0.0],[-60.9024,14.6868,0.0],[-60.901,14.6846,0.0],[-60.899,14.686,2.8039]]],
[[[-60.8826,14.6879,15.4341],[-60.8846,14.689,3.4162],[-60.8835,14.6854,0.0],[-60.8821,14.6857,10.5798],[-60.8826,14.6879,15.4341]]],
[[[-60.8876,14.696,13.0013],[-60.896,14.6954,5.1062],[-60.8982,14.6968,0.0],[-60.8957,14.694,23.0143],[-60.8921,14.6929,1.5825],[-60.8907,14.6899,1.1046],[-60.8887,14.6899,0.0],[-60.8882,14.6921,19.6435],[-60.8865,14.6913,1.8707],[-60.8826,14.6929,12.1117],[-60.8793,14.6918,0.0],[-60.8799,14.6935,5.4175],[-60.8876,14.696,13.0013]]],
[[[-60.9885,14.7857,0.0],[-60.9874,14.7885,1.1793],[-60.9904,14.7885,5.4521],[-60.9907,14.7871,0.0],[-60.9885,14.7857,0.0]]]]}}