{"type": "Feature","id": "1369","bbox": [-77.04785,19.8791,-75.37547,20.5736],"geometry": {"type": "Polygon","coordinates": [[[-75.95244,20.50146,96.9639],[-75.96983,20.50296,98.602],[-75.97724,20.50583,102.6615],[-75.9805,20.5097,102.27],[-75.97618,20.52014,109.4468],[-75.98561,20.53477,107.3419],[-76.03303,20.56787,102.9619],[-76.04667,20.5736,98.097],[-76.0492,20.57241,95.6993],[-76.0514,20.56608,92.4675],[-76.04897,20.55751,93.2876],[-76.04186,20.54143,87.4291],[-76.04106,20.53469,90.2793],[-76.04344,20.52957,90.0747],[-76.06135,20.52268,84.9028],[-76.06631,20.51976,79.5157],[-76.07902,20.50916,75.5],[-76.09455,20.4994,75.5],[-76.09693,20.49598,75.5],[-76.09641,20.49337,70.403],[-76.09287,20.49203,67.9798],[-76.09029,20.48885,72.4461],[-76.08835,20.4795,74.8689],[-76.08173,20.46444,76.3471],[-76.08437,20.44201,82.9396],[-76.09054,20.42056,102.8516],[-76.09261,20.41746,105.9167],[-76.11134,20.40062,123.8835],[-76.11481,20.40832,112.5603],[-76.10711,20.42413,101.5125],[-76.10615,20.42829,97.1417],[-76.10677,20.43028,97.1196],[-76.11176,20.42878,97.8214],[-76.1163,20.42847,98.0469],[-76.12139,20.42984,96.3541],[-76.13046,20.43415,93.0214],[-76.13819,20.43689,91.145],[-76.14646,20.4386,87.8477],[-76.15542,20.43888,86.3783],[-76.17966,20.43759,74.8085],[-76.2056,20.40444,76.4547],[-76.21953,20.39387,75.0432],[-76.22731,20.39325,74.7774],[-76.2309,20.39751,76.2305],[-76.23583,20.41072,67.0573],[-76.24084,20.42023,57.3992],[-76.24188,20.4256,65.1442],[-76.24188,20.43175,56.5988],[-76.24103,20.43775,64.2353],[-76.24095,20.44384,68.2336],[-76.2432,20.45002,58.4542],[-76.24834,20.45524,58.5093],[-76.25841,20.46108,52.6911],[-76.26601,20.46056,59.8717],[-76.27027,20.45909,59.3956],[-76.27128,20.45462,64.1593],[-76.26748,20.43609,67.3205],[-76.26733,20.42705,68.9991],[-76.26888,20.41831,72.7552],[-76.27229,20.41157,74.4233],[-76.27702,20.4056,75.6368],[-76.28301,20.39979,87.7782],[-76.2865,20.39527,83.5706],[-76.28823,20.39129,88.2504],[-76.28914,20.38186,96.6788],[-76.28999,20.37728,93.7311],[-76.29335,20.37054,94.5301],[-76.29872,20.36858,102.5887],[-76.30813,20.36858,103.1479],[-76.32978,20.3725,106.2742],[-76.33957,20.37328,107.2058],[-76.35551,20.37287,116.9456],[-76.36319,20.36661,223.9016],[-76.36947,20.35664,127.7875],[-76.39045,20.27626,270.1881],[-76.39029,20.27155,277.6228],[-76.39058,20.26853,284.9249],[-76.3891,20.25869,299.8908],[-76.4044,20.24393,254.4719],[-76.41316,20.23476,231.4661],[-76.41965,20.23107,291.5465],[-76.420419999999993,20.22598,351.5934],[-76.41747,20.21908,429.2836],[-76.41184,20.18952,625.7974],[-76.40828,20.10528,890.3616],[-76.41861,20.08668,877.1671],[-76.44737,20.0611,853.4321],[-76.46243,20.05118,1025.6213],[-76.47675,20.04405,1005.7612],[-76.48874,20.03947,1394.7222],[-76.49837,20.0373,1277.3457],[-76.50538,20.03666,1210.2509],[-76.52879,20.03811,919.4422],[-76.5571,20.0426,931.1978],[-76.56372,20.03878,977.3298],[-76.56356,20.03601,900.2618],[-76.56219,20.03038,785.4895],[-76.55431,20.01023,1004.6624],[-76.55555,20.0055,924.131],[-76.56248,20.00377,1153.1849],[-76.59036,20.0101,1325.0901],[-76.59863,20.01304,1318.8013],[-76.60454,20.01449,1422.0264],[-76.60653,20.01286,1485.3342],[-76.61,20.00408,1457.7705],[-76.61348,20.00219,1369.8395],[-76.63702,20.00191,1305.8772],[-76.65472,19.99932,1207.1012],[-76.66345,19.99919,830.4058],[-76.66888,19.99979,559.4584],[-76.67084,20.00082,378.7819],[-76.67451,20.00219,441.8238],[-76.691,20.00586,1091.0833],[-76.6989,20.00886,1196.1624],[-76.70518,20.01304,1193.3354],[-76.71394,20.02263,819.0703],[-76.72004,20.02733,689.0582],[-76.72588,20.0272,779.1591],[-76.74495,20.0226,774.5086],[-76.7503,20.02061,631.471],[-76.75391,20.01829,351.0439],[-76.75577,20.01503,308.951],[-76.75942,20.01141,480.0819],[-76.76275,20.01134,536.9121],[-76.76645,20.01358,719.3982],[-76.769,20.01643,760.2839],[-76.77161,20.01829,717.7124],[-76.77435,20.01945,658.3731],[-76.77781,20.02023,543.7094],[-76.78117,20.02123,590.8098],[-76.78458,20.02325,786.5389],[-76.78864,20.02681,908.7776],[-76.79084,20.02927,1000.3566],[-76.80071,20.03795,1382.3962],[-76.81699,20.02857,1059.5796],[-76.83352,20.01242,1649.8671],[-76.84324,20.00834,1210.5959],[-76.85869,20.0056,984.1483],[-76.88057,20.00529,1270.7701],[-76.89458,20.00643,875.6038],[-76.9185,20.00501,854.8403],[-76.92584,20.00335,898.5631],[-76.9307,20.00111,923.0331],[-76.9686,19.95297,571.2287],[-76.97382,19.94958,501.5332],[-76.9809,19.94752,496.6544],[-77.03912,19.94147,336.6372],[-77.04777,19.93891,312.5131],[-77.04785,19.93589,326.6192],[-77.04723,19.93279,202.418],[-77.04415,19.92806,264.265],[-77.03511,19.91059,78.5753],[-77.03465,19.88783,0.0],[-77.03465,19.88777,0.0],[-76.95889,19.89106,0.0],[-76.93529,19.89671,0.0],[-76.91413,19.90664,0.0],[-76.88183,19.93138,129.9412],[-76.86644,19.93769,0.0],[-76.84561,19.93627,25.5359],[-76.8236,19.93159,0.0],[-76.80175,19.93073,0.0],[-76.78108,19.94074,45.2288],[-76.6516,19.95112,0.0],[-76.5244,19.94392,0.0],[-76.50227,19.94839,0.0],[-76.46028,19.9621,2.0539],[-76.43871,19.96499,58.5914],[-76.36612,19.96499,0.0],[-76.32799,19.97016,0.0],[-76.24816,19.99063,0.0],[-76.20226,19.99234,27.1005],[-76.11205,19.98249,120.7203],[-75.98009,19.95238,0.0],[-75.96548,19.95441,0.0],[-75.95222,19.96223,6.1964],[-75.93212,19.96768,19.0084],[-75.89379,19.97183,11.8808],[-75.87336,19.96955,0.0],[-75.83434,19.95978,0.0],[-75.8153,19.95751,0.0],[-75.74372,19.95987,89.9518],[-75.72183,19.95751,0.0],[-75.687,19.94038,17.269],[-75.64562,19.91258,0.0],[-75.60473,19.89204,0.0],[-75.57164,19.89671,87.1538],[-75.55085,19.88516,0.0],[-75.5209,19.87962,0.0],[-75.48888,19.8791,0.0],[-75.46182,19.88247,0.0],[-75.45564,19.88548,0.0],[-75.44734,19.89476,0.0],[-75.44441,19.89671,0.0],[-75.43749,19.89566,0.0],[-75.4276,19.89069,0.0],[-75.39428,19.88349,0.0],[-75.38329,19.88247,0.0],[-75.38208,19.88254,0.0],[-75.38211,19.88259,0.0],[-75.44275,19.96284,562.9219],[-75.46428,19.98178,435.9781],[-75.47053,19.98888,385.8279],[-75.48371,20.00953,329.9949],[-75.48828,20.02462,682.2373],[-75.48968,20.06172,505.0875],[-75.47611,20.0672,272.466],[-75.47296,20.0672,252.4823],[-75.4688,20.06965,204.9132],[-75.45694,20.08353,151.4133],[-75.43327,20.09467,169.5132],[-75.43048,20.09821,132.1005],[-75.42883,20.10363,121.1715],[-75.42963,20.11255,106.5763],[-75.43208,20.11702,138.943],[-75.43836,20.12035,89.0008],[-75.44252,20.12066,91.4455],[-75.44554,20.12143,90.8181],[-75.4481,20.1235,81.1185],[-75.4512,20.1349,93.1532],[-75.45051,20.16146,209.3707],[-75.46004,20.16794,213.1497],[-75.46187,20.16996,182.196],[-75.46273,20.1714,164.9733],[-75.46782,20.18471,135.1492],[-75.47022,20.18897,143.5949],[-75.47528,20.20337,149.4008],[-75.48099,20.22729,151.6495],[-75.48151,20.23367,152.8108],[-75.48045,20.23817,156.8105],[-75.47596,20.24626,169.8414],[-75.47332,20.25,201.0055],[-75.47063,20.25236,198.6297],[-75.46735,20.25476,195.683],[-75.46518,20.25693,189.4581],[-75.4635,20.26233,226.4452],[-75.46211,20.2946,301.2242],[-75.46456,20.31109,552.7515],[-75.47513,20.3315,563.5891],[-75.47913,20.34002,364.2423],[-75.47733,20.34284,342.8347],[-75.47255,20.34672,292.7649],[-75.45996,20.35147,356.7108],[-75.44857,20.35827,341.7459],[-75.43702,20.36718,407.3502],[-75.42699,20.38155,369.5522],[-75.42304,20.38961,336.9027],[-75.42177,20.39612,361.7814],[-75.42164,20.40105,317.3487],[-75.42095,20.4047,342.3429],[-75.41924,20.40793,324.4147],[-75.41655,20.40912,339.6975],[-75.41149,20.40808,337.7157],[-75.40782,20.40645,304.2767],[-75.39847,20.40335,306.2567],[-75.39356,20.40423,393.2382],[-75.3894,20.40733,334.7021],[-75.38477,20.41573,412.8923],[-75.37547,20.42286,348.9358],[-75.40146,20.45612,266.5361],[-75.4171,20.46891,288.4349],[-75.4235,20.47681,235.9655],[-75.42459,20.48043,193.8243],[-75.4204,20.48273,192.8742],[-75.41676,20.48557,190.0169],[-75.41431,20.48911,224.7295],[-75.41273,20.49242,235.0748],[-75.41175,20.49578,219.4076],[-75.40968,20.49942,216.2647],[-75.4072,20.50226,242.8807],[-75.40348,20.50433,281.2197],[-75.39674,20.50697,214.1744],[-75.395,20.50839,162.1678],[-75.3934,20.51312,190.0989],[-75.39015,20.53764,338.0858],[-75.39069,20.54433,494.9253],[-75.39271,20.54751,347.3491],[-75.40193,20.54324,392.5869],[-75.40699,20.54164,495.1897],[-75.41108,20.54087,581.4267],[-75.42343,20.54076,598.7667],[-75.46722,20.53298,1012.2969],[-75.4858,20.53849,862.7043],[-75.50179,20.55053,754.3606],[-75.5074,20.55185,682.9273],[-75.51164,20.55086,638.5912],[-75.51502,20.54815,674.0713],[-75.51874,20.54614,542.9896],[-75.52482,20.54425,393.2676],[-75.52856,20.54247,336.7769],[-75.53174,20.54025,237.8864],[-75.53554,20.53575,506.2585],[-75.55543,20.51642,759.8369],[-75.5705,20.50518,464.619],[-75.57794,20.50071,292.3982],[-75.58259,20.49955,244.5264],[-75.59535,20.50604,300.4085],[-75.60179,20.50828,173.8237],[-75.6092,20.51177,290.6596],[-75.61143,20.51063,230.3386],[-75.61422,20.50712,195.0119],[-75.61556,20.50312,270.609],[-75.61577,20.50002,190.681],[-75.61484,20.49689,132.4694],[-75.60957,20.48599,197.7936],[-75.61251,20.47702,314.7221],[-75.61556,20.46984,458.8258],[-75.65881,20.44149,293.8882],[-75.70134,20.43787,257.5451],[-75.73315,20.44206,340.312],[-75.74434,20.44105,341.5663],[-75.7524,20.43904,405.1858],[-75.82467,20.40762,480.0841],[-75.85627,20.4101,449.8723],[-75.87301,20.41831,452.4342],[-75.87666,20.42173,270.3341],[-75.87805,20.42436,390.6522],[-75.87945,20.4278,236.2197],[-75.88355,20.44397,346.4186],[-75.90014,20.44808,277.4205],[-75.92975,20.46707,118.3247],[-75.93719,20.47294,116.116],[-75.94058,20.47712,109.0942],[-75.93936,20.47922,110.2646],[-75.93681,20.48216,110.7496],[-75.93422,20.4863,104.1541],[-75.93172,20.49102,99.5025],[-75.93079,20.49784,94.141],[-75.93329,20.50045,88.1969],[-75.94014,20.50164,90.1459],[-75.95244,20.50146,96.9639]]]}
,"properties": {"ISO3166-1-Alpha-3": "CUB","country": "Cuba","fill": "#00F","name": "Santiago de Cuba","area_km2": 6188.686,"hist_schema_id": "Elevation0-9000","hist_area_km2": {"0": 123.856,"25": 116.528,"50": 113.084,"75": 243.747,"100": 479.027,"125": 497.563,"150": 509.909,"175": 482.213,"200": 429.287,"225": 374.595,"250": 331.492,"275": 290.085,"300": 283.469,"325": 254.75,"350": 190.32,"375": 164.875,"400": 144.53,"425": 124.759,"450": 104.79,"475": 95.008,"500": 83.231,"525": 77.941,"550": 73.542,"575": 69.482,"600": 61.84,"625": 55.748,"650": 48.102,"675": 41.157,"700": 36.28,"725": 31.58,"750": 27.219,"775": 23.757,"800": 20.372,"825": 19.795,"850": 16.83,"875": 14.957,"900": 14.599,"925": 13.204,"950": 11.652,"975": 11.632,"1000": 9.68,"1025": 8.286,"1050": 7.231,"1075": 6.495,"1100": 5.26,"1125": 4.981,"1150": 4.283,"1175": 4.064,"1200": 3.526,"1225": 3.765,"1250": 3.088,"1275": 2.829,"1300": 2.391,"1325": 2.112,"1350": 1.534,"1375": 1.733,"1400": 1.614,"1425": 1.116,"1450": 1.195,"1475": 0.936,"1500": 0.697,"1525": 1.096,"1550": 0.598,"1575": 0.598,"1600": 0.638,"1625": 0.398,"1650": 0.319,"1675": 0.339,"1700": 0.199,"1725": 0.179,"1750": 0.139,"1800": 0.12,"1825": 0.139,"1875": 0.1}}}