{"type": "Feature","bbox": [-77.0113,19.8785,-75.3244,20.5933],"geometry": {"type": "MultiPolygon","coordinates": [[[[-75.8737,19.9782,0.0],[-75.876,19.9788,0.0],[-75.8768,19.976,0.0],[-75.8735,19.976,0.0],[-75.8737,19.9782,0.0]]],
[[[-77.0043,19.9052,477.4117],[-76.9968,19.898,274.1442],[-76.989,19.886,0.0],[-76.9851,19.8888,23.1842],[-76.9782,19.8879,0.6519],[-76.9749,19.8899,0.0],[-76.9671,19.8904,0.0],[-76.9635,19.8943,6.8947],[-76.9596,19.896,4.4801],[-76.9571,19.8951,0.0],[-76.954,19.8976,0.0],[-76.9463,19.8949,0.0],[-76.9321,19.9001,0.0],[-76.9215,19.9018,0.0],[-76.9124,19.9096,6.5189],[-76.9032,19.9112,0.0],[-76.9024,19.9132,0.0],[-76.8968,19.916,0.0],[-76.8935,19.9215,0.0],[-76.8885,19.9254,0.0],[-76.881,19.9274,0.8439],[-76.8701,19.9374,31.4612],[-76.8651,19.9393,7.0327],[-76.8585,19.9387,0.0],[-76.8526,19.9343,4.5708],[-76.8493,19.9338,3.0515],[-76.8457,19.9363,25.5359],[-76.8401,19.9363,9.9437],[-76.8207,19.9321,3.7208],[-76.8129,19.9349,1.2195],[-76.8057,19.9326,0.0],[-76.8021,19.9357,4.718],[-76.796,19.9351,8.2832],[-76.7921,19.9329,0.0],[-76.7862,19.9329,0.0],[-76.7829,19.9343,0.0],[-76.7804,19.9387,0.0],[-76.7707,19.9421,0.0],[-76.769,19.9449,0.0],[-76.7635,19.9479,5.0143],[-76.7532,19.944,0.0],[-76.7404,19.944,9.492],[-76.7351,19.9424,0.0],[-76.7268,19.9449,0.0],[-76.7101,19.9432,0.0],[-76.7063,19.9449,0.0],[-76.7015,19.9499,6.1197],[-76.6937,19.9487,0.0],[-76.6871,19.9543,21.2863],[-76.6776,19.9571,1.7674],[-76.6707,19.9621,24.6905],[-76.6574,19.9587,0.0],[-76.6499,19.9601,0.0],[-76.6462,19.9579,1.6534],[-76.6301,19.9557,29.2981],[-76.6207,19.9524,11.9111],[-76.6093,19.9512,0.0],[-76.5999,19.9524,11.4831],[-76.5871,19.9468,0.0],[-76.5757,19.9443,2.4134],[-76.5713,19.9449,0.0],[-76.5679,19.9487,0.0],[-76.5629,19.9512,3.3991],[-76.5371,19.9468,0.0],[-76.529,19.9496,3.5469],[-76.519,19.9482,0.0],[-76.5029,19.9524,3.4247],[-76.4915,19.9512,0.0],[-76.4829,19.9579,4.0718],[-76.4776,19.9565,0.0],[-76.4743,19.959,18.1756],[-76.4701,19.9604,0.0],[-76.4643,19.9599,0.0],[-76.4521,19.9654,0.0],[-76.4474,19.9638,14.9514],[-76.4454,19.9604,0.0],[-76.4318,19.961,0.0],[-76.421,19.9676,2.5888],[-76.4126,19.9701,0.0],[-76.4068,19.969,6.6419],[-76.4057,19.9643,0.0],[-76.4001,19.966,0.0],[-76.3993,19.9682,7.1305],[-76.4021,19.9693,1.6165],[-76.3985,19.9704,0.0],[-76.3907,19.9699,1.8345],[-76.3879,19.9671,16.4008],[-76.3857,19.9674,26.93],[-76.3846,19.9651,3.0218],[-76.3865,19.9651,3.0218],[-76.3863,19.9632,0.0],[-76.376,19.9649,0.0],[-76.3735,19.9671,13.7584],[-76.3712,19.9646,1.397],[-76.3624,19.966,1.2987],[-76.3626,19.9621,0.0],[-76.3585,19.9613,1.3208],[-76.3571,19.956,4.6075],[-76.3543,19.9554,0.0],[-76.3512,19.9579,0.0],[-76.3479,19.9582,0.0],[-76.3501,19.9615,8.2747],[-76.3449,19.966,11.1638],[-76.3379,19.9668,0.0],[-76.334,19.9701,0.6845],[-76.3274,19.971,1.1926],[-76.3224,19.9688,21.3435],[-76.3218,19.9668,0.0],[-76.3193,19.9668,0.0],[-76.3118,19.9699,0.0],[-76.3149,19.9737,22.2524],[-76.3112,19.976,1.4612],[-76.3101,19.9718,0.0],[-76.3021,19.9732,0.0],[-76.2993,19.9785,0.0],[-76.3043,19.9829,2.505],[-76.304,19.9849,1.4979],[-76.2996,19.9818,4.3849],[-76.2982,19.9788,0.0],[-76.2954,19.9807,0.0],[-76.2957,19.984,3.0775],[-76.2929,19.9821,7.0088],[-76.2929,19.9799,0.0],[-76.2862,19.9799,0.0],[-76.2782,19.9829,0.0],[-76.2751,19.9901,0.0],[-76.2654,19.9888,10.1424],[-76.2585,19.9907,0.0],[-76.2579,19.9926,1.2492],[-76.2363,19.9926,0.0],[-76.2343,19.9949,1.1979],[-76.2268,19.9943,0.0],[-76.2254,19.9954,0.0],[-76.2162,19.9893,0.0],[-76.2113,19.9896,0.0],[-76.2082,19.9921,3.7412],[-76.2015,19.9876,0.0],[-76.194,19.9893,2.2388],[-76.1832,19.9826,0.0],[-76.1771,19.9837,0.0],[-76.1746,19.9821,1.5486],[-76.1701,19.9824,0.3579],[-76.1676,19.984,3.5079],[-76.1624,19.9829,0.0],[-76.1493,19.9893,2.1578],[-76.1424,19.9888,2.8749],[-76.144,19.9851,0.0],[-76.1429,19.9821,0.6694],[-76.1399,19.9837,0.6223],[-76.1349,19.9837,0.0],[-76.1268,19.979,0.5008],[-76.1126,19.9749,2.1417],[-76.1107,19.9715,0.0],[-76.101,19.9704,0.0],[-76.0993,19.9662,0.0],[-76.0968,19.9662,0.0],[-76.0929,19.9696,0.0],[-76.091,19.9674,0.0],[-76.0874,19.9699,0.0],[-76.0837,19.9668,0.0],[-76.071,19.9624,0.4493],[-76.0574,19.9643,2.0817],[-76.0471,19.9629,0.0],[-76.0429,19.964,1.5791],[-76.021,19.9565,0.0],[-76.0163,19.9579,2.1281],[-76.0051,19.9554,0.0],[-76.0001,19.9557,0.3711],[-75.9949,19.9596,0.6393],[-75.9863,19.9615,0.0],[-75.9857,19.9596,0.0],[-75.9804,19.9568,0.0],[-75.9654,19.9554,0.0],[-75.9532,19.9596,0.6063],[-75.9515,19.9615,0.9743],[-75.949,19.9613,1.1376],[-75.9435,19.9651,0.0],[-75.939,19.9646,0.0],[-75.9382,19.965699999999998,5.2825],[-75.9374,19.9632,0.0],[-75.9362,19.9643,1.5504],[-75.9321,19.9635,0.0],[-75.9304,19.9654,0.7281],[-75.9157,19.9671,2.4697],[-75.9146,19.9676,0.0],[-75.9151,19.9704,0.0],[-75.9124,19.9685,0.0],[-75.9004,19.9699,0.0],[-75.8801,19.9679,0.0],[-75.874,19.969,0.0],[-75.8724,19.971,6.1718],[-75.8724,19.9746,1.9278],[-75.8779,19.974,1.6192],[-75.8804,19.981,2.3676],[-75.8887,19.9837,11.4909],[-75.8876,19.9857,7.6146],[-75.8851,19.9854,0.0],[-75.884,19.9901,0.0],[-75.8851,19.9921,18.885],[-75.8796,19.9915,0.0],[-75.8796,19.9932,1.1044],[-75.8829,19.9951,3.7371],[-75.8821,19.9996,1.6837],[-75.8793,19.9943,2.4414],[-75.8749,19.9951,5.1713],[-75.8763,19.991,0.0],[-75.8679,19.9938,0.0],[-75.8696,19.9988,4.5768],[-75.8668,20.0024,0.0],[-75.8679,20.0043,0.0],[-75.866,20.0063,0.7188],[-75.8662,20.0104,0.7541],[-75.8624,20.0107,1.7071],[-75.861,20.0157,0.7697],[-75.8632,20.0185,1.0741],[-75.866,20.0179,1.6164],[-75.8665,20.0218,0.0],[-75.8699,20.0221,0.0],[-75.8735,20.0274,2.3171],[-75.8651,20.0246,2.1201],[-75.8613,20.0204,0.0],[-75.8571,20.0199,0.3282],[-75.8535,20.0218,2.1389],[-75.8499,20.0215,1.8521],[-75.8457,20.0263,5.1561],[-75.841,20.0279,3.8832],[-75.8349,20.0254,4.4039],[-75.8365,20.0193,3.6592],[-75.8388,20.0193,0.0],[-75.8418,20.0154,0.0],[-75.8418,20.0124,1.0076],[-75.8463,20.0118,0.0],[-75.844,20.0093,2.0038],[-75.8468,20.0085,18.6329],[-75.8526,20.0021,0.0],[-75.8562,20.0012,1.4924],[-75.8657,19.9899,16.8193],[-75.8721,19.9885,4.8718],[-75.8749,19.986,1.1919],[-75.874,19.9829,0.0],[-75.8693,19.9843,0.7695],[-75.8721,19.9813,0.0],[-75.8704,19.9774,0.0],[-75.8671,19.9788,7.1467],[-75.8654,19.9835,0.0],[-75.8613,19.9851,0.0],[-75.8654,19.9815,9.6168],[-75.8665,19.9776,3.0447],[-75.8704,19.9757,0.0],[-75.8696,19.9699,25.4727],[-75.8707,19.9676,0.0],[-75.8682,19.9654,0.0],[-75.8624,19.9643,2.9531],[-75.8579,19.9662,3.7453],[-75.8349,19.966,1.1439],[-75.8265,19.9676,10.7176],[-75.826,19.9643,0.0],[-75.8221,19.9599,0.0],[-75.7968,19.9621,13.8185],[-75.7843,19.9582,0.0],[-75.7624,19.9582,3.4158],[-75.7557,19.9554,0.0],[-75.7518,19.9501,0.0],[-75.7476,19.9496,0.0],[-75.736,19.9529,0.0],[-75.7351,19.9546,1.4121],[-75.729,19.9571,8.2226],[-75.704,19.9588,0.4327],[-75.7021,19.956,0.0],[-75.7024,19.9524,0.0],[-75.696,19.9415,0.0],[-75.6801,19.9363,0.0],[-75.6738,19.939,1.2151],[-75.6718,19.9324,1.439],[-75.6663,19.931,1.1186],[-75.6615,19.9318,0.0],[-75.6546,19.9254,0.0],[-75.6435,19.9238,2.6932],[-75.6407,19.9174,0.0],[-75.6365,19.9165,0.0],[-75.6343,19.9124,0.0],[-75.6293,19.9107,5.9786],[-75.6265,19.9057,0.0],[-75.614,19.9015,0.0],[-75.6121,19.8985,0.0],[-75.6082,19.8965,0.0],[-75.599,19.896,2.841],[-75.5968,19.8937,0.0],[-75.5843,19.8915,0.0],[-75.5785,19.8915,0.0],[-75.5768,19.8937,0.0],[-75.574,19.8913,0.0],[-75.5543,19.8888,5.6151],[-75.5393,19.8835,0.0],[-75.5276,19.884,0.0],[-75.5188,19.8879,1.3608],[-75.5151,19.8865,0.0],[-75.5146,19.8835,0.0],[-75.506,19.8865,0.0],[-75.5015,19.8838,2.6338],[-75.4938,19.8824,1.3234],[-75.4804,19.8838,0.0],[-75.479,19.886,1.3641],[-75.4737,19.8863,0.0],[-75.4713,19.8893,2.4836],[-75.4626,19.8868,0.0],[-75.4543,19.8913,0.0],[-75.4538,19.8979,0.2489],[-75.449,19.8999,0.0],[-75.4471,19.9026,1.0137],[-75.4404,19.904,1.3519],[-75.4379,19.9013,0.0],[-75.4382,19.899,0.0],[-75.4365,19.8996,1.7219],[-75.4337,19.8976,15.9601],[-75.4335,19.8954,0.0],[-75.431,19.8974,12.7742],[-75.4287,19.8937,0.0],[-75.4232,19.8924,2.3734],[-75.4229,19.8893,0.0],[-75.4163,19.8843,0.0],[-75.4074,19.8854,0.0],[-75.4049,19.8871,8.7632],[-75.3857,19.8849,0.0],[-75.3782,19.8863,1.7258],[-75.3732,19.8843,1.5463],[-75.3657,19.8863,19.095],[-75.3613,19.8846,4.3795],[-75.3615,19.881,0.0],[-75.3599,19.8793,0.0],[-75.3568,19.8801,13.5223],[-75.3571,19.8785,0.0],[-75.3463,19.8818,0.0],[-75.3407,19.8799,0.0],[-75.3385,19.8824,13.2379],[-75.331,19.881,6.3223],[-75.3257,19.8824,12.1494],[-75.3244,19.8988,17.7112],[-75.3281,19.9167,30.1567],[-75.3332,19.9234,40.1953],[-75.3474,19.9401,49.058],[-75.3673,19.9587,117.5876],[-75.4254,20.0086,98.3859],[-75.4331,20.0218,120.8578],[-75.4388,20.0486,202.1005],[-75.4398,20.0792,172.7267],[-75.445,20.0933,139.7489],[-75.4435,20.0983,120.082],[-75.4377,20.1005,118.9916],[-75.432,20.0982,138.2444],[-75.426,20.0929,221.6493],[-75.4139,20.0739,107.1183],[-75.4105,20.0722,125.789],[-75.4049,20.0725,108.9713],[-75.4019,20.08,112.3873],[-75.4003,20.0941,207.8076],[-75.3958,20.106,222.4048],[-75.3896,20.1105,77.0],[-75.3661,20.1169,80.047],[-75.3624,20.1214,90.3256],[-75.3625,20.1264,77.0],[-75.366,20.1319,78.0303],[-75.3729,20.136,156.2344],[-75.3742,20.1401,199.1926],[-75.3732,20.142,221.6837],[-75.3749,20.1443,265.0925],[-75.4104,20.1677,222.5822],[-75.4192,20.1765,140.2321],[-75.4243,20.187,144.2939],[-75.4343,20.2279,200.5879],[-75.435,20.2364,206.1335],[-75.4345,20.2409,221.515],[-75.432,20.2438,218.9213],[-75.4137,20.247,233.7137],[-75.41,20.2488,255.4901],[-75.407,20.2556,261.6627],[-75.408,20.2583,252.5075],[-75.4249,20.2663,285.8057],[-75.4278,20.2742,264.66],[-75.4261,20.2837,230.7743],[-75.4228,20.2911,272.0945],[-75.4134,20.3054,302.2066],[-75.4129,20.3163,232.4961],[-75.4152,20.3269,294.6302],[-75.427,20.3418,508.6763],[-75.4283,20.3456,594.8748],[-75.4247,20.3551,558.9492],[-75.4161,20.3652,483.0899],[-75.3976,20.3763,325.645],[-75.3924,20.3814,260.5829],[-75.3905,20.4003,472.2051],[-75.387,20.4112,401.108],[-75.3823,20.4139,457.1696],[-75.3746,20.414,353.3168],[-75.3524,20.4087,446.0779],[-75.3488,20.4143,405.2237],[-75.3462,20.4318,275.2531],[-75.3394,20.4387,357.2075],[-75.3466,20.4589,260.162],[-75.3539,20.4632,295.1879],[-75.3635,20.4649,151.1963],[-75.367,20.4678,127.0327],[-75.3756,20.4839,191.2461],[-75.3816,20.4859,229.7763],[-75.4067,20.4853,195.1258],[-75.4077,20.4885,175.6172],[-75.4075,20.4921,170.0398],[-75.4008,20.506,213.5876],[-75.3911,20.5176,213.3464],[-75.3846,20.5212,255.4003],[-75.3675,20.5253,147.4689],[-75.3635,20.5283,185.0904],[-75.359,20.5354,381.9925],[-75.3594,20.5605,233.16309999999999],[-75.3637,20.581,118.9823],[-75.3672,20.5875,133.0956],[-75.3769,20.5933,118.9718],[-75.3922,20.5931,148.8551],[-75.4192,20.5892,315.9261],[-75.4488,20.5771,272.7629],[-75.4827,20.5764,497.6052],[-75.4954,20.5721,705.1096],[-75.5163,20.5327,562.3189],[-75.5221,20.5261,481.3853],[-75.5329,20.5213,331.9637],[-75.5624,20.5174,698.5624],[-75.5781,20.5125,373.3175],[-75.58,20.5086,331.9363],[-75.5787,20.5048,357.4302],[-75.5708,20.4966,316.9934],[-75.5688,20.4902,317.7621],[-75.5693,20.4831,400.9454],[-75.5724,20.478,398.2387],[-75.6321,20.4378,324.6036],[-75.6436,20.4377,210.84],[-75.6863,20.4463,295.3698],[-75.7194,20.4598,424.7233],[-75.73,20.4606,453.1053],[-75.7372,20.4587,461.1984],[-75.7664,20.4371,477.8578],[-75.7784,20.4326,475.8698],[-75.7942,20.4291,326.4181],[-75.8173,20.4312,448.0303],[-75.8226,20.4344,507.514],[-75.8401,20.4593,788.2112],[-75.8484,20.4769,329.8946],[-75.8541,20.4797,212.3556],[-75.8621,20.4799,266.3931],[-75.8764,20.4748,257.0316],[-75.8813,20.4747,228.9883],[-75.8949,20.4849,136.8964],[-75.9042,20.485,139.884],[-75.9128,20.4767,126.3507],[-75.9146,20.4767,122.3777],[-75.9175,20.479,107.0752],[-75.9141,20.5032,95.8334],[-75.9142,20.5112,81.0799],[-75.9162,20.5156,79.5646],[-75.9218,20.5199,74.2864],[-75.9281,20.5222,76.4104],[-75.9545,20.5237,85.6138],[-75.9595,20.526,87.0069],[-75.9609,20.5333,86.2001],[-75.9584,20.5508,79.0807],[-75.9597,20.5549,84.7717],[-75.9663,20.5592,89.126],[-75.9943,20.5621,124.5521],[-76.0024,20.565,137.3332],[-76.0291,20.5862,110.388],[-76.0398,20.5902,107.4593],[-76.0463,20.5901,104.246],[-76.0481,20.5883,102.1047],[-76.0481,20.5824,100.799],[-76.0461,20.5765,98.5513],[-76.0337,20.5569,97.1798],[-76.0336,20.5502,93.9833],[-76.0369,20.5466,90.9637],[-76.0656,20.5459,86.6738],[-76.0739,20.5429,82.1548],[-76.0885,20.5224,79.6881],[-76.0866,20.5165,78.0235],[-76.0793,20.5089,75.5],[-76.0761,20.4836,80.8991],[-76.0624,20.4628,81.4631],[-76.0598,20.4526,79.925],[-76.0603,20.4254,92.9716],[-76.0633,20.4162,102.1561],[-76.0676,20.4133,108.1711],[-76.0919,20.4147,109.4396],[-76.1047,20.4193,106.2095],[-76.1207,20.4288,98.0713],[-76.1282,20.429,98.8911],[-76.1344,20.4281,100.7432],[-76.1547,20.4158,100.4661],[-76.1668,20.4148,88.3712],[-76.1689,20.4068,89.4512],[-76.1738,20.4023,90.5788],[-76.1809,20.4022,86.771],[-76.1881,20.4045,83.5786],[-76.1982,20.4135,77.1272],[-76.2051,20.4385,72.3789],[-76.2087,20.4436,69.8957],[-76.2124,20.4466,68.3005],[-76.2189,20.4466,67.9247],[-76.2305,20.4352,67.0367],[-76.2348,20.4107,67.0573],[-76.2357,20.3868,62.7476],[-76.2381,20.3791,84.3106],[-76.2427,20.3743,89.6658],[-76.2526,20.3692,96.872],[-76.2628,20.3679,106.1887],[-76.2905,20.3688,94.9103],[-76.322,20.3761,98.9648],[-76.3282,20.376,101.7185],[-76.3337,20.3724,105.9782],[-76.3371,20.3667,120.6448],[-76.3397,20.3546,129.1507],[-76.3489,20.2814,248.7659],[-76.3549,20.2672,289.3037],[-76.3711,20.249,319.2498],[-76.3963,20.2316,344.7449],[-76.4009,20.2242,371.7335],[-76.4001,20.2153,497.0703],[-76.3903,20.2048,605.0329],[-76.3823,20.1872,577.6802],[-76.3747,20.1814,649.0836],[-76.3708,20.1706,595.9271],[-76.3711,20.1069,651.0001],[-76.3737,20.0927,727.2874],[-76.3788,20.0808,739.0736],[-76.3883,20.0707,862.9553],[-76.4118,20.0578,558.9061],[-76.4297,20.0528,409.6416],[-76.4434,20.0521,564.8395],[-76.4702,20.0571,1057.4181],[-76.4868,20.0651,941.1074],[-76.494,20.0674,948.4398],[-76.4983,20.0668,825.2814],[-76.5017,20.062,855.5023],[-76.5013,20.057,944.3859],[-76.4915,20.045,1445.5654],[-76.4902,20.0415,1458.0491],[-76.4916,20.0368,1325.6538],[-76.5003,20.0352,1094.2635],[-76.5174,20.0356,1036.5354],[-76.5592,20.0389,1049.9713],[-76.5666,20.0365,958.8278],[-76.5733,20.0302,959.4427],[-76.5784,20.0136,1659.3142],[-76.5817,20.0098,1530.8818],[-76.5892,20.0085,1321.7322],[-76.6073,20.0127,1533.9668],[-76.6159,20.0114,1465.0739],[-76.6289,20.0065,1113.7573],[-76.6398,20.0058,1136.9564],[-76.647,20.0084,1011.1333],[-76.6662,20.0229,1030.843],[-76.6743,20.0228,1203.8416],[-76.6951,20.0211,1317.179],[-76.7009,20.0184,1213.9561],[-76.7157,20.0006,1111.0094],[-76.7203,19.9994,1008.9146],[-76.7281,20.0005,1073.0583],[-76.7328,20.0059,673.1094],[-76.7425,20.03,892.5134],[-76.7478,20.0332,760.2653],[-76.7664,20.0332,728.148],[-76.7748,20.0308,826.3247],[-76.7803,20.0272,742.35],[-76.7983,19.9985,926.6448],[-76.8067,19.9954,1275.2853],[-76.8137,19.9886,1470.3264],[-76.8202,19.9849,1224.2041],[-76.8258,19.9861,1628.1831],[-76.8434,20.0017,1377.7173],[-76.8518,20.003,888.9659],[-76.8652,20.0023,949.5883],[-76.8764,19.9984,1053.9723],[-76.8834,19.9907,1049.5223],[-76.9011,19.9483,621.1383],[-76.9084,19.937,202.4439],[-76.917,19.9299,112.367],[-76.9471,19.9221,291.2639],[-76.9987,19.9218,425.6233],[-77.0067,19.9205,327.7755],[-77.0113,19.9155,280.0106],[-77.01,19.9111,184.8817],[-77.0043,19.9052,477.4117]]],
[[[-75.8551,20.0185,0.0],[-75.8562,20.019,0.3282],[-75.8543,20.016,0.0],[-75.8538,20.0165,0.0],[-75.8551,20.0185,0.0]]]]}
,"properties": {"GID_1": "CUB.15_1","GID_0": "CUB","country": "Cuba","province": "SantiagodeCuba","VARNAME_1": "NA","NL_NAME_1": "NA","TYPE_1": "Provincia","ENGTYPE_1": "Province","CC_1": "NA","HASC_1": "CU.SC","ISO_1": "CU-13","name": "Santiagode_Cuba.province","area_km2": 6426.234,"hist_schema_id": "Elevation0-9000","hist_area_km2": {"0": 91.768,"25": 130.48,"50": 116.741,"75": 245.959,"100": 495.743,"125": 527.103,"150": 536.856,"175": 509.516,"200": 455.389,"225": 397.91,"250": 355.383,"275": 311.742,"300": 298.199,"325": 271.385,"350": 205.106,"375": 177.813,"400": 155.158,"425": 135.765,"450": 112.356,"475": 101.96,"500": 88.868,"525": 80.795,"550": 73.454,"575": 68.301,"600": 59.266,"625": 52.238,"650": 45.685,"675": 38.821,"700": 33.248,"725": 28.768,"750": 24.645,"775": 21.403,"800": 17.799,"825": 16.485,"850": 14.317,"875": 12.504,"900": 12.026,"925": 11.21,"950": 9.798,"975": 9.937,"1000": 8.245,"1025": 7.746,"1050": 6.512,"1075": 6.134,"1100": 5.079,"1125": 4.66,"1150": 4.123,"1175": 3.845,"1200": 3.586,"1225": 3.367,"1250": 2.889,"1275": 2.331,"1300": 1.972,"1325": 1.952,"1350": 1.415,"1375": 1.454,"1400": 1.454,"1425": 1.136,"1450": 0.996,"1475": 0.877,"1500": 0.657,"1525": 0.837,"1550": 0.498,"1575": 0.478,"1600": 0.379,"1625": 0.239,"1650": 0.179,"1675": 0.279,"1700": 0.159,"1725": 0.179,"1750": 0.139,"1800": 0.12,"1825": 0.139,"1875": 0.1}}}