{"type": "Feature","id": "1981","bbox": [-70.25118,18.57184,-69.38088,19.09],"geometry": {"type": "Polygon","coordinates": [[[-69.75579,19.08759,179.0586],[-69.82134,19.09,190.9193],[-69.87493,19.08398,163.993],[-69.877,19.07282,162.0604],[-69.87829,19.05734,201.48],[-69.89343,19.03835,179.0701],[-69.92033,19.03925,74.1665],[-69.93531,18.97497,141.7352],[-69.95255,18.90998,78.4926],[-69.98055,18.88939,121.4586],[-70.01309,18.90456,185.4985],[-70.03308,18.90805,152.2529],[-70.04536,18.89053,199.2578],[-70.06316,18.89324,199.7997],[-70.08411,18.89722,155.7393],[-70.11047,18.89107,253.8269],[-70.12962,18.87492,351.4449],[-70.17199,18.86521,397.4359],[-70.22385,18.85477,288.162],[-70.24441,18.83301,659.7263],[-70.25118,18.80172,475.455],[-70.23465,18.78172,323.1469],[-70.21723,18.7625,437.5418],[-70.19132,18.7487,356.5242],[-70.16718,18.73167,774.3649],[-70.13902,18.72204,478.4765],[-70.1207,18.69069,258.9444],[-70.08884,18.67948,496.0264],[-70.05605,18.67103,140.3174],[-70.00877,18.66222,92.6966],[-69.96634,18.68093,53.4704],[-69.96368,18.69013,46.044],[-69.95908,18.69904,71.0995],[-69.9473,18.70284,23.5204],[-69.93464,18.70341,22.8118],[-69.91144,18.70248,21.5511],[-69.88826,18.70134,25.6965],[-69.86116,18.68108,14.0177],[-69.83847,18.65669,11.5757],[-69.82462,18.63928,11.2379],[-69.81899,18.61943,9.1316],[-69.79798,18.60011,6.2725],[-69.78997,18.57184,4.5664],[-69.74385,18.61773,10.455],[-69.68574,18.63824,19.8874],[-69.66393,18.64266,17.5412],[-69.6451,18.65429,23.4193],[-69.61112,18.66124,41.1609],[-69.57533,18.64822,43.3872],[-69.51831,18.74343,74.4215],[-69.45911,18.80257,123.8607],[-69.44131,18.82588,180.6579],[-69.42046,18.84655,242.5578],[-69.39992,18.85862,252.9469],[-69.38088,18.87112,270.0868],[-69.39935,18.88877,324.7965],[-69.4356,18.89327,308.952],[-69.48451,18.91874,309.8566],[-69.53472,18.94236,314.4589],[-69.59166,18.96972,316.0252],[-69.63784,19.00889,299.7121],[-69.66693,19.02946,216.9549],[-69.69861,19.04654,189.471],[-69.72734,19.06687,175.3908],[-69.75579,19.08759,179.0586]]]}
,"properties": {"ISO3166-1-Alpha-3": "DOM","country": "Dominican Republic","fill": "#00F","name": "Monte Plata","area_km2": 2660.28,"hist_schema_id": "Elevation0-9000","hist_area_km2": {"0": 46.048,"25": 292.629,"50": 408.515,"75": 256.364,"100": 169.88,"125": 133.189,"150": 123.256,"175": 148.993,"200": 183.852,"225": 185.514,"250": 171.933,"275": 183.598,"300": 161.318,"325": 91.064,"350": 27.408,"375": 16.878,"400": 11.801,"425": 8.812,"450": 6.845,"475": 4.939,"500": 4.919,"525": 4.056,"550": 3.092,"575": 2.63,"600": 2.269,"625": 1.747,"650": 1.305,"675": 1.506,"700": 1.104,"725": 0.944,"750": 0.903,"775": 0.883,"800": 0.823,"825": 0.542,"850": 0.422,"875": 0.261,"900": 0.04}}}