{"type": "Feature","bbox": [-70.2438,18.5779,-69.3631,19.099],"geometry": {"type": "MultiPolygon","coordinates": [[[[-69.7178,18.6431,10.9332],[-69.6971,18.6398,15.6208],[-69.6827,18.6444,22.3843],[-69.6721,18.6453,20.629],[-69.6537,18.6553,24.1982],[-69.6405,18.6564,25.3653],[-69.6349,18.6639,28.1353],[-69.6248,18.6686,32.5946],[-69.6143,18.6646,40.1889],[-69.6037,18.6634,43.1961],[-69.5906,18.6559,39.2882],[-69.5731,18.6553,38.0081],[-69.5662,18.6532,35.4218],[-69.5578,18.6565,38.1582],[-69.5539,18.6606,40.7229],[-69.5518,18.6667,43.0958],[-69.5449,18.6747,49.5244],[-69.5429,18.6836,54.179],[-69.5357,18.6921,56.7547],[-69.5264,18.7273,68.0152],[-69.5281,18.7403,70.6523],[-69.5152,18.7519,80.8503],[-69.5066,18.7662,84.6214],[-69.494,18.7692,92.2999],[-69.4865,18.7978,122.1159],[-69.4739,18.8047,189.471],[-69.4687,18.8118,226.0717],[-69.4616,18.8136,228.5182],[-69.4574,18.8226,231.1407],[-69.4553,18.8239,239.1488],[-69.452,18.8236,217.1726],[-69.4493,18.8209,191.6464],[-69.4488,18.8098,119.2963],[-69.4407,18.8106,163.1706],[-69.4375,18.8162,181.2998],[-69.4388,18.8231,203.3035],[-69.4315,18.8279,222.9748],[-69.4174,18.8474,257.5286],[-69.4137,18.849,263.7934],[-69.3992,18.8499,247.1264],[-69.3977,18.86,253.8242],[-69.3949,18.8657,253.8144],[-69.3862,18.8709,263.1688],[-69.3771,18.8722,295.0039],[-69.3703,18.8758,294.1178],[-69.3633,18.8857,317.4573],[-69.3631,18.8945,274.4718],[-69.3846,18.8938,322.2718],[-69.4013,18.8886,319.1236],[-69.4161,18.8914,323.7726],[-69.4194,18.8905,317.5464],[-69.4233,18.8866,315.3798],[-69.4263,18.8871,316.0311],[-69.4419,18.9009,294.0435],[-69.4451,18.9072,288.1872],[-69.4562,18.9154,286.9843],[-69.4694,18.9177,315.413],[-69.4743,18.9226,290.038],[-69.4853,18.9269,286.8994],[-69.4924,18.935,275.702],[-69.4948,18.9405,273.6177],[-69.5034,18.9483,293.4696],[-69.5065,18.9473,286.6056],[-69.5125,18.9387,304.9224],[-69.5171,18.9377,305.0946],[-69.5241,18.9447,299.8148],[-69.5308,18.9478,323.0835],[-69.5402,18.9586,303.7495],[-69.5503,18.9636,302.8897],[-69.568,18.9765,274.8804],[-69.5732,18.9785,294.0383],[-69.5806,18.9781,301.6592],[-69.5955,18.988,292.2707],[-69.6212,18.9926,299.1747],[-69.6453,19.0079,287.7591],[-69.6607,19.0126,271.0659],[-69.6745,19.0332,206.5652],[-69.681,19.0363,181.9733],[-69.6894,19.0375,223.3175],[-69.6956,19.0414,198.092],[-69.6984,19.0469,189.471],[-69.6989,19.0671,194.2368],[-69.705,19.0791,154.5529],[-69.71,19.0843,164.623],[-69.7179,19.0873,116.9096],[-69.7251,19.0857,111.5699],[-69.7302,19.0898,115.1859],[-69.7328,19.0942,100.8082],[-69.7556,19.0938,97.54],[-69.7684,19.099,83.8546],[-69.779,19.0918,179.0718],[-69.787,19.0938,139.4705],[-69.7915,19.0928,124.3317],[-69.797,19.0801,162.9264],[-69.8006,19.0773,158.0426],[-69.8109,19.0796,166.8515],[-69.8174,19.0785,200.6711],[-69.8229,19.0814,184.8392],[-69.833,19.0827,169.6167],[-69.8439,19.0794,157.5562],[-69.8479,19.0753,169.0046],[-69.8507,19.0747,186.1216],[-69.8527,19.0759,168.402],[-69.8546,19.0825,156.37],[-69.8614,19.0846,152.2147],[-69.8683,19.0832,197.4364],[-69.8703,19.0812,166.9063],[-69.868,19.0715,184.0361],[-69.8702,19.0623,178.0328],[-69.8623,19.0512,236.3415],[-69.8625,19.0465,227.1944],[-69.8648,19.0424,201.2554],[-69.8702,19.0411,223.02],[-69.8824,19.0464,211.8176],[-69.9046,19.0468,41.3033],[-69.9074,19.0385,31.4298],[-69.9118,19.0323,32.7582],[-69.9136,19.0239,35.5482],[-69.9201,19.0192,35.5661],[-69.9222,19.0143,40.2806],[-69.9268,19.0098,40.7379],[-69.9298,18.996,46.118],[-69.9287,18.9919,61.4482],[-69.9213,18.9895,44.6158],[-69.9184,18.9853,70.1413],[-69.9189,18.9799,99.7733],[-69.923,18.9734,50.221],[-69.9191,18.9664,59.9286],[-69.922,18.9546,70.9935],[-69.9325,18.9371,68.0027],[-69.934,18.9297,112.6282],[-69.9405,18.9242,71.9486],[-69.9503,18.9119,76.0686],[-69.9525,18.8993,93.9832],[-69.9597,18.8927,106.4815],[-69.9711,18.8915,99.7605],[-69.9833,18.8865,161.6906],[-69.9942,18.8871,191.4526],[-69.9984,18.8958,243.9714],[-70.0001,18.907,235.3463],[-70.0105,18.9127,357.7702],[-70.0113,18.9076,233.1571],[-70.0183,18.9016,159.8364],[-70.0217,18.8954,215.5506],[-70.0239,18.8845,210.9613],[-70.0317,18.8889,228.1589],[-70.0366,18.8892,212.757],[-70.0407,18.8865,175.3519],[-70.0461,18.8791,147.8099],[-70.0567,18.8754,174.2427],[-70.0629,18.8771,200.4814],[-70.0698,18.8867,220.0377],[-70.0739,18.8893,238.3271],[-70.0772,18.8885,236.0463],[-70.0834,18.8829,252.1564],[-70.0873,18.8814,234.4874],[-70.0907,18.8819,235.2866],[-70.0971,18.887,222.7761],[-70.101,18.8868,265.6462],[-70.1058,18.8843,274.7579],[-70.1103,18.8866,292.4863],[-70.1113,18.8846,311.098],[-70.1088,18.8815,314.3304],[-70.1089,18.8718,306.8372],[-70.1121,18.8658,342.9775],[-70.1159,18.8645,410.3175],[-70.1281,18.8668,321.5565],[-70.1369,18.865,276.8176],[-70.1429,18.8697,399.9387],[-70.1523,18.8722,363.8743],[-70.1639,18.8651,348.5715],[-70.1721,18.867,436.984],[-70.1771,18.8662,409.9396],[-70.1866,18.8721,437.0434],[-70.191,18.8683,396.8768],[-70.2,18.8676,429.9715],[-70.2032,18.8659,347.972],[-70.2171,18.8458,282.8887],[-70.2217,18.8427,335.5612],[-70.2247,18.8455,439.4622],[-70.228,18.8446,427.3453],[-70.237,18.8391,390.7135],[-70.2392,18.8362,516.2762],[-70.2398,18.8135,408.9435],[-70.2438,18.8071,630.1477],[-70.2274,18.7916,490.9439],[-70.2145,18.7763,412.1058],[-70.2115,18.7668,686.5292],[-70.206,18.7639,738.6407],[-70.1916,18.7627,706.6005],[-70.1768,18.7541,708.9878],[-70.1704,18.7484,797.1182],[-70.1599,18.7349,836.4852],[-70.1602,18.7225,796.6237],[-70.1481,18.7265,553.6955],[-70.1358,18.7259,542.3074],[-70.116,18.7026,446.264],[-70.0981,18.6949,518.1688],[-70.0918,18.6851,545.5878],[-70.0855,18.6819,442.1867],[-70.0759,18.6837,442.7371],[-70.0622,18.6834,221.3015],[-70.0343,18.6643,371.7949],[-70.0276,18.6614,290.9929],[-70.0127,18.6594,176.3038],[-70.0074,18.6659,71.2828],[-69.9968,18.6669,70.2251],[-69.9782,18.6724,96.2494],[-69.9739,18.6761,64.1967],[-69.9705,18.6826,48.8375],[-69.9605,18.6838,43.1072],[-69.9548,18.6902,56.1175],[-69.9491,18.6923,60.0401],[-69.9465,18.6971,52.3159],[-69.9537,18.7058,22.6529],[-69.9541,18.7096,23.5054],[-69.9525,18.7114,33.9807],[-69.9493,18.7114,30.3516],[-69.9456,18.7072,27.7165],[-69.9408,18.7075,27.1543],[-69.9378,18.7034,25.5941],[-69.9285,18.7001,23.9622],[-69.9229,18.7003,23.6179],[-69.9191,18.7041,27.0545],[-69.9114,18.6958,22.6544],[-69.9073,18.6942,23.3245],[-69.8979,18.6973,18.9566],[-69.8892,18.7044,20.3667],[-69.8827,18.7075,21.2722],[-69.8709,18.7055,15.7579],[-69.8604,18.7073,14.2124],[-69.8579,18.7034,14.5362],[-69.8538,18.7009,13.4017],[-69.8524,18.6896,16.8712],[-69.8483,18.6871,11.2587],[-69.8457,18.6787,14.2829],[-69.8363,18.6686,12.7944],[-69.8312,18.6564,13.9629],[-69.8281,18.6555,10.6176],[-69.819,18.6596,12.5025],[-69.8149,18.6583,15.0553],[-69.8146,18.6326,13.5199],[-69.8132,18.6278,13.8934],[-69.8067,18.6243,9.6416],[-69.7962,18.6258,8.7285],[-69.7916,18.6231,5.0879],[-69.7902,18.6126,10.8063],[-69.7848,18.6056,12.1615],[-69.7849,18.5978,7.1897],[-69.7869,18.5919,6.5121],[-69.7838,18.583,7.3676],[-69.779,18.5779,12.963],[-69.7674,18.5846,11.1951],[-69.7613,18.5965,8.4373],[-69.7477,18.5967,16.9979],[-69.7436,18.6066,7.4591],[-69.7388,18.6264,13.2224],[-69.7231,18.641,16.5104],[-69.7178,18.6431,10.9332]]]]}
,"properties": {"GID_1": "DOM.18_1","GID_0": "DOM","country": "DominicanRepublic","province": "MontePlata","VARNAME_1": "NA","NL_NAME_1": "NA","TYPE_1": "Provincia","ENGTYPE_1": "Province","CC_1": "NA","HASC_1": "DO.MP","ISO_1": "DO-29","name": "Monte_Plata.province","area_km2": 2598.166,"hist_schema_id": "Elevation0-9000","hist_area_km2": {"0": 35.982,"25": 268.408,"50": 412.098,"75": 248.44,"100": 165.666,"125": 131.601,"150": 121.708,"175": 146.282,"200": 178.898,"225": 180.039,"250": 169.046,"275": 186.044,"300": 177.2,"325": 96.598,"350": 26.284,"375": 14.509,"400": 9.794,"425": 6.965,"450": 4.858,"475": 3.553,"500": 3.152,"525": 2.51,"550": 1.425,"575": 1.064,"600": 0.903,"625": 0.743,"650": 0.642,"675": 0.944,"700": 0.562,"725": 0.602,"750": 0.482,"775": 0.522,"800": 0.241,"825": 0.221,"850": 0.12,"875": 0.04,"900": 0.02}}}