{"type": "Feature","bbox": [-71.2621,19.2985,-71.0631,19.4698],"geometry": {"type": "MultiPolygon","coordinates": [[[[-71.2379,19.3091,581.9784],[-71.2411,19.3174,558.8005],[-71.2362,19.323,693.1941],[-71.2321,19.3324,518.5877],[-71.229,19.3335,536.2577],[-71.2248,19.3309,474.7328],[-71.2187,19.3308,680.0867],[-71.2136,19.3324,671.5669],[-71.2129,19.3345,607.6989],[-71.2167,19.3522,557.8903],[-71.2098,19.3545,502.5124],[-71.2069,19.3631,568.4296],[-71.1981,19.368,514.0978],[-71.1941,19.3723,463.3743],[-71.1871,19.3753,400.0254],[-71.1785,19.3739,491.7966],[-71.171,19.3803,308.7354],[-71.1679,19.3811,398.0844],[-71.1645,19.3783,373.7024],[-71.1639,19.3689,312.8313],[-71.1614,19.3651,314.4338],[-71.1552,19.3627,401.2493],[-71.1451,19.3646,505.1116],[-71.1417,19.369,399.9287],[-71.1417,19.3751,379.1721],[-71.1341,19.3766,367.8112],[-71.1252,19.3834,274.5],[-71.116,19.3823,298.4787],[-71.1112,19.3845,430.1322],[-71.1083,19.3897,384.9959],[-71.109,19.3963,364.6351],[-71.1051,19.4,265.7607],[-71.0918,19.406,289.4638],[-71.0759,19.4067,280.9776],[-71.0639,19.4125,258.3536],[-71.0631,19.4152,290.1297],[-71.0651,19.4174,258.0554],[-71.0797,19.4183,170.73],[-71.0801,19.4206,171.0072],[-71.0761,19.4255,157.1842],[-71.0756,19.4287,213.9284],[-71.0811,19.4386,208.579],[-71.0865,19.442,137.2647],[-71.0858,19.4451,164.9321],[-71.0799,19.4471,158.159],[-71.0752,19.4534,171.9974],[-71.0645,19.457,346.3972],[-71.0694,19.4631,333.9857],[-71.0741,19.4649,296.6809],[-71.0826,19.4602,130.2644],[-71.0992,19.4598,150.3906],[-71.1083,19.4573,192.2181],[-71.112799999999993,19.4593,309.9263],[-71.1178,19.4664,364.9247],[-71.1213,19.4684,379.2443],[-71.134,19.4686,362.8597],[-71.145,19.4659,347.7269],[-71.1705,19.4698,236.4514],[-71.1737,19.4677,224.3135],[-71.1785,19.4567,250.2532],[-71.1795,19.4466,260.9324],[-71.1822,19.442,297.9967],[-71.1965,19.4403,262.2935],[-71.2022,19.435,281.5513],[-71.2055,19.4233,320.2007],[-71.2,19.409,347.4145],[-71.1998,19.4038,377.1615],[-71.2012,19.4018,399.6308],[-71.2078,19.4005,405.1535],[-71.2109,19.3962,438.6225],[-71.221,19.3691,342.226],[-71.2375,19.37,540.4653],[-71.2466,19.3638,515.2169],[-71.2428,19.3531,511.7131],[-71.2527,19.3394,567.7214],[-71.2614,19.3231,535.049],[-71.2621,19.3137,591.7351],[-71.256,19.3004,683.4781],[-71.2538,19.2985,699.8807],[-71.2503,19.2999,707.2902],[-71.2446,19.3076,568.9086],[-71.2379,19.3091,581.9784]]]]}
,"properties": {"GID_2": "DOM.29.2_1","GID_0": "DOM","country": "DominicanRepublic","GID_1": "DOM.29_1","province": "SantiagoRodríguez","NL_NAME_1": "NA","county": "Monción","VARNAME_2": "NA","NL_NAME_2": "NA","TYPE_2": "Distritomunicipal","ENGTYPE_2": "Municipaldistrict","CC_2": "NA","HASC_2": "DO.SR.MO","name": "Monción.county","area_km2": 143.823,"hist_schema_id": "Elevation0-9000","hist_area_km2": {"125": 1.7193,"150": 4.1586,"175": 3.199,"200": 4.5987,"225": 5.6384,"250": 7.4778,"275": 18.8168,"300": 15.0366,"325": 14.697,"350": 15.6572,"375": 15.9377,"400": 9.7795,"425": 5.2005,"450": 3.1804,"475": 3.1607,"500": 3.4409,"525": 3.3809,"550": 2.8808,"575": 2.6208,"600": 1.7405,"625": 0.7203,"650": 0.4402,"675": 0.3201,"700": 0.02}}}