{"type": "Feature","id": "1993","bbox": [-59.54021,13.14576,-59.46768,13.21751],"geometry": {"type": "Polygon","coordinates": [[[-59.46768,13.18654,0.0],[-59.47667,13.1894,0.0],[-59.49181,13.19794,8.2234],[-59.51805,13.21751,0.0],[-59.52042,13.21651,0.0],[-59.53683,13.20157,285.8053],[-59.53726,13.20147,285.8053],[-59.53768,13.20142,285.8053],[-59.53856,13.20142,252.0953],[-59.53905,13.19956,287.9124],[-59.53928,13.19816,320.6862],[-59.54021,13.1825,266.6041],[-59.51923,13.16359,194.968],[-59.51724,13.16142,191.0524],[-59.50871,13.14576,151.3538],[-59.49536,13.16297,174.4227],[-59.4882,13.16576,193.9751],[-59.48145,13.16989,187.1096],[-59.48016,13.17113,187.8782],[-59.46921,13.18416,0.0],[-59.46768,13.18653,0.0],[-59.46768,13.18654,0.0]]]}
,"properties": {"ISO3166-1-Alpha-3": "BRB","country": "Barbados","fill": "#F0F","name": "Saint John","area_km2": 31.37788,"hist_schema_id": "Elevation0-9000","hist_area_km2": {"0": 1.83714,"25": 0.99081,"50": 1.46561,"75": 1.3624,"100": 1.23855,"125": 1.03213,"150": 1.507,"175": 4.00507,"200": 5.30555,"225": 5.51184,"250": 3.4061,"275": 2.35327,"300": 0.94955,"325": 0.41284}}}