{"type":"Feature","properties":{"GID_1":"BRB.5_1","GID_0":"BRB","country":"Barbados","province":"SaintJohn","VARNAME_1":"NA","NL_NAME_1":"NA","TYPE_1":"Parish","ENGTYPE_1":"Parish","CC_1":"NA","HASC_1":"BB.JN","ISO_1":"BB-05","name":"Saint_John.province"},
"geometry":{"type": "MultiPolygon","coordinates": [[[[-59.5062,13.1344,95.6608],[-59.4568,13.1821,0.0],[-59.459,13.1835,11.6392],[-59.4635,13.1801,33.0464],[-59.4676,13.1799,4.4176],[-59.4774,13.1876,0.0],[-59.4779,13.1896,0.0],[-59.4857,13.1912,1.1166],[-59.4879,13.1979,2.0904],[-59.4943,13.1974,0.9759],[-59.5088,13.2099,1.5748],[-59.5401,13.1795,265.3813],[-59.5062,13.1344,95.6608]]]]}}