{"type": "Feature","bbox": [-81.3189,22.6441,-81.0573,22.9342],"geometry": {"type": "MultiPolygon","coordinates": [[[[-81.2766,22.9342,68.2165],[-81.2916,22.9061,75.2702],[-81.2961,22.8897,83.2917],[-81.31,22.8618,167.1227],[-81.3119,22.8285,140.7189],[-81.3189,22.8088,124.903],[-81.3188,22.7845,64.7428],[-81.2938,22.7736,35.777],[-81.2868,22.7677,29.9079],[-81.2773,22.7499,21.9214],[-81.2736,22.7269,18.2258],[-81.2641,22.7125,15.5699],[-81.2066,22.6984,19.2339],[-81.1984,22.6851,22.6402],[-81.1945,22.6622,21.7023],[-81.1829,22.6441,22.9965],[-81.1644,22.6461,22.3192],[-81.1565,22.6512,22.4325],[-81.1174,22.7096,33.458],[-81.1109,22.7159,35.1455],[-81.098,22.7189,38.5524],[-81.0595,22.7183,28.4217],[-81.0573,22.7955,34.9317],[-81.0755,22.8015,22.0425],[-81.0927,22.8137,28.2319],[-81.1291,22.831,24.0201],[-81.1467,22.8387,29.8193],[-81.1644,22.8429,31.4772],[-81.2184,22.868,47.0],[-81.2296,22.8785,54.7363],[-81.2373,22.8916,59.7619],[-81.2556,22.9109,67.0715],[-81.2634,22.9238,69.5014],[-81.2766,22.9342,68.2165]]]]}
,"properties": {"GID_2": "CUB.11.6_1","GID_0": "CUB","country": "Cuba","GID_1": "CUB.11_1","province": "Matanzas","NL_NAME_1": "NA","county": "Jovellanos","VARNAME_2": "NA","NL_NAME_2": "NA","TYPE_2": "Municipio","ENGTYPE_2": "Municipality","CC_2": "NA","HASC_2": "CU.MA.JO","name": "Jovellanos.county","area_km2": 443.7812,"hist_schema_id": "Elevation0-9000","hist_area_km2": {"0": 0.7434,"25": 301.8052,"50": 78.8134,"75": 51.8475,"100": 6.0187,"125": 2.1887,"150": 1.0747,"175": 0.9575,"200": 0.254,"225": 0.0782}}}