{"type":"Feature","properties":{"GID_2":"DOM.3.11_1","GID_0":"DOM","country":"DominicanRepublic","GID_1":"DOM.3_1","province":"Barahona","NL_NAME_1":"NA","county":"VicenteNoble","VARNAME_2":"NA","NL_NAME_2":"NA","TYPE_2":"Municipio","ENGTYPE_2":"Municipality","CC_2":"NA","HASC_2":"DO.BH.VN","name":"Vicente_Noble.county"},
"geometry":{"type": "MultiPolygon","coordinates": [[[[-71.0198,18.5009,254.4446],[-71.031,18.5008,156.4337],[-71.043,18.5032,119.0759],[-71.0471,18.5017,163.7281],[-71.048,18.4993,155.5276],[-71.0466,18.4965,130.7359],[-71.0366,18.4945,151.2592],[-71.0339,18.4919,156.5205],[-71.0371,18.4778,155.7139],[-71.0446,18.4737,178.2508],[-71.0538,18.4747,152.4029],[-71.0604,18.4705,124.9198],[-71.067,18.4686,135.8203],[-71.071,18.4646,128.4632],[-71.0703,18.458,159.6324],[-71.0727,18.4537,147.4539],[-71.0805,18.4521,118.9134],[-71.0867,18.4487,143.6852],[-71.0923,18.4549,80.2197],[-71.0956,18.4553,79.6325],[-71.1009,18.4507,109.8438],[-71.1061,18.4396,94.9324],[-71.1189,18.4364,78.1675],[-71.1383,18.4353,62.5582],[-71.1405,18.4314,54.0478],[-71.1393,18.427,63.7336],[-71.1358,18.4254,54.9382],[-71.1292,18.4277,65.9735],[-71.1245,18.4267,104.6571],[-71.121,18.421,152.1695],[-71.1217,18.4171,176.1199],[-71.1286,18.4116,215.484],[-71.1378,18.4128,108.3714],[-71.1531,18.4029,101.1935],[-71.1595,18.4029,71.5971],[-71.1663,18.4054,41.8546],[-71.1709,18.4044,38.7887],[-71.1737,18.3957,54.12],[-71.1809,18.3917,33.0298],[-71.183,18.384,28.0175],[-71.1886,18.3817,26.3174],[-71.196,18.3745,23.7431],[-71.1941,18.3662,22.3246],[-71.1961,18.3597,21.4103],[-71.1958,18.35,17.6106],[-71.1912,18.3472,18.1394],[-71.183,18.3454,17.2222],[-71.1816,18.3362,16.7222],[-71.1786,18.3327,19.7089],[-71.1662,18.3325,13.2233],[-71.1613,18.3407,15.3744],[-71.1571,18.3429,12.7622],[-71.1549,18.3399,12.4732],[-71.1554,18.3277,11.6288],[-71.147,18.3316,10.8034],[-71.1304,18.3239,6.1524],[-71.117,18.3232,3.191],[-71.1117,18.3243,1.4258],[-71.112799999999993,18.33,1.5833],[-71.1117,18.3319,2.9994],[-71.0978,18.3374,14.208],[-71.084,18.3368,30.3265],[-71.0771,18.3332,27.3833],[-71.0716,18.3265,0.0047],[-71.0611,18.3262,28.9264],[-71.0517,18.3374,149.2792],[-71.0467,18.3478,294.9664],[-71.0338,18.351,603.4846],[-71.0179,18.3509,845.0503],[-71.0039,18.3475,905.6733],[-70.9944,18.3416,717.4908],[-70.9852,18.3252,558.9587],[-70.9828,18.3238,754.0446],[-70.9807,18.3248,749.9927],[-70.9743,18.3404,1026.1628],[-70.974,18.3576,1184.5286],[-70.986,18.3643,1211.9927],[-70.9974,18.3656,1205.437],[-71.0098,18.3729,1249.5095],[-71.0259,18.3771,1302.674],[-71.036,18.3915,1048.7947],[-71.0354,18.4039,648.3527],[-71.0201,18.4048,576.2668],[-71.0159,18.4077,481.095],[-71.0102,18.4189,371.8265],[-71.0091,18.4262,319.1084],[-71.006,18.4326,296.6631],[-70.998,18.4402,256.612],[-70.9954,18.4504,210.8858],[-70.9959,18.4563,202.2841],[-70.9875,18.4649,180.9807],[-70.9858,18.4688,201.175],[-70.984,18.4834,256.9701],[-70.9868,18.4898,272.3398],[-70.9902,18.4914,246.6465],[-70.9985,18.4892,262.381],[-71.0123,18.4897,197.3013],[-71.0176,18.4944,187.6165],[-71.0198,18.5009,254.4446]]]]}}