{"type": "Feature","bbox": [-82.5632,22.3896,-82.4223,22.833],"geometry": {"type": "MultiPolygon","coordinates": [[[[-82.4876,22.4099,0.0],[-82.4874,22.4118,0.0],[-82.4887,22.4118,0.0],[-82.4904,22.409,0.0],[-82.4826,22.404,0.6764],[-82.479,22.3993,0.0],[-82.4768,22.4007,0.0],[-82.4776,22.4026,0.0],[-82.4801,22.4024,1.3561],[-82.4846,22.4082,0.0],[-82.4876,22.4099,0.0]]],
[[[-82.4832,22.5121,0.0],[-82.4851,22.5124,0.6988],[-82.4868,22.5076,0.8716],[-82.4826,22.5068,1.4441],[-82.4826,22.5032,0.5573],[-82.4812,22.5021,1.7451],[-82.4754,22.5021,1.6753],[-82.4765,22.5065,0.9073],[-82.4796,22.5068,0.7243],[-82.4832,22.5121,0.0]]],
[[[-82.4987,22.5154,1.1788],[-82.5001,22.5115,0.0],[-82.4968,22.5101,0.0],[-82.4951,22.5115,0.3534],[-82.4915,22.5093,1.0167],[-82.4904,22.506,0.0],[-82.4887,22.5065,0.0],[-82.4863,22.5124,0.7269],[-82.4874,22.5157,0.0],[-82.491,22.5157,0.8124],[-82.491,22.5182,0.6884],[-82.4929,22.5182,1.0749],[-82.4987,22.5154,1.1788]]],
[[[-82.5001,22.5143,3.2738],[-82.4982,22.5176,4.877],[-82.4985,22.5204,1.7568],[-82.5032,22.5193,0.7554],[-82.5032,22.5215,0.0],[-82.5074,22.5226,2.1211],[-82.5082,22.5215,3.1652],[-82.5079,22.5249,0.4738],[-82.5099,22.5249,1.084],[-82.5104,22.5201,0.0],[-82.5076,22.519,0.7916],[-82.506,22.5213,1.4934],[-82.504,22.5138,1.9643],[-82.5001,22.5143,3.2738]]],
[[[-82.5096,22.4004,0.456],[-82.5157,22.401,0.0],[-82.516,22.3987,1.8883],[-82.5204,22.3999,0.5044],[-82.5232,22.3985,0.4708],[-82.5246,22.3951,1.7537],[-82.5126,22.3896,0.498],[-82.5096,22.4004,0.456]]],
[[[-82.5126,22.5285,0.2977],[-82.5124,22.5301,0.0],[-82.5146,22.5299,0.0],[-82.5146,22.5279,0.0],[-82.5126,22.5285,0.2977]]],
[[[-82.5418,22.5379,0.3758],[-82.5446,22.5388,0.0],[-82.5451,22.5357,0.3874],[-82.5393,22.5343,0.0],[-82.5393,22.5371,0.0],[-82.5418,22.5379,0.3758]]],
[[[-82.5157,22.5368,0.0],[-82.5163,22.5385,0.7158],[-82.5182,22.5385,1.3032],[-82.5193,22.5362,0.0],[-82.5174,22.536,0.0],[-82.5157,22.5368,0.0]]],
[[[-82.5221,22.541,0.0],[-82.5237,22.5404,2.348],[-82.5204,22.5379,0.0],[-82.5193,22.5399,1.3546],[-82.5221,22.541,0.0]]],
[[[-82.5324,22.649,0.0],[-82.5349,22.6496,1.3502],[-82.5376,22.6471,0.9491],[-82.5365,22.6432,1.0889],[-82.5349,22.6424,3.8251],[-82.5346,22.6385,0.0],[-82.5326,22.639,3.6164],[-82.5299,22.6363,1.6813],[-82.5324,22.629,6.2812],[-82.5263,22.6288,5.4774],[-82.5265,22.6257,1.729],[-82.5249,22.6257,1.729],[-82.5233,22.6226,2.8533],[-82.5246,22.619,2.4505],[-82.5215,22.6199,1.1302],[-82.5201,22.6176,1.3762],[-82.5274,22.6079,0.0],[-82.5207,22.6035,1.1061],[-82.5224,22.603,1.1061],[-82.5232,22.5976,1.7796],[-82.5251,22.5954,0.0],[-82.5229,22.5893,2.6844],[-82.5243,22.5871,1.7093],[-82.5235,22.5704,1.9188],[-82.526,22.5649,2.5363],[-82.5293,22.5649,1.2749],[-82.531,22.5632,0.0],[-82.5285,22.5485,1.9576],[-82.5254,22.5451,1.4242],[-82.526,22.5418,0.0],[-82.524,22.5415,1.6486],[-82.5221,22.5432,0.0],[-82.524,22.5451,0.9822],[-82.5218,22.5499,0.0],[-82.524,22.5499,1.4488],[-82.5221,22.5524,0.0],[-82.5221,22.5565,0.0],[-82.524,22.5593,0.5676],[-82.5201,22.5587,0.0],[-82.5199,22.5618,0.0],[-82.5168,22.5621,1.9745],[-82.5163,22.5643,0.8513],[-82.5118,22.5663,1.2315],[-82.5082,22.5657,0.0],[-82.5082,22.5785,0.1436],[-82.5054,22.5776,0.671],[-82.504,22.5821,0.0],[-82.5065,22.5838,1.5578],[-82.5054,22.586,0.0],[-82.5082,22.5915,1.3049],[-82.5065,22.5938,1.0105],[-82.5082,22.5979,1.1931],[-82.5068,22.6007,1.5196],[-82.5093,22.6038,0.5055],[-82.5124,22.6035,1.1542],[-82.509,22.6051,0.5055],[-82.5099,22.6113,0.3194],[-82.5082,22.6135,0.0],[-82.511,22.6157,0.4139],[-82.5096,22.6257,0.4351],[-82.5174,22.6387,0.4252],[-82.5207,22.6401,1.5096],[-82.5204,22.6418,0.0],[-82.526,22.6435,3.2206],[-82.5287,22.6479,0.0],[-82.5315,22.6474,0.0],[-82.5324,22.649,0.0]]],
[[[-82.4399,22.4301,1.1242],[-82.4421,22.4307,0.4419],[-82.4424,22.429,4.3129],[-82.4393,22.4276,3.4254],[-82.4393,22.4251,0.7353],[-82.4379,22.4249,1.0204],[-82.4371,22.4262,2.4655],[-82.4399,22.4301,1.1242]]],
[[[-82.4418,22.4379,0.0],[-82.4446,22.4379,0.0],[-82.4449,22.4357,0.0],[-82.4437,22.4351,0.0],[-82.4418,22.4379,0.0]]],
[[[-82.4432,22.4435,0.659],[-82.4446,22.4438,0.0],[-82.4437,22.4399,1.5437],[-82.4421,22.4404,0.0],[-82.4432,22.4435,0.659]]],
[[[-82.441,22.4465,0.0],[-82.444,22.4468,2.1498],[-82.4446,22.4454,0.0],[-82.4413,22.4451,0.0],[-82.441,22.4465,0.0]]],
[[[-82.4296,22.4618,1.1756],[-82.4354,22.4618,1.2478],[-82.4365,22.4601,0.0],[-82.4335,22.4568,0.8366],[-82.4304,22.4565,1.8104],[-82.4285,22.4576,1.6281],[-82.4296,22.4618,1.1756]]],
[[[-82.4474,22.4857,0.0],[-82.4499,22.4863,0.0],[-82.4512,22.4835,0.0],[-82.4476,22.4782,2.6232],[-82.4474,22.4732,0.0],[-82.4449,22.4729,0.0],[-82.4432,22.4751,0.0],[-82.4457,22.476,2.4391],[-82.4454,22.479,1.71],[-82.4426,22.484,0.0],[-82.4465,22.4843,0.0],[-82.4474,22.4857,0.0]]],
[[[-82.5104,22.5274,1.4652],[-82.5121,22.528199999999998,1.4652],[-82.5129,22.5257,1.7732],[-82.511,22.5254,0.0],[-82.5104,22.5274,1.4652]]],
[[[-82.5448,22.7176,1.7656],[-82.5605,22.68,5.0433],[-82.5632,22.6787,3.5925],[-82.5599,22.671,0.0],[-82.5571,22.6688,4.8284],[-82.5471,22.6707,0.0],[-82.5418,22.6779,4.2401],[-82.5379,22.6782,0.0],[-82.5329,22.6835,0.0],[-82.5229,22.6871,5.2893],[-82.5024,22.6838,4.4953],[-82.4904,22.686,2.6747],[-82.4807,22.6857,5.8392],[-82.466,22.6818,0.0],[-82.4571,22.6821,2.8746],[-82.4546,22.6807,2.2175],[-82.4507,22.6835,1.1318],[-82.4287,22.6832,0.5788],[-82.4302,22.7068,1.1211],[-82.4223,22.7296,8.4272],[-82.4232,22.7533,12.9089],[-82.4426,22.7893,8.6763],[-82.4772,22.833,35.963],[-82.4912,22.8231,29.2708],[-82.5175,22.811,21.2714],[-82.5268,22.8044,19.8376],[-82.5448,22.7176,1.7656]]]]}
,"properties": {"GID_2": "CUB.9.6_1","GID_0": "CUB","country": "Cuba","GID_1": "CUB.9_1","province": "LaHabana","NL_NAME_1": "NA","county": "GüiradeMelena","VARNAME_2": "NA","NL_NAME_2": "NA","TYPE_2": "Municipio","ENGTYPE_2": "Municipality","CC_2": "NA","HASC_2": "CU.LH.GM","name": "Güirade_Melena.county","area_km2": 186.5302,"hist_schema_id": "Elevation0-9000","hist_area_km2": {"0": 145.4234,"25": 41.1069}}}