{"type":"Feature","properties":{"ISO3166-1-Alpha-3":"JAM","country":"Jamaica","fill":"#F00","id":"1375","name":"Trelawny"},
"geometry":{"type": "Polygon","coordinates": [[[-77.46529,18.47605,19.9144],[-77.52428,18.48021,31.2402],[-77.56725,18.49018,0.0],[-77.66454,18.49193,6.4928],[-77.73554,18.5067,29.5614],[-77.7359,18.50494,57.7547],[-77.7814,18.23444,457.3021],[-77.64029,18.22085,350.1805],[-77.62743,18.22393,405.1888],[-77.6213,18.2261,431.8923],[-77.61022,18.23253,497.7618],[-77.60291,18.23579,541.2415],[-77.59733,18.23723,552.0837],[-77.59156,18.23708,649.6249],[-77.55332,18.2316,791.667],[-77.55014,18.2317,837.8151],[-77.53583,18.22571,944.9933],[-77.49116,18.1961,839.3086],[-77.45147,18.37611,341.0639],[-77.45116,18.38102,311.879],[-77.45149,18.3856,233.1567],[-77.45682,18.3919,292.012],[-77.45821,18.39472,321.9714],[-77.45824,18.39831,297.1809],[-77.45555,18.40459,219.4469],[-77.45475,18.4104,267.7505],[-77.45555,18.41761,300.025],[-77.46702,18.44593,187.3371],[-77.46782,18.45412,220.3972],[-77.46565,18.47399,51.7333],[-77.46529,18.47605,19.9144]]]}}