{"type":"Feature","properties":{"GID_1":"JAM.13_1","GID_0":"JAM","country":"Jamaica","province":"Trelawny","VARNAME_1":"NA","NL_NAME_1":"NA","TYPE_1":"Parish","ENGTYPE_1":"Parish","CC_1":"NA","HASC_1":"JM.TR","ISO_1":"JM-07","name":"Trelawny.province"},
"geometry":{"type": "MultiPolygon","coordinates": [[[[-77.4873,18.2024,745.5046],[-77.4419,18.3921,230.0968],[-77.4448,18.3958,149.1533],[-77.4473,18.4053,180.8487],[-77.4435,18.4206,136.4137],[-77.4445,18.431,110.3442],[-77.4465,18.4359,178.8261],[-77.4449,18.4379,191.7951],[-77.4437,18.4466,86.8915],[-77.4532,18.4457,135.2322],[-77.4574,18.4533,105.5677],[-77.4571,18.4586,12.3814],[-77.453,18.4693,0.7247],[-77.4554,18.469,0.893],[-77.4554,18.4715,0.0],[-77.4582,18.4712,2.0292],[-77.459,18.4771,0.0],[-77.466,18.4815,1.3718],[-77.4743,18.4818,1.9383],[-77.4793,18.4837,0.551],[-77.481,18.481,1.175],[-77.4846,18.4815,0.7052],[-77.4874,18.4793,2.4679],[-77.5007,18.4813,1.5544],[-77.504,18.486,0.0],[-77.5115,18.4832,5.827],[-77.5249,18.4832,17.6057],[-77.5376,18.4871,0.6815],[-77.5396,18.4901,1.3214],[-77.5543,18.4921,0.0],[-77.5624,18.4888,0.0],[-77.5829,18.4907,0.0],[-77.5893,18.4874,1.9899],[-77.5957,18.4885,0.9377],[-77.599,18.4871,0.0],[-77.6004,18.4843,5.6021],[-77.6074,18.4837,8.3362],[-77.6176,18.4899,1.3344],[-77.6226,18.4896,3.8125],[-77.6282,18.4937,1.4475],[-77.6326,18.4937,1.1072],[-77.6351,18.4915,2.3285],[-77.6396,18.4926,0.0],[-77.6401,18.4915,0.0],[-77.6374,18.489,2.3602],[-77.6307,18.491,3.6266],[-77.6296,18.4888,0.7649],[-77.6257,18.4871,4.5113],[-77.6254,18.4846,0.9561],[-77.6363,18.4824,0.4585],[-77.6476,18.4874,0.0],[-77.6535,18.4971,0.0],[-77.6624,18.4974,0.0],[-77.666,18.4943,2.1615],[-77.6685,18.4971,0.0],[-77.6929,18.4962,2.2269],[-77.6862,18.4926,0.0],[-77.6774,18.4935,0.0],[-77.6824,18.4868,2.6686],[-77.6921,18.4918,2.2704],[-77.6963,18.4924,0.6687],[-77.6993,18.496,0.0],[-77.709,18.5001,1.1976],[-77.7113,18.5046,0.0],[-77.7187,18.5088,0.0],[-77.7282,18.511,0.0],[-77.7342,18.5107,0.0],[-77.7722,18.2509,522.8297],[-77.6319,18.2339,439.8167],[-77.6176,18.2436,510.8874],[-77.6071,18.2405,526.7122],[-77.6025,18.2467,515.2529],[-77.5956,18.2495,484.6688],[-77.5795,18.2493,556.0268],[-77.5719,18.2458,597.5106],[-77.5638,18.2473,574.935],[-77.5569,18.2423,633.341],[-77.546,18.2401,678.3017],[-77.5238,18.2306,706.5527],[-77.5149,18.2198,836.9492],[-77.5068,18.2149,823.7227],[-77.5016,18.2086,850.6304],[-77.4926,18.2032,813.4111],[-77.4873,18.2024,745.5046]]]]}}