{"type":"Feature","properties":{"ISO3166-1-Alpha-3":"LCA","country":"Saint Lucia","fill":"#00F","id":"5080","name":"Dennery"},
"geometry":{"type": "Polygon","coordinates": [[[-60.88296,13.98062,42.363],[-60.90167,13.98303,212.9514],[-60.92047,13.98178,333.9826],[-60.94052,13.97927,206.5923],[-60.94679,13.95421,310.4758],[-60.95681,13.92789,268.6984],[-60.96057,13.90032,216.994],[-60.93927,13.90408,195.1969],[-60.92172,13.89781,86.9131],[-60.90668,13.90533,124.0649],[-60.89023,13.90848,4.1068],[-60.88305,13.95441,38.7918],[-60.88296,13.98062,42.363]]]}}