{"type": "Feature","bbox": [-82.7794,22.844,-82.6588,22.955],"geometry": {"type": "MultiPolygon","coordinates": [[[[-82.6771,22.844,55.9632],[-82.6737,22.8665,82.015],[-82.6588,22.9079,104.5511],[-82.6662,22.9324,134.3319],[-82.6667,22.955,144.6103],[-82.6851,22.9437,114.0303],[-82.7287,22.9235,98.5066],[-82.7495,22.906,115.7073],[-82.7647,22.898,103.5022],[-82.7794,22.8869,92.7444],[-82.756,22.8642,102.0427],[-82.7194,22.8469,76.2899],[-82.6771,22.844,55.9632]]]]}
,"properties": {"GID_2": "CUB.9.5_1","GID_0": "CUB","country": "Cuba","GID_1": "CUB.9_1","province": "LaHabana","NL_NAME_1": "NA","county": "Guanajay","VARNAME_2": "NA","NL_NAME_2": "NA","TYPE_2": "Municipio","ENGTYPE_2": "Municipality","CC_2": "NA","HASC_2": "CU.LH.GJ","name": "Guanajay.county","area_km2": 86.70384,"hist_schema_id": "Elevation0-9000","hist_area_km2": {"50": 0.41031,"75": 15.10119,"100": 60.45237,"125": 9.41229,"150": 0.87863,"175": 0.19524,"200": 0.13667,"225": 0.09762,"250": 0.01952}}}