{"type":"Feature","properties":{"GID_2":"DOM.32.3_1","GID_0":"DOM","country":"DominicanRepublic","GID_1":"DOM.32_1","province":"Valverde","NL_NAME_1":"NA","county":"Mao","VARNAME_2":"NA","NL_NAME_2":"NA","TYPE_2":"Municipio","ENGTYPE_2":"Municipality","CC_2":"NA","HASC_2":"DO.VA.MA","name":"Mao.county"},
"geometry":{"type": "MultiPolygon","coordinates": [[[[-71.1784,19.5238,331.1549],[-71.1774,19.5169,194.9376],[-71.1786,19.5066,164.5181],[-71.1712,19.498,203.9515],[-71.1674,19.4871,226.3445],[-71.1705,19.4698,236.4514],[-71.1489,19.4658,381.6925],[-71.134,19.4686,362.8597],[-71.1213,19.4684,379.2443],[-71.1178,19.4664,364.9247],[-71.112799999999993,19.4593,309.9263],[-71.1083,19.4573,192.2181],[-71.0992,19.4598,150.3906],[-71.0826,19.4602,130.2644],[-71.0754,19.4645,296.6809],[-71.0721,19.4648,300.6283],[-71.0645,19.457,346.3972],[-71.0507,19.4531,393.489],[-71.0373,19.4411,253.7194],[-71.0295,19.4375,210.9873],[-71.014,19.4432,183.7661],[-71.0105,19.4478,146.8087],[-70.9978,19.4476,415.9686],[-70.9916,19.4436,290.7303],[-70.9891,19.4387,246.9834],[-70.9879,19.4307,216.9571],[-70.9839,19.4259,202.8303],[-70.9761,19.4317,182.4008],[-70.9676,19.4467,157.6642],[-70.9652,19.4478,136.7313],[-70.953,19.4463,232.7335],[-70.9461,19.4478,309.7975],[-70.9384,19.4472,389.416],[-70.9275,19.4417,373.9182],[-70.9148,19.4315,334.2516],[-70.9111,19.4305,415.8881],[-70.9039,19.4312,423.0175],[-70.9006,19.4373,453.3286],[-70.8947,19.4401,427.1447],[-70.8916,19.4443,464.5766],[-70.8878,19.4441,479.3655],[-70.8795,19.4401,493.9162],[-70.8759,19.4427,483.6762],[-70.8762,19.4573,280.8163],[-70.8874,19.4593,229.315],[-70.8939,19.4623,224.8345],[-70.8994,19.4752,382.6083],[-70.8991,19.4917,205.6574],[-70.8913,19.5069,152.5697],[-70.8858,19.5276,112.1998],[-70.8884,19.531,110.9165],[-70.8939,19.5308,109.115],[-70.8998,19.5369,108.0611],[-70.9063,19.5367,100.7843],[-70.9103,19.5428,84.1929],[-70.9155,19.5384,106.9622],[-70.919,19.5384,108.5759],[-70.9211,19.546,99.1054],[-70.9249,19.551,81.7151],[-70.9411,19.5465,95.3252],[-70.9502,19.5381,97.0781],[-70.9552,19.54,82.6209],[-70.9619,19.5466,72.8435],[-70.9649,19.5438,92.0058],[-70.9666,19.5368,93.1274],[-70.9745,19.5337,93.272],[-70.9793,19.5384,87.2627],[-70.9823,19.5477,74.9273],[-70.9829,19.5571,78.3132],[-70.9853,19.56,73.1894],[-70.9886,19.5602,73.2412],[-70.9931,19.556,71.4799],[-70.999,19.5546,70.582],[-71.0025,19.5499,70.2301],[-71.0092,19.5499,69.3179],[-71.0112,19.5527,65.666],[-71.0079,19.5587,65.1646],[-71.0109,19.5649,68.8271],[-71.0136,19.5651,67.9732],[-71.0169,19.5618,65.2546],[-71.0255,19.5589,64.9025],[-71.029,19.5595,64.8108],[-71.0328,19.5623,64.4632],[-71.0318,19.5682,64.8926],[-71.0382,19.5706,62.5293],[-71.0422,19.5781,60.6647],[-71.0483,19.573,61.8089],[-71.0527,19.573,62.0287],[-71.0544,19.5829,55.6653],[-71.0567,19.5859,60.4042],[-71.0622,19.5863,60.3108],[-71.0677,19.5827,60.2275],[-71.0702,19.5826,61.0072],[-71.0762,19.5891,54.6965],[-71.085,19.5942,55.659],[-71.0901,19.6004,56.2708],[-71.1043,19.6087,53.6283],[-71.1162,19.6102,52.109],[-71.1241,19.6179,50.7889],[-71.1355,19.6203,47.2625],[-71.1393,19.6157,47.5099],[-71.1461,19.6137,48.375],[-71.1489,19.6157,47.8352],[-71.1521,19.6227,48.1937],[-71.1605,19.6167,49.69],[-71.1711,19.6206,48.1652],[-71.1728,19.6192,48.3528],[-71.1738,19.6142,49.6878],[-71.178,19.6103,53.1886],[-71.1786,19.6061,55.2318],[-71.174,19.6017,59.3808],[-71.1706,19.5956,64.4917],[-71.1695,19.5855,73.7944],[-71.1648,19.5785,82.577],[-71.1613,19.5647,107.6212],[-71.1648,19.5509,134.5529],[-71.1723,19.5419,182.7539],[-71.1784,19.5238,331.1549]]]]}}