{"type": "Feature","id": "1973","bbox": [-71.77683,17.54556,-71.28102,18.293],"geometry": {"type": "MultiPolygon","coordinates": [[[[-71.50739,17.55126,30.0059],[-71.48253,17.57563,8.5312],[-71.46711,17.58027,0.0],[-71.49258,17.60366,0.0],[-71.50695,17.61367,0.0],[-71.52107,17.62128,0.0],[-71.53222,17.6013,0.0],[-71.54137,17.57616,14.462],[-71.54117,17.55463,64.506],[-71.52448,17.54556,17.2227],[-71.50739,17.55126,30.0059]]],
[[[-71.40223,17.96387,499.5791],[-71.42375,18.015,891.8938],[-71.41685,18.02386,553.9862],[-71.40641,18.02743,518.5239],[-71.39639,18.03125,551.2513],[-71.39091,18.04195,737.1326],[-71.38897,18.05993,909.6695],[-71.3899,18.07823,720.0795],[-71.39117,18.11897,1046.8733],[-71.42194,18.13595,1559.7454],[-71.45183,18.15987,1806.6587],[-71.48046,18.18545,1879.9952],[-71.51509,18.19881,1811.0514],[-71.55162,18.20762,1958.6079],[-71.63678,18.24767,2172.978],[-71.71949,18.29211,2183.1091],[-71.72171,18.293,2185.1562],[-71.76613,18.22026,882.2241],[-71.77404,18.20147,598.6125],[-71.77683,18.18179,446.3334],[-71.77533,18.17233,368.0477],[-71.76458,18.14367,287.557],[-71.7622,18.13249,248.8753],[-71.76288,18.11585,215.5559],[-71.76065,18.0868,224.1185],[-71.76427,18.06949,142.7675],[-71.77623,18.03925,0.0],[-71.72033,18.01911,1.8844],[-71.68383,17.99018,0.8877],[-71.66625,17.97077,1.0062],[-71.6588,17.95331,1.408],[-71.66564,17.91547,0.0],[-71.66495,17.90347,19.7399],[-71.66283,17.89769,23.0441],[-71.65201,17.88198,0.0],[-71.63659,17.85346,4.1456],[-71.63239,17.83832,0.0],[-71.63093,17.8168,1.671],[-71.63777,17.80402,16.8182],[-71.66967,17.77241,43.4631],[-71.67931,17.76529,0.0],[-71.64513,17.75727,34.8206],[-71.56526,17.76752,7.9402],[-71.53161,17.75507,0.0],[-71.51488,17.73778,0.0],[-71.44612,17.62934,0.0],[-71.43635,17.62128,7.4158],[-71.43586,17.61709,0.0],[-71.42724,17.60928,7.3436],[-71.41723,17.6048,0.0],[-71.37588,17.66014,0.0],[-71.36555,17.67841,0.0],[-71.33186,17.77241,0.0],[-71.31965,17.78921,0.0],[-71.31583,17.79645,0.0],[-71.30932,17.81639,0.0],[-71.30565,17.8205,0.0],[-71.29772,17.82197,1.5989],[-71.29133,17.82616,2.6212],[-71.28612,17.83259,0.0],[-71.28209,17.84101,0.6999],[-71.28893,17.84101,2.4643],[-71.28515,17.84418,0.0],[-71.2836,17.84675,0.0],[-71.28209,17.85399,0.8567],[-71.28102,17.85313,1.3612],[-71.28104,17.85323,1.3612],[-71.28174,17.85573,4.9625],[-71.28172,17.89457,37.0407],[-71.29768,17.92953,175.1061],[-71.32766,17.9309,213.7115],[-71.35293,17.92508,212.6333],[-71.40223,17.96387,499.5791]]]]}
,"properties": {"ISO3166-1-Alpha-3": "DOM","country": "Dominican Republic","fill": "#FF0","name": "Pedernales","area_km2": 2094.492,"hist_schema_id": "Elevation0-9000","hist_area_km2": {"0": 201.521,"25": 132.411,"50": 115.536,"75": 94.73,"100": 85.936,"125": 101.186,"150": 99.827,"175": 92.837,"200": 88.678,"225": 72.142,"250": 40.118,"275": 29.446,"300": 31.826,"325": 28.21,"350": 25.123,"375": 34.353,"400": 34.332,"425": 29.535,"450": 28.206,"475": 24.172,"500": 25.985,"525": 22.739,"550": 20.501,"575": 24.594,"600": 22.235,"625": 15.641,"650": 16.085,"675": 12.194,"700": 13.443,"725": 14.511,"750": 16.345,"775": 15.358,"800": 16.003,"825": 17.13,"850": 17.655,"875": 16.607,"900": 14.53,"925": 12.797,"950": 11.809,"975": 11.446,"1000": 10.519,"1025": 11.97,"1050": 11.224,"1075": 11.285,"1100": 10.116,"1125": 9.813,"1150": 10.458,"1175": 9.128,"1200": 8.523,"1225": 8.301,"1250": 10.236,"1275": 9.974,"1300": 6.85,"1325": 6.286,"1350": 7.213,"1375": 7.112,"1400": 6.85,"1425": 6.326,"1450": 5.6,"1475": 5.923,"1500": 6.386,"1525": 5.661,"1550": 7.071,"1575": 6.587,"1600": 7.091,"1625": 6.003,"1650": 5.459,"1675": 5.66,"1700": 5.942,"1725": 6.526,"1750": 6.909,"1775": 7.694,"1800": 9.124,"1825": 7.392,"1850": 8.097,"1875": 11.098,"1900": 9.164,"1925": 7.21,"1950": 6.727,"1975": 7.351,"2000": 7.452,"2025": 5.317,"2050": 4.793,"2075": 4.571,"2100": 4.611,"2125": 5.356,"2150": 5.014,"2175": 4.269,"2200": 3.423,"2225": 2.094,"2250": 1.289,"2275": 0.725,"2300": 0.604,"2325": 0.302,"2350": 0.081}}}