{"type": "Feature","bbox": [-71.7803,17.4704,-71.2699,18.2932],"geometry": {"type": "MultiPolygon","coordinates": [[[[-71.6418,17.4804,2.0289],[-71.6479,17.479,0.2767],[-71.6468,17.474,15.3837],[-71.644,17.4704,0.0],[-71.6357,17.4718,0.0],[-71.6365,17.4774,0.0],[-71.6418,17.4804,2.0289]]],
[[[-71.6401,17.4907,0.0],[-71.6415,17.4915,0.0],[-71.6424,17.4893,0.0],[-71.6399,17.4893,0.0],[-71.6401,17.4907,0.0]]],
[[[-71.659,17.9263,1.1229],[-71.661,17.9254,0.0],[-71.6562,17.9254,0.8384],[-71.6574,17.9265,1.0434],[-71.659,17.9263,1.1229]]],
[[[-71.5204,17.6185,2.8175],[-71.5224,17.6182,0.5903],[-71.5279,17.6013,13.6638],[-71.5379,17.5954,12.1023],[-71.5399,17.5815,8.1859],[-71.5474,17.5715,1.4327],[-71.5485,17.5649,11.683],[-71.5537,17.554,0.0],[-71.5537,17.5496,0.0],[-71.5499,17.5435,0.9393],[-71.5454,17.5413,0.0],[-71.5282,17.5426,2.0806],[-71.4982,17.5535,0.0],[-71.4951,17.5576,4.4417],[-71.4765,17.5713,0.0],[-71.4754,17.5782,4.7481],[-71.4729,17.5812,2.4133],[-71.4707,17.5812,2.1912],[-71.4693,17.584,1.6218],[-71.4693,17.5851,1.6218],[-71.4721,17.5851,3.4405],[-71.474,17.5838,1.4222],[-71.4762,17.5849,0.7811],[-71.4832,17.584,5.8982],[-71.4899,17.5904,0.8774],[-71.4907,17.5957,0.0],[-71.4929,17.596,0.7681],[-71.4946,17.6026,1.3508],[-71.4962,17.6026,1.0619],[-71.4968,17.6074,0.0],[-71.5029,17.6115,0.4629],[-71.5079,17.6107,0.0],[-71.5149,17.6124,0.0],[-71.5204,17.6185,2.8175]]],
[[[-71.2799,17.8432,1.8738],[-71.2832,17.8432,1.5451],[-71.2818,17.8404,1.3517],[-71.2832,17.8385,0.2754],[-71.279,17.8399,0.0],[-71.2799,17.8432,1.8738]]],
[[[-71.3837,18.1042,982.379],[-71.3792,18.1009,985.1266],[-71.3679,18.1091,1146.0562],[-71.3669,18.1123,1195.5658],[-71.3896,18.1268,1083.8494],[-71.401,18.1281,1159.36],[-71.4111,18.1313,1269.1011],[-71.4134,18.1343,1305.3513],[-71.4126,18.1382,1189.374],[-71.4195,18.1396,1530.9249],[-71.4314,18.1453,1601.345],[-71.4502,18.1574,1782.2285],[-71.4601,18.1746,1764.9841],[-71.4815,18.1944,1840.5293],[-71.4956,18.2011,1841.8718],[-71.5148,18.1944,1788.0645],[-71.5234,18.2009,1781.4895],[-71.5366,18.2072,1791.741],[-71.543,18.2073,1855.4868],[-71.5506,18.2048,1914.4087],[-71.5563,18.2052,2004.8617],[-71.564,18.2093,2035.9672],[-71.5841,18.2272,1914.5098],[-71.5959,18.2248,1978.2629],[-71.6127,18.2254,2095.0625],[-71.6394,18.2439,2186.6582],[-71.6709,18.2606,2175.2454],[-71.6746,18.2644,2166.5774],[-71.6796,18.2741,2184.2686],[-71.6869,18.2809,2109.2578],[-71.717,18.2932,2170.6021],[-71.7192,18.2927,2183.1091],[-71.751,18.24,1268.2396],[-71.7521,18.2368,1234.7917],[-71.7502,18.2338,1167.874],[-71.7509,18.2279,1172.4452],[-71.7549,18.2272,1091.7754],[-71.7568,18.2233,1071.1394],[-71.7623,18.2213,935.1931],[-71.7631,18.2139,855.5261],[-71.767,18.2065,759.5483],[-71.765,18.1992,642.4297],[-71.7689,18.1953,596.7658],[-71.7744,18.1945,514.6569],[-71.7803,18.1859,462.4755],[-71.7803,18.1785,402.0737],[-71.7791,18.1746,394.2064],[-71.7763,18.1731,368.0477],[-71.7763,18.1692,327.7769],[-71.7744,18.17,325.0488],[-71.768,18.1677,296.0459],[-71.7583,18.1692,353.1427],[-71.7583,18.1665,346.4493],[-71.7614,18.1653,332.7173],[-71.7614,18.1626,325.2499],[-71.7595,18.1599,309.2151],[-71.7567,18.1599,307.867],[-71.7575,18.158,302.0529],[-71.7536,18.156,314.9992],[-71.7536,18.1533,312.3954],[-71.75,18.1525,316.2588],[-71.7488,18.1498,238.6221],[-71.75,18.1486,212.0461],[-71.7508,18.1459,252.9958],[-71.75,18.1479,212.0461],[-71.7473,18.1479,207.0448],[-71.7461,18.142,253.3367],[-71.7426,18.1487,306.86],[-71.7414,18.1498,364.3284],[-71.7394,18.1487,324.9298],[-71.7386,18.1413,317.626],[-71.7414,18.1421,329.2711],[-71.7433,18.1385,246.0765],[-71.7386,18.1386,320.5053],[-71.7359,18.132,358.3457],[-71.7394,18.1319,286.9855],[-71.737799999999993,18.1265,309.0444],[-71.7406,18.1265,268.6008],[-71.7406,18.1253,255.8447],[-71.737799999999993,18.1226,308.3831],[-71.7394,18.1218,221.588],[-71.7394,18.116,256.1555],[-71.7433,18.1125,179.1848],[-71.7386,18.1047,221.4369],[-71.737799999999993,18.1001,142.3474],[-71.7311,18.1013,207.56],[-71.7283,18.0966,212.1049],[-71.7283,18.0947,193.2245],[-71.733,18.09,125.4079],[-71.7291,18.0892,183.6598],[-71.7271,18.0799,174.6169],[-71.7311,18.0779,125.1171],[-71.731,18.0694,116.1104],[-71.733,18.0667,90.8962],[-71.7357,18.0666,69.0859],[-71.7357,18.0554,36.2421],[-71.7377,18.0499,28.4943],[-71.7487,18.0425,18.4708],[-71.7498,18.034,11.3416],[-71.7531,18.0301,0.0],[-71.7487,18.0276,0.0],[-71.7368,18.0251,2.2002],[-71.7304,18.0196,0.0],[-71.7207,18.0063,0.0],[-71.6988,17.996,1.3103],[-71.6821,17.9837,1.7499],[-71.6715,17.9726,2.794],[-71.6654,17.9621,1.0018],[-71.6637,17.9549,0.694],[-71.6621,17.9551,0.694],[-71.664,17.9532,0.0],[-71.6635,17.9515,0.5042],[-71.6546,17.9385,0.9153],[-71.654,17.9282,1.1024],[-71.6551,17.921,2.121],[-71.6604,17.9104,1.2098],[-71.6632,17.9079,1.5279],[-71.6651,17.9093,0.0],[-71.6712,17.9085,3.3664],[-71.6746,17.904,4.0464],[-71.6718,17.8985,1.5099],[-71.659,17.8918,1.1965],[-71.6543,17.8874,5.28],[-71.6454,17.8696,14.2878],[-71.6457,17.8621,0.0],[-71.6332,17.8493,0.0],[-71.6279,17.8357,4.4696],[-71.6282,17.8226,1.2078],[-71.6357,17.8093,1.1765],[-71.6435,17.8074,4.2668],[-71.6535,17.8113,5.1188],[-71.6562,17.8029,2.556],[-71.656,17.7965,2.7679],[-71.6582,17.7888,0.0],[-71.6632,17.7818,4.7548],[-71.6721,17.7751,19.0375],[-71.6893,17.7713,3.6499],[-71.6893,17.769,4.4644],[-71.6799,17.7665,10.4315],[-71.6724,17.7582,0.0],[-71.6649,17.759,36.4998],[-71.6626,17.7565,0.4725],[-71.6599,17.7579,9.3326],[-71.6432,17.7571,16.4719],[-71.6188,17.7654,0.0],[-71.6124,17.7654,0.0],[-71.6029,17.7682,4.2509],[-71.5824,17.7665,0.0],[-71.5732,17.7682,1.9646],[-71.5568,17.7663,2.4329],[-71.5504,17.7651,3.5086],[-71.5449,17.7615,0.0],[-71.5335,17.7576,9.101],[-71.5279,17.754,2.6487],[-71.5287,17.7501,0.0],[-71.5188,17.7474,4.5914],[-71.5104,17.7424,0.9392],[-71.4976,17.7268,1.0231],[-71.486,17.7026,1.3244],[-71.4774,17.6718,0.0],[-71.4726,17.6629,0.6795],[-71.466,17.6593,0.9895],[-71.4574,17.6488,0.2772],[-71.4496,17.6426,0.5804],[-71.4488,17.6399,0.0],[-71.4449,17.6382,10.1916],[-71.4457,17.6324,20.4264],[-71.444,17.6313,0.6157],[-71.4421,17.6238,0.0],[-71.4299,17.6149,0.0],[-71.4301,17.6129,0.0],[-71.4285,17.6115,2.3859],[-71.4293,17.6093,1.5316],[-71.4271,17.609,7.3436],[-71.4229,17.6038,4.5785],[-71.4132,17.6176,11.5567],[-71.406,17.6176,7.5171],[-71.3987,17.6293,3.6939],[-71.4013,17.6329,2.3897],[-71.4007,17.6363,5.4579],[-71.396,17.6404,0.0],[-71.3935,17.6476,2.4963],[-71.3885,17.6532,2.9364],[-71.3882,17.6604,0.7402],[-71.379,17.6646,1.8178],[-71.3765,17.6712,1.4297],[-71.3732,17.6746,0.0],[-71.3735,17.6799,0.6511],[-71.3707,17.6804,0.0],[-71.369,17.684,0.0],[-71.3704,17.6893,4.2996],[-71.3699,17.6963,4.027],[-71.364,17.6993,9.0028],[-71.3601,17.709,3.6005],[-71.361,17.7115,2.2153],[-71.3582,17.7162,0.0],[-71.3585,17.7249,1.053],[-71.3512,17.7463,0.0],[-71.3504,17.7476,1.3313],[-71.3446,17.7488,0.0],[-71.3501,17.7496,0.0],[-71.3487,17.761,0.9012],[-71.3326,17.7879,0.0],[-71.329,17.7976,4.8548],[-71.311,17.821,4.1568],[-71.3021,17.8251,0.515],[-71.2971,17.8204,0.0],[-71.2874,17.8279,0.0],[-71.2885,17.841,2.4643],[-71.286,17.854,2.0971],[-71.2804,17.856,2.6648],[-71.2799,17.8538,1.5127],[-71.2812,17.8524,1.3612],[-71.2793,17.8504,1.8532],[-71.2799,17.8485,1.0197],[-71.279,17.8471,3.765],[-71.2765,17.8474,2.2789],[-71.276,17.8507,2.7654],[-71.2699,17.8601,0.0],[-71.2721,17.8678,4.9401],[-71.2798,17.8774,17.7715],[-71.2771,17.8882,25.4185],[-71.2776,17.9067,68.3049],[-71.2914,17.927,156.6929],[-71.2957,17.9384,206.0904],[-71.2995,17.9438,195.3053],[-71.3066,17.946,192.7442],[-71.313,17.9409,150.8521],[-71.3178,17.9329,170.3979],[-71.319,17.9233,155.7104],[-71.3206,17.9215,149.2122],[-71.3298,17.9187,177.3782],[-71.3474,17.9218,178.019],[-71.3554,17.9296,250.6474],[-71.3683,17.9309,302.9738],[-71.3701,17.9434,403.2339],[-71.3819,17.9536,459.6645],[-71.3879,17.9631,485.6281],[-71.3987,17.9695,474.186],[-71.4158,17.9702,512.6672],[-71.4253,17.9732,566.3299],[-71.4281,17.9758,568.6599],[-71.4283,17.9886,611.5745],[-71.4232,17.9937,688.0854],[-71.42,17.9996,792.0294],[-71.4197,18.0178,745.5562],[-71.4088,18.0202,560.7421],[-71.4033,18.0137,551.2485],[-71.4004,18.0124,538.4188],[-71.3927,18.0155,484.6003],[-71.3728,18.0515,876.1061],[-71.3729,18.054,805.0536],[-71.3781,18.0608,698.1757],[-71.3761,18.0801,791.6105],[-71.3904,18.0912,724.4043],[-71.3955,18.1,808.4133],[-71.3946,18.1021,831.5249],[-71.3905,18.1045,872.6617],[-71.3837,18.1042,982.379]]]]}
,"properties": {"GID_1": "DOM.19_1","GID_0": "DOM","country": "DominicanRepublic","province": "Pedernales","VARNAME_1": "NA","NL_NAME_1": "NA","TYPE_1": "Provincia","ENGTYPE_1": "Province","CC_1": "NA","HASC_1": "DO.PN","ISO_1": "DO-16","name": "Pedernales.province","area_km2": 2058.905,"hist_schema_id": "Elevation0-9000","hist_area_km2": {"0": 176.801,"25": 136.52,"50": 115.177,"75": 94.149,"100": 83.699,"125": 98.586,"150": 97.127,"175": 90.197,"200": 85.474,"225": 69.321,"250": 36.693,"275": 26.847,"300": 29.388,"325": 26.76,"350": 24.74,"375": 34.555,"400": 34.695,"425": 29.918,"450": 28.81,"475": 24.978,"500": 27.236,"525": 23.445,"550": 20.319,"575": 24.029,"600": 21.772,"625": 15.42,"650": 15.964,"675": 12.113,"700": 15.298,"725": 15.257,"750": 16.95,"775": 16.225,"800": 16.547,"825": 17.715,"850": 18.542,"875": 17.373,"900": 15.074,"925": 12.897,"950": 12.051,"975": 11.869,"1000": 10.922,"1025": 12.212,"1050": 11.527,"1075": 11.648,"1100": 10.599,"1125": 10.277,"1150": 10.781,"1175": 9.229,"1200": 8.402,"1225": 8.16,"1250": 10.155,"1275": 9.974,"1300": 6.971,"1325": 6.366,"1350": 7.253,"1375": 7.152,"1400": 6.87,"1425": 6.306,"1450": 5.681,"1475": 5.923,"1500": 6.386,"1525": 5.641,"1550": 7.051,"1575": 6.648,"1600": 7.333,"1625": 6.003,"1650": 5.439,"1675": 5.66,"1700": 5.882,"1725": 6.446,"1750": 6.848,"1775": 7.513,"1800": 9.507,"1825": 8.419,"1850": 9.708,"1875": 12.548,"1900": 9.245,"1925": 7.13,"1950": 6.606,"1975": 7.19,"2000": 7.351,"2025": 4.713,"2050": 4.33,"2075": 3.705,"2100": 3.323,"2125": 3.866,"2150": 4.188,"2175": 4.007,"2200": 3.584,"2225": 2.336,"2250": 1.268,"2275": 0.725,"2300": 0.725,"2325": 0.483,"2350": 0.161}}}