{"type": "Feature","bbox": [-66.2134,18.2585,-66.1186,18.4311],"geometry": {"type": "MultiPolygon","coordinates": [[[[-66.1439,18.2796,165.9988],[-66.1379,18.2982,92.137],[-66.1412,18.301,84.7889],[-66.1417,18.3091,60.6312],[-66.1324,18.313,89.7949],[-66.1412,18.3206,47.3871],[-66.1417,18.3292,42.8876],[-66.1334,18.3354,42.0173],[-66.1362,18.3501,26.2706],[-66.1417,18.3578,22.3492],[-66.1417,18.3616,22.0531],[-66.1353,18.3725,15.4094],[-66.1376,18.3773,13.4251],[-66.1367,18.3806,9.5634],[-66.133,18.3816,15.5061],[-66.1223,18.3764,77.769],[-66.1186,18.3788,64.4433],[-66.1265,18.3959,24.5556],[-66.1242,18.4097,31.1898],[-66.121,18.4145,12.169],[-66.1251,18.4188,5.8437],[-66.1321,18.4207,1.5814],[-66.1316,18.4245,4.5743],[-66.1358,18.4221,3.1763],[-66.1488,18.423,6.7227],[-66.1576,18.4211,8.0055],[-66.1622,18.4282,6.154],[-66.1692,18.4311,5.2515],[-66.1706,18.4296,4.3027],[-66.1701,18.4244,6.0059],[-66.1724,18.4211,9.6616],[-66.1784,18.4192,17.6057],[-66.1821,18.422,22.1891],[-66.1854,18.4215,24.766],[-66.1877,18.4191,26.7576],[-66.1979,18.4148,36.7067],[-66.1965,18.4086,47.0673],[-66.1978,18.4039,45.3952],[-66.1955,18.3967,56.9256],[-66.1996,18.3696,47.3978],[-66.1973,18.3605,88.9888],[-66.2005,18.3467,116.8248],[-66.1996,18.34,112.7985],[-66.2037,18.3367,114.2686],[-66.2014,18.329,135.9507],[-66.2055,18.3166,67.0877],[-66.206,18.3066,59.3169],[-66.2134,18.3066,80.4453],[-66.2115,18.2918,71.4954],[-66.2064,18.2766,76.2323],[-66.2013,18.2761,186.4861],[-66.1999,18.2742,244.0591],[-66.2003,18.2714,451.7382],[-66.1934,18.2676,514.489],[-66.1906,18.2585,539.0855],[-66.1846,18.2681,518.6443],[-66.1726,18.2786,475.1206],[-66.1675,18.2781,450.4623],[-66.1597,18.2829,456.909],[-66.1439,18.2796,165.9988]]]]}
,"properties": {"GID_1": "PRI.11_1","GID_0": "PRI","country": "PuertoRico","province": "Bayamón","VARNAME_1": "NA","NL_NAME_1": "NA","TYPE_1": "Municipio","ENGTYPE_1": "Municipality","CC_1": "NA","HASC_1": "PR.BY","ISO_1": "NA","name": "Bayamón.province","area_km2": 116.3982,"hist_schema_id": "Elevation0-9000","hist_area_km2": {"0": 8.81123,"25": 24.60625,"50": 18.67254,"75": 9.59903,"100": 8.67417,"125": 8.57386,"150": 6.44075,"175": 4.93133,"200": 4.14651,"225": 3.14015,"250": 2.79802,"275": 2.05326,"300": 1.91236,"325": 1.40914,"350": 1.02668,"375": 0.88578,"400": 1.34881,"425": 2.03332,"450": 2.01318,"475": 1.69108,"500": 1.08715,"525": 0.52345,"550": 0.02013}}}