{"type":"Feature","properties":{"GID_2":"HTI.10.5_1","GID_0":"HTI","country":"Haiti","GID_1":"HTI.10_1","province":"Sud","NL_NAME_1":"NA","county":"Port-Salut","VARNAME_2":"NA","NL_NAME_2":"NA","TYPE_2":"Arrondissement","ENGTYPE_2":"District","CC_2":"NA","HASC_2":"HT.SD.PS","name":"Port-Salut.county"},
"geometry":{"type": "MultiPolygon","coordinates": [[[[-73.8929,18.0271,5.033],[-73.889,18.0246,0.7575],[-73.8771,18.0218,0.0],[-73.8671,18.0226,0.4894],[-73.8654,18.0246,0.3721],[-73.8502,18.026,9.1696],[-73.8293,18.0249,0.0],[-73.8278,18.0265,2.89],[-73.8167,18.0223,3.1366],[-73.8054,18.0224,1.5691],[-73.8022,18.0263,5.881],[-73.8001,18.0256,3.7752],[-73.8004,18.0235,0.0],[-73.7985,18.0238,4.2081],[-73.7971,18.0276,6.315],[-73.791,18.0263,0.7825],[-73.7868,18.0329,0.0],[-73.7899,18.0349,5.414],[-73.7907,18.0385,3.5205],[-73.7872,18.0415,0.0],[-73.7846,18.0415,0.0],[-73.7832,18.039,0.0],[-73.7818,18.0418,0.8843],[-73.7832,18.0454,0.2684],[-73.781,18.0471,0.0],[-73.7821,18.0482,0.0],[-73.7835,18.0465,1.0322],[-73.7829,18.0499,0.2039],[-73.7846,18.0501,0.8007],[-73.7862,18.0551,0.0],[-73.7901,18.0587,0.7103],[-73.7915,18.059,0.0],[-73.791,18.0565,0.6358],[-73.793,18.056,1.1585],[-73.7962,18.0599,3.4848],[-73.8004,18.0617,7.767],[-73.8012,18.0654,0.9639],[-73.7982,18.066,0.9187],[-73.7985,18.0674,0.0],[-73.801,18.0679,0.0],[-73.804,18.0654,3.9106],[-73.8074,18.0676,5.2719],[-73.8093,18.0713,0.7908],[-73.8085,18.0751,1.7783],[-73.8118,18.0776,0.0],[-73.8149,18.0832,0.0],[-73.8238,18.0904,0.0],[-73.8307,18.0929,0.0],[-73.8363,18.1012,0.0],[-73.8401,18.1026,0.0],[-73.8435,18.1107,6.5848],[-73.8422,18.1155,0.4691],[-73.8447,18.1181,1.5381],[-73.8563,18.123,9.5203],[-73.8571,18.1303,11.4744],[-73.8638,18.1369,20.832],[-73.8621,18.1388,9.8661],[-73.8629,18.1402,9.8661],[-73.8683,18.1409,25.7056],[-73.8673,18.1484,19.88],[-73.8767,18.1559,17.8289],[-73.8811,18.1639,24.7674],[-73.8836,18.1663,25.81],[-73.8944,18.1681,40.973],[-73.9014,18.1751,74.3164],[-73.9282,18.1924,232.25],[-73.9405,18.1953,162.748],[-73.9458,18.1886,182.7489],[-73.9488,18.1693,92.6105],[-73.9466,18.1621,55.1918],[-73.9488,18.1519,87.8924],[-73.9486,18.1394,76.1362],[-73.9469,18.133,15.9715],[-73.95,18.1317,2.8674],[-73.9432,18.1193,11.4951],[-73.9424,18.1146,2.1658],[-73.9444,18.1121,2.2014],[-73.9435,18.1079,3.5609],[-73.9389,18.1024,1.2878],[-73.939,18.0979,0.0],[-73.9337,18.0963,2.3849],[-73.9276,18.0915,2.4254],[-73.9262,18.0879,1.9747],[-73.9221,18.0848,0.0],[-73.9233,18.0824,0.0],[-73.9201,18.0818,8.6213],[-73.9182,18.079,14.5638],[-73.921,18.0735,2.7777],[-73.9176,18.064,0.5168],[-73.9129,18.0601,7.1388],[-73.9126,18.0557,6.019],[-73.9074,18.051,2.7046],[-73.9071,18.0476,0.0],[-73.9032,18.044,0.0],[-73.9043,18.0327,5.4551],[-73.9029,18.031,0.0],[-73.8946,18.0293,1.8001],[-73.8929,18.0271,5.033]]],
[[[-71.7639,19.0347,260.4456],[-71.7623,19.032,223.8013],[-71.7618,19.0315,223.8013],[-71.7634,19.0351,260.4456],[-71.7639,19.0347,260.4456]]]]}}