{"type": "Feature","bbox": [-62.8215,17.906,-62.8149,17.9132],"geometry": {"type": "MultiPolygon","coordinates": [[[[-62.8215,17.9082,4.5063],[-62.8208,17.9063,13.6409],[-62.8186,17.906,31.3045],[-62.8149,17.9096,67.4772],[-62.8177,17.9132,50.1568],[-62.8215,17.9082,4.5063]]]]}
,"properties": {"GID_2": "BLM.1.3_1","GID_0": "BLM","country": "Saint-Barthélemy","GID_1": "BLM.1_1","province": "AuVent","NL_NAME_1": "NA","county": "BarrièredesQuatresVents","VARNAME_2": "NA","NL_NAME_2": "NA","TYPE_2": "Quartier","ENGTYPE_2": "Quarter","CC_2": "NA","HASC_2": "NA","name": "Barrièredes_Quatres_Vents.county","area_km2": 0.302623,"hist_schema_id": "Elevation0-9000","hist_area_km2": {"0": 0.0806997,"25": 0.0605246,"50": 0.0605249,"75": 0.0201747,"100": 0.0806991}}}