{"type": "Feature","bbox": [-67.9515,18.0521,-67.0182,18.3896],"geometry": {"type": "MultiPolygon","coordinates": [[[[-67.8607,18.1224,0.0],[-67.8674,18.121,0.0],[-67.8765,18.1149,17.7967],[-67.884,18.1138,0.0],[-67.901,18.116,15.5229],[-67.9057,18.1196,12.3278],[-67.9104,18.1207,0.0],[-67.9332,18.1143,0.0],[-67.936,18.109,0.0],[-67.9349,18.1051,22.9681],[-67.9385,18.0899,16.8374],[-67.9396,18.0882,0.5333],[-67.9426,18.0879,0.0],[-67.946,18.0826,0.0],[-67.9429,18.0793,0.0],[-67.9351,18.0779,5.2037],[-67.9307,18.071,4.631],[-67.9249,18.066,0.6042],[-67.9093,18.0593,0.0],[-67.9049,18.0593,0.0],[-67.8968,18.0521,0.0],[-67.8815,18.054,3.3071],[-67.8779,18.0565,9.7322],[-67.8715,18.0579,0.0],[-67.8565,18.076,6.0728],[-67.8499,18.0807,2.6623],[-67.8451,18.0812,0.0],[-67.8435,18.0851,23.2085],[-67.8429,18.0935,58.324],[-67.8479,18.1096,0.0],[-67.8501,18.1124,0.0],[-67.8543,18.1138,0.0],[-67.8607,18.1224,0.0]]],
[[[-67.9487,18.1615,14.2009],[-67.9515,18.1607,0.0],[-67.9512,18.1576,4.1127],[-67.9465,18.1579,0.0],[-67.9487,18.1615,14.2009]]],
[[[-67.1739,18.2679,3.972],[-67.189,18.2657,0.0],[-67.176,18.2488,9.3025],[-67.1735,18.2396,4.2314],[-67.1738,18.226,0.8115],[-67.1674,18.2193,0.0],[-67.1585,18.2171,4.7504],[-67.1596,18.2121,0.0],[-67.1554,18.2107,3.1406],[-67.1532,18.2043,1.1119],[-67.1543,18.1971,0.0],[-67.1568,18.1929,1.9475],[-67.1665,18.1863,0.0],[-67.1809,18.1685,2.944],[-67.1671,18.1555,3.9808],[-67.1596,18.153199999999998,5.6123],[-67.1578,18.1561,5.168],[-67.143,18.1558,16.9172],[-67.137,18.152,33.8549],[-67.1292,18.1583,80.4692],[-67.1237,18.1579,99.4254],[-67.1209,18.156,114.3516],[-67.1149,18.1594,176.8114],[-67.1089,18.16,140.4978],[-67.1015,18.1577,134.2625],[-67.0978,18.1587,120.5714],[-67.0861,18.1498,62.8225],[-67.0871,18.1555,72.9222],[-67.0858,18.1617,74.5211],[-67.0822,18.1679,88.6868],[-67.073,18.1728,86.9088],[-67.0518,18.174,136.9102],[-67.0407,18.1784,157.4163],[-67.0348,18.1857,189.7813],[-67.0237,18.1848,259.0344],[-67.0182,18.1882,278.5493],[-67.0201,18.1954,373.7613],[-67.0188,18.2035,441.8495],[-67.0332,18.2081,380.3252],[-67.0328,18.2181,466.5213],[-67.05,18.2275,402.7895],[-67.0562,18.2455,176.0359],[-67.0622,18.245,171.5994],[-67.0738,18.2477,115.2438],[-67.0818,18.2547,104.5177],[-67.0868,18.249,278.1375],[-67.1063,18.253,149.5154],[-67.1117,18.2482,101.2615],[-67.1232,18.2428,34.4002],[-67.1367,18.2469,19.7433],[-67.1346,18.2646,7.2761],[-67.1495,18.2716,5.5129],[-67.1611,18.2733,5.5396],[-67.1661,18.2699,4.1932],[-67.1739,18.2679,3.972]]],
[[[-67.4796,18.3896,11.6049],[-67.4857,18.3893,0.0],[-67.4857,18.3868,3.5483],[-67.4885,18.3854,5.234],[-67.4885,18.3835,0.0],[-67.4857,18.3801,0.0],[-67.4779,18.3774,7.2381],[-67.4721,18.384,0.0],[-67.4749,18.3846,35.1765],[-67.4796,18.3896,11.6049]]]]}
,"properties": {"GID_1": "PRI.50_1","GID_0": "PRI","country": "PuertoRico","province": "Mayagüez","VARNAME_1": "NA","NL_NAME_1": "NA","TYPE_1": "Municipio","ENGTYPE_1": "Municipality","CC_1": "NA","HASC_1": "PR.MG","ISO_1": "NA","name": "Mayagüez.province","area_km2": 202.8333,"hist_schema_id": "Elevation0-9000","hist_area_km2": {"0": 33.5758,"25": 21.514,"50": 37.3983,"75": 31.9772,"100": 8.5401,"125": 6.6468,"150": 5.9818,"175": 6.5659,"200": 8.479,"225": 8.781,"250": 7.6131,"275": 6.6062,"300": 5.6798,"325": 4.713,"350": 4.0484,"375": 2.5579,"400": 1.1078,"425": 0.725,"450": 0.2417,"475": 0.0806}}}