{"type": "Feature","bbox": [-82.3486,23.0877,-82.2952,23.1376],"geometry": {"type": "MultiPolygon","coordinates": [[[[-82.347,23.0896,17.4967],[-82.3193,23.0897,30.6583],[-82.2955,23.0877,45.2441],[-82.2952,23.1223,39.9458],[-82.3203,23.1362,4.6578],[-82.329,23.1376,3.8779],[-82.3301,23.1346,0.0],[-82.3282,23.1332,0.0],[-82.3285,23.1315,0.3826],[-82.3321,23.1315,0.0],[-82.3376,23.1349,0.8853],[-82.3371,23.1313,4.4929],[-82.3385,23.1296,2.6721],[-82.3374,23.1274,3.1042],[-82.3418,23.1235,0.0],[-82.3376,23.1168,0.0],[-82.3379,23.1129,2.0251],[-82.341,23.1132,4.8111],[-82.346,23.1212,2.3254],[-82.344,23.1265,0.5342],[-82.346,23.1268,1.9987],[-82.3486,23.1236,4.9819],[-82.347,23.0896,17.4967]]]]}
,"properties": {"GID_2": "CUB.4.14_1","GID_0": "CUB","country": "Cuba","GID_1": "CUB.4_1","province": "CiudaddelaHabana","NL_NAME_1": "NA","county": "Regla","VARNAME_2": "NA","NL_NAME_2": "NA","TYPE_2": "Municipio","ENGTYPE_2": "Municipality","CC_2": "NA","HASC_2": "CU.CH.RE","name": "Regla.county","area_km2": 23.82998,"hist_schema_id": "Elevation0-9000","hist_area_km2": {"0": 6.57147,"25": 11.93476,"50": 5.28476,"75": 0.039}}}