{"type": "Feature","bbox": [-62.8552,17.9147,-62.8478,17.9221],"geometry": {"type": "MultiPolygon","coordinates": [[[[-62.8493,17.9147,120.8762],[-62.8478,17.917,21.4901],[-62.8499,17.9221,0.0],[-62.854,17.9214,1.7543],[-62.8552,17.9196,0.0],[-62.8541,17.9154,70.7226],[-62.8493,17.9147,120.8762]]]]}
,"properties": {"GID_2": "BLM.2.12_1","GID_0": "BLM","country": "Saint-Barthélemy","GID_1": "BLM.2_1","province": "SousleVent","NL_NAME_1": "NA","county": "LaGrandeMontagne","VARNAME_2": "NA","NL_NAME_2": "NA","TYPE_2": "Quartier","ENGTYPE_2": "Quarter","CC_2": "NA","HASC_2": "NA","name": "La_Grande_Montagne.county","area_km2": 0.4639977,"hist_schema_id": "Elevation0-9000","hist_area_km2": {"0": 0.0806947,"25": 0.0403473,"50": 0.0806953,"75": 0.1412169,"100": 0.1008694,"150": 0.0201742}}}