{"type":"Feature","properties":{"GID_2":"DOM.21.4_1","GID_0":"DOM","country":"DominicanRepublic","GID_1":"DOM.21_1","province":"PuertoPlata","NL_NAME_1":"NA","county":"LaIsabela","VARNAME_2":"NA","NL_NAME_2":"NA","TYPE_2":"Municipio","ENGTYPE_2":"Municipality","CC_2":"NA","HASC_2":"DO.PP.LI","name":"La_Isabela.county"},
"geometry":{"type": "MultiPolygon","coordinates": [[[[-71.1225,19.745,586.9713],[-71.1126,19.7397,378.138],[-71.0996,19.7388,477.8645],[-71.0836,19.7313,448.0697],[-71.0729,19.7302,481.5614],[-71.0636,19.7262,337.6192],[-71.0633,19.7403,722.4144],[-71.0713,19.7642,253.7254],[-71.0639,19.7682,177.3591],[-71.0592,19.7747,130.3909],[-71.0519,19.7778,122.0253],[-71.0363,19.7924,57.5945],[-71.0314,19.7871,62.5145],[-71.0229,19.7871,140.5814],[-71.0273,19.7994,70.324],[-71.0216,19.8193,32.717],[-71.0227,19.8301,19.1724],[-71.0398,19.8468,14.0904],[-71.0436,19.8524,11.93],[-71.0506,19.8572,10.2143],[-71.0511,19.8595,8.8223],[-71.0482,19.8635,10.2533],[-71.049,19.8654,9.5456],[-71.0586,19.8684,6.3394],[-71.0665,19.8674,6.1878],[-71.0802,19.8743,2.0055],[-71.0885,19.876,0.0],[-71.091,19.8726,0.7437],[-71.1054,19.8665,2.4248],[-71.1054,19.8651,1.6557],[-71.1057,19.8662,2.4248],[-71.1104,19.866,0.7321],[-71.1251,19.8632,0.0],[-71.1293,19.8607,0.0],[-71.1315,19.8565,2.6775],[-71.1338,19.856,1.1941],[-71.1462,19.8587,5.0807],[-71.1551,19.8579,2.5627],[-71.1626,19.8626,0.0],[-71.1687,19.8624,0.0],[-71.1732,19.8571,0.6888],[-71.1771,19.8571,0.0],[-71.1735,19.851,1.0489],[-71.1715,19.8512,0.0],[-71.1704,19.8538,1.7579],[-71.1682,19.8538,2.0858],[-71.1682,19.8571,2.1754],[-71.1699,19.8582,2.1754],[-71.1685,19.8607,1.2884],[-71.1618,19.8601,1.0085],[-71.1565,19.8563,2.5315],[-71.1479,19.8543,0.9546],[-71.1526,19.854,1.6794],[-71.1596,19.8565,2.3787],[-71.1657,19.8557,0.0],[-71.1663,19.8485,5.7985],[-71.1699,19.846,1.0806],[-71.1724,19.8465,1.3792],[-71.1743,19.8412,1.2372],[-71.1749,19.8429,1.2195],[-71.1735,19.8499,0.0],[-71.1762,19.8535,1.3795],[-71.1824,19.8521,0.5953],[-71.1899,19.8549,2.9845],[-71.1924,19.8565,0.9157],[-71.1949,19.8615,3.2233],[-71.2118,19.8701,0.0],[-71.2129,19.8621,2.6469],[-71.2085,19.8607,14.2359],[-71.2085,19.8593,2.3204],[-71.214,19.8515,0.0],[-71.2138,19.8401,1.2543],[-71.2274,19.834,1.3502],[-71.2321,19.8343,0.0],[-71.2335,19.8324,3.2685],[-71.2374,19.834,0.0],[-71.2409,19.8335,1.3096],[-71.2443,19.8304,4.0047],[-71.2485,19.8293,0.0],[-71.2464,19.8216,34.7681],[-71.2372,19.8042,96.9197],[-71.2243,19.8007,119.1527],[-71.2287,19.7937,263.1815],[-71.2283,19.7915,285.5158],[-71.221,19.7894,337.2231],[-71.2149,19.7774,395.0395],[-71.1816,19.7601,401.298],[-71.1666,19.7592,478.0022],[-71.157,19.7565,506.3673],[-71.1245,19.7561,476.1038],[-71.1207,19.7512,541.1084],[-71.1225,19.745,586.9713]]]]}}