{"type":"Feature","properties":{"GID_1":"BHS.25_1","GID_0":"BHS","country":"Bahamas","state":"RaggedIsland","VARNAME_1":"NA","NL_NAME_1":"NA","TYPE_1":"District","ENGTYPE_1":"District","CC_1":"NA","HASC_1":"BS.RI","ISO_1":"NA","name":"RaggedIsland.state"},
"geometry":{"type": "MultiPolygon","coordinates": [[[[-75.7549,21.7185,0.0],[-75.7551,21.7199,0.0],[-75.7582,21.7188,0.0],[-75.7571,21.7176,0.0],[-75.7549,21.7185,0.0]]],
[[[-75.7504,22.2713,0.0],[-75.7535,22.2718,0.0],[-75.754,22.2663,0.0],[-75.7504,22.261,14.6336],[-75.7521,22.2551,1.6791],[-75.7496,22.2499,2.2726],[-75.7521,22.2451,0.0],[-75.7501,22.2451,1.5784],[-75.7499,22.2429,1.0904],[-75.7524,22.2388,1.4974],[-75.7557,22.2382,4.6577],[-75.7571,22.2399,0.9947],[-75.7588,22.2382,7.4572],[-75.7568,22.2332,0.0],[-75.7518,22.2376,1.0508],[-75.7485,22.2365,2.2518],[-75.7487,22.234,0.0],[-75.7454,22.2343,1.09],[-75.7457,22.2365,1.4098],[-75.7438,22.2388,4.5699],[-75.7396,22.2396,0.0],[-75.7443,22.2488,0.0],[-75.7429,22.2518,0.0],[-75.7449,22.2518,4.0877],[-75.746,22.2538,2.1475],[-75.7449,22.2571,1.3383],[-75.7465,22.2582,1.3383],[-75.7476,22.266,2.3248],[-75.751,22.2665,3.2037],[-75.7474,22.2676,0.6878],[-75.7474,22.269,0.587],[-75.7504,22.2713,0.0]]],
[[[-75.7829,22.2885,2.6712],[-75.7843,22.2896,0.5637],[-75.7843,22.286,1.6806],[-75.7812,22.2813,0.0],[-75.7821,22.2871,2.6712],[-75.7829,22.2885,2.6712]]],
[[[-75.771,22.2912,0.0],[-75.7729,22.2924,0.2398],[-75.7726,22.2885,0.0],[-75.7715,22.289,1.5783],[-75.771,22.2912,0.0]]],
[[[-75.7688,22.3046,0.0],[-75.7712,22.3054,1.5806],[-75.7757,22.3021,0.0],[-75.7838,22.3001,2.1343],[-75.7882,22.3007,0.0],[-75.7882,22.2982,0.4572],[-75.7849,22.2979,1.2487],[-75.7807,22.294,0.539],[-75.7743,22.296,0.7746],[-75.7704,22.2943,0.4391],[-75.7674,22.2965,0.0],[-75.7688,22.3046,0.0]]],
[[[-75.7632,22.3232,1.4902],[-75.7668,22.3235,0.6668],[-75.7657,22.3201,0.3105],[-75.7668,22.3179,1.4459],[-75.7621,22.3126,2.8637],[-75.7657,22.3057,0.0],[-75.7596,22.3032,0.8521],[-75.7582,22.2957,1.6648],[-75.7599,22.2938,1.7861],[-75.759,22.2888,0.0],[-75.7568,22.286,4.8675],[-75.7568,22.2849,4.4992],[-75.7585,22.2854,1.6304],[-75.7607,22.2924,1.5359],[-75.7621,22.2926,0.2293],[-75.761,22.2871,0.2094],[-75.759,22.2851,0.4853],[-75.7607,22.2804,1.3941],[-75.7585,22.2774,2.3643],[-75.7521,22.278199999999998,0.4455],[-75.7507,22.2768,0.0],[-75.7493,22.2787,0.0],[-75.7529,22.2793,1.8412],[-75.7501,22.2813,0.0],[-75.7557,22.2943,2.3469],[-75.756,22.3004,0.0],[-75.7588,22.3015,1.0172],[-75.7576,22.3046,0.9121],[-75.7613,22.3151,3.279],[-75.761,22.3215,0.0],[-75.7632,22.3232,1.4902]]],
[[[-75.7701,22.3132,0.0],[-75.771,22.3146,0.0],[-75.7721,22.3146,0.0],[-75.7699,22.3113,0.0],[-75.7701,22.3132,0.0]]],
[[[-75.769,22.3207,0.0],[-75.7688,22.3221,0.0],[-75.7699,22.3229,0.0],[-75.7704,22.3199,0.355],[-75.769,22.3207,0.0]]],
[[[-75.7954,22.3251,0.0],[-75.7985,22.326,0.0],[-75.7968,22.3232,1.1252],[-75.7946,22.3235,0.0],[-75.7954,22.3251,0.0]]],
[[[-75.7829,22.3285,0.0],[-75.7846,22.3293,0.0],[-75.7835,22.3257,1.0413],[-75.7818,22.3254,0.0],[-75.7818,22.3265,1.0413],[-75.7829,22.3285,0.0]]],
[[[-75.7749,22.3315,0.0],[-75.7771,22.3318,0.0],[-75.7746,22.329,0.0],[-75.7749,22.3299,0.0],[-75.7749,22.3315,0.0]]],
[[[-75.7765,22.3418,0.0],[-75.7776,22.344,0.0],[-75.7799,22.3399,0.0],[-75.7793,22.336,1.9951],[-75.7821,22.3374,0.0],[-75.7835,22.3357,1.2938],[-75.7807,22.3324,1.0887],[-75.7751,22.3371,0.0],[-75.7765,22.3418,0.0]]],
[[[-75.1901,22.0304,0.0],[-75.1926,22.0307,0.0],[-75.1913,22.0254,0.0],[-75.1868,22.0218,0.0],[-75.1824,22.0229,0.0],[-75.1865,22.0251,0.0676],[-75.1901,22.0304,0.0]]],
[[[-75.7035,22.1757,0.0],[-75.7046,22.1774,0.0],[-75.7051,22.1757,0.0],[-75.7029,22.1732,0.0],[-75.7038,22.1718,3.0664],[-75.706,22.1726,0.0],[-75.7074,22.171,1.3115],[-75.7104,22.1732,0.1299],[-75.7149,22.171,0.4008],[-75.7149,22.1679,0.0],[-75.7132,22.1665,0.8354],[-75.7165,22.1612,1.5885],[-75.7121,22.1582,0.0],[-75.7029,22.159,3.0176],[-75.701,22.1568,1.4034],[-75.7015,22.1543,0.0],[-75.699,22.1537,0.3868],[-75.6979,22.1551,0.6754],[-75.6985,22.1504,0.0],[-75.6921,22.1496,0.0],[-75.6896,22.1513,0.0],[-75.6879,22.149,0.0],[-75.6876,22.1504,0.0],[-75.6921,22.1551,0.0],[-75.6915,22.1574,0.0],[-75.6946,22.1596,0.0],[-75.6965,22.1582,1.8597],[-75.6982,22.1593,0.0],[-75.6982,22.1632,0.0],[-75.6963,22.1643,0.0],[-75.6985,22.1663,0.0],[-75.6985,22.1696,0.0],[-75.701,22.1693,0.0],[-75.7035,22.1757,0.0]]],
[[[-75.7351,22.2315,0.0],[-75.7365,22.2332,0.0],[-75.7374,22.2301,5.6159],[-75.7424,22.2313,0.4413],[-75.7371,22.2199,0.0],[-75.7404,22.2126,0.0],[-75.7401,22.2101,0.2508],[-75.7349,22.2029,0.1246],[-75.7304,22.2029,0.0],[-75.7307,22.1999,0.0],[-75.736,22.2013,0.0],[-75.7446,22.2088,0.0],[-75.7535,22.209,0.0],[-75.749,22.196,0.0],[-75.744,22.1963,1.5273],[-75.7424,22.1946,2.106],[-75.7443,22.1893,1.4527],[-75.7435,22.184,3.4321],[-75.7412,22.1818,1.3533],[-75.7393,22.1754,0.0],[-75.7332,22.1688,0.0],[-75.7335,22.1729,0.7175],[-75.7293,22.1768,0.4571],[-75.7213,22.1782,0.7379],[-75.7182,22.1749,0.0],[-75.7124,22.1738,7.3715],[-75.7099,22.1754,4.0739],[-75.7115,22.1776,0.7294],[-75.7107,22.1804,0.4773],[-75.7087,22.1801,0.6144],[-75.7074,22.1776,0.0],[-75.7054,22.1785,0.0],[-75.7135,22.1885,0.0],[-75.716,22.1887,4.1399],[-75.7168,22.1904,0.0],[-75.7154,22.1913,0.0],[-75.7174,22.1915,0.0],[-75.7165,22.1943,0.0],[-75.7187,22.1932,5.5363],[-75.7201,22.1949,6.6537],[-75.7187,22.1968,0.5248],[-75.7215,22.1999,0.0],[-75.7221,22.2038,0.0],[-75.7246,22.2065,0.5725],[-75.7279,22.2057,0.4115],[-75.7293,22.2076,3.3234],[-75.7321,22.2168,0.0],[-75.7312,22.2196,0.0],[-75.7335,22.221,0.0],[-75.7332,22.2235,0.0],[-75.7351,22.224,0.0],[-75.7351,22.226,0.4897],[-75.7332,22.2271,0.0],[-75.7351,22.2315,0.0]]],
[[[-75.7012,23.0368,0.0],[-75.701,23.0382,0.0],[-75.7099,23.0368,0.0],[-75.7115,23.0329,0.4069],[-75.7154,23.0318,1.328],[-75.714,23.0279,0.0],[-75.7257,23.0163,7.2329],[-75.729,23.0074,0.0],[-75.7324,23.0054,0.0],[-75.7363,22.999,0.0],[-75.7357,22.9974,4.8959],[-75.7332,22.9974,0.0],[-75.7226,23.0157,3.0485],[-75.7121,23.0274,5.7971],[-75.711,23.0301,0.506],[-75.7124,23.0318,0.1868],[-75.7071,23.0318,0.0],[-75.7012,23.0368,0.0]]],
[[[-75.8179,22.3937,0.5438],[-75.8196,22.3946,0.0],[-75.8196,22.3913,1.6014],[-75.821,22.3932,1.4103],[-75.826,22.3921,0.0],[-75.8229,22.3888,1.3144],[-75.8221,22.3843,12.6153],[-75.8238,22.3768,0.0],[-75.8204,22.3738,4.7866],[-75.8229,22.3707,0.0],[-75.8199,22.3693,1.6588],[-75.8176,22.3638,0.9296],[-75.8143,22.3629,3.4789],[-75.8115,22.3596,1.71],[-75.8118,22.3518,0.0],[-75.8096,22.3507,1.4725],[-75.8096,22.3454,0.0],[-75.8029,22.340699999999998,1.9454],[-75.8029,22.3443,2.0071],[-75.7988,22.3443,1.9143],[-75.801,22.3479,1.1165],[-75.8001,22.3499,3.4136],[-75.7968,22.3513,1.0495],[-75.7968,22.3487,0.0],[-75.7932,22.3479,0.0],[-75.7929,22.3504,0.8378],[-75.7968,22.3515,1.0495],[-75.7976,22.3543,0.0],[-75.8076,22.3635,2.6294],[-75.8074,22.3657,0.0],[-75.8107,22.3688,1.316],[-75.8107,22.3718,0.2982],[-75.8163,22.3807,0.0],[-75.8154,22.3843,0.9024],[-75.8179,22.3937,0.5438]]],
[[[-75.8246,22.3999,0.0],[-75.8235,22.4013,0.0],[-75.8279,22.399,0.2211],[-75.8251,22.3979,0.9909],[-75.8246,22.3999,0.0]]],
[[[-75.8243,22.4154,0.0],[-75.8246,22.4168,0.0],[-75.8271,22.4165,0.0],[-75.8257,22.4138,0.0],[-75.8276,22.4121,0.375],[-75.8257,22.4082,0.0],[-75.8235,22.4099,0.0],[-75.8251,22.4115,3.8568],[-75.8243,22.4154,0.0]]],
[[[-75.8224,22.4235,0.0],[-75.824,22.4257,0.0],[-75.8238,22.4235,0.3459],[-75.8254,22.4243,0.0],[-75.8288,22.4193,3.8554],[-75.8246,22.4174,0.0],[-75.8249,22.4199,4.0318],[-75.8218,22.4207,0.0],[-75.8224,22.4235,0.0]]],
[[[-75.8293,22.4449,0.0],[-75.8313,22.4457,0.0],[-75.8343,22.4443,0.7475],[-75.836,22.4418,0.0],[-75.8354,22.4387,0.0],[-75.8321,22.4371,2.8608],[-75.8318,22.4301,6.4491],[-75.8393,22.4179,0.2661],[-75.8379,22.4154,0.0],[-75.8343,22.4212,1.6735],[-75.8296,22.4218,0.0],[-75.8271,22.4257,2.545],[-75.8271,22.4385,2.8414],[-75.8296,22.4421,0.0],[-75.8293,22.4449,0.0]]],
[[[-75.8326,22.4549,0.0],[-75.8337,22.456,0.0],[-75.8396,22.4526,0.0],[-75.839,22.4474,5.3329],[-75.8313,22.4485,0.0],[-75.8326,22.4549,0.0]]],
[[[-75.841,22.481,0.0],[-75.8426,22.4818,1.1323],[-75.8454,22.4771,0.0],[-75.8449,22.4696,2.4519],[-75.8465,22.4674,3.7358],[-75.8463,22.4632,0.0],[-75.8446,22.461,3.4516],[-75.8337,22.4582,0.0],[-75.8354,22.4601,4.3502],[-75.8354,22.4635,9.0726],[-75.8337,22.4674,2.0922],[-75.8318,22.4679,0.0],[-75.8365,22.4704,1.8295],[-75.841,22.481,0.0]]],
[[[-75.8437,22.4865,4.3104],[-75.844,22.4876,0.0],[-75.846,22.4871,0.0],[-75.8443,22.4837,0.0],[-75.8432,22.4843,0.0],[-75.8437,22.4865,4.3104]]],
[[[-75.8882,22.6265,1.0612],[-75.8901,22.6274,0.0],[-75.8907,22.6251,0.0],[-75.8876,22.6249,0.642],[-75.8882,22.6265,1.0612]]],
[[[-75.891,22.6368,2.6317],[-75.8926,22.6387,0.0],[-75.8932,22.6329,0.5378],[-75.8871,22.629,0.1304],[-75.8879,22.6321,0.0],[-75.8901,22.6335,0.2365],[-75.891,22.6368,2.6317]]],
[[[-75.9104,22.716,0.0],[-75.9099,22.719,0.0],[-75.9112,22.7199,0.0],[-75.9112,22.7162,0.0],[-75.9104,22.716,0.0]]],
[[[-75.9065,22.7171,1.114],[-75.9057,22.7174,1.114],[-75.906,22.7201,0.2936],[-75.9076,22.7193,0.0],[-75.9065,22.7171,1.114]]],
[[[-75.8421,22.4932,1.7481],[-75.8443,22.4943,0.0],[-75.8443,22.4926,0.0],[-75.8404,22.4896,0.0],[-75.8407,22.4921,0.0],[-75.8421,22.4932,1.7481]]],
[[[-75.846,22.494,0.0],[-75.849,22.4943,2.3163],[-75.8482,22.4921,2.0817],[-75.8465,22.4921,1.5571],[-75.846,22.494,0.0]]],
[[[-75.8457,22.5018,1.0351],[-75.8474,22.5026,0.0],[-75.8479,22.4999,0.0],[-75.8449,22.4974,0.1889],[-75.8446,22.5001,0.0],[-75.8457,22.5018,1.0351]]],
[[[-75.8463,22.9201,0.0965],[-75.8485,22.9212,0.0],[-75.8504,22.9179,0.0],[-75.8479,22.9171,0.7914],[-75.8463,22.9201,0.0965]]],
[[[-75.7937,22.3388,0.0],[-75.7965,22.3393,0.9002],[-75.7971,22.3376,6.6349],[-75.7951,22.3368,0.0],[-75.7937,22.3388,0.0]]],
[[[-75.7885,22.969,0.0],[-75.7915,22.9685,5.1643],[-75.7965,22.9621,0.5527],[-75.7949,22.9624,0.6602],[-75.7885,22.969,0.0]]],
[[[-75.7554,22.9949,0.0],[-75.756,22.9932,0.0],[-75.7457,22.9982,0.0],[-75.7449,23.0004,0.1619],[-75.7529,22.9974,0.0],[-75.7554,22.9949,0.0]]],
[[[-75.7337,23.0054,0.0],[-75.7332,23.0076,0.0],[-75.7343,23.0079,0.0],[-75.7349,23.0046,0.0],[-75.7337,23.0054,0.0]]],
[[[-75.6921,23.0435,0.0],[-75.6918,23.0449,0.0],[-75.6937,23.0443,0.0],[-75.6943,23.0421,0.0],[-75.6935,23.0418,0.0],[-75.6921,23.0435,0.0]]],
[[[-75.6707,23.0474,1.4832],[-75.6704,23.0493,0.0],[-75.6729,23.0485,0.4475],[-75.6732,23.046,0.1272],[-75.6715,23.046,0.1434],[-75.6707,23.0474,1.4832]]],
[[[-75.6671,23.0535,0.0],[-75.6676,23.0515,0.0],[-75.6626,23.0574,0.0],[-75.6637,23.0574,0.0],[-75.6671,23.0535,0.0]]],
[[[-75.681,23.054,0.0],[-75.6815,23.0524,0.26],[-75.674,23.0599,0.0],[-75.6785,23.0576,0.3574],[-75.681,23.054,0.0]]],
[[[-75.6635,23.0699,0.2708],[-75.664,23.0685,0.0],[-75.6615,23.0713,0.0],[-75.6626,23.071,0.0],[-75.6635,23.0699,0.2708]]],
[[[-75.6201,23.0996,0.0],[-75.619,23.1004,0.0],[-75.6243,23.1001,1.116],[-75.6265,23.0968,0.0],[-75.6243,23.0974,0.4788],[-75.6201,23.0996,0.0]]],
[[[-75.5762,23.1221,0.8064],[-75.5754,23.124,0.0],[-75.5768,23.1243,0.0],[-75.589,23.1162,0.0],[-75.5932,23.1115,0.0],[-75.5912,23.1118,0.0],[-75.5885,23.1151,0.0],[-75.5862,23.1151,0.0],[-75.5762,23.1221,0.8064]]],
[[[-75.5657,23.1262,0.0],[-75.5651,23.1276,0.0],[-75.5715,23.1238,0.0],[-75.5704,23.1235,0.0],[-75.5657,23.1262,0.0]]],
[[[-75.5285,23.1313,0.0],[-75.529,23.1296,0.0],[-75.5276,23.1296,0.0],[-75.5235,23.1335,0.0],[-75.5254,23.1335,0.9808],[-75.5285,23.1313,0.0]]],
[[[-75.4993,23.1426,0.0],[-75.501,23.1415,0.0],[-75.4971,23.1432,0.0],[-75.4993,23.1429,0.0],[-75.4993,23.1426,0.0]]],
[[[-75.906,22.7229,0.086],[-75.9076,22.7235,0.0],[-75.9074,22.721,0.0],[-75.906,22.7218,0.0],[-75.906,22.7229,0.086]]],
[[[-75.9015,22.7276,0.0],[-75.9026,22.7285,0.0],[-75.9026,22.7257,0.0],[-75.9015,22.7263,0.0],[-75.9015,22.7276,0.0]]],
[[[-75.9024,22.7393,0.0],[-75.9029,22.7424,0.0],[-75.906,22.7376,0.0],[-75.9018,22.7337,0.0],[-75.9013,22.7351,0.0],[-75.9024,22.7393,0.0]]],
[[[-75.9076,22.7393,0.0],[-75.9068,22.7396,0.0],[-75.9071,22.7421,0.0],[-75.9082,22.7415,0.0],[-75.9076,22.7393,0.0]]],
[[[-75.9029,22.749,0.0],[-75.9015,22.7493,0.0],[-75.9037,22.7501,0.0],[-75.9062,22.7468,0.9243],[-75.9057,22.7435,0.0],[-75.9046,22.7479,0.0],[-75.9029,22.749,0.0]]],
[[[-75.8904,22.8082,0.0],[-75.8907,22.8104,3.7472],[-75.8926,22.8101,3.7472],[-75.8932,22.8054,2.4472],[-75.8949,22.8043,0.0],[-75.894,22.8024,1.6604],[-75.891,22.8029,1.321],[-75.8904,22.8082,0.0]]],
[[[-75.8913,22.8115,0.0],[-75.891,22.8129,0.5501],[-75.8926,22.8135,0.5501],[-75.8932,22.8107,0.6822],[-75.8913,22.8115,0.0]]],
[[[-75.8887,22.8207,2.0351],[-75.8885,22.8221,0.0],[-75.8901,22.8213,2.0351],[-75.8901,22.8185,0.0],[-75.8887,22.8188,1.0738],[-75.8887,22.8207,2.0351]]],
[[[-75.8857,22.8279,0.0],[-75.8851,22.8304,0.6293],[-75.8865,22.8307,0.0],[-75.889,22.8229,0.0],[-75.8874,22.8235,0.0],[-75.8857,22.8279,0.0]]],
[[[-75.8799,22.8424,0.0],[-75.879,22.8457,0.0],[-75.8815,22.8438,0.9088],[-75.8812,22.8404,0.0],[-75.879,22.839,0.0],[-75.879,22.841,0.0],[-75.8799,22.8424,0.0]]],
[[[-75.8729,22.8635,0.0],[-75.8721,22.8651,0.7121],[-75.8735,22.8657,0.0],[-75.8765,22.8568,0.0],[-75.8765,22.849,0.0],[-75.8743,22.8529,0.2787],[-75.8729,22.8635,0.0]]],
[[[-75.8729,22.8951,0.0],[-75.8749,22.8957,0.0],[-75.8699,22.8907,0.476],[-75.8701,22.8851,0.0],[-75.8676,22.8843,5.2309],[-75.8696,22.8815,0.4971],[-75.8679,22.879,6.0513],[-75.8665,22.8793,6.0513],[-75.8696,22.8779,1.0849],[-75.8699,22.8732,0.3933],[-75.8676,22.874,2.305],[-75.8671,22.8726,0.8541],[-75.8715,22.8682,0.4381],[-75.8699,22.8674,0.5569],[-75.8676,22.8685,0.0],[-75.8682,22.8701,0.9804],[-75.8657,22.8718,0.0],[-75.8654,22.8754,0.0],[-75.8624,22.8793,0.9552],[-75.8632,22.8815,0.2101],[-75.8599,22.8932,0.3327],[-75.8615,22.8929,0.3327],[-75.8621,22.8888,0.0],[-75.866,22.8865,1.938],[-75.8729,22.8951,0.0]]],
[[[-75.8401,22.9274,0.0],[-75.8404,22.9285,0.0],[-75.8429,22.9279,1.1616],[-75.8451,22.9235,0.0],[-75.8429,22.9229,0.7036],[-75.8401,22.9274,0.0]]],
[[[-75.8187,22.9454,0.0],[-75.8176,22.9443,0.0],[-75.8157,22.9479,0.0],[-75.8168,22.9479,0.0],[-75.8187,22.9454,0.0]]],
[[[-75.8099,22.9535,0.0],[-75.8093,22.9549,0.0],[-75.8112,22.9546,0.0],[-75.8124,22.9513,0.0],[-75.8115,22.951,0.0],[-75.8099,22.9535,0.0]]],
[[[-75.7988,22.959,0.0],[-75.7993,22.9604,0.0],[-75.8021,22.9579,0.0],[-75.7999,22.9568,0.0],[-75.7988,22.959,0.0]]]]}}