{"type":"Feature","properties":{"GID_2":"DOM.30.8_1","GID_0":"DOM","country":"DominicanRepublic","GID_1":"DOM.30_1","province":"Santiago","NL_NAME_1":"NA","county":"VillaBisonó","VARNAME_2":"NA","NL_NAME_2":"NA","TYPE_2":"Municipio","ENGTYPE_2":"Municipality","CC_2":"NA","HASC_2":"DO.ST.VB","name":"Villa_Bisonó.county"},
"geometry":{"type": "MultiPolygon","coordinates": [[[[-70.8885,19.6474,773.8558],[-70.8908,19.6435,804.7818],[-70.8903,19.6388,711.1631],[-70.8811,19.6197,303.3854],[-70.8764,19.6135,280.4085],[-70.8729,19.5973,224.2381],[-70.873,19.59,189.2334],[-70.8782,19.5733,127.1854],[-70.8791,19.5649,126.1183],[-70.8834,19.5603,117.0135],[-70.885,19.5561,114.4596],[-70.8877,19.5553,107.0914],[-70.9016,19.5653,111.6828],[-70.9133,19.5762,124.3246],[-70.9181,19.5775,130.4311],[-70.9214,19.5764,124.8872],[-70.9233,19.5738,118.0754],[-70.9228,19.5701,111.4728],[-70.916,19.5685,107.8133],[-70.9149,19.5665,105.7499],[-70.9249,19.5521,81.953],[-70.9211,19.546,99.1054],[-70.9199,19.5392,104.7429],[-70.916,19.5382,106.9622],[-70.9124,19.5421,85.3928],[-70.9097,19.5426,84.1929],[-70.9063,19.5367,100.7843],[-70.8993,19.5367,108.0611],[-70.8939,19.5308,109.115],[-70.8889,19.5312,110.9165],[-70.8858,19.5276,112.1998],[-70.8673,19.5222,111.9641],[-70.8599,19.5229,116.9053],[-70.8489,19.5129,121.6443],[-70.8385,19.5168,113.6538],[-70.8355,19.5099,117.3735],[-70.8256,19.5084,111.4544],[-70.8167,19.5019,130.252],[-70.8162,19.5256,101.742],[-70.8133,19.5362,126.244],[-70.8163,19.5475,152.6084],[-70.8147,19.566,253.5912],[-70.8167,19.5748,399.5058],[-70.8216,19.5811,280.3873],[-70.8196,19.5874,324.272],[-70.8221,19.599,334.2266],[-70.8195,19.6074,416.8259],[-70.8194,19.6239,486.4359],[-70.8255,19.6298,575.9872],[-70.8364,19.6332,477.4741],[-70.8471,19.6319,496.1806],[-70.8611,19.6384,600.9911],[-70.8701,19.64,525.8358],[-70.8822,19.6468,721.2233],[-70.8885,19.6474,773.8558]]]]}}