{"type":"Feature","properties":{"GID_1":"PRI.56_1","GID_0":"PRI","country":"PuertoRico","province":"Patillas","VARNAME_1":"NA","NL_NAME_1":"NA","TYPE_1":"Municipio","ENGTYPE_1":"Municipality","CC_1":"NA","HASC_1":"PR.PT","ISO_1":"-","name":"Patillas.province"},
"geometry":{"type": "MultiPolygon","coordinates": [[[[-66.0198,17.9782,4.2743],[-66.0088,17.9807,1.2564],[-66.0043,17.9776,0.0],[-65.9943,17.9788,15.3321],[-65.9854,17.9721,3.7542],[-65.9829,17.9685,0.0],[-65.9771,17.9676,5.5769],[-65.9693,17.9746,5.1783],[-65.9671,17.9732,0.0],[-65.9626,17.9735,0.7135],[-65.9576,17.9704,0.0],[-65.9454,17.9729,2.3486],[-65.9382,17.9718,0.0],[-65.9313,17.9768,4.4932],[-65.9176,17.9749,0.0],[-65.9135,17.9763,0.0],[-65.9092,17.9804,0.0],[-65.9129,17.9848,247.5339],[-65.9258,17.9858,354.0933],[-65.9433,17.9925,477.067],[-65.9535,18.0068,453.9752],[-65.9549,18.0178,312.296],[-65.9526,18.0231,235.9205],[-65.9599,18.0283,288.7439],[-65.9632,18.0288,315.4014],[-65.9719,18.0245,379.2568],[-65.9816,18.035,520.6454],[-65.9858,18.0455,514.9974],[-65.9885,18.0589,474.8035],[-65.9987,18.0603,535.865],[-66.0107,18.0679,589.7439],[-66.0102,18.0756,622.9202],[-66.0195,18.0837,729.9753],[-66.0125,18.0937,717.0588],[-66.0125,18.0966,726.3467],[-66.0195,18.1032,676.6536],[-66.0273,18.1018,712.2733],[-66.0425,18.1042,826.4125],[-66.0513,18.1104,884.6375],[-66.0606,18.0984,709.019],[-66.0605,18.0894,691.9152],[-66.0679,18.0789,695.4404],[-66.0813,18.0736,639.7133],[-66.0795,18.0703,613.7045],[-66.0799,18.066,615.7006],[-66.0808,18.0641,604.8329],[-66.0855,18.0636,604.0828],[-66.0891,18.0564,550.9565],[-66.0854,18.0483,558.5652],[-66.0873,18.0426,561.7582],[-66.0854,18.0359,625.3904],[-66.0822,18.0326,622.2406],[-66.0757,18.0374,602.7552],[-66.0578,18.0407,603.4359],[-66.0481,18.0355,561.2664],[-66.0439,18.0297,347.1235],[-66.0416,18.0173,193.3239],[-66.0471,18.0092,142.3021],[-66.0393,18.0035,149.9901],[-66.0356,17.9982,215.0283],[-66.0264,17.993,48.834],[-66.0198,17.9782,4.2743]]]]}}