{"type":"Feature","properties":{"GID_3":"HTI.10.2.2_1","GID_0":"HTI","country":"Haiti","GID_1":"HTI.10_1","province":"Sud","NL_NAME_1":"NA","GID_2":"HTI.10.2_1","county":"lesCayes","NL_NAME_2":"NA","city":"Chantal","VARNAME_3":"NA","NL_NAME_3":"NA","TYPE_3":"Commune","ENGTYPE_3":"Commune","CC_3":"NA","HASC_3":"NA","name":"Chantal.city"},
"geometry":{"type": "MultiPolygon","coordinates": [[[[-73.88,18.2068,50.5082],[-73.8754,18.2118,56.6009],[-73.8751,18.2166,60.705],[-73.8799,18.2209,65.3804],[-73.884,18.2211,66.68],[-73.886,18.2233,69.3793],[-73.8923,18.2342,85.9892],[-73.8929,18.2384,93.0888],[-73.9018,18.2449,102.6359],[-73.9052,18.2454,119.5642],[-73.9062,18.2474,110.2686],[-73.9093,18.2473,112.5671],[-73.9117,18.2495,118.0319],[-73.9183,18.2491,125.0907],[-73.9266,18.2532,137.197],[-73.9285,18.2561,155.7877],[-73.9398,18.2596,157.7938],[-73.9504,18.2747,221.6488],[-73.952,18.2845,343.8608],[-73.9553,18.2871,323.4872],[-73.9559,18.2917,356.9613],[-73.9526,18.2964,399.5414],[-73.9491,18.2975,352.6016],[-73.948,18.3016,394.488],[-73.9441,18.3025,397.4239],[-73.9424,18.31,472.9461],[-73.9445,18.3121,505.1285],[-73.9463,18.3188,536.0851],[-73.9516,18.3231,607.827],[-73.9666,18.3216,795.8869],[-73.9726,18.3233,763.7311],[-73.9736,18.3275,761.7555],[-73.9771,18.3318,874.6954],[-73.9793,18.34,1018.5493],[-73.9834,18.3407,1175.3948],[-73.9882,18.347,1435.6368],[-73.9883,18.3486,1515.9283],[-73.9806,18.3545,1830.3319],[-73.9767,18.3645,973.9841],[-73.972,18.3654,920.3099],[-73.9675,18.3698,685.9533],[-73.9735,18.3704,831.9202],[-73.976,18.3728,775.1509],[-73.9777,18.3712,797.7612],[-73.9785,18.3732,794.043],[-73.9838,18.3737,813.6937],[-74.0027,18.3836,1922.7457],[-74.0229,18.3822,2280.1567],[-74.0319,18.384,2290.3193],[-74.0355,18.3874,2145.7559],[-74.0407,18.379,1649.9641],[-74.041,18.3751,1438.6759],[-74.032,18.3646,2195.334],[-74.0415,18.3636,1916.8567],[-74.0485,18.3605,1730.9434],[-74.0486,18.3558,1433.7437],[-74.0435,18.3486,999.6783],[-74.0465,18.3386,966.5338],[-74.0355,18.3243,904.0475],[-74.0173,18.3086,889.616],[-74.0158,18.3065,863.7706],[-74.0162,18.3036,791.5907],[-74.0071,18.2952,798.187],[-74.0024,18.2849,620.7289],[-73.9938,18.2784,746.0635],[-73.9916,18.2631,656.9954],[-73.9892,18.2604,604.9554],[-73.9887,18.2561,666.4883],[-73.9843,18.2516,583.6833],[-73.9837,18.2462,573.7974],[-73.9741,18.2395,638.575],[-73.9608,18.2267,570.8094],[-73.9623,18.2248,509.1665],[-73.9674,18.2243,551.438],[-73.9676,18.2222,518.0707],[-73.9651,18.2212,432.9392],[-73.9625,18.2114,186.4008],[-73.9405,18.1953,162.748],[-73.9282,18.1924,232.25],[-73.9094,18.1798,82.3027],[-73.8971,18.1739,63.3642],[-73.8931,18.175,41.0626],[-73.8888,18.1813,31.6582],[-73.8777,18.1892,38.1504],[-73.8769,18.1927,40.2359],[-73.8793,18.1959,43.5562],[-73.8782,18.2006,45.5335],[-73.8815,18.2028,47.7125],[-73.88,18.2068,50.5082]]]]}}