{"type": "Feature","bbox": [-62.8477,17.9055,-62.8398,17.9117],"geometry": {"type": "MultiPolygon","coordinates": [[[[-62.8467,17.9062,62.8899],[-62.8436,17.908,28.7953],[-62.8405,17.9074,15.5883],[-62.8398,17.9102,1.0161],[-62.844,17.9117,0.0],[-62.8477,17.9055,62.8899],[-62.8467,17.9062,62.8899]]]]}
,"properties": {"GID_2": "BLM.2.19_1","GID_0": "BLM","country": "Saint-Barthélemy","GID_1": "BLM.2_1","province": "SousleVent","NL_NAME_1": "NA","county": "QuartierduRoi","VARNAME_2": "NA","NL_NAME_2": "NA","TYPE_2": "Quartier","ENGTYPE_2": "Quarter","CC_2": "NA","HASC_2": "NA","name": "Quartierdu_Roi.county","area_km2": 0.1815738,"hist_schema_id": "Elevation0-9000","hist_area_km2": {"0": 0.0403494,"25": 0.0806995,"50": 0.0201749,"75": 0.04035}}}