{"type": "Feature","bbox": [-77.9957,18.2135,-77.7342,18.5251],"geometry": {"type": "MultiPolygon","coordinates": [[[[-77.9096,18.3111,149.3227],[-77.9113,18.3059,173.5102],[-77.9108,18.297,158.965],[-77.9074,18.2956,145.423],[-77.9079,18.2928,153.6187],[-77.9012,18.2959,155.2712],[-77.9,18.2923,164.9886],[-77.9057,18.2878,161.0941],[-77.8992,18.283,189.4566],[-77.8959,18.2839,157.5049],[-77.8926,18.2808,168.8427],[-77.8879,18.2802,189.8681],[-77.8877,18.2732,194.0642],[-77.881,18.2686,197.8553],[-77.8783,18.2604,212.9345],[-77.8791,18.2533,195.321],[-77.8753,18.2462,205.1056],[-77.876,18.2423,203.3631],[-77.8732,18.2378,213.9441],[-77.8765,18.2325,206.0617],[-77.8807,18.2324,213.9877],[-77.89,18.2285,237.2004],[-77.8904,18.224,252.4031],[-77.8866,18.2135,287.8879],[-77.7722,18.2509,522.8297],[-77.7342,18.5107,0.0],[-77.7429,18.5132,1.1585],[-77.7557,18.5124,0.8289],[-77.769,18.5165,2.6335],[-77.7824,18.5171,4.4021],[-77.7826,18.5185,4.4021],[-77.7876,18.5204,2.3783],[-77.7954,18.5193,2.6641],[-77.8082,18.5215,2.7275],[-77.8124,18.5237,1.4485],[-77.8146,18.5229,7.4074],[-77.8254,18.5249,3.5294],[-77.8362,18.5251,4.15],[-77.8435,18.5232,6.5319],[-77.8487,18.5249,2.7418],[-77.8529,18.5226,2.5615],[-77.8568,18.524,0.0],[-77.8707,18.5201,3.9499],[-77.8796,18.5207,0.0],[-77.8846,18.5171,0.0],[-77.8904,18.519,0.0],[-77.8929,18.5135,0.4015],[-77.9026,18.5118,1.7344],[-77.9043,18.5096,2.3208],[-77.916,18.506,0.0],[-77.9251,18.5004,0.3133],[-77.9254,18.4957,1.7421],[-77.9315,18.4835,0.0],[-77.9304,18.479,0.0],[-77.9262,18.4765,1.0311],[-77.9274,18.4749,1.7744],[-77.9249,18.4696,1.5611],[-77.9254,18.4662,3.4409],[-77.9301,18.4626,1.3605],[-77.9354,18.4643,0.0],[-77.9374,18.4599,0.563],[-77.9451,18.4593,1.2325],[-77.9388,18.4651,0.5052],[-77.9396,18.4668,0.916],[-77.9435,18.4671,0.0],[-77.9437,18.4654,2.6401],[-77.9518,18.459,0.8637],[-77.9507,18.4574,0.8906],[-77.9454,18.4585,2.8125],[-77.9443,18.4568,1.4815],[-77.9468,18.4532,0.0],[-77.9432,18.4546,0.0],[-77.9426,18.4579,2.3003],[-77.9415,18.4557,0.4622],[-77.9404,18.4574,1.9104],[-77.9349,18.4565,1.1673],[-77.9304,18.4496,0.0],[-77.9346,18.4496,0.4155],[-77.9326,18.4468,1.5421],[-77.9357,18.4435,5.6549],[-77.939,18.4437,6.5352],[-77.9421,18.4479,0.4715],[-77.9451,18.4454,5.3454],[-77.9499,18.4468,0.0],[-77.9587,18.4463,56.8927],[-77.9604,18.4485,0.0],[-77.9674,18.451,1.6565],[-77.979,18.4532,1.7027],[-77.9829,18.4526,0.0],[-77.9865,18.4496,7.2761],[-77.9903,18.4499,2.3241],[-77.9881,18.441,39.4163],[-77.9911,18.4336,99.6816],[-77.9955,18.4308,110.2456],[-77.9957,18.4281,93.2868],[-77.986,18.4197,93.2888],[-77.9824,18.4187,122.825],[-77.9787,18.4102,90.2354],[-77.9753,18.4124,89.4916],[-77.9711,18.4112,111.6241],[-77.973,18.4081,87.146],[-77.9695,18.4043,100.0777],[-77.9716,18.4009,96.112799999999993],[-77.9553,18.3766,123.014],[-77.9537,18.3666,113.1051],[-77.9514,18.3688,102.107],[-77.9468,18.3642,116.2129],[-77.9486,18.3609,125.1293],[-77.9523,18.3588,114.4451],[-77.9513,18.3547,105.6657],[-77.9443,18.3525,110.0627],[-77.9434,18.3483,113.311],[-77.9397,18.3463,114.7908],[-77.9378,18.3415,122.2249],[-77.9355,18.34,130.9673],[-77.9231,18.3369,122.537],[-77.9197,18.3291,125.7957],[-77.9113,18.3187,167.9669],[-77.9096,18.3111,149.3227]]],
[[[-77.9368,18.4501,0.9107],[-77.9396,18.4501,0.6652],[-77.9413,18.4479,0.4715],[-77.9362,18.4479,0.416],[-77.9368,18.4501,0.9107]]]]}
,"properties": {"GID_1": "JAM.10_1","GID_0": "JAM","country": "Jamaica","province": "SaintJames","VARNAME_1": "NA","NL_NAME_1": "NA","TYPE_1": "Parish","ENGTYPE_1": "Parish","CC_1": "NA","HASC_1": "JM.SJ","ISO_1": "JM-08","name": "Saint_James.province","area_km2": 595.9769,"hist_schema_id": "Elevation0-9000","hist_area_km2": {"0": 18.9421,"25": 11.7836,"50": 12.4876,"75": 18.4211,"100": 23.9137,"125": 39.9294,"150": 40.4115,"175": 36.4484,"200": 34.821,"225": 32.0481,"250": 28.5661,"275": 27.0993,"300": 23.0765,"325": 18.067,"350": 17.4232,"375": 18.7319,"400": 24.8512,"425": 25.6177,"450": 22.0776,"475": 24.1316,"500": 21.8791,"525": 17.593,"550": 13.9106,"575": 12.5218,"600": 12.6022,"625": 9.2806,"650": 5.4757,"675": 2.9392,"700": 0.8053,"725": 0.1208}}}