{"type": "Feature","bbox": [-72.9065,18.1413,-72.6303,18.3236],"geometry": {"type": "MultiPolygon","coordinates": [[[[-72.7585,18.1765,0.0],[-72.7532,18.1824,2.9945],[-72.7485,18.1835,0.0],[-72.7387,18.1776,0.0],[-72.7312,18.1787,0.0],[-72.7201,18.1743,0.0],[-72.7126,18.1746,1.2144],[-72.7082,18.176,0.0],[-72.7046,18.1804,0.0],[-72.701,18.1818,0.0],[-72.6987,18.1821,23.5422],[-72.6974,18.1799,0.0],[-72.6926,18.179,0.0],[-72.6793,18.1832,0.0],[-72.6776,18.1854,0.0],[-72.6735,18.1868,0.0],[-72.6615,18.1832,0.0],[-72.6554,18.1849,0.0],[-72.6535,18.1874,6.6225],[-72.6504,18.186,0.0],[-72.6457,18.1868,0.0],[-72.6401,18.1913,2.1517],[-72.6362,18.1904,0.1192],[-72.6389,18.1966,16.2756],[-72.6378,18.2015,26.2891],[-72.6398,18.2067,76.9533],[-72.6386,18.2074,67.6323],[-72.6397,18.2142,105.1028],[-72.6416,18.2158,112.2148],[-72.6404,18.2233,178.8648],[-72.6422,18.2247,152.226],[-72.6409,18.2254,201.3196],[-72.6427,18.2254,152.226],[-72.6426,18.2268,148.6092],[-72.6448,18.2258,154.3102],[-72.6475,18.2311,214.0474],[-72.6508,18.2307,196.2373],[-72.6532,18.2361,272.3916],[-72.6507,18.2382,281.2954],[-72.6514,18.2454,345.008],[-72.6459,18.2502,401.2313],[-72.6395,18.2595,584.9298],[-72.6502,18.2642,655.3213],[-72.6482,18.2671,699.7172],[-72.6419,18.2692,634.4814],[-72.6466,18.2755,611.3915],[-72.6482,18.2746,634.1296],[-72.6493,18.2774,559.0729],[-72.6523,18.2767,658.625],[-72.6531,18.2782,589.0017],[-72.6364,18.2855,363.5052],[-72.6303,18.2949,206.1348],[-72.6308,18.2965,165.9044],[-72.6453,18.2993,250.8512],[-72.6484,18.2981,234.2483],[-72.6542,18.2922,333.0246],[-72.655,18.2946,328.8412],[-72.6584,18.2955,332.5049],[-72.6602,18.2952,358.0643],[-72.6603,18.2936,336.6018],[-72.6628,18.2939,359.9038],[-72.6658,18.2973,380.5652],[-72.6718,18.2935,527.912],[-72.6802,18.2919,483.2148],[-72.6906,18.2958,579.415],[-72.6964,18.2896,461.2549],[-72.6988,18.2909,485.5896],[-72.7055,18.2892,593.2933],[-72.7102,18.2937,689.8567],[-72.7087,18.2962,711.2384],[-72.7123,18.2952,750.4915],[-72.7164,18.3029,733.533],[-72.7247,18.3057,890.8835],[-72.7266,18.3108,949.2297],[-72.7378,18.3222,1119.3633],[-72.7437,18.3236,1074.8071],[-72.7403,18.3125,1178.3185],[-72.7415,18.3096,1221.1604],[-72.7401,18.3001,1164.1144],[-72.7416,18.2896,1117.5411],[-72.7436,18.2873,1064.6523],[-72.7496,18.2901,1077.3577],[-72.7536,18.2903,1043.2352],[-72.7558,18.2883,745.6382],[-72.763,18.2786,497.1144],[-72.7636,18.2757,403.013],[-72.7617,18.2749,576.306],[-72.7613,18.2685,376.7112],[-72.765,18.2669,402.2009],[-72.7947,18.2754,580.2025],[-72.8086,18.2867,676.7466],[-72.8223,18.287,386.7111],[-72.8275,18.2893,499.6213],[-72.8314,18.2822,461.8468],[-72.8414,18.283,529.636],[-72.8562,18.2811,549.2155],[-72.856,18.2735,484.707],[-72.8506,18.2633,383.8047],[-72.8505,18.2609,373.6235],[-72.8534,18.2582,248.9865],[-72.8607,18.2597,410.6625],[-72.8838,18.2764,460.923],[-72.8874,18.2754,362.3787],[-72.8903,18.2683,329.4544],[-72.9023,18.2594,226.5515],[-72.9024,18.2561,267.75],[-72.8993,18.2505,206.007],[-72.8987,18.2427,169.0309],[-72.8911,18.2353,150.1913],[-72.8851,18.2332,140.2037],[-72.8769,18.235,166.0405],[-72.8593,18.2231,151.1802],[-72.86,18.2215,108.7589],[-72.868,18.2227,180.6642],[-72.8721,18.2208,247.8848],[-72.8752,18.2216,257.4236],[-72.8784,18.2164,329.3385],[-72.8825,18.2137,416.7589],[-72.8853,18.2142,412.737],[-72.8932,18.2107,459.109],[-72.8897,18.2051,454.6175],[-72.8853,18.206,454.4367],[-72.884,18.2023,464.5933],[-72.8864,18.1996,439.9748],[-72.8867,18.1948,430.0271],[-72.8908,18.1889,396.6237],[-72.8915,18.1836,337.5914],[-72.8965,18.1775,196.1004],[-72.9001,18.1692,117.062],[-72.9001,18.1632,42.454],[-72.9025,18.1575,15.545],[-72.9065,18.156,3.3436],[-72.9043,18.156,1.8911],[-72.9026,18.1571,15.545],[-72.9026,18.1549,5.2407],[-72.8976,18.1518,0.0],[-72.8918,18.1499,0.0],[-72.8863,18.151,12.5977],[-72.8863,18.1487,0.0],[-72.8846,18.1482,0.0],[-72.8788,18.1476,0.0],[-72.8735,18.1493,31.5369],[-72.8724,18.1471,2.5069],[-72.8599,18.1432,0.0],[-72.851,18.1437,0.0],[-72.8465,18.1507,15.0013],[-72.834,18.1485,0.0],[-72.8304,18.1457,25.5834],[-72.8238,18.144,43.9877],[-72.8218,18.1415,0.0],[-72.8154,18.1413,0.0],[-72.8057,18.1457,1.713],[-72.7929,18.144,3.1043],[-72.786,18.1465,0.0],[-72.7821,18.1499,1.9678],[-72.7824,18.1582,6.859],[-72.781,18.1596,1.925],[-72.7763,18.1596,3.4163],[-72.7576,18.1535,0.0],[-72.7479,18.154,4.0194],[-72.7462,18.1571,0.0],[-72.7479,18.161,0.0],[-72.7521,18.1621,0.0],[-72.7565,18.169,0.0],[-72.7601,18.1715,0.0],[-72.7585,18.1765,0.0]]]]}
,"properties": {"GID_3": "HTI.9.1.1_1","GID_0": "HTI","country": "Haiti","GID_1": "HTI.9_1","province": "Sud-Est","NL_NAME_1": "NA","GID_2": "HTI.9.1_1","county": "Bainet","NL_NAME_2": "NA","city": "Bainet","VARNAME_3": "NA","NL_NAME_3": "NA","TYPE_3": "Commune","ENGTYPE_3": "Commune","CC_3": "NA","HASC_3": "NA","name": "Bainet.city","area_km2": 358.5705,"hist_schema_id": "Elevation0-9000","hist_area_km2": {"0": 5.9832,"25": 12.7718,"50": 10.1323,"75": 12.0054,"100": 14.2612,"125": 19.3367,"150": 18.8522,"175": 18.8721,"200": 21.1474,"225": 20.1399,"250": 19.3339,"275": 17.8434,"300": 15.245,"325": 14.6203,"350": 13.593,"375": 13.0289,"400": 11.9414,"425": 12.0015,"450": 9.5244,"475": 7.8528,"500": 6.8659,"525": 5.8591,"550": 5.8993,"575": 5.6979,"600": 5.0334,"625": 5.4159,"650": 4.993,"675": 4.4696,"700": 4.0267,"725": 4.087,"750": 3.3823,"775": 2.5166,"800": 1.8522,"825": 1.2482,"850": 0.6845,"875": 0.5234,"900": 0.5435,"925": 0.4026,"950": 0.5637,"975": 0.4831,"1000": 0.7247,"1025": 0.5032,"1050": 0.624,"1075": 1.0065,"1100": 0.8253,"1125": 0.4227,"1150": 0.4026,"1175": 0.7247,"1200": 0.2013,"1225": 0.1006}}}