{"type": "Feature","id": "5137","bbox": [-64.74267,32.31696,-64.69492,32.35251],"geometry": {"type": "MultiPolygon","coordinates": [[[[-64.74026,32.32404,3.9952],[-64.74267,32.32175,14.2828],[-64.73966,32.31696,43.8199],[-64.73123,32.32309,0.0],[-64.736,32.32288,0.9291],[-64.74026,32.32404,3.9952]]],
[[[-64.70538,32.33606,0.0],[-64.71391,32.32947,0.0],[-64.70729,32.32119,0.0],[-64.6984,32.32637,0.0],[-64.70538,32.33606,0.0]]],
[[[-64.70538,32.33606,0.0],[-64.69492,32.33993,0.0],[-64.70499,32.34304,3.6706],[-64.70809,32.35156,0.0],[-64.72202,32.35251,0.0],[-64.73639,32.34381,2.3229],[-64.74166,32.33307,0.7015],[-64.73949,32.32869,5.9337],[-64.73474,32.3277,0.0],[-64.7329,32.33373,0.0],[-64.72464,32.33879,0.0],[-64.71313,32.34265,0.0],[-64.70538,32.33606,0.0]]]]}
,"properties": {"ISO3166-1-Alpha-3": "BMU","country": "Bermuda","fill": "#F0F","name": "Hamilton","area_km2": 6.44898,"hist_schema_id": "Elevation0-9000","hist_area_km2": {"0": 3.905264,"25": 2.167531,"50": 0.376185}}}