{"type":"Feature","properties":{"GID_1":"BMU.3_1","GID_0":"BMU","country":"Bermuda","province":"HamiltonMunicipality","VARNAME_1":"NA","NL_NAME_1":"NA","TYPE_1":"Municipality","ENGTYPE_1":"Municipality","CC_1":"NA","HASC_1":"BM.HC","ISO_1":"NA","name":"Hamilton_Municipality.province"},
"geometry":{"type": "MultiPolygon","coordinates": [[[[-64.796,32.2903,0.0],[-64.7878,32.2889,0.0],[-64.7853,32.2914,1.2772],[-64.778,32.2913,0.0],[-64.7772,32.2941,26.325],[-64.7797,32.2974,11.7128],[-64.7902,32.2969,4.8375],[-64.796,32.2903,0.0]]]]}}