{"type":"Feature","properties":{"GID_1":"PRI.47_1","GID_0":"PRI","country":"PuertoRico","province":"Manatí","VARNAME_1":"NA","NL_NAME_1":"NA","TYPE_1":"Municipio","ENGTYPE_1":"Municipality","CC_1":"NA","HASC_1":"PR.MT","ISO_1":"NA","name":"Manatí.province"},
"geometry":{"type": "MultiPolygon","coordinates": [[[[-66.5426,18.4046,150.1993],[-66.534,18.3882,204.8019],[-66.5311,18.3706,234.8869],[-66.5338,18.3515,257.3741],[-66.531,18.3501,264.753],[-66.5287,18.3502,259.1819],[-66.5116,18.3622,219.0859],[-66.4964,18.3661,224.0781],[-66.4774,18.3666,85.2201],[-66.4668,18.3719,251.6345],[-66.4441,18.3711,220.859],[-66.4488,18.3892,187.9463],[-66.4419,18.4021,144.2864],[-66.4396,18.4097,141.2273],[-66.4388,18.4863,6.4073],[-66.4413,18.4849,14.2255],[-66.4432,18.4774,0.0],[-66.4449,18.4771,0.0],[-66.4493,18.4707,4.5954],[-66.4579,18.4685,9.5954],[-66.4821,18.471,4.262],[-66.4835,18.4737,0.0],[-66.4974,18.4774,0.0],[-66.4999,18.4774,0.0],[-66.501,18.4749,4.7111],[-66.5079,18.4779,1.004],[-66.5124,18.4771,2.7627],[-66.5182,18.4813,1.1152],[-66.5229,18.4818,5.929],[-66.5249,18.4846,2.042],[-66.5329,18.4821,0.0],[-66.5342,18.4788,0.215],[-66.5308,18.4731,2.1968],[-66.5303,18.4664,2.9228],[-66.5325,18.4607,3.7259],[-66.5372,18.4568,4.4101],[-66.5376,18.454,5.6325],[-66.5302,18.4569,2.3977],[-66.526,18.454,3.5074],[-66.5302,18.4502,4.2536],[-66.538,18.4468,5.6055],[-66.5399,18.4435,6.4177],[-66.5366,18.4349,6.8194],[-66.531,18.4345,6.3731],[-66.5254,18.4307,6.7903],[-66.5268,18.4264,16.3472],[-66.5296,18.4245,50.8315],[-66.5434,18.4187,95.7626],[-66.5426,18.4046,150.1993]]]]}}