{"type":"Feature","properties":{"GID_2":"DOM.4.5_1","GID_0":"DOM","country":"DominicanRepublic","GID_1":"DOM.4_1","province":"Dajabón","NL_NAME_1":"NA","county":"Restauración","VARNAME_2":"NA","NL_NAME_2":"NA","TYPE_2":"Municipio","ENGTYPE_2":"Municipality","CC_2":"NA","HASC_2":"DO.DA.RE","name":"Restauración.county"},
"geometry":{"type": "MultiPolygon","coordinates": [[[[-71.5318,19.3343,929.5044],[-71.5428,19.3355,1030.4062],[-71.5538,19.3302,797.1591],[-71.5688,19.333,963.1429],[-71.5756,19.328,782.3933],[-71.58,19.328,727.7945],[-71.5877,19.3379,782.6978],[-71.5906,19.3452,720.0313],[-71.601,19.3519,601.3085],[-71.6061,19.3612,608.4386],[-71.6079,19.3692,443.7186],[-71.6138,19.3726,443.7505],[-71.6186,19.3722,468.4348],[-71.6245,19.3677,390.4516],[-71.6323,19.3692,369.9916],[-71.6344,19.3632,420.441],[-71.6366,19.3618,320.3918],[-71.6839,19.362,700.3961],[-71.6917,19.3644,558.7714],[-71.6984,19.3643,570.0355],[-71.7004,19.3689,566.3098],[-71.7118,19.3767,743.5149],[-71.7126,19.3736,832.2413],[-71.7145,19.3728,943.5835],[-71.7153,19.3675,840.3613],[-71.7169,19.3684,843.6118],[-71.7182,19.3628,850.5303],[-71.7244,19.3666,823.5289],[-71.7316,19.3606,786.956],[-71.735,19.3607,830.9827],[-71.7375,19.3581,787.4423],[-71.744,19.3563,779.0333],[-71.7466,19.3546,695.2416],[-71.7494,19.344,801.9247],[-71.769,19.3428,713.3352],[-71.7831,19.3354,606.8884],[-71.7804,19.3334,605.6722],[-71.7764,19.3334,616.0488],[-71.7737,19.3307,613.555],[-71.7737,19.3268,608.8408],[-71.7709,19.3268,609.6526],[-71.7709,19.3241,602.444],[-71.767,19.3253,606.5391],[-71.7651,19.3241,615.0394],[-71.767,19.3222,601.1274],[-71.7643,19.3206,614.1545],[-71.7635,19.316,592.8947],[-71.7623,19.316,598.5897],[-71.7615,19.3121,602.1639],[-71.7595,19.3113,599.3118],[-71.7615,19.3074,585.251],[-71.7595,19.3074,592.5428],[-71.7595,19.3094,596.0159],[-71.7588,19.3074,592.5428],[-71.7556,19.3074,596.7775],[-71.7568,19.3055,592.9157],[-71.7529,19.3047,602.9501],[-71.7529,19.302,590.7498],[-71.7568,19.3008,570.1798],[-71.7561,19.2976,571.3362],[-71.7576,19.2973,570.1053],[-71.7576,19.2954,578.4927],[-71.7529,19.2954,586.8492],[-71.7501,19.2934,589.4402],[-71.7501,19.2868,623.5698],[-71.752,19.2868,595.7151],[-71.752,19.2841,585.0573],[-71.7462,19.2833,577.348],[-71.7446,19.2814,559.6759],[-71.7454,19.2787,546.472],[-71.7367,19.2814,572.6389],[-71.736,19.2834,598.9302],[-71.7352,19.2729,551.0553],[-71.7285,19.2663,543.6132],[-71.7273,19.2663,556.2704],[-71.7285,19.2721,504.0906],[-71.7273,19.2721,526.6542],[-71.7265,19.2768,513.1166],[-71.7246,19.2776,490.8728],[-71.7246,19.2814,522.6943],[-71.7218,19.2822,571.1141],[-71.7199,19.2803,533.4589],[-71.7191,19.2756,546.0088],[-71.721,19.2721,507.7831],[-71.7151,19.271,565.8232],[-71.7132,19.2721,570.5851],[-71.7085,19.2655,500.547],[-71.7049,19.2648,535.5625],[-71.703,19.2617,536.0748],[-71.7049,19.257,484.9562],[-71.6975,19.2496,491.0956],[-71.6943,19.2488,501.4559],[-71.6935,19.245,467.2346],[-71.6888,19.2469,464.1407],[-71.6868,19.243,457.7571],[-71.6821,19.2442,469.6034],[-71.6794,19.243,456.3392],[-71.6821,19.2415,438.3289],[-71.6774,19.2415,440.0875],[-71.6747,19.2368,427.7964],[-71.6739,19.2403,424.2395],[-71.668,19.2403,443.9886],[-71.6672,19.2376,447.6111],[-71.6653,19.2396,434.9917],[-71.6613,19.2337,487.947],[-71.6606,19.2349,445.5286],[-71.6472,19.2338,405.8403],[-71.6456,19.2349,405.8403],[-71.6417,19.233,415.1351],[-71.6409,19.2349,440.3174],[-71.6398,19.2338,440.3174],[-71.6378,19.235,444.4206],[-71.6378,19.2338,444.4206],[-71.6362,19.235,422.6342],[-71.6351,19.2329,408.8178],[-71.637,19.2291,448.166],[-71.635,19.2311,408.5609],[-71.635,19.2291,399.3464],[-71.6323,19.2303,419.0742],[-71.6319,19.2266,405.5765],[-71.6278,19.2262,465.7383],[-71.6227,19.2298,487.168],[-71.618,19.2365,478.9785],[-71.6109,19.2384,507.4784],[-71.6045,19.2448,499.6704],[-71.5945,19.2431,537.4963],[-71.5888,19.2459,727.918],[-71.5865,19.2495,667.4957],[-71.5855,19.2596,555.2007],[-71.5783,19.2766,552.4882],[-71.5727,19.2762,522.0911],[-71.5699,19.2717,555.2585],[-71.5579,19.2655,597.6343],[-71.5537,19.2659,579.0806],[-71.5467,19.2705,608.5341],[-71.5418,19.2703,645.0895],[-71.5148,19.2564,868.6921],[-71.5098,19.2575,1004.4752],[-71.5071,19.2649,856.8466],[-71.4955,19.27,697.3826],[-71.4996,19.2799,851.1743],[-71.5,19.2875,795.3734],[-71.499,19.2907,928.3893],[-71.493,19.2971,1109.6781],[-71.4929,19.3005,1056.7571],[-71.499,19.306,1061.4426],[-71.5054,19.3087,1028.2676],[-71.5128,19.3318,768.0352],[-71.5318,19.3343,929.5044]]]]}}