{"type": "Feature","bbox": [-70.2801,18.2739,-70.1185,18.4047],"geometry": {"type": "MultiPolygon","coordinates": [[[[-70.2099,18.3067,25.8705],[-70.2037,18.3066,34.3464],[-70.2009,18.3049,31.3328],[-70.1983,18.3001,29.7468],[-70.1974,18.2899,26.7273],[-70.1942,18.2849,20.1354],[-70.1834,18.2806,52.6944],[-70.1739,18.2739,88.0367],[-70.1711,18.2847,111.4009],[-70.1693,18.2862,105.5999],[-70.1525,18.2784,70.206],[-70.147,18.279,57.8061],[-70.1339,18.2861,60.3319],[-70.1423,18.2927,87.8451],[-70.1425,18.2965,97.8031],[-70.1293,18.3027,82.65],[-70.1211,18.3038,55.8742],[-70.1191,18.3058,56.8877],[-70.1199,18.3104,64.5132],[-70.1185,18.3162,72.1157],[-70.1264,18.3302,80.7606],[-70.126,18.3342,65.4279],[-70.1216,18.3406,73.3748],[-70.1215,18.3434,75.7375],[-70.1252,18.3501,42.2949],[-70.1291,18.3532,49.7101],[-70.1393,18.3513,48.2939],[-70.1453,18.3526,53.4371],[-70.151,18.367,77.4943],[-70.1554,18.3694,94.8818],[-70.1607,18.3763,124.6752],[-70.1729,18.3795,158.3626],[-70.1899,18.3811,227.384],[-70.1972,18.3914,309.1754],[-70.1961,18.398,414.4402],[-70.2094,18.4047,613.1486],[-70.2166,18.4043,446.1209],[-70.2214,18.3944,382.4059],[-70.228,18.3914,231.816],[-70.243,18.3917,255.0947],[-70.2587,18.3955,201.7545],[-70.2657,18.3993,145.0],[-70.2685,18.3989,145.0],[-70.2723,18.386,267.7649],[-70.2796,18.3858,89.5768],[-70.2801,18.3815,158.5277],[-70.2759,18.3777,87.0474],[-70.2729,18.3784,134.1663],[-70.2693,18.3832,196.2952],[-70.2638,18.3801,270.7284],[-70.2605,18.3723,114.4225],[-70.2606,18.3583,180.5439],[-70.2591,18.3556,181.2778],[-70.2566,18.3558,145.3179],[-70.2475,18.3631,59.3823],[-70.2403,18.3625,188.9685],[-70.2369,18.3567,164.6851],[-70.2363,18.3423,85.4601],[-70.233,18.3308,47.2008],[-70.2215,18.3234,57.0029],[-70.2181,18.3139,33.8823],[-70.211,18.3113,36.5564],[-70.2099,18.3067,25.8705]]]]}
,"properties": {"GID_2": "DOM.24.7_1","GID_0": "DOM","country": "DominicanRepublic","GID_1": "DOM.24_1","province": "SanCristóbal","NL_NAME_1": "NA","county": "SanGregoriodeYaguate","VARNAME_2": "NA","NL_NAME_2": "NA","TYPE_2": "Municipio","ENGTYPE_2": "Municipality","CC_2": "NA","HASC_2": "DO.CR.SG","name": "San_Gregoriode_Yaguate.county","area_km2": 122.86344,"hist_schema_id": "Elevation0-9000","hist_area_km2": {"25": 7.12564,"50": 16.10131,"75": 25.72111,"100": 21.57562,"125": 15.25569,"150": 7.50655,"175": 3.96411,"200": 3.70235,"225": 4.04434,"250": 3.54126,"275": 2.71631,"300": 2.63581,"325": 1.91145,"350": 1.71022,"375": 1.14685,"400": 0.88526,"425": 0.78465,"450": 0.50297,"475": 0.56333,"500": 0.40237,"525": 0.24142,"550": 0.24142,"575": 0.14083,"600": 0.2213,"625": 0.08047,"650": 0.10059,"675": 0.04024}}}