{"type":"Feature","properties":{"GID_2":"DOM.15.2_1","GID_0":"DOM","country":"DominicanRepublic","GID_1":"DOM.15_1","province":"MaríaTrinidadSánchez","NL_NAME_1":"NA","county":"ElFactor","VARNAME_2":"NA","NL_NAME_2":"NA","TYPE_2":"Municipio","ENGTYPE_2":"Municipality","CC_2":"NA","HASC_2":"DO.MT.EF","name":"El_Factor.county"},
"geometry":{"type": "MultiPolygon","coordinates": [[[[-69.8591,19.2297,17.5289],[-69.8552,19.2441,6.8697],[-69.8492,19.2554,9.0717],[-69.8414,19.265,3.5165],[-69.8418,19.2689,3.6848],[-69.8469,19.2792,2.5071],[-69.8475,19.2955,1.235],[-69.8532,19.3065,1.4685],[-69.8495,19.3197,1.7823],[-69.8442,19.3283,0.9309],[-69.8515,19.3362,1.2765],[-69.8667,19.3357,17.1099],[-69.8767,19.3403,35.8815],[-69.8883,19.3483,78.9478],[-69.8975,19.3479,88.5179],[-69.912,19.3415,90.7258],[-69.9213,19.3424,132.0163],[-69.9265,19.3377,167.7861],[-69.9285,19.3297,341.4827],[-69.9353,19.3251,393.2837],[-69.938,19.3196,356.387],[-69.948,19.32,168.0184],[-69.9535,19.3154,154.7476],[-69.9537,19.3104,205.8195],[-69.9454,19.3029,166.8138],[-69.9456,19.2992,145.3463],[-69.9479,19.2979,177.5888],[-69.967,19.3061,355.9573],[-69.9852,19.3069,308.8124],[-69.9938,19.3118,416.5604],[-70.0163,19.316,366.8625],[-70.0165,19.3006,152.7995],[-70.012,19.2921,81.2592],[-70.0189,19.2812,425.1602],[-70.02,19.2755,352.7802],[-70.0147,19.2714,372.558],[-69.9771,19.2649,314.0127],[-69.967,19.2667,331.1184],[-69.9556,19.2575,259.7931],[-69.9355,19.2474,144.7776],[-69.9306,19.2477,149.4769],[-69.9236,19.2524,113.5728],[-69.9194,19.2524,106.9671],[-69.9164,19.25,88.2809],[-69.9134,19.2426,159.6196],[-69.8961,19.2407,100.6526],[-69.888,19.2297,190.7401],[-69.8848,19.2275,187.4599],[-69.8744,19.2297,45.7541],[-69.8591,19.2297,17.5289]]]]}}