{"type": "Feature","bbox": [-70.7182,19.0368,-70.2669,19.367],"geometry": {"type": "MultiPolygon","coordinates": [[[[-70.3555,19.2242,62.9657],[-70.4051,19.2254,65.8258],[-70.4062,19.2326,67.6267],[-70.4046,19.2449,71.1451],[-70.4074,19.2495,73.8622],[-70.4076,19.2531,75.6328],[-70.4112,19.2573,78.3309],[-70.4091,19.265,81.2509],[-70.4096,19.2807,89.3047],[-70.4124,19.2833,91.4698],[-70.4219,19.2852,93.5998],[-70.4349,19.295,101.7228],[-70.4358,19.3002,104.077],[-70.4335,19.3092,114.0915],[-70.4367,19.3154,117.903],[-70.4437,19.323,124.4465],[-70.4422,19.33,132.2168],[-70.4505,19.3364,139.6239],[-70.4593,19.3302,133.4245],[-70.4679,19.3278,132.8622],[-70.4725,19.3077,111.9868],[-70.483,19.3013,112.9004],[-70.4912,19.3014,114.5324],[-70.4952,19.3057,117.6092],[-70.495,19.3165,120.3508],[-70.4863,19.3322,130.7093],[-70.5073,19.346,141.9846],[-70.5131,19.3481,146.4784],[-70.5224,19.3464,145.7123],[-70.5321,19.3409,126.9639],[-70.5745,19.3416,183.1027],[-70.5871,19.3489,220.1476],[-70.5983,19.3508,212.4022],[-70.6067,19.367,204.6441],[-70.6149,19.364,199.7982],[-70.6288,19.3656,206.5788],[-70.6317,19.3605,213.3548],[-70.6326,19.3502,252.0171],[-70.6383,19.3399,262.2634],[-70.647,19.3337,277.1141],[-70.6595,19.3292,324.1732],[-70.6663,19.3202,373.7937],[-70.6677,19.3115,401.894],[-70.665,19.3035,419.5685],[-70.6631,19.2881,413.3432],[-70.6667,19.2823,429.0294],[-70.667,19.2751,443.1676],[-70.6756,19.2743,402.1416],[-70.6829,19.282,443.739],[-70.7,19.2862,376.4221],[-70.707,19.2907,370.0894],[-70.7103,19.29,326.0091],[-70.7182,19.2828,322.0],[-70.7097,19.2723,329.4666],[-70.7006,19.2707,328.9722],[-70.6941,19.2664,335.6169],[-70.6858,19.265,322.0],[-70.6722,19.2581,392.8293],[-70.6766,19.2487,357.3407],[-70.671,19.2446,353.7182],[-70.6684,19.2403,513.9286],[-70.6735,19.2334,562.3804],[-70.6706,19.2257,645.3917],[-70.6734,19.2164,513.0117],[-70.6715,19.2131,578.124],[-70.6728,19.1986,503.474],[-70.6647,19.1894,475.7195],[-70.6647,19.1866,500.0657],[-70.6447,19.1858,593.8831],[-70.6352,19.1836,586.1612],[-70.627,19.1908,555.8414],[-70.6198,19.1943,499.086],[-70.6076,19.1929,539.2416],[-70.5966,19.2001,514.9905],[-70.5915,19.2099,393.936],[-70.5792,19.2186,218.5162],[-70.5769,19.218,180.6105],[-70.5736,19.2132,290.9398],[-70.5672,19.2083,178.8358],[-70.5631,19.2014,193.5704],[-70.5586,19.1975,319.6992],[-70.5578,19.1944,333.4935],[-70.5598,19.188,263.4902],[-70.5592,19.1826,303.3927],[-70.566,19.1705,291.05],[-70.5573,19.1402,418.7797],[-70.5659,19.1279,542.7872],[-70.5562,19.1052,921.078],[-70.5571,19.0993,860.9653],[-70.5542,19.0914,961.0464],[-70.543,19.0895,1014.2418],[-70.5387,19.086,1226.6794],[-70.5384,19.0777,1138.7142],[-70.5234,19.0594,1289.9783],[-70.525,19.0447,1288.9138],[-70.5279,19.0419,1266.1807],[-70.5182,19.0368,1429.1387],[-70.5145,19.0376,1325.9221],[-70.516,19.0447,1372.2496],[-70.5145,19.057,1229.5046],[-70.5213,19.0732,1145.3003],[-70.5226,19.0811,1122.2598],[-70.5321,19.0909,1121.6492],[-70.5323,19.0937,1131.4841],[-70.5234,19.0962,769.4078],[-70.518,19.1006,664.4144],[-70.5085,19.1017,709.2698],[-70.5039,19.1061,925.371],[-70.4976,19.1067,998.298],[-70.493,19.1041,893.3645],[-70.4888,19.0955,846.2439],[-70.4831,19.0892,801.7143],[-70.4789,19.0869,642.1174],[-70.4751,19.0875,661.3729],[-70.4685,19.0952,651.4824],[-70.474,19.101,589.5804],[-70.4767,19.1092,550.0858],[-70.4688,19.1226,373.7171],[-70.4641,19.1231,187.8602],[-70.4575,19.1206,178.746],[-70.454,19.1218,196.1713],[-70.4537,19.1343,191.7196],[-70.4564,19.143,111.1243],[-70.4532,19.159,80.1564],[-70.4415,19.1706,62.1929],[-70.413,19.1742,59.1324],[-70.4075,19.1803,58.9876],[-70.4053,19.1809,59.1878],[-70.3865,19.1704,56.7678],[-70.381,19.1629,62.2238],[-70.3702,19.165,56.5285],[-70.3611,19.1649,52.5041],[-70.3547,19.1576,53.8962],[-70.3474,19.1582,50.4997],[-70.3416,19.1522,53.7698],[-70.3279,19.1457,52.3022],[-70.3198,19.1476,50.5252],[-70.3135,19.1463,49.3328],[-70.3058,19.1474,48.2679],[-70.2959,19.1441,48.5809],[-70.2944,19.1423,47.1288],[-70.2953,19.1378,48.9448],[-70.2928,19.1365,45.439],[-70.2833,19.1393,48.2986],[-70.276,19.1369,51.0777],[-70.2672,19.1398,53.4261],[-70.2669,19.1436,47.6666],[-70.2713,19.1458,45.0847],[-70.2753,19.1504,45.4703],[-70.2792,19.1517,44.6672],[-70.2868,19.158,45.2271],[-70.2993,19.1627,47.5243],[-70.3034,19.1669,47.7833],[-70.3149,19.1716,51.4789],[-70.3247,19.1843,54.8418],[-70.3275,19.1914,55.1851],[-70.3509,19.2055,59.8887],[-70.3553,19.2117,61.0566],[-70.3555,19.2242,62.9657]]]]}
,"properties": {"GID_2": "DOM.14.1_1","GID_0": "DOM","country": "DominicanRepublic","GID_1": "DOM.14_1","province": "LaVega","NL_NAME_1": "NA","county": "ConcepcióndelaVega","VARNAME_2": "NA","NL_NAME_2": "NA","TYPE_2": "Municipio","ENGTYPE_2": "Municipality","CC_2": "NA","HASC_2": "DO.VE.CV","name": "Concepcióndela_Vega.county","area_km2": 631.2999,"hist_schema_id": "Elevation0-9000","hist_area_km2": {"50": 72.4111,"75": 100.5827,"100": 85.0697,"125": 47.7494,"150": 24.2767,"175": 22.4555,"200": 24.3346,"225": 24.495,"250": 18.953,"275": 18.6939,"300": 19.3151,"325": 20.7574,"350": 18.1563,"375": 16.3349,"400": 12.5721,"425": 9.2295,"450": 7.5482,"475": 6.3872,"500": 5.5469,"525": 6.2881,"550": 7.1894,"575": 8.3506,"600": 8.4102,"625": 6.4481,"650": 5.3268,"675": 3.605,"700": 3.1446,"725": 2.4237,"750": 2.4239,"775": 2.0033,"800": 1.7428,"825": 1.8631,"850": 1.5626,"875": 1.0217,"900": 1.0618,"925": 1.182,"950": 0.8414,"975": 0.7012,"1000": 0.6812,"1025": 0.7212,"1050": 0.4808,"1075": 0.581,"1100": 0.4207,"1125": 0.6612,"1150": 0.541,"1175": 0.7013,"1200": 0.541,"1225": 0.9819,"1250": 1.1021,"1275": 1.0821,"1300": 0.9218,"1325": 0.3206,"1350": 0.4409,"1375": 0.2806,"1400": 0.1603,"1425": 0.1804,"1450": 0.0401}}}