{"type": "Feature","bbox": [-109.23424,10.28156,-109.21036,10.31102],"geometry": {"type": "Polygon","coordinates": [[[-109.21203,10.30268,-1.0],[-109.22594,10.31102,-1.0],[-109.23424,10.30793,1.6472],[-109.22802,10.29214,0.0],[-109.21858,10.28156,0.0],[-109.21036,10.28872,1.1388],[-109.21203,10.30268,-1.0]]]}
,"properties": {"ISO3166-1-Alpha-3": "CLP","country": "Clipperton Island","name": "Clipperton Island","area_km2": 4.985709,"hist_schema_id": "Elevation0-9000","hist_area_km2": {"0": 4.985709}}}