{"type":"Feature","properties":{"GID_2":"MTQ.4.7_1","GID_0":"MTQ","country":"Martinique","GID_1":"MTQ.4_1","province":"Saint-Pierre","NL_NAME_1":"NA","county":"LePrêcheur","VARNAME_2":"NA","NL_NAME_2":"NA","TYPE_2":"Commune","ENGTYPE_2":"Commune","CC_2":"NA","HASC_2":"MQ.SP.PR","name":"Le_Prêcheur.county"},
"geometry":{"type": "MultiPolygon","coordinates": [[[[-61.1993,14.8632,71.75],[-61.2082,14.861,0.0],[-61.2076,14.859,61.7758],[-61.2101,14.8582,70.3735],[-61.2124,14.8529,112.0804],[-61.2149,14.8512,0.0],[-61.2137,14.849,119.2187],[-61.2185,14.8471,0.0],[-61.2187,14.8426,58.9826],[-61.2232,14.8385,0.0],[-61.2229,14.836,87.485],[-61.2262,14.8321,0.0],[-61.229,14.8221,45.538],[-61.2287,14.8118,38.1104],[-61.2262,14.8076,19.2907],[-61.2274,14.8032,0.0],[-61.2218,14.7976,23.7662],[-61.2207,14.7924,16.2536],[-61.2137,14.7815,0.8614],[-61.2031,14.7952,190.6005],[-61.1716,14.8119,1002.855],[-61.1665,14.8187,1248.6877],[-61.1812,14.8197,782.9643],[-61.1866,14.8224,579.978],[-61.1993,14.8632,71.75]]]]}}