{"type": "Feature","bbox": [-61.0332,13.8671,-60.9281,14.0383],"geometry": {"type": "MultiPolygon","coordinates": [[[[-60.9894,13.8759,184.598],[-60.9878,13.8708,241.3062],[-60.9834,13.8671,287.2006],[-60.9733,13.8709,433.1369],[-60.9683,13.8851,346.2084],[-60.9714,13.8975,339.6656],[-60.9593,13.9107,299.9464],[-60.9594,13.9239,279.3703],[-60.957,13.9323,259.5227],[-60.9449,13.9485,319.8261],[-60.9437,13.9532,347.5748],[-60.9443,13.9617,410.6504],[-60.9491,13.9721,260.5199],[-60.9433,13.9767,183.7091],[-60.9418,13.9817,142.8753],[-60.9301,13.9883,110.1672],[-60.9281,13.9938,48.8697],[-60.9293,13.9987,61.0739],[-60.9386,14.0125,217.2261],[-60.9553,14.0157,53.1433],[-60.9604,14.0275,36.8525],[-60.9726,14.0383,0.0],[-60.9774,14.0315,5.4231],[-60.9801,14.0315,2.2366],[-60.9818,14.0265,2.8825],[-60.9899,14.0221,0.0],[-60.996,14.0213,2.5956],[-60.9982,14.0246,6.4985],[-61.0013,14.0254,19.2942],[-61.0054,14.0243,0.0],[-61.0062,14.0218,0.0],[-61.0029,14.0207,10.3536],[-61.0024,14.0168,0.0],[-60.9982,14.0165,1.1393],[-60.9965,14.0135,0.0],[-60.9932,14.0143,0.0],[-60.9912,14.0129,0.0],[-60.9974,14.0104,10.5264],[-61.0013,14.0118,4.2629],[-61.0026,14.0154,0.0],[-61.0057,14.0154,3.2481],[-61.0074,14.0171,0.0],[-61.0088,14.0096,10.6374],[-61.0118,14.009,0.0],[-61.0137,14.0104,0.0],[-61.0157,14.0074,0.0],[-61.0146,14.0051,48.0841],[-61.0165,14.004,0.0],[-61.0143,13.9951,9.2418],[-61.016,13.9943,0.0],[-61.0165,13.9913,10.1564],[-61.0154,13.9876,0.0],[-61.0124,13.9879,7.8859],[-61.0115,13.9849,2.3538],[-61.0163,13.9824,0.0],[-61.0163,13.9865,0.0],[-61.0221,13.9849,13.6226],[-61.0274,13.9865,11.161],[-61.0268,13.981,16.3378],[-61.0301,13.9699,0.0],[-61.0257,13.9654,17.9155],[-61.0304,13.9668,0.0],[-61.0332,13.9601,0.0],[-61.0283,13.9567,23.0653],[-61.0228,13.9571,8.3439],[-61.0087,13.9518,13.2275],[-60.9978,13.951,12.6525],[-60.9907,13.9467,17.0681],[-60.992,13.9281,32.549],[-60.9839,13.9194,85.7533],[-60.9884,13.8937,136.637],[-60.9878,13.8895,130.894],[-60.9838,13.8849,147.5508],[-60.9839,13.882,192.2627],[-60.9894,13.8759,184.598]]]]}
,"properties": {"GID_1": "LCA.3_1","GID_0": "LCA","country": "SaintLucia","province": "Castries","VARNAME_1": "NA","NL_NAME_1": "NA","TYPE_1": "Quarter","ENGTYPE_1": "Quarter","CC_1": "NA","HASC_1": "LC.CS","ISO_1": "LC-02","name": "Castries.province","area_km2": 95.05757,"hist_schema_id": "Elevation0-9000","hist_area_km2": {"0": 9.03158,"25": 11.52148,"50": 9.44353,"75": 9.40252,"100": 9.38197,"125": 8.04482,"150": 7.65388,"175": 7.13972,"200": 6.31688,"225": 4.77395,"250": 3.53937,"275": 2.59295,"300": 2.20196,"325": 1.62575,"350": 1.23471,"375": 0.55566,"400": 0.39103,"425": 0.12349,"450": 0.02058,"475": 0.02058,"500": 0.04115}}}