{"type":"Feature","properties":{"ISO3166-1-Alpha-3":"LCA","country":"Saint Lucia","fill":"#FF0","id":"5077","name":"Castries"},
"geometry":{"type": "Polygon","coordinates": [[[-60.93559,14.01796,287.5096],[-60.95807,14.02188,43.3076],[-60.96559,14.03442,19.8392],[-60.97997,14.043519999999999,0.0],[-60.98233,14.03734,0.0],[-60.98729,14.03254,0.0],[-60.99706,14.02717,0.0],[-61.00227,14.02314,66.1485],[-61.0266,13.98737,0.0],[-61.00945,13.98178,4.0783],[-60.99191,13.97802,14.0805],[-60.98439,13.96549,119.9416],[-60.98188,13.94543,146.5124],[-60.98063,13.92413,153.2018],[-60.98063,13.9116,234.6061],[-60.98063,13.8928,284.8091],[-60.97185,13.88277,311.5538],[-60.96057,13.87901,327.867],[-60.96057,13.90032,216.994],[-60.95681,13.92789,268.6984],[-60.94679,13.95421,310.4758],[-60.94052,13.97927,206.5923],[-60.93676,14.00935,218.4807],[-60.93559,14.01796,287.5096]]]}}