{"type":"Feature","properties":{"GID_2":"CUB.10.3_1","GID_0":"CUB","country":"Cuba","GID_1":"CUB.10_1","province":"LasTunas","NL_NAME_1":"NA","county":"JesúsMenéndez","VARNAME_2":"NA","NL_NAME_2":"NA","TYPE_2":"Municipio","ENGTYPE_2":"Municipality","CC_2":"NA","HASC_2":"CU.LT.JM","name":"Jesús_Menéndez.county"},
"geometry":{"type": "MultiPolygon","coordinates": [[[[-76.502,21.0394,47.0071],[-76.4915,21.0445,43.8731],[-76.476,21.0488,48.476],[-76.4656,21.0575,46.6864],[-76.4283,21.101,39.4512],[-76.4096,21.1186,32.7556],[-76.3835,21.1174,27.4642],[-76.3652,21.1262,44.4791],[-76.3514,21.1376,32.3274],[-76.3431,21.1424,29.4122],[-76.3183,21.1459,22.8145],[-76.3084,21.1505,27.3242],[-76.306,21.1561,19.3954],[-76.307,21.1587,23.0014],[-76.3176,21.1633,21.0334],[-76.3177,21.1692,23.9465],[-76.3043,21.1891,8.796],[-76.3024,21.206,7.9568],[-76.3005,21.2404,1.8478],[-76.304,21.2432,0.0],[-76.3085,21.251,1.2792],[-76.3132,21.2538,0.0],[-76.316,21.2518,2.1645],[-76.3218,21.2521,0.0],[-76.3285,21.2571,0.0],[-76.3332,21.2551,0.0],[-76.339,21.2571,0.0],[-76.3424,21.2607,0.0],[-76.3465,21.2621,0.3997],[-76.3532,21.269,0.0],[-76.3565,21.2687,0.0],[-76.3596,21.271,0.0],[-76.3629,21.2704,1.6166],[-76.3657,21.2721,0.0],[-76.3679,21.2713,1.4383],[-76.3701,21.2732,0.2302],[-76.3735,21.2721,0.0],[-76.3801,21.2771,0.0],[-76.3874,21.2785,0.9105],[-76.4293,21.2813,0.0],[-76.4365,21.2787,0.9127],[-76.4354,21.276,2.4685],[-76.4368,21.2754,2.1457],[-76.4437,21.2779,0.4908],[-76.4496,21.2771,0.6299],[-76.461,21.2826,0.0],[-76.4687,21.284,0.0],[-76.471,21.2835,0.2365],[-76.4724,21.2799,0.2518],[-76.4757,21.2776,1.0081],[-76.4851,21.2804,2.2239],[-76.4954,21.2799,1.8313],[-76.4976,21.2824,0.0],[-76.5035,21.2835,0.763],[-76.5079,21.2796,0.0804],[-76.5151,21.2807,0.0],[-76.5182,21.2779,2.0046],[-76.5201,21.2785,1.0007],[-76.5193,21.2732,0.8798],[-76.5224,21.2718,0.0],[-76.5218,21.2704,1.5091],[-76.5246,21.2668,1.3557],[-76.5346,21.2649,1.5774],[-76.5346,21.2526,1.7849],[-76.5271,21.2451,0.0],[-76.5254,21.2385,0.6466],[-76.5232,21.2374,1.1188],[-76.5193,21.2396,0.7095],[-76.514,21.2374,3.1442],[-76.5129,21.2354,0.0],[-76.5113,21.2362,0.9205],[-76.5088,21.2329,0.6],[-76.5015,21.2332,1.8008],[-76.499,21.2318,0.0],[-76.4899,21.2329,0.596],[-76.4871,21.2299,0.0],[-76.4843,21.2301,0.0],[-76.4754,21.2235,0.0],[-76.4696,21.2246,0.5128],[-76.4685,21.2232,0.7376],[-76.4751,21.2207,0.0],[-76.4812,21.2207,0.0],[-76.4826,21.2179,0.2628],[-76.484,21.2185,0.269],[-76.496,21.2004,1.0969],[-76.5062,21.2032,0.2426],[-76.5079,21.2007,0.7413],[-76.5071,21.1974,0.8974],[-76.5085,21.191,0.0],[-76.5163,21.1837,0.8556],[-76.5176,21.1857,0.0],[-76.5199,21.1857,0.0],[-76.5204,21.1799,0.2059],[-76.5229,21.1782,0.8787],[-76.5265,21.1799,0.9525],[-76.5362,21.1804,1.8683],[-76.5418,21.1885,0.0],[-76.5475,21.1893,0.1655],[-76.5446,21.1788,3.4935],[-76.5437,21.1332,39.4405],[-76.5456,21.1232,40.0168],[-76.562,21.1126,78.0922],[-76.6299,21.0929,56.7785],[-76.655,21.0798,82.5401],[-76.7122,21.025,113.1684],[-76.7204,21.0108,130.9816],[-76.7391,20.9909,131.705],[-76.7472,20.9767,117.2884],[-76.7736,20.9503,91.5724],[-76.7834,20.9275,77.7978],[-76.7554,20.9038,75.349],[-76.7458,20.8995,78.0009],[-76.7292,20.8997,86.072],[-76.707,20.9071,136.6364],[-76.6811,20.906,113.4981],[-76.682,20.9691,120.092],[-76.6765,20.9808,140.0454],[-76.6638,20.9873,143.5575],[-76.6415,20.9904,144.8188],[-76.6223,20.9966,148.8841],[-76.5459,20.9984,86.2282],[-76.5121,21.0155,63.1352],[-76.5066,21.0358,54.415],[-76.502,21.0394,47.0071]]],
[[[-76.4837,21.2279,0.7207],[-76.4854,21.2287,0.468],[-76.4887,21.2254,0.0],[-76.4843,21.2254,0.0],[-76.4837,21.2279,0.7207]]],
[[[-76.5276,21.2357,0.2267],[-76.5315,21.234,0.8602],[-76.5279,21.2318,0.6429],[-76.5271,21.2282,0.0],[-76.5235,21.2254,0.0],[-76.5154,21.2254,0.0],[-76.5126,21.2276,0.8242],[-76.5126,21.229,0.0],[-76.5201,21.2315,1.7322],[-76.5196,21.2354,1.4656],[-76.5268,21.2326,2.901],[-76.5276,21.2357,0.2267]]]]}}