{"type": "Feature","bbox": [-61.159,14.6909,-61.1102,14.7209],"geometry": {"type": "MultiPolygon","coordinates": [[[[-61.1102,14.7046,1024.5385],[-61.1273,14.7209,476.1466],[-61.1558,14.7136,129.4195],[-61.159,14.7022,292.7847],[-61.154,14.6934,122.866],[-61.1498,14.6909,287.5509],[-61.1202,14.6911,662.4689],[-61.1102,14.7046,1024.5385]]]]}
,"properties": {"GID_2": "MTQ.4.6_1","GID_0": "MTQ","country": "Martinique","GID_1": "MTQ.4_1","province": "Saint-Pierre","NL_NAME_1": "NA","county": "LeMorne-Vert","VARNAME_2": "NA","NL_NAME_2": "NA","TYPE_2": "Commune","ENGTYPE_2": "Commune","CC_2": "NA","HASC_2": "MQ.SP.MV","name": "Le_Morne-Vert.county","area_km2": 12.694328,"hist_schema_id": "Elevation0-9000","hist_area_km2": {"125": 0.020507,"150": 0.123049,"175": 0.123049,"200": 0.410163,"225": 0.430663,"250": 0.717772,"275": 0.697264,"300": 0.88184,"325": 0.984372,"350": 0.902342,"375": 1.025394,"400": 0.71777,"425": 0.47168,"450": 0.697267,"475": 0.533195,"500": 0.430668,"525": 0.492182,"550": 0.533198,"575": 0.30761,"600": 0.164062,"625": 0.184572,"650": 0.10254,"675": 0.22559,"700": 0.164064,"725": 0.143557,"750": 0.184572,"775": 0.102538,"800": 0.082031,"825": 0.020507,"850": 0.061524,"875": 0.10254,"900": 0.041015,"925": 0.041017,"950": 0.123045,"975": 0.041017,"1000": 0.041015,"1025": 0.164062,"1050": 0.020508,"1075": 0.082031,"1100": 0.020507,"1125": 0.082031}}}