{"type":"Feature","properties":{"GID_1":"TTO.14_1","GID_0":"TTO","country":"TrinidadandTobago","province":"Tobago","VARNAME_1":"Tabago","NL_NAME_1":"NA","TYPE_1":"Region","ENGTYPE_1":"Region","CC_1":"NA","HASC_1":"TT.TB","ISO_1":"TT-TOB","name":"Tobago.province"},
"geometry":{"type": "MultiPolygon","coordinates": [[[[-60.9999,11.0001,0.0],[-61.0001,11.0001,0.0],[-61.0001,10.9999,0.0],[-60.9999,10.9999,0.0],[-60.9999,11.0001,0.0]]],
[[[-60.5929,11.2188,0.0],[-60.5951,11.2193,0.0],[-60.5965,11.2171,0.0],[-60.5913,11.2163,0.0],[-60.5907,11.219,0.0],[-60.5929,11.2188,0.0]]],
[[[-60.5585,11.2407,1.2379],[-60.5607,11.2415,0.0],[-60.5615,11.2404,0.0],[-60.5585,11.2376,0.0],[-60.5563,11.2376,2.1075],[-60.5563,11.239,7.01],[-60.5585,11.2407,1.2379]]],
[[[-60.529,11.3454,0.0],[-60.5285,11.3471,0.0],[-60.5337,11.3454,0.0],[-60.536,11.3399,41.2875],[-60.5404,11.3429,0.0],[-60.5404,11.3412,0.0],[-60.5432,11.3415,0.0],[-60.544,11.3396,24.9911],[-60.5468,11.3407,0.0],[-60.5488,11.3382,13.7114],[-60.5537,11.3368,36.9116],[-60.5576,11.3393,0.0],[-60.5585,11.3368,0.0],[-60.556,11.3326,33.807],[-60.5499,11.3307,57.7768],[-60.5493,11.3235,0.6667],[-60.5524,11.3199,5.3462],[-60.5565,11.3215,0.0],[-60.5596,11.3179,6.0995],[-60.5632,11.3185,0.0],[-60.5643,11.3157,47.065],[-60.5699,11.3165,0.0],[-60.5696,11.3199,0.0],[-60.5732,11.3196,77.0009],[-60.5757,11.326,15.3297],[-60.5751,11.3285,0.0],[-60.5776,11.3276,13.2841],[-60.5812,11.3296,0.0],[-60.5826,11.3288,0.0],[-60.5829,11.3301,0.0],[-60.5887,11.3274,21.4117],[-60.5918,11.3282,0.0],[-60.5976,11.3224,0.0],[-60.6012,11.3215,18.5441],[-60.6043,11.3238,0.0],[-60.6079,11.3232,30.2428],[-60.6107,11.3249,0.0],[-60.6137,11.3196,36.3051],[-60.616,11.3196,0.0],[-60.6154,11.3171,14.7029],[-60.6243,11.316,0.0],[-60.6249,11.3135,67.3136],[-60.6329,11.309,0.0],[-60.6301,11.3026,7.0198],[-60.6368,11.3026,51.7869],[-60.6376,11.3062,0.0],[-60.6401,11.3065,0.2957],[-60.639,11.3049,22.2911],[-60.6406,11.3049,22.2911],[-60.6471,11.3068,0.0],[-60.6474,11.3055,0.0],[-60.6493,11.3057,0.0],[-60.6482,11.3035,39.8202],[-60.6521,11.3029,0.0],[-60.6504,11.2993,2.8994],[-60.6546,11.3004,2.5109],[-60.6571,11.2982,50.6306],[-60.6582,11.2999,1.9754],[-60.664,11.3004,0.0],[-60.6682,11.2965,58.1628],[-60.6715,11.2979,0.0],[-60.6704,11.2913,0.0],[-60.6718,11.2901,15.5007],[-60.6746,11.2904,50.0546],[-60.6768,11.2929,0.0],[-60.6799,11.2896,37.2533],[-60.6807,11.2921,0.0],[-60.6854,11.2929,0.0],[-60.6874,11.2907,0.0],[-60.6865,11.289,8.2762],[-60.6968,11.289,0.0],[-60.6968,11.2874,0.0],[-60.6993,11.286,0.0],[-60.696,11.2807,24.7834],[-60.6985,11.2763,0.0],[-60.7076,11.2726,0.0],[-60.711,11.2688,0.0],[-60.7154,11.2682,0.0],[-60.7168,11.2621,0.0],[-60.719,11.2607,8.9972],[-60.7226,11.2615,14.021],[-60.7257,11.2579,0.0],[-60.7249,11.2563,18.0406],[-60.7276,11.2568,0.0],[-60.7279,11.254,0.0],[-60.7376,11.2535,0.0],[-60.7415,11.2501,13.5124],[-60.7421,11.2513,0.0],[-60.7449,11.2504,0.0],[-60.744,11.2485,25.5719],[-60.749,11.2485,3.344],[-60.7485,11.2454,22.3167],[-60.751,11.246,0.0],[-60.751,11.2438,0.0],[-60.7529,11.2426,0.0],[-60.7521,11.2415,0.0],[-60.756,11.2388,0.0],[-60.7554,11.2357,22.963],[-60.7585,11.2363,0.0],[-60.7601,11.2351,0.0],[-60.7596,11.2335,28.4843],[-60.764,11.2324,0.0],[-60.7665,11.2301,0.0],[-60.7657,11.2274,23.285],[-60.7676,11.2288,0.0],[-60.7721,11.2257,0.0],[-60.774,11.2274,0.0],[-60.7751,11.2243,0.0],[-60.7785,11.2251,0.0],[-60.7815,11.2226,0.0],[-60.7815,11.2196,0.0],[-60.7788,11.2201,0.0],[-60.7774,11.2188,1.3692],[-60.7779,11.2143,1.8546],[-60.7815,11.2104,4.135],[-60.7863,11.2082,1.116],[-60.7849,11.2051,0.0],[-60.7871,11.2026,0.0],[-60.794,11.2007,0.0],[-60.7938,11.1993,0.0],[-60.7985,11.1996,0.0],[-60.799,11.1979,6.0952],[-60.796,11.1946,0.0],[-60.7974,11.1876,0.0],[-60.8074,11.1843,2.0499],[-60.8104,11.1863,0.0],[-60.8115,11.1829,0.0],[-60.8071,11.1796,0.9983],[-60.8071,11.1776,3.4864],[-60.8115,11.1735,5.0262],[-60.8204,11.1738,0.0],[-60.8249,11.1724,0.0],[-60.8254,11.1688,0.0],[-60.821,11.1713,1.0105],[-60.8182,11.1704,0.0],[-60.8171,11.1676,6.7363],[-60.8349,11.1674,0.0],[-60.8362,11.1718,7.3908],[-60.8393,11.1735,0.8533],[-60.8418,11.166,1.5823],[-60.839,11.1585,0.0],[-60.8413,11.1549,4.4594],[-60.8457,11.1535,4.2041],[-60.8454,11.1465,2.8135],[-60.841,11.1432,0.0],[-60.8329,11.1457,2.3237],[-60.8318,11.1476,2.816],[-60.8146,11.1476,1.618],[-60.811,11.1454,0.0],[-60.8007,11.1435,8.9139],[-60.8004,11.1354,0.6562],[-60.7988,11.134,1.8721],[-60.7832,11.1351,0.0],[-60.7821,11.1413,0.0],[-60.7832,11.1454,0.0],[-60.7799,11.1443,0.0],[-60.7788,11.146,3.7836],[-60.7785,11.141,0.8323],[-60.7718,11.1418,0.0],[-60.771,11.1432,0.0],[-60.774,11.1496,0.0],[-60.7685,11.1601,2.7663],[-60.7635,11.1654,0.0],[-60.7571,11.1646,0.0],[-60.7537,11.1657,0.0],[-60.7524,11.1693,6.4522],[-60.7418,11.1807,8.6948],[-60.7385,11.1815,0.0],[-60.7365,11.1785,0.0],[-60.734,11.1785,0.0],[-60.7274,11.1718,0.0],[-60.7226,11.1699,0.0],[-60.719,11.1707,5.7636],[-60.7176,11.1682,0.0],[-60.7157,11.1682,0.0],[-60.7132,11.171,0.0],[-60.7129,11.1746,0.7457],[-60.7088,11.1768,0.0],[-60.706,11.1771,10.9009],[-60.7049,11.174,0.0],[-60.7021,11.1732,0.0],[-60.6999,11.1768,0.0],[-60.7021,11.1801,0.0],[-60.6987,11.1801,0.0],[-60.6968,11.184,9.7159],[-60.6974,11.1874,19.2373],[-60.6929,11.1921,9.4655],[-60.6888,11.1935,1.7069],[-60.6813,11.1901,0.0],[-60.6732,11.1929,9.2549],[-60.6649,11.1926,1.5669],[-60.6607,11.1871,4.7422],[-60.6615,11.1846,0.0],[-60.6546,11.1899,0.0],[-60.6529,11.1899,15.0608],[-60.6524,11.1882,0.0],[-60.6457,11.1893,0.0],[-60.6443,11.1915,0.0],[-60.6401,11.1926,0.0],[-60.6343,11.1974,0.0],[-60.6335,11.1999,0.0],[-60.6301,11.2015,0.0],[-60.6263,11.2093,6.0649],[-60.6204,11.2118,4.8429],[-60.6176,11.216,9.5497],[-60.6151,11.216,0.0],[-60.6146,11.2182,0.1761],[-60.6113,11.2185,0.0],[-60.6074,11.2215,3.9082],[-60.6029,11.221,0.0],[-60.601,11.224,5.0446],[-60.5985,11.2232,6.6172],[-60.5985,11.2207,7.3696],[-60.5935,11.2224,6.4735],[-60.5932,11.2238,0.0],[-60.5962,11.2249,7.0823],[-60.594,11.226,2.365],[-60.5974,11.2315,0.0],[-60.591,11.2404,0.0],[-60.5857,11.2407,0.0],[-60.5843,11.2457,9.2503],[-60.574,11.249,6.8263],[-60.5704,11.2454,0.0],[-60.5632,11.2463,1.1897],[-60.5599,11.2421,33.9705],[-60.5526,11.244,3.1312],[-60.5529,11.2457,19.4182],[-60.5512,11.2463,0.0],[-60.5535,11.2499,4.2283],[-60.551,11.2518,0.0],[-60.5507,11.2546,0.0],[-60.5549,11.2621,0.3192],[-60.5504,11.2665,13.5977],[-60.5457,11.2654,37.1897],[-60.544,11.2579,0.0],[-60.5374,11.2546,0.0],[-60.5343,11.2551,0.0],[-60.5338,11.2579,18.2339],[-60.5351,11.2596,11.9692],[-60.5315,11.2607,0.0],[-60.5318,11.2646,28.9107],[-60.5296,11.269,90.6341],[-60.5268,11.2668,0.0],[-60.5254,11.2696,0.0],[-60.5249,11.2765,0.0],[-60.5299,11.2771,77.4051],[-60.5282,11.279,25.7358],[-60.5265,11.279,2.592],[-60.5257,11.2804,2.592],[-60.5282,11.284,22.7481],[-60.5237,11.2837,0.0],[-60.5224,11.289,5.8784],[-60.5246,11.2924,0.0],[-60.5324,11.294,1.0966],[-60.5335,11.3018,0.0],[-60.5315,11.304,25.8315],[-60.5282,11.304,0.0],[-60.529,11.3068,0.0],[-60.5249,11.3068,0.0],[-60.5268,11.3126,1.812],[-60.5229,11.311,0.0],[-60.5201,11.3118,0.0],[-60.5221,11.3188,60.1716],[-60.5204,11.3193,11.3967],[-60.5193,11.3165,0.0],[-60.5171,11.3168,0.0],[-60.5171,11.3229,0.0],[-60.5201,11.3238,0.0],[-60.5185,11.3301,0.0],[-60.5221,11.331,38.2014],[-60.5193,11.3365,0.0],[-60.5274,11.3374,0.0],[-60.5276,11.3407,7.1043],[-60.5299,11.3432,71.7217],[-60.529,11.3454,0.0]]],
[[[-60.5043,11.3076,0.0],[-60.5074,11.3076,0.0],[-60.5085,11.3051,3.3244],[-60.5057,11.3007,0.0],[-60.5082,11.2979,0.0],[-60.5082,11.2951,0.0],[-60.5032,11.2951,2.8302],[-60.5024,11.2929,0.0],[-60.5021,11.2957,10.7494],[-60.496,11.2935,0.0],[-60.494,11.2954,0.0],[-60.4921,11.2951,0.0],[-60.4929,11.2974,0.0],[-60.4982,11.2993,9.8462],[-60.496,11.3024,3.8993],[-60.4985,11.304,1.6043],[-60.5018,11.3026,11.8281],[-60.5043,11.3076,0.0]]],
[[[-60.5171,11.3029,0.0],[-60.5185,11.3046,0.0],[-60.5187,11.3018,2.7378999999999998],[-60.5213,11.2996,5.9147],[-60.5207,11.2976,-0.0441],[-60.5185,11.2974,0.0],[-60.5182,11.301,2.7378999999999998],[-60.5154,11.301,0.0],[-60.5171,11.3029,0.0]]],
[[[-60.5124,11.359,0.0],[-60.5151,11.3579,0.0],[-60.5196,11.3588,0.0],[-60.5226,11.3563,16.1244],[-60.5282,11.3582,0.0],[-60.5299,11.3546,0.0],[-60.5279,11.3529,0.0],[-60.5226,11.3532,0.0],[-60.5182,11.3563,11.4515],[-60.5135,11.3565,0.0],[-60.5124,11.359,0.0]]]]}}