{"type": "Feature","bbox": [-79.855,21.9453,-79.4825,22.3546],"geometry": {"type": "MultiPolygon","coordinates": [[[[-79.4825,22.1879,122.1063],[-79.5025,22.1911,121.2486],[-79.5413,22.2033,136.6919],[-79.5806,22.2227,154.065],[-79.5919,22.2415,168.3544],[-79.5977,22.2613,171.3151],[-79.6074,22.2735,174.955],[-79.652,22.2744,179.0279],[-79.6615,22.2774,184.8695],[-79.6665,22.3065,193.7712],[-79.6784,22.3311,204.0361],[-79.7639,22.3321,120.2741],[-79.7738,22.3363,102.1804],[-79.7992,22.3546,114.4495],[-79.8407,22.336,158.5786],[-79.8453,22.3303,152.7176],[-79.8538,22.3062,406.626],[-79.855,22.267,184.9636],[-79.8473,22.2454,254.385],[-79.8444,22.2212,174.6093],[-79.8115,22.1559,143.566],[-79.8096,22.1327,164.7134],[-79.802,22.1105,154.5683],[-79.8014,22.07,87.6785],[-79.8065,22.0594,112.7752],[-79.8247,22.0485,112.5289],[-79.8339,22.0376,125.6004],[-79.8365,22.0026,220.7348],[-79.8434,21.9828,205.0626],[-79.8438,21.9636,259.5073],[-79.8199,21.9489,135.6913],[-79.8027,21.9453,98.9827],[-79.7806,21.9569,190.3417],[-79.764,21.9701,134.4839],[-79.7561,21.9808,181.6491],[-79.7524,21.9947,318.4206],[-79.7455,22.0087,163.4417],[-79.7303,22.0269,117.5122],[-79.7219,22.04,111.956],[-79.7213,22.0577,138.6638],[-79.7243,22.068,148.1032],[-79.7303,22.0732,108.5643],[-79.7409,22.0754,107.9799],[-79.7488,22.0791,99.9935],[-79.7592,22.104,99.7492],[-79.7751,22.1182,135.3644],[-79.7825,22.1285,141.5572],[-79.7845,22.139,156.6543],[-79.7798,22.1533,110.2711],[-79.7716,22.1622,128.5809],[-79.7627,22.1665,121.2459],[-79.7478,22.1691,144.9417],[-79.7322,22.1675,137.6482],[-79.7255,22.1606,137.7349],[-79.7101,22.1334,161.0967],[-79.7019,22.1282,152.8157],[-79.6795,22.1303,175.2323],[-79.6574,22.1454,176.1471],[-79.6472,22.1464,170.5264],[-79.6369,22.1439,170.5342],[-79.6174,22.1333,177.7229],[-79.6036,22.1315,197.3899],[-79.5817,22.1398,171.4478],[-79.577,22.1398,170.0553],[-79.5546,22.1219,156.6051],[-79.5371,22.1201,147.1452],[-79.5232,22.123,133.6789],[-79.5057,22.1356,120.6798],[-79.4991,22.1457,117.3898],[-79.4914,22.163,113.3802],[-79.4825,22.1879,122.1063]]]]}
,"properties": {"GID_2": "CUB.16.7_1","GID_0": "CUB","country": "Cuba","GID_1": "CUB.16_1","province": "VillaClara","NL_NAME_1": "NA","county": "Placetas","VARNAME_2": "NA","NL_NAME_2": "NA","TYPE_2": "Municipio","ENGTYPE_2": "Municipality","CC_2": "NA","HASC_2": "CU.VC.PL","name": "Placetas.county","area_km2": 732.3722,"hist_schema_id": "Elevation0-9000","hist_area_km2": {"25": 0.9831,"50": 6.6051,"75": 20.4795,"100": 57.8031,"125": 135.3,"150": 197.4281,"175": 199.1442,"200": 72.3235,"225": 14.7459,"250": 8.777,"275": 6.8911,"300": 4.2002,"325": 3.1202,"350": 2.0603,"375": 1.079,"400": 0.7651,"425": 0.4316,"450": 0.2354}}}