{"type": "Feature","id": "5148","bbox": [-62.99714,17.46457,-62.94506,17.52562],"geometry": {"type": "Polygon","coordinates": [[[-62.99714,17.52562,0.0],[-62.9947,17.49213,56.1729],[-62.98109,17.46772,0.0],[-62.95872,17.46457,0.0],[-62.9489,17.47237,0.0],[-62.94506,17.48538,0.0],[-62.96526,17.49892,7.7697],[-62.97725,17.50414,2.2613],[-62.9838,17.51768,0.0],[-62.99714,17.52562,0.0]]]}
,"properties": {"ISO3166-1-Alpha-3": "NLD","country": "Netherlands","fill": "#F0F","name": "St. Eustatius","area_km2": 19.10989,"hist_schema_id": "Elevation0-9000","hist_area_km2": {"0": 1.27395,"25": 3.05347,"50": 3.33666,"75": 2.50755,"100": 2.40641,"125": 1.23354,"150": 1.2942,"175": 0.90999,"200": 0.52579,"225": 0.46511,"250": 0.28313,"275": 0.20224,"300": 0.24268,"325": 0.22246,"350": 0.20224,"375": 0.16179,"400": 0.20223,"425": 0.16179,"450": 0.14156,"475": 0.14156,"500": 0.04045,"525": 0.08089,"550": 0.02022}}}