{"type": "Feature","bbox": [-63.0093,17.4635,-62.9418,17.5274],"geometry": {"type": "MultiPolygon","coordinates": [[[[-62.994,17.5274,0.0],[-62.9965,17.5257,0.0],[-62.9974,17.5271,0.0],[-62.9996,17.5265,0.0],[-62.9999,17.5193,0.0],[-63.0015,17.5174,0.0],[-63.0001,17.509,33.5322],[-63.0024,17.5093,8.383],[-63.004,17.5071,0.0],[-63.004,17.5032,0.0],[-63.0015,17.499,0.0],[-63.0037,17.4999,0.0],[-63.0035,17.4974,0.0],[-63.0093,17.494,0.0],[-63.0004,17.4965,0.0],[-63.0018,17.4937,0.0],[-63.0015,17.4882,0.0],[-62.9971,17.489,0.0],[-62.9896,17.484,12.6519],[-62.989,17.481,0.0],[-62.9874,17.4801,0.0],[-62.9882,17.4776,0.0],[-62.986,17.4765,0.0],[-62.9846,17.4718,0.0],[-62.9771,17.4651,0.0],[-62.9663,17.4635,0.0],[-62.9504,17.4685,0.0],[-62.9468,17.4726,0.0],[-62.9454,17.4804,1.5047],[-62.9418,17.4824,0.0],[-62.9443,17.4849,0.0],[-62.9446,17.4876,0.0],[-62.9479,17.4888,0.0],[-62.9504,17.4924,0.0],[-62.954,17.4926,0.0],[-62.9579,17.4965,0.0],[-62.9599,17.4965,7.2081],[-62.9649,17.5012,0.0],[-62.974,17.5012,3.5867],[-62.979,17.5082,0.0],[-62.9779,17.5154,0.0],[-62.9807,17.5165,3.879],[-62.9813,17.5185,0.0],[-62.9888,17.5171,2.5033],[-62.994,17.5274,0.0]]]]}
,"properties": {"GID_1": "BES.3_1","GID_0": "BES","country": "Bonaire,SintEustatiusandSaba","state": "SintEustatius","VARNAME_1": "NA","NL_NAME_1": "NA","TYPE_1": "Caribischopenbaarlichaam","ENGTYPE_1": "Municipality","CC_1": "NA","HASC_1": "NA","ISO_1": "BQ-SE","name": "SintEustatius.state","area_km2": 23.55854,"hist_schema_id": "Elevation0-9000","hist_area_km2": {"0": 3.57921,"25": 3.51857,"50": 3.5591,"75": 2.68953,"100": 2.6895,"125": 1.57729,"150": 1.67838,"175": 1.0111,"200": 0.546,"225": 0.52577,"250": 0.32356,"275": 0.24267,"300": 0.24268,"325": 0.22246,"350": 0.20224,"375": 0.16179,"400": 0.20223,"425": 0.16179,"450": 0.14156,"475": 0.14156,"500": 0.04045,"525": 0.08089,"550": 0.02022}}}