{"type": "Feature","bbox": [-70.6347,19.3952,-70.576,19.4568],"geometry": {"type": "MultiPolygon","coordinates": [[[[-70.576,19.4488,217.8877],[-70.5885,19.447,209.8268],[-70.5942,19.4499,213.9571],[-70.5978,19.4563,217.2993],[-70.6068,19.4568,217.5664],[-70.6105,19.4511,210.5653],[-70.6147,19.4376,196.8432],[-70.6179,19.4324,191.4261],[-70.6233,19.4295,186.5209],[-70.6344,19.4277,185.845],[-70.6347,19.424,183.6086],[-70.6313,19.4163,177.8953],[-70.6265,19.4135,175.3143],[-70.622,19.4046,168.3572],[-70.6128,19.4027,168.5394],[-70.6103,19.3991,166.699],[-70.596,19.4005,166.3848],[-70.5829,19.3952,164.5586],[-70.5819,19.4014,167.2275],[-70.5866,19.4091,173.9544],[-70.5859,19.4151,177.454],[-70.5897,19.4204,182.5651],[-70.5902,19.4244,178.6624],[-70.5868,19.4295,190.5227],[-70.5761,19.4374,203.1372],[-70.576,19.4488,217.8877]]]]}
,"properties": {"GID_2": "DOM.30.2_1","GID_0": "DOM","country": "DominicanRepublic","GID_1": "DOM.30_1","province": "Santiago","NL_NAME_1": "NA","county": "LiceyalMedio","VARNAME_2": "NA","NL_NAME_2": "NA","TYPE_2": "Municipio","ENGTYPE_2": "Municipality","CC_2": "NA","HASC_2": "DO.ST.LM","name": "Liceyal_Medio.county","area_km2": 23.73441,"hist_schema_id": "Elevation0-9000","hist_area_km2": {"150": 0.43996,"175": 12.93779,"200": 9.43703,"225": 0.91963}}}