{"type":"Feature","properties":{"GID_2":"BLM.2.21_1","GID_0":"BLM","country":"Saint-Barthélemy","GID_1":"BLM.2_1","province":"SousleVent","NL_NAME_1":"NA","county":"TerreNeuve","VARNAME_2":"NA","NL_NAME_2":"NA","TYPE_2":"Quartier","ENGTYPE_2":"Quarter","CC_2":"NA","HASC_2":"NA","name":"Terre_Neuve.county"},
"geometry":{"type": "MultiPolygon","coordinates": [[[[-62.8581,17.9139,75.969],[-62.8534,17.9122,112.2166],[-62.8546,17.9162,58.9176],[-62.8591,17.9162,60.4345],[-62.8581,17.9139,75.969]]]]}}