{"type":"Feature","properties":{"GID_3":"HTI.1.4.2_1","GID_0":"HTI","country":"Haiti","GID_1":"HTI.1_1","province":"Centre","NL_NAME_1":"NA","GID_2":"HTI.1.4_1","county":"Mirebalais","NL_NAME_2":"NA","city":"Mirebalais","VARNAME_3":"NA","NL_NAME_3":"NA","TYPE_3":"Commune","ENGTYPE_3":"Commune","CC_3":"NA","HASC_3":"NA","name":"Mirebalais.city"},
"geometry":{"type": "MultiPolygon","coordinates": [[[[-71.996,18.7769,267.5296],[-71.9949,18.78,212.3412],[-71.988,18.779,210.1402],[-71.9861,18.7764,234.9966],[-71.98,18.7751,243.0895],[-71.9688,18.7675,298.5813],[-71.9637,18.7663,335.0926],[-71.9612,18.7635,429.9089],[-71.9535,18.7618,299.3485],[-71.9449,18.7531,571.6743],[-71.9386,18.7528,527.8593],[-71.9382,18.7549,454.1124],[-71.9426,18.7601,289.0017],[-71.9438,18.7659,333.7402],[-71.9522,18.7761,458.8213],[-71.9607,18.7779,287.1648],[-71.9632,18.78,300.2025],[-71.9672,18.7897,235.2224],[-71.9697,18.7921,279.995],[-71.9687,18.7958,345.8125],[-71.9765,18.8129,739.729],[-71.9819,18.8126,848.3688],[-71.9956,18.826,1031.2909],[-72.0026,18.8278,795.6292],[-72.0248,18.8426,851.3212],[-72.0287,18.8519,1010.6151],[-72.0364,18.8606,804.501],[-72.0406,18.873,779.5941],[-72.0594,18.8915,378.1953],[-72.0647,18.893,257.8301],[-72.065,18.9012,207.1097],[-72.0749,18.9067,122.2417],[-72.087,18.8929,115.3138],[-72.0869,18.8832,116.2307],[-72.0885,18.8811,124.5252],[-72.0918,18.8833,124.7692],[-72.0961,18.8821,113.9352],[-72.1004,18.878,147.8446],[-72.1011,18.8758,161.9825],[-72.0958,18.8734,112.4818],[-72.0956,18.861,106.0167],[-72.0878,18.8614,105.7293],[-72.0837,18.859,120.1968],[-72.0863,18.8519,104.5448],[-72.0923,18.8475,100.7252],[-72.096,18.8466,101.0524],[-72.0992,18.8387,104.1506],[-72.1061,18.8393,98.6437],[-72.1085,18.8437,97.756],[-72.1172,18.8466,96.1428],[-72.1269,18.843,94.3579],[-72.1281,18.8438,97.0116],[-72.1264,18.8482,93.8815],[-72.1283,18.8562,95.8486],[-72.1366,18.8618,91.3829],[-72.1397,18.8615,90.5408],[-72.1409,18.8594,90.5629],[-72.1426,18.8553,93.9749],[-72.1424,18.849,89.3208],[-72.1446,18.8471,88.2367],[-72.1483,18.8473,89.7648],[-72.1564,18.8442,86.9137],[-72.1623,18.8387,116.7269],[-72.1553,18.8285,167.2744],[-72.1575,18.8231,209.6187],[-72.1565,18.8177,212.2171],[-72.1591,18.8144,212.4264],[-72.1585,18.8064,178.0254],[-72.1614,18.8051,169.1497],[-72.1619,18.8017,157.1597],[-72.1654,18.7982,163.2449],[-72.1755,18.797,181.5473],[-72.1775,18.7932,199.4909],[-72.1773,18.7846,211.1924],[-72.182,18.7782,237.1654],[-72.1792,18.7733,261.668],[-72.1751,18.7719,251.7374],[-72.1769,18.7674,345.5117],[-72.1744,18.7621,367.1542],[-72.1766,18.7602,429.5808],[-72.1839,18.7652,352.6476],[-72.1869,18.7651,387.2945],[-72.1899,18.7564,466.9963],[-72.1971,18.7448,653.2438],[-72.2011,18.7417,769.2949],[-72.1973,18.7321,808.1223],[-72.1666,18.7026,810.462],[-72.1472,18.6946,698.0359],[-72.1272,18.7063,814.2064],[-72.1229,18.7036,807.8064],[-72.1155,18.7035,831.8553],[-72.1098,18.7082,841.8869],[-72.0979,18.7114,819.4547],[-72.0917,18.7105,767.6292],[-72.0869,18.7136,826.2397],[-72.084,18.727,561.7138],[-72.0735,18.7366,403.4717],[-72.0681,18.7207,946.5314],[-72.0567,18.7187,1050.1487],[-72.0375,18.7209,962.9684],[-72.0352,18.7241,753.8481],[-72.0276,18.7268,582.7953],[-72.022,18.7266,482.4661],[-72.0171,18.7241,354.933],[-72.014,18.732,310.621],[-72.0094,18.7369,324.1698],[-72.0059,18.735,357.8578],[-72.0053,18.73,394.0737],[-71.9919,18.7343,450.757],[-71.9885,18.7376,585.0643],[-71.9778,18.734,661.5782],[-71.9711,18.7467,906.6699],[-71.9762,18.7467,760.8824],[-71.9774,18.7499,797.4715],[-71.9744,18.7511,918.9784],[-71.9747,18.7554,840.1442],[-71.9789,18.7573,724.2275],[-71.9801,18.7598,665.5178],[-71.9842,18.7602,665.4366],[-71.9925,18.7658,484.796],[-71.9969,18.7717,348.0742],[-71.996,18.7769,267.5296]]]]}}