{"type": "Feature","bbox": [-74.2533,18.3919,-74.0703,18.676],"geometry": {"type": "MultiPolygon","coordinates": [[[[-74.1146,18.4251,1519.3528],[-74.1155,18.43,1260.6248],[-74.1197,18.4345,1222.2517],[-74.1129,18.4379,1381.5715],[-74.108,18.4466,1262.1909],[-74.0995,18.4532,979.2008],[-74.0965,18.4609,722.4028],[-74.0982,18.4678,761.6602],[-74.1005,18.4706,772.9089],[-74.0998,18.476,628.8904],[-74.1021,18.48,691.2667],[-74.0949,18.4917,530.5556],[-74.0961,18.4981,653.0675],[-74.089,18.4979,586.7231],[-74.0874,18.4992,393.0764],[-74.0846,18.5078,475.0874],[-74.0754,18.5231,386.0332],[-74.0771,18.5253,427.9198],[-74.0864,18.5218,448.07],[-74.0902,18.5281,450.9338],[-74.0896,18.5305,389.8093],[-74.0865,18.5315,392.09],[-74.0843,18.5364,351.7455],[-74.0888,18.5448,317.1352],[-74.0873,18.5515,189.8993],[-74.0903,18.5565,158.9613],[-74.0895,18.5592,188.2393],[-74.0703,18.5767,277.7688],[-74.0732,18.5865,115.0938],[-74.072,18.598,77.3563],[-74.0783,18.6163,1.5072],[-74.0854,18.6202,1.2248],[-74.0884,18.6261,4.2912],[-74.1093,18.6368,17.7236],[-74.1118,18.6404,3.8764],[-74.1104,18.6471,0.0],[-74.1188,18.6518,5.4759],[-74.1193,18.6546,0.0],[-74.1274,18.6543,13.4738],[-74.1296,18.6588,0.0],[-74.1396,18.6638,0.0],[-74.146,18.6604,25.8658],[-74.1549,18.6668,1.8069],[-74.1712,18.6704,12.3733],[-74.176,18.6694,11.5],[-74.1882,18.6718,9.397],[-74.1954,18.676,0.0],[-74.2101,18.676,0.0],[-74.2257,18.6735,10.8775],[-74.2257,18.6731,10.8775],[-74.2144,18.674,8.2077],[-74.2142,18.6633,108.3882],[-74.2315,18.6575,210.1028],[-74.2335,18.6545,192.7047],[-74.2319,18.6457,249.1607],[-74.2269,18.639,356.8183],[-74.221,18.6345,390.0735],[-74.2203,18.6318,354.3572],[-74.2274,18.6279,235.2199],[-74.2274,18.6261,222.6425],[-74.2124,18.6222,318.8548],[-74.2074,18.6193,271.8087],[-74.1924,18.624,497.5621],[-74.19,18.6216,401.1409],[-74.1908,18.6183,380.413],[-74.1981,18.6142,357.938],[-74.2143,18.6106,302.6718],[-74.2216,18.6074,289.5338],[-74.226,18.6006,352.2527],[-74.2412,18.5888,591.0554],[-74.2282,18.5781,112.7105],[-74.2286,18.5745,49.8934],[-74.2238,18.5558,192.4755],[-74.2256,18.5438,308.2966],[-74.2232,18.5416,335.3015],[-74.2246,18.5347,209.2293],[-74.2307,18.5253,270.8453],[-74.23,18.5171,363.5423],[-74.2332,18.5104,312.7965],[-74.2278,18.5023,402.079],[-74.2414,18.494,498.2852],[-74.2447,18.4872,589.372],[-74.2531,18.4803,747.1123],[-74.2533,18.4776,809.8033],[-74.2458,18.4679,936.7982],[-74.2447,18.4585,991.8823],[-74.2419,18.4572,1131.1926],[-74.2356,18.4574,952.1307],[-74.2204,18.4651,977.1138],[-74.2171,18.4632,949.8629],[-74.2165,18.4604,887.5873],[-74.223,18.4507,522.3593],[-74.2254,18.4358,878.9617],[-74.2197,18.4278,577.8787],[-74.2169,18.419,643.1976],[-74.2189,18.4064,672.7295],[-74.2108,18.4022,748.945],[-74.2064,18.398,596.8766],[-74.1964,18.3977,707.1957],[-74.1811,18.3919,958.6603],[-74.1757,18.3938,1175.2821],[-74.1716,18.3929,1219.3491],[-74.1554,18.3956,1078.1721],[-74.1317,18.401,1455.3884],[-74.1241,18.3963,1693.2192],[-74.1182,18.3967,1733.7159],[-74.1065,18.4034,1810.1443],[-74.1079,18.416,1603.4713],[-74.1146,18.4251,1519.3528]]],
[[[-74.2265,18.673,8.126],[-74.2262,18.6731,8.126],[-74.2257,18.6731,10.8775],[-74.2265,18.6732,8.126],[-74.2265,18.673,8.126]]]]}
,"properties": {"GID_3": "HTI.2.3.4_1","GID_0": "HTI","country": "Haiti","GID_1": "HTI.2_1","province": "Grand'Anse","NL_NAME_1": "NA","GID_2": "HTI.2.3_1","county": "Jérémie","NL_NAME_2": "NA","city": "Jérémie","VARNAME_3": "NA","NL_NAME_3": "NA","TYPE_3": "Commune","ENGTYPE_3": "Commune","CC_3": "NA","HASC_3": "NA","name": "Jérémie.city","area_km2": 420.5249,"hist_schema_id": "Elevation0-9000","hist_area_km2": {"0": 5.6055,"25": 18.5868,"50": 14.1259,"75": 14.7288,"100": 14.4889,"125": 15.4941,"150": 17.7251,"175": 17.786,"200": 16.7013,"225": 17.0633,"250": 18.2096,"275": 17.426,"300": 16.4813,"325": 15.316,"350": 13.7487,"375": 13.0862,"400": 11.3981,"425": 10.655,"450": 10.3136,"475": 8.605,"500": 6.8164,"525": 6.1131,"550": 6.5761,"575": 6.3347,"600": 7.1593,"625": 6.1941,"650": 6.6367,"675": 5.953,"700": 5.8324,"725": 5.5106,"750": 4.8269,"775": 4.5654,"800": 4.9677,"825": 4.5253,"850": 4.4448,"875": 4.1632,"900": 3.7007,"925": 3.4795,"950": 3.7209,"975": 3.4996,"1000": 3.0973,"1025": 3.218,"1050": 2.997,"1075": 2.5142,"1100": 1.589,"1125": 1.5288,"1150": 1.5891,"1175": 1.7701,"1200": 1.046,"1225": 1.2471,"1250": 0.8248,"1275": 0.7644,"1300": 0.7041,"1325": 0.7041,"1350": 0.7041,"1375": 0.6437,"1400": 0.523,"1425": 0.6437,"1450": 0.3621,"1475": 0.3018,"1500": 0.3219,"1525": 0.2213,"1550": 0.1609,"1575": 0.0604,"1600": 0.0805,"1625": 0.0604,"1650": 0.1408,"1675": 0.0604,"1700": 0.0201,"1725": 0.0402,"1775": 0.0201}}}