{"type": "Feature","bbox": [-72.1803,19.2549,-72.0084,19.4043],"geometry": {"type": "MultiPolygon","coordinates": [[[[-72.0471,19.3013,403.8538],[-72.0435,19.3041,410.5209],[-72.0339,19.3051,438.8523],[-72.0303,19.3075,431.4639],[-72.0221,19.3162,445.5929],[-72.0233,19.3194,436.6762],[-72.0221,19.3244,425.4149],[-72.0087,19.3273,415.2975],[-72.0084,19.3303,424.7017],[-72.0177,19.3361,421.0435],[-72.0346,19.3358,403.8575],[-72.0364,19.3409,412.4818],[-72.0392,19.3406,402.903],[-72.04,19.3422,400.7325],[-72.0451,19.3414,393.3771],[-72.0464,19.3434,383.7742],[-72.0487,19.3438,393.2227],[-72.0538,19.3427,368.0543],[-72.057,19.3445,385.2989],[-72.0647,19.354,443.6039],[-72.0688,19.3547,394.2989],[-72.075,19.3591,448.2128],[-72.0793,19.3584,392.5188],[-72.0792,19.3598,399.7395],[-72.0864,19.3628,561.0857],[-72.0998,19.3722,505.21],[-72.0997,19.3768,391.865],[-72.1025,19.384,329.0682],[-72.1017,19.3866,299.1055],[-72.1032,19.3868,309.9758],[-72.1022,19.3885,280.2506],[-72.1058,19.3906,268.2974],[-72.104,19.3919,304.7812],[-72.1043,19.3937,322.0675],[-72.1069,19.3943,287.3777],[-72.1052,19.4018,308.3026],[-72.1082,19.4039,275.5916],[-72.112,19.4043,240.7367],[-72.1133,19.403,266.8675],[-72.1148,19.394,336.0346],[-72.1175,19.3897,342.8315],[-72.1225,19.3883,344.0457],[-72.1273,19.3846,353.862],[-72.1374,19.3872,361.3178],[-72.1448,19.3804,354.5499],[-72.1441,19.3733,352.7863],[-72.1577,19.372,350.1764],[-72.1589,19.3673,348.2771],[-72.157,19.3656,352.4021],[-72.1577,19.3643,349.3873],[-72.1685,19.3654,339.8164],[-72.1682,19.361,336.7527],[-72.1721,19.3606,336.9255],[-72.1707,19.3586,333.2114],[-72.1726,19.3547,334.3533],[-72.1726,19.3519,336.3107],[-72.1691,19.3479,331.5315],[-72.1775,19.3492,332.7794],[-72.1772,19.3478,325.7917],[-72.1789,19.348,327.1643],[-72.1803,19.3453,327.2268],[-72.1726,19.3403,323.7694],[-72.1737,19.3387,323.7471],[-72.1717,19.3355,324.4484],[-72.17,19.3371,327.3051],[-72.167,19.3366,322.8034],[-72.1654,19.3341,325.7639],[-72.1675,19.3322,324.523],[-72.164,19.3309,325.3277],[-72.1624,19.325,319.6329],[-72.1601,19.3249,319.2811],[-72.1598,19.3219,322.166],[-72.1647,19.3185,317.0573],[-72.1629,19.3167,322.0713],[-72.1645,19.3115,312.4984],[-72.1611,19.3089,308.6835],[-72.1513,19.3076,315.8046],[-72.1545,19.3054,309.4668],[-72.1523,19.3044,302.7514],[-72.1517,19.3017,308.1662],[-72.155,19.3008,307.0741],[-72.1548,19.2967,316.7748],[-72.1569,19.2944,320.474],[-72.1515,19.289,331.3702],[-72.1507,19.2845,332.0843],[-72.1586,19.2791,347.5684],[-72.1528,19.2686,361.1903],[-72.1548,19.2588,363.6209],[-72.15,19.2567,363.946],[-72.1421,19.2579,385.0021],[-72.135,19.2549,397.8594],[-72.1246,19.2629,362.9298],[-72.1187,19.2652,349.1931],[-72.1131,19.2644,350.8877],[-72.1079,19.2664,341.5606],[-72.0946,19.2666,281.526],[-72.0939,19.2688,297.4085],[-72.0902,19.2698,293.5565],[-72.0853,19.2765,307.9588],[-72.0814,19.2775,315.7429],[-72.0806,19.2812,330.3818],[-72.0709,19.2852,357.7661],[-72.0699,19.2877,352.1866],[-72.0634,19.2904,361.491],[-72.0563,19.2976,381.4094],[-72.0471,19.3013,403.8538]]]]}
,"properties": {"GID_3": "HTI.7.1.3_1","GID_0": "HTI","country": "Haiti","GID_1": "HTI.7_1","province": "Nord","NL_NAME_1": "NA","GID_2": "HTI.7.1_1","county": "Borgne","NL_NAME_2": "NA","city": "Pignon","VARNAME_3": "NA","NL_NAME_3": "NA","TYPE_3": "Commune","ENGTYPE_3": "Commune","CC_3": "NA","HASC_3": "NA","name": "Pignon.city","area_km2": 144.3757,"hist_schema_id": "Elevation0-9000","hist_area_km2": {"225": 0.1,"250": 0.16,"275": 0.9203,"300": 7.9044,"325": 32.1755,"350": 45.7354,"375": 24.6489,"400": 8.4027,"425": 5.3218,"450": 3.3411,"475": 3.141,"500": 1.8006,"525": 2.1207,"550": 1.9407,"575": 1.7206,"600": 1.6006,"625": 1.1405,"650": 1.4406,"675": 0.5202,"700": 0.2001,"725": 0.04}}}