{"type": "Feature","bbox": [-73.0156,18.1413,-72.6303,18.3269],"geometry": {"type": "MultiPolygon","coordinates": [[[[-72.7579,18.1771,0.7664],[-72.7532,18.1824,2.9945],[-72.7485,18.1835,0.0],[-72.7387,18.1776,0.0],[-72.7312,18.1787,0.0],[-72.7201,18.1743,0.0],[-72.7126,18.1746,1.2144],[-72.7082,18.176,0.0],[-72.7046,18.1804,0.0],[-72.701,18.1818,0.0],[-72.6987,18.1821,23.5422],[-72.6974,18.1799,0.0],[-72.6926,18.179,0.0],[-72.6793,18.1832,0.0],[-72.6776,18.1854,0.0],[-72.6735,18.1868,0.0],[-72.6615,18.1832,0.0],[-72.6554,18.1849,0.0],[-72.6535,18.1874,6.6225],[-72.6504,18.186,0.0],[-72.6457,18.1868,0.0],[-72.6401,18.1913,2.1517],[-72.6362,18.1904,0.1192],[-72.6389,18.1966,16.2756],[-72.6378,18.2015,26.2891],[-72.6398,18.2067,76.9533],[-72.6386,18.2074,67.6323],[-72.6397,18.2142,105.1028],[-72.6416,18.2158,112.2148],[-72.6404,18.2233,178.8648],[-72.6422,18.2247,152.226],[-72.6409,18.2254,201.3196],[-72.6427,18.2254,152.226],[-72.6426,18.2268,148.6092],[-72.6448,18.2258,154.3102],[-72.6475,18.2311,214.0474],[-72.6508,18.2307,196.2373],[-72.6532,18.2361,272.3916],[-72.6507,18.2382,281.2954],[-72.6514,18.2454,345.008],[-72.6459,18.2502,401.2313],[-72.6395,18.2595,584.9298],[-72.6502,18.2642,655.3213],[-72.6482,18.2671,699.7172],[-72.6419,18.2692,634.4814],[-72.6466,18.2755,611.3915],[-72.6482,18.2746,634.1296],[-72.6493,18.2774,559.0729],[-72.6523,18.2767,658.625],[-72.6531,18.2782,589.0017],[-72.6364,18.2855,363.5052],[-72.6303,18.2949,206.1348],[-72.6308,18.2965,165.9044],[-72.6453,18.2993,250.8512],[-72.6484,18.2981,234.2483],[-72.6542,18.2922,333.0246],[-72.655,18.2946,328.8412],[-72.6584,18.2955,332.5049],[-72.6602,18.2952,358.0643],[-72.6603,18.2936,336.6018],[-72.6628,18.2939,359.9038],[-72.6658,18.2973,380.5652],[-72.6718,18.2935,527.912],[-72.6802,18.2919,483.2148],[-72.6906,18.2958,579.415],[-72.6964,18.2896,461.2549],[-72.6988,18.2909,485.5896],[-72.7055,18.2892,593.2933],[-72.7102,18.2937,689.8567],[-72.7087,18.2962,711.2384],[-72.7123,18.2952,750.4915],[-72.7164,18.3029,733.533],[-72.7247,18.3057,890.8835],[-72.7266,18.3108,949.2297],[-72.7378,18.3222,1119.3633],[-72.7437,18.3236,1074.8071],[-72.7403,18.3125,1178.3185],[-72.7415,18.3096,1221.1604],[-72.7401,18.3001,1164.1144],[-72.7416,18.2896,1117.5411],[-72.7436,18.2873,1064.6523],[-72.7496,18.2901,1077.3577],[-72.7536,18.2903,1043.2352],[-72.7558,18.2883,745.6382],[-72.763,18.2786,497.1144],[-72.7636,18.2757,403.013],[-72.7617,18.2749,576.306],[-72.7613,18.2685,376.7112],[-72.7672,18.2666,415.1143],[-72.7784,18.2715,724.6898],[-72.7947,18.2754,580.2025],[-72.8086,18.2867,676.7466],[-72.8223,18.287,386.7111],[-72.8275,18.2893,499.6213],[-72.8314,18.2822,461.8468],[-72.8414,18.283,529.636],[-72.8562,18.2811,549.2155],[-72.856,18.2735,484.707],[-72.8506,18.2633,383.8047],[-72.8505,18.2609,373.6235],[-72.8534,18.2582,248.9865],[-72.8593,18.259,276.5054],[-72.8666,18.2636,541.9391],[-72.8694,18.2671,472.9956],[-72.8755,18.2697,339.3664],[-72.8838,18.2764,460.923],[-72.8831,18.2813,428.915],[-72.8911,18.2824,446.3348],[-72.8949,18.2862,673.5753],[-72.8962,18.2877,740.2732],[-72.8903,18.2923,758.5782],[-72.8897,18.295,736.0692],[-72.8996,18.2915,644.8463],[-72.9135,18.2907,373.7872],[-72.9197,18.2885,361.7497],[-72.9231,18.2898,319.2341],[-72.9295,18.2866,343.338],[-72.9327,18.2876,478.9536],[-72.9348,18.2927,599.7599],[-72.9406,18.2904,735.4565],[-72.9428,18.2943,644.8127],[-72.9529,18.2934,489.4239],[-72.9582,18.2783,338.6384],[-72.9605,18.2769,340.6854],[-72.9646,18.2773,338.543],[-72.9751,18.2877,367.3805],[-72.9775,18.2924,372.8524],[-72.9774,18.2985,379.7563],[-72.9818,18.3009,433.0143],[-72.9841,18.3045,515.4967],[-72.9845,18.3087,526.056],[-72.9868,18.3107,593.2739],[-72.9868,18.3207,708.3911],[-72.9937,18.3269,648.89],[-72.9956,18.326,596.7391],[-72.9967,18.3239,578.9299],[-72.9949,18.3058,560.4194],[-72.998,18.2986,550.6681],[-73.0101,18.2879,409.3107],[-73.0129,18.2792,436.8794],[-73.0131,18.2667,330.4156],[-73.0156,18.261,249.4283],[-73.0134,18.2555,370.0698],[-73.009,18.2523,469.0417],[-73.012,18.2477,449.3692],[-73.0108,18.2426,334.4954],[-73.0088,18.2405,290.2419],[-73.01,18.231,126.3567],[-73.0131,18.2267,76.6246],[-73.0112,18.2226,61.186],[-73.0094,18.2236,77.0369],[-73.0099,18.2199,183.4833],[-73.0072,18.2184,160.7072],[-73.0085,18.2166,59.9161],[-73.0079,18.2121,43.529],[-73.0104,18.2087,108.2497],[-73.0011,18.2074,38.1555],[-73.0023,18.206,41.1991],[-73.0089,18.2068,21.4502],[-73.0091,18.2041,18.9647],[-73.0039,18.1993,13.9413],[-73.0102,18.1932,9.245],[-73.0041,18.1869,0.0],[-73.0035,18.1857,3.1363],[-73.0049,18.1854,0.0],[-73.0026,18.1846,0.0],[-72.9999,18.1785,0.0],[-72.9979,18.1787,0.0],[-72.9954,18.176,0.0],[-72.991,18.1746,0.0],[-72.9662,18.1704,0.0],[-72.9629,18.1668,0.0],[-72.9529,18.166,0.6672],[-72.9471,18.1674,10.1418],[-72.9443,18.1654,0.0],[-72.9357,18.166,2.5836],[-72.9332,18.1646,0.0],[-72.931,18.1671,8.4667],[-72.9279,18.1632,0.0],[-72.9091,18.1577,0.0],[-72.9076,18.1588,18.992],[-72.9065,18.156,3.3436],[-72.9026,18.1571,15.545],[-72.9026,18.1549,5.2407],[-72.8976,18.1518,0.0],[-72.8918,18.1499,0.0],[-72.8863,18.151,12.5977],[-72.8863,18.1487,0.0],[-72.8846,18.1482,0.0],[-72.8788,18.1476,0.0],[-72.8735,18.1493,31.5369],[-72.8729,18.1474,2.5069],[-72.8646,18.1443,0.6258],[-72.8532,18.1429,0.0],[-72.8487,18.1457,0.0],[-72.8482,18.1496,1.9073],[-72.8457,18.1507,15.0013],[-72.8365,18.1493,31.6341],[-72.8304,18.1457,25.5834],[-72.8238,18.144,43.9877],[-72.8226,18.1418,0.0],[-72.8163,18.1413,0.0],[-72.8057,18.1457,1.713],[-72.7929,18.144,3.1043],[-72.786,18.1465,0.0],[-72.7815,18.151,16.8978],[-72.7824,18.1582,6.859],[-72.781,18.1596,1.925],[-72.7763,18.1596,3.4163],[-72.7576,18.1535,0.0],[-72.7479,18.154,4.0194],[-72.7462,18.1571,0.0],[-72.7479,18.161,0.0],[-72.7521,18.1621,0.0],[-72.7565,18.169,0.0],[-72.7601,18.1715,0.0],[-72.7579,18.1771,0.7664]]],
[[[-73.0074,18.1863,0.3818],[-73.0068,18.1857,0.3818],[-73.0052,18.1857,0.0],[-73.0088,18.1868,0.0],[-73.0074,18.1863,0.3818]]]]}
,"properties": {"GID_2": "HTI.9.1_1","GID_0": "HTI","country": "Haiti","GID_1": "HTI.9_1","province": "Sud-Est","NL_NAME_1": "NA","county": "Bainet","VARNAME_2": "NA","NL_NAME_2": "NA","TYPE_2": "Arrondissement","ENGTYPE_2": "District","CC_2": "NA","HASC_2": "HT.SE.BT","name": "Bainet.county","area_km2": 535.5622,"hist_schema_id": "Elevation0-9000","hist_area_km2": {"0": 8.884,"25": 18.8755,"50": 13.8791,"75": 16.0341,"100": 18.612,"125": 25.6613,"150": 25.3178,"175": 24.9748,"200": 27.9144,"225": 26.6449,"250": 26.6643,"275": 26.2409,"300": 23.7832,"325": 23.7828,"350": 22.2318,"375": 21.708,"400": 21.1843,"425": 21.8282,"450": 18.888,"475": 16.8537,"500": 13.712,"525": 11.7585,"550": 11.3555,"575": 10.5903,"600": 8.6976,"625": 8.1538,"650": 7.1874,"675": 5.9995,"700": 5.0936,"725": 4.8319,"750": 3.7648,"775": 2.6173,"800": 1.8522,"825": 1.2482,"850": 0.6845,"875": 0.5234,"900": 0.5435,"925": 0.4026,"950": 0.5637,"975": 0.4831,"1000": 0.7247,"1025": 0.5032,"1050": 0.624,"1075": 1.0065,"1100": 0.8253,"1125": 0.4227,"1150": 0.4026,"1175": 0.7247,"1200": 0.2013,"1225": 0.1006}}}